{
"type": "FeatureCollection",
"name": "daily_2025-11-14",
"crs": { "type": "name", "properties": { "name": "urn:ogc:def:crs:OGC:1.3:CRS84" } },
"features": [
{ "type": "Feature", "properties": { "hex_id": 55402, "centroid_lon": -73.88125811803117, "centroid_lat": 45.663594294299315, "count": 4, "date": "2025-11-14", "n_files": 20, "hours_affected": "14,15", "datetimes_affected": "2025-11-14 14:00,2025-11-14 15:00" }, "geometry": { "type": "Polygon", "coordinates": [ [ [ -73.8748929, 45.6609334 ], [ -73.8747888, 45.6661291 ], [ -73.8811546, 45.66879 ], [ -73.8876239, 45.6662548 ], [ -73.8877268, 45.6610591 ], [ -73.8813616, 45.6583986 ], [ -73.8748929, 45.6609334 ] ] ] } },
{ "type": "Feature", "properties": { "hex_id": 55720, "centroid_lon": -73.874996994828678, "centroid_lat": 45.655737777875842, "count": 4, "date": "2025-11-14", "n_files": 20, "hours_affected": "14,15", "datetimes_affected": "2025-11-14 14:00,2025-11-14 15:00" }, "geometry": { "type": "Polygon", "coordinates": [ [ [ -73.868633, 45.6530766 ], [ -73.8685284, 45.6582722 ], [ -73.8748929, 45.6609334 ], [ -73.8813616, 45.6583986 ], [ -73.8814651, 45.653203 ], [ -73.875101, 45.6505421 ], [ -73.868633, 45.6530766 ] ] ] } },
{ "type": "Feature", "properties": { "hex_id": 56038, "centroid_lon": -73.86842367889426, "centroid_lat": 45.663467877430463, "count": 4, "date": "2025-11-14", "n_files": 20, "hours_affected": "14,15", "datetimes_affected": "2025-11-14 14:00,2025-11-14 15:00" }, "geometry": { "type": "Polygon", "coordinates": [ [ [ -73.8620591, 45.6608063 ], [ -73.8619538, 45.6660019 ], [ -73.868319, 45.6686635 ], [ -73.8747888, 45.6661291 ], [ -73.8748929, 45.6609334 ], [ -73.8685284, 45.6582722 ], [ -73.8620591, 45.6608063 ] ] ] } },
{ "type": "Feature", "properties": { "hex_id": 73533, "centroid_lon": -73.513656541659245, "centroid_lat": 45.729557501168813, "count": 1, "date": "2025-11-14", "n_files": 20, "hours_affected": "23", "datetimes_affected": "2025-11-14 23:00" }, "geometry": { "type": "Polygon", "coordinates": [ [ [ -73.5073019, 45.7268763 ], [ -73.5071635, 45.7320711 ], [ -73.5135187, 45.7347523 ], [ -73.5200118, 45.7322383 ], [ -73.520149, 45.7270435 ], [ -73.5137943, 45.7243627 ], [ -73.5073019, 45.7268763 ] ] ] } },
{ "type": "Feature", "properties": { "hex_id": 74169, "centroid_lon": -73.5008088950012, "centroid_lat": 45.72938960341942, "count": 1, "date": "2025-11-14", "n_files": 20, "hours_affected": "23", "datetimes_affected": "2025-11-14 23:00" }, "geometry": { "type": "Polygon", "coordinates": [ [ [ -73.4944549, 45.7267077 ], [ -73.4943153, 45.7319025 ], [ -73.5006699, 45.7345844 ], [ -73.5071635, 45.7320711 ], [ -73.5073019, 45.7268763 ], [ -73.5009479, 45.7241948 ], [ -73.4944549, 45.7267077 ] ] ] } },
{ "type": "Feature", "properties": { "hex_id": 74481, "centroid_lon": -73.496683367169837, "centroid_lat": 45.643590195153813, "count": 1, "date": "2025-11-14", "n_files": 20, "hours_affected": "14", "datetimes_affected": "2025-11-14 14:00" }, "geometry": { "type": "Polygon", "coordinates": [ [ [ -73.4903392, 45.6409082 ], [ -73.4901996, 45.646103 ], [ -73.4965444, 45.6487851 ], [ -73.5030282, 45.6462719 ], [ -73.5031665, 45.641077 ], [ -73.4968223, 45.6383953 ], [ -73.4903392, 45.6409082 ] ] ] } },
{ "type": "Feature", "properties": { "hex_id": 115164, "centroid_lon": -72.689382095027952, "centroid_lat": 45.30270453168275, "count": 2, "date": "2025-11-14", "n_files": 20, "hours_affected": "18", "datetimes_affected": "2025-11-14 18:00" }, "geometry": { "type": "Polygon", "coordinates": [ [ [ -72.6831155, 45.299979 ], [ -72.6829039, 45.3051717 ], [ -72.689171, 45.3078973 ], [ -72.6956493, 45.3054297 ], [ -72.6958598, 45.3002369 ], [ -72.6895931, 45.2975118 ], [ -72.6831155, 45.299979 ] ] ] } },
{ "type": "Feature", "properties": { "hex_id": 115483, "centroid_lon": -72.682692184203702, "centroid_lat": 45.310364462251968, "count": 2, "date": "2025-11-14", "n_files": 20, "hours_affected": "18", "datetimes_affected": "2025-11-14 18:00" }, "geometry": { "type": "Polygon", "coordinates": [ [ [ -72.6764251, 45.3076386 ], [ -72.6762128, 45.3128313 ], [ -72.6824804, 45.3155572 ], [ -72.6889599, 45.31309 ], [ -72.689171, 45.3078973 ], [ -72.6829039, 45.3051717 ], [ -72.6764251, 45.3076386 ] ] ] } },
{ "type": "Feature", "properties": { "hex_id": 115800, "centroid_lon": -72.676637335921882, "centroid_lat": 45.30244585183695, "count": 2, "date": "2025-11-14", "n_files": 20, "hours_affected": "18", "datetimes_affected": "2025-11-14 18:00" }, "geometry": { "type": "Polygon", "coordinates": [ [ [ -72.6703714, 45.2997196 ], [ -72.6701586, 45.3049123 ], [ -72.6764251, 45.3076386 ], [ -72.6829039, 45.3051717 ], [ -72.6831155, 45.299979 ], [ -72.6768495, 45.2972531 ], [ -72.6703714, 45.2997196 ] ] ] } },
{ "type": "Feature", "properties": { "hex_id": 128515, "centroid_lon": -72.425304048422973, "centroid_lat": 45.219097421490623, "count": 2, "date": "2025-11-14", "n_files": 20, "hours_affected": "14", "datetimes_affected": "2025-11-14 14:00" }, "geometry": { "type": "Polygon", "coordinates": [ [ [ -72.4190598, 45.2163578 ], [ -72.4188247, 45.2215496 ], [ -72.4250695, 45.2242892 ], [ -72.4315489, 45.2218367 ], [ -72.4317828, 45.2166448 ], [ -72.4255385, 45.2139056 ], [ -72.4190598, 45.2163578 ] ] ] } },
{ "type": "Feature", "properties": { "hex_id": 130416, "centroid_lon": -72.392116406596472, "centroid_lat": 45.109203996134504, "count": 2, "date": "2025-11-14", "n_files": 20, "hours_affected": "14", "datetimes_affected": "2025-11-14 14:00" }, "geometry": { "type": "Polygon", "coordinates": [ [ [ -72.3858856, 45.1064629 ], [ -72.3856484, 45.1116546 ], [ -72.3918798, 45.1143958 ], [ -72.3983479, 45.1119448 ], [ -72.3985839, 45.106753 ], [ -72.392353, 45.1040122 ], [ -72.3858856, 45.1064629 ] ] ] } },
{ "type": "Feature", "properties": { "hex_id": 130734, "centroid_lon": -72.38612265619328, "centroid_lat": 45.101271106425479, "count": 2, "date": "2025-11-14", "n_files": 20, "hours_affected": "14", "datetimes_affected": "2025-11-14 14:00" }, "geometry": { "type": "Polygon", "coordinates": [ [ [ -72.379893, 45.0985297 ], [ -72.3796553, 45.1037214 ], [ -72.3858856, 45.1064629 ], [ -72.392353, 45.1040122 ], [ -72.3925894, 45.0988204 ], [ -72.3863597, 45.0960793 ], [ -72.379893, 45.0985297 ] ] ] } },
{ "type": "Feature", "properties": { "hex_id": 130735, "centroid_lon": -72.385411184896356, "centroid_lat": 45.116846348884195, "count": 2, "date": "2025-11-14", "n_files": 20, "hours_affected": "14", "datetimes_affected": "2025-11-14 14:00" }, "geometry": { "type": "Polygon", "coordinates": [ [ [ -72.3791799, 45.1141048 ], [ -72.378942, 45.1192966 ], [ -72.3851739, 45.1220381 ], [ -72.3916431, 45.1195875 ], [ -72.3918798, 45.1143958 ], [ -72.3856484, 45.1116546 ], [ -72.3791799, 45.1141048 ] ] ] } },
{ "type": "Feature", "properties": { "hex_id": 131052, "centroid_lon": -72.379417627712769, "centroid_lat": 45.108913119414382, "count": 2, "date": "2025-11-14", "n_files": 20, "hours_affected": "14", "datetimes_affected": "2025-11-14 14:00" }, "geometry": { "type": "Polygon", "coordinates": [ [ [ -72.3731875, 45.1061713 ], [ -72.372949100000014, 45.111363 ], [ -72.3791799, 45.1141048 ], [ -72.3856484, 45.1116546 ], [ -72.3858856, 45.1064629 ], [ -72.3796553, 45.1037214 ], [ -72.3731875, 45.1061713 ] ] ] } },
{ "type": "Feature", "properties": { "hex_id": 131053, "centroid_lon": -72.378704142632088, "centroid_lat": 45.124488257477346, "count": 2, "date": "2025-11-14", "n_files": 20, "hours_affected": "14", "datetimes_affected": "2025-11-14 14:00" }, "geometry": { "type": "Polygon", "coordinates": [ [ [ -72.3724723, 45.1217464 ], [ -72.3722338, 45.126938 ], [ -72.3784662, 45.12968 ], [ -72.3849365, 45.1272298 ], [ -72.3851739, 45.1220381 ], [ -72.378942, 45.1192966 ], [ -72.3724723, 45.1217464 ] ] ] } },
{ "type": "Feature", "properties": { "hex_id": 131370, "centroid_lon": -72.373425696843995, "centroid_lat": 45.100979603174281, "count": 2, "date": "2025-11-14", "n_files": 20, "hours_affected": "14", "datetimes_affected": "2025-11-14 14:00" }, "geometry": { "type": "Polygon", "coordinates": [ [ [ -72.3671967, 45.0982375 ], [ -72.3669579, 45.1034292 ], [ -72.3731875, 45.1061713 ], [ -72.3796553, 45.1037214 ], [ -72.379893, 45.0985297 ], [ -72.3736639, 45.0957879 ], [ -72.3671967, 45.0982375 ] ] ] } },
{ "type": "Feature", "properties": { "hex_id": 131371, "centroid_lon": -72.372710779231184, "centroid_lat": 45.116554688170595, "count": 2, "date": "2025-11-14", "n_files": 20, "hours_affected": "14", "datetimes_affected": "2025-11-14 14:00" }, "geometry": { "type": "Polygon", "coordinates": [ [ [ -72.3664801, 45.1138125 ], [ -72.3662412, 45.1190042 ], [ -72.3724723, 45.1217464 ], [ -72.378942, 45.1192966 ], [ -72.3791799, 45.1141048 ], [ -72.372949100000014, 45.111363 ], [ -72.3664801, 45.1138125 ] ] ] } },
{ "type": "Feature", "properties": { "hex_id": 131688, "centroid_lon": -72.366719042515342, "centroid_lat": 45.10862083220519, "count": 2, "date": "2025-11-14", "n_files": 20, "hours_affected": "14", "datetimes_affected": "2025-11-14 14:00" }, "geometry": { "type": "Polygon", "coordinates": [ [ [ -72.3604895, 45.1058783 ], [ -72.3602501, 45.11107 ], [ -72.3664801, 45.1138125 ], [ -72.372949100000014, 45.111363 ], [ -72.3731875, 45.1061713 ], [ -72.3669579, 45.1034292 ], [ -72.3604895, 45.1058783 ] ] ] } },
{ "type": "Feature", "properties": { "hex_id": 131689, "centroid_lon": -72.366002109815, "centroid_lat": 45.124195812383171, "count": 2, "date": "2025-11-14", "n_files": 20, "hours_affected": "14", "datetimes_affected": "2025-11-14 14:00" }, "geometry": { "type": "Polygon", "coordinates": [ [ [ -72.359771, 45.1214532 ], [ -72.3595313, 45.1266449 ], [ -72.365763, 45.1293875 ], [ -72.3722338, 45.126938 ], [ -72.3724723, 45.1217464 ], [ -72.3662412, 45.1190042 ], [ -72.359771, 45.1214532 ] ] ] } },
{ "type": "Feature", "properties": { "hex_id": 132006, "centroid_lon": -72.360728931551108, "centroid_lat": 45.100686689842561, "count": 2, "date": "2025-11-14", "n_files": 20, "hours_affected": "14", "datetimes_affected": "2025-11-14 14:00" }, "geometry": { "type": "Polygon", "coordinates": [ [ [ -72.3545006, 45.0979439 ], [ -72.3542606, 45.1031355 ], [ -72.3604895, 45.1058783 ], [ -72.3669579, 45.1034292 ], [ -72.3671967, 45.0982375 ], [ -72.3609683, 45.095495 ], [ -72.3545006, 45.0979439 ] ] ] } },
{ "type": "Feature", "properties": { "hex_id": 132007, "centroid_lon": -72.360010567815564, "centroid_lat": 45.116261616616406, "count": 2, "date": "2025-11-14", "n_files": 20, "hours_affected": "14", "datetimes_affected": "2025-11-14 14:00" }, "geometry": { "type": "Polygon", "coordinates": [ [ [ -72.3537806, 45.1135187 ], [ -72.3535405, 45.1187104 ], [ -72.359771, 45.1214532 ], [ -72.3662412, 45.1190042 ], [ -72.3664801, 45.1138125 ], [ -72.3602501, 45.11107 ], [ -72.3537806, 45.1135187 ] ] ] } },
{ "type": "Feature", "properties": { "hex_id": 132008, "centroid_lon": -72.359291618530278, "centroid_lat": 45.131836491740955, "count": 2, "date": "2025-11-14", "n_files": 20, "hours_affected": "14", "datetimes_affected": "2025-11-14 14:00" }, "geometry": { "type": "Polygon", "coordinates": [ [ [ -72.35306, 45.1290936 ], [ -72.3528197, 45.1342851 ], [ -72.3590518, 45.1370281 ], [ -72.3655238, 45.134579099999989 ], [ -72.365763, 45.1293875 ], [ -72.3595313, 45.1266449 ], [ -72.35306, 45.1290936 ] ] ] } },
{ "type": "Feature", "properties": { "hex_id": 132324, "centroid_lon": -72.354020651937475, "centroid_lat": 45.108327134564107, "count": 2, "date": "2025-11-14", "n_files": 20, "hours_affected": "14", "datetimes_affected": "2025-11-14 14:00" }, "geometry": { "type": "Polygon", "coordinates": [ [ [ -72.3477918, 45.105584 ], [ -72.3475512, 45.1107756 ], [ -72.3537806, 45.1135187 ], [ -72.3602501, 45.11107 ], [ -72.3604895, 45.1058783 ], [ -72.3542606, 45.1031355 ], [ -72.3477918, 45.105584 ] ] ] } },
{ "type": "Feature", "properties": { "hex_id": 132325, "centroid_lon": -72.353300271811221, "centroid_lat": 45.123901956096852, "count": 2, "date": "2025-11-14", "n_files": 20, "hours_affected": "14", "datetimes_affected": "2025-11-14 14:00" }, "geometry": { "type": "Polygon", "coordinates": [ [ [ -72.3470698, 45.1211587 ], [ -72.346829, 45.1263503 ], [ -72.35306, 45.1290936 ], [ -72.3595313, 45.1266449 ], [ -72.359771, 45.1214532 ], [ -72.3535405, 45.1187104 ], [ -72.3470698, 45.1211587 ] ] ] } },
{ "type": "Feature", "properties": { "hex_id": 132642, "centroid_lon": -72.348032361247348, "centroid_lat": 45.10039236648759, "count": 2, "date": "2025-11-14", "n_files": 20, "hours_affected": "14", "datetimes_affected": "2025-11-14 14:00" }, "geometry": { "type": "Polygon", "coordinates": [ [ [ -72.3418047, 45.0976489 ], [ -72.3415636, 45.1028405 ], [ -72.3477918, 45.105584 ], [ -72.3542606, 45.1031355 ], [ -72.3545006, 45.0979439 ], [ -72.348272800000018, 45.0952008 ], [ -72.3418047, 45.0976489 ] ] ] } },
{ "type": "Feature", "properties": { "hex_id": 132643, "centroid_lon": -72.347310551583163, "centroid_lat": 45.115967134278947, "count": 2, "date": "2025-11-14", "n_files": 20, "hours_affected": "14", "datetimes_affected": "2025-11-14 14:00" }, "geometry": { "type": "Polygon", "coordinates": [ [ [ -72.3410812, 45.1132236 ], [ -72.34084, 45.1184151 ], [ -72.3470698, 45.1211587 ], [ -72.3535405, 45.1187104 ], [ -72.3537806, 45.1135187 ], [ -72.3475512, 45.1107756 ], [ -72.3410812, 45.1132236 ] ] ] } },
{ "type": "Feature", "properties": { "hex_id": 147635, "centroid_lon": -72.010858223533901, "centroid_lat": 45.8326239334449, "count": 14, "date": "2025-11-14", "n_files": 20, "hours_affected": "14,15,16,17,18", "datetimes_affected": "2025-11-14 14:00,2025-11-14 15:00,2025-11-14 16:00,2025-11-14 17:00,2025-11-14 18:00" }, "geometry": { "type": "Polygon", "coordinates": [ [ [ -72.0045685, 45.8298607 ], [ -72.0042898, 45.8350501 ], [ -72.0105801, 45.8378134 ], [ -72.017148600000013, 45.8353868 ], [ -72.0174261, 45.8301974 ], [ -72.0111362, 45.8274345 ], [ -72.0045685, 45.8298607 ] ] ] } },
{ "type": "Feature", "properties": { "hex_id": 147952, "centroid_lon": -72.005682353509329, "centroid_lat": 45.80910309015696, "count": 14, "date": "2025-11-14", "n_files": 20, "hours_affected": "14,15,16,17,18", "datetimes_affected": "2025-11-14 14:00,2025-11-14 15:00,2025-11-14 16:00,2025-11-14 17:00,2025-11-14 18:00" }, "geometry": { "type": "Polygon", "coordinates": [ [ [ -71.9993955, 45.8063397 ], [ -71.9991166, 45.811529 ], [ -72.005404, 45.8142925 ], [ -72.0119699, 45.8118662 ], [ -72.0122476, 45.8066767 ], [ -72.0059606, 45.8039137 ], [ -71.9993955, 45.8063397 ] ] ] } },
{ "type": "Feature", "properties": { "hex_id": 147953, "centroid_lon": -72.004847060602145, "centroid_lat": 45.824671322049845, "count": 14, "date": "2025-11-14", "n_files": 20, "hours_affected": "14,15,16,17,18", "datetimes_affected": "2025-11-14 14:00,2025-11-14 15:00,2025-11-14 16:00,2025-11-14 17:00,2025-11-14 18:00" }, "geometry": { "type": "Polygon", "coordinates": [ [ [ -71.9985585, 45.8219078 ], [ -71.9982794, 45.8270972 ], [ -72.0045685, 45.8298607 ], [ -72.0111362, 45.8274345 ], [ -72.0114142, 45.8222451 ], [ -72.0051256, 45.8194819 ], [ -71.9985585, 45.8219078 ] ] ] } },
{ "type": "Feature", "properties": { "hex_id": 147954, "centroid_lon": -72.004011081231127, "centroid_lat": 45.840239499475146, "count": 14, "date": "2025-11-14", "n_files": 20, "hours_affected": "14,15,16,17,18", "datetimes_affected": "2025-11-14 14:00,2025-11-14 15:00,2025-11-14 16:00,2025-11-14 17:00,2025-11-14 18:00" }, "geometry": { "type": "Polygon", "coordinates": [ [ [ -71.9977209, 45.8374759 ], [ -71.9974415, 45.8426653 ], [ -72.0037323, 45.8454289 ], [ -72.0103019, 45.8430028 ], [ -72.0105801, 45.8378134 ], [ -72.0042898, 45.8350501 ], [ -71.9977209, 45.8374759 ] ] ] } },
{ "type": "Feature", "properties": { "hex_id": 148269, "centroid_lon": -71.999674305481335, "centroid_lat": 45.801150258958558, "count": 14, "date": "2025-11-14", "n_files": 20, "hours_affected": "14,15,16,17,18", "datetimes_affected": "2025-11-14 14:00,2025-11-14 15:00,2025-11-14 16:00,2025-11-14 17:00,2025-11-14 18:00" }, "geometry": { "type": "Polygon", "coordinates": [ [ [ -71.9933886, 45.7983865 ], [ -71.9931092, 45.8035759 ], [ -71.9993955, 45.8063397 ], [ -72.0059606, 45.8039137 ], [ -72.0062388, 45.7987242 ], [ -71.9999531, 45.7959609 ], [ -71.9933886, 45.7983865 ] ] ] } },
{ "type": "Feature", "properties": { "hex_id": 148270, "centroid_lon": -71.998837570147856, "centroid_lat": 45.816718426960719, "count": 14, "date": "2025-11-14", "n_files": 20, "hours_affected": "14,15,16,17,18", "datetimes_affected": "2025-11-14 14:00,2025-11-14 15:00,2025-11-14 16:00,2025-11-14 17:00,2025-11-14 18:00" }, "geometry": { "type": "Polygon", "coordinates": [ [ [ -71.9925502, 45.8139546 ], [ -71.9922706, 45.819144 ], [ -71.9985585, 45.8219078 ], [ -72.0051256, 45.8194819 ], [ -72.005404, 45.8142925 ], [ -71.9991166, 45.811529 ], [ -71.9925502, 45.8139546 ] ] ] } },
{ "type": "Feature", "properties": { "hex_id": 148271, "centroid_lon": -71.99800014723661, "centroid_lat": 45.832286540451058, "count": 14, "date": "2025-11-14", "n_files": 20, "hours_affected": "14,15,16,17,18", "datetimes_affected": "2025-11-14 14:00,2025-11-14 15:00,2025-11-14 16:00,2025-11-14 17:00,2025-11-14 18:00" }, "geometry": { "type": "Polygon", "coordinates": [ [ [ -71.9917111, 45.8295226 ], [ -71.9914313, 45.834712 ], [ -71.9977209, 45.8374759 ], [ -72.0042898, 45.8350501 ], [ -72.0045685, 45.8298607 ], [ -71.9982794, 45.8270972 ], [ -71.9917111, 45.8295226 ] ] ] } },
{ "type": "Feature", "properties": { "hex_id": 148587, "centroid_lon": -71.993667927611284, "centroid_lat": 45.793197144476977, "count": 14, "date": "2025-11-14", "n_files": 20, "hours_affected": "14,15,16,17,18", "datetimes_affected": "2025-11-14 14:00,2025-11-14 15:00,2025-11-14 16:00,2025-11-14 17:00,2025-11-14 18:00" }, "geometry": { "type": "Polygon", "coordinates": [ [ [ -71.9873834, 45.7904331 ], [ -71.9871036, 45.7956224 ], [ -71.9933886, 45.7983865 ], [ -71.9999531, 45.7959609 ], [ -72.0002317, 45.7907715 ], [ -71.9939472, 45.7880078 ], [ -71.9873834, 45.7904331 ] ] ] } },
{ "type": "Feature", "properties": { "hex_id": 148588, "centroid_lon": -71.992829751196354, "centroid_lat": 45.808765248441397, "count": 14, "date": "2025-11-14", "n_files": 20, "hours_affected": "14,15,16,17,18", "datetimes_affected": "2025-11-14 14:00,2025-11-14 15:00,2025-11-14 16:00,2025-11-14 17:00,2025-11-14 18:00" }, "geometry": { "type": "Polygon", "coordinates": [ [ [ -71.9865436, 45.8060011 ], [ -71.9862635, 45.8111904 ], [ -71.9925502, 45.8139546 ], [ -71.9991166, 45.811529 ], [ -71.9993955, 45.8063397 ], [ -71.9931092, 45.8035759 ], [ -71.9865436, 45.8060011 ] ] ] } },
{ "type": "Feature", "properties": { "hex_id": 148589, "centroid_lon": -71.991990886091045, "centroid_lat": 45.824333297849648, "count": 14, "date": "2025-11-14", "n_files": 20, "hours_affected": "14,15,16,17,18", "datetimes_affected": "2025-11-14 14:00,2025-11-14 15:00,2025-11-14 16:00,2025-11-14 17:00,2025-11-14 18:00" }, "geometry": { "type": "Polygon", "coordinates": [ [ [ -71.985703, 45.8215691 ], [ -71.9854227, 45.8267584 ], [ -71.9917111, 45.8295226 ], [ -71.9982794, 45.8270972 ], [ -71.9985585, 45.8219078 ], [ -71.9922706, 45.819144 ], [ -71.985703, 45.8215691 ] ] ] } },
{ "type": "Feature", "properties": { "hex_id": 148590, "centroid_lon": -71.99115133159718, "centroid_lat": 45.839901292689476, "count": 14, "date": "2025-11-14", "n_files": 20, "hours_affected": "14,15,16,17,18", "datetimes_affected": "2025-11-14 14:00,2025-11-14 15:00,2025-11-14 16:00,2025-11-14 17:00,2025-11-14 18:00" }, "geometry": { "type": "Polygon", "coordinates": [ [ [ -71.9848618, 45.837137 ], [ -71.9845813, 45.8423263 ], [ -71.9908713, 45.8450906 ], [ -71.9974415, 45.8426653 ], [ -71.9977209, 45.8374759 ], [ -71.9914313, 45.834712 ], [ -71.9848618, 45.837137 ] ] ] } },
{ "type": "Feature", "properties": { "hex_id": 148905, "centroid_lon": -71.986823602773512, "centroid_lat": 45.80081178675556, "count": 14, "date": "2025-11-14", "n_files": 20, "hours_affected": "14,15,16,17,18", "datetimes_affected": "2025-11-14 14:00,2025-11-14 15:00,2025-11-14 16:00,2025-11-14 17:00,2025-11-14 18:00" }, "geometry": { "type": "Polygon", "coordinates": [ [ [ -71.9805386, 45.7980474 ], [ -71.980258, 45.8032367 ], [ -71.9865436, 45.8060011 ], [ -71.9931092, 45.8035759 ], [ -71.9933886, 45.7983865 ], [ -71.9871036, 45.7956224 ], [ -71.9805386, 45.7980474 ] ] ] } },
{ "type": "Feature", "properties": { "hex_id": 148906, "centroid_lon": -71.985983296819299, "centroid_lat": 45.816379771934734, "count": 14, "date": "2025-11-14", "n_files": 20, "hours_affected": "14,15,16,17,18", "datetimes_affected": "2025-11-14 14:00,2025-11-14 15:00,2025-11-14 16:00,2025-11-14 17:00,2025-11-14 18:00" }, "geometry": { "type": "Polygon", "coordinates": [ [ [ -71.9796966, 45.8136153 ], [ -71.9794158, 45.8188045 ], [ -71.985703, 45.8215691 ], [ -71.9922706, 45.819144 ], [ -71.9925502, 45.8139546 ], [ -71.9862635, 45.8111904 ], [ -71.9796966, 45.8136153 ] ] ] } },
{ "type": "Feature", "properties": { "hex_id": 148907, "centroid_lon": -71.985142300364259, "centroid_lat": 45.831947702501104, "count": 14, "date": "2025-11-14", "n_files": 20, "hours_affected": "14,15,16,17,18", "datetimes_affected": "2025-11-14 14:00,2025-11-14 15:00,2025-11-14 16:00,2025-11-14 17:00,2025-11-14 18:00" }, "geometry": { "type": "Polygon", "coordinates": [ [ [ -71.978854, 45.8291831 ], [ -71.9785729, 45.8343724 ], [ -71.9848618, 45.837137 ], [ -71.9914313, 45.834712 ], [ -71.9917111, 45.8295226 ], [ -71.9854227, 45.8267584 ], [ -71.978854, 45.8291831 ] ] ] } },
{ "type": "Feature", "properties": { "hex_id": 149223, "centroid_lon": -71.980819123905746, "centroid_lat": 45.792858042166785, "count": 14, "date": "2025-11-14", "n_files": 20, "hours_affected": "14,15,16,17,18", "datetimes_affected": "2025-11-14 14:00,2025-11-14 15:00,2025-11-14 16:00,2025-11-14 17:00,2025-11-14 18:00" }, "geometry": { "type": "Polygon", "coordinates": [ [ [ -71.9745353, 45.7900933 ], [ -71.9742543, 45.7952826 ], [ -71.9805386, 45.7980474 ], [ -71.9871036, 45.7956224 ], [ -71.9873834, 45.7904331 ], [ -71.9810996, 45.7876687 ], [ -71.9745353, 45.7900933 ] ] ] } },
{ "type": "Feature", "properties": { "hex_id": 149224, "centroid_lon": -71.979977378446819, "centroid_lat": 45.808425962970063, "count": 14, "date": "2025-11-14", "n_files": 20, "hours_affected": "14,15,16,17,18", "datetimes_affected": "2025-11-14 14:00,2025-11-14 15:00,2025-11-14 16:00,2025-11-14 17:00,2025-11-14 18:00" }, "geometry": { "type": "Polygon", "coordinates": [ [ [ -71.9736919, 45.8056611 ], [ -71.9734106, 45.8108504 ], [ -71.9796966, 45.8136153 ], [ -71.9862635, 45.8111904 ], [ -71.9865436, 45.8060011 ], [ -71.980258, 45.8032367 ], [ -71.9736919, 45.8056611 ] ] ] } },
{ "type": "Feature", "properties": { "hex_id": 149225, "centroid_lon": -71.979134941376088, "centroid_lat": 45.823993829116048, "count": 14, "date": "2025-11-14", "n_files": 20, "hours_affected": "14,15,16,17,18", "datetimes_affected": "2025-11-14 14:00,2025-11-14 15:00,2025-11-14 16:00,2025-11-14 17:00,2025-11-14 18:00" }, "geometry": { "type": "Polygon", "coordinates": [ [ [ -71.9728478, 45.8212289 ], [ -71.9725663, 45.8264182 ], [ -71.978854, 45.8291831 ], [ -71.9854227, 45.8267584 ], [ -71.985703, 45.8215691 ], [ -71.9794158, 45.8188045 ], [ -71.9728478, 45.8212289 ] ] ] } },
{ "type": "Feature", "properties": { "hex_id": 149226, "centroid_lon": -71.978291811992435, "centroid_lat": 45.839561640592365, "count": 14, "date": "2025-11-14", "n_files": 20, "hours_affected": "14,15,16,17,18", "datetimes_affected": "2025-11-14 14:00,2025-11-14 15:00,2025-11-14 16:00,2025-11-14 17:00,2025-11-14 18:00" }, "geometry": { "type": "Polygon", "coordinates": [ [ [ -71.972003, 45.8367967 ], [ -71.971721300000013, 45.8419859 ], [ -71.9780106, 45.8447509 ], [ -71.9845813, 45.8423263 ], [ -71.9848618, 45.837137 ], [ -71.9785729, 45.8343724 ], [ -71.972003, 45.8367967 ] ] ] } },
{ "type": "Feature", "properties": { "hex_id": 149541, "centroid_lon": -71.973973129999578, "centroid_lat": 45.800471871219173, "count": 14, "date": "2025-11-14", "n_files": 20, "hours_affected": "14,15,16,17,18", "datetimes_affected": "2025-11-14 14:00,2025-11-14 15:00,2025-11-14 16:00,2025-11-14 17:00,2025-11-14 18:00" }, "geometry": { "type": "Polygon", "coordinates": [ [ [ -71.9676889, 45.7977067 ], [ -71.9674071, 45.802896 ], [ -71.9736919, 45.8056611 ], [ -71.980258, 45.8032367 ], [ -71.9805386, 45.7980474 ], [ -71.9742543, 45.7952826 ], [ -71.9676889, 45.7977067 ] ] ] } },
{ "type": "Feature", "properties": { "hex_id": 149542, "centroid_lon": -71.97312925365766, "centroid_lat": 45.816039672797984, "count": 14, "date": "2025-11-14", "n_files": 20, "hours_affected": "14,15,16,17,18", "datetimes_affected": "2025-11-14 14:00,2025-11-14 15:00,2025-11-14 16:00,2025-11-14 17:00,2025-11-14 18:00" }, "geometry": { "type": "Polygon", "coordinates": [ [ [ -71.9668433, 45.8132745 ], [ -71.9665613, 45.8184637 ], [ -71.9728478, 45.8212289 ], [ -71.9794158, 45.8188045 ], [ -71.9796966, 45.8136153 ], [ -71.9734106, 45.8108504 ], [ -71.9668433, 45.8132745 ] ] ] } },
{ "type": "Feature", "properties": { "hex_id": 149543, "centroid_lon": -71.972284683892198, "centroid_lat": 45.831607419662582, "count": 14, "date": "2025-11-14", "n_files": 20, "hours_affected": "14,15,16,17,18", "datetimes_affected": "2025-11-14 14:00,2025-11-14 15:00,2025-11-14 16:00,2025-11-14 17:00,2025-11-14 18:00" }, "geometry": { "type": "Polygon", "coordinates": [ [ [ -71.9659971, 45.8288421 ], [ -71.9657148, 45.8340313 ], [ -71.972003, 45.8367967 ], [ -71.9785729, 45.8343724 ], [ -71.978854, 45.8291831 ], [ -71.9725663, 45.8264182 ], [ -71.9659971, 45.8288421 ] ] ] } },
{ "type": "Feature", "properties": { "hex_id": 149859, "centroid_lon": -71.967970550504077, "centroid_lat": 45.792517496945528, "count": 14, "date": "2025-11-14", "n_files": 20, "hours_affected": "14,15,16,17,18", "datetimes_affected": "2025-11-14 14:00,2025-11-14 15:00,2025-11-14 16:00,2025-11-14 17:00,2025-11-14 18:00" }, "geometry": { "type": "Polygon", "coordinates": [ [ [ -71.9616875, 45.7897521 ], [ -71.9614052, 45.7949413 ], [ -71.9676889, 45.7977067 ], [ -71.9742543, 45.7952826 ], [ -71.9745353, 45.7900933 ], [ -71.9682522, 45.7873282 ], [ -71.9616875, 45.7897521 ] ] ] } },
{ "type": "Feature", "properties": { "hex_id": 149860, "centroid_lon": -71.967125236234523, "centroid_lat": 45.808085233810537, "count": 14, "date": "2025-11-14", "n_files": 20, "hours_affected": "14,15,16,17,18", "datetimes_affected": "2025-11-14 14:00,2025-11-14 15:00,2025-11-14 16:00,2025-11-14 17:00,2025-11-14 18:00" }, "geometry": { "type": "Polygon", "coordinates": [ [ [ -71.9608405, 45.8053197 ], [ -71.960558, 45.8105089 ], [ -71.9668433, 45.8132745 ], [ -71.9734106, 45.8108504 ], [ -71.9736919, 45.8056611 ], [ -71.9674071, 45.802896 ], [ -71.9608405, 45.8053197 ] ] ] } },
{ "type": "Feature", "properties": { "hex_id": 149861, "centroid_lon": -71.966279227432054, "centroid_lat": 45.823652915916682, "count": 14, "date": "2025-11-14", "n_files": 20, "hours_affected": "14,15,16,17,18", "datetimes_affected": "2025-11-14 14:00,2025-11-14 15:00,2025-11-14 16:00,2025-11-14 17:00,2025-11-14 18:00" }, "geometry": { "type": "Polygon", "coordinates": [ [ [ -71.9599928, 45.8208873 ], [ -71.9597101, 45.8260765 ], [ -71.9659971, 45.8288421 ], [ -71.9725663, 45.8264182 ], [ -71.9728478, 45.8212289 ], [ -71.9665613, 45.8184637 ], [ -71.9599928, 45.8208873 ] ] ] } },
{ "type": "Feature", "properties": { "hex_id": 150177, "centroid_lon": -71.961122888132763, "centroid_lat": 45.800130512417105, "count": 14, "date": "2025-11-14", "n_files": 20, "hours_affected": "14,15,16,17,18", "datetimes_affected": "2025-11-14 14:00,2025-11-14 15:00,2025-11-14 16:00,2025-11-14 17:00,2025-11-14 18:00" }, "geometry": { "type": "Polygon", "coordinates": [ [ [ -71.9548393, 45.7973647 ], [ -71.9545564, 45.8025539 ], [ -71.9608405, 45.8053197 ], [ -71.9674071, 45.802896 ], [ -71.9676889, 45.7977067 ], [ -71.9614052, 45.7949413 ], [ -71.9548393, 45.7973647 ] ] ] } },
{ "type": "Feature", "properties": { "hex_id": 150178, "centroid_lon": -71.960275441637179, "centroid_lat": 45.815698129618234, "count": 14, "date": "2025-11-14", "n_files": 20, "hours_affected": "14,15,16,17,18", "datetimes_affected": "2025-11-14 14:00,2025-11-14 15:00,2025-11-14 16:00,2025-11-14 17:00,2025-11-14 18:00" }, "geometry": { "type": "Polygon", "coordinates": [ [ [ -71.9539902, 45.8129322 ], [ -71.953707, 45.8181214 ], [ -71.9599928, 45.8208873 ], [ -71.9665613, 45.8184637 ], [ -71.9668433, 45.8132745 ], [ -71.960558, 45.8105089 ], [ -71.9539902, 45.8129322 ] ] ] } },
{ "type": "Feature", "properties": { "hex_id": 150179, "centroid_lon": -71.959427298795617, "centroid_lat": 45.831265692003299, "count": 14, "date": "2025-11-14", "n_files": 20, "hours_affected": "14,15,16,17,18", "datetimes_affected": "2025-11-14 14:00,2025-11-14 15:00,2025-11-14 16:00,2025-11-14 17:00,2025-11-14 18:00" }, "geometry": { "type": "Polygon", "coordinates": [ [ [ -71.9531404, 45.8284997 ], [ -71.952857, 45.8336889 ], [ -71.9591444, 45.8364549 ], [ -71.9657148, 45.8340313 ], [ -71.9659971, 45.8288421 ], [ -71.9597101, 45.8260765 ], [ -71.9531404, 45.8284997 ] ] ] } },
{ "type": "Feature", "properties": { "hex_id": 150495, "centroid_lon": -71.955122208378995, "centroid_lat": 45.792175508880995, "count": 14, "date": "2025-11-14", "n_files": 20, "hours_affected": "14,15,16,17,18", "datetimes_affected": "2025-11-14 14:00,2025-11-14 15:00,2025-11-14 16:00,2025-11-14 17:00,2025-11-14 18:00" }, "geometry": { "type": "Polygon", "coordinates": [ [ [ -71.9488398, 45.7894094 ], [ -71.9485564, 45.7945986 ], [ -71.9548393, 45.7973647 ], [ -71.9614052, 45.7949413 ], [ -71.9616875, 45.7897521 ], [ -71.955405, 45.7869863 ], [ -71.9488398, 45.7894094 ] ] ] } },
{ "type": "Feature", "properties": { "hex_id": 150496, "centroid_lon": -71.954273325533165, "centroid_lat": 45.807743061030671, "count": 14, "date": "2025-11-14", "n_files": 20, "hours_affected": "14,15,16,17,18", "datetimes_affected": "2025-11-14 14:00,2025-11-14 15:00,2025-11-14 16:00,2025-11-14 17:00,2025-11-14 18:00" }, "geometry": { "type": "Polygon", "coordinates": [ [ [ -71.9479893, 45.8049769 ], [ -71.9477056, 45.810166 ], [ -71.9539902, 45.8129322 ], [ -71.960558, 45.8105089 ], [ -71.9608405, 45.8053197 ], [ -71.9545564, 45.8025539 ], [ -71.9479893, 45.8049769 ] ] ] } },
{ "type": "Feature", "properties": { "hex_id": 150497, "centroid_lon": -71.95342374523365, "centroid_lat": 45.823310558319498, "count": 14, "date": "2025-11-14", "n_files": 20, "hours_affected": "14,15,16,17,18", "datetimes_affected": "2025-11-14 14:00,2025-11-14 15:00,2025-11-14 16:00,2025-11-14 17:00,2025-11-14 18:00" }, "geometry": { "type": "Polygon", "coordinates": [ [ [ -71.947138, 45.8205443 ], [ -71.9468541, 45.8257334 ], [ -71.9531404, 45.8284997 ], [ -71.9597101, 45.8260765 ], [ -71.9599928, 45.8208873 ], [ -71.953707, 45.8181214 ], [ -71.947138, 45.8205443 ] ] ] } },
{ "type": "Feature", "properties": { "hex_id": 150812, "centroid_lon": -71.949123196000386, "centroid_lat": 45.784220223465418, "count": 14, "date": "2025-11-14", "n_files": 20, "hours_affected": "14,15,16,17,18", "datetimes_affected": "2025-11-14 14:00,2025-11-14 15:00,2025-11-14 16:00,2025-11-14 17:00,2025-11-14 18:00" }, "geometry": { "type": "Polygon", "coordinates": [ [ [ -71.942842, 45.7814538 ], [ -71.9425581, 45.7866429 ], [ -71.9488398, 45.7894094 ], [ -71.955405, 45.7869863 ], [ -71.9556877, 45.7817971 ], [ -71.9494065, 45.779031 ], [ -71.942842, 45.7814538 ] ] ] } },
{ "type": "Feature", "properties": { "hex_id": 150813, "centroid_lon": -71.948272878146241, "centroid_lat": 45.799787710417306, "count": 14, "date": "2025-11-14", "n_files": 20, "hours_affected": "14,15,16,17,18", "datetimes_affected": "2025-11-14 14:00,2025-11-14 15:00,2025-11-14 16:00,2025-11-14 17:00,2025-11-14 18:00" }, "geometry": { "type": "Polygon", "coordinates": [ [ [ -71.94199, 45.7970212 ], [ -71.9417059, 45.8022103 ], [ -71.9479893, 45.8049769 ], [ -71.9545564, 45.8025539 ], [ -71.9548393, 45.7973647 ], [ -71.9485564, 45.7945986 ], [ -71.94199, 45.7970212 ] ] ] } },
{ "type": "Feature", "properties": { "hex_id": 150814, "centroid_lon": -71.947421861731982, "centroid_lat": 45.815355142463488, "count": 14, "date": "2025-11-14", "n_files": 20, "hours_affected": "14,15,16,17,18", "datetimes_affected": "2025-11-14 14:00,2025-11-14 15:00,2025-11-14 16:00,2025-11-14 17:00,2025-11-14 18:00" }, "geometry": { "type": "Polygon", "coordinates": [ [ [ -71.9411373, 45.8125886 ], [ -71.940853, 45.8177777 ], [ -71.947138, 45.8205443 ], [ -71.953707, 45.8181214 ], [ -71.9539902, 45.8129322 ], [ -71.9477056, 45.810166 ], [ -71.9411373, 45.8125886 ] ] ] } },
{ "type": "Feature", "properties": { "hex_id": 150815, "centroid_lon": -71.94657014604968, "centroid_lat": 45.830922519591368, "count": 14, "date": "2025-11-14", "n_files": 20, "hours_affected": "14,15,16,17,18", "datetimes_affected": "2025-11-14 14:00,2025-11-14 15:00,2025-11-14 16:00,2025-11-14 17:00,2025-11-14 18:00" }, "geometry": { "type": "Polygon", "coordinates": [ [ [ -71.940284, 45.8281558 ], [ -71.9399993, 45.8333449 ], [ -71.9462861, 45.836111599999988 ], [ -71.952857, 45.8336889 ], [ -71.9531404, 45.8284997 ], [ -71.9468541, 45.8257334 ], [ -71.940284, 45.8281558 ] ] ] } },
{ "type": "Feature", "properties": { "hex_id": 151131, "centroid_lon": -71.94227409850312, "centroid_lat": 45.791832078041296, "count": 14, "date": "2025-11-14", "n_files": 20, "hours_affected": "14,15,16,17,18", "datetimes_affected": "2025-11-14 14:00,2025-11-14 15:00,2025-11-14 16:00,2025-11-14 17:00,2025-11-14 18:00" }, "geometry": { "type": "Polygon", "coordinates": [ [ [ -71.9359924, 45.7890653 ], [ -71.9357078, 45.7942544 ], [ -71.94199, 45.7970212 ], [ -71.9485564, 45.7945986 ], [ -71.9488398, 45.7894094 ], [ -71.9425581, 45.7866429 ], [ -71.9359924, 45.7890653 ] ] ] } },
{ "type": "Feature", "properties": { "hex_id": 151132, "centroid_lon": -71.941421647316332, "centroid_lat": 45.807399444698618, "count": 14, "date": "2025-11-14", "n_files": 20, "hours_affected": "14,15,16,17,18", "datetimes_affected": "2025-11-14 14:00,2025-11-14 15:00,2025-11-14 16:00,2025-11-14 17:00,2025-11-14 18:00" }, "geometry": { "type": "Polygon", "coordinates": [ [ [ -71.9351383, 45.8046326 ], [ -71.9348535, 45.8098216 ], [ -71.9411373, 45.8125886 ], [ -71.9477056, 45.810166 ], [ -71.9479893, 45.8049769 ], [ -71.9417059, 45.8022103 ], [ -71.9351383, 45.8046326 ] ] ] } },
{ "type": "Feature", "properties": { "hex_id": 151133, "centroid_lon": -71.940568495755429, "centroid_lat": 45.822966756392681, "count": 14, "date": "2025-11-14", "n_files": 20, "hours_affected": "14,15,16,17,18", "datetimes_affected": "2025-11-14 14:00,2025-11-14 15:00,2025-11-14 16:00,2025-11-14 17:00,2025-11-14 18:00" }, "geometry": { "type": "Polygon", "coordinates": [ [ [ -71.9342835, 45.8201998 ], [ -71.9339984, 45.8253888 ], [ -71.940284, 45.8281558 ], [ -71.9468541, 45.8257334 ], [ -71.947138, 45.8205443 ], [ -71.940853, 45.8177777 ], [ -71.9342835, 45.8201998 ] ] ] } },
{ "type": "Feature", "properties": { "hex_id": 151449, "centroid_lon": -71.935423101013043, "centroid_lat": 45.799443465288029, "count": 14, "date": "2025-11-14", "n_files": 20, "hours_affected": "14,15,16,17,18", "datetimes_affected": "2025-11-14 14:00,2025-11-14 15:00,2025-11-14 16:00,2025-11-14 17:00,2025-11-14 18:00" }, "geometry": { "type": "Polygon", "coordinates": [ [ [ -71.929141, 45.7966763 ], [ -71.9288556, 45.8018653 ], [ -71.9351383, 45.8046326 ], [ -71.9417059, 45.8022103 ], [ -71.94199, 45.7970212 ], [ -71.9357078, 45.7942544 ], [ -71.929141, 45.7966763 ] ] ] } },
{ "type": "Feature", "properties": { "hex_id": 151450, "centroid_lon": -71.93456851491608, "centroid_lat": 45.815010711402103, "count": 14, "date": "2025-11-14", "n_files": 20, "hours_affected": "14,15,16,17,18", "datetimes_affected": "2025-11-14 14:00,2025-11-14 15:00,2025-11-14 16:00,2025-11-14 17:00,2025-11-14 18:00" }, "geometry": { "type": "Polygon", "coordinates": [ [ [ -71.9282847, 45.8122434 ], [ -71.9279991, 45.8174325 ], [ -71.9342835, 45.8201998 ], [ -71.940853, 45.8177777 ], [ -71.9411373, 45.8125886 ], [ -71.9348535, 45.8098216 ], [ -71.9282847, 45.8122434 ] ] ] } },
{ "type": "Feature", "properties": { "hex_id": 151451, "centroid_lon": -71.933713226629351, "centroid_lat": 45.830577902495172, "count": 14, "date": "2025-11-14", "n_files": 20, "hours_affected": "14,15,16,17,18", "datetimes_affected": "2025-11-14 14:00,2025-11-14 15:00,2025-11-14 16:00,2025-11-14 17:00,2025-11-14 18:00" }, "geometry": { "type": "Polygon", "coordinates": [ [ [ -71.9274277, 45.8278105 ], [ -71.9271419, 45.8329996 ], [ -71.933428, 45.835767 ], [ -71.9399993, 45.8333449 ], [ -71.940284, 45.8281558 ], [ -71.9339984, 45.8253888 ], [ -71.9274277, 45.8278105 ] ] ] } },
{ "type": "Feature", "properties": { "hex_id": 151767, "centroid_lon": -71.929426221848956, "centroid_lat": 45.791487204494764, "count": 14, "date": "2025-11-14", "n_files": 20, "hours_affected": "14,15,16,17,18", "datetimes_affected": "2025-11-14 14:00,2025-11-14 15:00,2025-11-14 16:00,2025-11-14 17:00,2025-11-14 18:00" }, "geometry": { "type": "Polygon", "coordinates": [ [ [ -71.9231453, 45.7887197 ], [ -71.9228595, 45.7939087 ], [ -71.929141, 45.7966763 ], [ -71.9357078, 45.7942544 ], [ -71.9359924, 45.7890653 ], [ -71.9297114, 45.7862981 ], [ -71.9231453, 45.7887197 ] ] ] } },
{ "type": "Feature", "properties": { "hex_id": 151768, "centroid_lon": -71.928570202557495, "centroid_lat": 45.807054384882811, "count": 14, "date": "2025-11-14", "n_files": 20, "hours_affected": "14,15,16,17,18", "datetimes_affected": "2025-11-14 14:00,2025-11-14 15:00,2025-11-14 16:00,2025-11-14 17:00,2025-11-14 18:00" }, "geometry": { "type": "Polygon", "coordinates": [ [ [ -71.9222876, 45.8042868 ], [ -71.9220015, 45.8094758 ], [ -71.9282847, 45.8122434 ], [ -71.9348535, 45.8098216 ], [ -71.9351383, 45.8046326 ], [ -71.9288556, 45.8018653 ], [ -71.9222876, 45.8042868 ] ] ] } },
{ "type": "Feature", "properties": { "hex_id": 151769, "centroid_lon": -71.927713479971828, "centroid_lat": 45.822621510204748, "count": 14, "date": "2025-11-14", "n_files": 20, "hours_affected": "14,15,16,17,18", "datetimes_affected": "2025-11-14 14:00,2025-11-14 15:00,2025-11-14 16:00,2025-11-14 17:00,2025-11-14 18:00" }, "geometry": { "type": "Polygon", "coordinates": [ [ [ -71.9214292, 45.8198538 ], [ -71.9211429, 45.8250428 ], [ -71.9274277, 45.8278105 ], [ -71.9339984, 45.8253888 ], [ -71.9342835, 45.8201998 ], [ -71.9279991, 45.8174325 ], [ -71.9214292, 45.8198538 ] ] ] } },
{ "type": "Feature", "properties": { "hex_id": 152085, "centroid_lon": -71.922573557706102, "centroid_lat": 45.799097777097835, "count": 14, "date": "2025-11-14", "n_files": 20, "hours_affected": "14,15,16,17,18", "datetimes_affected": "2025-11-14 14:00,2025-11-14 15:00,2025-11-14 16:00,2025-11-14 17:00,2025-11-14 18:00" }, "geometry": { "type": "Polygon", "coordinates": [ [ [ -71.9162921, 45.7963299 ], [ -71.9160056, 45.8015189 ], [ -71.9222876, 45.8042868 ], [ -71.9288556, 45.8018653 ], [ -71.929141, 45.7966763 ], [ -71.9228595, 45.7939087 ], [ -71.9162921, 45.7963299 ] ] ] } },
{ "type": "Feature", "properties": { "hex_id": 152086, "centroid_lon": -71.9217154021634, "centroid_lat": 45.814664836502651, "count": 14, "date": "2025-11-14", "n_files": 20, "hours_affected": "14,15,16,17,18", "datetimes_affected": "2025-11-14 14:00,2025-11-14 15:00,2025-11-14 16:00,2025-11-14 17:00,2025-11-14 18:00" }, "geometry": { "type": "Polygon", "coordinates": [ [ [ -71.9154323, 45.8118969 ], [ -71.9151455, 45.8170858 ], [ -71.9214292, 45.8198538 ], [ -71.9279991, 45.8174325 ], [ -71.9282847, 45.8122434 ], [ -71.9220015, 45.8094758 ], [ -71.9154323, 45.8118969 ] ] ] } },
{ "type": "Feature", "properties": { "hex_id": 152087, "centroid_lon": -71.920856541509522, "centroid_lat": 45.830231840783377, "count": 14, "date": "2025-11-14", "n_files": 20, "hours_affected": "14,15,16,17,18", "datetimes_affected": "2025-11-14 14:00,2025-11-14 15:00,2025-11-14 16:00,2025-11-14 17:00,2025-11-14 18:00" }, "geometry": { "type": "Polygon", "coordinates": [ [ [ -71.9145718, 45.8274638 ], [ -71.9142848, 45.8326527 ], [ -71.9205701, 45.8354208 ], [ -71.9271419, 45.8329996 ], [ -71.9274277, 45.8278105 ], [ -71.9211429, 45.8250428 ], [ -71.9145718, 45.8274638 ] ] ] } },
{ "type": "Feature", "properties": { "hex_id": 152403, "centroid_lon": -71.916578579388869, "centroid_lat": 45.791140888310082, "count": 14, "date": "2025-11-14", "n_files": 20, "hours_affected": "14,15,16,17,18", "datetimes_affected": "2025-11-14 14:00,2025-11-14 15:00,2025-11-14 16:00,2025-11-14 17:00,2025-11-14 18:00" }, "geometry": { "type": "Polygon", "coordinates": [ [ [ -71.9102983, 45.7883727 ], [ -71.9100113, 45.7935617 ], [ -71.9162921, 45.7963299 ], [ -71.9228595, 45.7939087 ], [ -71.9231453, 45.7887197 ], [ -71.916865, 45.7859519 ], [ -71.9102983, 45.7883727 ] ] ] } },
{ "type": "Feature", "properties": { "hex_id": 152404, "centroid_lon": -71.915718992230012, "centroid_lat": 45.80670788165196, "count": 14, "date": "2025-11-14", "n_files": 20, "hours_affected": "14,15,16,17,18", "datetimes_affected": "2025-11-14 14:00,2025-11-14 15:00,2025-11-14 16:00,2025-11-14 17:00,2025-11-14 18:00" }, "geometry": { "type": "Polygon", "coordinates": [ [ [ -71.9094371, 45.8039396 ], [ -71.9091498, 45.8091286 ], [ -71.9154323, 45.8118969 ], [ -71.9220015, 45.8094758 ], [ -71.9222876, 45.8042868 ], [ -71.9160056, 45.8015189 ], [ -71.9094371, 45.8039396 ] ] ] } },
{ "type": "Feature", "properties": { "hex_id": 152405, "centroid_lon": -71.914858698857216, "centroid_lat": 45.822274819824472, "count": 14, "date": "2025-11-14", "n_files": 20, "hours_affected": "14,15,16,17,18", "datetimes_affected": "2025-11-14 14:00,2025-11-14 15:00,2025-11-14 16:00,2025-11-14 17:00,2025-11-14 18:00" }, "geometry": { "type": "Polygon", "coordinates": [ [ [ -71.9085751, 45.819506499999989 ], [ -71.9082876, 45.8246954 ], [ -71.9145718, 45.8274638 ], [ -71.9211429, 45.8250428 ], [ -71.9214292, 45.8198538 ], [ -71.9151455, 45.8170858 ], [ -71.9085751, 45.819506499999989 ] ] ] } },
{ "type": "Feature", "properties": { "hex_id": 152721, "centroid_lon": -71.909724249198248, "centroid_lat": 45.79875064591554, "count": 14, "date": "2025-11-14", "n_files": 20, "hours_affected": "14,15,16,17,18", "datetimes_affected": "2025-11-14 14:00,2025-11-14 15:00,2025-11-14 16:00,2025-11-14 17:00,2025-11-14 18:00" }, "geometry": { "type": "Polygon", "coordinates": [ [ [ -71.9034435, 45.7959821 ], [ -71.9031558, 45.801171 ], [ -71.9094371, 45.8039396 ], [ -71.9160056, 45.8015189 ], [ -71.9162921, 45.7963299 ], [ -71.9100113, 45.7935617 ], [ -71.9034435, 45.7959821 ] ] ] } },
{ "type": "Feature", "properties": { "hex_id": 152722, "centroid_lon": -71.908862524447727, "centroid_lat": 45.814317517834063, "count": 14, "date": "2025-11-14", "n_files": 20, "hours_affected": "14,15,16,17,18", "datetimes_affected": "2025-11-14 14:00,2025-11-14 15:00,2025-11-14 16:00,2025-11-14 17:00,2025-11-14 18:00" }, "geometry": { "type": "Polygon", "coordinates": [ [ [ -71.9025801, 45.8115489 ], [ -71.9022922, 45.8167378 ], [ -71.9085751, 45.819506499999989 ], [ -71.9151455, 45.8170858 ], [ -71.9154323, 45.8118969 ], [ -71.9091498, 45.8091286 ], [ -71.9025801, 45.8115489 ] ] ] } },
{ "type": "Feature", "properties": { "hex_id": 153040, "centroid_lon": -71.902868017307171, "centroid_lat": 45.806359935075065, "count": 14, "date": "2025-11-14", "n_files": 20, "hours_affected": "14,15,16,17,18", "datetimes_affected": "2025-11-14 14:00,2025-11-14 15:00,2025-11-14 16:00,2025-11-14 17:00,2025-11-14 18:00" }, "geometry": { "type": "Polygon", "coordinates": [ [ [ -71.8965868, 45.803591 ], [ -71.8962984, 45.8087799 ], [ -71.9025801, 45.8115489 ], [ -71.9091498, 45.8091286 ], [ -71.9094371, 45.8039396 ], [ -71.9031558, 45.801171 ], [ -71.8965868, 45.803591 ] ] ] } },
{ "type": "Feature", "properties": { "hex_id": 153041, "centroid_lon": -71.902004153385818, "centroid_lat": 45.821926685320939, "count": 14, "date": "2025-11-14", "n_files": 20, "hours_affected": "14,15,16,17,18", "datetimes_affected": "2025-11-14 14:00,2025-11-14 15:00,2025-11-14 16:00,2025-11-14 17:00,2025-11-14 18:00" }, "geometry": { "type": "Polygon", "coordinates": [ [ [ -71.8957213, 45.8191576 ], [ -71.8954326, 45.8243465 ], [ -71.901716, 45.8271156 ], [ -71.9082876, 45.8246954 ], [ -71.9085751, 45.819506499999989 ], [ -71.9022922, 45.8167378 ], [ -71.8957213, 45.8191576 ] ] ] } },
{ "type": "Feature", "properties": { "hex_id": 153357, "centroid_lon": -71.896875176462174, "centroid_lat": 45.798402071810244, "count": 14, "date": "2025-11-14", "n_files": 20, "hours_affected": "14,15,16,17,18", "datetimes_affected": "2025-11-14 14:00,2025-11-14 15:00,2025-11-14 16:00,2025-11-14 17:00,2025-11-14 18:00" }, "geometry": { "type": "Polygon", "coordinates": [ [ [ -71.8905952, 45.7956328 ], [ -71.8903063, 45.8008217 ], [ -71.8965868, 45.803591 ], [ -71.9031558, 45.801171 ], [ -71.9034435, 45.7959821 ], [ -71.8971634, 45.7932132 ], [ -71.8905952, 45.7956328 ] ] ] } },
{ "type": "Feature", "properties": { "hex_id": 153358, "centroid_lon": -71.89600988274276, "centroid_lat": 45.813968755465496, "count": 14, "date": "2025-11-14", "n_files": 20, "hours_affected": "14,15,16,17,18", "datetimes_affected": "2025-11-14 14:00,2025-11-14 15:00,2025-11-14 16:00,2025-11-14 17:00,2025-11-14 18:00" }, "geometry": { "type": "Polygon", "coordinates": [ [ [ -71.8897282, 45.8111994 ], [ -71.8894391, 45.8163883 ], [ -71.8957213, 45.8191576 ], [ -71.9022922, 45.8167378 ], [ -71.9025801, 45.8115489 ], [ -71.8962984, 45.8087799 ], [ -71.8897282, 45.8111994 ] ] ] } },
{ "type": "Feature", "properties": { "hex_id": 153676, "centroid_lon": -71.890017278762059, "centroid_lat": 45.806010545221426, "count": 14, "date": "2025-11-14", "n_files": 20, "hours_affected": "14,15,16,17,18", "datetimes_affected": "2025-11-14 14:00,2025-11-14 15:00,2025-11-14 16:00,2025-11-14 17:00,2025-11-14 18:00" }, "geometry": { "type": "Polygon", "coordinates": [ [ [ -71.8837368, 45.8032409 ], [ -71.8834472, 45.8084297 ], [ -71.8897282, 45.8111994 ], [ -71.8962984, 45.8087799 ], [ -71.8965868, 45.803591 ], [ -71.8903063, 45.8008217 ], [ -71.8837368, 45.8032409 ] ] ] } },
{ "type": "Feature", "properties": { "hex_id": 154312, "centroid_lon": -71.877166777567737, "centroid_lat": 45.805659712160619, "count": 14, "date": "2025-11-14", "n_files": 20, "hours_affected": "14,15,16,17,18", "datetimes_affected": "2025-11-14 14:00,2025-11-14 15:00,2025-11-14 16:00,2025-11-14 17:00,2025-11-14 18:00" }, "geometry": { "type": "Polygon", "coordinates": [ [ [ -71.870887, 45.8028894 ], [ -71.8705962, 45.8080781 ], [ -71.8768765, 45.8108485 ], [ -71.8834472, 45.8084297 ], [ -71.8837368, 45.8032409 ], [ -71.877457, 45.8004709 ], [ -71.870887, 45.8028894 ] ] ] } },
{ "type": "Feature", "properties": { "hex_id": 165310, "centroid_lon": -71.471414607826574, "centroid_lat": 48.693195529827221, "count": 11, "date": "2025-11-14", "n_files": 20, "hours_affected": "14,15,16,17", "datetimes_affected": "2025-11-14 14:00,2025-11-14 15:00,2025-11-14 16:00,2025-11-14 17:00" }, "geometry": { "type": "Polygon", "coordinates": [ [ [ -71.4648149, 48.6903954 ], [ -71.4644515, 48.6955794 ], [ -71.4710518, 48.6983796 ], [ -71.4780151, 48.6959953 ], [ -71.4783771, 48.6908112 ], [ -71.4717773, 48.6880115 ], [ -71.4648149, 48.6903954 ] ] ] } },
{ "type": "Feature", "properties": { "hex_id": 165946, "centroid_lon": -71.457851886260769, "centroid_lat": 48.692778816474977, "count": 11, "date": "2025-11-14", "n_files": 20, "hours_affected": "14,15,16,17", "datetimes_affected": "2025-11-14 14:00,2025-11-14 15:00,2025-11-14 16:00,2025-11-14 17:00" }, "geometry": { "type": "Polygon", "coordinates": [ [ [ -71.451253, 48.689977899999988 ], [ -71.4508882, 48.6951618 ], [ -71.4574877, 48.6979628 ], [ -71.4644515, 48.6955794 ], [ -71.4648149, 48.6903954 ], [ -71.4582159, 48.6875948 ], [ -71.451253, 48.689977899999988 ] ] ] } },
{ "type": "Feature", "properties": { "hex_id": 166582, "centroid_lon": -71.444289475815509, "centroid_lat": 48.692360509185569, "count": 11, "date": "2025-11-14", "n_files": 20, "hours_affected": "14,15,16,17", "datetimes_affected": "2025-11-14 14:00,2025-11-14 15:00,2025-11-14 16:00,2025-11-14 17:00" }, "geometry": { "type": "Polygon", "coordinates": [ [ [ -71.4376915, 48.6895588 ], [ -71.4373253, 48.6947427 ], [ -71.4439239, 48.6975444 ], [ -71.4508882, 48.6951618 ], [ -71.451253, 48.689977899999988 ], [ -71.4446549, 48.6871766 ], [ -71.4376915, 48.6895588 ] ] ] } },
{ "type": "Feature", "properties": { "hex_id": 166899, "centroid_lon": -71.43805754734521, "centroid_lat": 48.684374973784905, "count": 7, "date": "2025-11-14", "n_files": 20, "hours_affected": "15,16,17", "datetimes_affected": "2025-11-14 15:00,2025-11-14 16:00,2025-11-14 17:00" }, "geometry": { "type": "Polygon", "coordinates": [ [ [ -71.4314609, 48.681573 ], [ -71.4310942, 48.6867568 ], [ -71.4376915, 48.6895588 ], [ -71.4446549, 48.6871766 ], [ -71.4450203, 48.6819927 ], [ -71.4384235, 48.6791911 ], [ -71.4314609, 48.681573 ] ] ] } },
{ "type": "Feature", "properties": { "hex_id": 167218, "centroid_lon": -71.430727377669285, "centroid_lat": 48.691940608049435, "count": 7, "date": "2025-11-14", "n_files": 20, "hours_affected": "15,16,17", "datetimes_affected": "2025-11-14 15:00,2025-11-14 16:00,2025-11-14 17:00" }, "geometry": { "type": "Polygon", "coordinates": [ [ [ -71.4241302, 48.6891382 ], [ -71.4237626, 48.6943219 ], [ -71.4303604, 48.6971244 ], [ -71.4373253, 48.6947427 ], [ -71.4376915, 48.6895588 ], [ -71.4310942, 48.6867568 ], [ -71.4241302, 48.6891382 ] ] ] } },
{ "type": "Feature", "properties": { "hex_id": 167535, "centroid_lon": -71.424497685523463, "centroid_lat": 48.68395439012329, "count": 7, "date": "2025-11-14", "n_files": 20, "hours_affected": "15,16,17", "datetimes_affected": "2025-11-14 15:00,2025-11-14 16:00,2025-11-14 17:00" }, "geometry": { "type": "Polygon", "coordinates": [ [ [ -71.4179019, 48.6811516 ], [ -71.4175338, 48.6863354 ], [ -71.4241302, 48.6891382 ], [ -71.4310942, 48.6867568 ], [ -71.4314609, 48.681573 ], [ -71.424865, 48.6787706 ], [ -71.4179019, 48.6811516 ] ] ] } },
{ "type": "Feature", "properties": { "hex_id": 168171, "centroid_lon": -71.410938137596546, "centroid_lat": 48.683532213182559, "count": 7, "date": "2025-11-14", "n_files": 20, "hours_affected": "15,16,17", "datetimes_affected": "2025-11-14 15:00,2025-11-14 16:00,2025-11-14 17:00" }, "geometry": { "type": "Polygon", "coordinates": [ [ [ -71.4043432, 48.6807287 ], [ -71.4039737, 48.6859124 ], [ -71.4105693, 48.6887159 ], [ -71.4175338, 48.6863354 ], [ -71.4179019, 48.6811516 ], [ -71.4113069, 48.6783485 ], [ -71.4043432, 48.6807287 ] ] ] } },
{ "type": "Feature", "properties": { "hex_id": 168807, "centroid_lon": -71.397378904741927, "centroid_lat": 48.683108443053918, "count": 7, "date": "2025-11-14", "n_files": 20, "hours_affected": "15,16,17", "datetimes_affected": "2025-11-14 15:00,2025-11-14 16:00,2025-11-14 17:00" }, "geometry": { "type": "Polygon", "coordinates": [ [ [ -71.3907848, 48.6803042 ], [ -71.390414, 48.6854878 ], [ -71.3970087, 48.6882921 ], [ -71.4039737, 48.6859124 ], [ -71.4043432, 48.6807287 ], [ -71.397749, 48.6779248 ], [ -71.3907848, 48.6803042 ] ] ] } },
{ "type": "Feature", "properties": { "hex_id": 169125, "centroid_lon": -71.391155607233117, "centroid_lat": 48.675120563371387, "count": 7, "date": "2025-11-14", "n_files": 20, "hours_affected": "15,16,17", "datetimes_affected": "2025-11-14 15:00,2025-11-14 16:00,2025-11-14 17:00" }, "geometry": { "type": "Polygon", "coordinates": [ [ [ -71.3845629, 48.672316 ], [ -71.3841915, 48.6774995 ], [ -71.3907848, 48.6803042 ], [ -71.397749, 48.6779248 ], [ -71.3981191, 48.6727412 ], [ -71.3915263, 48.669937 ], [ -71.3845629, 48.672316 ] ] ] } },
{ "type": "Feature", "properties": { "hex_id": 175679, "centroid_lon": -71.384361550158047, "centroid_lat": 46.749876349571394, "count": 3, "date": "2025-11-14", "n_files": 20, "hours_affected": "22", "datetimes_affected": "2025-11-14 22:00" }, "geometry": { "type": "Polygon", "coordinates": [ [ [ -71.3780023, 46.7470768 ], [ -71.3776545, 46.7522621 ], [ -71.3840143, 46.7550617 ], [ -71.3907215, 46.7526755 ], [ -71.3910681, 46.7474902 ], [ -71.3847087, 46.744691 ], [ -71.3780023, 46.7470768 ] ] ] } },
{ "type": "Feature", "properties": { "hex_id": 175998, "centroid_lon": -71.377306532886792, "centroid_lat": 46.757447384443019, "count": 3, "date": "2025-11-14", "n_files": 20, "hours_affected": "22", "datetimes_affected": "2025-11-14 22:00" }, "geometry": { "type": "Polygon", "coordinates": [ [ [ -71.3709468, 46.7546475 ], [ -71.3705982, 46.7598327 ], [ -71.3769585, 46.7626326 ], [ -71.3836669, 46.760247 ], [ -71.3840143, 46.7550617 ], [ -71.3776545, 46.7522621 ], [ -71.3709468, 46.7546475 ] ] ] } },
{ "type": "Feature", "properties": { "hex_id": 176315, "centroid_lon": -71.371295298729208, "centroid_lat": 46.749462244480242, "count": 3, "date": "2025-11-14", "n_files": 20, "hours_affected": "22", "datetimes_affected": "2025-11-14 22:00" }, "geometry": { "type": "Polygon", "coordinates": [ [ [ -71.3649368, 46.746662 ], [ -71.3645877, 46.7518472 ], [ -71.3709468, 46.7546475 ], [ -71.3776545, 46.7522621 ], [ -71.3780023, 46.7470768 ], [ -71.3716437, 46.744277 ], [ -71.3649368, 46.746662 ] ] ] } },
{ "type": "Feature", "properties": { "hex_id": 176316, "centroid_lon": -71.37024949822019, "centroid_lat": 46.765017919938963, "count": 3, "date": "2025-11-14", "n_files": 20, "hours_affected": "22", "datetimes_affected": "2025-11-14 22:00" }, "geometry": { "type": "Polygon", "coordinates": [ [ [ -71.3638893, 46.7622176 ], [ -71.3635399, 46.7674028 ], [ -71.3699007, 46.770203099999989 ], [ -71.3766104, 46.7678179 ], [ -71.3769585, 46.7626326 ], [ -71.3705982, 46.7598327 ], [ -71.3638893, 46.7622176 ] ] ] } },
{ "type": "Feature", "properties": { "hex_id": 176634, "centroid_lon": -71.36423855370812, "centroid_lat": 46.757032422743777, "count": 3, "date": "2025-11-14", "n_files": 20, "hours_affected": "22", "datetimes_affected": "2025-11-14 22:00" }, "geometry": { "type": "Polygon", "coordinates": [ [ [ -71.3578796, 46.7542318 ], [ -71.3575297, 46.759417 ], [ -71.3638893, 46.7622176 ], [ -71.3705982, 46.7598327 ], [ -71.3709468, 46.7546475 ], [ -71.3645877, 46.7518472 ], [ -71.3578796, 46.7542318 ] ] ] } },
{ "type": "Feature", "properties": { "hex_id": 180572, "centroid_lon": -71.148371363463255, "centroid_lat": 48.651661652608766, "count": 10, "date": "2025-11-14", "n_files": 20, "hours_affected": "14,15,16,17", "datetimes_affected": "2025-11-14 14:00,2025-11-14 15:00,2025-11-14 16:00,2025-11-14 17:00" }, "geometry": { "type": "Polygon", "coordinates": [ [ [ -71.141796, 48.6488436 ], [ -71.1414, 48.6540257 ], [ -71.147976, 48.6568438 ], [ -71.1549475, 48.6544794 ], [ -71.1553421, 48.6492972 ], [ -71.1487666, 48.6464795 ], [ -71.141796, 48.6488436 ] ] ] } },
{ "type": "Feature", "properties": { "hex_id": 180890, "centroid_lon": -71.141003893687184, "centroid_lat": 48.659207843820909, "count": 10, "date": "2025-11-14", "n_files": 20, "hours_affected": "14,15,16,17", "datetimes_affected": "2025-11-14 14:00,2025-11-14 15:00,2025-11-14 16:00,2025-11-14 17:00" }, "geometry": { "type": "Polygon", "coordinates": [ [ [ -71.134428, 48.6563893 ], [ -71.1340311, 48.6615714 ], [ -71.1406077, 48.66439 ], [ -71.1475805, 48.662026 ], [ -71.147976, 48.6568438 ], [ -71.1414, 48.6540257 ], [ -71.134428, 48.6563893 ] ] ] } },
{ "type": "Feature", "properties": { "hex_id": 181208, "centroid_lon": -71.134824732032541, "centroid_lat": 48.651207204692618, "count": 10, "date": "2025-11-14", "n_files": 20, "hours_affected": "14,15,16,17", "datetimes_affected": "2025-11-14 14:00,2025-11-14 15:00,2025-11-14 16:00,2025-11-14 17:00" }, "geometry": { "type": "Polygon", "coordinates": [ [ [ -71.1282502, 48.6483884 ], [ -71.1278528, 48.6535704 ], [ -71.134428, 48.6563893 ], [ -71.1414, 48.6540257 ], [ -71.141796, 48.6488436 ], [ -71.1352214, 48.6460251 ], [ -71.1282502, 48.6483884 ] ] ] } },
{ "type": "Feature", "properties": { "hex_id": 181526, "centroid_lon": -71.127455358247786, "centroid_lat": 48.65875247718742, "count": 10, "date": "2025-11-14", "n_files": 20, "hours_affected": "14,15,16,17", "datetimes_affected": "2025-11-14 14:00,2025-11-14 15:00,2025-11-14 16:00,2025-11-14 17:00" }, "geometry": { "type": "Polygon", "coordinates": [ [ [ -71.12088030000001, 48.6559332 ], [ -71.1204821, 48.6611152 ], [ -71.1270578, 48.6639345 ], [ -71.1340311, 48.6615714 ], [ -71.134428, 48.6563893 ], [ -71.1278528, 48.6535704 ], [ -71.12088030000001, 48.6559332 ] ] ] } },
{ "type": "Feature", "properties": { "hex_id": 181844, "centroid_lon": -71.121278439217321, "centroid_lat": 48.650751166823852, "count": 10, "date": "2025-11-14", "n_files": 20, "hours_affected": "14,15,16,17", "datetimes_affected": "2025-11-14 14:00,2025-11-14 15:00,2025-11-14 16:00,2025-11-14 17:00" }, "geometry": { "type": "Polygon", "coordinates": [ [ [ -71.1147048, 48.6479316 ], [ -71.114306, 48.6531135 ], [ -71.12088030000001, 48.6559332 ], [ -71.1278528, 48.6535704 ], [ -71.1282502, 48.6483884 ], [ -71.1216764, 48.6455691 ], [ -71.1147048, 48.6479316 ] ] ] } },
{ "type": "Feature", "properties": { "hex_id": 184692, "centroid_lon": -71.076603776906367, "centroid_lat": 48.438816584086879, "count": 2, "date": "2025-11-14", "n_files": 20, "hours_affected": "18", "datetimes_affected": "2025-11-14 18:00" }, "geometry": { "type": "Polygon", "coordinates": [ [ [ -71.0700595, 48.4359951 ], [ -71.0696592, 48.441177 ], [ -71.0762041, 48.4439985 ], [ -71.0831488, 48.4416377 ], [ -71.0835478, 48.4364557 ], [ -71.0770034, 48.4336346 ], [ -71.0700595, 48.4359951 ] ] ] } },
{ "type": "Feature", "properties": { "hex_id": 185011, "centroid_lon": -71.069258702931677, "centroid_lat": 48.446358930204021, "count": 2, "date": "2025-11-14", "n_files": 20, "hours_affected": "18", "datetimes_affected": "2025-11-14 18:00" }, "geometry": { "type": "Polygon", "coordinates": [ [ [ -71.0627139, 48.4435371 ], [ -71.0623127, 48.4487189 ], [ -71.0688581, 48.4515408 ], [ -71.0758042, 48.4491805 ], [ -71.0762041, 48.4439985 ], [ -71.0696592, 48.441177 ], [ -71.0627139, 48.4435371 ] ] ] } },
{ "type": "Feature", "properties": { "hex_id": 185328, "centroid_lon": -71.063114982409232, "centroid_lat": 48.438355199064063, "count": 2, "date": "2025-11-14", "n_files": 20, "hours_affected": "18", "datetimes_affected": "2025-11-14 18:00" }, "geometry": { "type": "Polygon", "coordinates": [ [ [ -71.0565716, 48.435533 ], [ -71.0561698, 48.4407148 ], [ -71.0627139, 48.4435371 ], [ -71.0696592, 48.441177 ], [ -71.0700595, 48.4359951 ], [ -71.063515900000013, 48.4331733 ], [ -71.0565716, 48.435533 ] ] ] } },
{ "type": "Feature", "properties": { "hex_id": 186922, "centroid_lon": -71.025141612624992, "centroid_lat": 48.491601738110269, "count": 4, "date": "2025-11-14", "n_files": 20, "hours_affected": "14,15", "datetimes_affected": "2025-11-14 14:00,2025-11-14 15:00" }, "geometry": { "type": "Polygon", "coordinates": [ [ [ -71.0185937, 48.488777299999988 ], [ -71.0181874, 48.4939588 ], [ -71.0247359, 48.4967833 ], [ -71.0316902, 48.4944258 ], [ -71.0320952, 48.4892442 ], [ -71.0255472, 48.4864202 ], [ -71.0185937, 48.488777299999988 ] ] ] } },
{ "type": "Feature", "properties": { "hex_id": 187240, "centroid_lon": -71.017780979041973, "centroid_lat": 48.499140324531055, "count": 4, "date": "2025-11-14", "n_files": 20, "hours_affected": "14,15", "datetimes_affected": "2025-11-14 14:00,2025-11-14 15:00" }, "geometry": { "type": "Polygon", "coordinates": [ [ [ -71.0112326, 48.4963154 ], [ -71.0108254, 48.5014969 ], [ -71.0173744, 48.5043218 ], [ -71.0243301, 48.5019649 ], [ -71.0247359, 48.4967833 ], [ -71.0181874, 48.4939588 ], [ -71.0112326, 48.4963154 ] ] ] } },
{ "type": "Feature", "properties": { "hex_id": 187558, "centroid_lon": -71.011639664102702, "centroid_lat": 48.491133943197802, "count": 4, "date": "2025-11-14", "n_files": 20, "hours_affected": "14,15", "datetimes_affected": "2025-11-14 14:00,2025-11-14 15:00" }, "geometry": { "type": "Polygon", "coordinates": [ [ [ -71.0050927, 48.4883087 ], [ -71.004685, 48.4934902 ], [ -71.0112326, 48.4963154 ], [ -71.0181874, 48.4939588 ], [ -71.0185937, 48.488777299999988 ], [ -71.0120466, 48.4859525 ], [ -71.0050927, 48.4883087 ] ] ] } }
]
}
