{
"type": "FeatureCollection",
"name": "daily_2025-11-23",
"crs": { "type": "name", "properties": { "name": "urn:ogc:def:crs:OGC:1.3:CRS84" } },
"features": [
{ "type": "Feature", "properties": { "hex_id": 48744, "centroid_lon": -74.010656114118831, "centroid_lat": 45.968785829601394, "count": 7, "date": "2025-11-23", "n_files": 22, "hours_affected": "7,8,9,10,11,12,13", "datetimes_affected": "2025-11-23 07:00,2025-11-23 08:00,2025-11-23 09:00,2025-11-23 10:00,2025-11-23 11:00,2025-11-23 12:00,2025-11-23 13:00" }, "geometry": { "type": "Polygon", "coordinates": [ [ [ -74.00425, 45.966132 ], [ -74.0041569, 45.9713276 ], [ -74.0105636, 45.9739814 ], [ -74.0170628, 45.9714393 ], [ -74.0171547, 45.9662437 ], [ -74.0107486, 45.9635902 ], [ -74.00425, 45.966132 ] ] ] } },
{ "type": "Feature", "properties": { "hex_id": 49380, "centroid_lon": -73.997750830679507, "centroid_lat": 45.968673370966023, "count": 7, "date": "2025-11-23", "n_files": 22, "hours_affected": "7,8,9,10,11,12,13", "datetimes_affected": "2025-11-23 07:00,2025-11-23 08:00,2025-11-23 09:00,2025-11-23 10:00,2025-11-23 11:00,2025-11-23 12:00,2025-11-23 13:00" }, "geometry": { "type": "Polygon", "coordinates": [ [ [ -73.991345400000014, 45.9660188 ], [ -73.9912511, 45.9712144 ], [ -73.9976571, 45.973869 ], [ -74.0041569, 45.9713276 ], [ -74.00425, 45.966132 ], [ -73.9978445, 45.9634778 ], [ -73.991345400000014, 45.9660188 ] ] ] } },
{ "type": "Feature", "properties": { "hex_id": 60800, "centroid_lon": -73.775054554246168, "centroid_lat": 45.529987843148916, "count": 7, "date": "2025-11-23", "n_files": 22, "hours_affected": "9,10,11,12,13,14,15", "datetimes_affected": "2025-11-23 09:00,2025-11-23 10:00,2025-11-23 11:00,2025-11-23 12:00,2025-11-23 13:00,2025-11-23 14:00,2025-11-23 15:00" }, "geometry": { "type": "Polygon", "coordinates": [ [ [ -73.7687095, 45.5273212 ], [ -73.7685961, 45.5325168 ], [ -73.7749417, 45.5351834 ], [ -73.7814002, 45.5326541 ], [ -73.7815125, 45.5274585 ], [ -73.7751673, 45.5247922 ], [ -73.7687095, 45.5273212 ] ] ] } },
{ "type": "Feature", "properties": { "hex_id": 61117, "centroid_lon": -73.768822822955201, "centroid_lat": 45.52212563201757, "count": 7, "date": "2025-11-23", "n_files": 22, "hours_affected": "9,10,11,12,13,14,15", "datetimes_affected": "2025-11-23 09:00,2025-11-23 10:00,2025-11-23 11:00,2025-11-23 12:00,2025-11-23 13:00,2025-11-23 14:00,2025-11-23 15:00" }, "geometry": { "type": "Polygon", "coordinates": [ [ [ -73.7624789, 45.5194587 ], [ -73.762365, 45.5246542 ], [ -73.7687095, 45.5273212 ], [ -73.7751673, 45.5247922 ], [ -73.7752801, 45.5195967 ], [ -73.7689361, 45.51693 ], [ -73.7624789, 45.5194587 ] ] ] } },
{ "type": "Feature", "properties": { "hex_id": 61436, "centroid_lon": -73.762251026988892, "centroid_lat": 45.529849809664903, "count": 7, "date": "2025-11-23", "n_files": 22, "hours_affected": "9,10,11,12,13,14,15", "datetimes_affected": "2025-11-23 09:00,2025-11-23 10:00,2025-11-23 11:00,2025-11-23 12:00,2025-11-23 13:00,2025-11-23 14:00,2025-11-23 15:00" }, "geometry": { "type": "Polygon", "coordinates": [ [ [ -73.7559066, 45.5271825 ], [ -73.755792, 45.532378 ], [ -73.762137, 45.5350454 ], [ -73.7685961, 45.5325168 ], [ -73.7687095, 45.5273212 ], [ -73.762365, 45.5246542 ], [ -73.7559066, 45.5271825 ] ] ] } },
{ "type": "Feature", "properties": { "hex_id": 61457, "centroid_lon": -73.755008381115729, "centroid_lat": 45.857160622398219, "count": 7, "date": "2025-11-23", "n_files": 22, "hours_affected": "15,16,17,18,21,22,23", "datetimes_affected": "2025-11-23 15:00,2025-11-23 16:00,2025-11-23 17:00,2025-11-23 18:00,2025-11-23 21:00,2025-11-23 22:00,2025-11-23 23:00" }, "geometry": { "type": "Polygon", "coordinates": [ [ [ -73.7486275, 45.8544927 ], [ -73.7485109, 45.8596879 ], [ -73.7548924, 45.8623559 ], [ -73.7613899, 45.8598282 ], [ -73.7615052, 45.854633 ], [ -73.7551243, 45.8519654 ], [ -73.7486275, 45.8544927 ] ] ] } },
{ "type": "Feature", "properties": { "hex_id": 61774, "centroid_lon": -73.748744015684139, "centroid_lat": 45.849297407293051, "count": 7, "date": "2025-11-23", "n_files": 22, "hours_affected": "15,16,17,18,21,22,23", "datetimes_affected": "2025-11-23 15:00,2025-11-23 16:00,2025-11-23 17:00,2025-11-23 18:00,2025-11-23 21:00,2025-11-23 22:00,2025-11-23 23:00" }, "geometry": { "type": "Polygon", "coordinates": [ [ [ -73.7423643, 45.8466291 ], [ -73.7422472, 45.8518243 ], [ -73.7486275, 45.8544927 ], [ -73.7551243, 45.8519654 ], [ -73.7552402, 45.8467701 ], [ -73.7488605, 45.8441022 ], [ -73.7423643, 45.8466291 ] ] ] } },
{ "type": "Feature", "properties": { "hex_id": 70975, "centroid_lon": -73.570604639159129, "centroid_lat": 45.512021648394068, "count": 2, "date": "2025-11-23", "n_files": 22, "hours_affected": "1,2", "datetimes_affected": "2025-11-23 01:00,2025-11-23 02:00" }, "geometry": { "type": "Polygon", "coordinates": [ [ [ -73.5642715, 45.5093438 ], [ -73.5641394, 45.514539 ], [ -73.5704731, 45.5172168 ], [ -73.5769384, 45.5146992 ], [ -73.5770693, 45.509504 ], [ -73.5707362, 45.5068265 ], [ -73.5642715, 45.5093438 ] ] ] } },
{ "type": "Feature", "properties": { "hex_id": 73210, "centroid_lon": -73.521929491780739, "centroid_lat": 45.65950980816951, "count": 1, "date": "2025-11-23", "n_files": 22, "hours_affected": "23", "datetimes_affected": "2025-11-23 23:00" }, "geometry": { "type": "Polygon", "coordinates": [ [ [ -73.5155823, 45.656829099999989 ], [ -73.515445, 45.6620241 ], [ -73.5217928, 45.6647047 ], [ -73.5282773, 45.6621901 ], [ -73.5284134, 45.6569952 ], [ -73.5220662, 45.6543149 ], [ -73.5155823, 45.656829099999989 ] ] ] } },
{ "type": "Feature", "properties": { "hex_id": 73528, "centroid_lon": -73.515719566742959, "centroid_lat": 45.651634224542832, "count": 1, "date": "2025-11-23", "n_files": 22, "hours_affected": "23", "datetimes_affected": "2025-11-23 23:00" }, "geometry": { "type": "Polygon", "coordinates": [ [ [ -73.5093736, 45.6489532 ], [ -73.5092357, 45.6541481 ], [ -73.5155823, 45.656829099999989 ], [ -73.5220662, 45.6543149 ], [ -73.5222028, 45.6491199 ], [ -73.5158568, 45.6464393 ], [ -73.5093736, 45.6489532 ] ] ] } },
{ "type": "Feature", "properties": { "hex_id": 74164, "centroid_lon": -73.502889736270873, "centroid_lat": 45.651466779933322, "count": 1, "date": "2025-11-23", "n_files": 22, "hours_affected": "23", "datetimes_affected": "2025-11-23 23:00" }, "geometry": { "type": "Polygon", "coordinates": [ [ [ -73.4965444, 45.6487851 ], [ -73.4964053, 45.65398 ], [ -73.5027513, 45.6566617 ], [ -73.5092357, 45.6541481 ], [ -73.5093736, 45.6489532 ], [ -73.5030282, 45.6462719 ], [ -73.4965444, 45.6487851 ] ] ] } },
{ "type": "Feature", "properties": { "hex_id": 77688, "centroid_lon": -73.420677238789949, "centroid_lat": 46.063484383220825, "count": 4, "date": "2025-11-23", "n_files": 22, "hours_affected": "0,1,2,3", "datetimes_affected": "2025-11-23 00:00,2025-11-23 01:00,2025-11-23 02:00,2025-11-23 03:00" }, "geometry": { "type": "Polygon", "coordinates": [ [ [ -73.4142894, 46.0607977 ], [ -73.4141407, 46.065992 ], [ -73.42052910000001, 46.0686787 ], [ -73.4270657, 46.0661707 ], [ -73.4272132, 46.0609763 ], [ -73.4208254, 46.0582901 ], [ -73.4142894, 46.0607977 ] ] ] } },
{ "type": "Feature", "properties": { "hex_id": 78007, "centroid_lon": -73.41399188214163, "centroid_lat": 46.071186331873903, "count": 4, "date": "2025-11-23", "n_files": 22, "hours_affected": "0,1,2,3", "datetimes_affected": "2025-11-23 00:00,2025-11-23 01:00,2025-11-23 02:00,2025-11-23 03:00" }, "geometry": { "type": "Polygon", "coordinates": [ [ [ -73.4076035, 46.0684993 ], [ -73.4074541, 46.0736936 ], [ -73.413843, 46.0763806 ], [ -73.4203809, 46.073873 ], [ -73.42052910000001, 46.0686787 ], [ -73.4141407, 46.065992 ], [ -73.4076035, 46.0684993 ] ] ] } },
{ "type": "Feature", "properties": { "hex_id": 78324, "centroid_lon": -73.40775291955039, "centroid_lat": 46.063305026203167, "count": 4, "date": "2025-11-23", "n_files": 22, "hours_affected": "0,1,2,3", "datetimes_affected": "2025-11-23 00:00,2025-11-23 01:00,2025-11-23 02:00,2025-11-23 03:00" }, "geometry": { "type": "Polygon", "coordinates": [ [ [ -73.4013658, 46.0606177 ], [ -73.4012158, 46.0658119 ], [ -73.4076035, 46.0684993 ], [ -73.4141407, 46.065992 ], [ -73.4142894, 46.0607977 ], [ -73.4079023, 46.0581107 ], [ -73.4013658, 46.0606177 ] ] ] } },
{ "type": "Feature", "properties": { "hex_id": 78643, "centroid_lon": -73.401065807305926, "centroid_lat": 46.071006195734107, "count": 4, "date": "2025-11-23", "n_files": 22, "hours_affected": "0,1,2,3", "datetimes_affected": "2025-11-23 00:00,2025-11-23 01:00,2025-11-23 02:00,2025-11-23 03:00" }, "geometry": { "type": "Polygon", "coordinates": [ [ [ -73.3946781, 46.0683185 ], [ -73.3945275, 46.0735127 ], [ -73.4009158, 46.0762005 ], [ -73.4074541, 46.0736936 ], [ -73.4076035, 46.0684993 ], [ -73.4012158, 46.0658119 ], [ -73.3946781, 46.0683185 ] ] ] } },
{ "type": "Feature", "properties": { "hex_id": 78960, "centroid_lon": -73.394828723497994, "centroid_lat": 46.063124208331274, "count": 4, "date": "2025-11-23", "n_files": 22, "hours_affected": "0,1,2,3", "datetimes_affected": "2025-11-23 00:00,2025-11-23 01:00,2025-11-23 02:00,2025-11-23 03:00" }, "geometry": { "type": "Polygon", "coordinates": [ [ [ -73.3884423, 46.0604361 ], [ -73.388291100000018, 46.065630399999989 ], [ -73.3946781, 46.0683185 ], [ -73.4012158, 46.0658119 ], [ -73.4013658, 46.0606177 ], [ -73.3949793, 46.05793 ], [ -73.3884423, 46.0604361 ] ] ] } },
{ "type": "Feature", "properties": { "hex_id": 78961, "centroid_lon": -73.394376815779012, "centroid_lat": 46.078706939540929, "count": 4, "date": "2025-11-23", "n_files": 22, "hours_affected": "0,1,2,3", "datetimes_affected": "2025-11-23 00:00,2025-11-23 01:00,2025-11-23 02:00,2025-11-23 03:00" }, "geometry": { "type": "Polygon", "coordinates": [ [ [ -73.3879886, 46.0760188 ], [ -73.3878373, 46.081213 ], [ -73.3942261, 46.0839012 ], [ -73.4007657, 46.0813947 ], [ -73.4009158, 46.0762005 ], [ -73.3945275, 46.0735127 ], [ -73.3879886, 46.0760188 ] ] ] } },
{ "type": "Feature", "properties": { "hex_id": 79278, "centroid_lon": -73.388593394225211, "centroid_lat": 46.055241893274086, "count": 4, "date": "2025-11-23", "n_files": 22, "hours_affected": "0,1,2,3", "datetimes_affected": "2025-11-23 00:00,2025-11-23 01:00,2025-11-23 02:00,2025-11-23 03:00" }, "geometry": { "type": "Polygon", "coordinates": [ [ [ -73.3822081, 46.0525535 ], [ -73.3820564, 46.0577477 ], [ -73.3884423, 46.0604361 ], [ -73.3949793, 46.05793 ], [ -73.3951298, 46.0527357 ], [ -73.3887445, 46.0500476 ], [ -73.3822081, 46.0525535 ] ] ] } },
{ "type": "Feature", "properties": { "hex_id": 79279, "centroid_lon": -73.388139856219496, "centroid_lat": 46.070824598363551, "count": 4, "date": "2025-11-23", "n_files": 22, "hours_affected": "0,1,2,3", "datetimes_affected": "2025-11-23 00:00,2025-11-23 01:00,2025-11-23 02:00,2025-11-23 03:00" }, "geometry": { "type": "Polygon", "coordinates": [ [ [ -73.3817528, 46.0681361 ], [ -73.381601, 46.0733304 ], [ -73.3879886, 46.0760188 ], [ -73.3945275, 46.0735127 ], [ -73.3946781, 46.0683185 ], [ -73.388291100000018, 46.065630399999989 ], [ -73.3817528, 46.0681361 ] ] ] } },
{ "type": "Feature", "properties": { "hex_id": 79596, "centroid_lon": -73.381904651630563, "centroid_lat": 46.062941929641504, "count": 4, "date": "2025-11-23", "n_files": 22, "hours_affected": "0,1,2,3", "datetimes_affected": "2025-11-23 00:00,2025-11-23 01:00,2025-11-23 02:00,2025-11-23 03:00" }, "geometry": { "type": "Polygon", "coordinates": [ [ [ -73.3755189, 46.0602531 ], [ -73.3753665, 46.0654473 ], [ -73.3817528, 46.0681361 ], [ -73.388291100000018, 46.065630399999989 ], [ -73.3884423, 46.0604361 ], [ -73.3820564, 46.0577477 ], [ -73.3755189, 46.0602531 ] ] ] } },
{ "type": "Feature", "properties": { "hex_id": 79597, "centroid_lon": -73.381449109222856, "centroid_lat": 46.078524562272428, "count": 4, "date": "2025-11-23", "n_files": 22, "hours_affected": "0,1,2,3", "datetimes_affected": "2025-11-23 00:00,2025-11-23 01:00,2025-11-23 02:00,2025-11-23 03:00" }, "geometry": { "type": "Polygon", "coordinates": [ [ [ -73.3750616, 46.0758357 ], [ -73.374909, 46.0810299 ], [ -73.3812972, 46.0837188 ], [ -73.3878373, 46.081213 ], [ -73.3879886, 46.0760188 ], [ -73.381601, 46.0733304 ], [ -73.3750616, 46.0758357 ] ] ] } },
{ "type": "Feature", "properties": { "hex_id": 79914, "centroid_lon": -73.375671201014256, "centroid_lat": 46.055058933655047, "count": 4, "date": "2025-11-23", "n_files": 22, "hours_affected": "0,1,2,3", "datetimes_affected": "2025-11-23 00:00,2025-11-23 01:00,2025-11-23 02:00,2025-11-23 03:00" }, "geometry": { "type": "Polygon", "coordinates": [ [ [ -73.3692866, 46.0523698 ], [ -73.3691337, 46.057564 ], [ -73.3755189, 46.0602531 ], [ -73.3820564, 46.0577477 ], [ -73.3822081, 46.0525535 ], [ -73.3758235, 46.0498647 ], [ -73.3692866, 46.0523698 ] ] ] } },
{ "type": "Feature", "properties": { "hex_id": 79915, "centroid_lon": -73.37521402988061, "centroid_lat": 46.070641539798743, "count": 4, "date": "2025-11-23", "n_files": 22, "hours_affected": "0,1,2,3", "datetimes_affected": "2025-11-23 00:00,2025-11-23 01:00,2025-11-23 02:00,2025-11-23 03:00" }, "geometry": { "type": "Polygon", "coordinates": [ [ [ -73.3688277, 46.0679524 ], [ -73.3686746, 46.0731466 ], [ -73.3750616, 46.0758357 ], [ -73.381601, 46.0733304 ], [ -73.3817528, 46.0681361 ], [ -73.3753665, 46.0654473 ], [ -73.3688277, 46.0679524 ] ] ] } },
{ "type": "Feature", "properties": { "hex_id": 80232, "centroid_lon": -73.368980704945855, "centroid_lat": 46.062758190170435, "count": 4, "date": "2025-11-23", "n_files": 22, "hours_affected": "0,1,2,3", "datetimes_affected": "2025-11-23 00:00,2025-11-23 01:00,2025-11-23 02:00,2025-11-23 03:00" }, "geometry": { "type": "Polygon", "coordinates": [ [ [ -73.3625956, 46.0600687 ], [ -73.362442, 46.0652629 ], [ -73.3688277, 46.0679524 ], [ -73.3753665, 46.0654473 ], [ -73.3755189, 46.0602531 ], [ -73.3691337, 46.057564 ], [ -73.3625956, 46.0600687 ] ] ] } },
{ "type": "Feature", "properties": { "hex_id": 80233, "centroid_lon": -73.368521527977379, "centroid_lat": 46.078340723433307, "count": 4, "date": "2025-11-23", "n_files": 22, "hours_affected": "0,1,2,3", "datetimes_affected": "2025-11-23 00:00,2025-11-23 01:00,2025-11-23 02:00,2025-11-23 03:00" }, "geometry": { "type": "Polygon", "coordinates": [ [ [ -73.3621346, 46.0756512 ], [ -73.3619809, 46.0808453 ], [ -73.3683684, 46.0835349 ], [ -73.374909, 46.0810299 ], [ -73.3750616, 46.0758357 ], [ -73.3686746, 46.0731466 ], [ -73.3621346, 46.0756512 ] ] ] } },
{ "type": "Feature", "properties": { "hex_id": 80550, "centroid_lon": -73.362749133420692, "centroid_lat": 46.054874513667677, "count": 4, "date": "2025-11-23", "n_files": 22, "hours_affected": "0,1,2,3", "datetimes_affected": "2025-11-23 00:00,2025-11-23 01:00,2025-11-23 02:00,2025-11-23 03:00" }, "geometry": { "type": "Polygon", "coordinates": [ [ [ -73.3563652, 46.0521847 ], [ -73.3562111, 46.0573788 ], [ -73.3625956, 46.0600687 ], [ -73.3691337, 46.057564 ], [ -73.3692866, 46.0523698 ], [ -73.3629027, 46.0496803 ], [ -73.3563652, 46.0521847 ] ] ] } },
{ "type": "Feature", "properties": { "hex_id": 80551, "centroid_lon": -73.36228832928748, "centroid_lat": 46.070457020076482, "count": 4, "date": "2025-11-23", "n_files": 22, "hours_affected": "0,1,2,3", "datetimes_affected": "2025-11-23 00:00,2025-11-23 01:00,2025-11-23 02:00,2025-11-23 03:00" }, "geometry": { "type": "Polygon", "coordinates": [ [ [ -73.3559027, 46.0677671 ], [ -73.3557484, 46.0729613 ], [ -73.3621346, 46.0756512 ], [ -73.3686746, 46.0731466 ], [ -73.3688277, 46.0679524 ], [ -73.362442, 46.0652629 ], [ -73.3559027, 46.0677671 ] ] ] } },
{ "type": "Feature", "properties": { "hex_id": 80552, "centroid_lon": -73.361827144922472, "centroid_lat": 46.08603948023265, "count": 4, "date": "2025-11-23", "n_files": 22, "hours_affected": "0,1,2,3", "datetimes_affected": "2025-11-23 00:00,2025-11-23 01:00,2025-11-23 02:00,2025-11-23 03:00" }, "geometry": { "type": "Polygon", "coordinates": [ [ [ -73.3554397, 46.0833496 ], [ -73.3552853, 46.0885437 ], [ -73.3616733, 46.091233599999988 ], [ -73.3682152, 46.0887291 ], [ -73.3683684, 46.0835349 ], [ -73.3619809, 46.0808453 ], [ -73.3554397, 46.0833496 ] ] ] } },
{ "type": "Feature", "properties": { "hex_id": 80867, "centroid_lon": -73.356519314307732, "centroid_lat": 46.046990510570396, "count": 4, "date": "2025-11-23", "n_files": 22, "hours_affected": "0,1,2,3", "datetimes_affected": "2025-11-23 00:00,2025-11-23 01:00,2025-11-23 02:00,2025-11-23 03:00" }, "geometry": { "type": "Polygon", "coordinates": [ [ [ -73.3501366, 46.044300299999989 ], [ -73.3499819, 46.0494945 ], [ -73.3563652, 46.0521847 ], [ -73.3629027, 46.0496803 ], [ -73.3630561, 46.0444862 ], [ -73.3566734, 46.0417963 ], [ -73.3501366, 46.044300299999989 ] ] ] } },
{ "type": "Feature", "properties": { "hex_id": 80868, "centroid_lon": -73.356056884441514, "centroid_lat": 46.062572989955022, "count": 4, "date": "2025-11-23", "n_files": 22, "hours_affected": "0,1,2,3", "datetimes_affected": "2025-11-23 00:00,2025-11-23 01:00,2025-11-23 02:00,2025-11-23 03:00" }, "geometry": { "type": "Polygon", "coordinates": [ [ [ -73.3496724, 46.0598828 ], [ -73.3495176, 46.0650769 ], [ -73.3559027, 46.0677671 ], [ -73.362442, 46.0652629 ], [ -73.3625956, 46.0600687 ], [ -73.3562111, 46.0573788 ], [ -73.3496724, 46.0598828 ] ] ] } },
{ "type": "Feature", "properties": { "hex_id": 80869, "centroid_lon": -73.35559407304126, "centroid_lat": 46.078155423060522, "count": 4, "date": "2025-11-23", "n_files": 22, "hours_affected": "0,1,2,3", "datetimes_affected": "2025-11-23 00:00,2025-11-23 01:00,2025-11-23 02:00,2025-11-23 03:00" }, "geometry": { "type": "Polygon", "coordinates": [ [ [ -73.3492079, 46.0754652 ], [ -73.3490529, 46.0806593 ], [ -73.3554397, 46.0833496 ], [ -73.3619809, 46.0808453 ], [ -73.3621346, 46.0756512 ], [ -73.3557484, 46.0729613 ], [ -73.3492079, 46.0754652 ] ] ] } },
{ "type": "Feature", "properties": { "hex_id": 81186, "centroid_lon": -73.349827192441637, "centroid_lat": 46.054688633349009, "count": 4, "date": "2025-11-23", "n_files": 22, "hours_affected": "0,1,2,3", "datetimes_affected": "2025-11-23 00:00,2025-11-23 01:00,2025-11-23 02:00,2025-11-23 03:00" }, "geometry": { "type": "Polygon", "coordinates": [ [ [ -73.3434439, 46.0519981 ], [ -73.3432886, 46.0571922 ], [ -73.3496724, 46.0598828 ], [ -73.3562111, 46.0573788 ], [ -73.3563652, 46.0521847 ], [ -73.3499819, 46.0494945 ], [ -73.3434439, 46.0519981 ] ] ] } },
{ "type": "Feature", "properties": { "hex_id": 81187, "centroid_lon": -73.349362755438264, "centroid_lat": 46.07027103923383, "count": 4, "date": "2025-11-23", "n_files": 22, "hours_affected": "0,1,2,3", "datetimes_affected": "2025-11-23 00:00,2025-11-23 01:00,2025-11-23 02:00,2025-11-23 03:00" }, "geometry": { "type": "Polygon", "coordinates": [ [ [ -73.3429778, 46.0675804 ], [ -73.3428223, 46.0727746 ], [ -73.3492079, 46.0754652 ], [ -73.3557484, 46.0729613 ], [ -73.3559027, 46.0677671 ], [ -73.3495176, 46.0650769 ], [ -73.3429778, 46.0675804 ] ] ] } },
{ "type": "Feature", "properties": { "hex_id": 81188, "centroid_lon": -73.348897935208811, "centroid_lat": 46.085853398809903, "count": 4, "date": "2025-11-23", "n_files": 22, "hours_affected": "0,1,2,3", "datetimes_affected": "2025-11-23 00:00,2025-11-23 01:00,2025-11-23 02:00,2025-11-23 03:00" }, "geometry": { "type": "Polygon", "coordinates": [ [ [ -73.3425112, 46.0831628 ], [ -73.3423556, 46.0883569 ], [ -73.3487429, 46.0910475 ], [ -73.3552853, 46.0885437 ], [ -73.3554397, 46.0833496 ], [ -73.3490529, 46.0806593 ], [ -73.3425112, 46.0831628 ] ] ] } },
{ "type": "Feature", "properties": { "hex_id": 81503, "centroid_lon": -73.343599252290545, "centroid_lat": 46.046803950538205, "count": 4, "date": "2025-11-23", "n_files": 22, "hours_affected": "0,1,2,3", "datetimes_affected": "2025-11-23 00:00,2025-11-23 01:00,2025-11-23 02:00,2025-11-23 03:00" }, "geometry": { "type": "Polygon", "coordinates": [ [ [ -73.3372172, 46.0441131 ], [ -73.3370613, 46.0493072 ], [ -73.3434439, 46.0519981 ], [ -73.3499819, 46.0494945 ], [ -73.3501366, 46.044300299999989 ], [ -73.3437545, 46.041609799999989 ], [ -73.3372172, 46.0441131 ] ] ] } },
{ "type": "Feature", "properties": { "hex_id": 81504, "centroid_lon": -73.343133191115172, "centroid_lat": 46.062386329032499, "count": 4, "date": "2025-11-23", "n_files": 22, "hours_affected": "0,1,2,3", "datetimes_affected": "2025-11-23 00:00,2025-11-23 01:00,2025-11-23 02:00,2025-11-23 03:00" }, "geometry": { "type": "Polygon", "coordinates": [ [ [ -73.3367494, 46.0596954 ], [ -73.3365934, 46.0648895 ], [ -73.3429778, 46.0675804 ], [ -73.3495176, 46.0650769 ], [ -73.3496724, 46.0598828 ], [ -73.3432886, 46.0571922 ], [ -73.3367494, 46.0596954 ] ] ] } },
{ "type": "Feature", "properties": { "hex_id": 81505, "centroid_lon": -73.342666745413098, "centroid_lat": 46.077968661191314, "count": 4, "date": "2025-11-23", "n_files": 22, "hours_affected": "0,1,2,3", "datetimes_affected": "2025-11-23 00:00,2025-11-23 01:00,2025-11-23 02:00,2025-11-23 03:00" }, "geometry": { "type": "Polygon", "coordinates": [ [ [ -73.3362812, 46.0752777 ], [ -73.336125, 46.0804718 ], [ -73.3425112, 46.0831628 ], [ -73.3490529, 46.0806593 ], [ -73.3492079, 46.0754652 ], [ -73.3428223, 46.0727746 ], [ -73.3362812, 46.0752777 ] ] ] } },
{ "type": "Feature", "properties": { "hex_id": 81822, "centroid_lon": -73.336905379074182, "centroid_lat": 46.054501292736383, "count": 4, "date": "2025-11-23", "n_files": 22, "hours_affected": "0,1,2,3", "datetimes_affected": "2025-11-23 00:00,2025-11-23 01:00,2025-11-23 02:00,2025-11-23 03:00" }, "geometry": { "type": "Polygon", "coordinates": [ [ [ -73.330522800000011, 46.05181 ], [ -73.3303662, 46.0570041 ], [ -73.3367494, 46.0596954 ], [ -73.3432886, 46.0571922 ], [ -73.3434439, 46.0519981 ], [ -73.3370613, 46.0493072 ], [ -73.330522800000011, 46.05181 ] ] ] } },
{ "type": "Feature", "properties": { "hex_id": 81823, "centroid_lon": -73.336437309331046, "centroid_lat": 46.070083597308191, "count": 4, "date": "2025-11-23", "n_files": 22, "hours_affected": "0,1,2,3", "datetimes_affected": "2025-11-23 00:00,2025-11-23 01:00,2025-11-23 02:00,2025-11-23 03:00" }, "geometry": { "type": "Polygon", "coordinates": [ [ [ -73.330053, 46.067392299999987 ], [ -73.3298963, 46.0725864 ], [ -73.3362812, 46.0752777 ], [ -73.3428223, 46.0727746 ], [ -73.3429778, 46.0675804 ], [ -73.3365934, 46.0648895 ], [ -73.330053, 46.067392299999987 ] ] ] } },
{ "type": "Feature", "properties": { "hex_id": 82139, "centroid_lon": -73.330679318318062, "centroid_lat": 46.04661593062518, "count": 4, "date": "2025-11-23", "n_files": 22, "hours_affected": "0,1,2,3", "datetimes_affected": "2025-11-23 00:00,2025-11-23 01:00,2025-11-23 02:00,2025-11-23 03:00" }, "geometry": { "type": "Polygon", "coordinates": [ [ [ -73.3242979, 46.0439243 ], [ -73.3241408, 46.0491184 ], [ -73.330522800000011, 46.05181 ], [ -73.3370613, 46.0493072 ], [ -73.3372172, 46.0441131 ], [ -73.3308358, 46.0414218 ], [ -73.3242979, 46.0439243 ] ] ] } },
{ "type": "Feature", "properties": { "hex_id": 82140, "centroid_lon": -73.330209625964343, "centroid_lat": 46.062198207440325, "count": 4, "date": "2025-11-23", "n_files": 22, "hours_affected": "0,1,2,3", "datetimes_affected": "2025-11-23 00:00,2025-11-23 01:00,2025-11-23 02:00,2025-11-23 03:00" }, "geometry": { "type": "Polygon", "coordinates": [ [ [ -73.3238265, 46.0595066 ], [ -73.3236693, 46.0647006 ], [ -73.330053, 46.067392299999987 ], [ -73.3365934, 46.0648895 ], [ -73.3367494, 46.0596954 ], [ -73.3303662, 46.0570041 ], [ -73.3238265, 46.0595066 ] ] ] } },
{ "type": "Feature", "properties": { "hex_id": 82458, "centroid_lon": -73.323983694315316, "centroid_lat": 46.054312491867442, "count": 4, "date": "2025-11-23", "n_files": 22, "hours_affected": "0,1,2,3", "datetimes_affected": "2025-11-23 00:00,2025-11-23 01:00,2025-11-23 02:00,2025-11-23 03:00" }, "geometry": { "type": "Polygon", "coordinates": [ [ [ -73.3176018, 46.0516205 ], [ -73.317444, 46.0568146 ], [ -73.3238265, 46.0595066 ], [ -73.3303662, 46.0570041 ], [ -73.330522800000011, 46.05181 ], [ -73.3241408, 46.0491184 ], [ -73.3176018, 46.0516205 ] ] ] } },
{ "type": "Feature", "properties": { "hex_id": 82775, "centroid_lon": -73.317759513386761, "centroid_lat": 46.046426450869099, "count": 4, "date": "2025-11-23", "n_files": 22, "hours_affected": "0,1,2,3", "datetimes_affected": "2025-11-23 00:00,2025-11-23 01:00,2025-11-23 02:00,2025-11-23 03:00" }, "geometry": { "type": "Polygon", "coordinates": [ [ [ -73.3113788, 46.0437341 ], [ -73.3112205, 46.0489282 ], [ -73.3176018, 46.0516205 ], [ -73.3241408, 46.0491184 ], [ -73.3242979, 46.0439243 ], [ -73.3179172, 46.0412324 ], [ -73.3113788, 46.0437341 ] ] ] } },
{ "type": "Feature", "properties": { "hex_id": 85351, "centroid_lon": -73.250268832995161, "centroid_lat": 46.544246973816691, "count": 2, "date": "2025-11-23", "n_files": 22, "hours_affected": "0,1", "datetimes_affected": "2025-11-23 00:00,2025-11-23 01:00" }, "geometry": { "type": "Polygon", "coordinates": [ [ [ -73.2438342, 46.5415503 ], [ -73.2436666, 46.5467438 ], [ -73.2501019, 46.5494404 ], [ -73.2567041, 46.5469432 ], [ -73.256870400000011, 46.5417498 ], [ -73.2504357, 46.5390535 ], [ -73.2438342, 46.5415503 ] ] ] } },
{ "type": "Feature", "properties": { "hex_id": 85668, "centroid_lon": -73.244503820528422, "centroid_lat": 46.520776654470723, "count": 2, "date": "2025-11-23", "n_files": 22, "hours_affected": "0,1", "datetimes_affected": "2025-11-23 00:00,2025-11-23 01:00" }, "geometry": { "type": "Polygon", "coordinates": [ [ [ -73.2380722, 46.5180797 ], [ -73.2379042, 46.5232732 ], [ -73.2443365, 46.5259701 ], [ -73.2509361, 46.5234732 ], [ -73.2511028, 46.5182798 ], [ -73.2446711, 46.5155832 ], [ -73.2380722, 46.5180797 ] ] ] } },
{ "type": "Feature", "properties": { "hex_id": 85669, "centroid_lon": -73.244001649558768, "centroid_lat": 46.536356931712859, "count": 2, "date": "2025-11-23", "n_files": 22, "hours_affected": "0,1", "datetimes_affected": "2025-11-23 00:00,2025-11-23 01:00" }, "geometry": { "type": "Polygon", "coordinates": [ [ [ -73.2375682, 46.53366 ], [ -73.2374001, 46.5388534 ], [ -73.2438342, 46.5415503 ], [ -73.2504357, 46.5390535 ], [ -73.2506026, 46.5338601 ], [ -73.2441691, 46.5311635 ], [ -73.2375682, 46.53366 ] ] ] } },
{ "type": "Feature", "properties": { "hex_id": 85670, "centroid_lon": -73.243499061751052, "centroid_lat": 46.55193716214103, "count": 2, "date": "2025-11-23", "n_files": 22, "hours_affected": "0,1", "datetimes_affected": "2025-11-23 00:00,2025-11-23 01:00" }, "geometry": { "type": "Polygon", "coordinates": [ [ [ -73.2370638, 46.5492401 ], [ -73.2368956, 46.5544335 ], [ -73.2433314, 46.5571306 ], [ -73.2499349, 46.5546338 ], [ -73.2501019, 46.5494404 ], [ -73.2436666, 46.5467438 ], [ -73.2370638, 46.5492401 ] ] ] } },
{ "type": "Feature", "properties": { "hex_id": 85984, "centroid_lon": -73.238743488031645, "centroid_lat": 46.497306021163801, "count": 2, "date": "2025-11-23", "n_files": 22, "hours_affected": "0,1", "datetimes_affected": "2025-11-23 00:00,2025-11-23 01:00" }, "geometry": { "type": "Polygon", "coordinates": [ [ [ -73.2323149, 46.494608799999988 ], [ -73.2321465, 46.4998022 ], [ -73.2385757, 46.5024995 ], [ -73.2451727, 46.5000029 ], [ -73.2453398, 46.4948094 ], [ -73.2389112, 46.4921126 ], [ -73.2323149, 46.494608799999988 ] ] ] } },
{ "type": "Feature", "properties": { "hex_id": 85985, "centroid_lon": -73.238240082342145, "centroid_lat": 46.512886314440117, "count": 2, "date": "2025-11-23", "n_files": 22, "hours_affected": "0,1", "datetimes_affected": "2025-11-23 00:00,2025-11-23 01:00" }, "geometry": { "type": "Polygon", "coordinates": [ [ [ -73.2318097, 46.5101891 ], [ -73.2316412, 46.5153825 ], [ -73.2380722, 46.5180797 ], [ -73.2446711, 46.5155832 ], [ -73.2448384, 46.5103898 ], [ -73.2384079, 46.5076929 ], [ -73.2318097, 46.5101891 ] ] ] } },
{ "type": "Feature", "properties": { "hex_id": 85986, "centroid_lon": -73.23773625891981, "centroid_lat": 46.528466560876609, "count": 2, "date": "2025-11-23", "n_files": 22, "hours_affected": "0,1", "datetimes_affected": "2025-11-23 00:00,2025-11-23 01:00" }, "geometry": { "type": "Polygon", "coordinates": [ [ [ -73.2313041, 46.5257693 ], [ -73.2311354, 46.5309626 ], [ -73.2375682, 46.53366 ], [ -73.2441691, 46.5311635 ], [ -73.2443365, 46.5259701 ], [ -73.2379042, 46.5232732 ], [ -73.2313041, 46.5257693 ] ] ] } },
{ "type": "Feature", "properties": { "hex_id": 85987, "centroid_lon": -73.237232017332559, "centroid_lat": 46.544046760469996, "count": 2, "date": "2025-11-23", "n_files": 22, "hours_affected": "0,1", "datetimes_affected": "2025-11-23 00:00,2025-11-23 01:00" }, "geometry": { "type": "Polygon", "coordinates": [ [ [ -73.230798, 46.5413494 ], [ -73.2306293, 46.5465428 ], [ -73.2370638, 46.5492401 ], [ -73.2436666, 46.5467438 ], [ -73.2438342, 46.5415503 ], [ -73.2374001, 46.5388534 ], [ -73.230798, 46.5413494 ] ] ] } },
{ "type": "Feature", "properties": { "hex_id": 86302, "centroid_lon": -73.232483189803872, "centroid_lat": 46.4894153838015, "count": 2, "date": "2025-11-23", "n_files": 22, "hours_affected": "0,1", "datetimes_affected": "2025-11-23 00:00,2025-11-23 01:00" }, "geometry": { "type": "Polygon", "coordinates": [ [ [ -73.2260558, 46.4867178 ], [ -73.2258869, 46.4919112 ], [ -73.2323149, 46.494608799999988 ], [ -73.2389112, 46.4921126 ], [ -73.2390789, 46.486919099999987 ], [ -73.2326514, 46.484222 ], [ -73.2260558, 46.4867178 ] ] ] } },
{ "type": "Feature", "properties": { "hex_id": 86303, "centroid_lon": -73.231978134455318, "centroid_lat": 46.504995646130865, "count": 2, "date": "2025-11-23", "n_files": 22, "hours_affected": "0,1", "datetimes_affected": "2025-11-23 00:00,2025-11-23 01:00" }, "geometry": { "type": "Polygon", "coordinates": [ [ [ -73.225549, 46.502298 ], [ -73.2253799, 46.5074914 ], [ -73.2318097, 46.5101891 ], [ -73.2384079, 46.5076929 ], [ -73.2385757, 46.5024995 ], [ -73.2321465, 46.4998022 ], [ -73.225549, 46.502298 ] ] ] } },
{ "type": "Feature", "properties": { "hex_id": 86304, "centroid_lon": -73.231472660049803, "centroid_lat": 46.520575861591212, "count": 2, "date": "2025-11-23", "n_files": 22, "hours_affected": "0,1", "datetimes_affected": "2025-11-23 00:00,2025-11-23 01:00" }, "geometry": { "type": "Polygon", "coordinates": [ [ [ -73.2250417, 46.5178782 ], [ -73.2248725, 46.5230716 ], [ -73.2313041, 46.5257693 ], [ -73.2379042, 46.5232732 ], [ -73.2380722, 46.5180797 ], [ -73.2316412, 46.5153825 ], [ -73.2250417, 46.5178782 ] ] ] } },
{ "type": "Feature", "properties": { "hex_id": 86305, "centroid_lon": -73.230966766153983, "centroid_lat": 46.536156030179249, "count": 2, "date": "2025-11-23", "n_files": 22, "hours_affected": "0,1", "datetimes_affected": "2025-11-23 00:00,2025-11-23 01:00" }, "geometry": { "type": "Polygon", "coordinates": [ [ [ -73.224534, 46.5334583 ], [ -73.2243647, 46.5386517 ], [ -73.230798, 46.5413494 ], [ -73.2374001, 46.5388534 ], [ -73.2375682, 46.53366 ], [ -73.2311354, 46.5309626 ], [ -73.224534, 46.5334583 ] ] ] } },
{ "type": "Feature", "properties": { "hex_id": 86619, "centroid_lon": -73.226224679381687, "centroid_lat": 46.481524418613802, "count": 2, "date": "2025-11-23", "n_files": 22, "hours_affected": "0,1", "datetimes_affected": "2025-11-23 00:00,2025-11-23 01:00" }, "geometry": { "type": "Polygon", "coordinates": [ [ [ -73.2197986, 46.4788265 ], [ -73.2196291, 46.4840199 ], [ -73.2260558, 46.4867178 ], [ -73.2326514, 46.484222 ], [ -73.2328197, 46.4790285 ], [ -73.2263935, 46.476331 ], [ -73.2197986, 46.4788265 ] ] ] } },
{ "type": "Feature", "properties": { "hex_id": 86620, "centroid_lon": -73.225717975841022, "centroid_lat": 46.49710464982595, "count": 2, "date": "2025-11-23", "n_files": 22, "hours_affected": "0,1", "datetimes_affected": "2025-11-23 00:00,2025-11-23 01:00" }, "geometry": { "type": "Polygon", "coordinates": [ [ [ -73.2192901, 46.4944067 ], [ -73.2191205, 46.4996001 ], [ -73.225549, 46.502298 ], [ -73.2321465, 46.4998022 ], [ -73.2323149, 46.494608799999988 ], [ -73.2258869, 46.4919112 ], [ -73.2192901, 46.4944067 ] ] ] } },
{ "type": "Feature", "properties": { "hex_id": 86621, "centroid_lon": -73.225210851920792, "centroid_lat": 46.512684834139819, "count": 2, "date": "2025-11-23", "n_files": 22, "hours_affected": "0,1", "datetimes_affected": "2025-11-23 00:00,2025-11-23 01:00" }, "geometry": { "type": "Polygon", "coordinates": [ [ [ -73.2187811, 46.5099869 ], [ -73.2186114, 46.5151802 ], [ -73.2250417, 46.5178782 ], [ -73.2316412, 46.5153825 ], [ -73.2318097, 46.5101891 ], [ -73.2253799, 46.5074914 ], [ -73.2187811, 46.5099869 ] ] ] } },
{ "type": "Feature", "properties": { "hex_id": 86622, "centroid_lon": -73.22470330718636, "centroid_lat": 46.528264971552069, "count": 2, "date": "2025-11-23", "n_files": 22, "hours_affected": "0,1", "datetimes_affected": "2025-11-23 00:00,2025-11-23 01:00" }, "geometry": { "type": "Polygon", "coordinates": [ [ [ -73.218271800000011, 46.5255669 ], [ -73.2181019, 46.5307603 ], [ -73.224534, 46.5334583 ], [ -73.2311354, 46.5309626 ], [ -73.2313041, 46.5257693 ], [ -73.2248725, 46.5230716 ], [ -73.218271800000011, 46.5255669 ] ] ] } },
{ "type": "Feature", "properties": { "hex_id": 86623, "centroid_lon": -73.22419534120246, "centroid_lat": 46.543845062059333, "count": 2, "date": "2025-11-23", "n_files": 22, "hours_affected": "0,1", "datetimes_affected": "2025-11-23 00:00,2025-11-23 01:00" }, "geometry": { "type": "Polygon", "coordinates": [ [ [ -73.2177621, 46.541147 ], [ -73.217592, 46.5463403 ], [ -73.2240259, 46.5490384 ], [ -73.2306293, 46.5465428 ], [ -73.230798, 46.5413494 ], [ -73.2243647, 46.5386517 ], [ -73.2177621, 46.541147 ] ] ] } },
{ "type": "Feature", "properties": { "hex_id": 86938, "centroid_lon": -73.219459605472977, "centroid_lat": 46.48921332580823, "count": 2, "date": "2025-11-23", "n_files": 22, "hours_affected": "0,1", "datetimes_affected": "2025-11-23 00:00,2025-11-23 01:00" }, "geometry": { "type": "Polygon", "coordinates": [ [ [ -73.2130329, 46.4865151 ], [ -73.2128628, 46.4917084 ], [ -73.2192901, 46.4944067 ], [ -73.2258869, 46.4919112 ], [ -73.2260558, 46.4867178 ], [ -73.2196291, 46.4840199 ], [ -73.2130329, 46.4865151 ] ] ] } },
{ "type": "Feature", "properties": { "hex_id": 86939, "centroid_lon": -73.218950833505431, "centroid_lat": 46.504793478805425, "count": 2, "date": "2025-11-23", "n_files": 22, "hours_affected": "0,1", "datetimes_affected": "2025-11-23 00:00,2025-11-23 01:00" }, "geometry": { "type": "Polygon", "coordinates": [ [ [ -73.2125224, 46.5020952 ], [ -73.2123521, 46.5072885 ], [ -73.2187811, 46.5099869 ], [ -73.2253799, 46.5074914 ], [ -73.225549, 46.502298 ], [ -73.2191205, 46.4996001 ], [ -73.2125224, 46.5020952 ] ] ] } },
{ "type": "Feature", "properties": { "hex_id": 86940, "centroid_lon": -73.218441639401263, "centroid_lat": 46.520373584871614, "count": 2, "date": "2025-11-23", "n_files": 22, "hours_affected": "0,1", "datetimes_affected": "2025-11-23 00:00,2025-11-23 01:00" }, "geometry": { "type": "Polygon", "coordinates": [ [ [ -73.2120114, 46.5176752 ], [ -73.211841, 46.5228686 ], [ -73.218271800000011, 46.5255669 ], [ -73.2248725, 46.5230716 ], [ -73.2250417, 46.5178782 ], [ -73.2186114, 46.5151802 ], [ -73.2120114, 46.5176752 ] ] ] } },
{ "type": "Feature", "properties": { "hex_id": 86941, "centroid_lon": -73.217932022723943, "centroid_lat": 46.535953644003399, "count": 2, "date": "2025-11-23", "n_files": 22, "hours_affected": "0,1", "datetimes_affected": "2025-11-23 00:00,2025-11-23 01:00" }, "geometry": { "type": "Polygon", "coordinates": [ [ [ -73.2115, 46.5332552 ], [ -73.2113294, 46.5384486 ], [ -73.2177621, 46.541147 ], [ -73.2243647, 46.5386517 ], [ -73.224534, 46.5334583 ], [ -73.2181019, 46.5307603 ], [ -73.2115, 46.5332552 ] ] ] } },
{ "type": "Feature", "properties": { "hex_id": 87255, "centroid_lon": -73.213203022325445, "centroid_lat": 46.481321674360395, "count": 2, "date": "2025-11-23", "n_files": 22, "hours_affected": "0,1", "datetimes_affected": "2025-11-23 00:00,2025-11-23 01:00" }, "geometry": { "type": "Polygon", "coordinates": [ [ [ -73.2067776, 46.4786231 ], [ -73.2066069, 46.4838164 ], [ -73.2130329, 46.4865151 ], [ -73.2196291, 46.4840199 ], [ -73.2197986, 46.4788265 ], [ -73.2133731, 46.4761283 ], [ -73.2067776, 46.4786231 ] ] ] } },
{ "type": "Feature", "properties": { "hex_id": 87256, "centroid_lon": -73.212692603776901, "centroid_lat": 46.496901795870869, "count": 2, "date": "2025-11-23", "n_files": 22, "hours_affected": "0,1", "datetimes_affected": "2025-11-23 00:00,2025-11-23 01:00" }, "geometry": { "type": "Polygon", "coordinates": [ [ [ -73.2062654, 46.4942031 ], [ -73.2060945, 46.4993965 ], [ -73.2125224, 46.5020952 ], [ -73.2191205, 46.4996001 ], [ -73.2192901, 46.4944067 ], [ -73.2128628, 46.4917084 ], [ -73.2062654, 46.4942031 ] ] ] } },
{ "type": "Feature", "properties": { "hex_id": 87257, "centroid_lon": -73.212181761770822, "centroid_lat": 46.512481870420856, "count": 2, "date": "2025-11-23", "n_files": 22, "hours_affected": "0,1", "datetimes_affected": "2025-11-23 00:00,2025-11-23 01:00" }, "geometry": { "type": "Polygon", "coordinates": [ [ [ -73.2057527, 46.5097832 ], [ -73.2055818, 46.5149765 ], [ -73.2120114, 46.5176752 ], [ -73.2186114, 46.5151802 ], [ -73.2187811, 46.5099869 ], [ -73.2123521, 46.5072885 ], [ -73.2057527, 46.5097832 ] ] ] } },
{ "type": "Feature", "properties": { "hex_id": 87258, "centroid_lon": -73.211670495869384, "centroid_lat": 46.528061898006982, "count": 2, "date": "2025-11-23", "n_files": 22, "hours_affected": "0,1", "datetimes_affected": "2025-11-23 00:00,2025-11-23 01:00" }, "geometry": { "type": "Polygon", "coordinates": [ [ [ -73.2052397, 46.5253631 ], [ -73.2050686, 46.5305565 ], [ -73.2115, 46.5332552 ], [ -73.2181019, 46.5307603 ], [ -73.218271800000011, 46.5255669 ], [ -73.211841, 46.5228686 ], [ -73.2052397, 46.5253631 ] ] ] } },
{ "type": "Feature", "properties": { "hex_id": 87574, "centroid_lon": -73.206436161708965, "centroid_lat": 46.489009785618862, "count": 2, "date": "2025-11-23", "n_files": 22, "hours_affected": "0,1", "datetimes_affected": "2025-11-23 00:00,2025-11-23 01:00" }, "geometry": { "type": "Polygon", "coordinates": [ [ [ -73.2000102, 46.4863108 ], [ -73.1998388, 46.4915041 ], [ -73.2062654, 46.4942031 ], [ -73.2128628, 46.4917084 ], [ -73.2130329, 46.4865151 ], [ -73.2066069, 46.4838164 ], [ -73.2000102, 46.4863108 ] ] ] } },
{ "type": "Feature", "properties": { "hex_id": 87575, "centroid_lon": -73.205923673267733, "centroid_lat": 46.504589828482679, "count": 2, "date": "2025-11-23", "n_files": 22, "hours_affected": "0,1", "datetimes_affected": "2025-11-23 00:00,2025-11-23 01:00" }, "geometry": { "type": "Polygon", "coordinates": [ [ [ -73.1994959, 46.5018908 ], [ -73.1993244, 46.5070841 ], [ -73.2057527, 46.5097832 ], [ -73.2123521, 46.5072885 ], [ -73.2125224, 46.5020952 ], [ -73.2060945, 46.4993965 ], [ -73.1994959, 46.5018908 ] ] ] } },
{ "type": "Feature", "properties": { "hex_id": 87576, "centroid_lon": -73.20541075961043, "centroid_lat": 46.520169824353061, "count": 2, "date": "2025-11-23", "n_files": 22, "hours_affected": "0,1", "datetimes_affected": "2025-11-23 00:00,2025-11-23 01:00" }, "geometry": { "type": "Polygon", "coordinates": [ [ [ -73.1989812, 46.5174707 ], [ -73.1988095, 46.522664 ], [ -73.2052397, 46.5253631 ], [ -73.211841, 46.5228686 ], [ -73.2120114, 46.5176752 ], [ -73.2055818, 46.5149765 ], [ -73.1989812, 46.5174707 ] ] ] } },
{ "type": "Feature", "properties": { "hex_id": 87577, "centroid_lon": -73.204897420297328, "centroid_lat": 46.53574977322652, "count": 2, "date": "2025-11-23", "n_files": 22, "hours_affected": "0,1", "datetimes_affected": "2025-11-23 00:00,2025-11-23 01:00" }, "geometry": { "type": "Polygon", "coordinates": [ [ [ -73.1984661, 46.5330506 ], [ -73.1982943, 46.5382439 ], [ -73.2047262, 46.5409431 ], [ -73.2113294, 46.5384486 ], [ -73.2115, 46.5332552 ], [ -73.2050686, 46.5305565 ], [ -73.1984661, 46.5330506 ] ] ] } },
{ "type": "Feature", "properties": { "hex_id": 87891, "centroid_lon": -73.200181506275939, "centroid_lat": 46.481117448331943, "count": 2, "date": "2025-11-23", "n_files": 22, "hours_affected": "0,1", "datetimes_affected": "2025-11-23 00:00,2025-11-23 01:00" }, "geometry": { "type": "Polygon", "coordinates": [ [ [ -73.1937568, 46.4784181 ], [ -73.1935848, 46.4836114 ], [ -73.2000102, 46.4863108 ], [ -73.2066069, 46.4838164 ], [ -73.2067776, 46.4786231 ], [ -73.2003528, 46.4759241 ], [ -73.1937568, 46.4784181 ] ] ] } },
{ "type": "Feature", "properties": { "hex_id": 87892, "centroid_lon": -73.199667372865264, "centroid_lat": 46.496697459339785, "count": 2, "date": "2025-11-23", "n_files": 22, "hours_affected": "0,1", "datetimes_affected": "2025-11-23 00:00,2025-11-23 01:00" }, "geometry": { "type": "Polygon", "coordinates": [ [ [ -73.1932408, 46.4939981 ], [ -73.1930688, 46.4991914 ], [ -73.1994959, 46.5018908 ], [ -73.2060945, 46.4993965 ], [ -73.2062654, 46.4942031 ], [ -73.1998388, 46.4915041 ], [ -73.1932408, 46.4939981 ] ] ] } },
{ "type": "Feature", "properties": { "hex_id": 87893, "centroid_lon": -73.19915281291928, "centroid_lat": 46.51227742332452, "count": 2, "date": "2025-11-23", "n_files": 22, "hours_affected": "0,1", "datetimes_affected": "2025-11-23 00:00,2025-11-23 01:00" }, "geometry": { "type": "Polygon", "coordinates": [ [ [ -73.1927245, 46.509578 ], [ -73.192552300000017, 46.5147713 ], [ -73.1989812, 46.5174707 ], [ -73.2055818, 46.5149765 ], [ -73.2057527, 46.5097832 ], [ -73.1993244, 46.5070841 ], [ -73.1927245, 46.509578 ] ] ] } },
{ "type": "Feature", "properties": { "hex_id": 87894, "centroid_lon": -73.198637825996997, "centroid_lat": 46.527857340282651, "count": 2, "date": "2025-11-23", "n_files": 22, "hours_affected": "0,1", "datetimes_affected": "2025-11-23 00:00,2025-11-23 01:00" }, "geometry": { "type": "Polygon", "coordinates": [ [ [ -73.1922077, 46.5251579 ], [ -73.1920354, 46.5303511 ], [ -73.1984661, 46.5330506 ], [ -73.2050686, 46.5305565 ], [ -73.2052397, 46.5253631 ], [ -73.1988095, 46.522664 ], [ -73.1922077, 46.5251579 ] ] ] } },
{ "type": "Feature", "properties": { "hex_id": 88209, "centroid_lon": -73.193928636452725, "centroid_lat": 46.473224784292562, "count": 2, "date": "2025-11-23", "n_files": 22, "hours_affected": "0,1", "datetimes_affected": "2025-11-23 00:00,2025-11-23 01:00" }, "geometry": { "type": "Polygon", "coordinates": [ [ [ -73.1875051, 46.4705251 ], [ -73.1873327, 46.4757184 ], [ -73.1937568, 46.4784181 ], [ -73.2003528, 46.4759241 ], [ -73.200524, 46.4707307 ], [ -73.1941005, 46.4680314 ], [ -73.1875051, 46.4705251 ] ] ] } },
{ "type": "Feature", "properties": { "hex_id": 88210, "centroid_lon": -73.193412859537247, "centroid_lat": 46.488804763274743, "count": 2, "date": "2025-11-23", "n_files": 22, "hours_affected": "0,1", "datetimes_affected": "2025-11-23 00:00,2025-11-23 01:00" }, "geometry": { "type": "Polygon", "coordinates": [ [ [ -73.1869876, 46.486105 ], [ -73.1868149, 46.4912983 ], [ -73.1932408, 46.4939981 ], [ -73.1998388, 46.4915041 ], [ -73.2000102, 46.4863108 ], [ -73.1935848, 46.4836114 ], [ -73.1869876, 46.486105 ] ] ] } },
{ "type": "Feature", "properties": { "hex_id": 88211, "centroid_lon": -73.192896654768703, "centroid_lat": 46.50438469520406, "count": 2, "date": "2025-11-23", "n_files": 22, "hours_affected": "0,1", "datetimes_affected": "2025-11-23 00:00,2025-11-23 01:00" }, "geometry": { "type": "Polygon", "coordinates": [ [ [ -73.1864696, 46.5016849 ], [ -73.1862968, 46.5068782 ], [ -73.1927245, 46.509578 ], [ -73.1993244, 46.5070841 ], [ -73.1994959, 46.5018908 ], [ -73.1930688, 46.4991914 ], [ -73.1864696, 46.5016849 ] ] ] } },
{ "type": "Feature", "properties": { "hex_id": 88212, "centroid_lon": -73.192380021704835, "centroid_lat": 46.51996458007703, "count": 2, "date": "2025-11-23", "n_files": 22, "hours_affected": "0,1", "datetimes_affected": "2025-11-23 00:00,2025-11-23 01:00" }, "geometry": { "type": "Polygon", "coordinates": [ [ [ -73.1859512, 46.5172648 ], [ -73.1857782, 46.522458 ], [ -73.1922077, 46.5251579 ], [ -73.1988095, 46.522664 ], [ -73.1989812, 46.5174707 ], [ -73.192552300000017, 46.5147713 ], [ -73.1859512, 46.5172648 ] ] ] } },
{ "type": "Feature", "properties": { "hex_id": 88527, "centroid_lon": -73.187160132258086, "centroid_lat": 46.480911740569958, "count": 2, "date": "2025-11-23", "n_files": 22, "hours_affected": "0,1", "datetimes_affected": "2025-11-23 00:00,2025-11-23 01:00" }, "geometry": { "type": "Polygon", "coordinates": [ [ [ -73.1807361, 46.4782117 ], [ -73.1805629, 46.483405 ], [ -73.1869876, 46.486105 ], [ -73.1935848, 46.4836114 ], [ -73.1937568, 46.4784181 ], [ -73.1873327, 46.4757184 ], [ -73.1807361, 46.4782117 ] ] ] } },
{ "type": "Feature", "properties": { "hex_id": 88528, "centroid_lon": -73.186642284132049, "centroid_lat": 46.496491640274272, "count": 2, "date": "2025-11-23", "n_files": 22, "hours_affected": "0,1", "datetimes_affected": "2025-11-23 00:00,2025-11-23 01:00" }, "geometry": { "type": "Polygon", "coordinates": [ [ [ -73.1802164, 46.4937915 ], [ -73.1800431, 46.4989848 ], [ -73.1864696, 46.5016849 ], [ -73.1930688, 46.4991914 ], [ -73.1932408, 46.4939981 ], [ -73.1868149, 46.4912983 ], [ -73.1802164, 46.4937915 ] ] ] } },
{ "type": "Feature", "properties": { "hex_id": 88529, "centroid_lon": -73.186124006393143, "centroid_lat": 46.512071492892375, "count": 2, "date": "2025-11-23", "n_files": 22, "hours_affected": "0,1", "datetimes_affected": "2025-11-23 00:00,2025-11-23 01:00" }, "geometry": { "type": "Polygon", "coordinates": [ [ [ -73.1796964, 46.5093713 ], [ -73.1795229, 46.5145646 ], [ -73.1859512, 46.5172648 ], [ -73.192552300000017, 46.5147713 ], [ -73.1927245, 46.509578 ], [ -73.1862968, 46.5068782 ], [ -73.1796964, 46.5093713 ] ] ] } },
{ "type": "Feature", "properties": { "hex_id": 88845, "centroid_lon": -73.180909190002723, "centroid_lat": 46.473018391507708, "count": 2, "date": "2025-11-23", "n_files": 22, "hours_affected": "0,1", "datetimes_affected": "2025-11-23 00:00,2025-11-23 01:00" }, "geometry": { "type": "Polygon", "coordinates": [ [ [ -73.1744864, 46.470318 ], [ -73.1743127, 46.4755113 ], [ -73.1807361, 46.4782117 ], [ -73.1873327, 46.4757184 ], [ -73.1875051, 46.4705251 ], [ -73.1810823, 46.4678251 ], [ -73.1744864, 46.470318 ] ] ] } },
{ "type": "Feature", "properties": { "hex_id": 88846, "centroid_lon": -73.180389699983195, "centroid_lat": 46.488598258817582, "count": 2, "date": "2025-11-23", "n_files": 22, "hours_affected": "0,1", "datetimes_affected": "2025-11-23 00:00,2025-11-23 01:00" }, "geometry": { "type": "Polygon", "coordinates": [ [ [ -73.1739651, 46.4858978 ], [ -73.1737912, 46.4910911 ], [ -73.1802164, 46.4937915 ], [ -73.1868149, 46.4912983 ], [ -73.1869876, 46.486105 ], [ -73.1805629, 46.483405 ], [ -73.1739651, 46.4858978 ] ] ] } },
{ "type": "Feature", "properties": { "hex_id": 88847, "centroid_lon": -73.179869779034746, "centroid_lat": 46.504178079011275, "count": 2, "date": "2025-11-23", "n_files": 22, "hours_affected": "0,1", "datetimes_affected": "2025-11-23 00:00,2025-11-23 01:00" }, "geometry": { "type": "Polygon", "coordinates": [ [ [ -73.1734434, 46.5014776 ], [ -73.1732694, 46.5066708 ], [ -73.1796964, 46.5093713 ], [ -73.1862968, 46.5068782 ], [ -73.1864696, 46.5016849 ], [ -73.1800431, 46.4989848 ], [ -73.1734434, 46.5014776 ] ] ] } },
{ "type": "Feature", "properties": { "hex_id": 88848, "centroid_lon": -73.179349426711951, "centroid_lat": 46.51975785208527, "count": 2, "date": "2025-11-23", "n_files": 22, "hours_affected": "0,1", "datetimes_affected": "2025-11-23 00:00,2025-11-23 01:00" }, "geometry": { "type": "Polygon", "coordinates": [ [ [ -73.1729212, 46.5170573 ], [ -73.1727471, 46.5222505 ], [ -73.1791759, 46.5249511 ], [ -73.1857782, 46.522458 ], [ -73.1859512, 46.5172648 ], [ -73.1795229, 46.5145646 ], [ -73.1729212, 46.5170573 ] ] ] } },
{ "type": "Feature", "properties": { "hex_id": 89163, "centroid_lon": -73.174138901296629, "centroid_lat": 46.480704551116233, "count": 2, "date": "2025-11-23", "n_files": 22, "hours_affected": "0,1", "datetimes_affected": "2025-11-23 00:00,2025-11-23 01:00" }, "geometry": { "type": "Polygon", "coordinates": [ [ [ -73.1677155, 46.4780038 ], [ -73.1675411, 46.483197 ], [ -73.1739651, 46.4858978 ], [ -73.1805629, 46.483405 ], [ -73.1807361, 46.4782117 ], [ -73.1743127, 46.4755113 ], [ -73.1677155, 46.4780038 ] ] ] } },
{ "type": "Feature", "properties": { "hex_id": 89164, "centroid_lon": -73.17361733860308, "centroid_lat": 46.496284338716166, "count": 2, "date": "2025-11-23", "n_files": 22, "hours_affected": "0,1", "datetimes_affected": "2025-11-23 00:00,2025-11-23 01:00" }, "geometry": { "type": "Polygon", "coordinates": [ [ [ -73.1671922, 46.4935835 ], [ -73.1670176, 46.4987767 ], [ -73.1734434, 46.5014776 ], [ -73.1800431, 46.4989848 ], [ -73.1802164, 46.4937915 ], [ -73.1737912, 46.4910911 ], [ -73.1671922, 46.4935835 ] ] ] } },
{ "type": "Feature", "properties": { "hex_id": 89165, "centroid_lon": -73.173095343219316, "centroid_lat": 46.51186407916633, "count": 2, "date": "2025-11-23", "n_files": 22, "hours_affected": "0,1", "datetimes_affected": "2025-11-23 00:00,2025-11-23 01:00" }, "geometry": { "type": "Polygon", "coordinates": [ [ [ -73.1666684, 46.5091632 ], [ -73.1664937, 46.5143564 ], [ -73.1729212, 46.5170573 ], [ -73.1795229, 46.5145646 ], [ -73.1796964, 46.5093713 ], [ -73.1732694, 46.5066708 ], [ -73.1666684, 46.5091632 ] ] ] } },
{ "type": "Feature", "properties": { "hex_id": 89481, "centroid_lon": -73.167889887047394, "centroid_lat": 46.472810517452409, "count": 2, "date": "2025-11-23", "n_files": 22, "hours_affected": "0,1", "datetimes_affected": "2025-11-23 00:00,2025-11-23 01:00" }, "geometry": { "type": "Polygon", "coordinates": [ [ [ -73.1614678, 46.4701094 ], [ -73.1612928, 46.4753026 ], [ -73.1677155, 46.4780038 ], [ -73.1743127, 46.4755113 ], [ -73.1744864, 46.470318 ], [ -73.1680642, 46.4676173 ], [ -73.1614678, 46.4701094 ] ] ] } },
{ "type": "Feature", "properties": { "hex_id": 89482, "centroid_lon": -73.167366684072107, "centroid_lat": 46.488390272289323, "count": 2, "date": "2025-11-23", "n_files": 22, "hours_affected": "0,1", "datetimes_affected": "2025-11-23 00:00,2025-11-23 01:00" }, "geometry": { "type": "Polygon", "coordinates": [ [ [ -73.1609428, 46.485689099999988 ], [ -73.1607677, 46.4908823 ], [ -73.1671922, 46.4935835 ], [ -73.1737912, 46.4910911 ], [ -73.1739651, 46.4858978 ], [ -73.1675411, 46.483197 ], [ -73.1609428, 46.485689099999988 ] ] ] } },
{ "type": "Feature", "properties": { "hex_id": 89483, "centroid_lon": -73.166843047092229, "centroid_lat": 46.503969979946341, "count": 2, "date": "2025-11-23", "n_files": 22, "hours_affected": "0,1", "datetimes_affected": "2025-11-23 00:00,2025-11-23 01:00" }, "geometry": { "type": "Polygon", "coordinates": [ [ [ -73.1604173, 46.5012688 ], [ -73.1602421, 46.506462 ], [ -73.1666684, 46.5091632 ], [ -73.1732694, 46.5066708 ], [ -73.1734434, 46.5014776 ], [ -73.1670176, 46.4987767 ], [ -73.1604173, 46.5012688 ] ] ] } },
{ "type": "Feature", "properties": { "hex_id": 89799, "centroid_lon": -73.161117814416343, "centroid_lat": 46.480495880012874, "count": 2, "date": "2025-11-23", "n_files": 22, "hours_affected": "0,1", "datetimes_affected": "2025-11-23 00:00,2025-11-23 01:00" }, "geometry": { "type": "Polygon", "coordinates": [ [ [ -73.1546951, 46.4777944 ], [ -73.1545195, 46.4829876 ], [ -73.1609428, 46.485689099999988 ], [ -73.1675411, 46.483197 ], [ -73.1677155, 46.4780038 ], [ -73.1612928, 46.4753026 ], [ -73.1546951, 46.4777944 ] ] ] } },
{ "type": "Feature", "properties": { "hex_id": 89800, "centroid_lon": -73.160592537304169, "centroid_lat": 46.496075554707602, "count": 2, "date": "2025-11-23", "n_files": 22, "hours_affected": "0,1", "datetimes_affected": "2025-11-23 00:00,2025-11-23 01:00" }, "geometry": { "type": "Polygon", "coordinates": [ [ [ -73.1541681, 46.493374 ], [ -73.1539923, 46.498567199999989 ], [ -73.1604173, 46.5012688 ], [ -73.1670176, 46.4987767 ], [ -73.1671922, 46.4935835 ], [ -73.1607677, 46.4908823 ], [ -73.1541681, 46.493374 ] ] ] } },
{ "type": "Feature", "properties": { "hex_id": 90117, "centroid_lon": -73.154870728610916, "centroid_lat": 46.472601162168857, "count": 2, "date": "2025-11-23", "n_files": 22, "hours_affected": "0,1", "datetimes_affected": "2025-11-23 00:00,2025-11-23 01:00" }, "geometry": { "type": "Polygon", "coordinates": [ [ [ -73.1484493, 46.4698993 ], [ -73.1482731, 46.4750925 ], [ -73.1546951, 46.4777944 ], [ -73.1612928, 46.4753026 ], [ -73.1614678, 46.4701094 ], [ -73.1550463, 46.4674079 ], [ -73.1484493, 46.4698993 ] ] ] } },
{ "type": "Feature", "properties": { "hex_id": 90118, "centroid_lon": -73.154343812829168, "centroid_lat": 46.488180803732256, "count": 2, "date": "2025-11-23", "n_files": 22, "hours_affected": "0,1", "datetimes_affected": "2025-11-23 00:00,2025-11-23 01:00" }, "geometry": { "type": "Polygon", "coordinates": [ [ [ -73.1479206, 46.4854789 ], [ -73.1477443, 46.4906721 ], [ -73.1541681, 46.493374 ], [ -73.1607677, 46.4908823 ], [ -73.1609428, 46.485689099999988 ], [ -73.1545195, 46.4829876 ], [ -73.1479206, 46.4854789 ] ] ] } },
{ "type": "Feature", "properties": { "hex_id": 90436, "centroid_lon": -73.147567881261025, "centroid_lat": 46.495865288291036, "count": 2, "date": "2025-11-23", "n_files": 22, "hours_affected": "0,1", "datetimes_affected": "2025-11-23 00:00,2025-11-23 01:00" }, "geometry": { "type": "Polygon", "coordinates": [ [ [ -73.1411441, 46.493163 ], [ -73.1409671, 46.498356199999989 ], [ -73.1473915, 46.5010585 ], [ -73.1539923, 46.498567199999989 ], [ -73.1541681, 46.493374 ], [ -73.1477443, 46.4906721 ], [ -73.1411441, 46.493163 ] ] ] } },
{ "type": "Feature", "properties": { "hex_id": 125025, "centroid_lon": -72.490138681788224, "centroid_lat": 45.337475223002755, "count": 2, "date": "2025-11-23", "n_files": 22, "hours_affected": "22,23", "datetimes_affected": "2025-11-23 22:00,2025-11-23 23:00" }, "geometry": { "type": "Polygon", "coordinates": [ [ [ -72.4838784, 45.3347389 ], [ -72.4836483, 45.3399308 ], [ -72.4899091, 45.3426672 ], [ -72.4963996, 45.3402112 ], [ -72.4966286, 45.3350192 ], [ -72.4903682, 45.3322833 ], [ -72.4838784, 45.3347389 ] ] ] } },
{ "type": "Feature", "properties": { "hex_id": 125342, "centroid_lon": -72.484108392084067, "centroid_lat": 45.329546948904209, "count": 2, "date": "2025-11-23", "n_files": 22, "hours_affected": "22,23", "datetimes_affected": "2025-11-23 22:00,2025-11-23 23:00" }, "geometry": { "type": "Polygon", "coordinates": [ [ [ -72.4778492, 45.3268103 ], [ -72.4776186, 45.3320022 ], [ -72.4838784, 45.3347389 ], [ -72.4903682, 45.3322833 ], [ -72.4905976, 45.3270913 ], [ -72.4843384, 45.324355 ], [ -72.4778492, 45.3268103 ] ] ] } },
{ "type": "Feature", "properties": { "hex_id": 125661, "centroid_lon": -72.477388002069731, "centroid_lat": 45.337194145151024, "count": 2, "date": "2025-11-23", "n_files": 22, "hours_affected": "22,23", "datetimes_affected": "2025-11-23 22:00,2025-11-23 23:00" }, "geometry": { "type": "Polygon", "coordinates": [ [ [ -72.4711284, 45.3344571 ], [ -72.4708971, 45.339649 ], [ -72.4771573, 45.3423861 ], [ -72.4836483, 45.3399308 ], [ -72.4838784, 45.3347389 ], [ -72.4776186, 45.3320022 ], [ -72.4711284, 45.3344571 ] ] ] } },
{ "type": "Feature", "properties": { "hex_id": 158417, "centroid_lon": -71.818823488270695, "centroid_lat": 45.359714602032405, "count": 3, "date": "2025-11-23", "n_files": 22, "hours_affected": "12,13,14", "datetimes_affected": "2025-11-23 12:00,2025-11-23 13:00,2025-11-23 14:00" }, "geometry": { "type": "Polygon", "coordinates": [ [ [ -71.8125952, 45.3569423 ], [ -71.8123035, 45.3621312 ], [ -71.8185324, 45.3649035 ], [ -71.8250524, 45.3624866 ], [ -71.8253429, 45.3572977 ], [ -71.8191145, 45.3545257 ], [ -71.8125952, 45.3569423 ] ] ] } },
{ "type": "Feature", "properties": { "hex_id": 158736, "centroid_lon": -71.812011784197821, "centroid_lat": 45.367320030306544, "count": 3, "date": "2025-11-23", "n_files": 22, "hours_affected": "12,13,14", "datetimes_affected": "2025-11-23 12:00,2025-11-23 13:00,2025-11-23 14:00" }, "geometry": { "type": "Polygon", "coordinates": [ [ [ -71.805783, 45.3645473 ], [ -71.8054907, 45.3697362 ], [ -71.81172, 45.3725089 ], [ -71.8182412, 45.3700924 ], [ -71.8185324, 45.3649035 ], [ -71.8123035, 45.3621312 ], [ -71.805783, 45.3645473 ] ] ] } },
{ "type": "Feature", "properties": { "hex_id": 159053, "centroid_lon": -71.806075278172372, "centroid_lat": 45.359358468584425, "count": 3, "date": "2025-11-23", "n_files": 22, "hours_affected": "12,13,14", "datetimes_affected": "2025-11-23 12:00,2025-11-23 13:00,2025-11-23 14:00" }, "geometry": { "type": "Polygon", "coordinates": [ [ [ -71.7998477, 45.3565855 ], [ -71.7995548, 45.3617743 ], [ -71.805783, 45.3645473 ], [ -71.8123035, 45.3621312 ], [ -71.8125952, 45.3569423 ], [ -71.8063675, 45.3541696 ], [ -71.7998477, 45.3565855 ] ] ] } },
{ "type": "Feature", "properties": { "hex_id": 169113, "centroid_lon": -71.404433464352891, "centroid_lat": 48.488506445434219, "count": 4, "date": "2025-11-23", "n_files": 22, "hours_affected": "11,12,13,14", "datetimes_affected": "2025-11-23 11:00,2025-11-23 12:00,2025-11-23 13:00,2025-11-23 14:00" }, "geometry": { "type": "Polygon", "coordinates": [ [ [ -71.3978637, 48.4857031 ], [ -71.3974961, 48.4908869 ], [ -71.4040665, 48.4936903 ], [ -71.411004, 48.4913094 ], [ -71.4113702, 48.4861255 ], [ -71.4048004, 48.4833226 ], [ -71.3978637, 48.4857031 ] ] ] } },
{ "type": "Feature", "properties": { "hex_id": 169431, "centroid_lon": -71.397128327816546, "centroid_lat": 48.496070712391223, "count": 4, "date": "2025-11-23", "n_files": 22, "hours_affected": "11,12,13,14", "datetimes_affected": "2025-11-23 11:00,2025-11-23 12:00,2025-11-23 13:00,2025-11-23 14:00" }, "geometry": { "type": "Polygon", "coordinates": [ [ [ -71.390558, 48.4932669 ], [ -71.3901896, 48.4984507 ], [ -71.3967605, 48.501254499999988 ], [ -71.4036994, 48.4988741 ], [ -71.4040665, 48.4936903 ], [ -71.3974961, 48.4908869 ], [ -71.390558, 48.4932669 ] ] ] } },
{ "type": "Feature", "properties": { "hex_id": 169749, "centroid_lon": -71.390926398890372, "centroid_lat": 48.488083171081037, "count": 4, "date": "2025-11-23", "n_files": 22, "hours_affected": "11,12,13,14", "datetimes_affected": "2025-11-23 11:00,2025-11-23 12:00,2025-11-23 13:00,2025-11-23 14:00" }, "geometry": { "type": "Polygon", "coordinates": [ [ [ -71.3843575, 48.4852791 ], [ -71.3839885, 48.490462799999989 ], [ -71.390558, 48.4932669 ], [ -71.3974961, 48.4908869 ], [ -71.3978637, 48.4857031 ], [ -71.3912947, 48.4828994 ], [ -71.3843575, 48.4852791 ] ] ] } },
{ "type": "Feature", "properties": { "hex_id": 170067, "centroid_lon": -71.383619361946202, "centroid_lat": 48.495646531707237, "count": 4, "date": "2025-11-23", "n_files": 22, "hours_affected": "11,12,13,14", "datetimes_affected": "2025-11-23 11:00,2025-11-23 12:00,2025-11-23 13:00,2025-11-23 14:00" }, "geometry": { "type": "Polygon", "coordinates": [ [ [ -71.3770499, 48.492842 ], [ -71.3766801, 48.4980257 ], [ -71.3832501, 48.5008303 ], [ -71.3901896, 48.4984507 ], [ -71.390558, 48.4932669 ], [ -71.3839885, 48.490462799999989 ], [ -71.3770499, 48.492842 ] ] ] } },
{ "type": "Feature", "properties": { "hex_id": 170385, "centroid_lon": -71.377419647138012, "centroid_lat": 48.487658314506561, "count": 4, "date": "2025-11-23", "n_files": 22, "hours_affected": "11,12,13,14", "datetimes_affected": "2025-11-23 11:00,2025-11-23 12:00,2025-11-23 13:00,2025-11-23 14:00" }, "geometry": { "type": "Polygon", "coordinates": [ [ [ -71.3708516, 48.4848535 ], [ -71.3704812, 48.490037099999988 ], [ -71.3770499, 48.492842 ], [ -71.3839885, 48.490462799999989 ], [ -71.3843575, 48.4852791 ], [ -71.3777893, 48.4824746 ], [ -71.3708516, 48.4848535 ] ] ] } },
{ "type": "Feature", "properties": { "hex_id": 180775, "centroid_lon": -71.271238607704561, "centroid_lat": 46.870952791609753, "count": 8, "date": "2025-11-23", "n_files": 22, "hours_affected": "10,11,12,13,14,15,16,17", "datetimes_affected": "2025-11-23 10:00,2025-11-23 11:00,2025-11-23 12:00,2025-11-23 13:00,2025-11-23 14:00,2025-11-23 15:00,2025-11-23 16:00,2025-11-23 17:00" }, "geometry": { "type": "Polygon", "coordinates": [ [ [ -71.2648717, 46.8681468 ], [ -71.2645115, 46.8733313 ], [ -71.270879, 46.876137299999989 ], [ -71.2776062, 46.8737585 ], [ -71.2779651, 46.8685739 ], [ -71.2715981, 46.8657682 ], [ -71.2648717, 46.8681468 ] ] ] } },
{ "type": "Feature", "properties": { "hex_id": 181093, "centroid_lon": -71.265231788476143, "centroid_lat": 46.862962285699624, "count": 8, "date": "2025-11-23", "n_files": 22, "hours_affected": "10,11,12,13,14,15,16,17", "datetimes_affected": "2025-11-23 10:00,2025-11-23 11:00,2025-11-23 12:00,2025-11-23 13:00,2025-11-23 14:00,2025-11-23 15:00,2025-11-23 16:00,2025-11-23 17:00" }, "geometry": { "type": "Polygon", "coordinates": [ [ [ -71.2588661, 46.860156 ], [ -71.2585054, 46.8653405 ], [ -71.2648717, 46.8681468 ], [ -71.2715981, 46.8657682 ], [ -71.2719576, 46.8605837 ], [ -71.2655918, 46.8577778 ], [ -71.2588661, 46.860156 ] ] ] } },
{ "type": "Feature", "properties": { "hex_id": 181411, "centroid_lon": -71.258144668505196, "centroid_lat": 46.870524931344399, "count": 8, "date": "2025-11-23", "n_files": 22, "hours_affected": "10,11,12,13,14,15,16,17", "datetimes_affected": "2025-11-23 10:00,2025-11-23 11:00,2025-11-23 12:00,2025-11-23 13:00,2025-11-23 14:00,2025-11-23 15:00,2025-11-23 16:00,2025-11-23 17:00" }, "geometry": { "type": "Polygon", "coordinates": [ [ [ -71.2517785, 46.8677182 ], [ -71.2514171, 46.8729027 ], [ -71.2577838, 46.8757094 ], [ -71.2645115, 46.8733313 ], [ -71.2648717, 46.8681468 ], [ -71.2585054, 46.8653405 ], [ -71.2517785, 46.8677182 ] ] ] } },
{ "type": "Feature", "properties": { "hex_id": 192658, "centroid_lon": -70.888513044516017, "centroid_lat": 48.673838688361812, "count": 6, "date": "2025-11-23", "n_files": 22, "hours_affected": "10,11,12,13,14,15", "datetimes_affected": "2025-11-23 10:00,2025-11-23 11:00,2025-11-23 12:00,2025-11-23 13:00,2025-11-23 14:00,2025-11-23 15:00" }, "geometry": { "type": "Polygon", "coordinates": [ [ [ -70.8819503, 48.6710061 ], [ -70.8815274, 48.6761865 ], [ -70.8880907, 48.6790192 ], [ -70.8950765, 48.676671 ], [ -70.8954981, 48.6714904 ], [ -70.8889352, 48.6686582 ], [ -70.8819503, 48.6710061 ] ] ] } },
{ "type": "Feature", "properties": { "hex_id": 192975, "centroid_lon": -70.882373139909078, "centroid_lat": 48.66582556172289, "count": 6, "date": "2025-11-23", "n_files": 22, "hours_affected": "10,11,12,13,14,15", "datetimes_affected": "2025-11-23 10:00,2025-11-23 11:00,2025-11-23 12:00,2025-11-23 13:00,2025-11-23 14:00,2025-11-23 15:00" }, "geometry": { "type": "Polygon", "coordinates": [ [ [ -70.8758118, 48.662992599999988 ], [ -70.8753883, 48.6681731 ], [ -70.8819503, 48.6710061 ], [ -70.8889352, 48.6686582 ], [ -70.8893573, 48.6634776 ], [ -70.8827958, 48.6606451 ], [ -70.8758118, 48.662992599999988 ] ] ] } },
{ "type": "Feature", "properties": { "hex_id": 192976, "centroid_lon": -70.881104306685714, "centroid_lat": 48.681367028927973, "count": 6, "date": "2025-11-23", "n_files": 22, "hours_affected": "10,11,12,13,14,15", "datetimes_affected": "2025-11-23 10:00,2025-11-23 11:00,2025-11-23 12:00,2025-11-23 13:00,2025-11-23 14:00,2025-11-23 15:00" }, "geometry": { "type": "Polygon", "coordinates": [ [ [ -70.8745411, 48.678534 ], [ -70.8741173, 48.6837144 ], [ -70.8806811, 48.6865475 ], [ -70.8876683, 48.6841997 ], [ -70.8880907, 48.6790192 ], [ -70.8815274, 48.6761865 ], [ -70.8745411, 48.678534 ] ] ] } },
{ "type": "Feature", "properties": { "hex_id": 193294, "centroid_lon": -70.874964763126627, "centroid_lat": 48.673353521563399, "count": 6, "date": "2025-11-23", "n_files": 22, "hours_affected": "10,11,12,13,14,15", "datetimes_affected": "2025-11-23 10:00,2025-11-23 11:00,2025-11-23 12:00,2025-11-23 13:00,2025-11-23 14:00,2025-11-23 15:00" }, "geometry": { "type": "Polygon", "coordinates": [ [ [ -70.8684029, 48.6705201 ], [ -70.8679786, 48.6757005 ], [ -70.8745411, 48.678534 ], [ -70.8815274, 48.6761865 ], [ -70.8819503, 48.6710061 ], [ -70.8753883, 48.6681731 ], [ -70.8684029, 48.6705201 ] ] ] } },
{ "type": "Feature", "properties": { "hex_id": 193295, "centroid_lon": -70.873693314643631, "centroid_lat": 48.688894823357998, "count": 6, "date": "2025-11-23", "n_files": 22, "hours_affected": "10,11,12,13,14,15", "datetimes_affected": "2025-11-23 10:00,2025-11-23 11:00,2025-11-23 12:00,2025-11-23 13:00,2025-11-23 14:00,2025-11-23 15:00" }, "geometry": { "type": "Polygon", "coordinates": [ [ [ -70.8671296, 48.6860613 ], [ -70.8667049, 48.6912417 ], [ -70.8732693, 48.6940752 ], [ -70.8802578, 48.691728 ], [ -70.8806811, 48.6865475 ], [ -70.8741173, 48.6837144 ], [ -70.8671296, 48.6860613 ] ] ] } },
{ "type": "Feature", "properties": { "hex_id": 193612, "centroid_lon": -70.867554132915217, "centroid_lat": 48.680880935196875, "count": 6, "date": "2025-11-23", "n_files": 22, "hours_affected": "10,11,12,13,14,15", "datetimes_affected": "2025-11-23 10:00,2025-11-23 11:00,2025-11-23 12:00,2025-11-23 13:00,2025-11-23 14:00,2025-11-23 15:00" }, "geometry": { "type": "Polygon", "coordinates": [ [ [ -70.8609918, 48.6780471 ], [ -70.860566600000013, 48.6832275 ], [ -70.8671296, 48.6860613 ], [ -70.8741173, 48.6837144 ], [ -70.8745411, 48.678534 ], [ -70.8679786, 48.6757005 ], [ -70.8609918, 48.6780471 ] ] ] } },
{ "type": "Feature", "properties": { "hex_id": 193930, "centroid_lon": -70.861416843370378, "centroid_lat": 48.672866765023038, "count": 6, "date": "2025-11-23", "n_files": 22, "hours_affected": "10,11,12,13,14,15", "datetimes_affected": "2025-11-23 10:00,2025-11-23 11:00,2025-11-23 12:00,2025-11-23 13:00,2025-11-23 14:00,2025-11-23 15:00" }, "geometry": { "type": "Polygon", "coordinates": [ [ [ -70.8548559, 48.6700326 ], [ -70.8544302, 48.6752129 ], [ -70.8609918, 48.6780471 ], [ -70.8679786, 48.6757005 ], [ -70.8684029, 48.6705201 ], [ -70.8618418, 48.6676864 ], [ -70.8548559, 48.6700326 ] ] ] } },
{ "type": "Feature", "properties": { "hex_id": 193931, "centroid_lon": -70.860141248103972, "centroid_lat": 48.688407802250651, "count": 6, "date": "2025-11-23", "n_files": 22, "hours_affected": "10,11,12,13,14,15", "datetimes_affected": "2025-11-23 10:00,2025-11-23 11:00,2025-11-23 12:00,2025-11-23 13:00,2025-11-23 14:00,2025-11-23 15:00" }, "geometry": { "type": "Polygon", "coordinates": [ [ [ -70.8535784, 48.6855735 ], [ -70.8531523, 48.6907538 ], [ -70.8597158, 48.6935881 ], [ -70.8667049, 48.6912417 ], [ -70.8671296, 48.6860613 ], [ -70.860566600000013, 48.6832275 ], [ -70.8535784, 48.6855735 ] ] ] } },
{ "type": "Feature", "properties": { "hex_id": 194248, "centroid_lon": -70.854004321560978, "centroid_lat": 48.680393251346878, "count": 6, "date": "2025-11-23", "n_files": 22, "hours_affected": "10,11,12,13,14,15", "datetimes_affected": "2025-11-23 10:00,2025-11-23 11:00,2025-11-23 12:00,2025-11-23 13:00,2025-11-23 14:00,2025-11-23 15:00" }, "geometry": { "type": "Polygon", "coordinates": [ [ [ -70.8474428, 48.6775587 ], [ -70.8470162, 48.6827389 ], [ -70.8535784, 48.6855735 ], [ -70.860566600000013, 48.6832275 ], [ -70.8609918, 48.6780471 ], [ -70.8544302, 48.6752129 ], [ -70.8474428, 48.6775587 ] ] ] } },
{ "type": "Feature", "properties": { "hex_id": 194249, "centroid_lon": -70.852726107521462, "centroid_lat": 48.695934122351964, "count": 6, "date": "2025-11-23", "n_files": 22, "hours_affected": "10,11,12,13,14,15", "datetimes_affected": "2025-11-23 10:00,2025-11-23 11:00,2025-11-23 12:00,2025-11-23 13:00,2025-11-23 14:00,2025-11-23 15:00" }, "geometry": { "type": "Polygon", "coordinates": [ [ [ -70.8461627, 48.6930994 ], [ -70.8457358, 48.6982797 ], [ -70.8522998, 48.701114399999987 ], [ -70.8592902, 48.6987685 ], [ -70.8597158, 48.6935881 ], [ -70.8531523, 48.6907538 ], [ -70.8461627, 48.6930994 ] ] ] } },
{ "type": "Feature", "properties": { "hex_id": 194566, "centroid_lon": -70.84786928641779, "centroid_lat": 48.672378418845717, "count": 6, "date": "2025-11-23", "n_files": 22, "hours_affected": "10,11,12,13,14,15", "datetimes_affected": "2025-11-23 10:00,2025-11-23 11:00,2025-11-23 12:00,2025-11-23 13:00,2025-11-23 14:00,2025-11-23 15:00" }, "geometry": { "type": "Polygon", "coordinates": [ [ [ -70.8413092, 48.6695435 ], [ -70.8408821, 48.6747238 ], [ -70.8474428, 48.6775587 ], [ -70.8544302, 48.6752129 ], [ -70.8548559, 48.6700326 ], [ -70.8482956, 48.6671981 ], [ -70.8413092, 48.6695435 ] ] ] } },
{ "type": "Feature", "properties": { "hex_id": 194567, "centroid_lon": -70.846589544764427, "centroid_lat": 48.687919190647442, "count": 6, "date": "2025-11-23", "n_files": 22, "hours_affected": "10,11,12,13,14,15", "datetimes_affected": "2025-11-23 10:00,2025-11-23 11:00,2025-11-23 12:00,2025-11-23 13:00,2025-11-23 14:00,2025-11-23 15:00" }, "geometry": { "type": "Polygon", "coordinates": [ [ [ -70.8400275, 48.6850842 ], [ -70.8396001, 48.6902644 ], [ -70.8461627, 48.6930994 ], [ -70.8531523, 48.6907538 ], [ -70.8535784, 48.6855735 ], [ -70.8470162, 48.6827389 ], [ -70.8400275, 48.6850842 ] ] ] } },
{ "type": "Feature", "properties": { "hex_id": 194884, "centroid_lon": -70.840454873794059, "centroid_lat": 48.679903977483214, "count": 6, "date": "2025-11-23", "n_files": 22, "hours_affected": "10,11,12,13,14,15", "datetimes_affected": "2025-11-23 10:00,2025-11-23 11:00,2025-11-23 12:00,2025-11-23 13:00,2025-11-23 14:00,2025-11-23 15:00" }, "geometry": { "type": "Polygon", "coordinates": [ [ [ -70.8338943, 48.6770687 ], [ -70.833466300000012, 48.682248799999989 ], [ -70.8400275, 48.6850842 ], [ -70.8470162, 48.6827389 ], [ -70.8474428, 48.6775587 ], [ -70.8408821, 48.6747238 ], [ -70.8338943, 48.6770687 ] ] ] } },
{ "type": "Feature", "properties": { "hex_id": 194885, "centroid_lon": -70.839172511809522, "centroid_lat": 48.695444582551893, "count": 6, "date": "2025-11-23", "n_files": 22, "hours_affected": "10,11,12,13,14,15", "datetimes_affected": "2025-11-23 10:00,2025-11-23 11:00,2025-11-23 12:00,2025-11-23 13:00,2025-11-23 14:00,2025-11-23 15:00" }, "geometry": { "type": "Polygon", "coordinates": [ [ [ -70.83261, 48.6926091 ], [ -70.8321817, 48.6977893 ], [ -70.8387448, 48.7006248 ], [ -70.8457358, 48.6982797 ], [ -70.8461627, 48.6930994 ], [ -70.8396001, 48.6902644 ], [ -70.83261, 48.6926091 ] ] ] } },
{ "type": "Feature", "properties": { "hex_id": 195203, "centroid_lon": -70.833038205796598, "centroid_lat": 48.687428988653878, "count": 6, "date": "2025-11-23", "n_files": 22, "hours_affected": "10,11,12,13,14,15", "datetimes_affected": "2025-11-23 10:00,2025-11-23 11:00,2025-11-23 12:00,2025-11-23 13:00,2025-11-23 14:00,2025-11-23 15:00" }, "geometry": { "type": "Polygon", "coordinates": [ [ [ -70.8264771, 48.6845932 ], [ -70.8260482, 48.6897733 ], [ -70.83261, 48.6926091 ], [ -70.8396001, 48.6902644 ], [ -70.8400275, 48.6850842 ], [ -70.833466300000012, 48.682248799999989 ], [ -70.8264771, 48.6845932 ] ] ] } },
{ "type": "Feature", "properties": { "hex_id": 195204, "centroid_lon": -70.83175322152448, "centroid_lat": 48.702969426687012, "count": 6, "date": "2025-11-23", "n_files": 22, "hours_affected": "10,11,12,13,14,15", "datetimes_affected": "2025-11-23 10:00,2025-11-23 11:00,2025-11-23 12:00,2025-11-23 13:00,2025-11-23 14:00,2025-11-23 15:00" }, "geometry": { "type": "Polygon", "coordinates": [ [ [ -70.8251902, 48.7001335 ], [ -70.824761, 48.7053136 ], [ -70.8313246, 48.7081496 ], [ -70.838317, 48.7058049 ], [ -70.8387448, 48.7006248 ], [ -70.8321817, 48.6977893 ], [ -70.8251902, 48.7001335 ] ] ] } },
{ "type": "Feature", "properties": { "hex_id": 195521, "centroid_lon": -70.825619281254404, "centroid_lat": 48.694953451984745, "count": 6, "date": "2025-11-23", "n_files": 22, "hours_affected": "10,11,12,13,14,15", "datetimes_affected": "2025-11-23 10:00,2025-11-23 11:00,2025-11-23 12:00,2025-11-23 13:00,2025-11-23 14:00,2025-11-23 15:00" }, "geometry": { "type": "Polygon", "coordinates": [ [ [ -70.8190576, 48.6921173 ], [ -70.8186279, 48.6972973 ], [ -70.8251902, 48.7001335 ], [ -70.8321817, 48.6977893 ], [ -70.83261, 48.6926091 ], [ -70.8260482, 48.6897733 ], [ -70.8190576, 48.6921173 ] ] ] } },
{ "type": "Feature", "properties": { "hex_id": 195840, "centroid_lon": -70.818198098995907, "centroid_lat": 48.70247736710246, "count": 6, "date": "2025-11-23", "n_files": 22, "hours_affected": "10,11,12,13,14,15", "datetimes_affected": "2025-11-23 10:00,2025-11-23 11:00,2025-11-23 12:00,2025-11-23 13:00,2025-11-23 14:00,2025-11-23 15:00" }, "geometry": { "type": "Polygon", "coordinates": [ [ [ -70.811636, 48.6996407 ], [ -70.8112054, 48.7048207 ], [ -70.8177681, 48.7076574 ], [ -70.824761, 48.7053136 ], [ -70.8251902, 48.7001335 ], [ -70.8186279, 48.6972973 ], [ -70.811636, 48.6996407 ] ] ] } }
]
}
