{
"type": "FeatureCollection",
"name": "current",
"crs": { "type": "name", "properties": { "name": "urn:ogc:def:crs:OGC:1.3:CRS84" } },
"features": [
{ "type": "Feature", "properties": { "hex_id": 573916, "centroid_lon": -73.574177725666388, "centroid_lat": 45.490999092882156, "is_current": true, "last_reading": "2026-09-07 07:01:45", "total_occurrences": 424.0, "days_affected": 36 }, "geometry": { "type": "Polygon", "coordinates": [ [ [ -73.574308820030609, 45.485803885699788 ], [ -73.580639845459416, 45.488481165864954 ], [ -73.580509320943918, 45.493676384882136 ], [ -73.574046595507809, 45.496194295023372 ], [ -73.567715036030648, 45.493516646137465 ], [ -73.567846736025942, 45.488321455895523 ], [ -73.574308820030609, 45.485803885699788 ] ] ] } },
{ "type": "Feature", "properties": { "hex_id": 582480, "centroid_lon": -73.47746845300918, "centroid_lat": 45.754784164368033, "is_current": true, "last_reading": "2026-09-07 07:01:45", "total_occurrences": 201.0, "days_affected": 19 }, "geometry": { "type": "Polygon", "coordinates": [ [ [ -73.477609730065041, 45.749589424067089 ], [ -73.483965451636692, 45.752272265297087 ], [ -73.483824751092428, 45.757467018457163 ], [ -73.477327137256381, 45.759978899584965 ], [ -73.470970877876624, 45.7572956853747 ], [ -73.471112770127945, 45.752100963081929 ], [ -73.477609730065041, 45.749589424067089 ] ] ] } },
{ "type": "Feature", "properties": { "hex_id": 583091, "centroid_lon": -73.470828946758743, "centroid_lat": 45.762490402580575, "is_current": true, "last_reading": "2026-09-07 07:01:45", "total_occurrences": 391.0, "days_affected": 24 }, "geometry": { "type": "Polygon", "coordinates": [ [ [ -73.470970877876624, 45.7572956853747 ], [ -73.477327137256381, 45.759978899584965 ], [ -73.477185782793555, 45.765173629717779 ], [ -73.470686976761186, 45.767685114699425 ], [ -73.464330179612617, 45.765001527348467 ], [ -73.464472726252083, 45.759806828221635 ], [ -73.470970877876624, 45.7572956853747 ] ] ] } },
{ "type": "Feature", "properties": { "hex_id": 1358059, "centroid_lon": -64.669795456692341, "centroid_lat": 49.103401776557739, "is_current": true, "last_reading": "2026-09-07 07:01:45", "total_occurrences": 31.0, "days_affected": 5 }, "geometry": { "type": "Polygon", "coordinates": [ [ [ -64.670867490062449, 49.098292524358165 ], [ -64.677070277787365, 49.101456571710855 ], [ -64.675998761862616, 49.106565922035621 ], [ -64.668723120371197, 49.108511006805706 ], [ -64.662520118206544, 49.105346478918477 ], [ -64.663592971863878, 49.100237346860808 ], [ -64.670867490062449, 49.098292524358165 ] ] ] } }
]
}
