{
"type": "FeatureCollection",
"name": "daily_2025-11-29",
"crs": { "type": "name", "properties": { "name": "urn:ogc:def:crs:OGC:1.3:CRS84" } },
"features": [
{ "type": "Feature", "properties": { "hex_id": 658, "count": 7, "date": "2025-11-29", "n_files": 22, "pct": 31.82 }, "geometry": { "type": "Polygon", "coordinates": [ [ [ -74.6691212, 45.9362146 ], [ -74.6689666, 45.9621961 ], [ -74.7011606, 45.9752758 ], [ -74.7334944, 45.9623648 ], [ -74.7336189, 45.9363831 ], [ -74.7014397, 45.9233125 ], [ -74.6691212, 45.9362146 ] ] ] } },
{ "type": "Feature", "properties": { "hex_id": 659, "count": 7, "date": "2025-11-29", "n_files": 22, "pct": 31.82 }, "geometry": { "type": "Polygon", "coordinates": [ [ [ -74.6686567, 46.0141589 ], [ -74.6685014, 46.040140099999988 ], [ -74.7007404, 46.0532198 ], [ -74.7331199, 46.0403092 ], [ -74.7332449, 46.0143279 ], [ -74.7010207, 46.0012572 ], [ -74.6686567, 46.0141589 ] ] ] } },
{ "type": "Feature", "properties": { "hex_id": 722, "count": 7, "date": "2025-11-29", "n_files": 22, "pct": 31.82 }, "geometry": { "type": "Polygon", "coordinates": [ [ [ -74.6371267, 45.8971442 ], [ -74.6369574, 45.923125899999988 ], [ -74.6691212, 45.9362146 ], [ -74.7014397, 45.9233125 ], [ -74.701579, 45.8973307 ], [ -74.6694298, 45.8842511 ], [ -74.6371267, 45.8971442 ] ] ] } },
{ "type": "Feature", "properties": { "hex_id": 723, "count": 7, "date": "2025-11-29", "n_files": 22, "pct": 31.82 }, "geometry": { "type": "Polygon", "coordinates": [ [ [ -74.636618, 45.9750888 ], [ -74.6364479, 46.0010701 ], [ -74.6686567, 46.0141589 ], [ -74.7010207, 46.0012572 ], [ -74.7011606, 45.9752758 ], [ -74.6689666, 45.9621961 ], [ -74.636618, 45.9750888 ] ] ] } },
{ "type": "Feature", "properties": { "hex_id": 724, "count": 7, "date": "2025-11-29", "n_files": 22, "pct": 31.82 }, "geometry": { "type": "Polygon", "coordinates": [ [ [ -74.6361071, 46.0530323 ], [ -74.6359364, 46.0790132 ], [ -74.6681902, 46.0921021 ], [ -74.7006, 46.079200899999989 ], [ -74.7007404, 46.0532198 ], [ -74.6685014, 46.040140099999988 ], [ -74.6361071, 46.0530323 ] ] ] } },
{ "type": "Feature", "properties": { "hex_id": 785, "count": 7, "date": "2025-11-29", "n_files": 22, "pct": 31.82 }, "geometry": { "type": "Polygon", "coordinates": [ [ [ -74.605177, 45.8580648 ], [ -74.604993, 45.8840465 ], [ -74.6371267, 45.8971442 ], [ -74.6694298, 45.8842511 ], [ -74.6695838, 45.8582692 ], [ -74.6374647, 45.8451806 ], [ -74.605177, 45.8580648 ] ] ] } },
{ "type": "Feature", "properties": { "hex_id": 786, "count": 7, "date": "2025-11-29", "n_files": 22, "pct": 31.82 }, "geometry": { "type": "Polygon", "coordinates": [ [ [ -74.6046242, 45.9360096 ], [ -74.6044394, 45.961991 ], [ -74.636618, 45.9750888 ], [ -74.6689666, 45.9621961 ], [ -74.6691212, 45.9362146 ], [ -74.6369574, 45.923125899999988 ], [ -74.6046242, 45.9360096 ] ] ] } },
{ "type": "Feature", "properties": { "hex_id": 787, "count": 7, "date": "2025-11-29", "n_files": 22, "pct": 31.82 }, "geometry": { "type": "Polygon", "coordinates": [ [ [ -74.6040691, 46.0139534 ], [ -74.6038836, 46.0399344 ], [ -74.6361071, 46.0530323 ], [ -74.6685014, 46.040140099999988 ], [ -74.6686567, 46.0141589 ], [ -74.6364479, 46.0010701 ], [ -74.6040691, 46.0139534 ] ] ] } },
{ "type": "Feature", "properties": { "hex_id": 788, "count": 7, "date": "2025-11-29", "n_files": 22, "pct": 31.82 }, "geometry": { "type": "Polygon", "coordinates": [ [ [ -74.6035117, 46.091896 ], [ -74.6033254, 46.1178767 ], [ -74.6355942, 46.1309747 ], [ -74.6680343, 46.1180829 ], [ -74.6681902, 46.0921021 ], [ -74.6359364, 46.0790132 ], [ -74.6035117, 46.091896 ] ] ] } },
{ "type": "Feature", "properties": { "hex_id": 850, "count": 7, "date": "2025-11-29", "n_files": 22, "pct": 31.82 }, "geometry": { "type": "Polygon", "coordinates": [ [ [ -74.5726752, 45.8969214 ], [ -74.5724758, 45.9229028 ], [ -74.6046242, 45.9360096 ], [ -74.6369574, 45.923125899999988 ], [ -74.6371267, 45.8971442 ], [ -74.604993, 45.8840465 ], [ -74.5726752, 45.8969214 ] ] ] } },
{ "type": "Feature", "properties": { "hex_id": 851, "count": 7, "date": "2025-11-29", "n_files": 22, "pct": 31.82 }, "geometry": { "type": "Polygon", "coordinates": [ [ [ -74.5720761, 45.9748653 ], [ -74.5718758, 46.0008464 ], [ -74.6040691, 46.0139534 ], [ -74.6364479, 46.0010701 ], [ -74.636618, 45.9750888 ], [ -74.6044394, 45.961991 ], [ -74.5720761, 45.9748653 ] ] ] } },
{ "type": "Feature", "properties": { "hex_id": 852, "count": 7, "date": "2025-11-29", "n_files": 22, "pct": 31.82 }, "geometry": { "type": "Polygon", "coordinates": [ [ [ -74.5714745, 46.0528082 ], [ -74.5712734, 46.078789 ], [ -74.6035117, 46.091896 ], [ -74.6359364, 46.0790132 ], [ -74.6361071, 46.0530323 ], [ -74.6038836, 46.0399344 ], [ -74.5714745, 46.0528082 ] ] ] } },
{ "type": "Feature", "properties": { "hex_id": 913, "count": 7, "date": "2025-11-29", "n_files": 22, "pct": 31.82 }, "geometry": { "type": "Polygon", "coordinates": [ [ [ -74.5407709, 45.8578241 ], [ -74.5405568, 45.8838056 ], [ -74.5726752, 45.8969214 ], [ -74.604993, 45.8840465 ], [ -74.605177, 45.8580648 ], [ -74.5730732, 45.8449581 ], [ -74.5407709, 45.8578241 ] ] ] } },
{ "type": "Feature", "properties": { "hex_id": 914, "count": 7, "date": "2025-11-29", "n_files": 22, "pct": 31.82 }, "geometry": { "type": "Polygon", "coordinates": [ [ [ -74.5401279, 45.9357683 ], [ -74.539913, 45.9617494 ], [ -74.5720761, 45.9748653 ], [ -74.6044394, 45.961991 ], [ -74.6046242, 45.9360096 ], [ -74.5724758, 45.9229028 ], [ -74.5401279, 45.9357683 ] ] ] } },
{ "type": "Feature", "properties": { "hex_id": 915, "count": 7, "date": "2025-11-29", "n_files": 22, "pct": 31.82 }, "geometry": { "type": "Polygon", "coordinates": [ [ [ -74.5394823, 46.0137114 ], [ -74.5392665, 46.0396922 ], [ -74.5714745, 46.0528082 ], [ -74.6038836, 46.0399344 ], [ -74.6040691, 46.0139534 ], [ -74.5718758, 46.0008464 ], [ -74.5394823, 46.0137114 ] ] ] } },
{ "type": "Feature", "properties": { "hex_id": 916, "count": 7, "date": "2025-11-29", "n_files": 22, "pct": 31.82 }, "geometry": { "type": "Polygon", "coordinates": [ [ [ -74.538834, 46.0916534 ], [ -74.5386173, 46.1176338 ], [ -74.5708704, 46.1307501 ], [ -74.6033254, 46.1178767 ], [ -74.6035117, 46.091896 ], [ -74.5712734, 46.078789 ], [ -74.538834, 46.0916534 ] ] ] } },
{ "type": "Feature", "properties": { "hex_id": 978, "count": 7, "date": "2025-11-29", "n_files": 22, "pct": 31.82 }, "geometry": { "type": "Polygon", "coordinates": [ [ [ -74.5082245, 45.8966622 ], [ -74.507995, 45.9226434 ], [ -74.5401279, 45.9357683 ], [ -74.5724758, 45.9229028 ], [ -74.5726752, 45.8969214 ], [ -74.5405568, 45.8838056 ], [ -74.5082245, 45.8966622 ] ] ] } },
{ "type": "Feature", "properties": { "hex_id": 979, "count": 7, "date": "2025-11-29", "n_files": 22, "pct": 31.82 }, "geometry": { "type": "Polygon", "coordinates": [ [ [ -74.507535, 45.9746055 ], [ -74.5073046, 46.0005863 ], [ -74.5394823, 46.0137114 ], [ -74.5718758, 46.0008464 ], [ -74.5720761, 45.9748653 ], [ -74.539913, 45.9617494 ], [ -74.507535, 45.9746055 ] ] ] } },
{ "type": "Feature", "properties": { "hex_id": 980, "count": 7, "date": "2025-11-29", "n_files": 22, "pct": 31.82 }, "geometry": { "type": "Polygon", "coordinates": [ [ [ -74.5068427, 46.0525477 ], [ -74.5066113, 46.0785281 ], [ -74.538834, 46.0916534 ], [ -74.5712734, 46.078789 ], [ -74.5714745, 46.0528082 ], [ -74.5392665, 46.0396922 ], [ -74.5068427, 46.0525477 ] ] ] } },
{ "type": "Feature", "properties": { "hex_id": 1042, "count": 7, "date": "2025-11-29", "n_files": 22, "pct": 31.82 }, "geometry": { "type": "Polygon", "coordinates": [ [ [ -74.4756325, 45.9354905 ], [ -74.475387500000011, 45.9614714 ], [ -74.507535, 45.9746055 ], [ -74.539913, 45.9617494 ], [ -74.5401279, 45.9357683 ], [ -74.507995, 45.9226434 ], [ -74.4756325, 45.9354905 ] ] ] } },
{ "type": "Feature", "properties": { "hex_id": 1043, "count": 7, "date": "2025-11-29", "n_files": 22, "pct": 31.82 }, "geometry": { "type": "Polygon", "coordinates": [ [ [ -74.4748964, 46.0134329 ], [ -74.4746503, 46.0394134 ], [ -74.5068427, 46.0525477 ], [ -74.5392665, 46.0396922 ], [ -74.5394823, 46.0137114 ], [ -74.5073046, 46.0005863 ], [ -74.4748964, 46.0134329 ] ] ] } },
{ "type": "Feature", "properties": { "hex_id": 1044, "count": 7, "date": "2025-11-29", "n_files": 22, "pct": 31.82 }, "geometry": { "type": "Polygon", "coordinates": [ [ [ -74.4741572, 46.0913742 ], [ -74.4739101, 46.1173543 ], [ -74.506147500000012, 46.1304888 ], [ -74.5386173, 46.1176338 ], [ -74.538834, 46.0916534 ], [ -74.5066113, 46.0785281 ], [ -74.4741572, 46.0913742 ] ] ] } },
{ "type": "Feature", "properties": { "hex_id": 1106, "count": 7, "date": "2025-11-29", "n_files": 22, "pct": 31.82 }, "geometry": { "type": "Polygon", "coordinates": [ [ [ -74.4437747, 45.8963666 ], [ -74.4435151, 45.9223476 ], [ -74.4756325, 45.9354905 ], [ -74.507995, 45.9226434 ], [ -74.5082245, 45.8966622 ], [ -74.4761216, 45.8835284 ], [ -74.4437747, 45.8963666 ] ] ] } },
{ "type": "Feature", "properties": { "hex_id": 1107, "count": 7, "date": "2025-11-29", "n_files": 22, "pct": 31.82 }, "geometry": { "type": "Polygon", "coordinates": [ [ [ -74.4429949, 45.9743091 ], [ -74.4427342, 46.0002897 ], [ -74.4748964, 46.0134329 ], [ -74.5073046, 46.0005863 ], [ -74.507535, 45.9746055 ], [ -74.475387500000011, 45.9614714 ], [ -74.4429949, 45.9743091 ] ] ] } },
{ "type": "Feature", "properties": { "hex_id": 1108, "count": 7, "date": "2025-11-29", "n_files": 22, "pct": 31.82 }, "geometry": { "type": "Polygon", "coordinates": [ [ [ -74.4422119, 46.0522505 ], [ -74.4419501, 46.0782307 ], [ -74.4741572, 46.0913742 ], [ -74.5066113, 46.0785281 ], [ -74.5068427, 46.0525477 ], [ -74.4746503, 46.0394134 ], [ -74.4422119, 46.0522505 ] ] ] } },
{ "type": "Feature", "properties": { "hex_id": 1170, "count": 7, "date": "2025-11-29", "n_files": 22, "pct": 31.82 }, "geometry": { "type": "Polygon", "coordinates": [ [ [ -74.4111381, 45.9351764 ], [ -74.410863, 45.961157 ], [ -74.4429949, 45.9743091 ], [ -74.475387500000011, 45.9614714 ], [ -74.4756325, 45.9354905 ], [ -74.4435151, 45.9223476 ], [ -74.4111381, 45.9351764 ] ] ] } },
{ "type": "Feature", "properties": { "hex_id": 1289, "count": 1, "date": "2025-11-29", "n_files": 22, "pct": 4.55 }, "geometry": { "type": "Polygon", "coordinates": [ [ [ -74.3547324, 45.2333123 ], [ -74.3544381, 45.2592958 ], [ -74.38616, 45.2724633 ], [ -74.4181622, 45.2596382 ], [ -74.4184274, 45.2336544 ], [ -74.3867195, 45.2204959 ], [ -74.3547324, 45.2333123 ] ] ] } },
{ "type": "Feature", "properties": { "hex_id": 1353, "count": 1, "date": "2025-11-29", "n_files": 22, "pct": 4.55 }, "geometry": { "type": "Polygon", "coordinates": [ [ [ -74.3233477, 45.194152599999988 ], [ -74.3230395, 45.2201362 ], [ -74.3547324, 45.2333123 ], [ -74.3867195, 45.2204959 ], [ -74.3869987, 45.194512 ], [ -74.3553197, 45.1813448 ], [ -74.3233477, 45.194152599999988 ] ] ] } },
{ "type": "Feature", "properties": { "hex_id": 1417, "count": 1, "date": "2025-11-29", "n_files": 22, "pct": 4.55 }, "geometry": { "type": "Polygon", "coordinates": [ [ [ -74.2910386, 45.2329346 ], [ -74.2907153, 45.2589178 ], [ -74.322422, 45.2721029 ], [ -74.3544381, 45.2592958 ], [ -74.3547324, 45.2333123 ], [ -74.3230395, 45.2201362 ], [ -74.2910386, 45.2329346 ] ] ] } },
{ "type": "Feature", "properties": { "hex_id": 2460, "count": 2, "date": "2025-11-29", "n_files": 22, "pct": 9.09 }, "geometry": { "type": "Polygon", "coordinates": [ [ [ -73.7486351, 46.709259 ], [ -73.7480344, 46.7352313 ], [ -73.7804564, 46.7485708 ], [ -73.8134647, 46.7359285 ], [ -73.8140341, 46.7099556 ], [ -73.7816265, 46.6966257 ], [ -73.7486351, 46.709259 ] ] ] } },
{ "type": "Feature", "properties": { "hex_id": 2510, "count": 1, "date": "2025-11-29", "n_files": 22, "pct": 4.55 }, "geometry": { "type": "Polygon", "coordinates": [ [ [ -73.7419449, 45.5789974 ], [ -73.7413643, 45.6049747 ], [ -73.7731325, 45.6183122 ], [ -73.8054678, 45.6056631 ], [ -73.8060188, 45.5796851 ], [ -73.7742642, 45.5663569 ], [ -73.7419449, 45.5789974 ] ] ] } },
{ "type": "Feature", "properties": { "hex_id": 2638, "count": 1, "date": "2025-11-29", "n_files": 22, "pct": 4.55 }, "geometry": { "type": "Polygon", "coordinates": [ [ [ -73.6778734, 45.5782737 ], [ -73.6772632, 45.6042504 ], [ -73.7090155, 45.6176055 ], [ -73.7413643, 45.6049747 ], [ -73.7419449, 45.5789974 ], [ -73.7102063, 45.5656515 ], [ -73.6778734, 45.5782737 ] ] ] } },
{ "type": "Feature", "properties": { "hex_id": 2825, "count": 2, "date": "2025-11-29", "n_files": 22, "pct": 9.09 }, "geometry": { "type": "Polygon", "coordinates": [ [ [ -73.5905194, 45.2264372 ], [ -73.5898769, 45.2524145 ], [ -73.6214131, 45.2657922 ], [ -73.6535787, 45.2531834 ], [ -73.6541923, 45.2272053 ], [ -73.6226692, 45.2138368 ], [ -73.5905194, 45.2264372 ] ] ] } },
{ "type": "Feature", "properties": { "hex_id": 2829, "count": 8, "date": "2025-11-29", "n_files": 22, "pct": 36.36 }, "geometry": { "type": "Polygon", "coordinates": [ [ [ -73.5827509, 45.5381571 ], [ -73.5820977, 45.5641329 ], [ -73.6138044, 45.5775141 ], [ -73.6461507, 45.5649101 ], [ -73.6467744, 45.5389336 ], [ -73.6150812, 45.5255617 ], [ -73.5827509, 45.5381571 ] ] ] } },
{ "type": "Feature", "properties": { "hex_id": 2953, "count": 2, "date": "2025-11-29", "n_files": 22, "pct": 9.09 }, "geometry": { "type": "Polygon", "coordinates": [ [ [ -73.5268492, 45.2256335 ], [ -73.5261777, 45.2516101 ], [ -73.5576981, 45.2650052 ], [ -73.5898769, 45.2524145 ], [ -73.5905194, 45.2264372 ], [ -73.5590122, 45.2130512 ], [ -73.5268492, 45.2256335 ] ] ] } },
{ "type": "Feature", "properties": { "hex_id": 3150, "count": 11, "date": "2025-11-29", "n_files": 22, "pct": 50.0 }, "geometry": { "type": "Polygon", "coordinates": [ [ [ -73.4216135, 45.5750197 ], [ -73.4208852, 45.6009935 ], [ -73.4525729, 45.6144191 ], [ -73.4849755, 45.6018616 ], [ -73.4856743, 45.5758871 ], [ -73.454, 45.5624708 ], [ -73.4216135, 45.5750197 ] ] ] } },
{ "type": "Feature", "properties": { "hex_id": 4506, "count": 8, "date": "2025-11-29", "n_files": 22, "pct": 36.36 }, "geometry": { "type": "Polygon", "coordinates": [ [ [ -72.7092604, 46.5372864 ], [ -72.7081675, 46.5632449 ], [ -72.7402214, 46.576873 ], [ -72.7733551, 46.5645329 ], [ -72.774417, 46.5385733 ], [ -72.7423763, 46.524955 ], [ -72.7092604, 46.5372864 ] ] ] } },
{ "type": "Feature", "properties": { "hex_id": 4762, "count": 2, "date": "2025-11-29", "n_files": 22, "pct": 9.09 }, "geometry": { "type": "Polygon", "coordinates": [ [ [ -72.5789609, 46.5346014 ], [ -72.577806, 46.5605574 ], [ -72.6098243, 46.5742215 ], [ -72.6429844, 46.5619197 ], [ -72.6441083, 46.5359625 ], [ -72.6121032, 46.5223082 ], [ -72.5789609, 46.5346014 ] ] ] } },
{ "type": "Feature", "properties": { "hex_id": 4826, "count": 2, "date": "2025-11-29", "n_files": 22, "pct": 9.09 }, "geometry": { "type": "Polygon", "coordinates": [ [ [ -72.5481417, 46.4949736 ], [ -72.5469736, 46.5209292 ], [ -72.5789609, 46.5346014 ], [ -72.6121032, 46.5223082 ], [ -72.6132403, 46.4963514 ], [ -72.5812661, 46.482689 ], [ -72.5481417, 46.4949736 ] ] ] } },
{ "type": "Feature", "properties": { "hex_id": 4888, "count": 2, "date": "2025-11-29", "n_files": 22, "pct": 9.09 }, "geometry": { "type": "Polygon", "coordinates": [ [ [ -72.5208998, 46.3774718 ], [ -72.5197236, 46.4034274 ], [ -72.5516362, 46.417106 ], [ -72.5847119, 46.4048192 ], [ -72.5858573, 46.3788623 ], [ -72.5539578, 46.3651935 ], [ -72.5208998, 46.3774718 ] ] ] } },
{ "type": "Feature", "properties": { "hex_id": 5257, "count": 5, "date": "2025-11-29", "n_files": 22, "pct": 22.73 }, "geometry": { "type": "Polygon", "coordinates": [ [ [ -72.3813685, 45.2051051 ], [ -72.380176, 45.2310632 ], [ -72.4114016, 45.2447684 ], [ -72.4438077, 45.2325061 ], [ -72.4449714, 45.2065466 ], [ -72.4137578, 45.1928508 ], [ -72.3813685, 45.2051051 ] ] ] } },
{ "type": "Feature", "properties": { "hex_id": 5322, "count": 5, "date": "2025-11-29", "n_files": 22, "pct": 22.73 }, "geometry": { "type": "Polygon", "coordinates": [ [ [ -72.3477578, 45.2433072 ], [ -72.3465483, 45.2692645 ], [ -72.377786, 45.2829791 ], [ -72.410221, 45.270727 ], [ -72.4114016, 45.2447684 ], [ -72.380176, 45.2310632 ], [ -72.3477578, 45.2433072 ] ] ] } },
{ "type": "Feature", "properties": { "hex_id": 7286, "count": 2, "date": "2025-11-29", "n_files": 22, "pct": 9.09 }, "geometry": { "type": "Polygon", "coordinates": [ [ [ -71.156131, 48.6389327 ], [ -71.1541579, 48.6648438 ], [ -71.1870561, 48.6789275 ], [ -71.2219143, 48.6670893 ], [ -71.2238527, 48.6411761 ], [ -71.1909677, 48.6271032 ], [ -71.156131, 48.6389327 ] ] ] } },
{ "type": "Feature", "properties": { "hex_id": 7350, "count": 2, "date": "2025-11-29", "n_files": 22, "pct": 9.09 }, "geometry": { "type": "Polygon", "coordinates": [ [ [ -71.1192867, 48.6766612 ], [ -71.1172921, 48.7025711 ], [ -71.1502034, 48.7166656 ], [ -71.1850962, 48.7048395 ], [ -71.1870561, 48.6789275 ], [ -71.1541579, 48.6648438 ], [ -71.1192867, 48.6766612 ] ] ] } },
{ "type": "Feature", "properties": { "hex_id": 7414, "count": 2, "date": "2025-11-29", "n_files": 22, "pct": 9.09 }, "geometry": { "type": "Polygon", "coordinates": [ [ [ -71.0884176, 48.6366495 ], [ -71.08641, 48.6625586 ], [ -71.1192867, 48.6766612 ], [ -71.1541579, 48.6648438 ], [ -71.156131, 48.6389327 ], [ -71.1232673, 48.6248409 ], [ -71.0884176, 48.6366495 ] ] ] } },
{ "type": "Feature", "properties": { "hex_id": 7542, "count": 5, "date": "2025-11-29", "n_files": 22, "pct": 22.73 }, "geometry": { "type": "Polygon", "coordinates": [ [ [ -71.0207128, 48.634326699999988 ], [ -71.0186707, 48.6602337 ], [ -71.0515258, 48.6743551 ], [ -71.08641, 48.6625586 ], [ -71.0884176, 48.6366495 ], [ -71.0555755, 48.622539 ], [ -71.0207128, 48.634326699999988 ] ] ] } },
{ "type": "Feature", "properties": { "hex_id": 7605, "count": 5, "date": "2025-11-29", "n_files": 22, "pct": 22.73 }, "geometry": { "type": "Polygon", "coordinates": [ [ [ -70.9899473, 48.5942912 ], [ -70.9878923, 48.6201974 ], [ -71.0207128, 48.634326699999988 ], [ -71.0555755, 48.622539 ], [ -71.057596, 48.5966307 ], [ -71.0247884, 48.5825122 ], [ -70.9899473, 48.5942912 ] ] ] } },
{ "type": "Feature", "properties": { "hex_id": 7606, "count": 5, "date": "2025-11-29", "n_files": 22, "pct": 22.73 }, "geometry": { "type": "Polygon", "coordinates": [ [ [ -70.9837736, 48.6720092 ], [ -70.9817098, 48.6979148 ], [ -71.0145778, 48.7120471 ], [ -71.0494966, 48.7002629 ], [ -71.0515258, 48.6743551 ], [ -71.0186707, 48.6602337 ], [ -70.9837736, 48.6720092 ] ] ] } },
{ "type": "Feature", "properties": { "hex_id": 7669, "count": 5, "date": "2025-11-29", "n_files": 22, "pct": 22.73 }, "geometry": { "type": "Polygon", "coordinates": [ [ [ -70.9592289, 48.5542485 ], [ -70.9571612, 48.5801539 ], [ -70.9899473, 48.5942912 ], [ -71.0247884, 48.5825122 ], [ -71.0268218, 48.5566047 ], [ -70.9940485, 48.5424782 ], [ -70.9592289, 48.5542485 ] ] ] } },
{ "type": "Feature", "properties": { "hex_id": 7670, "count": 5, "date": "2025-11-29", "n_files": 22, "pct": 22.73 }, "geometry": { "type": "Polygon", "coordinates": [ [ [ -70.9530168, 48.6319641 ], [ -70.9509401, 48.657869 ], [ -70.9837736, 48.6720092 ], [ -71.0186707, 48.6602337 ], [ -71.0207128, 48.634326699999988 ], [ -70.9878923, 48.6201974 ], [ -70.9530168, 48.6319641 ] ] ] } },
{ "type": "Feature", "properties": { "hex_id": 7733, "count": 5, "date": "2025-11-29", "n_files": 22, "pct": 22.73 }, "geometry": { "type": "Polygon", "coordinates": [ [ [ -70.9223073, 48.591912 ], [ -70.9202179, 48.617816 ], [ -70.9530168, 48.6319641 ], [ -70.9878923, 48.6201974 ], [ -70.9899473, 48.5942912 ], [ -70.9571612, 48.5801539 ], [ -70.9223073, 48.591912 ] ] ] } },
{ "type": "Feature", "properties": { "hex_id": 7734, "count": 5, "date": "2025-11-29", "n_files": 22, "pct": 22.73 }, "geometry": { "type": "Polygon", "coordinates": [ [ [ -70.9160301, 48.6696235 ], [ -70.9139318, 48.695527 ], [ -70.946778, 48.7096781 ], [ -70.9817098, 48.6979148 ], [ -70.9837736, 48.6720092 ], [ -70.9509401, 48.657869 ], [ -70.9160301, 48.6696235 ] ] ] } },
{ "type": "Feature", "properties": { "hex_id": 7797, "count": 4, "date": "2025-11-29", "n_files": 22, "pct": 18.18 }, "geometry": { "type": "Polygon", "coordinates": [ [ [ -70.8916449, 48.5518528 ], [ -70.8895428, 48.577756 ], [ -70.9223073, 48.591912 ], [ -70.9571612, 48.5801539 ], [ -70.9592289, 48.5542485 ], [ -70.9264772, 48.5401034 ], [ -70.8916449, 48.5518528 ] ] ] } },
{ "type": "Feature", "properties": { "hex_id": 7798, "count": 5, "date": "2025-11-29", "n_files": 22, "pct": 22.73 }, "geometry": { "type": "Polygon", "coordinates": [ [ [ -70.8853295, 48.6295619 ], [ -70.8832184, 48.6554645 ], [ -70.9160301, 48.6696235 ], [ -70.9509401, 48.657869 ], [ -70.9530168, 48.6319641 ], [ -70.9202179, 48.617816 ], [ -70.8853295, 48.6295619 ] ] ] } },
{ "type": "Feature", "properties": { "hex_id": 7860, "count": 4, "date": "2025-11-29", "n_files": 22, "pct": 18.18 }, "geometry": { "type": "Polygon", "coordinates": [ [ [ -70.8610296, 48.5117865 ], [ -70.8589148, 48.5376889 ], [ -70.8916449, 48.5518528 ], [ -70.9264772, 48.5401034 ], [ -70.9285577, 48.5141988 ], [ -70.8958402, 48.5000458 ], [ -70.8610296, 48.5117865 ] ] ] } },
{ "type": "Feature", "properties": { "hex_id": 7861, "count": 4, "date": "2025-11-29", "n_files": 22, "pct": 18.18 }, "geometry": { "type": "Polygon", "coordinates": [ [ [ -70.8546762, 48.5894932 ], [ -70.8525523, 48.615395 ], [ -70.8853295, 48.6295619 ], [ -70.9202179, 48.617816 ], [ -70.9223073, 48.591912 ], [ -70.8895428, 48.577756 ], [ -70.8546762, 48.5894932 ] ] ] } },
{ "type": "Feature", "properties": { "hex_id": 7862, "count": 5, "date": "2025-11-29", "n_files": 22, "pct": 22.73 }, "geometry": { "type": "Polygon", "coordinates": [ [ [ -70.8482956, 48.6671981 ], [ -70.8461627, 48.6930994 ], [ -70.8789872, 48.7072693 ], [ -70.9139318, 48.695527 ], [ -70.9160301, 48.6696235 ], [ -70.8832184, 48.6554645 ], [ -70.8482956, 48.6671981 ] ] ] } },
{ "type": "Feature", "properties": { "hex_id": 7925, "count": 4, "date": "2025-11-29", "n_files": 22, "pct": 18.18 }, "geometry": { "type": "Polygon", "coordinates": [ [ [ -70.8240698, 48.5494174 ], [ -70.8219334, 48.5753185 ], [ -70.8546762, 48.5894932 ], [ -70.8895428, 48.577756 ], [ -70.8916449, 48.5518528 ], [ -70.8589148, 48.5376889 ], [ -70.8240698, 48.5494174 ] ] ] } },
{ "type": "Feature", "properties": { "hex_id": 7926, "count": 6, "date": "2025-11-29", "n_files": 22, "pct": 27.27 }, "geometry": { "type": "Polygon", "coordinates": [ [ [ -70.8176513, 48.6271199 ], [ -70.8155057, 48.6530204 ], [ -70.8482956, 48.6671981 ], [ -70.8832184, 48.6554645 ], [ -70.8853295, 48.6295619 ], [ -70.8525523, 48.615395 ], [ -70.8176513, 48.6271199 ] ] ] } },
{ "type": "Feature", "properties": { "hex_id": 7927, "count": 5, "date": "2025-11-29", "n_files": 22, "pct": 22.73 }, "geometry": { "type": "Polygon", "coordinates": [ [ [ -70.8112054, 48.7048207 ], [ -70.8090506, 48.7307206 ], [ -70.8418878, 48.7449014 ], [ -70.876867, 48.7331714 ], [ -70.8789872, 48.7072693 ], [ -70.8461627, 48.6930994 ], [ -70.8112054, 48.7048207 ] ] ] } },
{ "type": "Feature", "properties": { "hex_id": 7989, "count": 4, "date": "2025-11-29", "n_files": 22, "pct": 18.18 }, "geometry": { "type": "Polygon", "coordinates": [ [ [ -70.7870541, 48.5870347 ], [ -70.7848959, 48.6129343 ], [ -70.8176513, 48.6271199 ], [ -70.8525523, 48.615395 ], [ -70.8546762, 48.5894932 ], [ -70.8219334, 48.5753185 ], [ -70.7870541, 48.5870347 ] ] ] } },
{ "type": "Feature", "properties": { "hex_id": 7990, "count": 5, "date": "2025-11-29", "n_files": 22, "pct": 22.73 }, "geometry": { "type": "Polygon", "coordinates": [ [ [ -70.7805702, 48.664733 ], [ -70.7784028, 48.6906321 ], [ -70.8112054, 48.7048207 ], [ -70.8461627, 48.6930994 ], [ -70.8482956, 48.6671981 ], [ -70.8155057, 48.6530204 ], [ -70.7805702, 48.664733 ] ] ] } },
{ "type": "Feature", "properties": { "hex_id": 8054, "count": 4, "date": "2025-11-29", "n_files": 22, "pct": 18.18 }, "geometry": { "type": "Polygon", "coordinates": [ [ [ -70.7499822, 48.6246383 ], [ -70.7478022, 48.6505365 ], [ -70.7805702, 48.664733 ], [ -70.8155057, 48.6530204 ], [ -70.8176513, 48.6271199 ], [ -70.7848959, 48.6129343 ], [ -70.7499822, 48.6246383 ] ] ] } },
{ "type": "Feature", "properties": { "hex_id": 10732, "count": 2, "date": "2025-11-29", "n_files": 22, "pct": 9.09 }, "geometry": { "type": "Polygon", "coordinates": [ [ [ -69.4164077, 47.7879887 ], [ -69.4136283, 47.8138387 ], [ -69.4454821, 47.8283821 ], [ -69.480104700000012, 47.8170646 ], [ -69.4828515, 47.7912116 ], [ -69.4510083, 47.776679 ], [ -69.4164077, 47.7879887 ] ] ] } },
{ "type": "Feature", "properties": { "hex_id": 11693, "count": 1, "date": "2025-11-29", "n_files": 22, "pct": 4.55 }, "geometry": { "type": "Polygon", "coordinates": [ [ [ -68.9048208, 47.878818 ], [ -68.9017779, 47.904644 ], [ -68.9335276, 47.919326 ], [ -68.9683102, 47.9081711 ], [ -68.9713203, 47.8823419 ], [ -68.9395806, 47.8676708 ], [ -68.9048208, 47.878818 ] ] ] } },
{ "type": "Feature", "properties": { "hex_id": 11694, "count": 1, "date": "2025-11-29", "n_files": 22, "pct": 4.55 }, "geometry": { "type": "Polygon", "coordinates": [ [ [ -68.8956794, 47.9562953 ], [ -68.8926238, 47.9821205 ], [ -68.9244163, 47.9968069 ], [ -68.9592544, 47.9856571 ], [ -68.9622772, 47.9598287 ], [ -68.9304948, 47.9451533 ], [ -68.8956794, 47.9562953 ] ] ] } },
{ "type": "Feature", "properties": { "hex_id": 11757, "count": 1, "date": "2025-11-29", "n_files": 22, "pct": 4.55 }, "geometry": { "type": "Polygon", "coordinates": [ [ [ -68.8761565, 47.8383045 ], [ -68.8731038, 47.8641293 ], [ -68.9048208, 47.878818 ], [ -68.9395806, 47.8676708 ], [ -68.9426007, 47.8418428 ], [ -68.9108937, 47.8271651 ], [ -68.8761565, 47.8383045 ] ] ] } },
{ "type": "Feature", "properties": { "hex_id": 11758, "count": 1, "date": "2025-11-29", "n_files": 22, "pct": 4.55 }, "geometry": { "type": "Polygon", "coordinates": [ [ [ -68.8669854, 47.9157782 ], [ -68.8639198, 47.9416022 ], [ -68.8956794, 47.9562953 ], [ -68.9304948, 47.9451533 ], [ -68.9335276, 47.919326 ], [ -68.9017779, 47.904644 ], [ -68.8669854, 47.9157782 ] ] ] } },
{ "type": "Feature", "properties": { "hex_id": 11759, "count": 1, "date": "2025-11-29", "n_files": 22, "pct": 4.55 }, "geometry": { "type": "Polygon", "coordinates": [ [ [ -68.8577756, 47.9932495 ], [ -68.8546971, 48.0190727 ], [ -68.8864996, 48.0337702 ], [ -68.921370600000017, 48.0226334 ], [ -68.9244163, 47.9968069 ], [ -68.8926238, 47.9821205 ], [ -68.8577756, 47.9932495 ] ] ] } },
{ "type": "Feature", "properties": { "hex_id": 11821, "count": 1, "date": "2025-11-29", "n_files": 22, "pct": 4.55 }, "geometry": { "type": "Polygon", "coordinates": [ [ [ -68.838334, 47.8752557 ], [ -68.8352585, 47.9010786 ], [ -68.8669854, 47.9157782 ], [ -68.9017779, 47.904644 ], [ -68.9048208, 47.878818 ], [ -68.8731038, 47.8641293 ], [ -68.838334, 47.8752557 ] ] ] } },
{ "type": "Feature", "properties": { "hex_id": 11822, "count": 1, "date": "2025-11-29", "n_files": 22, "pct": 4.55 }, "geometry": { "type": "Polygon", "coordinates": [ [ [ -68.8290945, 47.952723399999989 ], [ -68.826006, 47.9785455 ], [ -68.8577756, 47.9932495 ], [ -68.8926238, 47.9821205 ], [ -68.8956794, 47.9562953 ], [ -68.8639198, 47.9416022 ], [ -68.8290945, 47.952723399999989 ] ] ] } },
{ "type": "Feature", "properties": { "hex_id": 11823, "count": 1, "date": "2025-11-29", "n_files": 22, "pct": 4.55 }, "geometry": { "type": "Polygon", "coordinates": [ [ [ -68.819816, 48.0301887 ], [ -68.8167145, 48.0560099 ], [ -68.848527, 48.0707184 ], [ -68.883431, 48.0595947 ], [ -68.8864996, 48.0337702 ], [ -68.8546971, 48.0190727 ], [ -68.819816, 48.0301887 ] ] ] } },
{ "type": "Feature", "properties": { "hex_id": 11886, "count": 1, "date": "2025-11-29", "n_files": 22, "pct": 4.55 }, "geometry": { "type": "Polygon", "coordinates": [ [ [ -68.8004561, 47.912192 ], [ -68.7973577, 47.9380128 ], [ -68.8290945, 47.952723399999989 ], [ -68.8639198, 47.9416022 ], [ -68.8669854, 47.9157782 ], [ -68.8352585, 47.9010786 ], [ -68.8004561, 47.912192 ] ] ] } },
{ "type": "Feature", "properties": { "hex_id": 11887, "count": 1, "date": "2025-11-29", "n_files": 22, "pct": 4.55 }, "geometry": { "type": "Polygon", "coordinates": [ [ [ -68.791148, 47.9896536 ], [ -68.7880365, 48.0154736 ], [ -68.819816, 48.0301887 ], [ -68.8546971, 48.0190727 ], [ -68.8577756, 47.9932495 ], [ -68.826006, 47.9785455 ], [ -68.791148, 47.9896536 ] ] ] } },
{ "type": "Feature", "properties": { "hex_id": 11888, "count": 1, "date": "2025-11-29", "n_files": 22, "pct": 4.55 }, "geometry": { "type": "Polygon", "coordinates": [ [ [ -68.7818006, 48.0671128 ], [ -68.778676, 48.092932 ], [ -68.8104984, 48.1076516 ], [ -68.8454354, 48.0965409 ], [ -68.848527, 48.0707184 ], [ -68.8167145, 48.0560099 ], [ -68.7818006, 48.0671128 ] ] ] } },
{ "type": "Feature", "properties": { "hex_id": 11949, "count": 1, "date": "2025-11-29", "n_files": 22, "pct": 4.55 }, "geometry": { "type": "Polygon", "coordinates": [ [ [ -68.7718602, 47.8716552 ], [ -68.768752, 47.8974748 ], [ -68.8004561, 47.912192 ], [ -68.8352585, 47.9010786 ], [ -68.838334, 47.8752557 ], [ -68.8066398, 47.8605496 ], [ -68.7718602, 47.8716552 ] ] ] } },
{ "type": "Feature", "properties": { "hex_id": 11950, "count": 1, "date": "2025-11-29", "n_files": 22, "pct": 4.55 }, "geometry": { "type": "Polygon", "coordinates": [ [ [ -68.7625226, 47.9491132 ], [ -68.7594013, 47.974932 ], [ -68.791148, 47.9896536 ], [ -68.826006, 47.9785455 ], [ -68.8290945, 47.952723399999989 ], [ -68.7973577, 47.9380128 ], [ -68.7625226, 47.9491132 ] ] ] } },
{ "type": "Feature", "properties": { "hex_id": 11951, "count": 1, "date": "2025-11-29", "n_files": 22, "pct": 4.55 }, "geometry": { "type": "Polygon", "coordinates": [ [ [ -68.753145600000011, 48.0265687 ], [ -68.7500111, 48.0523867 ], [ -68.7818006, 48.0671128 ], [ -68.8167145, 48.0560099 ], [ -68.819816, 48.0301887 ], [ -68.7880365, 48.0154736 ], [ -68.753145600000011, 48.0265687 ] ] ] } },
{ "type": "Feature", "properties": { "hex_id": 12014, "count": 1, "date": "2025-11-29", "n_files": 22, "pct": 4.55 }, "geometry": { "type": "Polygon", "coordinates": [ [ [ -68.7339398, 47.9085675 ], [ -68.7308087, 47.934385 ], [ -68.7625226, 47.9491132 ], [ -68.7973577, 47.9380128 ], [ -68.8004561, 47.912192 ], [ -68.768752, 47.8974748 ], [ -68.7339398, 47.9085675 ] ] ] } },
{ "type": "Feature", "properties": { "hex_id": 12015, "count": 1, "date": "2025-11-29", "n_files": 22, "pct": 4.55 }, "geometry": { "type": "Polygon", "coordinates": [ [ [ -68.7245334, 47.9860193 ], [ -68.7213891, 48.011836 ], [ -68.753145600000011, 48.0265687 ], [ -68.7880365, 48.0154736 ], [ -68.791148, 47.9896536 ], [ -68.7594013, 47.974932 ], [ -68.7245334, 47.9860193 ] ] ] } },
{ "type": "Feature", "properties": { "hex_id": 12016, "count": 1, "date": "2025-11-29", "n_files": 22, "pct": 4.55 }, "geometry": { "type": "Polygon", "coordinates": [ [ [ -68.7150873, 48.0634686 ], [ -68.7119297, 48.0892846 ], [ -68.743729, 48.1040218 ], [ -68.778676, 48.092932 ], [ -68.7818006, 48.0671128 ], [ -68.7500111, 48.0523867 ], [ -68.7150873, 48.0634686 ] ] ] } },
{ "type": "Feature", "properties": { "hex_id": 12077, "count": 1, "date": "2025-11-29", "n_files": 22, "pct": 4.55 }, "geometry": { "type": "Polygon", "coordinates": [ [ [ -68.7053994, 47.8680165 ], [ -68.7022586, 47.8938328 ], [ -68.7339398, 47.9085675 ], [ -68.768752, 47.8974748 ], [ -68.7718602, 47.8716552 ], [ -68.7401888, 47.8569316 ], [ -68.7053994, 47.8680165 ] ] ] } },
{ "type": "Feature", "properties": { "hex_id": 12078, "count": 1, "date": "2025-11-29", "n_files": 22, "pct": 4.55 }, "geometry": { "type": "Polygon", "coordinates": [ [ [ -68.6959638, 47.9454646 ], [ -68.6928097, 47.9712801 ], [ -68.7245334, 47.9860193 ], [ -68.7594013, 47.974932 ], [ -68.7625226, 47.9491132 ], [ -68.7308087, 47.934385 ], [ -68.6959638, 47.9454646 ] ] ] } },
{ "type": "Feature", "properties": { "hex_id": 12079, "count": 1, "date": "2025-11-29", "n_files": 22, "pct": 4.55 }, "geometry": { "type": "Polygon", "coordinates": [ [ [ -68.6864883, 48.0229102 ], [ -68.683321, 48.0487249 ], [ -68.7150873, 48.0634686 ], [ -68.7500111, 48.0523867 ], [ -68.753145600000011, 48.0265687 ], [ -68.7213891, 48.011836 ], [ -68.6864883, 48.0229102 ] ] ] } },
{ "type": "Feature", "properties": { "hex_id": 12080, "count": 1, "date": "2025-11-29", "n_files": 22, "pct": 4.55 }, "geometry": { "type": "Polygon", "coordinates": [ [ [ -68.6769729, 48.1003534 ], [ -68.6737922, 48.1261672 ], [ -68.7056013, 48.1409156 ], [ -68.7405813, 48.1298389 ], [ -68.743729, 48.1040218 ], [ -68.7119297, 48.0892846 ], [ -68.6769729, 48.1003534 ] ] ] } },
{ "type": "Feature", "properties": { "hex_id": 12142, "count": 1, "date": "2025-11-29", "n_files": 22, "pct": 4.55 }, "geometry": { "type": "Polygon", "coordinates": [ [ [ -68.6674366, 47.9049046 ], [ -68.6642729, 47.930718899999988 ], [ -68.6959638, 47.9454646 ], [ -68.7308087, 47.934385 ], [ -68.7339398, 47.9085675 ], [ -68.7022586, 47.8938328 ], [ -68.6674366, 47.9049046 ] ] ] } },
{ "type": "Feature", "properties": { "hex_id": 12143, "count": 1, "date": "2025-11-29", "n_files": 22, "pct": 4.55 }, "geometry": { "type": "Polygon", "coordinates": [ [ [ -68.657932, 47.9823465 ], [ -68.6547549, 48.00816 ], [ -68.6864883, 48.0229102 ], [ -68.7213891, 48.011836 ], [ -68.7245334, 47.9860193 ], [ -68.6928097, 47.9712801 ], [ -68.657932, 47.9823465 ] ] ] } },
{ "type": "Feature", "properties": { "hex_id": 12144, "count": 1, "date": "2025-11-29", "n_files": 22, "pct": 4.55 }, "geometry": { "type": "Polygon", "coordinates": [ [ [ -68.6483873, 48.059786 ], [ -68.6451968, 48.0855986 ], [ -68.6769729, 48.1003534 ], [ -68.7119297, 48.0892846 ], [ -68.7150873, 48.0634686 ], [ -68.683321, 48.0487249 ], [ -68.6483873, 48.059786 ] ] ] } },
{ "type": "Feature", "properties": { "hex_id": 12206, "count": 1, "date": "2025-11-29", "n_files": 22, "pct": 4.55 }, "geometry": { "type": "Polygon", "coordinates": [ [ [ -68.6294182, 47.9417776 ], [ -68.6262314, 47.9675898 ], [ -68.657932, 47.9823465 ], [ -68.6928097, 47.9712801 ], [ -68.6959638, 47.9454646 ], [ -68.6642729, 47.930718899999988 ], [ -68.6294182, 47.9417776 ] ] ] } },
{ "type": "Feature", "properties": { "hex_id": 12207, "count": 1, "date": "2025-11-29", "n_files": 22, "pct": 4.55 }, "geometry": { "type": "Polygon", "coordinates": [ [ [ -68.6198444, 48.0192133 ], [ -68.6166442, 48.0450246 ], [ -68.6483873, 48.059786 ], [ -68.683321, 48.0487249 ], [ -68.6864883, 48.0229102 ], [ -68.6547549, 48.00816 ], [ -68.6198444, 48.0192133 ] ] ] } },
{ "type": "Feature", "properties": { "hex_id": 12208, "count": 1, "date": "2025-11-29", "n_files": 22, "pct": 4.55 }, "geometry": { "type": "Polygon", "coordinates": [ [ [ -68.6102302, 48.0966465 ], [ -68.6070165, 48.122457 ], [ -68.6388023, 48.1372229 ], [ -68.6737922, 48.1261672 ], [ -68.6769729, 48.1003534 ], [ -68.6451968, 48.0855986 ], [ -68.6102302, 48.0966465 ] ] ] } },
{ "type": "Feature", "properties": { "hex_id": 12270, "count": 1, "date": "2025-11-29", "n_files": 22, "pct": 4.55 }, "geometry": { "type": "Polygon", "coordinates": [ [ [ -68.6009468, 47.9012035 ], [ -68.5977503, 47.9270144 ], [ -68.6294182, 47.9417776 ], [ -68.6642729, 47.930718899999988 ], [ -68.6674366, 47.9049046 ], [ -68.6357784, 47.8901524 ], [ -68.6009468, 47.9012035 ] ] ] } },
{ "type": "Feature", "properties": { "hex_id": 12271, "count": 1, "date": "2025-11-29", "n_files": 22, "pct": 4.55 }, "geometry": { "type": "Polygon", "coordinates": [ [ [ -68.591344, 47.9786354 ], [ -68.5881341, 48.0044455 ], [ -68.6198444, 48.0192133 ], [ -68.6547549, 48.00816 ], [ -68.657932, 47.9823465 ], [ -68.6262314, 47.9675898 ], [ -68.591344, 47.9786354 ] ] ] } },
{ "type": "Feature", "properties": { "hex_id": 12272, "count": 1, "date": "2025-11-29", "n_files": 22, "pct": 4.55 }, "geometry": { "type": "Polygon", "coordinates": [ [ [ -68.5817008, 48.0560648 ], [ -68.5784773, 48.081874 ], [ -68.6102302, 48.0966465 ], [ -68.6451968, 48.0855986 ], [ -68.6483873, 48.059786 ], [ -68.6166442, 48.0450246 ], [ -68.5817008, 48.0560648 ] ] ] } },
{ "type": "Feature", "properties": { "hex_id": 12273, "count": 1, "date": "2025-11-29", "n_files": 22, "pct": 4.55 }, "geometry": { "type": "Polygon", "coordinates": [ [ [ -68.5720168, 48.1334917 ], [ -68.5687798, 48.1593001 ], [ -68.6005754, 48.1740771 ], [ -68.6355983, 48.1630347 ], [ -68.6388023, 48.1372229 ], [ -68.6070165, 48.122457 ], [ -68.5720168, 48.1334917 ] ] ] } },
{ "type": "Feature", "properties": { "hex_id": 12334, "count": 1, "date": "2025-11-29", "n_files": 22, "pct": 4.55 }, "geometry": { "type": "Polygon", "coordinates": [ [ [ -68.562886100000014, 47.9380523 ], [ -68.5596665, 47.9638611 ], [ -68.591344, 47.9786354 ], [ -68.6262314, 47.9675898 ], [ -68.6294182, 47.9417776 ], [ -68.5977503, 47.9270144 ], [ -68.562886100000014, 47.9380523 ] ] ] } },
{ "type": "Feature", "properties": { "hex_id": 12335, "count": 1, "date": "2025-11-29", "n_files": 22, "pct": 4.55 }, "geometry": { "type": "Polygon", "coordinates": [ [ [ -68.5532139, 48.0154779 ], [ -68.5499809, 48.0412859 ], [ -68.5817008, 48.0560648 ], [ -68.6166442, 48.0450246 ], [ -68.6198444, 48.0192133 ], [ -68.5881341, 48.0044455 ], [ -68.5532139, 48.0154779 ] ] ] } },
{ "type": "Feature", "properties": { "hex_id": 12336, "count": 1, "date": "2025-11-29", "n_files": 22, "pct": 4.55 }, "geometry": { "type": "Polygon", "coordinates": [ [ [ -68.543501, 48.092901 ], [ -68.5402543, 48.1187081 ], [ -68.5720168, 48.1334917 ], [ -68.6070165, 48.122457 ], [ -68.6102302, 48.0966465 ], [ -68.5784773, 48.081874 ], [ -68.543501, 48.092901 ] ] ] } },
{ "type": "Feature", "properties": { "hex_id": 12399, "count": 1, "date": "2025-11-29", "n_files": 22, "pct": 4.55 }, "geometry": { "type": "Polygon", "coordinates": [ [ [ -68.5247695, 47.9748859 ], [ -68.5215269, 48.0006926 ], [ -68.5532139, 48.0154779 ], [ -68.5881341, 48.0044455 ], [ -68.591344, 47.9786354 ], [ -68.5596665, 47.9638611 ], [ -68.5247695, 47.9748859 ] ] ] } },
{ "type": "Feature", "properties": { "hex_id": 12400, "count": 1, "date": "2025-11-29", "n_files": 22, "pct": 4.55 }, "geometry": { "type": "Polygon", "coordinates": [ [ [ -68.5150278, 48.0523051 ], [ -68.5117715, 48.078111 ], [ -68.543501, 48.092901 ], [ -68.5784773, 48.081874 ], [ -68.5817008, 48.0560648 ], [ -68.5499809, 48.0412859 ], [ -68.5150278, 48.0523051 ] ] ] } },
{ "type": "Feature", "properties": { "hex_id": 12401, "count": 1, "date": "2025-11-29", "n_files": 22, "pct": 4.55 }, "geometry": { "type": "Polygon", "coordinates": [ [ [ -68.505245, 48.1297219 ], [ -68.5019749, 48.1555269 ], [ -68.5337471, 48.1703215 ], [ -68.5687798, 48.1593001 ], [ -68.5720168, 48.1334917 ], [ -68.5402543, 48.1187081 ], [ -68.505245, 48.1297219 ] ] ] } },
{ "type": "Feature", "properties": { "hex_id": 12463, "count": 1, "date": "2025-11-29", "n_files": 22, "pct": 4.55 }, "geometry": { "type": "Polygon", "coordinates": [ [ [ -68.4865971, 48.0117041 ], [ -68.4833312, 48.0375087 ], [ -68.5150278, 48.0523051 ], [ -68.5499809, 48.0412859 ], [ -68.5532139, 48.0154779 ], [ -68.5215269, 48.0006926 ], [ -68.4865971, 48.0117041 ] ] ] } },
{ "type": "Feature", "properties": { "hex_id": 12464, "count": 1, "date": "2025-11-29", "n_files": 22, "pct": 4.55 }, "geometry": { "type": "Polygon", "coordinates": [ [ [ -68.4767855, 48.089117 ], [ -68.4735058, 48.1149207 ], [ -68.505245, 48.1297219 ], [ -68.5402543, 48.1187081 ], [ -68.543501, 48.092901 ], [ -68.5117715, 48.078111 ], [ -68.4767855, 48.089117 ] ] ] } },
{ "type": "Feature", "properties": { "hex_id": 12465, "count": 1, "date": "2025-11-29", "n_files": 22, "pct": 4.55 }, "geometry": { "type": "Polygon", "coordinates": [ [ [ -68.4669326, 48.1665273 ], [ -68.463639, 48.1923302 ], [ -68.4954208, 48.207136 ], [ -68.5304866, 48.1961278 ], [ -68.5337471, 48.1703215 ], [ -68.5019749, 48.1555269 ], [ -68.4669326, 48.1665273 ] ] ] } },
{ "type": "Feature", "properties": { "hex_id": 12528, "count": 1, "date": "2025-11-29", "n_files": 22, "pct": 4.55 }, "geometry": { "type": "Polygon", "coordinates": [ [ [ -68.4483686, 48.048507 ], [ -68.4450793, 48.0743094 ], [ -68.4767855, 48.089117 ], [ -68.5117715, 48.078111 ], [ -68.5150278, 48.0523051 ], [ -68.4833312, 48.0375087 ], [ -68.4483686, 48.048507 ] ] ] } },
{ "type": "Feature", "properties": { "hex_id": 12529, "count": 1, "date": "2025-11-29", "n_files": 22, "pct": 4.55 }, "geometry": { "type": "Polygon", "coordinates": [ [ [ -68.4384869, 48.1259135 ], [ -68.4351838, 48.151715 ], [ -68.4669326, 48.1665273 ], [ -68.5019749, 48.1555269 ], [ -68.505245, 48.1297219 ], [ -68.4735058, 48.1149207 ], [ -68.4384869, 48.1259135 ] ] ] } },
{ "type": "Feature", "properties": { "hex_id": 12592, "count": 1, "date": "2025-11-29", "n_files": 22, "pct": 4.55 }, "geometry": { "type": "Polygon", "coordinates": [ [ [ -68.4100839, 48.0852945 ], [ -68.4067712, 48.1110948 ], [ -68.4384869, 48.1259135 ], [ -68.4735058, 48.1149207 ], [ -68.4767855, 48.089117 ], [ -68.4450793, 48.0743094 ], [ -68.4100839, 48.0852945 ] ] ] } },
{ "type": "Feature", "properties": { "hex_id": 12593, "count": 1, "date": "2025-11-29", "n_files": 22, "pct": 4.55 }, "geometry": { "type": "Polygon", "coordinates": [ [ [ -68.4001319, 48.1626945 ], [ -68.3968052, 48.1884939 ], [ -68.4285636, 48.203317299999988 ], [ -68.463639, 48.1923302 ], [ -68.4669326, 48.1665273 ], [ -68.4351838, 48.151715 ], [ -68.4001319, 48.1626945 ] ] ] } },
{ "type": "Feature", "properties": { "hex_id": 12656, "count": 1, "date": "2025-11-29", "n_files": 22, "pct": 4.55 }, "geometry": { "type": "Polygon", "coordinates": [ [ [ -68.3817232, 48.044670499999988 ], [ -68.378401, 48.0704694 ], [ -68.4100839, 48.0852945 ], [ -68.4450793, 48.0743094 ], [ -68.4483686, 48.048507 ], [ -68.4166952, 48.0336931 ], [ -68.3817232, 48.044670499999988 ] ] ] } },
{ "type": "Feature", "properties": { "hex_id": 12657, "count": 1, "date": "2025-11-29", "n_files": 22, "pct": 4.55 }, "geometry": { "type": "Polygon", "coordinates": [ [ [ -68.3717428, 48.1220665 ], [ -68.3684067, 48.1478646 ], [ -68.4001319, 48.1626945 ], [ -68.4351838, 48.151715 ], [ -68.4384869, 48.1259135 ], [ -68.4067712, 48.1110948 ], [ -68.3717428, 48.1220665 ] ] ] } },
{ "type": "Feature", "properties": { "hex_id": 12720, "count": 1, "date": "2025-11-29", "n_files": 22, "pct": 4.55 }, "geometry": { "type": "Polygon", "coordinates": [ [ [ -68.3433961, 48.0814335 ], [ -68.3400505, 48.1072303 ], [ -68.3717428, 48.1220665 ], [ -68.4067712, 48.1110948 ], [ -68.4100839, 48.0852945 ], [ -68.378401, 48.0704694 ], [ -68.3433961, 48.0814335 ] ] ] } }
]
}
