{
"type": "FeatureCollection",
"name": "daily_2026-03-22",
"crs": { "type": "name", "properties": { "name": "urn:ogc:def:crs:OGC:1.3:CRS84" } },
"features": [
{ "type": "Feature", "properties": { "hex_id": 368173, "centroid_lon": -75.7297662658234, "centroid_lat": 45.427409975506237, "occurrences_today": 7, "datetimes_today": "2026-03-22 01:02:06, 2026-03-22 01:16:57, 2026-03-22 01:31:54, 2026-03-22 02:01:57, 2026-03-22 02:16:49, 2026-03-22 02:32:13, 2026-03-22 02:46:53", "cumulative_total": 140.0 }, "geometry": { "type": "Polygon", "coordinates": [ [ [ -75.72969931238832, 45.422213520872518 ], [ -75.736123612015547, 45.424770739603765 ], [ -75.73619116089921, 45.429967184434595 ], [ -75.729833237529874, 45.432606425314596 ], [ -75.723408324179601, 45.430048859992297 ], [ -75.723341947927821, 45.424852400445488 ], [ -75.72969931238832, 45.422213520872518 ] ] ] } },
{ "type": "Feature", "properties": { "hex_id": 648465, "centroid_lon": -72.751462029988218, "centroid_lat": 46.537844356914448, "occurrences_today": 10, "datetimes_today": "2026-03-22 00:01:57, 2026-03-22 00:16:48, 2026-03-22 00:30:43, 2026-03-22 00:46:43, 2026-03-22 01:02:06, 2026-03-22 01:16:57, 2026-03-22 01:31:54, 2026-03-22 02:01:57, 2026-03-22 02:16:49, 2026-03-22 02:32:13", "cumulative_total": 24.0 }, "geometry": { "type": "Polygon", "coordinates": [ [ [ -72.751676420632279, 46.532652500510196 ], [ -72.7580846379512, 46.535376373684201 ], [ -72.757870837733165, 46.540568250407929 ], [ -72.751247580057367, 46.543036207822887 ], [ -72.744838831609428, 46.540311944807648 ], [ -72.745053871945856, 46.535120114285384 ], [ -72.751676420632279, 46.532652500510196 ] ] ] } },
{ "type": "Feature", "properties": { "hex_id": 806559, "centroid_lon": -71.094099326615051, "centroid_lat": 46.095670304494099, "occurrences_today": 1, "datetimes_today": "2026-03-22 00:01:57", "cumulative_total": 63.0 }, "geometry": { "type": "Polygon", "coordinates": [ [ [ -71.094465852125708, 46.090486125354047 ], [ -71.100735700715077, 46.093298875038997 ], [ -71.100369726811792, 46.098483090382835 ], [ -71.093732700480714, 46.100854476649914 ], [ -71.087462400924778, 46.098041328940212 ], [ -71.087829578632324, 46.092857193053078 ], [ -71.094465852125708, 46.090486125354047 ] ] ] } },
{ "type": "Feature", "properties": { "hex_id": 807169, "centroid_lon": -71.088196655569121, "centroid_lat": 46.087673050174729, "occurrences_today": 1, "datetimes_today": "2026-03-22 00:01:57", "cumulative_total": 63.0 }, "geometry": { "type": "Polygon", "coordinates": [ [ [ -71.088563631769404, 46.082488900305968 ], [ -71.094832277046848, 46.085301939230561 ], [ -71.094465852125708, 46.090486125354047 ], [ -71.087829578632324, 46.092857193053078 ], [ -71.081560482829346, 46.090043756163055 ], [ -71.081928111011081, 46.084859649604262 ], [ -71.088563631769404, 46.082488900305968 ] ] ] } },
{ "type": "Feature", "properties": { "hex_id": 368784, "centroid_lon": -75.723474718545887, "centroid_lat": 45.435245314715097, "occurrences_today": 7, "datetimes_today": "2026-03-22 01:02:06, 2026-03-22 01:16:57, 2026-03-22 01:31:54, 2026-03-22 02:01:57, 2026-03-22 02:16:49, 2026-03-22 02:32:13, 2026-03-22 02:46:53", "cumulative_total": 82.0 }, "geometry": { "type": "Polygon", "coordinates": [ [ [ -75.723408324179601, 45.430048859992297 ], [ -75.729833237529874, 45.432606425314596 ], [ -75.729900227513895, 45.437802870297581 ], [ -75.723541131032718, 45.440441764613844 ], [ -75.71711560394111, 45.437883852538462 ], [ -75.717049787078082, 45.432687392964347 ], [ -75.723408324179601, 45.430048859992297 ] ] ] } },
{ "type": "Feature", "properties": { "hex_id": 575139, "centroid_lon": -73.560589705511759, "centroid_lat": 45.522009616009001, "occurrences_today": 5, "datetimes_today": "2026-03-22 00:30:43, 2026-03-22 00:46:43, 2026-03-22 01:02:06, 2026-03-22 01:16:57, 2026-03-22 01:31:54", "cumulative_total": 149.0 }, "geometry": { "type": "Polygon", "coordinates": [ [ [ -73.560722192049255, 45.516814468007944 ], [ -73.567055996402132, 45.519492521688299 ], [ -73.56692408046149, 45.524687681666094 ], [ -73.560457182786493, 45.527204758963116 ], [ -73.554122844030616, 45.524526336042406 ], [ -73.554255937340585, 45.519331205129539 ], [ -73.560722192049255, 45.516814468007944 ] ] ] } },
{ "type": "Feature", "properties": { "hex_id": 785236, "centroid_lon": -71.273030512738345, "centroid_lat": 46.795385164832773, "occurrences_today": 21, "datetimes_today": "2026-03-22 00:01:57, 2026-03-22 00:16:48, 2026-03-22 00:30:43, 2026-03-22 00:46:43, 2026-03-22 01:02:06, 2026-03-22 01:16:57, 2026-03-22 01:31:54, 2026-03-22 02:01:57, 2026-03-22 02:16:49, 2026-03-22 02:32:13, 2026-03-22 02:46:53, 2026-03-22 03:01:38, 2026-03-22 03:16:40, 2026-03-22 03:28:43, 2026-03-22 03:46:48, 2026-03-22 03:58:39, 2026-03-22 04:16:30, 2026-03-22 04:31:26, 2026-03-22 04:44:24, 2026-03-22 05:01:35, 2026-03-22 05:16:24", "cumulative_total": 94.0 }, "geometry": { "type": "Polygon", "coordinates": [ [ [ -71.273388915777488, 46.790200540372183 ], [ -71.2797473384325, 46.793005840796013 ], [ -71.27938951100181, 46.798190500209444 ], [ -71.272672010382067, 46.800569782465104 ], [ -71.266313111452916, 46.797764076039407 ], [ -71.266672189383257, 46.792579493426565 ], [ -71.273388915777488, 46.790200540372183 ] ] ] } },
{ "type": "Feature", "properties": { "hex_id": 785846, "centroid_lon": -71.267031167841481, "centroid_lat": 46.787394903978516, "occurrences_today": 21, "datetimes_today": "2026-03-22 00:01:57, 2026-03-22 00:16:48, 2026-03-22 00:30:43, 2026-03-22 00:46:43, 2026-03-22 01:02:06, 2026-03-22 01:16:57, 2026-03-22 01:31:54, 2026-03-22 02:01:57, 2026-03-22 02:16:49, 2026-03-22 02:32:13, 2026-03-22 02:46:53, 2026-03-22 03:01:38, 2026-03-22 03:16:40, 2026-03-22 03:28:43, 2026-03-22 03:46:48, 2026-03-22 03:58:39, 2026-03-22 04:16:30, 2026-03-22 04:31:26, 2026-03-22 04:44:24, 2026-03-22 05:01:35, 2026-03-22 05:16:24", "cumulative_total": 94.0 }, "geometry": { "type": "Polygon", "coordinates": [ [ [ -71.267390046862019, 46.782210307695962 ], [ -71.273747219533874, 46.785015909084052 ], [ -71.273388915777488, 46.790200540372183 ], [ -71.266672189383257, 46.792579493426565 ], [ -71.260314540902158, 46.789773486096557 ], [ -71.260674094590101, 46.784588931720712 ], [ -71.267390046862019, 46.782210307695962 ] ] ] } },
{ "type": "Feature", "properties": { "hex_id": 786457, "centroid_lon": -71.25995488758717, "centroid_lat": 46.794958033630238, "occurrences_today": 21, "datetimes_today": "2026-03-22 00:01:57, 2026-03-22 00:16:48, 2026-03-22 00:30:43, 2026-03-22 00:46:43, 2026-03-22 01:02:06, 2026-03-22 01:16:57, 2026-03-22 01:31:54, 2026-03-22 02:01:57, 2026-03-22 02:16:49, 2026-03-22 02:32:13, 2026-03-22 02:46:53, 2026-03-22 03:01:38, 2026-03-22 03:16:40, 2026-03-22 03:28:43, 2026-03-22 03:46:48, 2026-03-22 03:58:39, 2026-03-22 04:16:30, 2026-03-22 04:31:26, 2026-03-22 04:44:24, 2026-03-22 05:01:35, 2026-03-22 05:16:24", "cumulative_total": 97.0 }, "geometry": { "type": "Polygon", "coordinates": [ [ [ -71.260314540902158, 46.789773486096557 ], [ -71.266672189383257, 46.792579493426565 ], [ -71.266313111452916, 46.797764076039407 ], [ -71.259595134610649, 46.800142574321008 ], [ -71.253237010423703, 46.797336160888307 ], [ -71.253597338750367, 46.792151655343346 ], [ -71.260314540902158, 46.789773486096557 ] ] ] } },
{ "type": "Feature", "properties": { "hex_id": 582486, "centroid_lon": -73.474918836134478, "centroid_lat": 45.848288620326947, "occurrences_today": 5, "datetimes_today": "2026-03-22 00:01:57, 2026-03-22 00:16:48, 2026-03-22 00:30:43, 2026-03-22 00:46:43, 2026-03-22 01:02:06", "cumulative_total": 64.0 }, "geometry": { "type": "Polygon", "coordinates": [ [ [ -73.475060811740505, 45.843093971552733 ], [ -73.481426934511688, 45.845777044674335 ], [ -73.481285538242645, 45.850971706358017 ], [ -73.474776821595228, 45.853483264015438 ], [ -73.468410158426835, 45.850799816690483 ], [ -73.468552752289909, 45.845605185976716 ], [ -73.475060811740505, 45.843093971552733 ] ] ] } },
{ "type": "Feature", "properties": { "hex_id": 510440, "centroid_lon": -74.236193063858408, "centroid_lat": 45.746786757952982, "occurrences_today": 21, "datetimes_today": "2026-03-22 00:01:57, 2026-03-22 00:16:48, 2026-03-22 00:30:43, 2026-03-22 00:46:43, 2026-03-22 01:02:06, 2026-03-22 01:16:57, 2026-03-22 01:31:54, 2026-03-22 02:01:57, 2026-03-22 02:16:49, 2026-03-22 02:32:13, 2026-03-22 02:46:53, 2026-03-22 03:01:38, 2026-03-22 03:16:40, 2026-03-22 03:28:43, 2026-03-22 03:46:48, 2026-03-22 03:58:39, 2026-03-22 04:16:30, 2026-03-22 04:31:26, 2026-03-22 04:44:24, 2026-03-22 05:01:35, 2026-03-22 05:16:24", "cumulative_total": 261.0 }, "geometry": { "type": "Polygon", "coordinates": [ [ [ -74.236263924635807, 45.741590635393848 ], [ -74.242655627661662, 45.744231483014374 ], [ -74.242585353413787, 45.749427610869084 ], [ -74.236122183668442, 45.751982875679957 ], [ -74.229729913528914, 45.749341662396859 ], [ -74.229801380241838, 45.744145550030602 ], [ -74.236263924635807, 45.741590635393848 ] ] ] } },
{ "type": "Feature", "properties": { "hex_id": 582464, "centroid_lon": -73.484206340941796, "centroid_lat": 45.5054308969383, "occurrences_today": 7, "datetimes_today": "2026-03-22 02:01:57, 2026-03-22 02:16:49, 2026-03-22 02:32:13, 2026-03-22 02:46:53, 2026-03-22 03:01:38, 2026-03-22 03:16:40, 2026-03-22 03:28:43", "cumulative_total": 60.0 }, "geometry": { "type": "Polygon", "coordinates": [ [ [ -73.484345775795518, 45.500235912718949 ], [ -73.490674007873167, 45.502918139967221 ], [ -73.490535142078386, 45.508113136913188 ], [ -73.484066868011325, 45.510625876078329 ], [ -73.477738104957879, 45.507943279090661 ], [ -73.477878146934501, 45.502748312741709 ], [ -73.484345775795518, 45.500235912718949 ] ] ] } },
{ "type": "Feature", "properties": { "hex_id": 601394, "centroid_lon": -73.283743092791156, "centroid_lat": 45.57275118074358, "occurrences_today": 4, "datetimes_today": "2026-03-22 00:01:57, 2026-03-22 00:16:48, 2026-03-22 00:30:43, 2026-03-22 00:46:43", "cumulative_total": 115.0 }, "geometry": { "type": "Polygon", "coordinates": [ [ [ -73.283901333537457, 45.567556771539984 ], [ -73.290227170829993, 45.570250047358165 ], [ -73.290069498412521, 45.575444471282651 ], [ -73.283584808801749, 45.577945584773929 ], [ -73.277258446430722, 45.575251936513176 ], [ -73.277417298734449, 45.570057547268306 ], [ -73.283901333537457, 45.567556771539984 ] ] ] } },
{ "type": "Feature", "properties": { "hex_id": 520219, "centroid_lon": -74.130690709647155, "centroid_lat": 45.917517912378855, "occurrences_today": 3, "datetimes_today": "2026-03-22 01:02:06, 2026-03-22 01:16:57, 2026-03-22 01:31:54", "cumulative_total": 13.0 }, "geometry": { "type": "Polygon", "coordinates": [ [ [ -74.130771838945577, 45.912322082323556 ], [ -74.137177919966604, 45.914968857318442 ], [ -74.137097381101469, 45.920164693752739 ], [ -74.130609558076571, 45.922713737577325 ], [ -74.124202908898198, 45.920066593723007 ], [ -74.124284650894495, 45.91487077496906 ], [ -74.130771838945577, 45.912322082323556 ] ] ] } },
{ "type": "Feature", "properties": { "hex_id": 429902, "centroid_lon": -75.085847042826927, "centroid_lat": 46.497566027205046, "occurrences_today": 1, "datetimes_today": "2026-03-22 05:16:24", "cumulative_total": 27.0 }, "geometry": { "type": "Polygon", "coordinates": [ [ [ -75.085838867007325, 46.492370133611445 ], [ -75.092358541094967, 46.494963005535354 ], [ -75.092367338683758, 46.500158895841821 ], [ -75.085855220907987, 46.50276191605581 ], [ -75.079334922789315, 46.500168677389588 ], [ -75.079327366478225, 46.494972785318666 ], [ -75.085838867007325, 46.492370133611445 ] ] ] } },
{ "type": "Feature", "properties": { "hex_id": 614221, "centroid_lon": -73.145904045714161, "centroid_lat": 45.671933153269144, "occurrences_today": 1, "datetimes_today": "2026-03-22 05:16:24", "cumulative_total": 135.0 }, "geometry": { "type": "Polygon", "coordinates": [ [ [ -73.146075583091573, 45.666739224666188 ], [ -73.15240559466821, 45.66944016168727 ], [ -73.15223462668672, 45.674634106398173 ], [ -73.145732461406993, 45.67712707662659 ], [ -73.139401927372148, 45.674425764636538 ], [ -73.139574081059408, 45.669231857451813 ], [ -73.146075583091573, 45.666739224666188 ] ] ] } },
{ "type": "Feature", "properties": { "hex_id": 613611, "centroid_lon": -73.15206361192952, "centroid_lat": 45.67982804586692, "occurrences_today": 1, "datetimes_today": "2026-03-22 05:16:24", "cumulative_total": 93.0 }, "geometry": { "type": "Polygon", "coordinates": [ [ [ -73.15223462668672, 45.674634106398173 ], [ -73.158565823992831, 45.677334716739061 ], [ -73.15839537895549, 45.68252867225771 ], [ -73.15189255038085, 45.685021980093389 ], [ -73.145560830154224, 45.682320994738383 ], [ -73.145732461406993, 45.67712707662659 ], [ -73.15223462668672, 45.674634106398173 ] ] ] } },
{ "type": "Feature", "properties": { "hex_id": 613612, "centroid_lon": -73.151550286845975, "centroid_lat": 45.695409832818775, "occurrences_today": 1, "datetimes_today": "2026-03-22 05:16:24", "cumulative_total": 93.0 }, "geometry": { "type": "Polygon", "coordinates": [ [ [ -73.151721442024922, 45.690215909077381 ], [ -73.1580543489532, 45.692916567577981 ], [ -73.157883763956804, 45.698110507379312 ], [ -73.151379084828221, 45.700603751317402 ], [ -73.145045654564115, 45.697902717598225 ], [ -73.145217426748616, 45.69270881522435 ], [ -73.151721442024922, 45.690215909077381 ] ] ] } },
{ "type": "Feature", "properties": { "hex_id": 614222, "centroid_lon": -73.145389151940037, "centroid_lat": 45.687514907604353, "occurrences_today": 1, "datetimes_today": "2026-03-22 05:16:24", "cumulative_total": 93.0 }, "geometry": { "type": "Polygon", "coordinates": [ [ [ -73.145560830154224, 45.682320994738383 ], [ -73.15189255038085, 45.685021980093389 ], [ -73.151721442024922, 45.690215909077381 ], [ -73.145217426748616, 45.69270881522435 ], [ -73.138885183648895, 45.690007454695937 ], [ -73.139057478682759, 45.684813563258764 ], [ -73.145560830154224, 45.682320994738383 ] ] ] } },
{ "type": "Feature", "properties": { "hex_id": 614223, "centroid_lon": -73.144873835370689, "centroid_lat": 45.703096614725816, "occurrences_today": 1, "datetimes_today": "2026-03-22 05:16:24", "cumulative_total": 93.0 }, "geometry": { "type": "Polygon", "coordinates": [ [ [ -73.145045654564115, 45.697902717598225 ], [ -73.151379084828221, 45.700603751317402 ], [ -73.151207835955873, 45.705797664573105 ], [ -73.144701969152479, 45.70829050660695 ], [ -73.138368015599994, 45.705589097509787 ], [ -73.138540452123408, 45.700395221821601 ], [ -73.145045654564115, 45.697902717598225 ] ] ] } },
{ "type": "Feature", "properties": { "hex_id": 614832, "centroid_lon": -73.139229726585214, "centroid_lat": 45.679619666572243, "occurrences_today": 1, "datetimes_today": "2026-03-22 05:16:24", "cumulative_total": 93.0 }, "geometry": { "type": "Polygon", "coordinates": [ [ [ -73.139401927372148, 45.674425764636538 ], [ -73.145732461406993, 45.67712707662659 ], [ -73.145560830154224, 45.682320994738383 ], [ -73.139057478682759, 45.684813563258764 ], [ -73.132726422237198, 45.682111876140482 ], [ -73.132899239657931, 45.676917995694829 ], [ -73.139401927372148, 45.674425764636538 ] ] ] } },
{ "type": "Feature", "properties": { "hex_id": 614833, "centroid_lon": -73.138712841467751, "centroid_lat": 45.695201340883585, "occurrences_today": 1, "datetimes_today": "2026-03-22 05:16:24", "cumulative_total": 93.0 }, "geometry": { "type": "Polygon", "coordinates": [ [ [ -73.138885183648895, 45.690007454695937 ], [ -73.145217426748616, 45.69270881522435 ], [ -73.145045654564115, 45.697902717598225 ], [ -73.138540452123408, 45.700395221821601 ], [ -73.132207686198186, 45.697693485960421 ], [ -73.13238064552327, 45.692499621273434 ], [ -73.138885183648895, 45.690007454695937 ] ] ] } },
{ "type": "Feature", "properties": { "hex_id": 614834, "centroid_lon": -73.138195531881578, "centroid_lat": 45.710782967947992, "occurrences_today": 1, "datetimes_today": "2026-03-22 05:16:24", "cumulative_total": 93.0 }, "geometry": { "type": "Polygon", "coordinates": [ [ [ -73.138368015599994, 45.705589097509787 ], [ -73.144701969152479, 45.70829050660695 ], [ -73.144530055893654, 45.713484393241473 ], [ -73.138023000952259, 45.715976833136061 ], [ -73.131688524159074, 45.713275048501494 ], [ -73.131861625532053, 45.708081199574615 ], [ -73.138368015599994, 45.705589097509787 ] ] ] } },
{ "type": "Feature", "properties": { "hex_id": 615443, "centroid_lon": -73.132553557530954, "centroid_lat": 45.687305751333405, "occurrences_today": 1, "datetimes_today": "2026-03-22 05:16:24", "cumulative_total": 93.0 }, "geometry": { "type": "Polygon", "coordinates": [ [ [ -73.132726422237198, 45.682111876140482 ], [ -73.139057478682759, 45.684813563258764 ], [ -73.138885183648895, 45.690007454695937 ], [ -73.13238064552327, 45.692499621273434 ], [ -73.126049066714742, 45.689797558867646 ], [ -73.126222548378863, 45.684603705236668 ], [ -73.132726422237198, 45.682111876140482 ] ] ] } },
{ "type": "Feature", "properties": { "hex_id": 615444, "centroid_lon": -73.132034679539771, "centroid_lat": 45.702887345394196, "occurrences_today": 1, "datetimes_today": "2026-03-22 05:16:24", "cumulative_total": 93.0 }, "geometry": { "type": "Polygon", "coordinates": [ [ [ -73.132207686198186, 45.697693485960421 ], [ -73.138540452123408, 45.700395221821601 ], [ -73.138368015599994, 45.705589097509787 ], [ -73.131861625532053, 45.708081199574615 ], [ -73.12552833682912, 45.705379088221299 ], [ -73.12570196095588, 45.700185250360128 ], [ -73.132207686198186, 45.697693485960421 ] ] ] } },
{ "type": "Feature", "properties": { "hex_id": 549503, "centroid_lon": -73.827805855992494, "centroid_lat": 45.603016258034081, "occurrences_today": 5, "datetimes_today": "2026-03-22 00:01:57, 2026-03-22 00:16:48, 2026-03-22 00:30:43, 2026-03-22 00:46:43, 2026-03-22 01:02:06", "cumulative_total": 36.0 }, "geometry": { "type": "Polygon", "coordinates": [ [ [ -73.827914056215263, 45.597820630856539 ], [ -73.834269886253907, 45.60048404242881 ], [ -73.834162262692715, 45.605679678953699 ], [ -73.827697626183493, 45.608211880264975 ], [ -73.821341249074521, 45.605548100934207 ], [ -73.821450055535152, 45.600352488115405 ], [ -73.827914056215263, 45.597820630856539 ] ] ] } },
{ "type": "Feature", "properties": { "hex_id": 676453, "centroid_lon": -72.518382412310118, "centroid_lat": 45.051971567567264, "occurrences_today": 21, "datetimes_today": "2026-03-22 00:01:57, 2026-03-22 00:16:48, 2026-03-22 00:30:43, 2026-03-22 00:46:43, 2026-03-22 01:02:06, 2026-03-22 01:16:57, 2026-03-22 01:31:54, 2026-03-22 02:01:57, 2026-03-22 02:16:49, 2026-03-22 02:32:13, 2026-03-22 02:46:53, 2026-03-22 03:01:38, 2026-03-22 03:16:40, 2026-03-22 03:28:43, 2026-03-22 03:46:48, 2026-03-22 03:58:39, 2026-03-22 04:16:30, 2026-03-22 04:31:26, 2026-03-22 04:44:24, 2026-03-22 05:01:35, 2026-03-22 05:16:24", "cumulative_total": 36.0 }, "geometry": { "type": "Polygon", "coordinates": [ [ [ -72.518607068606798, 45.046779229525761 ], [ -72.524838208660142, 45.04951314034988 ], [ -72.524614094806935, 45.054705500380244 ], [ -72.518157695027568, 45.057163899986875 ], [ -72.511926073526709, 45.054429616507981 ], [ -72.512151333232552, 45.049237306140405 ], [ -72.518607068606798, 45.046779229525761 ] ] ] } },
{ "type": "Feature", "properties": { "hex_id": 973973, "centroid_lon": -69.098289478218632, "centroid_lat": 48.14595580059266, "occurrences_today": 21, "datetimes_today": "2026-03-22 00:01:57, 2026-03-22 00:16:48, 2026-03-22 00:30:43, 2026-03-22 00:46:43, 2026-03-22 01:02:06, 2026-03-22 01:16:57, 2026-03-22 01:31:54, 2026-03-22 02:01:57, 2026-03-22 02:16:49, 2026-03-22 02:32:13, 2026-03-22 02:46:53, 2026-03-22 03:01:38, 2026-03-22 03:16:40, 2026-03-22 03:28:43, 2026-03-22 03:46:48, 2026-03-22 03:58:39, 2026-03-22 04:16:30, 2026-03-22 04:31:26, 2026-03-22 04:44:24, 2026-03-22 05:01:35, 2026-03-22 05:16:24", "cumulative_total": 35.0 }, "geometry": { "type": "Polygon", "coordinates": [ [ [ -69.098883840071622, 48.140788967839498 ], [ -69.105272535039546, 48.143716687580024 ], [ -69.104678753444887, 48.14888357729717 ], [ -69.097694949020621, 48.15112262314404 ], [ -69.091305841169287, 48.148194461847808 ], [ -69.091900950565844, 48.143027696328858 ], [ -69.098883840071622, 48.140788967839498 ] ] ] } },
{ "type": "Feature", "properties": { "hex_id": 645325, "centroid_lon": -72.837558194511331, "centroid_lat": 45.175400816162437, "occurrences_today": 7, "datetimes_today": "2026-03-22 00:01:57, 2026-03-22 00:16:48, 2026-03-22 00:30:43, 2026-03-22 00:46:43, 2026-03-22 01:02:06, 2026-03-22 01:16:57, 2026-03-22 01:31:54", "cumulative_total": 7.0 }, "geometry": { "type": "Polygon", "coordinates": [ [ [ -72.837754814928545, 45.170207415910269 ], [ -72.84401509489139, 45.172924383136987 ], [ -72.843819024910871, 45.178117802340111 ], [ -72.83736152063031, 45.180594210999821 ], [ -72.831100743703487, 45.177876872354418 ], [ -72.83129796800344, 45.172683496531548 ], [ -72.837754814928545, 45.170207415910269 ] ] ] } },
{ "type": "Feature", "properties": { "hex_id": 645935, "centroid_lon": -72.831495138691864, "centroid_lat": 45.167490115290114, "occurrences_today": 7, "datetimes_today": "2026-03-22 00:01:57, 2026-03-22 00:16:48, 2026-03-22 00:30:43, 2026-03-22 00:46:43, 2026-03-22 01:02:06, 2026-03-22 01:16:57, 2026-03-22 01:31:54", "cumulative_total": 7.0 }, "geometry": { "type": "Polygon", "coordinates": [ [ [ -72.831692255786592, 45.162296728630345 ], [ -72.837951381899728, 45.165014010243581 ], [ -72.837754814928545, 45.170207415910269 ], [ -72.83129796800344, 45.172683496531548 ], [ -72.82503834536935, 45.169965843545903 ], [ -72.825236066163527, 45.164772481374918 ], [ -72.831692255786592, 45.162296728630345 ] ] ] } },
{ "type": "Feature", "properties": { "hex_id": 645936, "centroid_lon": -72.830903465774185, "centroid_lat": 45.18307024275849, "occurrences_today": 7, "datetimes_today": "2026-03-22 00:01:57, 2026-03-22 00:16:48, 2026-03-22 00:30:43, 2026-03-22 00:46:43, 2026-03-22 01:02:06, 2026-03-22 01:16:57, 2026-03-22 01:31:54", "cumulative_total": 7.0 }, "geometry": { "type": "Polygon", "coordinates": [ [ [ -72.831100743703487, 45.177876872354418 ], [ -72.83736152063031, 45.180594210999821 ], [ -72.837164793267689, 45.185787600422202 ], [ -72.830706134197726, 45.188263607743536 ], [ -72.824444860360316, 45.185545897523674 ], [ -72.824642742485622, 45.180352551620516 ], [ -72.831100743703487, 45.177876872354418 ] ] ] } },
{ "type": "Feature", "properties": { "hex_id": 646545, "centroid_lon": -72.8254337332164, "centroid_lat": 45.159579113781795, "occurrences_today": 7, "datetimes_today": "2026-03-22 00:01:57, 2026-03-22 00:16:48, 2026-03-22 00:30:43, 2026-03-22 00:46:43, 2026-03-22 01:02:06, 2026-03-22 01:16:57, 2026-03-22 01:31:54", "cumulative_total": 7.0 }, "geometry": { "type": "Polygon", "coordinates": [ [ [ -72.825631346545819, 45.154385740766799 ], [ -72.831889319305418, 45.157103336552474 ], [ -72.831692255786592, 45.162296728630345 ], [ -72.825236066163527, 45.164772481374918 ], [ -72.818977597325727, 45.162054514263112 ], [ -72.819175814171345, 45.156861165796364 ], [ -72.825631346545819, 45.154385740766799 ] ] ] } },
{ "type": "Feature", "properties": { "hex_id": 646546, "centroid_lon": -72.824840570816008, "centroid_lat": 45.175159200294516, "occurrences_today": 7, "datetimes_today": "2026-03-22 00:01:57, 2026-03-22 00:16:48, 2026-03-22 00:30:43, 2026-03-22 00:46:43, 2026-03-22 01:02:06, 2026-03-22 01:16:57, 2026-03-22 01:31:54", "cumulative_total": 7.0 }, "geometry": { "type": "Polygon", "coordinates": [ [ [ -72.82503834536935, 45.169965843545903 ], [ -72.83129796800344, 45.172683496531548 ], [ -72.831100743703487, 45.177876872354418 ], [ -72.824642742485622, 45.180352551620516 ], [ -72.818382623384124, 45.17763452710669 ], [ -72.818581001950037, 45.172441194918505 ], [ -72.82503834536935, 45.169965843545903 ] ] ] } },
{ "type": "Feature", "properties": { "hex_id": 646547, "centroid_lon": -72.824246924422226, "centroid_lat": 45.190739238003772, "occurrences_today": 7, "datetimes_today": "2026-03-22 00:01:57, 2026-03-22 00:16:48, 2026-03-22 00:30:43, 2026-03-22 00:46:43, 2026-03-22 01:02:06, 2026-03-22 01:16:57, 2026-03-22 01:31:54", "cumulative_total": 7.0 }, "geometry": { "type": "Polygon", "coordinates": [ [ [ -72.824444860360316, 45.185545897523674 ], [ -72.830706134197726, 45.188263607743536 ], [ -72.830508748956234, 45.193456967309345 ], [ -72.824048934653419, 45.195932573060567 ], [ -72.817787163959053, 45.193214491110361 ], [ -72.817985704406581, 45.188021175202849 ], [ -72.824444860360316, 45.185545897523674 ] ] ] } },
{ "type": "Feature", "properties": { "hex_id": 647155, "centroid_lon": -72.819373977146014, "centroid_lat": 45.151667811903927, "occurrences_today": 7, "datetimes_today": "2026-03-22 00:01:57, 2026-03-22 00:16:48, 2026-03-22 00:30:43, 2026-03-22 00:46:43, 2026-03-22 01:02:06, 2026-03-22 01:16:57, 2026-03-22 01:31:54", "cumulative_total": 7.0 }, "geometry": { "type": "Polygon", "coordinates": [ [ [ -72.819572086267641, 45.146474452585998 ], [ -72.825828906169633, 45.149192362330112 ], [ -72.825631346545819, 45.154385740766799 ], [ -72.819175814171345, 45.156861165796364 ], [ -72.812918498633536, 45.154142884772405 ], [ -72.813117211088112, 45.148949550062191 ], [ -72.819572086267641, 45.146474452585998 ] ] ] } },
{ "type": "Feature", "properties": { "hex_id": 647156, "centroid_lon": -72.818779326591255, "centroid_lat": 45.167247857303906, "occurrences_today": 7, "datetimes_today": "2026-03-22 00:01:57, 2026-03-22 00:16:48, 2026-03-22 00:30:43, 2026-03-22 00:46:43, 2026-03-22 01:02:06, 2026-03-22 01:16:57, 2026-03-22 01:31:54", "cumulative_total": 7.0 }, "geometry": { "type": "Polygon", "coordinates": [ [ [ -72.818977597325727, 45.162054514263112 ], [ -72.825236066163527, 45.164772481374918 ], [ -72.82503834536935, 45.169965843545903 ], [ -72.818581001950037, 45.172441194918505 ], [ -72.81232203708764, 45.169722856324867 ], [ -72.812520911651262, 45.164529537903981 ], [ -72.818977597325727, 45.162054514263112 ] ] ] } },
{ "type": "Feature", "properties": { "hex_id": 647157, "centroid_lon": -72.818184190875613, "centroid_lat": 45.182827853868197, "occurrences_today": 7, "datetimes_today": "2026-03-22 00:01:57, 2026-03-22 00:16:48, 2026-03-22 00:30:43, 2026-03-22 00:46:43, 2026-03-22 01:02:06, 2026-03-22 01:16:57, 2026-03-22 01:31:54", "cumulative_total": 7.0 }, "geometry": { "type": "Polygon", "coordinates": [ [ [ -72.818382623384124, 45.17763452710669 ], [ -72.824642742485622, 45.180352551620516 ], [ -72.824444860360316, 45.185545897523674 ], [ -72.817985704406581, 45.188021175202849 ], [ -72.811725088891379, 45.18530277900507 ], [ -72.811924125725682, 45.18010947687565 ], [ -72.818382623384124, 45.17763452710669 ] ] ] } },
{ "type": "Feature", "properties": { "hex_id": 647158, "centroid_lon": -72.817588569515081, "centroid_lat": 45.198407801590498, "occurrences_today": 7, "datetimes_today": "2026-03-22 00:01:57, 2026-03-22 00:16:48, 2026-03-22 00:30:43, 2026-03-22 00:46:43, 2026-03-22 01:02:06, 2026-03-22 01:16:57, 2026-03-22 01:31:54", "cumulative_total": 7.0 }, "geometry": { "type": "Polygon", "coordinates": [ [ [ -72.817787163959053, 45.193214491110361 ], [ -72.824048934653419, 45.195932573060567 ], [ -72.823850891036017, 45.201125902693825 ], [ -72.81738992105673, 45.203601106643049 ], [ -72.811127653559183, 45.200882652806634 ], [ -72.811326852826127, 45.195689366970804 ], [ -72.817787163959053, 45.193214491110361 ] ] ] } },
{ "type": "Feature", "properties": { "hex_id": 647765, "centroid_lon": -72.813315869542251, "centroid_lat": 45.143756209922692, "occurrences_today": 7, "datetimes_today": "2026-03-22 00:01:57, 2026-03-22 00:16:48, 2026-03-22 00:30:43, 2026-03-22 00:46:43, 2026-03-22 01:02:06, 2026-03-22 01:16:57, 2026-03-22 01:31:54", "cumulative_total": 7.0 }, "geometry": { "type": "Polygon", "coordinates": [ [ [ -72.813514474013871, 45.138562864354128 ], [ -72.819770141554073, 45.141281087842813 ], [ -72.819572086267641, 45.146474452585998 ], [ -72.813117211088112, 45.148949550062191 ], [ -72.806861048354222, 45.146230955340023 ], [ -72.807060255975614, 45.141037634438604 ], [ -72.813514474013871, 45.138562864354128 ] ] ] } },
{ "type": "Feature", "properties": { "hex_id": 647766, "centroid_lon": -72.812719732160559, "centroid_lat": 45.159336214053077, "occurrences_today": 7, "datetimes_today": "2026-03-22 00:01:57, 2026-03-22 00:16:48, 2026-03-22 00:30:43, 2026-03-22 00:46:43, 2026-03-22 01:02:06, 2026-03-22 01:16:57, 2026-03-22 01:31:54", "cumulative_total": 7.0 }, "geometry": { "type": "Polygon", "coordinates": [ [ [ -72.812918498633536, 45.154142884772405 ], [ -72.819175814171345, 45.156861165796364 ], [ -72.818977597325727, 45.162054514263112 ], [ -72.812520911651262, 45.164529537903981 ], [ -72.806263100531396, 45.161810885444545 ], [ -72.806462470650118, 45.156617580843239 ], [ -72.812918498633536, 45.154142884772405 ] ] ] } },
{ "type": "Feature", "properties": { "hex_id": 647767, "centroid_lon": -72.812123108451786, "centroid_lat": 45.174916169315502, "occurrences_today": 7, "datetimes_today": "2026-03-22 00:01:57, 2026-03-22 00:16:48, 2026-03-22 00:30:43, 2026-03-22 00:46:43, 2026-03-22 01:02:06, 2026-03-22 01:16:57, 2026-03-22 01:31:54", "cumulative_total": 7.0 }, "geometry": { "type": "Polygon", "coordinates": [ [ [ -72.81232203708764, 45.169722856324867 ], [ -72.818581001950037, 45.172441194918505 ], [ -72.818382623384124, 45.17763452710669 ], [ -72.811924125725682, 45.18010947687565 ], [ -72.805664664892575, 45.177390766644436 ], [ -72.805864197670658, 45.172197478345389 ], [ -72.81232203708764, 45.169722856324867 ] ] ] } },
{ "type": "Feature", "properties": { "hex_id": 647768, "centroid_lon": -72.811525997930843, "centroid_lat": 45.190496075703535, "occurrences_today": 7, "datetimes_today": "2026-03-22 00:01:57, 2026-03-22 00:16:48, 2026-03-22 00:30:43, 2026-03-22 00:46:43, 2026-03-22 01:02:06, 2026-03-22 01:16:57, 2026-03-22 01:31:54", "cumulative_total": 7.0 }, "geometry": { "type": "Polygon", "coordinates": [ [ [ -72.811725088891379, 45.18530277900507 ], [ -72.817985704406581, 45.188021175202849 ], [ -72.817787163959053, 45.193214491110361 ], [ -72.811326852826127, 45.195689366970804 ], [ -72.80506574095115, 45.19297059893325 ], [ -72.805265436550854, 45.187777326938601 ], [ -72.811725088891379, 45.18530277900507 ] ] ] } },
{ "type": "Feature", "properties": { "hex_id": 647769, "centroid_lon": -72.810928400112019, "centroid_lat": 45.206075933210819, "occurrences_today": 7, "datetimes_today": "2026-03-22 00:01:57, 2026-03-22 00:16:48, 2026-03-22 00:30:43, 2026-03-22 00:46:43, 2026-03-22 01:02:06, 2026-03-22 01:16:57, 2026-03-22 01:31:54", "cumulative_total": 7.0 }, "geometry": { "type": "Polygon", "coordinates": [ [ [ -72.811127653559183, 45.200882652806634 ], [ -72.81738992105673, 45.203601106643049 ], [ -72.817191218566023, 45.208794406267764 ], [ -72.810729092466588, 45.211269208183069 ], [ -72.804466328219846, 45.208550382304566 ], [ -72.804666186803715, 45.20335712661646 ], [ -72.811127653559183, 45.200882652806634 ] ] ] } },
{ "type": "Feature", "properties": { "hex_id": 648376, "centroid_lon": -72.806661786585053, "centroid_lat": 45.15142427080832, "occurrences_today": 7, "datetimes_today": "2026-03-22 00:01:57, 2026-03-22 00:16:48, 2026-03-22 00:30:43, 2026-03-22 00:46:43, 2026-03-22 01:02:06, 2026-03-22 01:16:57, 2026-03-22 01:31:54", "cumulative_total": 7.0 }, "geometry": { "type": "Polygon", "coordinates": [ [ [ -72.806861048354222, 45.146230955340023 ], [ -72.813117211088112, 45.148949550062191 ], [ -72.812918498633536, 45.154142884772405 ], [ -72.806462470650118, 45.156617580843239 ], [ -72.800205812776397, 45.153898614731965 ], [ -72.800405678007934, 45.148705324002442 ], [ -72.806861048354222, 45.146230955340023 ] ] ] } },
{ "type": "Feature", "properties": { "hex_id": 648377, "centroid_lon": -72.806063676210911, "centroid_lat": 45.167004184612011, "occurrences_today": 7, "datetimes_today": "2026-03-22 00:01:57, 2026-03-22 00:16:48, 2026-03-22 00:30:43, 2026-03-22 00:46:43, 2026-03-22 01:02:06, 2026-03-22 01:16:57, 2026-03-22 01:31:54", "cumulative_total": 7.0 }, "geometry": { "type": "Polygon", "coordinates": [ [ [ -72.806263100531396, 45.161810885444545 ], [ -72.812520911651262, 45.164529537903981 ], [ -72.81232203708764, 45.169722856324867 ], [ -72.805864197670658, 45.172197478345389 ], [ -72.799605891022722, 45.169478454294811 ], [ -72.799805919301846, 45.164285179878377 ], [ -72.806263100531396, 45.161810885444545 ] ] ] } },
{ "type": "Feature", "properties": { "hex_id": 648378, "centroid_lon": -72.805465077858656, "centroid_lat": 45.182584049508911, "occurrences_today": 7, "datetimes_today": "2026-03-22 00:01:57, 2026-03-22 00:16:48, 2026-03-22 00:30:43, 2026-03-22 00:46:43, 2026-03-22 01:02:06, 2026-03-22 01:16:57, 2026-03-22 01:31:54", "cumulative_total": 7.0 }, "geometry": { "type": "Polygon", "coordinates": [ [ [ -72.805664664892575, 45.177390766644436 ], [ -72.811924125725682, 45.18010947687565 ], [ -72.811725088891379, 45.18530277900507 ], [ -72.805265436550854, 45.187777326938601 ], [ -72.799005479801039, 45.185058244914075 ], [ -72.799205671290395, 45.179864986812902 ], [ -72.805664664892575, 45.177390766644436 ] ] ] } },
{ "type": "Feature", "properties": { "hex_id": 648379, "centroid_lon": -72.804865991041453, "centroid_lat": 45.198163865492624, "occurrences_today": 7, "datetimes_today": "2026-03-22 00:01:57, 2026-03-22 00:16:48, 2026-03-22 00:30:43, 2026-03-22 00:46:43, 2026-03-22 01:02:06, 2026-03-22 01:16:57, 2026-03-22 01:31:54", "cumulative_total": 7.0 }, "geometry": { "type": "Polygon", "coordinates": [ [ [ -72.80506574095115, 45.19297059893325 ], [ -72.811326852826127, 45.195689366970804 ], [ -72.811127653559183, 45.200882652806634 ], [ -72.804666186803715, 45.20335712661646 ], [ -72.79840457862305, 45.200637986583303 ], [ -72.798604933485478, 45.195444744799516 ], [ -72.80506574095115, 45.19297059893325 ] ] ] } },
{ "type": "Feature", "properties": { "hex_id": 648986, "centroid_lon": -72.800605488926365, "centroid_lat": 45.143512027835719, "occurrences_today": 7, "datetimes_today": "2026-03-22 00:01:57, 2026-03-22 00:16:48, 2026-03-22 00:30:43, 2026-03-22 00:46:43, 2026-03-22 01:02:06, 2026-03-22 01:16:57, 2026-03-22 01:31:54", "cumulative_total": 7.0 }, "geometry": { "type": "Polygon", "coordinates": [ [ [ -72.800805245549739, 45.138318726232015 ], [ -72.807060255975614, 45.141037634438604 ], [ -72.806861048354222, 45.146230955340023 ], [ -72.800405678007934, 45.148705324002442 ], [ -72.794150172884159, 45.145986044453203 ], [ -72.794350532786552, 45.140792767647682 ], [ -72.800805245549739, 45.138318726232015 ] ] ] } },
{ "type": "Feature", "properties": { "hex_id": 648987, "centroid_lon": -72.800005893213722, "centroid_lat": 45.159091900024009, "occurrences_today": 7, "datetimes_today": "2026-03-22 00:01:57, 2026-03-22 00:16:48, 2026-03-22 00:30:43, 2026-03-22 00:46:43, 2026-03-22 01:02:06, 2026-03-22 01:16:57, 2026-03-22 01:31:54", "cumulative_total": 7.0 }, "geometry": { "type": "Polygon", "coordinates": [ [ [ -72.800205812776397, 45.153898614731965 ], [ -72.806462470650118, 45.156617580843239 ], [ -72.806263100531396, 45.161810885444545 ], [ -72.799805919301846, 45.164285179878377 ], [ -72.793548766342383, 45.161565842222409 ], [ -72.793749289680179, 45.15637258174079 ], [ -72.800205812776397, 45.153898614731965 ] ] ] } },
{ "type": "Feature", "properties": { "hex_id": 648988, "centroid_lon": -72.799405808358259, "centroid_lat": 45.174671723273072, "occurrences_today": 7, "datetimes_today": "2026-03-22 00:01:57, 2026-03-22 00:16:48, 2026-03-22 00:30:43, 2026-03-22 00:46:43, 2026-03-22 01:02:06, 2026-03-22 01:16:57, 2026-03-22 01:31:54", "cumulative_total": 7.0 }, "geometry": { "type": "Polygon", "coordinates": [ [ [ -72.799605891022722, 45.169478454294811 ], [ -72.805864197670658, 45.172197478345389 ], [ -72.805664664892575, 45.177390766644436 ], [ -72.799205671290395, 45.179864986812902 ], [ -72.792946869168517, 45.177145591015474 ], [ -72.793147556104685, 45.171952346859975 ], [ -72.799605891022722, 45.169478454294811 ] ] ] } },
{ "type": "Feature", "properties": { "hex_id": 648989, "centroid_lon": -72.798805233872102, "centroid_lat": 45.190251497576369, "occurrences_today": 7, "datetimes_today": "2026-03-22 00:01:57, 2026-03-22 00:16:48, 2026-03-22 00:30:43, 2026-03-22 00:46:43, 2026-03-22 01:02:06, 2026-03-22 01:16:57, 2026-03-22 01:31:54", "cumulative_total": 7.0 }, "geometry": { "type": "Polygon", "coordinates": [ [ [ -72.799005479801039, 45.185058244914075 ], [ -72.805265436550854, 45.187777326938601 ], [ -72.80506574095115, 45.19297059893325 ], [ -72.798604933485478, 45.195444744799516 ], [ -72.792344480873169, 45.192725290825877 ], [ -72.792545331570906, 45.187532062998663 ], [ -72.799005479801039, 45.185058244914075 ] ] ] } },
{ "type": "Feature", "properties": { "hex_id": 648990, "centroid_lon": -72.798204169266697, "centroid_lat": 45.205831222927465, "occurrences_today": 7, "datetimes_today": "2026-03-22 00:01:57, 2026-03-22 00:16:48, 2026-03-22 00:30:43, 2026-03-22 00:46:43, 2026-03-22 01:02:06, 2026-03-22 01:16:57, 2026-03-22 01:31:54", "cumulative_total": 7.0 }, "geometry": { "type": "Polygon", "coordinates": [ [ [ -72.79840457862305, 45.200637986583303 ], [ -72.804666186803715, 45.20335712661646 ], [ -72.804466328219846, 45.208550382304566 ], [ -72.798003705398301, 45.211024453831776 ], [ -72.791741600966262, 45.208304941647135 ], [ -72.791942615589008, 45.203111730150354 ], [ -72.79840457862305, 45.200637986583303 ] ] ] } },
{ "type": "Feature", "properties": { "hex_id": 649597, "centroid_lon": -72.793949758521407, "centroid_lat": 45.151179315817664, "occurrences_today": 7, "datetimes_today": "2026-03-22 00:01:57, 2026-03-22 00:16:48, 2026-03-22 00:30:43, 2026-03-22 00:46:43, 2026-03-22 01:02:06, 2026-03-22 01:16:57, 2026-03-22 01:31:54", "cumulative_total": 7.0 }, "geometry": { "type": "Polygon", "coordinates": [ [ [ -72.794150172884159, 45.145986044453203 ], [ -72.800405678007934, 45.148705324002442 ], [ -72.800205812776397, 45.153898614731965 ], [ -72.793749289680179, 45.15637258174079 ], [ -72.787493289912689, 45.153652930693326 ], [ -72.787694307867056, 45.148459684198706 ], [ -72.794150172884159, 45.145986044453203 ] ] ] } },
{ "type": "Feature", "properties": { "hex_id": 649598, "centroid_lon": -72.793348188489929, "centroid_lat": 45.166759097262215, "occurrences_today": 7, "datetimes_today": "2026-03-22 00:01:57, 2026-03-22 00:16:48, 2026-03-22 00:30:43, 2026-03-22 00:46:43, 2026-03-22 01:02:06, 2026-03-22 01:16:57, 2026-03-22 01:31:54", "cumulative_total": 7.0 }, "geometry": { "type": "Polygon", "coordinates": [ [ [ -72.793548766342383, 45.161565842222409 ], [ -72.799805919301846, 45.164285179878377 ], [ -72.799605891022722, 45.169478454294811 ], [ -72.793147556104685, 45.171952346859975 ], [ -72.78688990811375, 45.169232637503654 ], [ -72.787091090054204, 45.164039407346031 ], [ -72.793548766342383, 45.161565842222409 ] ] ] } },
{ "type": "Feature", "properties": { "hex_id": 649599, "centroid_lon": -72.792746127663307, "centroid_lat": 45.182338829728437, "occurrences_today": 7, "datetimes_today": "2026-03-22 00:01:57, 2026-03-22 00:16:48, 2026-03-22 00:30:43, 2026-03-22 00:46:43, 2026-03-22 01:02:06, 2026-03-22 01:16:57, 2026-03-22 01:31:54", "cumulative_total": 7.0 }, "geometry": { "type": "Polygon", "coordinates": [ [ [ -72.792946869168517, 45.177145591015474 ], [ -72.799205671290395, 45.179864986812902 ], [ -72.799005479801039, 45.185058244914075 ], [ -72.792545331570906, 45.187532062998663 ], [ -72.786286034029445, 45.184812295298656 ], [ -72.786487380119553, 45.179619081480219 ], [ -72.792946869168517, 45.177145591015474 ] ] ] } },
{ "type": "Feature", "properties": { "hex_id": 649600, "centroid_lon": -72.792143575551933, "centroid_lat": 45.197918513209864, "occurrences_today": 7, "datetimes_today": "2026-03-22 00:01:57, 2026-03-22 00:16:48, 2026-03-22 00:30:43, 2026-03-22 00:46:43, 2026-03-22 01:02:06, 2026-03-22 01:16:57, 2026-03-22 01:31:54", "cumulative_total": 7.0 }, "geometry": { "type": "Polygon", "coordinates": [ [ [ -72.792344480873169, 45.192725290825877 ], [ -72.798604933485478, 45.195444744799516 ], [ -72.79840457862305, 45.200637986583303 ], [ -72.791942615589008, 45.203111730150354 ], [ -72.78568166716866, 45.200391904071807 ], [ -72.785883177572202, 45.195198706594709 ], [ -72.792344480873169, 45.192725290825877 ] ] ] } },
{ "type": "Feature", "properties": { "hex_id": 650209, "centroid_lon": -72.78668867147492, "centroid_lat": 45.174425862215145, "occurrences_today": 7, "datetimes_today": "2026-03-22 00:01:57, 2026-03-22 00:16:48, 2026-03-22 00:30:43, 2026-03-22 00:46:43, 2026-03-22 01:02:06, 2026-03-22 01:16:57, 2026-03-22 01:31:54", "cumulative_total": 7.0 }, "geometry": { "type": "Polygon", "coordinates": [ [ [ -72.78688990811375, 45.169232637503654 ], [ -72.793147556104685, 45.171952346859975 ], [ -72.792946869168517, 45.177145591015474 ], [ -72.786487380119553, 45.179619081480219 ], [ -72.780229237151602, 45.176899000267873 ], [ -72.780431078191441, 45.171705800510338 ], [ -72.78688990811375, 45.169232637503654 ] ] ] } },
{ "type": "Feature", "properties": { "hex_id": 650210, "centroid_lon": -72.786084633186391, "centroid_lat": 45.190005503670243, "occurrences_today": 7, "datetimes_today": "2026-03-22 00:01:57, 2026-03-22 00:16:48, 2026-03-22 00:30:43, 2026-03-22 00:46:43, 2026-03-22 01:02:06, 2026-03-22 01:16:57, 2026-03-22 01:31:54", "cumulative_total": 7.0 }, "geometry": { "type": "Polygon", "coordinates": [ [ [ -72.786286034029445, 45.184812295298656 ], [ -72.792545331570906, 45.187532062998663 ], [ -72.792344480873169, 45.192725290825877 ], [ -72.785883177572202, 45.195198706594709 ], [ -72.779623384665683, 45.192478566836378 ], [ -72.779825390406984, 45.187285383431131 ], [ -72.786286034029445, 45.184812295298656 ] ] ] } },
{ "type": "Feature", "properties": { "hex_id": 650820, "centroid_lon": -72.780027341229527, "centroid_lat": 45.182092194574864, "occurrences_today": 7, "datetimes_today": "2026-03-22 00:01:57, 2026-03-22 00:16:48, 2026-03-22 00:30:43, 2026-03-22 00:46:43, 2026-03-22 01:02:06, 2026-03-22 01:16:57, 2026-03-22 01:31:54", "cumulative_total": 7.0 }, "geometry": { "type": "Polygon", "coordinates": [ [ [ -72.780229237151602, 45.176899000267873 ], [ -72.786487380119553, 45.179619081480219 ], [ -72.786286034029445, 45.184812295298656 ], [ -72.779825390406984, 45.187285383431131 ], [ -72.773566752516658, 45.184564930207074 ], [ -72.773769253152921, 45.179371760925832 ], [ -72.780229237151602, 45.176899000267873 ] ] ] } },
{ "type": "Feature", "properties": { "hex_id": 650821, "centroid_lon": -72.779421323987393, "centroid_lat": 45.197671744790377, "occurrences_today": 7, "datetimes_today": "2026-03-22 00:01:57, 2026-03-22 00:16:48, 2026-03-22 00:30:43, 2026-03-22 00:46:43, 2026-03-22 01:02:06, 2026-03-22 01:16:57, 2026-03-22 01:31:54", "cumulative_total": 7.0 }, "geometry": { "type": "Polygon", "coordinates": [ [ [ -72.779623384665683, 45.192478566836378 ], [ -72.785883177572202, 45.195198706594709 ], [ -72.78568166716866, 45.200391904071807 ], [ -72.779219208353837, 45.202864917292885 ], [ -72.772958920137015, 45.200144405320451 ], [ -72.773161586027001, 45.194951252404636 ], [ -72.779623384665683, 45.192478566836378 ] ] ] } }
]
}
