{
"type": "FeatureCollection",
"name": "daily_2026-07-26",
"crs": { "type": "name", "properties": { "name": "urn:ogc:def:crs:OGC:1.3:CRS84" } },
"features": [
{ "type": "Feature", "properties": { "hex_id": 477480, "centroid_lon": -74.582477489882692, "centroid_lat": 45.857704236518195, "occurrences_today": 1, "datetimes_today": "2026-07-26 00:02:06", "cumulative_total": 804.0 }, "geometry": { "type": "Polygon", "coordinates": [ [ [ -74.582516375627165, 45.852507891021503 ], [ -74.588937228901088, 45.855129414088736 ], [ -74.588898937705238, 45.860325761408468 ], [ -74.582438593470044, 45.862900577242634 ], [ -74.576017156317477, 45.860278690509539 ], [ -74.576056647275138, 45.855082351673552 ], [ -74.582516375627165, 45.852507891021503 ] ] ] } },
{ "type": "Feature", "properties": { "hex_id": 686274, "centroid_lon": -72.378889749807584, "centroid_lat": 45.875164274736676, "occurrences_today": 1, "datetimes_today": "2026-07-26 00:02:06", "cumulative_total": 118.0 }, "geometry": { "type": "Polygon", "coordinates": [ [ [ -72.379133931603178, 45.869973251717113 ], [ -72.385447602760806, 45.872716299658002 ], [ -72.385203985494499, 45.877907346372623 ], [ -72.378645501075439, 45.880355292008211 ], [ -72.372331332336387, 45.877611859649242 ], [ -72.372576145575167, 45.87242086613773 ], [ -72.379133931603178, 45.869973251717113 ] ] ] } },
{ "type": "Feature", "properties": { "hex_id": 373068, "centroid_lon": -75.680701094826475, "centroid_lat": 45.599207381929602, "occurrences_today": 1, "datetimes_today": "2026-07-26 00:02:06", "cumulative_total": 323.0 }, "geometry": { "type": "Polygon", "coordinates": [ [ [ -75.680638267674084, 45.594011029396384 ], [ -75.687080044840599, 45.596570829885657 ], [ -75.687143472240137, 45.601767173094949 ], [ -75.680763939159945, 45.604403729647693 ], [ -75.674321544562346, 45.601843579937658 ], [ -75.674259300481808, 45.596647222960449 ], [ -75.680638267674084, 45.594011029396384 ] ] ] } },
{ "type": "Feature", "properties": { "hex_id": 373678, "centroid_lon": -75.674197073417716, "centroid_lat": 45.591450861169378, "occurrences_today": 1, "datetimes_today": "2026-07-26 00:02:06", "cumulative_total": 310.0 }, "geometry": { "type": "Polygon", "coordinates": [ [ [ -75.67413486336433, 45.58625449456445 ], [ -75.68057545769696, 45.588814672048059 ], [ -75.680638267674084, 45.594011029396384 ], [ -75.674259300481808, 45.596647222960449 ], [ -75.667818089211863, 45.594086696283775 ], [ -75.667756462077236, 45.588890325300909 ], [ -75.67413486336433, 45.58625449456445 ] ] ] } },
{ "type": "Feature", "properties": { "hex_id": 374288, "centroid_lon": -75.667694851788823, "centroid_lat": 45.583693949505403, "occurrences_today": 1, "datetimes_today": "2026-07-26 00:02:06", "cumulative_total": 241.0 }, "geometry": { "type": "Polygon", "coordinates": [ [ [ -75.667633258340956, 45.578497568897284 ], [ -75.674072670315937, 45.581058123145652 ], [ -75.67413486336433, 45.58625449456445 ], [ -75.667756462077236, 45.588890325300909 ], [ -75.661316433658357, 45.5863294218872 ], [ -75.661255422976112, 45.581133036967174 ], [ -75.667633258340956, 45.578497568897284 ] ] ] } },
{ "type": "Feature", "properties": { "hex_id": 529368, "centroid_lon": -74.036279768706862, "centroid_lat": 45.784249695322579, "occurrences_today": 1, "datetimes_today": "2026-07-26 00:02:06", "cumulative_total": 84.0 }, "geometry": { "type": "Polygon", "coordinates": [ [ [ -74.036369291343732, 45.779053880724931 ], [ -74.0427556303448, 45.781705853121757 ], [ -74.042666692730265, 45.786901675022563 ], [ -74.036190221534881, 45.789445505037968 ], [ -74.029803322050711, 45.786793164569758 ], [ -74.029893454236728, 45.781597362222747 ], [ -74.036369291343732, 45.779053880724931 ] ] ] } },
{ "type": "Feature", "properties": { "hex_id": 1641238, "centroid_lon": -61.938235037191021, "centroid_lat": 47.368681077720218, "occurrences_today": 1, "datetimes_today": "2026-07-26 00:02:06", "cumulative_total": 45.0 }, "geometry": { "type": "Polygon", "coordinates": [ [ [ -61.939506404670631, 47.363620560128759 ], [ -61.945321447436854, 47.36689869514953 ], [ -61.944050490551142, 47.371959329177535 ], [ -61.936963323084882, 47.373741564803431 ], [ -61.931148216409916, 47.37046296675922 ], [ -61.9324203409926, 47.365402596168849 ], [ -61.939506404670631, 47.363620560128759 ] ] ] } },
{ "type": "Feature", "properties": { "hex_id": 574526, "centroid_lon": -73.567978400072576, "centroid_lat": 45.483126260609851, "occurrences_today": 1, "datetimes_today": "2026-07-26 00:02:06", "cumulative_total": 259.0 }, "geometry": { "type": "Polygon", "coordinates": [ [ [ -73.568110028182602, 45.477931060280547 ], [ -73.574439878612466, 45.480608673476389 ], [ -73.574308820030609, 45.485803885699788 ], [ -73.567846736025942, 45.488321455895523 ], [ -73.561516352010528, 45.485643474020932 ], [ -73.561648585573295, 45.480448290693793 ], [ -73.568110028182602, 45.477931060280547 ] ] ] } },
{ "type": "Feature", "properties": { "hex_id": 595318, "centroid_lon": -73.334382364932921, "centroid_lat": 46.025604524614721, "occurrences_today": 1, "datetimes_today": "2026-07-26 00:02:06", "cumulative_total": 42.0 }, "geometry": { "type": "Polygon", "coordinates": [ [ [ -73.334538381639405, 46.0204103930716 ], [ -73.340917591730346, 46.023101401349066 ], [ -73.340762157862002, 46.028295547246664 ], [ -73.334226305350811, 46.030798651005426 ], [ -73.32784655530466, 46.028107264932046 ], [ -73.328003197710331, 46.022913152961422 ], [ -73.334538381639405, 46.0204103930716 ] ] ] } },
{ "type": "Feature", "properties": { "hex_id": 503137, "centroid_lon": -74.308884907122419, "centroid_lat": 46.105803285103661, "occurrences_today": 1, "datetimes_today": "2026-07-26 00:02:06", "cumulative_total": 47.0 }, "geometry": { "type": "Polygon", "coordinates": [ [ [ -74.308949831992024, 46.100607406596161 ], [ -74.315386198070058, 46.103244275086539 ], [ -74.31532187195954, 46.108440158205376 ], [ -74.308819964386188, 46.110999158795799 ], [ -74.302383017418776, 46.108361920773675 ], [ -74.302448558907997, 46.103166051758841 ], [ -74.308949831992024, 46.100607406596161 ] ] ] } },
{ "type": "Feature", "properties": { "hex_id": 476259, "centroid_lon": -74.595358687227261, "centroid_lat": 45.857750577167565, "occurrences_today": 1, "datetimes_today": "2026-07-26 00:02:06", "cumulative_total": 571.0 }, "geometry": { "type": "Polygon", "coordinates": [ [ [ -74.595396373369084, 45.852554223318741 ], [ -74.601817842032602, 45.855175024617459 ], [ -74.601780750609237, 45.860371380159251 ], [ -74.595320990746359, 45.862946926245691 ], [ -74.588898937705238, 45.860325761408468 ], [ -74.588937228901088, 45.855129414088736 ], [ -74.595396373369084, 45.852554223318741 ] ] ] } },
{ "type": "Feature", "properties": { "hex_id": 371846, "centroid_lon": -75.693330426498648, "centroid_lat": 45.583541232177126, "occurrences_today": 1, "datetimes_today": "2026-07-26 00:02:06", "cumulative_total": 216.0 }, "geometry": { "type": "Polygon", "coordinates": [ [ [ -75.693266468675986, 45.57834487908719 ], [ -75.699707011032771, 45.580903981623784 ], [ -75.699771568761705, 45.586100325262763 ], [ -75.693394401808192, 45.588737580449397 ], [ -75.686953242055338, 45.58617812901791 ], [ -75.686889866657935, 45.580981771359475 ], [ -75.693266468675986, 45.57834487908719 ] ] ] } },
{ "type": "Feature", "properties": { "hex_id": 371847, "centroid_lon": -75.693522404911462, "centroid_lat": 45.599130262540953, "occurrences_today": 1, "datetimes_today": "2026-07-26 00:02:06", "cumulative_total": 220.0 }, "geometry": { "type": "Polygon", "coordinates": [ [ [ -75.693458394610502, 45.593933923904004 ], [ -75.69990073717976, 45.596492998083889 ], [ -75.699965347880791, 45.601689327266016 ], [ -75.693586432716941, 45.604326596360231 ], [ -75.687143472240137, 45.601767173094949 ], [ -75.687080044840599, 45.596570829885657 ], [ -75.693458394610502, 45.593933923904004 ] ] ] } },
{ "type": "Feature", "properties": { "hex_id": 372456, "centroid_lon": -75.686826508582911, "centroid_lat": 45.575785408884634, "occurrences_today": 1, "datetimes_today": "2026-07-26 00:02:06", "cumulative_total": 164.0 }, "geometry": { "type": "Polygon", "coordinates": [ [ [ -75.686763167824466, 45.570589041593415 ], [ -75.693202528334325, 45.573148521179576 ], [ -75.693266468675986, 45.57834487908719 ], [ -75.686889866657935, 45.580981771359475 ], [ -75.680449889245381, 45.578421942906033 ], [ -75.680387130759414, 45.573225571112324 ], [ -75.686763167824466, 45.570589041593415 ] ] ] } },
{ "type": "Feature", "properties": { "hex_id": 372457, "centroid_lon": -75.687016634780946, "centroid_lat": 45.591374481859987, "occurrences_today": 1, "datetimes_today": "2026-07-26 00:02:06", "cumulative_total": 316.0 }, "geometry": { "type": "Polygon", "coordinates": [ [ [ -75.686953242055338, 45.58617812901791 ], [ -75.693394401808192, 45.588737580449397 ], [ -75.693458394610502, 45.593933923904004 ], [ -75.687080044840599, 45.596570829885657 ], [ -75.680638267674084, 45.594011029396384 ], [ -75.68057545769696, 45.588814672048059 ], [ -75.686953242055338, 45.58617812901791 ] ] ] } },
{ "type": "Feature", "properties": { "hex_id": 373067, "centroid_lon": -75.680512664889307, "centroid_lat": 45.583618309884592, "occurrences_today": 1, "datetimes_today": "2026-07-26 00:02:06", "cumulative_total": 217.0 }, "geometry": { "type": "Polygon", "coordinates": [ [ [ -75.680449889245381, 45.578421942906033 ], [ -75.686889866657935, 45.580981771359475 ], [ -75.686953242055338, 45.58617812901791 ], [ -75.68057545769696, 45.588814672048059 ], [ -75.67413486336433, 45.58625449456445 ], [ -75.674072670315937, 45.581058123145652 ], [ -75.680449889245381, 45.578421942906033 ] ] ] } },
{ "type": "Feature", "properties": { "hex_id": 503748, "centroid_lon": -74.302317457892656, "centroid_lat": 46.11355778497181, "occurrences_today": 1, "datetimes_today": "2026-07-26 00:02:06", "cumulative_total": 41.0 }, "geometry": { "type": "Polygon", "coordinates": [ [ [ -74.302383017418776, 46.108361920773675 ], [ -74.308819964386188, 46.110999158795799 ], [ -74.308755003777208, 46.116195027672589 ], [ -74.302251880323496, 46.118753644353305 ], [ -74.295814352485053, 46.116116036635361 ], [ -74.295880528965199, 46.110920181998544 ], [ -74.302383017418776, 46.108361920773675 ] ] ] } },
{ "type": "Feature", "properties": { "hex_id": 504358, "centroid_lon": -74.295946687238128, "centroid_lat": 46.105724322543708, "occurrences_today": 1, "datetimes_today": "2026-07-26 00:02:06", "cumulative_total": 41.0 }, "geometry": { "type": "Polygon", "coordinates": [ [ [ -74.296012827310093, 46.100528458270865 ], [ -74.302448558907997, 46.103166051758841 ], [ -74.302383017418776, 46.108361920773675 ], [ -74.295880528965199, 46.110920181998544 ], [ -74.289444216988656, 46.108282218852807 ], [ -74.289510973838134, 46.103086364205936 ], [ -74.296012827310093, 46.100528458270865 ] ] ] } },
{ "type": "Feature", "properties": { "hex_id": 495149, "centroid_lon": -74.401612198618793, "centroid_lat": 45.303447398839232, "occurrences_today": 1, "datetimes_today": "2026-07-26 00:02:06", "cumulative_total": 73.0 }, "geometry": { "type": "Polygon", "coordinates": [ [ [ -74.401666862376999, 45.298250692610338 ], [ -74.408016598212782, 45.300882277687563 ], [ -74.40796250958573, 45.30607898750474 ], [ -74.401557519964555, 45.308644100267649 ], [ -74.395207223896122, 45.30601215670773 ], [ -74.395262477676553, 45.300815458931773 ], [ -74.401666862376999, 45.298250692610338 ] ] ] } },
{ "type": "Feature", "properties": { "hex_id": 566612, "centroid_lon": -73.642679611953454, "centroid_lat": 45.834815333555298, "occurrences_today": 1, "datetimes_today": "2026-07-26 00:02:06", "cumulative_total": 209.0 }, "geometry": { "type": "Polygon", "coordinates": [ [ [ -73.642805913819444, 45.829620289229176 ], [ -73.649178792660479, 45.832294092418415 ], [ -73.649053072032245, 45.837489147983945 ], [ -73.642553275455612, 45.840010372866168 ], [ -73.636179850014514, 45.837336197216445 ], [ -73.636306767738404, 45.832141169210246 ], [ -73.642805913819444, 45.829620289229176 ] ] ] } },
{ "type": "Feature", "properties": { "hex_id": 476870, "centroid_lon": -74.588860636003972, "centroid_lat": 45.865522103956778, "occurrences_today": 1, "datetimes_today": "2026-07-26 00:02:06", "cumulative_total": 518.0 }, "geometry": { "type": "Polygon", "coordinates": [ [ [ -74.588898937705238, 45.860325761408468 ], [ -74.595320990746359, 45.862946926245691 ], [ -74.595283283922853, 45.868143270553155 ], [ -74.588822323793721, 45.870718441733644 ], [ -74.5823996863856, 45.868096913194883 ], [ -74.582438593470044, 45.862900577242634 ], [ -74.588898937705238, 45.860325761408468 ] ] ] } },
{ "type": "Feature", "properties": { "hex_id": 736939, "centroid_lon": -71.850597605415587, "centroid_lat": 45.760477419564367, "occurrences_today": 1, "datetimes_today": "2026-07-26 00:02:06", "cumulative_total": 110.0 }, "geometry": { "type": "Polygon", "coordinates": [ [ [ -71.850889787072333, 45.755288707405164 ], [ -71.857163279154193, 45.758060005023253 ], [ -71.85687165081103, 45.763248745935712 ], [ -71.850305343815066, 45.765666125536768 ], [ -71.844031378376854, 45.762894440488523 ], [ -71.844324193264015, 45.757705763333867 ], [ -71.850889787072333, 45.755288707405164 ] ] ] } },
{ "type": "Feature", "properties": { "hex_id": 614197, "centroid_lon": -73.158135759368903, "centroid_lat": 45.297956896194599, "occurrences_today": 1, "datetimes_today": "2026-07-26 00:02:06", "cumulative_total": 114.0 }, "geometry": { "type": "Polygon", "coordinates": [ [ [ -73.158303958879671, 45.292762590332551 ], [ -73.164593375579301, 45.295462376322192 ], [ -73.164425734503368, 45.300656698053793 ], [ -73.157967514047499, 45.303151196822625 ], [ -73.151677584731303, 45.300451040735418 ], [ -73.151846388472265, 45.295256756040878 ], [ -73.158303958879671, 45.292762590332551 ] ] ] } },
{ "type": "Feature", "properties": { "hex_id": 184464, "centroid_lon": -77.690685913700875, "centroid_lat": 46.200926734141319, "occurrences_today": 1, "datetimes_today": "2026-07-26 00:02:06", "cumulative_total": 148.0 }, "geometry": { "type": "Polygon", "coordinates": [ [ [ -77.690432391448581, 46.195736300918426 ], [ -77.69703240830404, 46.198178875204093 ], [ -77.697286573679193, 46.203369278024148 ], [ -77.690939505732374, 46.206117161552449 ], [ -77.684338775962942, 46.203674252902481 ], [ -77.684085827078135, 46.198483795154246 ], [ -77.690432391448581, 46.195736300918426 ] ] ] } },
{ "type": "Feature", "properties": { "hex_id": 185074, "centroid_lon": -77.683832947793761, "centroid_lat": 46.19329333159957, "occurrences_today": 1, "datetimes_today": "2026-07-26 00:02:06", "cumulative_total": 148.0 }, "geometry": { "type": "Polygon", "coordinates": [ [ [ -77.683580138086029, 46.188102862238807 ], [ -77.690178938951661, 46.190545861884175 ], [ -77.690432391448581, 46.195736300918426 ], [ -77.684085827078135, 46.198483795154246 ], [ -77.677486313834777, 46.196040461157878 ], [ -77.677234077363352, 46.190849967342402 ], [ -77.683580138086029, 46.188102862238807 ] ] ] } },
{ "type": "Feature", "properties": { "hex_id": 1650998, "centroid_lon": -61.865695540789488, "centroid_lat": 47.235255748594071, "occurrences_today": 1, "datetimes_today": "2026-07-26 00:02:06", "cumulative_total": 19.0 }, "geometry": { "type": "Polygon", "coordinates": [ [ [ -61.866967897512545, 47.230196607097881 ], [ -61.872764337729571, 47.233476540433756 ], [ -61.87149238694029, 47.238535798637301 ], [ -61.864422837918475, 47.240314859420252 ], [ -61.858626337973952, 47.237034464825754 ], [ -61.859899446662048, 47.231975470762805 ], [ -61.866967897512545, 47.230196607097881 ] ] ] } },
{ "type": "Feature", "properties": { "hex_id": 1651609, "centroid_lon": -61.857352882934762, "centroid_lat": 47.242093428189662, "occurrences_today": 1, "datetimes_today": "2026-07-26 00:02:06", "cumulative_total": 19.0 }, "geometry": { "type": "Polygon", "coordinates": [ [ [ -61.858626337973952, 47.237034464825754 ], [ -61.864422837918475, 47.240314859420252 ], [ -61.863149788782792, 47.245373939566953 ], [ -61.85607908142768, 47.247152360845035 ], [ -61.850282522105942, 47.243871504875756 ], [ -61.851556729399711, 47.238812689059046 ], [ -61.858626337973952, 47.237034464825754 ] ] ] } },
{ "type": "Feature", "properties": { "hex_id": 1652219, "centroid_lon": -61.852830590139227, "centroid_lat": 47.233753842514226, "occurrences_today": 1, "datetimes_today": "2026-07-26 00:02:06", "cumulative_total": 19.0 }, "geometry": { "type": "Polygon", "coordinates": [ [ [ -61.854104104441291, 47.228694965250845 ], [ -61.859899446662048, 47.231975470762805 ], [ -61.858626337973952, 47.237034464825754 ], [ -61.851556729399711, 47.238812689059046 ], [ -61.84576132806081, 47.23553172228246 ], [ -61.847035594297509, 47.230472992593043 ], [ -61.854104104441291, 47.228694965250845 ] ] ] } },
{ "type": "Feature", "properties": { "hex_id": 735718, "centroid_lon": -71.863437404331748, "centroid_lat": 45.760830972739654, "occurrences_today": 1, "datetimes_today": "2026-07-26 00:02:06", "cumulative_total": 52.0 }, "geometry": { "type": "Polygon", "coordinates": [ [ [ -71.863728399565773, 45.755642196957751 ], [ -71.870002604350375, 45.758412806041243 ], [ -71.869712162631899, 45.763601610453001 ], [ -71.863146329477274, 45.766019742346458 ], [ -71.85687165081103, 45.763248745935712 ], [ -71.857163279154193, 45.758060005023253 ], [ -71.863728399565773, 45.755642196957751 ] ] ] } },
{ "type": "Feature", "properties": { "hex_id": 612976, "centroid_lon": -73.170883396366293, "centroid_lat": 45.298161823979449, "occurrences_today": 1, "datetimes_today": "2026-07-26 00:02:06", "cumulative_total": 18.0 }, "geometry": { "type": "Polygon", "coordinates": [ [ [ -73.171050433347219, 45.292967481211605 ], [ -73.177340499621096, 45.29566657469303 ], [ -73.177174021255894, 45.30086093320584 ], [ -73.170716313890935, 45.303356161519943 ], [ -73.164425734503368, 45.300656698053793 ], [ -73.164593375579301, 45.295462376322192 ], [ -73.171050433347219, 45.292967481211605 ] ] ] } },
{ "type": "Feature", "properties": { "hex_id": 613587, "centroid_lon": -73.164258047767291, "centroid_lat": 45.305851014554662, "occurrences_today": 1, "datetimes_today": "2026-07-26 00:02:06", "cumulative_total": 28.0 }, "geometry": { "type": "Polygon", "coordinates": [ [ [ -73.164425734503368, 45.300656698053793 ], [ -73.170716313890935, 45.303356161519943 ], [ -73.170549185905955, 45.308550493832961 ], [ -73.164090315355821, 45.311045325824615 ], [ -73.157799222900181, 45.308345492216496 ], [ -73.157967514047499, 45.303151196822625 ], [ -73.164425734503368, 45.300656698053793 ] ] ] } }
]
}
