{
"type": "FeatureCollection",
"name": "daily_2025-11-22",
"crs": { "type": "name", "properties": { "name": "urn:ogc:def:crs:OGC:1.3:CRS84" } },
"features": [
{ "type": "Feature", "properties": { "hex_id": 725, "count": 4, "date": "2025-11-22", "n_files": 22, "pct": 18.18 }, "geometry": { "type": "Polygon", "coordinates": [ [ [ -74.6355942, 46.1309747 ], [ -74.6354227, 46.1569553 ], [ -74.6677219, 46.1700443 ], [ -74.7001776, 46.1571435 ], [ -74.7003186, 46.1311627 ], [ -74.6680343, 46.1180829 ], [ -74.6355942, 46.1309747 ] ] ] } },
{ "type": "Feature", "properties": { "hex_id": 1740, "count": 3, "date": "2025-11-22", "n_files": 22, "pct": 13.64 }, "geometry": { "type": "Polygon", "coordinates": [ [ [ -74.1288277, 45.4266989 ], [ -74.1284277, 45.4526802 ], [ -74.1602039, 45.4659103 ], [ -74.1923661, 45.4531502 ], [ -74.1927367, 45.4271684 ], [ -74.1609745, 45.4139473 ], [ -74.1288277, 45.4266989 ] ] ] } },
{ "type": "Feature", "properties": { "hex_id": 1804, "count": 3, "date": "2025-11-22", "n_files": 22, "pct": 13.64 }, "geometry": { "type": "Polygon", "coordinates": [ [ [ -74.0962516, 45.4654222 ], [ -74.0958362, 45.4914031 ], [ -74.1276262, 45.5046424 ], [ -74.1598178, 45.4918917 ], [ -74.1602039, 45.4659103 ], [ -74.1284277, 45.4526802 ], [ -74.0962516, 45.4654222 ] ] ] } },
{ "type": "Feature", "properties": { "hex_id": 1810, "count": 2, "date": "2025-11-22", "n_files": 22, "pct": 9.09 }, "geometry": { "type": "Polygon", "coordinates": [ [ [ -74.0886857, 45.9330598 ], [ -74.0882599, 45.9590385 ], [ -74.1203129, 45.9722808 ], [ -74.1527775, 45.9595351 ], [ -74.1531732, 45.9335559 ], [ -74.1211344, 45.9203229 ], [ -74.0886857, 45.9330598 ] ] ] } },
{ "type": "Feature", "properties": { "hex_id": 1868, "count": 3, "date": "2025-11-22", "n_files": 22, "pct": 13.64 }, "geometry": { "type": "Polygon", "coordinates": [ [ [ -74.0649203, 45.4261935 ], [ -74.064491, 45.4521744 ], [ -74.0962516, 45.4654222 ], [ -74.1284277, 45.4526802 ], [ -74.1288277, 45.4266989 ], [ -74.0970809, 45.4134601 ], [ -74.0649203, 45.4261935 ] ] ] } },
{ "type": "Feature", "properties": { "hex_id": 1875, "count": 5, "date": "2025-11-22", "n_files": 22, "pct": 22.73 }, "geometry": { "type": "Polygon", "coordinates": [ [ [ -74.0557811, 45.9717658 ], [ -74.0553393, 45.9977441 ], [ -74.0874065, 46.0109956 ], [ -74.1199013, 45.998259499999989 ], [ -74.1203129, 45.9722808 ], [ -74.0882599, 45.9590385 ], [ -74.0557811, 45.9717658 ] ] ] } },
{ "type": "Feature", "properties": { "hex_id": 1938, "count": 2, "date": "2025-11-22", "n_files": 22, "pct": 9.09 }, "geometry": { "type": "Polygon", "coordinates": [ [ [ -74.0242, 45.9325273 ], [ -74.023744, 45.9585056 ], [ -74.0557811, 45.9717658 ], [ -74.0882599, 45.9590385 ], [ -74.0886857, 45.9330598 ], [ -74.0566628, 45.9198088 ], [ -74.0242, 45.9325273 ] ] ] } },
{ "type": "Feature", "properties": { "hex_id": 2188, "count": 6, "date": "2025-11-22", "n_files": 22, "pct": 27.27 }, "geometry": { "type": "Polygon", "coordinates": [ [ [ -73.9044056, 45.4637431 ], [ -73.903902, 45.4897225 ], [ -73.9356451, 45.5030148 ], [ -73.9678781, 45.4903185 ], [ -73.9683524, 45.4643386 ], [ -73.9366229, 45.4510555 ], [ -73.9044056, 45.4637431 ] ] ] } },
{ "type": "Feature", "properties": { "hex_id": 2252, "count": 6, "date": "2025-11-22", "n_files": 22, "pct": 27.27 }, "geometry": { "type": "Polygon", "coordinates": [ [ [ -73.8732091, 45.4244631 ], [ -73.8726918, 45.4504423 ], [ -73.9044056, 45.4637431 ], [ -73.9366229, 45.4510555 ], [ -73.9371109, 45.4250756 ], [ -73.9054108, 45.411784 ], [ -73.8732091, 45.4244631 ] ] ] } },
{ "type": "Feature", "properties": { "hex_id": 2253, "count": 6, "date": "2025-11-22", "n_files": 22, "pct": 27.27 }, "geometry": { "type": "Polygon", "coordinates": [ [ [ -73.8716552, 45.5024006 ], [ -73.8711359, 45.5283795 ], [ -73.9028927, 45.5416809 ], [ -73.935155200000011, 45.5289943 ], [ -73.9356451, 45.5030148 ], [ -73.903902, 45.4897225 ], [ -73.8716552, 45.5024006 ] ] ] } },
{ "type": "Feature", "properties": { "hex_id": 2316, "count": 10, "date": "2025-11-22", "n_files": 22, "pct": 45.45 }, "geometry": { "type": "Polygon", "coordinates": [ [ [ -73.8404609, 45.4631118 ], [ -73.8399279, 45.4890906 ], [ -73.8716552, 45.5024006 ], [ -73.903902, 45.4897225 ], [ -73.9044056, 45.4637431 ], [ -73.8726918, 45.4504423 ], [ -73.8404609, 45.4631118 ] ] ] } },
{ "type": "Feature", "properties": { "hex_id": 2380, "count": 11, "date": "2025-11-22", "n_files": 22, "pct": 50.0 }, "geometry": { "type": "Polygon", "coordinates": [ [ [ -73.8093094, 45.4238147 ], [ -73.8087629, 45.4497934 ], [ -73.8404609, 45.4631118 ], [ -73.8726918, 45.4504423 ], [ -73.8732091, 45.4244631 ], [ -73.8415247, 45.4111538 ], [ -73.8093094, 45.4238147 ] ] ] } },
{ "type": "Feature", "properties": { "hex_id": 2381, "count": 6, "date": "2025-11-22", "n_files": 22, "pct": 27.27 }, "geometry": { "type": "Polygon", "coordinates": [ [ [ -73.8076675, 45.5017505 ], [ -73.8071187, 45.5277288 ], [ -73.8388597, 45.5410479 ], [ -73.8711359, 45.5283795 ], [ -73.8716552, 45.5024006 ], [ -73.8399279, 45.4890906 ], [ -73.8076675, 45.5017505 ] ] ] } },
{ "type": "Feature", "properties": { "hex_id": 2444, "count": 10, "date": "2025-11-22", "n_files": 22, "pct": 45.45 }, "geometry": { "type": "Polygon", "coordinates": [ [ [ -73.7765183, 45.4624447 ], [ -73.7759559, 45.488423 ], [ -73.8076675, 45.5017505 ], [ -73.8399279, 45.4890906 ], [ -73.8404609, 45.4631118 ], [ -73.8087629, 45.4497934 ], [ -73.7765183, 45.4624447 ] ] ] } },
{ "type": "Feature", "properties": { "hex_id": 2508, "count": 11, "date": "2025-11-22", "n_files": 22, "pct": 50.0 }, "geometry": { "type": "Polygon", "coordinates": [ [ [ -73.745412, 45.4231307 ], [ -73.7448361, 45.4491088 ], [ -73.7765183, 45.4624447 ], [ -73.8087629, 45.4497934 ], [ -73.8093094, 45.4238147 ], [ -73.7776408, 45.4104879 ], [ -73.745412, 45.4231307 ] ] ] } },
{ "type": "Feature", "properties": { "hex_id": 2509, "count": 6, "date": "2025-11-22", "n_files": 22, "pct": 27.27 }, "geometry": { "type": "Polygon", "coordinates": [ [ [ -73.743682, 45.5010646 ], [ -73.7431038, 45.5270423 ], [ -73.7748289, 45.540379 ], [ -73.8071187, 45.5277288 ], [ -73.8076675, 45.5017505 ], [ -73.7759559, 45.488423 ], [ -73.743682, 45.5010646 ] ] ] } },
{ "type": "Feature", "properties": { "hex_id": 2572, "count": 7, "date": "2025-11-22", "n_files": 22, "pct": 31.82 }, "geometry": { "type": "Polygon", "coordinates": [ [ [ -73.7125781, 45.4617419 ], [ -73.7119863, 45.4877195 ], [ -73.743682, 45.5010646 ], [ -73.7759559, 45.488423 ], [ -73.7765183, 45.4624447 ], [ -73.7448361, 45.4491088 ], [ -73.7125781, 45.4617419 ] ] ] } },
{ "type": "Feature", "properties": { "hex_id": 2636, "count": 7, "date": "2025-11-22", "n_files": 22, "pct": 31.82 }, "geometry": { "type": "Polygon", "coordinates": [ [ [ -73.6815169, 45.4224109 ], [ -73.6809117, 45.4483883 ], [ -73.7125781, 45.4617419 ], [ -73.7448361, 45.4491088 ], [ -73.745412, 45.4231307 ], [ -73.7137591, 45.4097863 ], [ -73.6815169, 45.4224109 ] ] ] } },
{ "type": "Feature", "properties": { "hex_id": 2828, "count": 8, "date": "2025-11-22", "n_files": 22, "pct": 36.36 }, "geometry": { "type": "Polygon", "coordinates": [ [ [ -73.584705, 45.4602288 ], [ -73.5840545, 45.486205 ], [ -73.6157183, 45.4995853 ], [ -73.6480191, 45.4869801 ], [ -73.6486402, 45.4610032 ], [ -73.6169898, 45.4476322 ], [ -73.584705, 45.4602288 ] ] ] } },
{ "type": "Feature", "properties": { "hex_id": 2897, "count": 2, "date": "2025-11-22", "n_files": 22, "pct": 9.09 }, "geometry": { "type": "Polygon", "coordinates": [ [ [ -73.5436817, 45.8104916 ], [ -73.5430041, 45.8364658 ], [ -73.574854, 45.8498589 ], [ -73.6073678, 45.8372685 ], [ -73.6080154, 45.8112936 ], [ -73.5761791, 45.7979098 ], [ -73.5436817, 45.8104916 ] ] ] } },
{ "type": "Feature", "properties": { "hex_id": 2961, "count": 2, "date": "2025-11-22", "n_files": 22, "pct": 9.09 }, "geometry": { "type": "Polygon", "coordinates": [ [ [ -73.5104767, 45.8490376 ], [ -73.5097828, 45.8750112 ], [ -73.5416462, 45.8884137 ], [ -73.57419, 45.8758332 ], [ -73.574854, 45.8498589 ], [ -73.5430041, 45.8364658 ], [ -73.5104767, 45.8490376 ] ] ] } },
{ "type": "Feature", "properties": { "hex_id": 3023, "count": 10, "date": "2025-11-22", "n_files": 22, "pct": 45.45 }, "geometry": { "type": "Polygon", "coordinates": [ [ [ -73.4835751, 45.6538103 ], [ -73.4828734, 45.6797845 ], [ -73.5146203, 45.6931934 ], [ -73.5470555, 45.6806189 ], [ -73.5477275, 45.654644 ], [ -73.515994, 45.6412444 ], [ -73.4835751, 45.6538103 ] ] ] } },
{ "type": "Feature", "properties": { "hex_id": 3025, "count": 2, "date": "2025-11-22", "n_files": 22, "pct": 9.09 }, "geometry": { "type": "Polygon", "coordinates": [ [ [ -73.4793507, 45.8096534 ], [ -73.4786433, 45.8356268 ], [ -73.5104767, 45.8490376 ], [ -73.5430041, 45.8364658 ], [ -73.5436817, 45.8104916 ], [ -73.5118617, 45.7970901 ], [ -73.4793507, 45.8096534 ] ] ] } },
{ "type": "Feature", "properties": { "hex_id": 3086, "count": 10, "date": "2025-11-22", "n_files": 22, "pct": 45.45 }, "geometry": { "type": "Polygon", "coordinates": [ [ [ -73.4525729, 45.6144191 ], [ -73.4518578, 45.640393 ], [ -73.4835751, 45.6538103 ], [ -73.515994, 45.6412444 ], [ -73.5166794, 45.6152696 ], [ -73.4849755, 45.6018616 ], [ -73.4525729, 45.6144191 ] ] ] } },
{ "type": "Feature", "properties": { "hex_id": 3089, "count": 2, "date": "2025-11-22", "n_files": 22, "pct": 9.09 }, "geometry": { "type": "Polygon", "coordinates": [ [ [ -73.4461024, 45.8481802 ], [ -73.4453785, 45.874153 ], [ -73.4772255, 45.8875732 ], [ -73.5097828, 45.8750112 ], [ -73.5104767, 45.8490376 ], [ -73.4786433, 45.8356268 ], [ -73.4461024, 45.8481802 ] ] ] } },
{ "type": "Feature", "properties": { "hex_id": 3156, "count": 2, "date": "2025-11-22", "n_files": 22, "pct": 9.09 }, "geometry": { "type": "Polygon", "coordinates": [ [ [ -73.40835, 46.0425278 ], [ -73.4076035, 46.0684993 ], [ -73.4395515, 46.0819309 ], [ -73.4722324, 46.0693816 ], [ -73.4729486, 46.0434094 ], [ -73.4410143, 46.0299872 ], [ -73.40835, 46.0425278 ] ] ] } },
{ "type": "Feature", "properties": { "hex_id": 3220, "count": 2, "date": "2025-11-22", "n_files": 22, "pct": 9.09 }, "geometry": { "type": "Polygon", "coordinates": [ [ [ -73.374909, 46.0810299 ], [ -73.3741458, 46.1070008 ], [ -73.4061074, 46.1204418 ], [ -73.4388186, 46.1079026 ], [ -73.4395515, 46.0819309 ], [ -73.4076035, 46.0684993 ], [ -73.374909, 46.0810299 ] ] ] } },
{ "type": "Feature", "properties": { "hex_id": 3284, "count": 2, "date": "2025-11-22", "n_files": 22, "pct": 9.09 }, "geometry": { "type": "Polygon", "coordinates": [ [ [ -73.3437545, 46.041609799999989 ], [ -73.3429778, 46.0675804 ], [ -73.374909, 46.0810299 ], [ -73.4076035, 46.0684993 ], [ -73.40835, 46.0425278 ], [ -73.3764323, 46.0290878 ], [ -73.3437545, 46.041609799999989 ] ] ] } },
{ "type": "Feature", "properties": { "hex_id": 3348, "count": 2, "date": "2025-11-22", "n_files": 22, "pct": 9.09 }, "geometry": { "type": "Polygon", "coordinates": [ [ [ -73.3102697, 46.0800924 ], [ -73.3094762, 46.1060624 ], [ -73.341421, 46.1195213 ], [ -73.3741458, 46.1070008 ], [ -73.374909, 46.0810299 ], [ -73.3429778, 46.0675804 ], [ -73.3102697, 46.0800924 ] ] ] } },
{ "type": "Feature", "properties": { "hex_id": 3412, "count": 2, "date": "2025-11-22", "n_files": 22, "pct": 9.09 }, "geometry": { "type": "Polygon", "coordinates": [ [ [ -73.2791622, 46.0406553 ], [ -73.2783552, 46.0666251 ], [ -73.3102697, 46.0800924 ], [ -73.3429778, 46.0675804 ], [ -73.3437545, 46.041609799999989 ], [ -73.3118535, 46.028152 ], [ -73.2791622, 46.0406553 ] ] ] } },
{ "type": "Feature", "properties": { "hex_id": 3482, "count": 5, "date": "2025-11-22", "n_files": 22, "pct": 22.73 }, "geometry": { "type": "Polygon", "coordinates": [ [ [ -73.2306293, 46.5465428 ], [ -73.2297847, 46.5725096 ], [ -73.261979, 46.5859932 ], [ -73.295004, 46.5735005 ], [ -73.2958175, 46.5475328 ], [ -73.263637, 46.5340588 ], [ -73.2306293, 46.5465428 ] ] ] } },
{ "type": "Feature", "properties": { "hex_id": 3546, "count": 5, "date": "2025-11-22", "n_files": 22, "pct": 22.73 }, "geometry": { "type": "Polygon", "coordinates": [ [ [ -73.1993244, 46.5070841 ], [ -73.1984661, 46.5330506 ], [ -73.2306293, 46.5465428 ], [ -73.263637, 46.5340588 ], [ -73.2644643, 46.5080913 ], [ -73.2323149, 46.494608799999988 ], [ -73.1993244, 46.5070841 ] ] ] } },
{ "type": "Feature", "properties": { "hex_id": 3609, "count": 5, "date": "2025-11-22", "n_files": 22, "pct": 22.73 }, "geometry": { "type": "Polygon", "coordinates": [ [ [ -73.1680642, 46.4676173 ], [ -73.1671922, 46.4935835 ], [ -73.1993244, 46.5070841 ], [ -73.2323149, 46.494608799999988 ], [ -73.2331559, 46.4686416 ], [ -73.2010374, 46.4551507 ], [ -73.1680642, 46.4676173 ] ] ] } },
{ "type": "Feature", "properties": { "hex_id": 3674, "count": 5, "date": "2025-11-22", "n_files": 22, "pct": 22.73 }, "geometry": { "type": "Polygon", "coordinates": [ [ [ -73.134188, 46.5060398 ], [ -73.1332987, 46.5320054 ], [ -73.1654446, 46.5455156 ], [ -73.1984661, 46.5330506 ], [ -73.1993244, 46.5070841 ], [ -73.1671922, 46.4935835 ], [ -73.134188, 46.5060398 ] ] ] } },
{ "type": "Feature", "properties": { "hex_id": 3737, "count": 5, "date": "2025-11-22", "n_files": 22, "pct": 22.73 }, "geometry": { "type": "Polygon", "coordinates": [ [ [ -73.102976, 46.4665559 ], [ -73.1020731, 46.4925212 ], [ -73.134188, 46.5060398 ], [ -73.1671922, 46.4935835 ], [ -73.1680642, 46.4676173 ], [ -73.1359629, 46.4541082 ], [ -73.102976, 46.4665559 ] ] ] } },
{ "type": "Feature", "properties": { "hex_id": 4006, "count": 1, "date": "2025-11-22", "n_files": 22, "pct": 4.55 }, "geometry": { "type": "Polygon", "coordinates": [ [ [ -72.9341739, 47.4767908 ], [ -72.9331554, 47.5027488 ], [ -72.9658289, 47.516321399999988 ], [ -72.9995069, 47.503926 ], [ -73.0004928, 47.4779669 ], [ -72.9678335, 47.4644043 ], [ -72.9341739, 47.4767908 ] ] ] } },
{ "type": "Feature", "properties": { "hex_id": 4070, "count": 1, "date": "2025-11-22", "n_files": 22, "pct": 4.55 }, "geometry": { "type": "Polygon", "coordinates": [ [ [ -72.9025657, 47.4372518 ], [ -72.901533, 47.4632096 ], [ -72.9341739, 47.4767908 ], [ -72.9678335, 47.4644043 ], [ -72.9688336, 47.4384455 ], [ -72.9362068, 47.4248743 ], [ -72.9025657, 47.4372518 ] ] ] } },
{ "type": "Feature", "properties": { "hex_id": 4134, "count": 1, "date": "2025-11-22", "n_files": 22, "pct": 4.55 }, "geometry": { "type": "Polygon", "coordinates": [ [ [ -72.8678593, 47.4755764 ], [ -72.8668081, 47.5015333 ], [ -72.8994632, 47.5151246 ], [ -72.9331554, 47.5027488 ], [ -72.9341739, 47.4767908 ], [ -72.901533, 47.4632096 ], [ -72.8678593, 47.4755764 ] ] ] } },
{ "type": "Feature", "properties": { "hex_id": 4238, "count": 10, "date": "2025-11-22", "n_files": 22, "pct": 45.45 }, "geometry": { "type": "Polygon", "coordinates": [ [ [ -72.8757602, 45.6051465 ], [ -72.8747791, 45.6311121 ], [ -72.9063476, 45.6446872 ], [ -72.9388844, 45.6322872 ], [ -72.939836, 45.6063205 ], [ -72.9082803, 45.5927549 ], [ -72.8757602, 45.6051465 ] ] ] } },
{ "type": "Feature", "properties": { "hex_id": 4302, "count": 10, "date": "2025-11-22", "n_files": 22, "pct": 45.45 }, "geometry": { "type": "Polygon", "coordinates": [ [ [ -72.845215, 45.5655982 ], [ -72.8442212, 45.5915635 ], [ -72.8757602, 45.6051465 ], [ -72.9082803, 45.5927549 ], [ -72.9092446, 45.5667885 ], [ -72.8777184, 45.5532149 ], [ -72.845215, 45.5655982 ] ] ] } },
{ "type": "Feature", "properties": { "hex_id": 4303, "count": 10, "date": "2025-11-22", "n_files": 22, "pct": 45.45 }, "geometry": { "type": "Polygon", "coordinates": [ [ [ -72.8422294, 45.6434936 ], [ -72.8412315, 45.6694585 ], [ -72.8728128, 45.6830429 ], [ -72.9053792, 45.6706531 ], [ -72.9063476, 45.6446872 ], [ -72.8747791, 45.6311121 ], [ -72.8422294, 45.6434936 ] ] ] } },
{ "type": "Feature", "properties": { "hex_id": 4365, "count": 10, "date": "2025-11-22", "n_files": 22, "pct": 45.45 }, "geometry": { "type": "Polygon", "coordinates": [ [ [ -72.8147121, 45.5260422 ], [ -72.8137055, 45.5520071 ], [ -72.845215, 45.5655982 ], [ -72.8777184, 45.5532149 ], [ -72.8786955, 45.5272489 ], [ -72.8471987, 45.5136672 ], [ -72.8147121, 45.5260422 ] ] ] } },
{ "type": "Feature", "properties": { "hex_id": 4366, "count": 10, "date": "2025-11-22", "n_files": 22, "pct": 45.45 }, "geometry": { "type": "Polygon", "coordinates": [ [ [ -72.8116884, 45.6039366 ], [ -72.8106777, 45.6299011 ], [ -72.8422294, 45.6434936 ], [ -72.8747791, 45.6311121 ], [ -72.8757602, 45.6051465 ], [ -72.8442212, 45.5915635 ], [ -72.8116884, 45.6039366 ] ] ] } },
{ "type": "Feature", "properties": { "hex_id": 4430, "count": 10, "date": "2025-11-22", "n_files": 22, "pct": 45.45 }, "geometry": { "type": "Polygon", "coordinates": [ [ [ -72.7811895, 45.564372 ], [ -72.7801662, 45.5903361 ], [ -72.8116884, 45.6039366 ], [ -72.8442212, 45.5915635 ], [ -72.845215, 45.5655982 ], [ -72.8137055, 45.5520071 ], [ -72.7811895, 45.564372 ] ] ] } },
{ "type": "Feature", "properties": { "hex_id": 4493, "count": 10, "date": "2025-11-22", "n_files": 22, "pct": 45.45 }, "geometry": { "type": "Polygon", "coordinates": [ [ [ -72.750732700000015, 45.5247998 ], [ -72.7496968, 45.5507636 ], [ -72.7811895, 45.564372 ], [ -72.8137055, 45.5520071 ], [ -72.8147121, 45.5260422 ], [ -72.783232, 45.5124432 ], [ -72.750732700000015, 45.5247998 ] ] ] } },
{ "type": "Feature", "properties": { "hex_id": 4501, "count": 1, "date": "2025-11-22", "n_files": 22, "pct": 4.55 }, "geometry": { "type": "Polygon", "coordinates": [ [ [ -72.7254749, 46.1478932 ], [ -72.7244043, 46.173853799999989 ], [ -72.756238900000014, 46.1874742 ], [ -72.789131, 46.1751245 ], [ -72.7901712, 46.1491629 ], [ -72.7583496, 46.135552 ], [ -72.7254749, 46.1478932 ] ] ] } },
{ "type": "Feature", "properties": { "hex_id": 4506, "count": 6, "date": "2025-11-22", "n_files": 22, "pct": 27.27 }, "geometry": { "type": "Polygon", "coordinates": [ [ [ -72.7092604, 46.5372864 ], [ -72.7081675, 46.5632449 ], [ -72.7402214, 46.576873 ], [ -72.7733551, 46.5645329 ], [ -72.774417, 46.5385733 ], [ -72.7423763, 46.524955 ], [ -72.7092604, 46.5372864 ] ] ] } },
{ "type": "Feature", "properties": { "hex_id": 4565, "count": 4, "date": "2025-11-22", "n_files": 22, "pct": 18.18 }, "geometry": { "type": "Polygon", "coordinates": [ [ [ -72.6947542, 46.1083046 ], [ -72.6936707, 46.1342647 ], [ -72.7254749, 46.1478932 ], [ -72.7583496, 46.135552 ], [ -72.7594028, 46.1095907 ], [ -72.7276116, 46.0959718 ], [ -72.6947542, 46.1083046 ] ] ] } },
{ "type": "Feature", "properties": { "hex_id": 4566, "count": 1, "date": "2025-11-22", "n_files": 22, "pct": 4.55 }, "geometry": { "type": "Polygon", "coordinates": [ [ [ -72.6914991, 46.1861846 ], [ -72.6904111, 46.2121443 ], [ -72.7222587, 46.2257744 ], [ -72.7551813, 46.2134351 ], [ -72.756238900000014, 46.1874742 ], [ -72.7244043, 46.173853799999989 ], [ -72.6914991, 46.1861846 ] ] ] } },
{ "type": "Feature", "properties": { "hex_id": 4629, "count": 4, "date": "2025-11-22", "n_files": 22, "pct": 18.18 }, "geometry": { "type": "Polygon", "coordinates": [ [ [ -72.6607829, 46.146587 ], [ -72.659682, 46.1725464 ], [ -72.6914991, 46.1861846 ], [ -72.7244043, 46.173853799999989 ], [ -72.7254749, 46.1478932 ], [ -72.6936707, 46.1342647 ], [ -72.6607829, 46.146587 ] ] ] } },
{ "type": "Feature", "properties": { "hex_id": 4694, "count": 4, "date": "2025-11-22", "n_files": 22, "pct": 18.18 }, "geometry": { "type": "Polygon", "coordinates": [ [ [ -72.6267639, 46.1848583 ], [ -72.6256454, 46.2108168 ], [ -72.6574755, 46.2244646 ], [ -72.6904111, 46.2121443 ], [ -72.6914991, 46.1861846 ], [ -72.659682, 46.1725464 ], [ -72.6267639, 46.1848583 ] ] ] } },
{ "type": "Feature", "properties": { "hex_id": 4757, "count": 1, "date": "2025-11-22", "n_files": 22, "pct": 4.55 }, "geometry": { "type": "Polygon", "coordinates": [ [ [ -72.5960956, 46.1452443 ], [ -72.5949642, 46.1712024 ], [ -72.6267639, 46.1848583 ], [ -72.659682, 46.1725464 ], [ -72.6607829, 46.146587 ], [ -72.6289962, 46.1329408 ], [ -72.5960956, 46.1452443 ] ] ] } },
{ "type": "Feature", "properties": { "hex_id": 4758, "count": 4, "date": "2025-11-22", "n_files": 22, "pct": 18.18 }, "geometry": { "type": "Polygon", "coordinates": [ [ [ -72.5926969, 46.223118199999988 ], [ -72.5915609, 46.2490759 ], [ -72.6234039, 46.2627334 ], [ -72.65637, 46.2504235 ], [ -72.6574755, 46.2244646 ], [ -72.6256454, 46.2108168 ], [ -72.5926969, 46.223118199999988 ] ] ] } },
{ "type": "Feature", "properties": { "hex_id": 4822, "count": 2, "date": "2025-11-22", "n_files": 22, "pct": 9.09 }, "geometry": { "type": "Polygon", "coordinates": [ [ [ -72.5620333, 46.1834954 ], [ -72.5608844, 46.2094527 ], [ -72.5926969, 46.223118199999988 ], [ -72.6256454, 46.2108168 ], [ -72.6267639, 46.1848583 ], [ -72.5949642, 46.1712024 ], [ -72.5620333, 46.1834954 ] ] ] } },
{ "type": "Feature", "properties": { "hex_id": 5449, "count": 5, "date": "2025-11-22", "n_files": 22, "pct": 22.73 }, "geometry": { "type": "Polygon", "coordinates": [ [ [ -72.2878241, 45.163942 ], [ -72.2865908, 45.1898983 ], [ -72.3177706, 45.2036282 ], [ -72.3501718, 45.1913923 ], [ -72.3513764, 45.1654346 ], [ -72.3202085, 45.1517141 ], [ -72.2878241, 45.163942 ] ] ] } },
{ "type": "Feature", "properties": { "hex_id": 5513, "count": 5, "date": "2025-11-22", "n_files": 22, "pct": 22.73 }, "geometry": { "type": "Polygon", "coordinates": [ [ [ -72.2541776, 45.2021159 ], [ -72.2529272, 45.2280713 ], [ -72.284119, 45.2418106 ], [ -72.3165491, 45.229585 ], [ -72.3177706, 45.2036282 ], [ -72.2865908, 45.1898983 ], [ -72.2541776, 45.2021159 ] ] ] } },
{ "type": "Feature", "properties": { "hex_id": 5578, "count": 5, "date": "2025-11-22", "n_files": 22, "pct": 22.73 }, "geometry": { "type": "Polygon", "coordinates": [ [ [ -72.2204852, 45.2402785 ], [ -72.2192179, 45.2662331 ], [ -72.2504215, 45.2799818 ], [ -72.2828806, 45.2677665 ], [ -72.284119, 45.2418106 ], [ -72.2529272, 45.2280713 ], [ -72.2204852, 45.2402785 ] ] ] } },
{ "type": "Feature", "properties": { "hex_id": 5768, "count": 5, "date": "2025-11-22", "n_files": 22, "pct": 22.73 }, "geometry": { "type": "Polygon", "coordinates": [ [ [ -72.1309204, 45.1211264 ], [ -72.1296177, 45.1470795 ], [ -72.1607348, 45.1608508 ], [ -72.1931428, 45.1486597 ], [ -72.1944168, 45.1227052 ], [ -72.1633115, 45.1089432 ], [ -72.1309204, 45.1211264 ] ] ] } },
{ "type": "Feature", "properties": { "hex_id": 5833, "count": 5, "date": "2025-11-22", "n_files": 22, "pct": 22.73 }, "geometry": { "type": "Polygon", "coordinates": [ [ [ -72.0971979, 45.1592523 ], [ -72.0958782, 45.185204399999989 ], [ -72.127007, 45.1989852 ], [ -72.1594438, 45.1868044 ], [ -72.1607348, 45.1608508 ], [ -72.1296177, 45.1470795 ], [ -72.0971979, 45.1592523 ] ] ] } },
{ "type": "Feature", "properties": { "hex_id": 5961, "count": 5, "date": "2025-11-22", "n_files": 22, "pct": 22.73 }, "geometry": { "type": "Polygon", "coordinates": [ [ [ -72.0336665, 45.1576184 ], [ -72.0323179, 45.1835691 ], [ -72.0634296, 45.1973668 ], [ -72.0958782, 45.185204399999989 ], [ -72.0971979, 45.1592523 ], [ -72.0660979, 45.145464 ], [ -72.0336665, 45.1576184 ] ] ] } },
{ "type": "Feature", "properties": { "hex_id": 7797, "count": 7, "date": "2025-11-22", "n_files": 22, "pct": 31.82 }, "geometry": { "type": "Polygon", "coordinates": [ [ [ -70.8916449, 48.5518528 ], [ -70.8895428, 48.577756 ], [ -70.9223073, 48.591912 ], [ -70.9571612, 48.5801539 ], [ -70.9592289, 48.5542485 ], [ -70.9264772, 48.5401034 ], [ -70.8916449, 48.5518528 ] ] ] } },
{ "type": "Feature", "properties": { "hex_id": 7860, "count": 7, "date": "2025-11-22", "n_files": 22, "pct": 31.82 }, "geometry": { "type": "Polygon", "coordinates": [ [ [ -70.8610296, 48.5117865 ], [ -70.8589148, 48.5376889 ], [ -70.8916449, 48.5518528 ], [ -70.9264772, 48.5401034 ], [ -70.9285577, 48.5141988 ], [ -70.8958402, 48.5000458 ], [ -70.8610296, 48.5117865 ] ] ] } },
{ "type": "Feature", "properties": { "hex_id": 7861, "count": 12, "date": "2025-11-22", "n_files": 22, "pct": 54.55 }, "geometry": { "type": "Polygon", "coordinates": [ [ [ -70.8546762, 48.5894932 ], [ -70.8525523, 48.615395 ], [ -70.8853295, 48.6295619 ], [ -70.9202179, 48.617816 ], [ -70.9223073, 48.591912 ], [ -70.8895428, 48.577756 ], [ -70.8546762, 48.5894932 ] ] ] } },
{ "type": "Feature", "properties": { "hex_id": 7925, "count": 7, "date": "2025-11-22", "n_files": 22, "pct": 31.82 }, "geometry": { "type": "Polygon", "coordinates": [ [ [ -70.8240698, 48.5494174 ], [ -70.8219334, 48.5753185 ], [ -70.8546762, 48.5894932 ], [ -70.8895428, 48.577756 ], [ -70.8916449, 48.5518528 ], [ -70.8589148, 48.5376889 ], [ -70.8240698, 48.5494174 ] ] ] } },
{ "type": "Feature", "properties": { "hex_id": 7926, "count": 12, "date": "2025-11-22", "n_files": 22, "pct": 54.55 }, "geometry": { "type": "Polygon", "coordinates": [ [ [ -70.8176513, 48.6271199 ], [ -70.8155057, 48.6530204 ], [ -70.8482956, 48.6671981 ], [ -70.8832184, 48.6554645 ], [ -70.8853295, 48.6295619 ], [ -70.8525523, 48.615395 ], [ -70.8176513, 48.6271199 ] ] ] } },
{ "type": "Feature", "properties": { "hex_id": 7989, "count": 12, "date": "2025-11-22", "n_files": 22, "pct": 54.55 }, "geometry": { "type": "Polygon", "coordinates": [ [ [ -70.7870541, 48.5870347 ], [ -70.7848959, 48.6129343 ], [ -70.8176513, 48.6271199 ], [ -70.8525523, 48.615395 ], [ -70.8546762, 48.5894932 ], [ -70.8219334, 48.5753185 ], [ -70.7870541, 48.5870347 ] ] ] } },
{ "type": "Feature", "properties": { "hex_id": 8054, "count": 12, "date": "2025-11-22", "n_files": 22, "pct": 54.55 }, "geometry": { "type": "Polygon", "coordinates": [ [ [ -70.7499822, 48.6246383 ], [ -70.7478022, 48.6505365 ], [ -70.7805702, 48.664733 ], [ -70.8155057, 48.6530204 ], [ -70.8176513, 48.6271199 ], [ -70.7848959, 48.6129343 ], [ -70.7499822, 48.6246383 ] ] ] } }
]
}
