{
"type": "FeatureCollection",
"name": "daily_2026-08-27",
"crs": { "type": "name", "properties": { "name": "urn:ogc:def:crs:OGC:1.3:CRS84" } },
"features": [
{ "type": "Feature", "properties": { "hex_id": 594065, "centroid_lon": -73.361967134444086, "centroid_lat": 45.527128738834229, "occurrences_today": 3, "datetimes_today": "2026-08-27 00:01:43, 2026-08-27 00:16:48, 2026-08-27 00:31:50", "cumulative_total": 301.0 }, "geometry": { "type": "Polygon", "coordinates": [ [ [ -73.362117924892885, 45.521934080004435 ], [ -73.368442563335734, 45.524623024206832 ], [ -73.368292340924469, 45.529817696974085 ], [ -73.361816302809217, 45.532323392529044 ], [ -73.355491137521824, 45.529634077183168 ], [ -73.355642537180387, 45.524439437490308 ], [ -73.362117924892885, 45.521934080004435 ] ] ] } },
{ "type": "Feature", "properties": { "hex_id": 594676, "centroid_lon": -73.355339696509674, "centroid_lat": 45.534828711737944, "occurrences_today": 3, "datetimes_today": "2026-08-27 00:01:43, 2026-08-27 00:16:48, 2026-08-27 00:31:50", "cumulative_total": 470.0 }, "geometry": { "type": "Polygon", "coordinates": [ [ [ -73.355491137521824, 45.529634077183168 ], [ -73.361816302809217, 45.532323392529044 ], [ -73.361665429974465, 45.537518041088717 ], [ -73.355188214130081, 45.540023341154523 ], [ -73.348862522039695, 45.53733365450627 ], [ -73.349014572582789, 45.532139039159127 ], [ -73.355491137521824, 45.529634077183168 ] ] ] } },
{ "type": "Feature", "properties": { "hex_id": 376736, "centroid_lon": -75.643127971579688, "centroid_lat": 45.677375419917681, "occurrences_today": 2, "datetimes_today": "2026-08-27 00:01:43, 2026-08-27 00:16:48", "cumulative_total": 359.0 }, "geometry": { "type": "Polygon", "coordinates": [ [ [ -75.643068450243533, 45.672179099367419 ], [ -75.649517542348349, 45.674740943956436 ], [ -75.649577665945344, 45.679937255557377 ], [ -75.643187509208474, 45.682571735660211 ], [ -75.636737798547429, 45.680009540489188 ], [ -75.636678863184969, 45.674813215862351 ], [ -75.643068450243533, 45.672179099367419 ] ] ] } },
{ "type": "Feature", "properties": { "hex_id": 377346, "centroid_lon": -75.636619943949867, "centroid_lat": 45.669616886428962, "occurrences_today": 2, "datetimes_today": "2026-08-27 00:01:43, 2026-08-27 00:16:48", "cumulative_total": 346.0 }, "geometry": { "type": "Polygon", "coordinates": [ [ [ -75.636561040836668, 45.664420552189043 ], [ -75.643008945194538, 45.666982774009419 ], [ -75.643068450243533, 45.672179099367419 ], [ -75.636678863184969, 45.674813215862351 ], [ -75.630230340766673, 45.672250643488013 ], [ -75.630172023472809, 45.667054305237677 ], [ -75.636561040836668, 45.664420552189043 ] ] ] } },
{ "type": "Feature", "properties": { "hex_id": 377957, "centroid_lon": -75.630288674022637, "centroid_lat": 45.677446976932998, "occurrences_today": 2, "datetimes_today": "2026-08-27 00:01:43, 2026-08-27 00:16:48", "cumulative_total": 290.0 }, "geometry": { "type": "Polygon", "coordinates": [ [ [ -75.630230340766673, 45.672250643488013 ], [ -75.636678863184969, 45.674813215862351 ], [ -75.636737798547429, 45.680009540489188 ], [ -75.630347023246102, 45.682643305572604 ], [ -75.623897882751123, 45.680080382480952 ], [ -75.62384013563954, 45.674884045088199 ], [ -75.630230340766673, 45.672250643488013 ] ] ] } },
{ "type": "Feature", "properties": { "hex_id": 378567, "centroid_lon": -75.623782404330186, "centroid_lat": 45.669687702891245, "occurrences_today": 2, "datetimes_today": "2026-08-27 00:01:43, 2026-08-27 00:16:48", "cumulative_total": 355.0 }, "geometry": { "type": "Polygon", "coordinates": [ [ [ -75.623724688817759, 45.664491355890107 ], [ -75.630172023472809, 45.667054305237677 ], [ -75.630230340766673, 45.672250643488013 ], [ -75.62384013563954, 45.674884045088199 ], [ -75.617392183403481, 45.672320745051451 ], [ -75.617335053880893, 45.66712439416866 ], [ -75.623724688817759, 45.664491355890107 ] ] ] } },
{ "type": "Feature", "properties": { "hex_id": 379178, "centroid_lon": -75.617449328563126, "centroid_lat": 45.677517091131172, "occurrences_today": 2, "datetimes_today": "2026-08-27 00:01:43, 2026-08-27 00:16:48", "cumulative_total": 290.0 }, "geometry": { "type": "Polygon", "coordinates": [ [ [ -75.617392183403481, 45.672320745051451 ], [ -75.62384013563954, 45.674884045088199 ], [ -75.623897882751123, 45.680080382480952 ], [ -75.617506489365098, 45.682713432407866 ], [ -75.611057919532115, 45.680149781518566 ], [ -75.611001360687368, 45.674953431619898 ], [ -75.617392183403481, 45.672320745051451 ] ] ] } },
{ "type": "Feature", "properties": { "hex_id": 554993, "centroid_lon": -73.77164480502752, "centroid_lat": 45.532269735743192, "occurrences_today": 3, "datetimes_today": "2026-08-27 00:01:43, 2026-08-27 00:16:48, 2026-08-27 00:31:50", "cumulative_total": 472.0 }, "geometry": { "type": "Polygon", "coordinates": [ [ [ -73.771757909234779, 45.527074150811643 ], [ -73.778103115504265, 45.529740610165533 ], [ -73.777990585056642, 45.534936204987119 ], [ -73.771531669920151, 45.537465315708886 ], [ -73.765185920796313, 45.534798488962004 ], [ -73.765299629652944, 45.529602918950921 ], [ -73.771757909234779, 45.527074150811643 ] ] ] } },
{ "type": "Feature", "properties": { "hex_id": 570874, "centroid_lon": -73.602107415928231, "centroid_lat": 45.655042619755584, "occurrences_today": 1, "datetimes_today": "2026-08-27 00:31:50", "cumulative_total": 280.0 }, "geometry": { "type": "Polygon", "coordinates": [ [ [ -73.602236679817665, 45.649847499873701 ], [ -73.608587345474163, 45.65252338919241 ], [ -73.608458656770097, 45.657718520673015 ], [ -73.601978116673635, 45.660237734606781 ], [ -73.595626911202899, 45.657561474744057 ], [ -73.595756785630954, 45.652366371556404 ], [ -73.602236679817665, 45.649847499873701 ] ] ] } },
{ "type": "Feature", "properties": { "hex_id": 572707, "centroid_lon": -73.582270673076479, "centroid_lat": 45.678183236173538, "occurrences_today": 2, "datetimes_today": "2026-08-27 00:01:43, 2026-08-27 00:16:48", "cumulative_total": 403.0 }, "geometry": { "type": "Polygon", "coordinates": [ [ [ -73.58240187669449, 45.672988181693007 ], [ -73.588754161686026, 45.675665183124089 ], [ -73.588623533685947, 45.680860249405605 ], [ -73.582139433552783, 45.683378285615163 ], [ -73.575786608855083, 45.68070091315969 ], [ -73.575918423984589, 45.675505875583923 ], [ -73.58240187669449, 45.672988181693007 ] ] ] } },
{ "type": "Feature", "properties": { "hex_id": 573317, "centroid_lon": -73.576050203052219, "centroid_lat": 45.670310832966663, "occurrences_today": 2, "datetimes_today": "2026-08-27 00:01:43, 2026-08-27 00:16:48", "cumulative_total": 395.0 }, "geometry": { "type": "Polygon", "coordinates": [ [ [ -73.576181946070093, 45.665115785307989 ], [ -73.582533044418895, 45.66779312217367 ], [ -73.58240187669449, 45.672988181693007 ], [ -73.575918423984589, 45.675505875583923 ], [ -73.569566786398141, 45.672828167736085 ], [ -73.56969914074709, 45.667633137044369 ], [ -73.576181946070093, 45.665115785307989 ] ] ] } },
{ "type": "Feature", "properties": { "hex_id": 567203, "centroid_lon": -73.643608850315275, "centroid_lat": 45.530820961775362, "occurrences_today": 1, "datetimes_today": "2026-08-27 00:31:50", "cumulative_total": 274.0 }, "geometry": { "type": "Polygon", "coordinates": [ [ [ -73.643733735394378, 45.525625637843696 ], [ -73.65007256529249, 45.528299139630697 ], [ -73.649948252201725, 45.533494474720356 ], [ -73.643483931119832, 45.536016280693502 ], [ -73.637144563355434, 45.533342410329247 ], [ -73.637270054527747, 45.52814710263366 ], [ -73.643733735394378, 45.525625637843696 ] ] ] } },
{ "type": "Feature", "properties": { "hex_id": 41661, "centroid_lon": -79.269298741820066, "centroid_lat": 46.994661778283273, "occurrences_today": 3, "datetimes_today": "2026-08-27 00:01:43, 2026-08-27 00:16:48, 2026-08-27 00:31:50", "cumulative_total": 106.0 }, "geometry": { "type": "Polygon", "coordinates": [ [ [ -79.26888540930868, 46.989480768367422 ], [ -79.275649508140106, 46.99182615944725 ], [ -79.276063528292326, 46.997007121471405 ], [ -79.269712189103345, 46.999842780702778 ], [ -79.262947287839253, 46.997497064763159 ], [ -79.262534528236742, 46.992316014518757 ], [ -79.26888540930868, 46.989480768367422 ] ] ] } },
{ "type": "Feature", "properties": { "hex_id": 41662, "centroid_lon": -79.27053942814527, "centroid_lat": 47.01020476304879, "occurrences_today": 3, "datetimes_today": "2026-08-27 00:01:43, 2026-08-27 00:16:48, 2026-08-27 00:31:50", "cumulative_total": 106.0 }, "geometry": { "type": "Polygon", "coordinates": [ [ [ -79.270125751198435, 47.005023775624942 ], [ -79.276891913533248, 47.00736902300283 ], [ -79.277306278701957, 47.012549962508153 ], [ -79.270953219983824, 47.015385742973365 ], [ -79.264186254515437, 47.013040170562014 ], [ -79.263773150938718, 47.007859142785755 ], [ -79.270125751198435, 47.005023775624942 ] ] ] } },
{ "type": "Feature", "properties": { "hex_id": 41663, "centroid_lon": -79.271781148496004, "centroid_lat": 47.025747680320798, "occurrences_today": 3, "datetimes_today": "2026-08-27 00:01:43, 2026-08-27 00:16:48, 2026-08-27 00:31:50", "cumulative_total": 106.0 }, "geometry": { "type": "Polygon", "coordinates": [ [ [ -79.271367126754058, 47.020566715397692 ], [ -79.278135354335973, 47.022911818993137 ], [ -79.278550064881415, 47.02809273597083 ], [ -79.272195285249651, 47.030928637741674 ], [ -79.265426253832516, 47.028583208939011 ], [ -79.265012805922382, 47.023402203639634 ], [ -79.271367126754058, 47.020566715397692 ] ] ] } },
{ "type": "Feature", "properties": { "hex_id": 42270, "centroid_lon": -79.260884635211767, "centroid_lat": 46.971591738676409, "occurrences_today": 3, "datetimes_today": "2026-08-27 00:01:43, 2026-08-27 00:16:48, 2026-08-27 00:31:50", "cumulative_total": 106.0 }, "geometry": { "type": "Polygon", "coordinates": [ [ [ -79.260472448102774, 46.966410651004473 ], [ -79.267233226184231, 46.968756653759776 ], [ -79.267646100006914, 46.973937693651372 ], [ -79.261296936739868, 46.976772818864767 ], [ -79.254535357505731, 46.974426491424225 ], [ -79.254123742731082, 46.96924536352229 ], [ -79.260472448102774, 46.966410651004473 ] ] ] } },
{ "type": "Feature", "properties": { "hex_id": 42271, "centroid_lon": -79.262121883212558, "centroid_lat": 46.987134956786896, "occurrences_today": 3, "datetimes_today": "2026-08-27 00:01:43, 2026-08-27 00:16:48, 2026-08-27 00:31:50", "cumulative_total": 106.0 }, "geometry": { "type": "Polygon", "coordinates": [ [ [ -79.261709352726868, 46.981953891568587 ], [ -79.268472191529284, 46.984299750956168 ], [ -79.26888540930868, 46.989480768367422 ], [ -79.262534528236742, 46.992316014518757 ], [ -79.255770887582187, 46.989969830272322 ], [ -79.255358929891543, 46.984788724800197 ], [ -79.261709352726868, 46.981953891568587 ] ] ] } },
{ "type": "Feature", "properties": { "hex_id": 42272, "centroid_lon": -79.263360162059953, "centroid_lat": 47.002678107519152, "occurrences_today": 3, "datetimes_today": "2026-08-27 00:01:43, 2026-08-27 00:16:48, 2026-08-27 00:31:50", "cumulative_total": 106.0 }, "geometry": { "type": "Polygon", "coordinates": [ [ [ -79.262947287839253, 46.997497064763159 ], [ -79.269712189103345, 46.999842780702778 ], [ -79.270125751198435, 47.005023775624942 ], [ -79.263773150938718, 47.007859142785755 ], [ -79.257007447122234, 47.005513101813555 ], [ -79.256595146157736, 47.000332018779957 ], [ -79.262947287839253, 46.997497064763159 ] ] ] } },
{ "type": "Feature", "properties": { "hex_id": 42273, "centroid_lon": -79.264599472830014, "centroid_lat": 47.018221190846958, "occurrences_today": 3, "datetimes_today": "2026-08-27 00:01:43, 2026-08-27 00:16:48, 2026-08-27 00:31:50", "cumulative_total": 106.0 }, "geometry": { "type": "Polygon", "coordinates": [ [ [ -79.264186254515437, 47.013040170562014 ], [ -79.270953219983824, 47.015385742973365 ], [ -79.271367126754058, 47.020566715397692 ], [ -79.265012805922382, 47.023402203639634 ], [ -79.258245037200567, 47.021056306021904 ], [ -79.257832392603802, 47.015875245435502 ], [ -79.264186254515437, 47.013040170562014 ] ] ] } },
{ "type": "Feature", "properties": { "hex_id": 42274, "centroid_lon": -79.265839816600348, "centroid_lat": 47.033764206744181, "occurrences_today": 3, "datetimes_today": "2026-08-27 00:01:43, 2026-08-27 00:16:48, 2026-08-27 00:31:50", "cumulative_total": 111.0 }, "geometry": { "type": "Polygon", "coordinates": [ [ [ -79.265426253832516, 47.028583208939011 ], [ -79.272195285249651, 47.030928637741674 ], [ -79.272609537055061, 47.036109587659411 ], [ -79.266253494265882, 47.038945197054147 ], [ -79.259483658893458, 47.036599442871257 ], [ -79.259070670305491, 47.031418404740748 ], [ -79.265426253832516, 47.028583208939011 ] ] ] } },
{ "type": "Feature", "properties": { "hex_id": 42880, "centroid_lon": -79.253712242182303, "centroid_lat": 46.964064228145666, "occurrences_today": 3, "datetimes_today": "2026-08-27 00:01:43, 2026-08-27 00:16:48, 2026-08-27 00:31:50", "cumulative_total": 106.0 }, "geometry": { "type": "Polygon", "coordinates": [ [ [ -79.253300855819745, 46.958883085295348 ], [ -79.260060375373143, 46.96122955584994 ], [ -79.260472448102774, 46.966410651004473 ], [ -79.254123742731082, 46.96924536352229 ], [ -79.247363422604579, 46.966898568283426 ], [ -79.24695260846255, 46.961717385277758 ], [ -79.253300855819745, 46.958883085295348 ] ] ] } },
{ "type": "Feature", "properties": { "hex_id": 42881, "centroid_lon": -79.254947086545968, "centroid_lat": 46.979607611850504, "occurrences_today": 3, "datetimes_today": "2026-08-27 00:01:43, 2026-08-27 00:16:48, 2026-08-27 00:31:50", "cumulative_total": 123.0 }, "geometry": { "type": "Polygon", "coordinates": [ [ [ -79.254535357505731, 46.974426491424225 ], [ -79.261296936739868, 46.976772818864767 ], [ -79.261709352726868, 46.981953891568587 ], [ -79.255358929891543, 46.984788724800197 ], [ -79.248596549385468, 46.982442072501726 ], [ -79.24818539302639, 46.977260911896373 ], [ -79.254535357505731, 46.974426491424225 ] ] ] } },
{ "type": "Feature", "properties": { "hex_id": 42882, "centroid_lon": -79.25618295965765, "centroid_lat": 46.995150928265872, "occurrences_today": 3, "datetimes_today": "2026-08-27 00:01:43, 2026-08-27 00:16:48, 2026-08-27 00:31:50", "cumulative_total": 106.0 }, "geometry": { "type": "Polygon", "coordinates": [ [ [ -79.255770887582187, 46.989969830272322 ], [ -79.262534528236742, 46.992316014518757 ], [ -79.262947287839253, 46.997497064763159 ], [ -79.256595146157736, 47.000332018779957 ], [ -79.249830703531615, 46.997985509501873 ], [ -79.249419204598397, 46.992804371305454 ], [ -79.255770887582187, 46.989969830272322 ] ] ] } },
{ "type": "Feature", "properties": { "hex_id": 42883, "centroid_lon": -79.257419862590979, "centroid_lat": 47.010694177365735, "occurrences_today": 3, "datetimes_today": "2026-08-27 00:01:43, 2026-08-27 00:16:48, 2026-08-27 00:31:50", "cumulative_total": 106.0 }, "geometry": { "type": "Polygon", "coordinates": [ [ [ -79.257007447122234, 47.005513101813555 ], [ -79.263773150938718, 47.007859142785755 ], [ -79.264186254515437, 47.013040170562014 ], [ -79.257832392603802, 47.015875245435502 ], [ -79.251065886115342, 47.013528879257883 ], [ -79.250654044250339, 47.008347763479058 ], [ -79.257007447122234, 47.005513101813555 ] ] ] } },
{ "type": "Feature", "properties": { "hex_id": 42884, "centroid_lon": -79.258657796421176, "centroid_lat": 47.026237359123989, "occurrences_today": 3, "datetimes_today": "2026-08-27 00:01:43, 2026-08-27 00:16:48, 2026-08-27 00:31:50", "cumulative_total": 106.0 }, "geometry": { "type": "Polygon", "coordinates": [ [ [ -79.258245037200567, 47.021056306021904 ], [ -79.265012805922382, 47.023402203639634 ], [ -79.265426253832516, 47.028583208939011 ], [ -79.259070670305491, 47.031418404740748 ], [ -79.252302098210478, 47.029072181743722 ], [ -79.251889913055578, 47.023891088391174 ], [ -79.258245037200567, 47.021056306021904 ] ] ] } },
{ "type": "Feature", "properties": { "hex_id": 43491, "centroid_lon": -79.247774350779295, "centroid_lat": 46.972079743823272, "occurrences_today": 3, "datetimes_today": "2026-08-27 00:01:43, 2026-08-27 00:16:48, 2026-08-27 00:31:50", "cumulative_total": 123.0 }, "geometry": { "type": "Polygon", "coordinates": [ [ [ -79.247363422604579, 46.966898568283426 ], [ -79.254123742731082, 46.96924536352229 ], [ -79.254535357505731, 46.974426491424225 ], [ -79.24818539302639, 46.977260911896373 ], [ -79.24142427220778, 46.974913791800596 ], [ -79.241013916600281, 46.96973257615636 ], [ -79.247363422604579, 46.966898568283426 ] ] ] } },
{ "type": "Feature", "properties": { "hex_id": 43492, "centroid_lon": -79.249007819896235, "centroid_lat": 46.987623225638409, "occurrences_today": 3, "datetimes_today": "2026-08-27 00:01:43, 2026-08-27 00:16:48, 2026-08-27 00:31:50", "cumulative_total": 106.0 }, "geometry": { "type": "Polygon", "coordinates": [ [ [ -79.248596549385468, 46.982442072501726 ], [ -79.255358929891543, 46.984788724800197 ], [ -79.255770887582187, 46.989969830272322 ], [ -79.249419204598397, 46.992804371305454 ], [ -79.242656022701212, 46.990457393976364 ], [ -79.242245325218633, 46.985276200711553 ], [ -79.248596549385468, 46.982442072501726 ] ] ] } },
{ "type": "Feature", "properties": { "hex_id": 43493, "centroid_lon": -79.250242316735694, "centroid_lat": 47.003166640226745, "occurrences_today": 3, "datetimes_today": "2026-08-27 00:01:43, 2026-08-27 00:16:48, 2026-08-27 00:31:50", "cumulative_total": 106.0 }, "geometry": { "type": "Polygon", "coordinates": [ [ [ -79.249830703531615, 46.997985509501873 ], [ -79.256595146157736, 47.000332018779957 ], [ -79.257007447122234, 47.005513101813555 ], [ -79.250654044250339, 47.008347763479058 ], [ -79.243888799533337, 47.006000928996528 ], [ -79.243477759818887, 47.000819758119803 ], [ -79.249830703531615, 46.997985509501873 ] ] ] } },
{ "type": "Feature", "properties": { "hex_id": 43494, "centroid_lon": -79.251477842370491, "centroid_lat": 47.018709987562239, "occurrences_today": 3, "datetimes_today": "2026-08-27 00:01:43, 2026-08-27 00:16:48, 2026-08-27 00:31:50", "cumulative_total": 106.0 }, "geometry": { "type": "Polygon", "coordinates": [ [ [ -79.251065886115342, 47.013528879257883 ], [ -79.257832392603802, 47.015875245435502 ], [ -79.258245037200567, 47.021056306021904 ], [ -79.251889913055578, 47.023891088391174 ], [ -79.245122603775627, 47.021544396835196 ], [ -79.244711221471974, 47.016363248355184 ], [ -79.251065886115342, 47.013528879257883 ] ] ] } },
{ "type": "Feature", "properties": { "hex_id": 44102, "centroid_lon": -79.241834741734039, "centroid_lat": 46.980094999985987, "occurrences_today": 3, "datetimes_today": "2026-08-27 00:01:43, 2026-08-27 00:16:48, 2026-08-27 00:31:50", "cumulative_total": 106.0 }, "geometry": { "type": "Polygon", "coordinates": [ [ [ -79.24142427220778, 46.974913791800596 ], [ -79.24818539302639, 46.977260911896373 ], [ -79.248596549385468, 46.982442072501726 ], [ -79.242245325218633, 46.985276200711553 ], [ -79.235483403589043, 46.982928755586229 ], [ -79.235073506976889, 46.977747507347431 ], [ -79.24142427220778, 46.974913791800596 ] ] ] } },
{ "type": "Feature", "properties": { "hex_id": 44103, "centroid_lon": -79.243066834221395, "centroid_lat": 46.995638579779417, "occurrences_today": 3, "datetimes_today": "2026-08-27 00:01:43, 2026-08-27 00:16:48, 2026-08-27 00:31:50", "cumulative_total": 106.0 }, "geometry": { "type": "Polygon", "coordinates": [ [ [ -79.242656022701212, 46.990457393976364 ], [ -79.249419204598397, 46.992804371305454 ], [ -79.249830703531615, 46.997985509501873 ], [ -79.243477759818887, 47.000819758119803 ], [ -79.236713776411534, 46.998472455587311 ], [ -79.236303538266782, 46.993291229707118 ], [ -79.242656022701212, 46.990457393976364 ] ] ] } },
{ "type": "Feature", "properties": { "hex_id": 44104, "centroid_lon": -79.24429995340445, "centroid_lat": 47.011182092408639, "occurrences_today": 3, "datetimes_today": "2026-08-27 00:01:43, 2026-08-27 00:16:48, 2026-08-27 00:31:50", "cumulative_total": 106.0 }, "geometry": { "type": "Polygon", "coordinates": [ [ [ -79.243888799533337, 47.006000928996528 ], [ -79.250654044250339, 47.008347763479058 ], [ -79.251065886115342, 47.013528879257883 ], [ -79.244711221471974, 47.016363248355184 ], [ -79.237945174544834, 47.014016088495353 ], [ -79.237534594510919, 47.008834884982399 ], [ -79.243888799533337, 47.006000928996528 ] ] ] } },
{ "type": "Feature", "properties": { "hex_id": 44713, "centroid_lon": -79.235893414005801, "centroid_lat": 46.988109996373105, "occurrences_today": 3, "datetimes_today": "2026-08-27 00:01:43, 2026-08-27 00:16:48, 2026-08-27 00:31:50", "cumulative_total": 120.0 }, "geometry": { "type": "Polygon", "coordinates": [ [ [ -79.235483403589043, 46.982928755586229 ], [ -79.242245325218633, 46.985276200711553 ], [ -79.242656022701212, 46.990457393976364 ], [ -79.236303538266782, 46.993291229707118 ], [ -79.229540815707395, 46.990943459379508 ], [ -79.229131378551813, 46.985762178590221 ], [ -79.235483403589043, 46.982928755586229 ] ] ] } },
{ "type": "Feature", "properties": { "hex_id": 44714, "centroid_lon": -79.237124128479707, "centroid_lat": 47.003653674012732, "occurrences_today": 3, "datetimes_today": "2026-08-27 00:01:43, 2026-08-27 00:16:48, 2026-08-27 00:31:50", "cumulative_total": 106.0 }, "geometry": { "type": "Polygon", "coordinates": [ [ [ -79.236713776411534, 46.998472455587311 ], [ -79.243477759818887, 47.000819758119803 ], [ -79.243888799533337, 47.006000928996528 ], [ -79.237534594510919, 47.008834884982399 ], [ -79.230769809474424, 47.006487257073665 ], [ -79.230360031129138, 47.001305998622186 ], [ -79.236713776411534, 46.998472455587311 ] ] ] } },
{ "type": "Feature", "properties": { "hex_id": 45323, "centroid_lon": -79.228722055047058, "centroid_lat": 46.980580890356912, "occurrences_today": 3, "datetimes_today": "2026-08-27 00:01:43, 2026-08-27 00:16:48, 2026-08-27 00:31:50", "cumulative_total": 106.0 }, "geometry": { "type": "Polygon", "coordinates": [ [ [ -79.228312845153624, 46.975399594680539 ], [ -79.235073506976889, 46.977747507347431 ], [ -79.235483403589043, 46.982928755586229 ], [ -79.229131378551813, 46.985762178590221 ], [ -79.222369916378767, 46.983413940722208 ], [ -79.221961279632225, 46.97823260511813 ], [ -79.228312845153624, 46.975399594680539 ] ] ] } },
{ "type": "Feature", "properties": { "hex_id": 45324, "centroid_lon": -79.229950366553311, "centroid_lat": 46.996124732723807, "occurrences_today": 3, "datetimes_today": "2026-08-27 00:01:43, 2026-08-27 00:16:48, 2026-08-27 00:31:50", "cumulative_total": 106.0 }, "geometry": { "type": "Polygon", "coordinates": [ [ [ -79.229540815707395, 46.990943459379508 ], [ -79.236303538266782, 46.993291229707118 ], [ -79.236713776411534, 46.998472455587311 ], [ -79.230360031129138, 47.001305998622186 ], [ -79.223596507521236, 46.998957902919493 ], [ -79.223187530283809, 46.993776589623849 ], [ -79.229540815707395, 46.990943459379508 ] ] ] } },
{ "type": "Feature", "properties": { "hex_id": 622143, "centroid_lon": -73.070250315585241, "centroid_lat": 45.444618688634229, "occurrences_today": 3, "datetimes_today": "2026-08-27 00:01:43, 2026-08-27 00:16:48, 2026-08-27 00:31:50", "cumulative_total": 98.0 }, "geometry": { "type": "Polygon", "coordinates": [ [ [ -73.07042744085453, 45.439424779403787 ], [ -73.076728565088018, 45.442129539762824 ], [ -73.076552001370274, 45.447323465769585 ], [ -73.070073141992552, 45.449812592581061 ], [ -73.063771504538991, 45.447107459470168 ], [ -73.063949239667053, 45.44191357236388 ], [ -73.07042744085453, 45.439424779403787 ] ] ] } },
{ "type": "Feature", "properties": { "hex_id": 593455, "centroid_lon": -73.368142077480812, "centroid_lat": 45.535012364609294, "occurrences_today": 3, "datetimes_today": "2026-08-27 00:01:43, 2026-08-27 00:16:48, 2026-08-27 00:31:50", "cumulative_total": 168.0 }, "geometry": { "type": "Polygon", "coordinates": [ [ [ -73.368292340924469, 45.529817696974085 ], [ -73.374618156635321, 45.532506311810792 ], [ -73.374468461550421, 45.53770099332484 ], [ -73.367991772991033, 45.540207027112338 ], [ -73.361665429974465, 45.537518041088717 ], [ -73.361816302809217, 45.532323392529044 ], [ -73.368292340924469, 45.529817696974085 ] ] ] } },
{ "type": "Feature", "properties": { "hex_id": 594066, "centroid_lon": -73.36151451592599, "centroid_lat": 45.542712684513177, "occurrences_today": 3, "datetimes_today": "2026-08-27 00:01:43, 2026-08-27 00:16:48, 2026-08-27 00:31:50", "cumulative_total": 236.0 }, "geometry": { "type": "Polygon", "coordinates": [ [ [ -73.361665429974465, 45.537518041088717 ], [ -73.367991772991033, 45.540207027112338 ], [ -73.367841427441306, 45.545401684483117 ], [ -73.361363560649949, 45.547907322802281 ], [ -73.355036690369118, 45.545217965432769 ], [ -73.355188214130081, 45.540023341154523 ], [ -73.361665429974465, 45.537518041088717 ] ] ] } },
{ "type": "Feature", "properties": { "hex_id": 556203, "centroid_lon": -73.762595674380833, "centroid_lat": 45.36067521086288, "occurrences_today": 3, "datetimes_today": "2026-08-27 00:01:43, 2026-08-27 00:16:48, 2026-08-27 00:31:50", "cumulative_total": 312.0 }, "geometry": { "type": "Polygon", "coordinates": [ [ [ -73.76270893235197, 45.355479486878174 ], [ -73.769034661808362, 45.358146321819689 ], [ -73.768921972313422, 45.363342055747474 ], [ -73.762482385531186, 45.365870929879186 ], [ -73.756156118482266, 45.363203729624679 ], [ -73.756269975797807, 45.358008020615635 ], [ -73.76270893235197, 45.355479486878174 ] ] ] } },
{ "type": "Feature", "properties": { "hex_id": 575747, "centroid_lon": -73.555186573608097, "centroid_lat": 45.482965147357099, "occurrences_today": 3, "datetimes_today": "2026-08-27 00:01:43, 2026-08-27 00:16:48, 2026-08-27 00:31:50", "cumulative_total": 173.0 }, "geometry": { "type": "Polygon", "coordinates": [ [ [ -73.5553193765207, 45.477769976050325 ], [ -73.561648585573295, 45.480448290693793 ], [ -73.561516352010528, 45.485643474020932 ], [ -73.555053734438417, 45.488160313614948 ], [ -73.548723992299131, 45.485481630175762 ], [ -73.548857400806483, 45.480286476002711 ], [ -73.5553193765207, 45.477769976050325 ] ] ] } },
{ "type": "Feature", "properties": { "hex_id": 565987, "centroid_lon": -73.654552332278186, "centroid_lat": 45.608901962025158, "occurrences_today": 3, "datetimes_today": "2026-08-27 00:01:43, 2026-08-27 00:16:48, 2026-08-27 00:31:50", "cumulative_total": 136.0 }, "geometry": { "type": "Polygon", "coordinates": [ [ [ -73.654676547535146, 45.603706685967445 ], [ -73.661024615971087, 45.606379649883372 ], [ -73.660900975212698, 45.611574937009038 ], [ -73.654428083055663, 45.614097233073203 ], [ -73.648079474092441, 45.611423899691474 ], [ -73.648204297802124, 45.606228639776113 ], [ -73.654676547535146, 45.603706685967445 ] ] ] } },
{ "type": "Feature", "properties": { "hex_id": 576357, "centroid_lon": -73.548990772902656, "centroid_lat": 45.475091316778126, "occurrences_today": 3, "datetimes_today": "2026-08-27 00:01:43, 2026-08-27 00:16:48, 2026-08-27 00:31:50", "cumulative_total": 14.0 }, "geometry": { "type": "Polygon", "coordinates": [ [ [ -73.549124108599827, 45.469896152502095 ], [ -73.55545214318839, 45.472574799694726 ], [ -73.5553193765207, 45.477769976050325 ], [ -73.548857400806483, 45.480286476002711 ], [ -73.542528833593522, 45.47760746005649 ], [ -73.542662774706969, 45.472412312975884 ], [ -73.549124108599827, 45.469896152502095 ] ] ] } },
{ "type": "Feature", "properties": { "hex_id": 592845, "centroid_lon": -73.374318725573161, "centroid_lat": 45.542895669709687, "occurrences_today": 3, "datetimes_today": "2026-08-27 00:01:43, 2026-08-27 00:16:48, 2026-08-27 00:31:50", "cumulative_total": 100.0 }, "geometry": { "type": "Polygon", "coordinates": [ [ [ -73.374468461550421, 45.53770099332484 ], [ -73.380795455031773, 45.540389278576576 ], [ -73.380646287734649, 45.545583968781642 ], [ -73.374168948689828, 45.548090340965196 ], [ -73.367841427441306, 45.545401684483117 ], [ -73.367991772991033, 45.540207027112338 ], [ -73.374468461550421, 45.53770099332484 ] ] ] } },
{ "type": "Feature", "properties": { "hex_id": 647189, "centroid_lon": -72.798880754728884, "centroid_lat": 45.681361920792682, "occurrences_today": 1, "datetimes_today": "2026-08-27 00:01:43", "cumulative_total": 13.0 }, "geometry": { "type": "Polygon", "coordinates": [ [ [ -72.79908445049071, 45.676169116080587 ], [ -72.805398086940741, 45.678888995826675 ], [ -72.805194955965376, 45.684081820053976 ], [ -72.798677003244819, 45.686554720055462 ], [ -72.792362857739917, 45.683834462095483 ], [ -72.792567173991714, 45.678641682412589 ], [ -72.79908445049071, 45.676169116080587 ] ] ] } },
{ "type": "Feature", "properties": { "hex_id": 172405, "centroid_lon": -77.94842829292611, "centroid_lat": 48.548200907158673, "occurrences_today": 3, "datetimes_today": "2026-08-27 00:01:43, 2026-08-27 00:16:48, 2026-08-27 00:31:50", "cumulative_total": 43.0 }, "geometry": { "type": "Polygon", "coordinates": [ [ [ -77.948126737711263, 48.543013757786284 ], [ -77.955043051258528, 48.545433733563449 ], [ -77.955345338987968, 48.550620848416379 ], [ -77.948729933903962, 48.55338805042944 ], [ -77.941812802063509, 48.550967713520272 ], [ -77.941511893631414, 48.545780535801697 ], [ -77.948126737711263, 48.543013757786284 ] ] ] } },
{ "type": "Feature", "properties": { "hex_id": 171795, "centroid_lon": -77.955647712691388, "centroid_lat": 48.555807957161058, "occurrences_today": 3, "datetimes_today": "2026-08-27 00:01:43, 2026-08-27 00:16:48, 2026-08-27 00:31:50", "cumulative_total": 22.0 }, "geometry": { "type": "Polygon", "coordinates": [ [ [ -77.955345338987968, 48.550620848416379 ], [ -77.962263031785781, 48.553040359471673 ], [ -77.962566138394536, 48.558227433611982 ], [ -77.955950172400065, 48.560995059797094 ], [ -77.949031660676027, 48.558575187598123 ], [ -77.948729933903962, 48.55338805042944 ], [ -77.955345338987968, 48.550620848416379 ] ] ] } },
{ "type": "Feature", "properties": { "hex_id": 701571, "centroid_lon": -72.190797172914984, "centroid_lat": 46.408525991625169, "occurrences_today": 3, "datetimes_today": "2026-08-27 00:01:43, 2026-08-27 00:16:48, 2026-08-27 00:31:50", "cumulative_total": 48.0 }, "geometry": { "type": "Polygon", "coordinates": [ [ [ -72.191063777028603, 46.403336263966338 ], [ -72.19742766942322, 46.406090660495124 ], [ -72.197161643279003, 46.411280413940588 ], [ -72.19053049523211, 46.41371571336952 ], [ -72.184166098449978, 46.410960923769274 ], [ -72.184433354077015, 46.405771227877722 ], [ -72.191063777028603, 46.403336263966338 ] ] ] } }
]
}
