{
"type": "FeatureCollection",
"name": "daily_2026-04-02",
"crs": { "type": "name", "properties": { "name": "urn:ogc:def:crs:OGC:1.3:CRS84" } },
"features": [
{ "type": "Feature", "properties": { "hex_id": 752776, "centroid_lon": -71.716442646444165, "centroid_lat": 45.195424563794845, "occurrences_today": 15, "datetimes_today": "2026-04-02 00:01:28, 2026-04-02 00:16:42, 2026-04-02 00:31:47, 2026-04-02 00:46:31, 2026-04-02 01:01:32, 2026-04-02 01:16:49, 2026-04-02 01:31:51, 2026-04-02 01:46:21, 2026-04-02 02:01:31, 2026-04-02 02:16:44, 2026-04-02 02:31:54, 2026-04-02 02:46:21, 2026-04-02 03:01:24, 2026-04-02 03:16:24, 2026-04-02 03:31:24", "cumulative_total": 45.0 }, "geometry": { "type": "Polygon", "coordinates": [ [ [ -71.716741320785431, 45.190236020463075 ], [ -71.722946890949004, 45.193013009861211 ], [ -71.722648751655939, 45.19820158292557 ], [ -71.716143890945887, 45.200613100843313 ], [ -71.709937866904596, 45.197835730198967 ], [ -71.710237157424118, 45.192647222946277 ], [ -71.716741320785431, 45.190236020463075 ] ] ] } },
{ "type": "Feature", "properties": { "hex_id": 753386, "centroid_lon": -71.710536366644448, "centroid_lat": 45.187458709404616, "occurrences_today": 15, "datetimes_today": "2026-04-02 00:01:28, 2026-04-02 00:16:42, 2026-04-02 00:31:47, 2026-04-02 00:46:31, 2026-04-02 01:01:32, 2026-04-02 01:16:49, 2026-04-02 01:31:51, 2026-04-02 01:46:21, 2026-04-02 02:01:31, 2026-04-02 02:16:44, 2026-04-02 02:31:54, 2026-04-02 02:46:21, 2026-04-02 03:01:24, 2026-04-02 03:16:24, 2026-04-02 03:31:24", "cumulative_total": 45.0 }, "geometry": { "type": "Polygon", "coordinates": [ [ [ -71.710835494592573, 45.182270189574517 ], [ -71.717039913996643, 45.185047470848524 ], [ -71.716741320785431, 45.190236020463075 ], [ -71.710237157424118, 45.192647222946277 ], [ -71.704032284568825, 45.189869560479394 ], [ -71.704332028499095, 45.184681076785324 ], [ -71.710835494592573, 45.182270189574517 ] ] ] } },
{ "type": "Feature", "properties": { "hex_id": 753996, "centroid_lon": -71.704631691015052, "centroid_lat": 45.179492586797181, "occurrences_today": 15, "datetimes_today": "2026-04-02 00:01:28, 2026-04-02 00:16:42, 2026-04-02 00:31:47, 2026-04-02 00:46:31, 2026-04-02 01:01:32, 2026-04-02 01:16:49, 2026-04-02 01:31:51, 2026-04-02 01:46:21, 2026-04-02 02:01:31, 2026-04-02 02:16:44, 2026-04-02 02:31:54, 2026-04-02 02:46:21, 2026-04-02 03:01:24, 2026-04-02 03:16:24, 2026-04-02 03:31:24", "cumulative_total": 45.0 }, "geometry": { "type": "Polygon", "coordinates": [ [ [ -71.704931272143753, 45.174304090515506 ], [ -71.711134541295465, 45.177081663456548 ], [ -71.710835494592573, 45.182270189574517 ], [ -71.704332028499095, 45.184681076785324 ], [ -71.698128306322346, 45.181903122704746 ], [ -71.69842850323711, 45.176714662616021 ], [ -71.704931272143753, 45.174304090515506 ] ] ] } },
{ "type": "Feature", "properties": { "hex_id": 753997, "centroid_lon": -71.703732459197241, "centroid_lat": 45.195058037878795, "occurrences_today": 15, "datetimes_today": "2026-04-02 00:01:28, 2026-04-02 00:16:42, 2026-04-02 00:31:47, 2026-04-02 00:46:31, 2026-04-02 01:01:32, 2026-04-02 01:16:49, 2026-04-02 01:31:51, 2026-04-02 01:46:21, 2026-04-02 02:01:31, 2026-04-02 02:16:44, 2026-04-02 02:31:54, 2026-04-02 02:46:21, 2026-04-02 03:01:24, 2026-04-02 03:16:24, 2026-04-02 03:31:24", "cumulative_total": 45.0 }, "geometry": { "type": "Polygon", "coordinates": [ [ [ -71.704032284568825, 45.189869560479394 ], [ -71.710237157424118, 45.192647222946277 ], [ -71.709937866904596, 45.197835730198967 ], [ -71.70343255235727, 45.200246508983035 ], [ -71.697227226131815, 45.197468465170161 ], [ -71.697527667796791, 45.19228002398237 ], [ -71.704032284568825, 45.189869560479394 ] ] ] } },
{ "type": "Feature", "properties": { "hex_id": 754606, "centroid_lon": -71.698728618622596, "centroid_lat": 45.171526196228101, "occurrences_today": 15, "datetimes_today": "2026-04-02 00:01:28, 2026-04-02 00:16:42, 2026-04-02 00:31:47, 2026-04-02 00:46:31, 2026-04-02 01:01:32, 2026-04-02 01:16:49, 2026-04-02 01:31:51, 2026-04-02 01:46:21, 2026-04-02 02:01:31, 2026-04-02 02:16:44, 2026-04-02 02:31:54, 2026-04-02 02:46:21, 2026-04-02 03:01:24, 2026-04-02 03:16:24, 2026-04-02 03:31:24", "cumulative_total": 45.0 }, "geometry": { "type": "Polygon", "coordinates": [ [ [ -71.699028652505888, 45.166337723541517 ], [ -71.705230771912198, 45.169115587940837 ], [ -71.704931272143753, 45.174304090515506 ], [ -71.69842850323711, 45.176714662616021 ], [ -71.692225931231661, 45.17393641713052 ], [ -71.692526580704978, 45.168747980693787 ], [ -71.699028652505888, 45.166337723541517 ] ] ] } },
{ "type": "Feature", "properties": { "hex_id": 754607, "centroid_lon": -71.697828027851273, "centroid_lat": 45.187091576493714, "occurrences_today": 15, "datetimes_today": "2026-04-02 00:01:28, 2026-04-02 00:16:42, 2026-04-02 00:31:47, 2026-04-02 00:46:31, 2026-04-02 01:01:32, 2026-04-02 01:16:49, 2026-04-02 01:31:51, 2026-04-02 01:46:21, 2026-04-02 02:01:31, 2026-04-02 02:16:44, 2026-04-02 02:31:54, 2026-04-02 02:46:21, 2026-04-02 03:01:24, 2026-04-02 03:16:24, 2026-04-02 03:31:24", "cumulative_total": 45.0 }, "geometry": { "type": "Polygon", "coordinates": [ [ [ -71.698128306322346, 45.181903122704746 ], [ -71.704332028499095, 45.184681076785324 ], [ -71.704032284568825, 45.189869560479394 ], [ -71.697527667796791, 45.19228002398237 ], [ -71.69132349267619, 45.189501688609226 ], [ -71.691624387244389, 45.18431327108879 ], [ -71.698128306322346, 45.181903122704746 ] ] ] } },
{ "type": "Feature", "properties": { "hex_id": 754608, "centroid_lon": -71.696926702829245, "centroid_lat": 45.202656900056553, "occurrences_today": 15, "datetimes_today": "2026-04-02 00:01:28, 2026-04-02 00:16:42, 2026-04-02 00:31:47, 2026-04-02 00:46:31, 2026-04-02 01:01:32, 2026-04-02 01:16:49, 2026-04-02 01:31:51, 2026-04-02 01:46:21, 2026-04-02 02:01:31, 2026-04-02 02:16:44, 2026-04-02 02:31:54, 2026-04-02 02:46:21, 2026-04-02 03:01:24, 2026-04-02 03:16:24, 2026-04-02 03:31:24", "cumulative_total": 45.0 }, "geometry": { "type": "Polygon", "coordinates": [ [ [ -71.697227226131815, 45.197468465170161 ], [ -71.70343255235727, 45.200246508983035 ], [ -71.703132564021885, 45.205434973791519 ], [ -71.696626097861952, 45.207845328640964 ], [ -71.690420318347606, 45.205066903329019 ], [ -71.690721458254956, 45.199878504729895 ], [ -71.697227226131815, 45.197468465170161 ] ] ] } },
{ "type": "Feature", "properties": { "hex_id": 755217, "centroid_lon": -71.691925200087184, "centroid_lat": 45.179124847262365, "occurrences_today": 15, "datetimes_today": "2026-04-02 00:01:28, 2026-04-02 00:16:42, 2026-04-02 00:31:47, 2026-04-02 00:46:31, 2026-04-02 01:01:32, 2026-04-02 01:16:49, 2026-04-02 01:31:51, 2026-04-02 01:46:21, 2026-04-02 02:01:31, 2026-04-02 02:16:44, 2026-04-02 02:31:54, 2026-04-02 02:46:21, 2026-04-02 03:01:24, 2026-04-02 03:16:24, 2026-04-02 03:31:24", "cumulative_total": 45.0 }, "geometry": { "type": "Polygon", "coordinates": [ [ [ -71.692225931231661, 45.17393641713052 ], [ -71.69842850323711, 45.176714662616021 ], [ -71.698128306322346, 45.181903122704746 ], [ -71.691624387244389, 45.18431327108879 ], [ -71.685421362721087, 45.181534644364135 ], [ -71.685722709766495, 45.176346250557714 ], [ -71.692225931231661, 45.17393641713052 ] ] ] } },
{ "type": "Feature", "properties": { "hex_id": 755218, "centroid_lon": -71.691022516355417, "centroid_lat": 45.194690099823099, "occurrences_today": 15, "datetimes_today": "2026-04-02 00:01:28, 2026-04-02 00:16:42, 2026-04-02 00:31:47, 2026-04-02 00:46:31, 2026-04-02 01:01:32, 2026-04-02 01:16:49, 2026-04-02 01:31:51, 2026-04-02 01:46:21, 2026-04-02 02:01:31, 2026-04-02 02:16:44, 2026-04-02 02:31:54, 2026-04-02 02:46:21, 2026-04-02 03:01:24, 2026-04-02 03:16:24, 2026-04-02 03:31:24", "cumulative_total": 45.0 }, "geometry": { "type": "Polygon", "coordinates": [ [ [ -71.69132349267619, 45.189501688609226 ], [ -71.697527667796791, 45.19228002398237 ], [ -71.697227226131815, 45.197468465170161 ], [ -71.690721458254956, 45.199878504729895 ], [ -71.684516830271846, 45.197099787911114 ], [ -71.684818423000948, 45.191911413041403 ], [ -71.69132349267619, 45.189501688609226 ] ] ] } },
{ "type": "Feature", "properties": { "hex_id": 755828, "centroid_lon": -71.685119933808309, "centroid_lat": 45.186723031858889, "occurrences_today": 15, "datetimes_today": "2026-04-02 00:01:28, 2026-04-02 00:16:42, 2026-04-02 00:31:47, 2026-04-02 00:46:31, 2026-04-02 01:01:32, 2026-04-02 01:16:49, 2026-04-02 01:31:51, 2026-04-02 01:46:21, 2026-04-02 02:01:31, 2026-04-02 02:16:44, 2026-04-02 02:31:54, 2026-04-02 02:46:21, 2026-04-02 03:01:24, 2026-04-02 03:16:24, 2026-04-02 03:31:24", "cumulative_total": 45.0 }, "geometry": { "type": "Polygon", "coordinates": [ [ [ -71.685421362721087, 45.181534644364135 ], [ -71.691624387244389, 45.18431327108879 ], [ -71.69132349267619, 45.189501688609226 ], [ -71.684818423000948, 45.191911413041403 ], [ -71.678614946041222, 45.189132404924628 ], [ -71.678916991165963, 45.183944053830928 ], [ -71.685421362721087, 45.181534644364135 ] ] ] } },
{ "type": "Feature", "properties": { "hex_id": 755829, "centroid_lon": -71.684215155593762, "centroid_lat": 45.202288156467496, "occurrences_today": 15, "datetimes_today": "2026-04-02 00:01:28, 2026-04-02 00:16:42, 2026-04-02 00:31:47, 2026-04-02 00:46:31, 2026-04-02 01:01:32, 2026-04-02 01:16:49, 2026-04-02 01:31:51, 2026-04-02 01:46:21, 2026-04-02 02:01:31, 2026-04-02 02:16:44, 2026-04-02 02:31:54, 2026-04-02 02:46:21, 2026-04-02 03:01:24, 2026-04-02 03:16:24, 2026-04-02 03:31:24", "cumulative_total": 45.0 }, "geometry": { "type": "Polygon", "coordinates": [ [ [ -71.684516830271846, 45.197099787911114 ], [ -71.690721458254956, 45.199878504729895 ], [ -71.690420318347606, 45.205066903329019 ], [ -71.683913398939495, 45.207476518709974 ], [ -71.677708318175448, 45.204697420292511 ], [ -71.678010609573235, 45.19950908815597 ], [ -71.684516830271846, 45.197099787911114 ] ] ] } },
{ "type": "Feature", "properties": { "hex_id": 756439, "centroid_lon": -71.678312818852731, "centroid_lat": 45.19432074969982, "occurrences_today": 15, "datetimes_today": "2026-04-02 00:01:28, 2026-04-02 00:16:42, 2026-04-02 00:31:47, 2026-04-02 00:46:31, 2026-04-02 01:01:32, 2026-04-02 01:16:49, 2026-04-02 01:31:51, 2026-04-02 01:46:21, 2026-04-02 02:01:31, 2026-04-02 02:16:44, 2026-04-02 02:31:54, 2026-04-02 02:46:21, 2026-04-02 03:01:24, 2026-04-02 03:16:24, 2026-04-02 03:31:24", "cumulative_total": 40.0 }, "geometry": { "type": "Polygon", "coordinates": [ [ [ -71.678614946041222, 45.189132404924628 ], [ -71.684818423000948, 45.191911413041403 ], [ -71.684516830271846, 45.197099787911114 ], [ -71.678010609573235, 45.19950908815597 ], [ -71.671806680258754, 45.196729698494039 ], [ -71.672109423970369, 45.191541390195553 ], [ -71.678614946041222, 45.189132404924628 ] ] ] } },
{ "type": "Feature", "properties": { "hex_id": 583073, "centroid_lon": -73.478437932661706, "centroid_lat": 45.481968396526355, "occurrences_today": 11, "datetimes_today": "2026-04-02 00:01:28, 2026-04-02 00:16:42, 2026-04-02 00:31:47, 2026-04-02 00:46:31, 2026-04-02 01:01:32, 2026-04-02 01:16:49, 2026-04-02 01:31:51, 2026-04-02 01:46:21, 2026-04-02 02:01:31, 2026-04-02 02:16:44, 2026-04-02 02:31:54", "cumulative_total": 156.0 }, "geometry": { "type": "Polygon", "coordinates": [ [ [ -73.478577783612749, 45.476773404768124 ], [ -73.484903134698314, 45.479455925050424 ], [ -73.484763852023903, 45.484650929586017 ], [ -73.478298043531183, 45.487163383202933 ], [ -73.471972162354874, 45.484480493425416 ], [ -73.47211261974924, 45.479285519590611 ], [ -73.478577783612749, 45.476773404768124 ] ] ] } },
{ "type": "Feature", "properties": { "hex_id": 587980, "centroid_lon": -73.417204549396175, "centroid_lat": 45.839708742370149, "occurrences_today": 15, "datetimes_today": "2026-04-02 00:01:28, 2026-04-02 00:16:42, 2026-04-02 00:31:47, 2026-04-02 00:46:31, 2026-04-02 01:01:32, 2026-04-02 01:16:49, 2026-04-02 01:31:51, 2026-04-02 01:46:21, 2026-04-02 02:01:31, 2026-04-02 02:16:44, 2026-04-02 02:31:54, 2026-04-02 02:46:21, 2026-04-02 03:01:24, 2026-04-02 03:16:24, 2026-04-02 03:31:24", "cumulative_total": 125.0 }, "geometry": { "type": "Polygon", "coordinates": [ [ [ -73.417351852443872, 45.834514227923194 ], [ -73.423714146734142, 45.837200472174196 ], [ -73.42356742195939, 45.842395000100574 ], [ -73.417057205959779, 45.844903251705311 ], [ -73.410694373792126, 45.842216632824815 ], [ -73.410842295487782, 45.837022137034296 ], [ -73.417351852443872, 45.834514227923194 ] ] ] } },
{ "type": "Feature", "properties": { "hex_id": 581851, "centroid_lon": -73.491645007669405, "centroid_lat": 45.466553019209549, "occurrences_today": 4, "datetimes_today": "2026-04-02 00:01:28, 2026-04-02 00:16:42, 2026-04-02 00:31:47, 2026-04-02 00:46:31", "cumulative_total": 243.0 }, "geometry": { "type": "Polygon", "coordinates": [ [ [ -73.491783570540179, 45.461357981654537 ], [ -73.49810786132953, 45.464039763422903 ], [ -73.497969866453346, 45.46923481362105 ], [ -73.491506406977535, 45.471748051688806 ], [ -73.485181586021014, 45.469065900742869 ], [ -73.485320754694797, 45.463870880971143 ], [ -73.491783570540179, 45.461357981654537 ] ] ] } },
{ "type": "Feature", "properties": { "hex_id": 581240, "centroid_lon": -73.498245818550984, "centroid_lat": 45.45884470815178, "occurrences_today": 4, "datetimes_today": "2026-04-02 00:01:28, 2026-04-02 00:16:42, 2026-04-02 00:31:47, 2026-04-02 00:46:31", "cumulative_total": 199.0 }, "geometry": { "type": "Polygon", "coordinates": [ [ [ -73.498383738130286, 45.453649647807808 ], [ -73.504707498714538, 45.456331060557417 ], [ -73.504570146988769, 45.461526133477463 ], [ -73.49810786132953, 45.464039763422903 ], [ -73.491783570540179, 45.461357981654537 ], [ -73.491922095602547, 45.456162939023827 ], [ -73.498383738130286, 45.453649647807808 ] ] ] } },
{ "type": "Feature", "properties": { "hex_id": 784631, "centroid_lon": -71.273650762672176, "centroid_lat": 46.881144122633934, "occurrences_today": 9, "datetimes_today": "2026-04-02 00:01:28, 2026-04-02 00:16:42, 2026-04-02 00:31:47, 2026-04-02 00:46:31, 2026-04-02 01:01:32, 2026-04-02 01:16:49, 2026-04-02 01:31:51, 2026-04-02 01:46:21, 2026-04-02 02:01:31", "cumulative_total": 107.0 }, "geometry": { "type": "Polygon", "coordinates": [ [ [ -71.274010180827162, 46.875959572448252 ], [ -71.280378509644265, 46.878765095919505 ], [ -71.280019669775186, 46.883949681109513 ], [ -71.273291244803531, 46.886328665986731 ], [ -71.266922437431475, 46.883522735347782 ], [ -71.267282533551423, 46.878338227066173 ], [ -71.274010180827162, 46.875959572448252 ] ] ] } },
{ "type": "Feature", "properties": { "hex_id": 826724, "centroid_lon": -70.859569318291932, "centroid_lat": 46.375819872957635, "occurrences_today": 12, "datetimes_today": "2026-04-02 00:46:31, 2026-04-02 01:01:32, 2026-04-02 01:16:49, 2026-04-02 01:31:51, 2026-04-02 01:46:21, 2026-04-02 02:01:31, 2026-04-02 02:16:44, 2026-04-02 02:31:54, 2026-04-02 02:46:21, 2026-04-02 03:01:24, 2026-04-02 03:16:24, 2026-04-02 03:31:24", "cumulative_total": 25.0 }, "geometry": { "type": "Polygon", "coordinates": [ [ [ -70.859961629494506, 46.370637442965631 ], [ -70.866249638510197, 46.373463641748295 ], [ -70.865857883503395, 46.378646110375179 ], [ -70.859176899030118, 46.381002295666363 ], [ -70.852888441896383, 46.378175693253809 ], [ -70.853281417316992, 46.372993309245352 ], [ -70.859961629494506, 46.370637442965631 ] ] ] } },
{ "type": "Feature", "properties": { "hex_id": 828556, "centroid_lon": -70.839525020721496, "centroid_lat": 46.382886100736123, "occurrences_today": 12, "datetimes_today": "2026-04-02 00:46:31, 2026-04-02 01:01:32, 2026-04-02 01:16:49, 2026-04-02 01:31:51, 2026-04-02 01:46:21, 2026-04-02 02:01:31, 2026-04-02 02:16:44, 2026-04-02 02:31:54, 2026-04-02 02:46:21, 2026-04-02 03:01:24, 2026-04-02 03:16:24, 2026-04-02 03:31:24", "cumulative_total": 25.0 }, "geometry": { "type": "Polygon", "coordinates": [ [ [ -70.839919325023104, 46.377703808916124 ], [ -70.84620700936054, 46.380531102544168 ], [ -70.845813261143604, 46.3857134331952 ], [ -70.839130607804478, 46.388068385247614 ], [ -70.832842476016381, 46.385240687737024 ], [ -70.833237444980895, 46.380058442121999 ], [ -70.839919325023104, 46.377703808916124 ] ] ] } },
{ "type": "Feature", "properties": { "hex_id": 829167, "centroid_lon": -70.832447398250949, "centroid_lat": 46.390422926035164, "occurrences_today": 12, "datetimes_today": "2026-04-02 00:46:31, 2026-04-02 01:01:32, 2026-04-02 01:16:49, 2026-04-02 01:31:51, 2026-04-02 01:46:21, 2026-04-02 02:01:31, 2026-04-02 02:16:44, 2026-04-02 02:31:54, 2026-04-02 02:46:21, 2026-04-02 03:01:24, 2026-04-02 03:16:24, 2026-04-02 03:31:24", "cumulative_total": 25.0 }, "geometry": { "type": "Polygon", "coordinates": [ [ [ -70.832842476016381, 46.385240687737024 ], [ -70.839130607804478, 46.388068385247614 ], [ -70.838736086234846, 46.393250662449724 ], [ -70.832052211647351, 46.395605157015488 ], [ -70.825763632520236, 46.392777055465267 ], [ -70.826159375282373, 46.387594863454346 ], [ -70.832842476016381, 46.385240687737024 ] ] ] } },
{ "type": "Feature", "properties": { "hex_id": 829777, "centroid_lon": -70.826555009058069, "centroid_lat": 46.382412664118078, "occurrences_today": 12, "datetimes_today": "2026-04-02 00:46:31, 2026-04-02 01:01:32, 2026-04-02 01:16:49, 2026-04-02 01:31:51, 2026-04-02 01:46:21, 2026-04-02 02:01:31, 2026-04-02 02:16:44, 2026-04-02 02:31:54, 2026-04-02 02:46:21, 2026-04-02 03:01:24, 2026-04-02 03:16:24, 2026-04-02 03:31:24", "cumulative_total": 25.0 }, "geometry": { "type": "Polygon", "coordinates": [ [ [ -70.826950533884599, 46.377230457457358 ], [ -70.833237444980895, 46.380058442121999 ], [ -70.832842476016381, 46.385240687737024 ], [ -70.826159375282373, 46.387594863454346 ], [ -70.819872017291871, 46.384766474811762 ], [ -70.82026820689228, 46.379584314495219 ], [ -70.826950533884599, 46.377230457457358 ] ] ] } },
{ "type": "Feature", "properties": { "hex_id": 826113, "centroid_lon": -70.866641285643084, "centroid_lat": 46.36828116584649, "occurrences_today": 12, "datetimes_today": "2026-04-02 00:46:31, 2026-04-02 01:01:32, 2026-04-02 01:16:49, 2026-04-02 01:31:51, 2026-04-02 01:46:21, 2026-04-02 02:01:31, 2026-04-02 02:16:44, 2026-04-02 02:31:54, 2026-04-02 02:46:21, 2026-04-02 03:01:24, 2026-04-02 03:16:24, 2026-04-02 03:31:24", "cumulative_total": 75.0 }, "geometry": { "type": "Polygon", "coordinates": [ [ [ -70.867032824938903, 46.363098682670646 ], [ -70.873320385725762, 46.365924477980535 ], [ -70.872929402514259, 46.3711069997184 ], [ -70.866249638510197, 46.373463641748295 ], [ -70.859961629494506, 46.370637442965631 ], [ -70.860353832674818, 46.365455005691224 ], [ -70.867032824938903, 46.363098682670646 ] ] ] } },
{ "type": "Feature", "properties": { "hex_id": 826723, "centroid_lon": -70.8607459278698, "centroid_lat": 46.360272561135311, "occurrences_today": 12, "datetimes_today": "2026-04-02 00:46:31, 2026-04-02 01:01:32, 2026-04-02 01:16:49, 2026-04-02 01:31:51, 2026-04-02 01:46:21, 2026-04-02 02:01:31, 2026-04-02 02:16:44, 2026-04-02 02:31:54, 2026-04-02 02:46:21, 2026-04-02 03:01:24, 2026-04-02 03:16:24, 2026-04-02 03:31:24", "cumulative_total": 75.0 }, "geometry": { "type": "Polygon", "coordinates": [ [ [ -70.861137915116373, 46.355090109298793 ], [ -70.867424256434575, 46.357916192221651 ], [ -70.867032824938903, 46.363098682670646 ], [ -70.860353832674818, 46.365455005691224 ], [ -70.85406704357257, 46.36262851935701 ], [ -70.85445969448152, 46.357446113478922 ], [ -70.861137915116373, 46.355090109298793 ] ] ] } },
{ "type": "Feature", "properties": { "hex_id": 827334, "centroid_lon": -70.853674284530058, "centroid_lat": 46.367810917946116, "occurrences_today": 12, "datetimes_today": "2026-04-02 00:46:31, 2026-04-02 01:01:32, 2026-04-02 01:16:49, 2026-04-02 01:31:51, 2026-04-02 01:46:21, 2026-04-02 02:01:31, 2026-04-02 02:16:44, 2026-04-02 02:31:54, 2026-04-02 02:46:21, 2026-04-02 03:01:24, 2026-04-02 03:16:24, 2026-04-02 03:31:24", "cumulative_total": 75.0 }, "geometry": { "type": "Polygon", "coordinates": [ [ [ -70.85406704357257, 46.36262851935701 ], [ -70.860353832674818, 46.365455005691224 ], [ -70.859961629494506, 46.370637442965631 ], [ -70.853281417316992, 46.372993309245352 ], [ -70.846994180541586, 46.370166419342759 ], [ -70.847387603579861, 46.3649840667942 ], [ -70.85406704357257, 46.36262851935701 ] ] ] } },
{ "type": "Feature", "properties": { "hex_id": 827945, "centroid_lon": -70.846600649147504, "centroid_lat": 46.375348764593049, "occurrences_today": 12, "datetimes_today": "2026-04-02 00:46:31, 2026-04-02 01:01:32, 2026-04-02 01:16:49, 2026-04-02 01:31:51, 2026-04-02 01:46:21, 2026-04-02 02:01:31, 2026-04-02 02:16:44, 2026-04-02 02:31:54, 2026-04-02 02:46:21, 2026-04-02 03:01:24, 2026-04-02 03:16:24, 2026-04-02 03:31:24", "cumulative_total": 19.0 }, "geometry": { "type": "Polygon", "coordinates": [ [ [ -70.846994180541586, 46.370166419342759 ], [ -70.853281417316992, 46.372993309245352 ], [ -70.852888441896383, 46.378175693253809 ], [ -70.84620700936054, 46.380531102544168 ], [ -70.839919325023104, 46.377703808916124 ], [ -70.840313520746435, 46.372521509788548 ], [ -70.846994180541586, 46.370166419342759 ] ] ] } },
{ "type": "Feature", "properties": { "hex_id": 828555, "centroid_lon": -70.840707607928664, "centroid_lat": 46.367339203354312, "occurrences_today": 12, "datetimes_today": "2026-04-02 00:46:31, 2026-04-02 01:01:32, 2026-04-02 01:16:49, 2026-04-02 01:31:51, 2026-04-02 01:46:21, 2026-04-02 02:01:31, 2026-04-02 02:16:44, 2026-04-02 02:31:54, 2026-04-02 02:46:21, 2026-04-02 03:01:24, 2026-04-02 03:16:24, 2026-04-02 03:31:24", "cumulative_total": 19.0 }, "geometry": { "type": "Polygon", "coordinates": [ [ [ -70.841101586606882, 46.362156889614319 ], [ -70.847387603579861, 46.3649840667942 ], [ -70.846994180541586, 46.370166419342759 ], [ -70.840313520746435, 46.372521509788548 ], [ -70.834027056656083, 46.369693928944805 ], [ -70.834421699441137, 46.364511661384483 ], [ -70.841101586606882, 46.362156889614319 ] ] ] } },
{ "type": "Feature", "properties": { "hex_id": 829166, "centroid_lon": -70.833632305181723, "centroid_lat": 46.374876189190942, "occurrences_today": 12, "datetimes_today": "2026-04-02 00:46:31, 2026-04-02 01:01:32, 2026-04-02 01:16:49, 2026-04-02 01:31:51, 2026-04-02 01:46:21, 2026-04-02 02:01:31, 2026-04-02 02:16:44, 2026-04-02 02:31:54, 2026-04-02 02:46:21, 2026-04-02 03:01:24, 2026-04-02 03:16:24, 2026-04-02 03:31:24", "cumulative_total": 19.0 }, "geometry": { "type": "Polygon", "coordinates": [ [ [ -70.834027056656083, 46.369693928944805 ], [ -70.840313520746435, 46.372521509788548 ], [ -70.839919325023104, 46.377703808916124 ], [ -70.833237444980895, 46.380058442121999 ], [ -70.826950533884599, 46.377230457457358 ], [ -70.827345949799238, 46.372048243473103 ], [ -70.834027056656083, 46.369693928944805 ] ] ] } },
{ "type": "Feature", "properties": { "hex_id": 858445, "centroid_lon": -70.553971031487691, "centroid_lat": 45.974562581912302, "occurrences_today": 1, "datetimes_today": "2026-04-02 00:01:28", "cumulative_total": 24.0 }, "geometry": { "type": "Polygon", "coordinates": [ [ [ -70.554386389255896, 45.969381865019891 ], [ -70.560613311714832, 45.972222860038926 ], [ -70.560198493481806, 45.977403618166115 ], [ -70.553555559942154, 45.979743291171239 ], [ -70.547328211744656, 45.976901895524634 ], [ -70.547744222786861, 45.971721227564743 ], [ -70.554386389255896, 45.969381865019891 ] ] ] } },
{ "type": "Feature", "properties": { "hex_id": 587383, "centroid_lon": -73.417665295177443, "centroid_lat": 46.050171926800139, "occurrences_today": 1, "datetimes_today": "2026-04-02 00:01:28", "cumulative_total": 66.0 }, "geometry": { "type": "Polygon", "coordinates": [ [ [ -73.417813639906115, 46.044977603307515 ], [ -73.424199813535083, 46.047664038871396 ], [ -73.424052053577029, 46.052858375897962 ], [ -73.417516909667199, 46.055366245179911 ], [ -73.411130192056149, 46.05267943227517 ], [ -73.411279162323112, 46.047485127495051 ], [ -73.417813639906115, 46.044977603307515 ] ] ] } },
{ "type": "Feature", "properties": { "hex_id": 561086, "centroid_lon": -73.711889034650994, "centroid_lat": 45.344523664189396, "occurrences_today": 4, "datetimes_today": "2026-04-02 00:46:31, 2026-04-02 01:01:32, 2026-04-02 01:16:49, 2026-04-02 01:31:51", "cumulative_total": 12.0 }, "geometry": { "type": "Polygon", "coordinates": [ [ [ -73.712006866628812, 45.339328026964893 ], [ -73.718328370057463, 45.341997632005899 ], [ -73.718211105395824, 45.347193279670989 ], [ -73.711771170554414, 45.34971929642726 ], [ -73.705449131933719, 45.347049325800739 ], [ -73.705567563335762, 45.341853704067596 ], [ -73.712006866628812, 45.339328026964893 ] ] ] } },
{ "type": "Feature", "properties": { "hex_id": 587993, "centroid_lon": -73.411428091649327, "centroid_lat": 46.042290817599088, "occurrences_today": 1, "datetimes_today": "2026-04-02 00:01:28", "cumulative_total": 14.0 }, "geometry": { "type": "Polygon", "coordinates": [ [ [ -73.411576980048693, 46.037096502587367 ], [ -73.417961943867098, 46.039783274702074 ], [ -73.417813639906115, 46.044977603307515 ], [ -73.411279162323112, 46.047485127495051 ], [ -73.404893655000123, 46.044797978083508 ], [ -73.40504316875078, 46.039603681846948 ], [ -73.411576980048693, 46.037096502587367 ] ] ] } },
{ "type": "Feature", "properties": { "hex_id": 588603, "centroid_lon": -73.405192641415525, "centroid_lat": 46.034409380491688, "occurrences_today": 1, "datetimes_today": "2026-04-02 00:01:28", "cumulative_total": 14.0 }, "geometry": { "type": "Polygon", "coordinates": [ [ [ -73.405342073008313, 46.029215074017827 ], [ -73.411725827535122, 46.031902182459994 ], [ -73.411576980048693, 46.037096502587367 ], [ -73.40504316875078, 46.039603681846948 ], [ -73.39865887119656, 46.036916196151978 ], [ -73.398808927953681, 46.03172190851587 ], [ -73.405342073008313, 46.029215074017827 ] ] ] } },
{ "type": "Feature", "properties": { "hex_id": 761322, "centroid_lon": -71.628396440528604, "centroid_lat": 45.177264981413593, "occurrences_today": 6, "datetimes_today": "2026-04-02 02:16:44, 2026-04-02 02:31:54, 2026-04-02 02:46:21, 2026-04-02 03:01:24, 2026-04-02 03:16:24, 2026-04-02 03:31:24", "cumulative_total": 6.0 }, "geometry": { "type": "Polygon", "coordinates": [ [ [ -71.628702920525882, 45.17207688582566 ], [ -71.634902000417298, 45.174858491593078 ], [ -71.634596053667437, 45.180046617740267 ], [ -71.628089877278484, 45.182453070635923 ], [ -71.621890347406335, 45.179671083133037 ], [ -71.622197443876232, 45.174483024533039 ], [ -71.628702920525882, 45.17207688582566 ] ] ] } },
{ "type": "Feature", "properties": { "hex_id": 762543, "centroid_lon": -71.615691434162216, "centroid_lat": 45.176888775118542, "occurrences_today": 6, "datetimes_today": "2026-04-02 02:16:44, 2026-04-02 02:31:54, 2026-04-02 02:46:21, 2026-04-02 03:01:24, 2026-04-02 03:16:24, 2026-04-02 03:31:24", "cumulative_total": 6.0 }, "geometry": { "type": "Polygon", "coordinates": [ [ [ -71.615999063682651, 45.171700747198187 ], [ -71.622197443876232, 45.174483024533039 ], [ -71.621890347406335, 45.179671083133037 ], [ -71.615383721078103, 45.182076796661129 ], [ -71.609184891411502, 45.17929413749188 ], [ -71.609493137518413, 45.174106146692004 ], [ -71.615999063682651, 45.171700747198187 ] ] ] } }
]
}
