{
"type": "FeatureCollection",
"name": "daily_2025-12-07",
"crs": { "type": "name", "properties": { "name": "urn:ogc:def:crs:OGC:1.3:CRS84" } },
"features": [
{ "type": "Feature", "properties": { "hex_id": 2893, "count": 3, "date": "2025-12-07", "n_files": 22, "pct": 13.64 }, "geometry": { "type": "Polygon", "coordinates": [ [ [ -73.5517402, 45.4987919 ], [ -73.5510737, 45.5247676 ], [ -73.5827509, 45.5381571 ], [ -73.6150812, 45.5255617 ], [ -73.6157183, 45.4995853 ], [ -73.5840545, 45.486205 ], [ -73.5517402, 45.4987919 ] ] ] } },
{ "type": "Feature", "properties": { "hex_id": 2895, "count": 1, "date": "2025-12-07", "n_files": 22, "pct": 4.55 }, "geometry": { "type": "Polygon", "coordinates": [ [ [ -73.5477275, 45.654644 ], [ -73.5470555, 45.6806189 ], [ -73.5788186, 45.6940102 ], [ -73.6112403, 45.6814173 ], [ -73.6118826, 45.6554417 ], [ -73.580133, 45.6420597 ], [ -73.5477275, 45.654644 ] ] ] } },
{ "type": "Feature", "properties": { "hex_id": 5710, "count": 1, "date": "2025-12-07", "n_files": 22, "pct": 4.55 }, "geometry": { "type": "Polygon", "coordinates": [ [ [ -72.141184400000014, 45.5501388 ], [ -72.1398668, 45.5760901 ], [ -72.1712178, 45.5898635 ], [ -72.2038744, 45.577676 ], [ -72.2051626, 45.5517233 ], [ -72.1738237, 45.5379594 ], [ -72.141184400000014, 45.5501388 ] ] ] } },
{ "type": "Feature", "properties": { "hex_id": 6459, "count": 7, "date": "2025-12-07", "n_files": 22, "pct": 31.82 }, "geometry": { "type": "Polygon", "coordinates": [ [ [ -71.5673003, 49.0805245 ], [ -71.5655105, 49.1064455 ], [ -71.5988157, 49.1204198 ], [ -71.6338969, 49.1084621 ], [ -71.6356513, 49.0825393 ], [ -71.60236, 49.0685759 ], [ -71.5673003, 49.0805245 ] ] ] } },
{ "type": "Feature", "properties": { "hex_id": 6524, "count": 7, "date": "2025-12-07", "n_files": 22, "pct": 31.82 }, "geometry": { "type": "Polygon", "coordinates": [ [ [ -71.5304154, 49.118382 ], [ -71.5286039, 49.1443019 ], [ -71.5619231, 49.158287 ], [ -71.5970398, 49.1463415 ], [ -71.5988157, 49.1204198 ], [ -71.5655105, 49.1064455 ], [ -71.5304154, 49.118382 ] ] ] } },
{ "type": "Feature", "properties": { "hex_id": 6587, "count": 7, "date": "2025-12-07", "n_files": 22, "pct": 31.82 }, "geometry": { "type": "Polygon", "coordinates": [ [ [ -71.4989571, 49.0784693 ], [ -71.4971318, 49.1043885 ], [ -71.5304154, 49.118382 ], [ -71.5655105, 49.1064455 ], [ -71.5673003, 49.0805245 ], [ -71.5340305, 49.0665419 ], [ -71.4989571, 49.0784693 ] ] ] } },
{ "type": "Feature", "properties": { "hex_id": 6588, "count": 7, "date": "2025-12-07", "n_files": 22, "pct": 31.82 }, "geometry": { "type": "Polygon", "coordinates": [ [ [ -71.4934733, 49.1562263 ], [ -71.4916401, 49.1821449 ], [ -71.5249732, 49.196141 ], [ -71.5601255, 49.1842076 ], [ -71.5619231, 49.158287 ], [ -71.5286039, 49.1443019 ], [ -71.4934733, 49.1562263 ] ] ] } },
{ "type": "Feature", "properties": { "hex_id": 6652, "count": 7, "date": "2025-12-07", "n_files": 22, "pct": 31.82 }, "geometry": { "type": "Polygon", "coordinates": [ [ [ -71.4620228, 49.1163038 ], [ -71.4601758, 49.1422218 ], [ -71.4934733, 49.1562263 ], [ -71.5286039, 49.1443019 ], [ -71.5304154, 49.118382 ], [ -71.4971318, 49.1043885 ], [ -71.4620228, 49.1163038 ] ] ] } },
{ "type": "Feature", "properties": { "hex_id": 7391, "count": 3, "date": "2025-12-07", "n_files": 22, "pct": 13.64 }, "geometry": { "type": "Polygon", "coordinates": [ [ [ -71.2203222, 46.8484954 ], [ -71.2185, 46.8744166 ], [ -71.2503321, 46.8884559 ], [ -71.2839745, 46.8765638 ], [ -71.2857653, 46.8506406 ], [ -71.2539452, 46.8366115 ], [ -71.2203222, 46.8484954 ] ] ] } },
{ "type": "Feature", "properties": { "hex_id": 7770, "count": 5, "date": "2025-12-07", "n_files": 22, "pct": 22.73 }, "geometry": { "type": "Polygon", "coordinates": [ [ [ -71.0524667, 46.453086299999988 ], [ -71.0505898, 46.4790042 ], [ -71.08215, 46.4930826 ], [ -71.1155756, 46.4812331 ], [ -71.1174218, 46.4553132 ], [ -71.0858731, 46.4412448 ], [ -71.0524667, 46.453086299999988 ] ] ] } },
{ "type": "Feature", "properties": { "hex_id": 7834, "count": 5, "date": "2025-12-07", "n_files": 22, "pct": 22.73 }, "geometry": { "type": "Polygon", "coordinates": [ [ [ -71.0171527, 46.4908342 ], [ -71.0152565, 46.5167508 ], [ -71.0468282, 46.5308394 ], [ -71.0802846, 46.5190012 ], [ -71.08215, 46.4930826 ], [ -71.0505898, 46.4790042 ], [ -71.0171527, 46.4908342 ] ] ] } },
{ "type": "Feature", "properties": { "hex_id": 7862, "count": 13, "date": "2025-12-07", "n_files": 22, "pct": 59.09 }, "geometry": { "type": "Polygon", "coordinates": [ [ [ -70.8482956, 48.6671981 ], [ -70.8461627, 48.6930994 ], [ -70.8789872, 48.7072693 ], [ -70.9139318, 48.695527 ], [ -70.9160301, 48.6696235 ], [ -70.8832184, 48.6554645 ], [ -70.8482956, 48.6671981 ] ] ] } },
{ "type": "Feature", "properties": { "hex_id": 7927, "count": 13, "date": "2025-12-07", "n_files": 22, "pct": 59.09 }, "geometry": { "type": "Polygon", "coordinates": [ [ [ -70.8112054, 48.7048207 ], [ -70.8090506, 48.7307206 ], [ -70.8418878, 48.7449014 ], [ -70.876867, 48.7331714 ], [ -70.8789872, 48.7072693 ], [ -70.8461627, 48.6930994 ], [ -70.8112054, 48.7048207 ] ] ] } },
{ "type": "Feature", "properties": { "hex_id": 7990, "count": 13, "date": "2025-12-07", "n_files": 22, "pct": 59.09 }, "geometry": { "type": "Polygon", "coordinates": [ [ [ -70.7805702, 48.664733 ], [ -70.7784028, 48.6906321 ], [ -70.8112054, 48.7048207 ], [ -70.8461627, 48.6930994 ], [ -70.8482956, 48.6671981 ], [ -70.8155057, 48.6530204 ], [ -70.7805702, 48.664733 ] ] ] } }
]
}
