{
"type": "FeatureCollection",
"name": "daily_2026-03-19",
"crs": { "type": "name", "properties": { "name": "urn:ogc:def:crs:OGC:1.3:CRS84" } },
"features": [
{ "type": "Feature", "properties": { "hex_id": 327910, "centroid_lon": -76.161171126797626, "centroid_lat": 45.891540611418421, "occurrences_today": 13, "datetimes_today": "2026-03-19 00:46:44, 2026-03-19 01:01:31, 2026-03-19 01:31:38, 2026-03-19 01:46:25, 2026-03-19 02:01:30, 2026-03-19 02:12:28, 2026-03-19 02:31:53, 2026-03-19 02:46:26, 2026-03-19 03:01:28, 2026-03-19 03:16:31, 2026-03-19 03:31:27, 2026-03-19 03:46:32, 2026-03-19 03:59:04", "cumulative_total": 128.0 }, "geometry": { "type": "Polygon", "coordinates": [ [ [ -76.161062860495534, 45.88634522735039 ], [ -76.167560025019881, 45.88887726257628 ], [ -76.167668906695567, 45.894072632338577 ], [ -76.1612794228094, 45.896735990543064 ], [ -76.154781613196747, 45.894203607588793 ], [ -76.154673932568627, 45.889008214223843 ], [ -76.161062860495534, 45.88634522735039 ] ] ] } },
{ "type": "Feature", "properties": { "hex_id": 476868, "centroid_lon": -74.589090288701527, "centroid_lat": 45.834343977094917, "occurrences_today": 16, "datetimes_today": "2026-03-19 00:01:42, 2026-03-19 00:16:44, 2026-03-19 00:31:57, 2026-03-19 00:46:44, 2026-03-19 01:01:31, 2026-03-19 01:31:38, 2026-03-19 01:46:25, 2026-03-19 02:01:30, 2026-03-19 02:12:28, 2026-03-19 02:31:53, 2026-03-19 02:46:26, 2026-03-19 03:01:28, 2026-03-19 03:16:31, 2026-03-19 03:31:27, 2026-03-19 03:46:32, 2026-03-19 03:59:04", "cumulative_total": 270.0 }, "geometry": { "type": "Polygon", "coordinates": [ [ [ -74.589128527423668, 45.829147605917655 ], [ -74.595547014615477, 45.831768760216107 ], [ -74.595509369795025, 45.836965133147906 ], [ -74.589052039491762, 45.839540343500651 ], [ -74.582632968887665, 45.836918825897826 ], [ -74.582671811995581, 45.831722461311998 ], [ -74.589128527423668, 45.829147605917655 ] ] ] } },
{ "type": "Feature", "properties": { "hex_id": 477478, "centroid_lon": -74.582710644453343, "centroid_lat": 45.826526091953831, "occurrences_today": 16, "datetimes_today": "2026-03-19 00:01:42, 2026-03-19 00:16:44, 2026-03-19 00:31:57, 2026-03-19 00:46:44, 2026-03-19 01:01:31, 2026-03-19 01:31:38, 2026-03-19 01:46:25, 2026-03-19 02:01:30, 2026-03-19 02:12:28, 2026-03-19 02:31:53, 2026-03-19 02:46:26, 2026-03-19 03:01:28, 2026-03-19 03:16:31, 2026-03-19 03:31:27, 2026-03-19 03:46:32, 2026-03-19 03:59:04", "cumulative_total": 196.0 }, "geometry": { "type": "Polygon", "coordinates": [ [ [ -74.582749466264602, 45.821329717823289 ], [ -74.589166755661722, 45.823951229968799 ], [ -74.589128527423668, 45.829147605917655 ], [ -74.582671811995581, 45.831722461311998 ], [ -74.576253939673578, 45.829100585897777 ], [ -74.576293365700948, 45.823904218423294 ], [ -74.582749466264602, 45.821329717823289 ] ] ] } },
{ "type": "Feature", "properties": { "hex_id": 477480, "centroid_lon": -74.582477489882692, "centroid_lat": 45.857704236518195, "occurrences_today": 16, "datetimes_today": "2026-03-19 00:01:42, 2026-03-19 00:16:44, 2026-03-19 00:31:57, 2026-03-19 00:46:44, 2026-03-19 01:01:31, 2026-03-19 01:31:38, 2026-03-19 01:46:25, 2026-03-19 02:01:30, 2026-03-19 02:12:28, 2026-03-19 02:31:53, 2026-03-19 02:46:26, 2026-03-19 03:01:28, 2026-03-19 03:16:31, 2026-03-19 03:31:27, 2026-03-19 03:46:32, 2026-03-19 03:59:04", "cumulative_total": 193.0 }, "geometry": { "type": "Polygon", "coordinates": [ [ [ -74.582516375627165, 45.852507891021503 ], [ -74.588937228901088, 45.855129414088736 ], [ -74.588898937705238, 45.860325761408468 ], [ -74.582438593470044, 45.862900577242634 ], [ -74.576017156317477, 45.860278690509539 ], [ -74.576056647275138, 45.855082351673552 ], [ -74.582516375627165, 45.852507891021503 ] ] ] } },
{ "type": "Feature", "properties": { "hex_id": 478089, "centroid_lon": -74.576214502833636, "centroid_lat": 45.834296948599125, "occurrences_today": 16, "datetimes_today": "2026-03-19 00:01:42, 2026-03-19 00:16:44, 2026-03-19 00:31:57, 2026-03-19 00:46:44, 2026-03-19 01:01:31, 2026-03-19 01:31:38, 2026-03-19 01:46:25, 2026-03-19 02:01:30, 2026-03-19 02:12:28, 2026-03-19 02:31:53, 2026-03-19 02:46:26, 2026-03-19 03:01:28, 2026-03-19 03:16:31, 2026-03-19 03:31:27, 2026-03-19 03:46:32, 2026-03-19 03:59:04", "cumulative_total": 195.0 }, "geometry": { "type": "Polygon", "coordinates": [ [ [ -74.576253939673578, 45.829100585897777 ], [ -74.582671811995581, 45.831722461311998 ], [ -74.582632968887665, 45.836918825897826 ], [ -74.576175055177501, 45.839493306527359 ], [ -74.569756599941527, 45.836871067681564 ], [ -74.569796641326022, 45.831674711703201 ], [ -74.576253939673578, 45.829100585897777 ] ] ] } },
{ "type": "Feature", "properties": { "hex_id": 478701, "centroid_lon": -74.569596324542644, "centroid_lat": 45.857656443856179, "occurrences_today": 16, "datetimes_today": "2026-03-19 00:01:42, 2026-03-19 00:16:44, 2026-03-19 00:31:57, 2026-03-19 00:46:44, 2026-03-19 01:01:31, 2026-03-19 01:31:38, 2026-03-19 01:46:25, 2026-03-19 02:01:30, 2026-03-19 02:12:28, 2026-03-19 02:31:53, 2026-03-19 02:46:26, 2026-03-19 03:01:28, 2026-03-19 03:16:31, 2026-03-19 03:31:27, 2026-03-19 03:46:32, 2026-03-19 03:59:04", "cumulative_total": 193.0 }, "geometry": { "type": "Polygon", "coordinates": [ [ [ -74.569636409878925, 45.852460106973311 ], [ -74.576056647275138, 45.855082351673552 ], [ -74.576017156317477, 45.860278690509539 ], [ -74.569556228209095, 45.862852775965216 ], [ -74.563135407433364, 45.860230167471833 ], [ -74.563176098141824, 45.855033837381328 ], [ -74.569636409878925, 45.852460106973311 ] ] ] } },
{ "type": "Feature", "properties": { "hex_id": 479310, "centroid_lon": -74.563338749414413, "centroid_lat": 45.834248469272637, "occurrences_today": 16, "datetimes_today": "2026-03-19 00:01:42, 2026-03-19 00:16:44, 2026-03-19 00:31:57, 2026-03-19 00:46:44, 2026-03-19 01:01:31, 2026-03-19 01:31:38, 2026-03-19 01:46:25, 2026-03-19 02:01:30, 2026-03-19 02:12:28, 2026-03-19 02:31:53, 2026-03-19 02:46:26, 2026-03-19 03:01:28, 2026-03-19 03:16:31, 2026-03-19 03:31:27, 2026-03-19 03:46:32, 2026-03-19 03:59:04", "cumulative_total": 194.0 }, "geometry": { "type": "Polygon", "coordinates": [ [ [ -74.563379384361141, 45.829052115308706 ], [ -74.569796641326022, 45.831674711703201 ], [ -74.569756599941527, 45.836871067681564 ], [ -74.563298103322893, 45.839444818461857 ], [ -74.55688026394246, 45.836821858508678 ], [ -74.556921503592434, 45.831625511399253 ], [ -74.563379384361141, 45.829052115308706 ] ] ] } },
{ "type": "Feature", "properties": { "hex_id": 483584, "centroid_lon": -74.518206616813643, "centroid_lat": 45.84186183950289, "occurrences_today": 8, "datetimes_today": "2026-03-19 00:01:42, 2026-03-19 00:16:44, 2026-03-19 00:31:57, 2026-03-19 00:46:44, 2026-03-19 01:01:31, 2026-03-19 01:31:38, 2026-03-19 01:46:25, 2026-03-19 02:01:30", "cumulative_total": 183.0 }, "geometry": { "type": "Polygon", "coordinates": [ [ [ -74.518251463486578, 45.836665525349979 ], [ -74.524667452377386, 45.8392906478105 ], [ -74.524623198914412, 45.844486964433756 ], [ -74.518161757839707, 45.847058148875057 ], [ -74.511745188042042, 45.8444326623124 ], [ -74.511790640221747, 45.839236355475983 ], [ -74.518251463486578, 45.836665525349979 ] ] ] } },
{ "type": "Feature", "properties": { "hex_id": 543999, "centroid_lon": -73.888419663721564, "centroid_lat": 45.455513470300701, "occurrences_today": 4, "datetimes_today": "2026-03-19 02:31:53, 2026-03-19 02:46:26, 2026-03-19 03:01:28, 2026-03-19 03:16:31", "cumulative_total": 62.0 }, "geometry": { "type": "Polygon", "coordinates": [ [ [ -73.888521743536245, 45.450317598660156 ], [ -73.894864037228658, 45.452977576657489 ], [ -73.894762530417225, 45.458173457014205 ], [ -73.888317556043233, 45.460709337014897 ], [ -73.881974717215925, 45.458048993698057 ], [ -73.882077397888153, 45.452853135764471 ], [ -73.888521743536245, 45.450317598660156 ] ] ] } },
{ "type": "Feature", "properties": { "hex_id": 518966, "centroid_lon": -74.151158570066741, "centroid_lat": 45.418791775464392, "occurrences_today": 12, "datetimes_today": "2026-03-19 00:01:42, 2026-03-19 00:16:44, 2026-03-19 00:31:57, 2026-03-19 00:46:44, 2026-03-19 01:01:31, 2026-03-19 01:31:38, 2026-03-19 01:46:25, 2026-03-19 02:01:30, 2026-03-19 02:12:28, 2026-03-19 02:31:53, 2026-03-19 02:46:26, 2026-03-19 03:01:28", "cumulative_total": 227.0 }, "geometry": { "type": "Polygon", "coordinates": [ [ [ -74.151236424094776, 45.413595461967894 ], [ -74.157587184323603, 45.416240925882178 ], [ -74.157509905661016, 45.421437245477293 ], [ -74.151080694795354, 45.423988084108544 ], [ -74.144729380447998, 45.421342257845801 ], [ -74.144807831077699, 45.416145955364641 ], [ -74.151236424094776, 45.413595461967894 ] ] ] } },
{ "type": "Feature", "properties": { "hex_id": 571485, "centroid_lon": -73.59549700124164, "centroid_lat": 45.662756572898374, "occurrences_today": 16, "datetimes_today": "2026-03-19 00:01:42, 2026-03-19 00:16:44, 2026-03-19 00:31:57, 2026-03-19 00:46:44, 2026-03-19 01:01:31, 2026-03-19 01:31:38, 2026-03-19 01:46:25, 2026-03-19 02:01:30, 2026-03-19 02:12:28, 2026-03-19 02:31:53, 2026-03-19 02:46:26, 2026-03-19 03:01:28, 2026-03-19 03:16:31, 2026-03-19 03:31:27, 2026-03-19 03:46:32, 2026-03-19 03:59:04", "cumulative_total": 176.0 }, "geometry": { "type": "Polygon", "coordinates": [ [ [ -73.595626911202899, 45.657561474744057 ], [ -73.601978116673635, 45.660237734606781 ], [ -73.601848782041941, 45.665432844427201 ], [ -73.59536705573521, 45.667951666019285 ], [ -73.589015310486047, 45.66527503545246 ], [ -73.589145831310077, 45.660079954062496 ], [ -73.595626911202899, 45.657561474744057 ] ] ] } },
{ "type": "Feature", "properties": { "hex_id": 572095, "centroid_lon": -73.58927631643283, "centroid_lat": 45.654884867636575, "occurrences_today": 16, "datetimes_today": "2026-03-19 00:01:42, 2026-03-19 00:16:44, 2026-03-19 00:31:57, 2026-03-19 00:46:44, 2026-03-19 01:01:31, 2026-03-19 01:31:38, 2026-03-19 01:46:25, 2026-03-19 02:01:30, 2026-03-19 02:12:28, 2026-03-19 02:31:53, 2026-03-19 02:46:26, 2026-03-19 03:01:28, 2026-03-19 03:16:31, 2026-03-19 03:31:27, 2026-03-19 03:46:32, 2026-03-19 03:59:04", "cumulative_total": 172.0 }, "geometry": { "type": "Polygon", "coordinates": [ [ [ -73.589406765866315, 45.649689776174732 ], [ -73.595756785630954, 45.652366371556404 ], [ -73.595626911202899, 45.657561474744057 ], [ -73.589145831310077, 45.660079954062496 ], [ -73.582795272235288, 45.657402988018873 ], [ -73.582926332351448, 45.65220791338357 ], [ -73.589406765866315, 45.649689776174732 ] ] ] } },
{ "type": "Feature", "properties": { "hex_id": 569653, "centroid_lon": -73.61493862151913, "centroid_lat": 45.65519893119243, "occurrences_today": 16, "datetimes_today": "2026-03-19 00:01:42, 2026-03-19 00:16:44, 2026-03-19 00:31:57, 2026-03-19 00:46:44, 2026-03-19 01:01:31, 2026-03-19 01:31:38, 2026-03-19 01:46:25, 2026-03-19 02:01:30, 2026-03-19 02:12:28, 2026-03-19 02:31:53, 2026-03-19 02:46:26, 2026-03-19 03:01:28, 2026-03-19 03:16:31, 2026-03-19 03:31:27, 2026-03-19 03:46:32, 2026-03-19 03:59:04", "cumulative_total": 160.0 }, "geometry": { "type": "Polygon", "coordinates": [ [ [ -73.615066699828787, 45.650003783149884 ], [ -73.621418010908926, 45.652678966260382 ], [ -73.621290507964446, 45.657874125774505 ], [ -73.614810508168432, 45.660394074209449 ], [ -73.608458656770097, 45.657718520673015 ], [ -73.608587345474163, 45.65252338919241 ], [ -73.615066699828787, 45.650003783149884 ] ] ] } },
{ "type": "Feature", "properties": { "hex_id": 570263, "centroid_lon": -73.608715998981026, "centroid_lat": 45.647328252683742, "occurrences_today": 16, "datetimes_today": "2026-03-19 00:01:42, 2026-03-19 00:16:44, 2026-03-19 00:31:57, 2026-03-19 00:46:44, 2026-03-19 01:01:31, 2026-03-19 01:31:38, 2026-03-19 01:46:25, 2026-03-19 02:01:30, 2026-03-19 02:12:28, 2026-03-19 02:31:53, 2026-03-19 02:46:26, 2026-03-19 03:01:28, 2026-03-19 03:16:31, 2026-03-19 03:31:27, 2026-03-19 03:46:32, 2026-03-19 03:59:04", "cumulative_total": 162.0 }, "geometry": { "type": "Polygon", "coordinates": [ [ [ -73.608844617302552, 45.642133111147103 ], [ -73.615194743109171, 45.644808630081876 ], [ -73.615066699828787, 45.650003783149884 ], [ -73.608587345474163, 45.65252338919241 ], [ -73.602236679817665, 45.649847499873701 ], [ -73.602365908353832, 45.64465237496119 ], [ -73.608844617302552, 45.642133111147103 ] ] ] } },
{ "type": "Feature", "properties": { "hex_id": 517744, "centroid_lon": -74.164168524888666, "centroid_lat": 45.403297033686655, "occurrences_today": 16, "datetimes_today": "2026-03-19 00:01:42, 2026-03-19 00:16:44, 2026-03-19 00:31:57, 2026-03-19 00:46:44, 2026-03-19 01:01:31, 2026-03-19 01:31:38, 2026-03-19 01:46:25, 2026-03-19 02:01:30, 2026-03-19 02:12:28, 2026-03-19 02:31:53, 2026-03-19 02:46:26, 2026-03-19 03:01:28, 2026-03-19 03:16:31, 2026-03-19 03:31:27, 2026-03-19 03:46:32, 2026-03-19 03:59:04", "cumulative_total": 296.0 }, "geometry": { "type": "Polygon", "coordinates": [ [ [ -74.164245144369715, 45.398100688658893 ], [ -74.170594796297891, 45.400745428355506 ], [ -74.170518751883904, 45.405941779350094 ], [ -74.164091884504941, 45.408493373865227 ], [ -74.157741678415888, 45.405848272139636 ], [ -74.157818893859684, 45.400651937992251 ], [ -74.164245144369715, 45.398100688658893 ] ] ] } },
{ "type": "Feature", "properties": { "hex_id": 518355, "centroid_lon": -74.157664441906221, "centroid_lat": 45.411044601436281, "occurrences_today": 16, "datetimes_today": "2026-03-19 00:01:42, 2026-03-19 00:16:44, 2026-03-19 00:31:57, 2026-03-19 00:46:44, 2026-03-19 01:01:31, 2026-03-19 01:31:38, 2026-03-19 01:46:25, 2026-03-19 02:01:30, 2026-03-19 02:12:28, 2026-03-19 02:31:53, 2026-03-19 02:46:26, 2026-03-19 03:01:28, 2026-03-19 03:16:31, 2026-03-19 03:31:27, 2026-03-19 03:46:32, 2026-03-19 03:59:04", "cumulative_total": 178.0 }, "geometry": { "type": "Polygon", "coordinates": [ [ [ -74.157741678415888, 45.405848272139636 ], [ -74.164091884504941, 45.408493373865227 ], [ -74.164015223211521, 45.413689709194578 ], [ -74.157587184323603, 45.416240925882178 ], [ -74.151236424094776, 45.413595461967894 ], [ -74.151314256886579, 45.408399143619086 ], [ -74.157741678415888, 45.405848272139636 ] ] ] } },
{ "type": "Feature", "properties": { "hex_id": 564755, "centroid_lon": -73.671415667851477, "centroid_lat": 45.437604620945017, "occurrences_today": 7, "datetimes_today": "2026-03-19 00:01:42, 2026-03-19 00:16:44, 2026-03-19 00:31:57, 2026-03-19 00:46:44, 2026-03-19 01:01:31, 2026-03-19 01:31:38, 2026-03-19 01:46:25", "cumulative_total": 45.0 }, "geometry": { "type": "Polygon", "coordinates": [ [ [ -73.671537596419313, 45.432409152693488 ], [ -73.67786742960952, 45.435081051271233 ], [ -73.677746070600705, 45.440276530384111 ], [ -73.671293706011895, 45.442800084194218 ], [ -73.664963336539998, 45.440127818478786 ], [ -73.665085867927473, 45.434932366155294 ], [ -73.671537596419313, 45.432409152693488 ] ] ] } },
{ "type": "Feature", "properties": { "hex_id": 656372, "centroid_lon": -72.686212823030829, "centroid_lat": 46.076673493475639, "occurrences_today": 16, "datetimes_today": "2026-03-19 00:01:42, 2026-03-19 00:16:44, 2026-03-19 00:31:57, 2026-03-19 00:46:44, 2026-03-19 01:01:31, 2026-03-19 01:31:38, 2026-03-19 01:46:25, 2026-03-19 02:01:30, 2026-03-19 02:12:28, 2026-03-19 02:31:53, 2026-03-19 02:46:26, 2026-03-19 03:01:28, 2026-03-19 03:16:31, 2026-03-19 03:31:27, 2026-03-19 03:46:32, 2026-03-19 03:59:04", "cumulative_total": 188.0 }, "geometry": { "type": "Polygon", "coordinates": [ [ [ -72.686429911119433, 46.071481452492684 ], [ -72.692782004176067, 46.074208137705362 ], [ -72.692565491211624, 46.079400199463691 ], [ -72.685995675268302, 46.08186552892726 ], [ -72.679643066771575, 46.079138459369403 ], [ -72.679860789637942, 46.073946444758711 ], [ -72.686429911119433, 46.071481452492684 ] ] ] } },
{ "type": "Feature", "properties": { "hex_id": 586128, "centroid_lon": -73.445388389700156, "centroid_lat": 45.520499564259609, "occurrences_today": 5, "datetimes_today": "2026-03-19 00:01:42, 2026-03-19 00:16:44, 2026-03-19 00:31:57, 2026-03-19 00:46:44, 2026-03-19 01:01:31", "cumulative_total": 280.0 }, "geometry": { "type": "Polygon", "coordinates": [ [ [ -73.445531469601235, 45.515304688272806 ], [ -73.451859470753647, 45.517989057620312 ], [ -73.451716959833988, 45.523183946720621 ], [ -73.445245270720562, 45.525694435149816 ], [ -73.438916739671797, 45.523009695512393 ], [ -73.439060427619708, 45.517814837800159 ], [ -73.445531469601235, 45.515304688272806 ] ] ] } },
{ "type": "Feature", "properties": { "hex_id": 563534, "centroid_lon": -73.684197865470679, "centroid_lat": 45.437752604461927, "occurrences_today": 7, "datetimes_today": "2026-03-19 00:01:42, 2026-03-19 00:16:44, 2026-03-19 00:31:57, 2026-03-19 00:46:44, 2026-03-19 01:01:31, 2026-03-19 01:31:38, 2026-03-19 01:46:25", "cumulative_total": 110.0 }, "geometry": { "type": "Polygon", "coordinates": [ [ [ -73.684318621802973, 45.432557109552171 ], [ -73.690649090610719, 45.435228306522369 ], [ -73.690528904013888, 45.44042381216714 ], [ -73.684077076186298, 45.442948094374181 ], [ -73.677746070600705, 45.440276530384111 ], [ -73.67786742960952, 45.435081051271233 ], [ -73.684318621802973, 45.432557109552171 ] ] ] } },
{ "type": "Feature", "properties": { "hex_id": 520187, "centroid_lon": -74.13837866286211, "centroid_lat": 45.418696081531145, "occurrences_today": 12, "datetimes_today": "2026-03-19 00:01:42, 2026-03-19 00:16:44, 2026-03-19 00:31:57, 2026-03-19 00:46:44, 2026-03-19 01:01:31, 2026-03-19 01:31:38, 2026-03-19 01:46:25, 2026-03-19 02:01:30, 2026-03-19 02:12:28, 2026-03-19 02:31:53, 2026-03-19 02:46:26, 2026-03-19 03:01:28", "cumulative_total": 211.0 }, "geometry": { "type": "Polygon", "coordinates": [ [ [ -74.138457688686756, 45.413499785275818 ], [ -74.144807831077699, 45.416145955364641 ], [ -74.144729380447998, 45.421342257845801 ], [ -74.138299615474494, 45.423892372931 ], [ -74.131948919455226, 45.421245840372016 ], [ -74.132028542030554, 45.416049555262369 ], [ -74.138457688686756, 45.413499785275818 ] ] ] } },
{ "type": "Feature", "properties": { "hex_id": 1107104, "centroid_lon": -67.549274650372496, "centroid_lat": 48.710687486828895, "occurrences_today": 14, "datetimes_today": "2026-03-19 00:31:57, 2026-03-19 00:46:44, 2026-03-19 01:01:31, 2026-03-19 01:31:38, 2026-03-19 01:46:25, 2026-03-19 02:01:30, 2026-03-19 02:12:28, 2026-03-19 02:31:53, 2026-03-19 02:46:26, 2026-03-19 03:01:28, 2026-03-19 03:16:31, 2026-03-19 03:31:27, 2026-03-19 03:46:32, 2026-03-19 03:59:04", "cumulative_total": 56.0 }, "geometry": { "type": "Polygon", "coordinates": [ [ [ -67.550039234244096, 48.705537505428161 ], [ -67.556395943562848, 48.708550533598867 ], [ -67.555631927514725, 48.713700587091026 ], [ -67.548509850063198, 48.715837454625436 ], [ -67.542152789397733, 48.712823966450131 ], [ -67.542918157452362, 48.707674070813276 ], [ -67.550039234244096, 48.705537505428161 ] ] ] } },
{ "type": "Feature", "properties": { "hex_id": 1107714, "centroid_lon": -67.543683308921885, "centroid_lat": 48.702524161558017, "occurrences_today": 14, "datetimes_today": "2026-03-19 00:31:57, 2026-03-19 00:46:44, 2026-03-19 01:01:31, 2026-03-19 01:31:38, 2026-03-19 01:46:25, 2026-03-19 02:01:30, 2026-03-19 02:12:28, 2026-03-19 02:31:53, 2026-03-19 02:46:26, 2026-03-19 03:01:28, 2026-03-19 03:16:31, 2026-03-19 03:31:27, 2026-03-19 03:46:32, 2026-03-19 03:59:04", "cumulative_total": 56.0 }, "geometry": { "type": "Polygon", "coordinates": [ [ [ -67.544448243884446, 48.697374238687708 ], [ -67.550803601756115, 48.700387510426609 ], [ -67.550039234244096, 48.705537505428161 ], [ -67.542918157452362, 48.707674070813276 ], [ -67.536562448676179, 48.704660339159695 ], [ -67.537328167518098, 48.699510502103962 ], [ -67.544448243884446, 48.697374238687708 ] ] ] } },
{ "type": "Feature", "properties": { "hex_id": 1108325, "centroid_lon": -67.535796513101801, "centroid_lat": 48.709810162582833, "occurrences_today": 14, "datetimes_today": "2026-03-19 00:31:57, 2026-03-19 00:46:44, 2026-03-19 01:01:31, 2026-03-19 01:31:38, 2026-03-19 01:46:25, 2026-03-19 02:01:30, 2026-03-19 02:12:28, 2026-03-19 02:31:53, 2026-03-19 02:46:26, 2026-03-19 03:01:28, 2026-03-19 03:16:31, 2026-03-19 03:31:27, 2026-03-19 03:46:32, 2026-03-19 03:59:04", "cumulative_total": 56.0 }, "geometry": { "type": "Polygon", "coordinates": [ [ [ -67.536562448676179, 48.704660339159695 ], [ -67.542918157452362, 48.707674070813276 ], [ -67.542152789397733, 48.712823966450131 ], [ -67.535030360716718, 48.714959972370004 ], [ -67.528674301270641, 48.711945780644307 ], [ -67.529441021097199, 48.7067960431391 ], [ -67.536562448676179, 48.704660339159695 ] ] ] } },
{ "type": "Feature", "properties": { "hex_id": 1108935, "centroid_lon": -67.530207523965757, "centroid_lat": 48.701646291983707, "occurrences_today": 14, "datetimes_today": "2026-03-19 00:31:57, 2026-03-19 00:46:44, 2026-03-19 01:01:31, 2026-03-19 01:31:38, 2026-03-19 01:46:25, 2026-03-19 02:01:30, 2026-03-19 02:12:28, 2026-03-19 02:31:53, 2026-03-19 02:46:26, 2026-03-19 03:01:28, 2026-03-19 03:16:31, 2026-03-19 03:31:27, 2026-03-19 03:46:32, 2026-03-19 03:59:04", "cumulative_total": 56.0 }, "geometry": { "type": "Polygon", "coordinates": [ [ [ -67.530973809954588, 48.696496527181445 ], [ -67.537328167518098, 48.699510502103962 ], [ -67.536562448676179, 48.704660339159695 ], [ -67.529441021097199, 48.7067960431391 ], [ -67.523086313305612, 48.703781608234479 ], [ -67.523853383242809, 48.698631929400804 ], [ -67.530973809954588, 48.696496527181445 ] ] ] } },
{ "type": "Feature", "properties": { "hex_id": 556203, "centroid_lon": -73.762595674380833, "centroid_lat": 45.36067521086288, "occurrences_today": 4, "datetimes_today": "2026-03-19 00:01:42, 2026-03-19 00:16:44, 2026-03-19 00:31:57, 2026-03-19 00:46:44", "cumulative_total": 208.0 }, "geometry": { "type": "Polygon", "coordinates": [ [ [ -73.76270893235197, 45.355479486878174 ], [ -73.769034661808362, 45.358146321819689 ], [ -73.768921972313422, 45.363342055747474 ], [ -73.762482385531186, 45.365870929879186 ], [ -73.756156118482266, 45.363203729624679 ], [ -73.756269975797807, 45.358008020615635 ], [ -73.76270893235197, 45.355479486878174 ] ] ] } },
{ "type": "Feature", "properties": { "hex_id": 674074, "centroid_lon": -72.500623865602819, "centroid_lat": 46.033790070677703, "occurrences_today": 16, "datetimes_today": "2026-03-19 00:01:42, 2026-03-19 00:16:44, 2026-03-19 00:31:57, 2026-03-19 00:46:44, 2026-03-19 01:01:31, 2026-03-19 01:31:38, 2026-03-19 01:46:25, 2026-03-19 02:01:30, 2026-03-19 02:12:28, 2026-03-19 02:31:53, 2026-03-19 02:46:26, 2026-03-19 03:01:28, 2026-03-19 03:16:31, 2026-03-19 03:31:27, 2026-03-19 03:46:32, 2026-03-19 03:59:04", "cumulative_total": 252.0 }, "geometry": { "type": "Polygon", "coordinates": [ [ [ -72.500858005373686, 46.028598698390283 ], [ -72.507195696526225, 46.031335437583643 ], [ -72.506962127857989, 46.036526832448395 ], [ -72.500389661514447, 46.038981437303832 ], [ -72.494051463587724, 46.036244312685533 ], [ -72.494286238756857, 46.03105296870212 ], [ -72.500858005373686, 46.028598698390283 ] ] ] } },
{ "type": "Feature", "properties": { "hex_id": 675295, "centroid_lon": -72.48771390122451, "centroid_lat": 46.033506847903297, "occurrences_today": 16, "datetimes_today": "2026-03-19 00:01:42, 2026-03-19 00:16:44, 2026-03-19 00:31:57, 2026-03-19 00:46:44, 2026-03-19 01:01:31, 2026-03-19 01:31:38, 2026-03-19 01:46:25, 2026-03-19 02:01:30, 2026-03-19 02:12:28, 2026-03-19 02:31:53, 2026-03-19 02:46:26, 2026-03-19 03:01:28, 2026-03-19 03:16:31, 2026-03-19 03:31:27, 2026-03-19 03:46:32, 2026-03-19 03:59:04", "cumulative_total": 252.0 }, "geometry": { "type": "Polygon", "coordinates": [ [ [ -72.487949247298189, 46.028315526623402 ], [ -72.494286238756857, 46.03105296870212 ], [ -72.494051463587724, 46.036244312685533 ], [ -72.487478490502809, 46.038698163512414 ], [ -72.481140992798586, 46.035960335899141 ], [ -72.481376974402863, 46.030769043058932 ], [ -72.487949247298189, 46.028315526623402 ] ] ] } },
{ "type": "Feature", "properties": { "hex_id": 586132, "centroid_lon": -73.443668379006894, "centroid_lat": 45.582837678536997, "occurrences_today": 16, "datetimes_today": "2026-03-19 00:01:42, 2026-03-19 00:16:44, 2026-03-19 00:31:57, 2026-03-19 00:46:44, 2026-03-19 01:01:31, 2026-03-19 01:31:38, 2026-03-19 01:46:25, 2026-03-19 02:01:30, 2026-03-19 02:12:28, 2026-03-19 02:31:53, 2026-03-19 02:46:26, 2026-03-19 03:01:28, 2026-03-19 03:16:31, 2026-03-19 03:31:27, 2026-03-19 03:46:32, 2026-03-19 03:59:04", "cumulative_total": 225.0 }, "geometry": { "type": "Polygon", "coordinates": [ [ [ -73.443811928717309, 45.577642863716243 ], [ -73.450146767823824, 45.580327390611075 ], [ -73.450003788946503, 45.585522218579065 ], [ -73.443524790060124, 45.588032488259884 ], [ -73.437189419363435, 45.585347590266551 ], [ -73.437333579130112, 45.580152793755531 ], [ -73.443811928717309, 45.577642863716243 ] ] ] } },
{ "type": "Feature", "properties": { "hex_id": 586742, "centroid_lon": -73.437477699505862, "centroid_lat": 45.574957992143815, "occurrences_today": 16, "datetimes_today": "2026-03-19 00:01:42, 2026-03-19 00:16:44, 2026-03-19 00:31:57, 2026-03-19 00:46:44, 2026-03-19 01:01:31, 2026-03-19 01:31:38, 2026-03-19 01:46:25, 2026-03-19 02:01:30, 2026-03-19 02:12:28, 2026-03-19 02:31:53, 2026-03-19 02:46:26, 2026-03-19 03:01:28, 2026-03-19 03:16:31, 2026-03-19 03:31:27, 2026-03-19 03:46:32, 2026-03-19 03:59:04", "cumulative_total": 235.0 }, "geometry": { "type": "Polygon", "coordinates": [ [ [ -73.437621780503946, 45.569763185431526 ], [ -73.443955439204572, 45.572448043797749 ], [ -73.443811928717309, 45.577642863716243 ], [ -73.437333579130112, 45.580152793755531 ], [ -73.430999389302983, 45.577467564333816 ], [ -73.43114408017631, 45.572272775992943 ], [ -73.437621780503946, 45.569763185431526 ] ] ] } },
{ "type": "Feature", "properties": { "hex_id": 517133, "centroid_lon": -74.170670819972315, "centroid_lat": 45.395549072513255, "occurrences_today": 16, "datetimes_today": "2026-03-19 00:01:42, 2026-03-19 00:16:44, 2026-03-19 00:31:57, 2026-03-19 00:46:44, 2026-03-19 01:01:31, 2026-03-19 01:31:38, 2026-03-19 01:46:25, 2026-03-19 02:01:30, 2026-03-19 02:12:28, 2026-03-19 02:31:53, 2026-03-19 02:46:26, 2026-03-19 03:01:28, 2026-03-19 03:16:31, 2026-03-19 03:31:27, 2026-03-19 03:46:32, 2026-03-19 03:59:04", "cumulative_total": 172.0 }, "geometry": { "type": "Polygon", "coordinates": [ [ [ -74.17074682291414, 45.390352711823347 ], [ -74.177095920660562, 45.392997089650677 ], [ -74.177020492636601, 45.39819345624155 ], [ -74.170594796297891, 45.400745428355506 ], [ -74.164245144369715, 45.398100688658893 ], [ -74.164321742955053, 45.392904338781939 ], [ -74.17074682291414, 45.390352711823347 ] ] ] } },
{ "type": "Feature", "properties": { "hex_id": 517743, "centroid_lon": -74.164398320651671, "centroid_lat": 45.387707984055851, "occurrences_today": 16, "datetimes_today": "2026-03-19 00:01:42, 2026-03-19 00:16:44, 2026-03-19 00:31:57, 2026-03-19 00:46:44, 2026-03-19 01:01:31, 2026-03-19 01:31:38, 2026-03-19 01:46:25, 2026-03-19 02:01:30, 2026-03-19 02:12:28, 2026-03-19 02:31:53, 2026-03-19 02:46:26, 2026-03-19 03:01:28, 2026-03-19 03:16:31, 2026-03-19 03:31:27, 2026-03-19 03:46:32, 2026-03-19 03:59:04", "cumulative_total": 178.0 }, "geometry": { "type": "Polygon", "coordinates": [ [ [ -74.164474877466589, 45.382511624480607 ], [ -74.170822805130285, 45.385156346285846 ], [ -74.17074682291414, 45.390352711823347 ], [ -74.164321742955053, 45.392904338781939 ], [ -74.157973261577794, 45.390259255145303 ], [ -74.158050413866206, 45.385062906445803 ], [ -74.164474877466589, 45.382511624480607 ] ] ] } },
{ "type": "Feature", "properties": { "hex_id": 531181, "centroid_lon": -74.022016022065728, "centroid_lat": 45.495711857948457, "occurrences_today": 10, "datetimes_today": "2026-03-19 00:01:42, 2026-03-19 00:16:44, 2026-03-19 00:31:57, 2026-03-19 00:46:44, 2026-03-19 01:01:31, 2026-03-19 01:31:38, 2026-03-19 01:46:25, 2026-03-19 02:01:30, 2026-03-19 02:12:28, 2026-03-19 02:31:53", "cumulative_total": 65.0 }, "geometry": { "type": "Polygon", "coordinates": [ [ [ -74.0221059604971, 45.490515801742291 ], [ -74.028459142455233, 45.493168431893302 ], [ -74.028369780018153, 45.498364495495608 ], [ -74.021926059071902, 45.500907909268342 ], [ -74.01557232568608, 45.49825491456329 ], [ -74.015662864665941, 45.493058870704097 ], [ -74.0221059604971, 45.490515801742291 ] ] ] } },
{ "type": "Feature", "properties": { "hex_id": 775471, "centroid_lon": -71.374506229813235, "centroid_lat": 46.845415305198479, "occurrences_today": 3, "datetimes_today": "2026-03-19 03:31:27, 2026-03-19 03:46:32, 2026-03-19 03:59:04", "cumulative_total": 155.0 }, "geometry": { "type": "Polygon", "coordinates": [ [ [ -71.374855497208713, 46.840230135388872 ], [ -71.38122529864556, 46.843030079906612 ], [ -71.380876610046954, 46.848215283717856 ], [ -71.374156865556003, 46.850600468289024 ], [ -71.367786582200836, 46.847800117918879 ], [ -71.368136525221345, 46.842614988896827 ], [ -71.374855497208713, 46.840230135388872 ] ] ] } },
{ "type": "Feature", "properties": { "hex_id": 788291, "centroid_lon": -71.237627351196949, "centroid_lat": 46.833197560041619, "occurrences_today": 16, "datetimes_today": "2026-03-19 00:01:42, 2026-03-19 00:16:44, 2026-03-19 00:31:57, 2026-03-19 00:46:44, 2026-03-19 01:01:31, 2026-03-19 01:31:38, 2026-03-19 01:46:25, 2026-03-19 02:01:30, 2026-03-19 02:12:28, 2026-03-19 02:31:53, 2026-03-19 02:46:26, 2026-03-19 03:01:28, 2026-03-19 03:16:31, 2026-03-19 03:31:27, 2026-03-19 03:46:32, 2026-03-19 03:59:04", "cumulative_total": 101.0 }, "geometry": { "type": "Polygon", "coordinates": [ [ [ -71.237989631913351, 46.828013179904616 ], [ -71.244350434903538, 46.830820511946612 ], [ -71.243988730398343, 46.836004927404773 ], [ -71.237264970041892, 46.838381933308149 ], [ -71.230903691296575, 46.83557419445971 ], [ -71.231266648628022, 46.830389856581078 ], [ -71.237989631913351, 46.828013179904616 ] ] ] } },
{ "type": "Feature", "properties": { "hex_id": 665543, "centroid_lon": -72.580092353054241, "centroid_lat": 46.284927903042671, "occurrences_today": 16, "datetimes_today": "2026-03-19 00:01:42, 2026-03-19 00:16:44, 2026-03-19 00:31:57, 2026-03-19 00:46:44, 2026-03-19 01:01:31, 2026-03-19 01:31:38, 2026-03-19 01:46:25, 2026-03-19 02:01:30, 2026-03-19 02:12:28, 2026-03-19 02:31:53, 2026-03-19 02:46:26, 2026-03-19 03:01:28, 2026-03-19 03:16:31, 2026-03-19 03:31:27, 2026-03-19 03:46:32, 2026-03-19 03:59:04", "cumulative_total": 197.0 }, "geometry": { "type": "Polygon", "coordinates": [ [ [ -72.580321046997781, 46.279736449974898 ], [ -72.586691277870614, 46.282469310783185 ], [ -72.58646316390292, 46.287660785757431 ], [ -72.579863596084024, 46.290119350500731 ], [ -72.573492848272778, 46.287386101669505 ], [ -72.573722185197269, 46.282194676183941 ], [ -72.580321046997781, 46.279736449974898 ] ] ] } },
{ "type": "Feature", "properties": { "hex_id": 602609, "centroid_lon": -73.273795612571078, "centroid_lat": 45.479058413839191, "occurrences_today": 16, "datetimes_today": "2026-03-19 00:01:42, 2026-03-19 00:16:44, 2026-03-19 00:31:57, 2026-03-19 00:46:44, 2026-03-19 01:01:31, 2026-03-19 01:31:38, 2026-03-19 01:46:25, 2026-03-19 02:01:30, 2026-03-19 02:12:28, 2026-03-19 02:31:53, 2026-03-19 02:46:26, 2026-03-19 03:01:28, 2026-03-19 03:16:31, 2026-03-19 03:31:27, 2026-03-19 03:46:32, 2026-03-19 03:59:04", "cumulative_total": 117.0 }, "geometry": { "type": "Polygon", "coordinates": [ [ [ -73.273954251345359, 45.473863946231155 ], [ -73.280269233448166, 45.476557655831044 ], [ -73.280111160061978, 45.481752138230028 ], [ -73.273636930494106, 45.484252876270048 ], [ -73.267321426313174, 45.481558795329157 ], [ -73.267480673763728, 45.476364347753623 ], [ -73.273954251345359, 45.473863946231155 ] ] ] } },
{ "type": "Feature", "properties": { "hex_id": 787681, "centroid_lon": -71.243626925609718, "centroid_lat": 46.841189335999459, "occurrences_today": 16, "datetimes_today": "2026-03-19 00:01:42, 2026-03-19 00:16:44, 2026-03-19 00:31:57, 2026-03-19 00:46:44, 2026-03-19 01:01:31, 2026-03-19 01:31:38, 2026-03-19 01:46:25, 2026-03-19 02:01:30, 2026-03-19 02:12:28, 2026-03-19 02:31:53, 2026-03-19 02:46:26, 2026-03-19 03:01:28, 2026-03-19 03:16:31, 2026-03-19 03:31:27, 2026-03-19 03:46:32, 2026-03-19 03:59:04", "cumulative_total": 161.0 }, "geometry": { "type": "Polygon", "coordinates": [ [ [ -71.243988730398343, 46.836004927404773 ], [ -71.250350786266964, 46.838811958564605 ], [ -71.249989558034812, 46.843996402427742 ], [ -71.243265020502847, 46.846373737729934 ], [ -71.236902488413349, 46.843566299703419 ], [ -71.237264970041892, 46.838381933308149 ], [ -71.243988730398343, 46.836004927404773 ] ] ] } },
{ "type": "Feature", "properties": { "hex_id": 848726, "centroid_lon": -70.596055125221412, "centroid_lat": 46.740117815741392, "occurrences_today": 4, "datetimes_today": "2026-03-19 00:01:42, 2026-03-19 00:16:44, 2026-03-19 00:31:57, 2026-03-19 00:46:44", "cumulative_total": 133.0 }, "geometry": { "type": "Polygon", "coordinates": [ [ [ -70.596477695478811, 46.734937499318015 ], [ -70.602791870982884, 46.737779072117185 ], [ -70.602369863594191, 46.74295942996163 ], [ -70.595632438050529, 46.745298124515088 ], [ -70.589317816611398, 46.742456141084048 ], [ -70.589741066610628, 46.737275873797515 ], [ -70.596477695478811, 46.734937499318015 ] ] ] } },
{ "type": "Feature", "properties": { "hex_id": 609983, "centroid_lon": -73.172725185729988, "centroid_lat": 46.225790753360428, "occurrences_today": 16, "datetimes_today": "2026-03-19 00:01:42, 2026-03-19 00:16:44, 2026-03-19 00:31:57, 2026-03-19 00:46:44, 2026-03-19 01:01:31, 2026-03-19 01:31:38, 2026-03-19 01:46:25, 2026-03-19 02:01:30, 2026-03-19 02:12:28, 2026-03-19 02:31:53, 2026-03-19 02:46:26, 2026-03-19 03:01:28, 2026-03-19 03:16:31, 2026-03-19 03:31:27, 2026-03-19 03:46:32, 2026-03-19 03:59:04", "cumulative_total": 196.0 }, "geometry": { "type": "Polygon", "coordinates": [ [ [ -73.172897538849497, 46.220597251944525 ], [ -73.179291454697776, 46.223297420059311 ], [ -73.179119688345523, 46.228490937497895 ], [ -73.172552785128815, 46.230984249539254 ], [ -73.166158330003043, 46.228283699531218 ], [ -73.166331317355215, 46.223090219441147 ], [ -73.172897538849497, 46.220597251944525 ] ] ] } },
{ "type": "Feature", "properties": { "hex_id": 376114, "centroid_lon": -75.647483093099481, "centroid_lat": 45.498063488194141, "occurrences_today": 5, "datetimes_today": "2026-03-19 01:46:25, 2026-03-19 02:01:30, 2026-03-19 02:12:28, 2026-03-19 02:31:53, 2026-03-19 02:46:26", "cumulative_total": 148.0 }, "geometry": { "type": "Polygon", "coordinates": [ [ [ -75.647423542055733, 45.492867008279418 ], [ -75.65385223901319, 45.49542879920449 ], [ -75.653912386723647, 45.500625270145889 ], [ -75.64754266040859, 45.503259963299897 ], [ -75.641113350516321, 45.500697824054448 ], [ -75.641054379879364, 45.495501340039979 ], [ -75.647423542055733, 45.492867008279418 ] ] ] } },
{ "type": "Feature", "properties": { "hex_id": 1100984, "centroid_lon": -67.650565781804872, "centroid_lat": 48.483252843816153, "occurrences_today": 16, "datetimes_today": "2026-03-19 00:01:42, 2026-03-19 00:16:44, 2026-03-19 00:31:57, 2026-03-19 00:46:44, 2026-03-19 01:01:31, 2026-03-19 01:31:38, 2026-03-19 01:46:25, 2026-03-19 02:01:30, 2026-03-19 02:12:28, 2026-03-19 02:31:53, 2026-03-19 02:46:26, 2026-03-19 03:01:28, 2026-03-19 03:16:31, 2026-03-19 03:31:27, 2026-03-19 03:46:32, 2026-03-19 03:59:04", "cumulative_total": 65.0 }, "geometry": { "type": "Polygon", "coordinates": [ [ [ -67.651314027562321, 48.478101474955857 ], [ -67.657650265218919, 48.481107780199956 ], [ -67.656902582182767, 48.486259219909783 ], [ -67.649817324924712, 48.488404199375744 ], [ -67.643480735707399, 48.485397438159922 ], [ -67.644229755233098, 48.480246153517633 ], [ -67.651314027562321, 48.478101474955857 ] ] ] } },
{ "type": "Feature", "properties": { "hex_id": 1099762, "centroid_lon": -67.666227372588494, "centroid_lat": 48.46865916005639, "occurrences_today": 16, "datetimes_today": "2026-03-19 00:01:42, 2026-03-19 00:16:44, 2026-03-19 00:31:57, 2026-03-19 00:46:44, 2026-03-19 01:01:31, 2026-03-19 01:31:38, 2026-03-19 01:46:25, 2026-03-19 02:01:30, 2026-03-19 02:12:28, 2026-03-19 02:31:53, 2026-03-19 02:46:26, 2026-03-19 03:01:28, 2026-03-19 03:16:31, 2026-03-19 03:31:27, 2026-03-19 03:46:32, 2026-03-19 03:59:04", "cumulative_total": 39.0 }, "geometry": { "type": "Polygon", "coordinates": [ [ [ -67.666973650116063, 48.463507596490963 ], [ -67.673309183970147, 48.466512990261485 ], [ -67.672563469022975, 48.471664624513167 ], [ -67.665480884532926, 48.473810710361597 ], [ -67.659144998664189, 48.470804860932574 ], [ -67.659892049224609, 48.465653381381408 ], [ -67.666973650116063, 48.463507596490963 ] ] ] } },
{ "type": "Feature", "properties": { "hex_id": 1100373, "centroid_lon": -67.658397737354164, "centroid_lat": 48.475956327206497, "occurrences_today": 16, "datetimes_today": "2026-03-19 00:01:42, 2026-03-19 00:16:44, 2026-03-19 00:31:57, 2026-03-19 00:46:44, 2026-03-19 01:01:31, 2026-03-19 01:31:38, 2026-03-19 01:46:25, 2026-03-19 02:01:30, 2026-03-19 02:12:28, 2026-03-19 02:31:53, 2026-03-19 02:46:26, 2026-03-19 03:01:28, 2026-03-19 03:16:31, 2026-03-19 03:31:27, 2026-03-19 03:46:32, 2026-03-19 03:59:04", "cumulative_total": 39.0 }, "geometry": { "type": "Polygon", "coordinates": [ [ [ -67.659144998664189, 48.470804860932574 ], [ -67.665480884532926, 48.473810710361597 ], [ -67.664734185873812, 48.478962247403373 ], [ -67.657650265218919, 48.481107780199956 ], [ -67.651314027562321, 48.478101474955857 ], [ -67.652062062272833, 48.472950092798051 ], [ -67.659144998664189, 48.470804860932574 ] ] ] } },
{ "type": "Feature", "properties": { "hex_id": 788890, "centroid_lon": -71.243547571809771, "centroid_lat": 46.654118281423138, "occurrences_today": 3, "datetimes_today": "2026-03-19 03:31:27, 2026-03-19 03:46:32, 2026-03-19 03:59:04", "cumulative_total": 4.0 }, "geometry": { "type": "Polygon", "coordinates": [ [ [ -71.243907028985419, 46.648933703270913 ], [ -71.250247662768587, 46.651740172563869 ], [ -71.249888776368863, 46.656924785859594 ], [ -71.243188015215893, 46.659302852722924 ], [ -71.236846910092154, 46.656495979108705 ], [ -71.237207037427666, 46.65131144301872 ], [ -71.243907028985419, 46.648933703270913 ] ] ] } },
{ "type": "Feature", "properties": { "hex_id": 599567, "centroid_lon": -73.300842380260519, "centroid_lat": 45.643163058507412, "occurrences_today": 12, "datetimes_today": "2026-03-19 00:01:42, 2026-03-19 00:16:44, 2026-03-19 00:31:57, 2026-03-19 00:46:44, 2026-03-19 01:01:31, 2026-03-19 01:31:38, 2026-03-19 01:46:25, 2026-03-19 02:01:30, 2026-03-19 02:12:28, 2026-03-19 02:31:53, 2026-03-19 02:46:26, 2026-03-19 03:01:28", "cumulative_total": 293.0 }, "geometry": { "type": "Polygon", "coordinates": [ [ [ -73.30099942984603, 45.637968667302154 ], [ -73.307333937588623, 45.640661088539474 ], [ -73.307177458687278, 45.645855494317985 ], [ -73.300685287720327, 45.648357444547123 ], [ -73.294350252255484, 45.645664650125312 ], [ -73.294507915465374, 45.640470278723576 ], [ -73.30099942984603, 45.637968667302154 ] ] ] } },
{ "type": "Feature", "properties": { "hex_id": 642941, "centroid_lon": -72.828363447362335, "centroid_lat": 46.079464053123992, "occurrences_today": 4, "datetimes_today": "2026-03-19 01:46:25, 2026-03-19 02:01:30, 2026-03-19 02:12:28, 2026-03-19 02:31:53", "cumulative_total": 239.0 }, "geometry": { "type": "Polygon", "coordinates": [ [ [ -72.828567224743651, 46.07427150944946 ], [ -72.834926925665556, 46.076990416853718 ], [ -72.834723725558447, 46.082182979906044 ], [ -72.828159613958576, 46.084656591360726 ], [ -72.821799391794443, 46.081937300845311 ], [ -72.82200380245331, 46.076744782051989 ], [ -72.828567224743651, 46.07427150944946 ] ] ] } },
{ "type": "Feature", "properties": { "hex_id": 762659, "centroid_lon": -71.503358812496799, "centroid_lat": 46.981931035026605, "occurrences_today": 16, "datetimes_today": "2026-03-19 00:01:42, 2026-03-19 00:16:44, 2026-03-19 00:31:57, 2026-03-19 00:46:44, 2026-03-19 01:01:31, 2026-03-19 01:31:38, 2026-03-19 01:46:25, 2026-03-19 02:01:30, 2026-03-19 02:12:28, 2026-03-19 02:31:53, 2026-03-19 02:46:26, 2026-03-19 03:01:28, 2026-03-19 03:16:31, 2026-03-19 03:31:27, 2026-03-19 03:46:32, 2026-03-19 03:59:04", "cumulative_total": 94.0 }, "geometry": { "type": "Polygon", "coordinates": [ [ [ -71.50369729223091, 46.976745262568222 ], [ -71.510090044172074, 46.979538582193427 ], [ -71.509752149591975, 46.984724387486821 ], [ -71.503020238705631, 46.987116800896835 ], [ -71.496626995683883, 46.984323074619518 ], [ -71.496966154596322, 46.979137341651558 ], [ -71.50369729223091, 46.976745262568222 ] ] ] } },
{ "type": "Feature", "properties": { "hex_id": 762660, "centroid_lon": -71.502342808821084, "centroid_lat": 46.997488312870317, "occurrences_today": 16, "datetimes_today": "2026-03-19 00:01:42, 2026-03-19 00:16:44, 2026-03-19 00:31:57, 2026-03-19 00:46:44, 2026-03-19 01:01:31, 2026-03-19 01:31:38, 2026-03-19 01:46:25, 2026-03-19 02:01:30, 2026-03-19 02:12:28, 2026-03-19 02:31:53, 2026-03-19 02:46:26, 2026-03-19 03:01:28, 2026-03-19 03:16:31, 2026-03-19 03:31:27, 2026-03-19 03:46:32, 2026-03-19 03:59:04", "cumulative_total": 165.0 }, "geometry": { "type": "Polygon", "coordinates": [ [ [ -71.502681570824635, 46.992302560178281 ], [ -71.50907607870306, 46.995095978328386 ], [ -71.508737902328818, 47.000281763875279 ], [ -71.502003952662136, 47.002674058972318 ], [ -71.495608953326169, 46.999880233948481 ], [ -71.495948395081641, 46.994694520768626 ], [ -71.502681570824635, 46.992302560178281 ] ] ] } },
{ "type": "Feature", "properties": { "hex_id": 763270, "centroid_lon": -71.496287742523265, "centroid_lat": 46.989508800992091, "occurrences_today": 16, "datetimes_today": "2026-03-19 00:01:42, 2026-03-19 00:16:44, 2026-03-19 00:31:57, 2026-03-19 00:46:44, 2026-03-19 01:01:31, 2026-03-19 01:31:38, 2026-03-19 01:46:25, 2026-03-19 02:01:30, 2026-03-19 02:12:28, 2026-03-19 02:31:53, 2026-03-19 02:46:26, 2026-03-19 03:01:28, 2026-03-19 03:16:31, 2026-03-19 03:31:27, 2026-03-19 03:46:32, 2026-03-19 03:59:04", "cumulative_total": 171.0 }, "geometry": { "type": "Polygon", "coordinates": [ [ [ -71.496626995683883, 46.984323074619518 ], [ -71.503020238705631, 46.987116800896835 ], [ -71.502681570824635, 46.992302560178281 ], [ -71.495948395081641, 46.994694520768626 ], [ -71.48955466107769, 46.991900387676523 ], [ -71.489894593766124, 46.986714700876128 ], [ -71.496626995683883, 46.984323074619518 ] ] ] } },
{ "type": "Feature", "properties": { "hex_id": 763880, "centroid_lon": -71.4902344320152, "centroid_lat": 46.981529007473078, "occurrences_today": 16, "datetimes_today": "2026-03-19 00:01:42, 2026-03-19 00:16:44, 2026-03-19 00:31:57, 2026-03-19 00:46:44, 2026-03-19 01:01:31, 2026-03-19 01:31:38, 2026-03-19 01:46:25, 2026-03-19 02:01:30, 2026-03-19 02:12:28, 2026-03-19 02:31:53, 2026-03-19 02:46:26, 2026-03-19 03:01:28, 2026-03-19 03:16:31, 2026-03-19 03:31:27, 2026-03-19 03:46:32, 2026-03-19 03:59:04", "cumulative_total": 91.0 }, "geometry": { "type": "Polygon", "coordinates": [ [ [ -71.490574175857773, 46.976343307467964 ], [ -71.496966154596322, 46.979137341651558 ], [ -71.496626995683883, 46.984323074619518 ], [ -71.489894593766124, 46.986714700876128 ], [ -71.483502124520356, 46.983920259936696 ], [ -71.483842547666711, 46.978734599563744 ], [ -71.490574175857773, 46.976343307467964 ] ] ] } },
{ "type": "Feature", "properties": { "hex_id": 467109, "centroid_lon": -74.691321003663958, "centroid_lat": 45.974969773039227, "occurrences_today": 15, "datetimes_today": "2026-03-19 00:01:42, 2026-03-19 00:16:44, 2026-03-19 00:31:57, 2026-03-19 00:46:44, 2026-03-19 01:01:31, 2026-03-19 01:31:38, 2026-03-19 01:46:25, 2026-03-19 02:01:30, 2026-03-19 02:12:28, 2026-03-19 02:31:53, 2026-03-19 02:46:26, 2026-03-19 03:01:28, 2026-03-19 03:16:31, 2026-03-19 03:31:27, 2026-03-19 03:46:32", "cumulative_total": 70.0 }, "geometry": { "type": "Polygon", "coordinates": [ [ [ -74.691349870214552, 45.969773471998863 ], [ -74.697789388006854, 45.97238887199277 ], [ -74.697761121129744, 45.977585173762911 ], [ -74.69129212918223, 45.980166069319573 ], [ -74.684852019648915, 45.977550305257168 ], [ -74.684881493801441, 45.972354009772289 ], [ -74.691349870214552, 45.969773471998863 ] ] ] } },
{ "type": "Feature", "properties": { "hex_id": 374893, "centroid_lon": -75.660281516211299, "centroid_lat": 45.497990223896949, "occurrences_today": 5, "datetimes_today": "2026-03-19 01:46:25, 2026-03-19 02:01:30, 2026-03-19 02:12:28, 2026-03-19 02:31:53, 2026-03-19 02:46:26", "cumulative_total": 91.0 }, "geometry": { "type": "Polygon", "coordinates": [ [ [ -75.660220788262961, 45.492793757183271 ], [ -75.666650048877088, 45.495354824650882 ], [ -75.666711373644489, 45.500551282260879 ], [ -75.660342260746376, 45.503186685799264 ], [ -75.653912386723647, 45.500625270145889 ], [ -75.65385223901319, 45.49542879920449 ], [ -75.660220788262961, 45.492793757183271 ] ] ] } },
{ "type": "Feature", "properties": { "hex_id": 601998, "centroid_lon": -73.280427263698897, "centroid_lat": 45.471363168258108, "occurrences_today": 16, "datetimes_today": "2026-03-19 00:01:42, 2026-03-19 00:16:44, 2026-03-19 00:31:57, 2026-03-19 00:46:44, 2026-03-19 01:01:31, 2026-03-19 01:31:38, 2026-03-19 01:46:25, 2026-03-19 02:01:30, 2026-03-19 02:12:28, 2026-03-19 02:31:53, 2026-03-19 02:46:26, 2026-03-19 03:01:28, 2026-03-19 03:16:31, 2026-03-19 03:31:27, 2026-03-19 03:46:32, 2026-03-19 03:59:04", "cumulative_total": 38.0 }, "geometry": { "type": "Polygon", "coordinates": [ [ [ -73.280585250828665, 45.466168675511369 ], [ -73.286899710809877, 45.468862013928693 ], [ -73.286742288929915, 45.474056521398936 ], [ -73.280269233448166, 45.476557655831044 ], [ -73.273954251345359, 45.473863946231155 ], [ -73.274112846831457, 45.46866947344607 ], [ -73.280585250828665, 45.466168675511369 ] ] ] } },
{ "type": "Feature", "properties": { "hex_id": 649030, "centroid_lon": -72.773753992458822, "centroid_lat": 45.828980022217635, "occurrences_today": 16, "datetimes_today": "2026-03-19 00:01:42, 2026-03-19 00:16:44, 2026-03-19 00:31:57, 2026-03-19 00:46:44, 2026-03-19 01:01:31, 2026-03-19 01:31:38, 2026-03-19 01:46:25, 2026-03-19 02:01:30, 2026-03-19 02:12:28, 2026-03-19 02:31:53, 2026-03-19 02:46:26, 2026-03-19 03:01:28, 2026-03-19 03:16:31, 2026-03-19 03:31:27, 2026-03-19 03:46:32, 2026-03-19 03:59:04", "cumulative_total": 177.0 }, "geometry": { "type": "Polygon", "coordinates": [ [ [ -72.773961075196056, 45.823787440355837 ], [ -72.780289845339269, 45.82650892963813 ], [ -72.780083331464155, 45.831701531317734 ], [ -72.773546852970796, 45.834172598611097 ], [ -72.767217570725848, 45.831450728985629 ], [ -72.767425279056809, 45.826258172474972 ], [ -72.773961075196056, 45.823787440355837 ] ] ] } },
{ "type": "Feature", "properties": { "hex_id": 591631, "centroid_lon": -73.383993946698141, "centroid_lat": 45.652164927419626, "occurrences_today": 16, "datetimes_today": "2026-03-19 00:01:42, 2026-03-19 00:16:44, 2026-03-19 00:31:57, 2026-03-19 00:46:44, 2026-03-19 01:01:31, 2026-03-19 01:31:38, 2026-03-19 01:46:25, 2026-03-19 02:01:30, 2026-03-19 02:12:28, 2026-03-19 02:31:53, 2026-03-19 02:46:26, 2026-03-19 03:01:28, 2026-03-19 03:16:31, 2026-03-19 03:31:27, 2026-03-19 03:46:32, 2026-03-19 03:59:04", "cumulative_total": 196.0 }, "geometry": { "type": "Polygon", "coordinates": [ [ [ -73.384143359710521, 45.646970325947294 ], [ -73.390482981684471, 45.649658198468771 ], [ -73.390334140777483, 45.654852813696571 ], [ -73.38384449281358, 45.657359523766175 ], [ -73.377504339613338, 45.654671278710715 ], [ -73.377654365589521, 45.649476696184401 ], [ -73.384143359710521, 45.646970325947294 ] ] ] } },
{ "type": "Feature", "properties": { "hex_id": 589194, "centroid_lon": -73.407442126609581, "centroid_lat": 45.730444465960915, "occurrences_today": 16, "datetimes_today": "2026-03-19 00:01:42, 2026-03-19 00:16:44, 2026-03-19 00:31:57, 2026-03-19 00:46:44, 2026-03-19 01:01:31, 2026-03-19 01:31:38, 2026-03-19 01:46:25, 2026-03-19 02:01:30, 2026-03-19 02:12:28, 2026-03-19 02:31:53, 2026-03-19 02:46:26, 2026-03-19 03:01:28, 2026-03-19 03:16:31, 2026-03-19 03:31:27, 2026-03-19 03:46:32, 2026-03-19 03:59:04", "cumulative_total": 142.0 }, "geometry": { "type": "Polygon", "coordinates": [ [ [ -73.407589774519906, 45.725249876329492 ], [ -73.413939306109754, 45.727936544099904 ], [ -73.413792233002354, 45.733131147277 ], [ -73.407294438270696, 45.735639050476863 ], [ -73.400944372313276, 45.732952009388185 ], [ -73.401092635441444, 45.727757438482854 ], [ -73.407589774519906, 45.725249876329492 ] ] ] } },
{ "type": "Feature", "properties": { "hex_id": 575147, "centroid_lon": -73.557399144261808, "centroid_lat": 45.646691653752171, "occurrences_today": 3, "datetimes_today": "2026-03-19 01:01:31, 2026-03-19 01:31:38, 2026-03-19 01:46:25", "cumulative_total": 36.0 }, "geometry": { "type": "Polygon", "coordinates": [ [ [ -73.557532502670924, 45.641496626901684 ], [ -73.563880044118591, 45.644174968744124 ], [ -73.563747260030638, 45.649370007634126 ], [ -73.557265749371723, 45.651886675553676 ], [ -73.550917670090001, 45.649207962856046 ], [ -73.551051639288943, 45.64401295315885 ], [ -73.557532502670924, 45.641496626901684 ] ] ] } },
{ "type": "Feature", "properties": { "hex_id": 447601, "centroid_lon": -74.897047509740304, "centroid_lat": 46.411818956065702, "occurrences_today": 16, "datetimes_today": "2026-03-19 00:01:42, 2026-03-19 00:16:44, 2026-03-19 00:31:57, 2026-03-19 00:46:44, 2026-03-19 01:01:31, 2026-03-19 01:31:38, 2026-03-19 01:46:25, 2026-03-19 02:01:30, 2026-03-19 02:12:28, 2026-03-19 02:31:53, 2026-03-19 02:46:26, 2026-03-19 03:01:28, 2026-03-19 03:16:31, 2026-03-19 03:31:27, 2026-03-19 03:46:32, 2026-03-19 03:59:04", "cumulative_total": 70.0 }, "geometry": { "type": "Polygon", "coordinates": [ [ [ -74.897057285340082, 46.406622986772717 ], [ -74.903557765472996, 46.40922664296847 ], [ -74.903548606336258, 46.414422610912382 ], [ -74.89703773143961, 46.417014920614548 ], [ -74.890536637545054, 46.414410896842703 ], [ -74.89054703230785, 46.409214931011547 ], [ -74.897057285340082, 46.406622986772717 ] ] ] } },
{ "type": "Feature", "properties": { "hex_id": 760736, "centroid_lon": -71.612035653877115, "centroid_lat": 45.558762611229554, "occurrences_today": 6, "datetimes_today": "2026-03-19 00:01:42, 2026-03-19 00:16:44, 2026-03-19 00:31:57, 2026-03-19 00:46:44, 2026-03-19 01:01:31, 2026-03-19 01:31:38", "cumulative_total": 77.0 }, "geometry": { "type": "Polygon", "coordinates": [ [ [ -71.61234774107065, 45.553574950866768 ], [ -71.618586751857237, 45.556358477978527 ], [ -71.618275208541732, 45.561546169270194 ], [ -71.611723481523697, 45.56395026519025 ], [ -71.605484012033244, 45.561166351294581 ], [ -71.605796728236143, 45.555978728326672 ], [ -71.61234774107065, 45.553574950866768 ] ] ] } },
{ "type": "Feature", "properties": { "hex_id": 761347, "centroid_lon": -71.605171210496906, "centroid_lat": 45.566353967853892, "occurrences_today": 6, "datetimes_today": "2026-03-19 00:01:42, 2026-03-19 00:16:44, 2026-03-19 00:31:57, 2026-03-19 00:46:44, 2026-03-19 01:01:31, 2026-03-19 01:31:38", "cumulative_total": 77.0 }, "geometry": { "type": "Polygon", "coordinates": [ [ [ -71.605484012033244, 45.561166351294581 ], [ -71.611723481523697, 45.56395026519025 ], [ -71.611411223981818, 45.569137912748289 ], [ -71.604858323598521, 45.571541578003995 ], [ -71.598618395489964, 45.568757277169624 ], [ -71.598931826354189, 45.56356969808219 ], [ -71.605484012033244, 45.561166351294581 ] ] ] } },
{ "type": "Feature", "properties": { "hex_id": 761957, "centroid_lon": -71.599245171711388, "centroid_lat": 45.558382112579615, "occurrences_today": 6, "datetimes_today": "2026-03-19 00:01:42, 2026-03-19 00:16:44, 2026-03-19 00:31:57, 2026-03-19 00:46:44, 2026-03-19 01:01:31, 2026-03-19 01:31:38", "cumulative_total": 77.0 }, "geometry": { "type": "Polygon", "coordinates": [ [ [ -71.599558431590239, 45.553194520662473 ], [ -71.605796728236143, 45.555978728326672 ], [ -71.605484012033244, 45.561166351294581 ], [ -71.598931826354189, 45.56356969808219 ], [ -71.592693071525019, 45.560785103534123 ], [ -71.593006960529507, 45.555597549146228 ], [ -71.599558431590239, 45.553194520662473 ] ] ] } },
{ "type": "Feature", "properties": { "hex_id": 691756, "centroid_lon": -72.330279520035674, "centroid_lat": 45.679161790384391, "occurrences_today": 16, "datetimes_today": "2026-03-19 00:01:42, 2026-03-19 00:16:44, 2026-03-19 00:31:57, 2026-03-19 00:46:44, 2026-03-19 01:01:31, 2026-03-19 01:31:38, 2026-03-19 01:46:25, 2026-03-19 02:01:30, 2026-03-19 02:12:28, 2026-03-19 02:31:53, 2026-03-19 02:46:26, 2026-03-19 03:01:28, 2026-03-19 03:16:31, 2026-03-19 03:31:27, 2026-03-19 03:46:32, 2026-03-19 03:59:04", "cumulative_total": 169.0 }, "geometry": { "type": "Polygon", "coordinates": [ [ [ -72.330526533622418, 45.67397079241902 ], [ -72.336816031219314, 45.676716071729871 ], [ -72.336569575614689, 45.681907093773461 ], [ -72.330032438902208, 45.684352782570286 ], [ -72.323742450881298, 45.681607120964237 ], [ -72.323990089974146, 45.676416152921085 ], [ -72.330526533622418, 45.67397079241902 ] ] ] } },
{ "type": "Feature", "properties": { "hex_id": 878060, "centroid_lon": -70.241694999177483, "centroid_lat": 47.193605516149148, "occurrences_today": 16, "datetimes_today": "2026-03-19 00:01:42, 2026-03-19 00:16:44, 2026-03-19 00:31:57, 2026-03-19 00:46:44, 2026-03-19 01:01:31, 2026-03-19 01:31:38, 2026-03-19 01:46:25, 2026-03-19 02:01:30, 2026-03-19 02:12:28, 2026-03-19 02:31:53, 2026-03-19 02:46:26, 2026-03-19 03:01:28, 2026-03-19 03:16:31, 2026-03-19 03:31:27, 2026-03-19 03:46:32, 2026-03-19 03:59:04", "cumulative_total": 165.0 }, "geometry": { "type": "Polygon", "coordinates": [ [ [ -70.242158784667339, 47.188428180923196 ], [ -70.248504472311538, 47.191290454633439 ], [ -70.248041257634867, 47.1964678350326 ], [ -70.241231084640674, 47.198782843190273 ], [ -70.234884955252781, 47.195920149862062 ], [ -70.235349440557712, 47.190742868061122 ], [ -70.242158784667339, 47.188428180923196 ] ] ] } },
{ "type": "Feature", "properties": { "hex_id": 878670, "centroid_lon": -70.235813796663209, "centroid_lat": 47.185565578066473, "occurrences_today": 6, "datetimes_today": "2026-03-19 00:01:42, 2026-03-19 00:16:44, 2026-03-19 00:31:57, 2026-03-19 00:46:44, 2026-03-19 01:01:31, 2026-03-19 01:31:38", "cumulative_total": 155.0 }, "geometry": { "type": "Polygon", "coordinates": [ [ [ -70.236278023614403, 47.180388279879345 ], [ -70.242622441155277, 47.183250837513654 ], [ -70.242158784667339, 47.188428180923196 ], [ -70.235349440557712, 47.190742868061122 ], [ -70.229004581730464, 47.187879890876552 ], [ -70.229469508254112, 47.182702646171265 ], [ -70.236278023614403, 47.180388279879345 ] ] ] } },
{ "type": "Feature", "properties": { "hex_id": 879281, "centroid_lon": -70.228539525854998, "centroid_lat": 47.193057127379248, "occurrences_today": 16, "datetimes_today": "2026-03-19 00:01:42, 2026-03-19 00:16:44, 2026-03-19 00:31:57, 2026-03-19 00:46:44, 2026-03-19 01:01:31, 2026-03-19 01:31:38, 2026-03-19 01:46:25, 2026-03-19 02:01:30, 2026-03-19 02:12:28, 2026-03-19 02:31:53, 2026-03-19 02:46:26, 2026-03-19 03:01:28, 2026-03-19 03:16:31, 2026-03-19 03:31:27, 2026-03-19 03:46:32, 2026-03-19 03:59:04", "cumulative_total": 165.0 }, "geometry": { "type": "Polygon", "coordinates": [ [ [ -70.229004581730464, 47.187879890876552 ], [ -70.235349440557712, 47.190742868061122 ], [ -70.234884955252781, 47.195920149862062 ], [ -70.228074340582566, 47.198234355678096 ], [ -70.221729040604345, 47.195370958783535 ], [ -70.222194796402135, 47.190193775849885 ], [ -70.229004581730464, 47.187879890876552 ] ] ] } },
{ "type": "Feature", "properties": { "hex_id": 735795, "centroid_lon": -71.794027290919644, "centroid_lat": 46.959271678915435, "occurrences_today": 16, "datetimes_today": "2026-03-19 00:01:42, 2026-03-19 00:16:44, 2026-03-19 00:31:57, 2026-03-19 00:46:44, 2026-03-19 01:01:31, 2026-03-19 01:31:38, 2026-03-19 01:46:25, 2026-03-19 02:01:30, 2026-03-19 02:12:28, 2026-03-19 02:31:53, 2026-03-19 02:46:26, 2026-03-19 03:01:28, 2026-03-19 03:16:31, 2026-03-19 03:31:27, 2026-03-19 03:46:32, 2026-03-19 03:59:04", "cumulative_total": 158.0 }, "geometry": { "type": "Polygon", "coordinates": [ [ [ -71.794337418545481, 46.954084342968663 ], [ -71.800743523450265, 46.956861718088142 ], [ -71.800433984903222, 46.962049084010957 ], [ -71.793717077116185, 46.964459008569797 ], [ -71.78731046932522, 46.961681229553058 ], [ -71.787621272177461, 46.956493929942063 ], [ -71.794337418545481, 46.954084342968663 ] ] ] } },
{ "type": "Feature", "properties": { "hex_id": 674061, "centroid_lon": -72.509707872397371, "centroid_lat": 45.831322359420156, "occurrences_today": 16, "datetimes_today": "2026-03-19 00:01:42, 2026-03-19 00:16:44, 2026-03-19 00:31:57, 2026-03-19 00:46:44, 2026-03-19 01:01:31, 2026-03-19 01:31:38, 2026-03-19 01:46:25, 2026-03-19 02:01:30, 2026-03-19 02:12:28, 2026-03-19 02:31:53, 2026-03-19 02:46:26, 2026-03-19 03:01:28, 2026-03-19 03:16:31, 2026-03-19 03:31:27, 2026-03-19 03:46:32, 2026-03-19 03:59:04", "cumulative_total": 129.0 }, "geometry": { "type": "Polygon", "coordinates": [ [ [ -72.50993952073182, 45.826130766577087 ], [ -72.516255058741677, 45.828866628799219 ], [ -72.516023975529308, 45.834058244042829 ], [ -72.509476160590211, 45.836513946613664 ], [ -72.503160120941757, 45.833777701684994 ], [ -72.503392397849524, 45.828586136956957 ], [ -72.50993952073182, 45.826130766577087 ] ] ] } }
]
}
