{
"type": "FeatureCollection",
"name": "daily_2025-11-27",
"crs": { "type": "name", "properties": { "name": "urn:ogc:def:crs:OGC:1.3:CRS84" } },
"features": [
{ "type": "Feature", "properties": { "hex_id": 19, "count": 4, "date": "2025-11-27", "n_files": 22, "pct": 18.18 }, "geometry": { "type": "Polygon", "coordinates": [ [ [ -74.9916017, 46.0146389 ], [ -74.9915978, 46.0406205 ], [ -75.0239133, 46.0536091 ], [ -75.0562176, 46.040607 ], [ -75.0561912, 46.0146254 ], [ -75.0238909, 46.0016458 ], [ -74.9916017, 46.0146389 ] ] ] } },
{ "type": "Feature", "properties": { "hex_id": 469, "count": 1, "date": "2025-11-27", "n_files": 22, "pct": 4.55 }, "geometry": { "type": "Polygon", "coordinates": [ [ [ -74.7650436, 46.1313141 ], [ -74.7649331, 46.157295 ], [ -74.7972633, 46.1703474 ], [ -74.829689, 46.1574098 ], [ -74.8297691, 46.1314288 ], [ -74.7974539, 46.1183855 ], [ -74.7650436, 46.1313141 ] ] ] } },
{ "type": "Feature", "properties": { "hex_id": 597, "count": 1, "date": "2025-11-27", "n_files": 22, "pct": 4.55 }, "geometry": { "type": "Polygon", "coordinates": [ [ [ -74.7003186, 46.1311627 ], [ -74.7001776, 46.1571435 ], [ -74.7324923, 46.1702142 ], [ -74.7649331, 46.157295 ], [ -74.7650436, 46.1313141 ], [ -74.7327439, 46.1182526 ], [ -74.7003186, 46.1311627 ] ] ] } },
{ "type": "Feature", "properties": { "hex_id": 725, "count": 3, "date": "2025-11-27", "n_files": 22, "pct": 13.64 }, "geometry": { "type": "Polygon", "coordinates": [ [ [ -74.6355942, 46.1309747 ], [ -74.6354227, 46.1569553 ], [ -74.6677219, 46.1700443 ], [ -74.7001776, 46.1571435 ], [ -74.7003186, 46.1311627 ], [ -74.6680343, 46.1180829 ], [ -74.6355942, 46.1309747 ] ] ] } },
{ "type": "Feature", "properties": { "hex_id": 1353, "count": 5, "date": "2025-11-27", "n_files": 22, "pct": 22.73 }, "geometry": { "type": "Polygon", "coordinates": [ [ [ -74.3233477, 45.194152599999988 ], [ -74.3230395, 45.2201362 ], [ -74.3547324, 45.2333123 ], [ -74.3867195, 45.2204959 ], [ -74.3869987, 45.194512 ], [ -74.3553197, 45.1813448 ], [ -74.3233477, 45.194152599999988 ] ] ] } },
{ "type": "Feature", "properties": { "hex_id": 1481, "count": 5, "date": "2025-11-27", "n_files": 22, "pct": 22.73 }, "geometry": { "type": "Polygon", "coordinates": [ [ [ -74.259698, 45.1937577 ], [ -74.2593609, 45.2197409 ], [ -74.2910386, 45.2329346 ], [ -74.3230395, 45.2201362 ], [ -74.3233477, 45.194152599999988 ], [ -74.2916838, 45.1809679 ], [ -74.259698, 45.1937577 ] ] ] } },
{ "type": "Feature", "properties": { "hex_id": 1491, "count": 10, "date": "2025-11-27", "n_files": 22, "pct": 45.45 }, "geometry": { "type": "Polygon", "coordinates": [ [ [ -74.2493815, 45.9732014 ], [ -74.2490302, 45.999181 ], [ -74.2811452, 46.0123784 ], [ -74.3135969, 45.9995871 ], [ -74.313918, 45.9736071 ], [ -74.2818175, 45.9604189 ], [ -74.2493815, 45.9732014 ] ] ] } },
{ "type": "Feature", "properties": { "hex_id": 1555, "count": 10, "date": "2025-11-27", "n_files": 22, "pct": 45.45 }, "geometry": { "type": "Polygon", "coordinates": [ [ [ -74.2165641, 46.011954 ], [ -74.216197, 46.0379332 ], [ -74.2483263, 46.0511398 ], [ -74.2808083, 46.038358 ], [ -74.2811452, 46.0123784 ], [ -74.2490302, 45.999181 ], [ -74.2165641, 46.011954 ] ] ] } },
{ "type": "Feature", "properties": { "hex_id": 1619, "count": 10, "date": "2025-11-27", "n_files": 22, "pct": 45.45 }, "geometry": { "type": "Polygon", "coordinates": [ [ [ -74.1848464, 45.9727593 ], [ -74.184465, 45.9987385 ], [ -74.2165641, 46.011954 ], [ -74.2490302, 45.999181 ], [ -74.2493815, 45.9732014 ], [ -74.2172967, 45.959995199999987 ], [ -74.1848464, 45.9727593 ] ] ] } },
{ "type": "Feature", "properties": { "hex_id": 1683, "count": 10, "date": "2025-11-27", "n_files": 22, "pct": 45.45 }, "geometry": { "type": "Polygon", "coordinates": [ [ [ -74.1519844, 46.011493 ], [ -74.1515871, 46.0374718 ], [ -74.1837005, 46.0506965 ], [ -74.216197, 46.0379332 ], [ -74.2165641, 46.011954 ], [ -74.184465, 45.9987385 ], [ -74.1519844, 46.011493 ] ] ] } },
{ "type": "Feature", "properties": { "hex_id": 1740, "count": 3, "date": "2025-11-27", "n_files": 22, "pct": 13.64 }, "geometry": { "type": "Polygon", "coordinates": [ [ [ -74.1288277, 45.4266989 ], [ -74.1284277, 45.4526802 ], [ -74.1602039, 45.4659103 ], [ -74.1923661, 45.4531502 ], [ -74.1927367, 45.4271684 ], [ -74.1609745, 45.4139473 ], [ -74.1288277, 45.4266989 ] ] ] } },
{ "type": "Feature", "properties": { "hex_id": 1747, "count": 2, "date": "2025-11-27", "n_files": 22, "pct": 9.09 }, "geometry": { "type": "Polygon", "coordinates": [ [ [ -74.1203129, 45.9722808 ], [ -74.1199013, 45.998259499999989 ], [ -74.1519844, 46.011493 ], [ -74.184465, 45.9987385 ], [ -74.1848464, 45.9727593 ], [ -74.1527775, 45.9595351 ], [ -74.1203129, 45.9722808 ] ] ] } },
{ "type": "Feature", "properties": { "hex_id": 1810, "count": 4, "date": "2025-11-27", "n_files": 22, "pct": 18.18 }, "geometry": { "type": "Polygon", "coordinates": [ [ [ -74.0886857, 45.9330598 ], [ -74.0882599, 45.9590385 ], [ -74.1203129, 45.9722808 ], [ -74.1527775, 45.9595351 ], [ -74.1531732, 45.9335559 ], [ -74.1211344, 45.9203229 ], [ -74.0886857, 45.9330598 ] ] ] } },
{ "type": "Feature", "properties": { "hex_id": 1875, "count": 4, "date": "2025-11-27", "n_files": 22, "pct": 18.18 }, "geometry": { "type": "Polygon", "coordinates": [ [ [ -74.0557811, 45.9717658 ], [ -74.0553393, 45.9977441 ], [ -74.0874065, 46.0109956 ], [ -74.1199013, 45.998259499999989 ], [ -74.1203129, 45.9722808 ], [ -74.0882599, 45.9590385 ], [ -74.0557811, 45.9717658 ] ] ] } },
{ "type": "Feature", "properties": { "hex_id": 2013, "count": 8, "date": "2025-11-27", "n_files": 22, "pct": 36.36 }, "geometry": { "type": "Polygon", "coordinates": [ [ [ -73.9768049, 46.750495 ], [ -73.976313, 46.7764691 ], [ -74.008817, 46.7897444 ], [ -74.0417982, 46.777036099999989 ], [ -74.0422587, 46.7510615 ], [ -74.0097694, 46.7377957 ], [ -73.9768049, 46.750495 ] ] ] } },
{ "type": "Feature", "properties": { "hex_id": 2076, "count": 8, "date": "2025-11-27", "n_files": 22, "pct": 36.36 }, "geometry": { "type": "Polygon", "coordinates": [ [ [ -73.944839, 46.7112366 ], [ -73.9443324, 46.7372107 ], [ -73.9768049, 46.750495 ], [ -74.0097694, 46.7377957 ], [ -74.0102446, 46.7118211 ], [ -73.9777867, 46.6985463 ], [ -73.944839, 46.7112366 ] ] ] } },
{ "type": "Feature", "properties": { "hex_id": 2255, "count": 2, "date": "2025-11-27", "n_files": 22, "pct": 9.09 }, "geometry": { "type": "Polygon", "coordinates": [ [ [ -73.8685284, 45.6582722 ], [ -73.8680047, 45.6842504 ], [ -73.8998482, 45.697553199999987 ], [ -73.9322015, 45.6848685 ], [ -73.9326955, 45.6588898 ], [ -73.9008658, 45.6455962 ], [ -73.8685284, 45.6582722 ] ] ] } },
{ "type": "Feature", "properties": { "hex_id": 2316, "count": 1, "date": "2025-11-27", "n_files": 22, "pct": 4.55 }, "geometry": { "type": "Polygon", "coordinates": [ [ [ -73.8404609, 45.4631118 ], [ -73.8399279, 45.4890906 ], [ -73.8716552, 45.5024006 ], [ -73.903902, 45.4897225 ], [ -73.9044056, 45.4637431 ], [ -73.8726918, 45.4504423 ], [ -73.8404609, 45.4631118 ] ] ] } },
{ "type": "Feature", "properties": { "hex_id": 2318, "count": 2, "date": "2025-11-27", "n_files": 22, "pct": 9.09 }, "geometry": { "type": "Polygon", "coordinates": [ [ [ -73.8372519, 45.6189829 ], [ -73.8367146, 45.6449609 ], [ -73.8685284, 45.6582722 ], [ -73.9008658, 45.6455962 ], [ -73.9013735, 45.6196176 ], [ -73.8695735, 45.6063155 ], [ -73.8372519, 45.6189829 ] ] ] } },
{ "type": "Feature", "properties": { "hex_id": 2381, "count": 1, "date": "2025-11-27", "n_files": 22, "pct": 4.55 }, "geometry": { "type": "Polygon", "coordinates": [ [ [ -73.8076675, 45.5017505 ], [ -73.8071187, 45.5277288 ], [ -73.8388597, 45.5410479 ], [ -73.8711359, 45.5283795 ], [ -73.8716552, 45.5024006 ], [ -73.8399279, 45.4890906 ], [ -73.8076675, 45.5017505 ] ] ] } },
{ "type": "Feature", "properties": { "hex_id": 2444, "count": 6, "date": "2025-11-27", "n_files": 22, "pct": 27.27 }, "geometry": { "type": "Polygon", "coordinates": [ [ [ -73.7765183, 45.4624447 ], [ -73.7759559, 45.488423 ], [ -73.8076675, 45.5017505 ], [ -73.8399279, 45.4890906 ], [ -73.8404609, 45.4631118 ], [ -73.8087629, 45.4497934 ], [ -73.7765183, 45.4624447 ] ] ] } },
{ "type": "Feature", "properties": { "hex_id": 2447, "count": 3, "date": "2025-11-27", "n_files": 22, "pct": 13.64 }, "geometry": { "type": "Polygon", "coordinates": [ [ [ -73.7714292, 45.6962442 ], [ -73.7708599, 45.7222213 ], [ -73.8027011, 45.735551 ], [ -73.835098, 45.7228944 ], [ -73.8356376, 45.6969167 ], [ -73.8038101, 45.6835962 ], [ -73.7714292, 45.6962442 ] ] ] } },
{ "type": "Feature", "properties": { "hex_id": 2453, "count": 1, "date": "2025-11-27", "n_files": 22, "pct": 4.55 }, "geometry": { "type": "Polygon", "coordinates": [ [ [ -73.7610609, 46.163813 ], [ -73.7604773, 46.1897879 ], [ -73.7925828, 46.2031221 ], [ -73.8252577, 46.190472 ], [ -73.8258108, 46.1644965 ], [ -73.7937194, 46.1511717 ], [ -73.7610609, 46.163813 ] ] ] } },
{ "type": "Feature", "properties": { "hex_id": 2454, "count": 1, "date": "2025-11-27", "n_files": 22, "pct": 4.55 }, "geometry": { "type": "Polygon", "coordinates": [ [ [ -73.7593077, 46.2417372 ], [ -73.7587218, 46.2677117 ], [ -73.7908719, 46.2810467 ], [ -73.8235939, 46.2683977 ], [ -73.8241493, 46.2424226 ], [ -73.7920133, 46.229097 ], [ -73.7593077, 46.2417372 ] ] ] } },
{ "type": "Feature", "properties": { "hex_id": 2518, "count": 1, "date": "2025-11-27", "n_files": 22, "pct": 4.55 }, "geometry": { "type": "Polygon", "coordinates": [ [ [ -73.7277883, 46.2024193 ], [ -73.7271882, 46.2283936 ], [ -73.7593077, 46.2417372 ], [ -73.7920133, 46.229097 ], [ -73.7925828, 46.2031221 ], [ -73.7604773, 46.1897879 ], [ -73.7277883, 46.2024193 ] ] ] } },
{ "type": "Feature", "properties": { "hex_id": 2519, "count": 12, "date": "2025-11-27", "n_files": 22, "pct": 54.55 }, "geometry": { "type": "Polygon", "coordinates": [ [ [ -73.7259856, 46.280342 ], [ -73.7253831, 46.3063159 ], [ -73.7575474, 46.3196603 ], [ -73.7903, 46.3070213 ], [ -73.7908719, 46.2810467 ], [ -73.7587218, 46.2677117 ], [ -73.7259856, 46.280342 ] ] ] } },
{ "type": "Feature", "properties": { "hex_id": 2581, "count": 1, "date": "2025-11-27", "n_files": 22, "pct": 4.55 }, "geometry": { "type": "Polygon", "coordinates": [ [ [ -73.6963134, 46.1630928 ], [ -73.6956993, 46.189067 ], [ -73.7277883, 46.2024193 ], [ -73.7604773, 46.1897879 ], [ -73.7610609, 46.163813 ], [ -73.7289859, 46.1504702 ], [ -73.6963134, 46.1630928 ] ] ] } },
{ "type": "Feature", "properties": { "hex_id": 2582, "count": 12, "date": "2025-11-27", "n_files": 22, "pct": 54.55 }, "geometry": { "type": "Polygon", "coordinates": [ [ [ -73.6944687, 46.2410151 ], [ -73.6938521, 46.2669889 ], [ -73.7259856, 46.280342 ], [ -73.7587218, 46.2677117 ], [ -73.7593077, 46.2417372 ], [ -73.7271882, 46.2283936 ], [ -73.6944687, 46.2410151 ] ] ] } },
{ "type": "Feature", "properties": { "hex_id": 2646, "count": 1, "date": "2025-11-27", "n_files": 22, "pct": 4.55 }, "geometry": { "type": "Polygon", "coordinates": [ [ [ -73.6629963, 46.2016798 ], [ -73.6623657, 46.2276534 ], [ -73.6944687, 46.2410151 ], [ -73.7271882, 46.2283936 ], [ -73.7277883, 46.2024193 ], [ -73.6956993, 46.189067 ], [ -73.6629963, 46.2016798 ] ] ] } },
{ "type": "Feature", "properties": { "hex_id": 2765, "count": 1, "date": "2025-11-27", "n_files": 22, "pct": 4.55 }, "geometry": { "type": "Polygon", "coordinates": [ [ [ -73.6157183, 45.4995853 ], [ -73.6150812, 45.5255617 ], [ -73.6467744, 45.5389336 ], [ -73.6790912, 45.5263199 ], [ -73.6796989, 45.5003429 ], [ -73.6480191, 45.4869801 ], [ -73.6157183, 45.4995853 ] ] ] } },
{ "type": "Feature", "properties": { "hex_id": 2829, "count": 1, "date": "2025-11-27", "n_files": 22, "pct": 4.55 }, "geometry": { "type": "Polygon", "coordinates": [ [ [ -73.5827509, 45.5381571 ], [ -73.5820977, 45.5641329 ], [ -73.6138044, 45.5775141 ], [ -73.6461507, 45.5649101 ], [ -73.6467744, 45.5389336 ], [ -73.6150812, 45.5255617 ], [ -73.5827509, 45.5381571 ] ] ] } },
{ "type": "Feature", "properties": { "hex_id": 2832, "count": 1, "date": "2025-11-27", "n_files": 22, "pct": 4.55 }, "geometry": { "type": "Polygon", "coordinates": [ [ [ -73.5768404, 45.7719351 ], [ -73.5761791, 45.7979098 ], [ -73.6080154, 45.8112936 ], [ -73.6404993, 45.7986934 ], [ -73.6411307, 45.772718 ], [ -73.609308, 45.7593435 ], [ -73.5768404, 45.7719351 ] ] ] } },
{ "type": "Feature", "properties": { "hex_id": 3159, "count": 2, "date": "2025-11-27", "n_files": 22, "pct": 9.09 }, "geometry": { "type": "Polygon", "coordinates": [ [ [ -73.4015944, 46.2762664 ], [ -73.4008386, 46.3022367 ], [ -73.4329191, 46.3156713 ], [ -73.4657417, 46.3031262 ], [ -73.4664669, 46.2771551 ], [ -73.4344001, 46.2637299 ], [ -73.4015944, 46.2762664 ] ] ] } },
{ "type": "Feature", "properties": { "hex_id": 3222, "count": 1, "date": "2025-11-27", "n_files": 22, "pct": 4.55 }, "geometry": { "type": "Polygon", "coordinates": [ [ [ -73.370314, 46.2368531 ], [ -73.3695444, 46.2628232 ], [ -73.4015944, 46.2762664 ], [ -73.4344001, 46.2637299 ], [ -73.4351391, 46.237759 ], [ -73.4031029, 46.2243254 ], [ -73.370314, 46.2368531 ] ] ] } },
{ "type": "Feature", "properties": { "hex_id": 3273, "count": 7, "date": "2025-11-27", "n_files": 22, "pct": 31.82 }, "geometry": { "type": "Polygon", "coordinates": [ [ [ -73.3688001, 45.1845069 ], [ -73.3680576, 45.2104818 ], [ -73.3995172, 45.2239198 ], [ -73.4317063, 45.2113737 ], [ -73.4324198, 45.185398 ], [ -73.4009733, 45.1719692 ], [ -73.3688001, 45.1845069 ] ] ] } },
{ "type": "Feature", "properties": { "hex_id": 3287, "count": 1, "date": "2025-11-27", "n_files": 22, "pct": 4.55 }, "geometry": { "type": "Polygon", "coordinates": [ [ [ -73.336725, 46.2753409 ], [ -73.3359385, 46.3013103 ], [ -73.3680022, 46.314763 ], [ -73.4008386, 46.3022367 ], [ -73.4015944, 46.2762664 ], [ -73.3695444, 46.2628232 ], [ -73.336725, 46.2753409 ] ] ] } },
{ "type": "Feature", "properties": { "hex_id": 3350, "count": 1, "date": "2025-11-27", "n_files": 22, "pct": 4.55 }, "geometry": { "type": "Polygon", "coordinates": [ [ [ -73.3054921, 46.2359105 ], [ -73.304692, 46.2618797 ], [ -73.336725, 46.2753409 ], [ -73.3695444, 46.2628232 ], [ -73.370314, 46.2368531 ], [ -73.3382946, 46.2234015 ], [ -73.3054921, 46.2359105 ] ] ] } },
{ "type": "Feature", "properties": { "hex_id": 3403, "count": 4, "date": "2025-11-27", "n_files": 22, "pct": 18.18 }, "geometry": { "type": "Polygon", "coordinates": [ [ [ -73.3005391, 45.3394226 ], [ -73.2997613, 45.3653959 ], [ -73.331289, 45.3788533 ], [ -73.3635813, 45.3663283 ], [ -73.3643299, 45.3403542 ], [ -73.3328153, 45.3269059 ], [ -73.3005391, 45.3394226 ] ] ] } },
{ "type": "Feature", "properties": { "hex_id": 3410, "count": 2, "date": "2025-11-27", "n_files": 22, "pct": 9.09 }, "geometry": { "type": "Polygon", "coordinates": [ [ [ -73.2839812, 45.8848339 ], [ -73.2831807, 45.9108045 ], [ -73.3150081, 45.924269599999988 ], [ -73.3476224, 45.9117547 ], [ -73.3483928, 45.8857833 ], [ -73.3165789, 45.8723276 ], [ -73.2839812, 45.8848339 ] ] ] } },
{ "type": "Feature", "properties": { "hex_id": 3415, "count": 1, "date": "2025-11-27", "n_files": 22, "pct": 4.55 }, "geometry": { "type": "Polygon", "coordinates": [ [ [ -73.2718588, 46.2743786 ], [ -73.2710418, 46.3003472 ], [ -73.3030884, 46.3138178 ], [ -73.3359385, 46.3013103 ], [ -73.336725, 46.2753409 ], [ -73.304692, 46.2618797 ], [ -73.2718588, 46.2743786 ] ] ] } },
{ "type": "Feature", "properties": { "hex_id": 3478, "count": 1, "date": "2025-11-27", "n_files": 22, "pct": 4.55 }, "geometry": { "type": "Polygon", "coordinates": [ [ [ -73.2406735, 46.2349311 ], [ -73.2398428, 46.2608995 ], [ -73.2718588, 46.2743786 ], [ -73.304692, 46.2618797 ], [ -73.3054921, 46.2359105 ], [ -73.2734896, 46.222441 ], [ -73.2406735, 46.2349311 ] ] ] } },
{ "type": "Feature", "properties": { "hex_id": 3531, "count": 4, "date": "2025-11-27", "n_files": 22, "pct": 18.18 }, "geometry": { "type": "Polygon", "coordinates": [ [ [ -73.2367514, 45.3384554 ], [ -73.2359445, 45.3644278 ], [ -73.267456, 45.3779026 ], [ -73.2997613, 45.3653959 ], [ -73.3005391, 45.3394226 ], [ -73.2690406, 45.325957 ], [ -73.2367514, 45.3384554 ] ] ] } },
{ "type": "Feature", "properties": { "hex_id": 3538, "count": 2, "date": "2025-11-27", "n_files": 22, "pct": 9.09 }, "geometry": { "type": "Polygon", "coordinates": [ [ [ -73.2195728, 45.8838483 ], [ -73.2187424, 45.9098179 ], [ -73.250553, 45.9233008 ], [ -73.2831807, 45.9108045 ], [ -73.2839812, 45.8848339 ], [ -73.2521838, 45.8713605 ], [ -73.2195728, 45.8838483 ] ] ] } },
{ "type": "Feature", "properties": { "hex_id": 3543, "count": 1, "date": "2025-11-27", "n_files": 22, "pct": 4.55 }, "geometry": { "type": "Polygon", "coordinates": [ [ [ -73.2069961, 46.2733795 ], [ -73.2061484, 46.2993472 ], [ -73.238178, 46.3128358 ], [ -73.2710418, 46.3003472 ], [ -73.2718588, 46.2743786 ], [ -73.2398428, 46.2608995 ], [ -73.2069961, 46.2733795 ] ] ] } },
{ "type": "Feature", "properties": { "hex_id": 3731, "count": 7, "date": "2025-11-27", "n_files": 22, "pct": 31.82 }, "geometry": { "type": "Polygon", "coordinates": [ [ [ -73.1190179, 45.9991579 ], [ -73.1181371, 46.0251256 ], [ -73.1499877, 46.0386368 ], [ -73.1827058, 46.0261708 ], [ -73.1835564, 46.0002022 ], [ -73.1517191, 45.9867005 ], [ -73.1190179, 45.9991579 ] ] ] } },
{ "type": "Feature", "properties": { "hex_id": 3922, "count": 1, "date": "2025-11-27", "n_files": 22, "pct": 4.55 }, "geometry": { "type": "Polygon", "coordinates": [ [ [ -73.0263687, 45.8806736 ], [ -73.0254483, 45.9066404 ], [ -73.0572086, 45.9201763 ], [ -73.0898761, 45.9077359 ], [ -73.0907665, 45.8817681 ], [ -73.0590193, 45.8682417 ], [ -73.0263687, 45.8806736 ] ] ] } },
{ "type": "Feature", "properties": { "hex_id": 3928, "count": 1, "date": "2025-11-27", "n_files": 22, "pct": 4.55 }, "geometry": { "type": "Polygon", "coordinates": [ [ [ -73.0096067, 46.3480556 ], [ -73.0086633, 46.37402 ], [ -73.0406855, 46.3875637 ], [ -73.0736378, 46.3751334 ], [ -73.0745506, 46.349168 ], [ -73.0425417, 46.3356339 ], [ -73.0096067, 46.3480556 ] ] ] } },
{ "type": "Feature", "properties": { "hex_id": 3985, "count": 1, "date": "2025-11-27", "n_files": 22, "pct": 4.55 }, "geometry": { "type": "Polygon", "coordinates": [ [ [ -72.9955719, 45.841163 ], [ -72.9946385, 45.8671295 ], [ -73.0263687, 45.8806736 ], [ -73.0590193, 45.8682417 ], [ -73.0599229, 45.8422742 ], [ -73.0282057, 45.8287396 ], [ -72.9955719, 45.841163 ] ] ] } },
{ "type": "Feature", "properties": { "hex_id": 3986, "count": 1, "date": "2025-11-27", "n_files": 22, "pct": 4.55 }, "geometry": { "type": "Polygon", "coordinates": [ [ [ -72.9927677, 45.9190621 ], [ -72.9918304, 45.9450282 ], [ -73.0236038, 45.9585736 ], [ -73.056301300000015, 45.9461434 ], [ -73.0572086, 45.9201763 ], [ -73.0254483, 45.9066404 ], [ -72.9927677, 45.9190621 ] ] ] } },
{ "type": "Feature", "properties": { "hex_id": 3987, "count": 1, "date": "2025-11-27", "n_files": 22, "pct": 4.55 }, "geometry": { "type": "Polygon", "coordinates": [ [ [ -72.9899519, 45.99696 ], [ -72.9890108, 46.0229257 ], [ -73.0208274, 46.0364724 ], [ -73.053572, 46.0240439 ], [ -73.054483, 45.9980772 ], [ -73.0226796, 45.98454 ], [ -72.9899519, 45.99696 ] ] ] } },
{ "type": "Feature", "properties": { "hex_id": 3991, "count": 1, "date": "2025-11-27", "n_files": 22, "pct": 4.55 }, "geometry": { "type": "Polygon", "coordinates": [ [ [ -72.978572, 46.3085395 ], [ -72.9776152, 46.3345036 ], [ -73.0096067, 46.3480556 ], [ -73.0425417, 46.3356339 ], [ -73.0434679, 46.3096688 ], [ -73.0114897, 46.2961264 ], [ -72.978572, 46.3085395 ] ] ] } },
{ "type": "Feature", "properties": { "hex_id": 4049, "count": 1, "date": "2025-11-27", "n_files": 22, "pct": 4.55 }, "geometry": { "type": "Polygon", "coordinates": [ [ [ -72.964818, 45.8016447 ], [ -72.9638716, 45.8276109 ], [ -72.9955719, 45.841163 ], [ -73.0282057, 45.8287396 ], [ -73.0291223, 45.8027724 ], [ -72.997435, 45.7892297 ], [ -72.964818, 45.8016447 ] ] ] } },
{ "type": "Feature", "properties": { "hex_id": 4050, "count": 1, "date": "2025-11-27", "n_files": 22, "pct": 4.55 }, "geometry": { "type": "Polygon", "coordinates": [ [ [ -72.9619748, 45.8795428 ], [ -72.9610244, 45.9055086 ], [ -72.9927677, 45.9190621 ], [ -73.0254483, 45.9066404 ], [ -73.0263687, 45.8806736 ], [ -72.9946385, 45.8671295 ], [ -72.9619748, 45.8795428 ] ] ] } },
{ "type": "Feature", "properties": { "hex_id": 4051, "count": 1, "date": "2025-11-27", "n_files": 22, "pct": 4.55 }, "geometry": { "type": "Polygon", "coordinates": [ [ [ -72.9591197, 45.9574397 ], [ -72.9581655, 45.9834051 ], [ -72.9899519, 45.99696 ], [ -73.0226796, 45.98454 ], [ -73.0236038, 45.9585736 ], [ -72.9918304, 45.9450282 ], [ -72.9591197, 45.9574397 ] ] ] } },
{ "type": "Feature", "properties": { "hex_id": 4052, "count": 1, "date": "2025-11-27", "n_files": 22, "pct": 4.55 }, "geometry": { "type": "Polygon", "coordinates": [ [ [ -72.9562529, 46.0353355 ], [ -72.9552947, 46.0613005 ], [ -72.9871245, 46.0748567 ], [ -73.0198994, 46.0624384 ], [ -73.0208274, 46.0364724 ], [ -72.9890108, 46.0229257 ], [ -72.9562529, 46.0353355 ] ] ] } },
{ "type": "Feature", "properties": { "hex_id": 4056, "count": 1, "date": "2025-11-27", "n_files": 22, "pct": 4.55 }, "geometry": { "type": "Polygon", "coordinates": [ [ [ -72.9446668, 46.3469063 ], [ -72.9436926, 46.3728697 ], [ -72.9756975, 46.3864314 ], [ -73.0086633, 46.37402 ], [ -73.0096067, 46.3480556 ], [ -72.9776152, 46.3345036 ], [ -72.9446668, 46.3469063 ] ] ] } },
{ "type": "Feature", "properties": { "hex_id": 4113, "count": 1, "date": "2025-11-27", "n_files": 22, "pct": 4.55 }, "geometry": { "type": "Polygon", "coordinates": [ [ [ -72.9312248, 45.8400157 ], [ -72.9302614, 45.8659811 ], [ -72.9619748, 45.8795428 ], [ -72.9946385, 45.8671295 ], [ -72.9955719, 45.841163 ], [ -72.9638716, 45.8276109 ], [ -72.9312248, 45.8400157 ] ] ] } },
{ "type": "Feature", "properties": { "hex_id": 4114, "count": 1, "date": "2025-11-27", "n_files": 22, "pct": 4.55 }, "geometry": { "type": "Polygon", "coordinates": [ [ [ -72.9283307, 45.9179117 ], [ -72.9273634, 45.9438767 ], [ -72.9591197, 45.9574397 ], [ -72.9918304, 45.9450282 ], [ -72.9927677, 45.9190621 ], [ -72.9610244, 45.9055086 ], [ -72.9283307, 45.9179117 ] ] ] } },
{ "type": "Feature", "properties": { "hex_id": 4115, "count": 1, "date": "2025-11-27", "n_files": 22, "pct": 4.55 }, "geometry": { "type": "Polygon", "coordinates": [ [ [ -72.9254247, 45.9958064 ], [ -72.9244534, 46.0217711 ], [ -72.9562529, 46.0353355 ], [ -72.9890108, 46.0229257 ], [ -72.9899519, 45.99696 ], [ -72.9581655, 45.9834051 ], [ -72.9254247, 45.9958064 ] ] ] } },
{ "type": "Feature", "properties": { "hex_id": 4116, "count": 1, "date": "2025-11-27", "n_files": 22, "pct": 4.55 }, "geometry": { "type": "Polygon", "coordinates": [ [ [ -72.9225067, 46.0737 ], [ -72.9215313, 46.0996642 ], [ -72.9533743, 46.11323 ], [ -72.9861795, 46.100822 ], [ -72.9871245, 46.0748567 ], [ -72.9552947, 46.0613005 ], [ -72.9225067, 46.0737 ] ] ] } },
{ "type": "Feature", "properties": { "hex_id": 4119, "count": 1, "date": "2025-11-27", "n_files": 22, "pct": 4.55 }, "geometry": { "type": "Polygon", "coordinates": [ [ [ -72.9136801, 46.3073734 ], [ -72.9126926, 46.3333364 ], [ -72.9446668, 46.3469063 ], [ -72.9776152, 46.3345036 ], [ -72.978572, 46.3085395 ], [ -72.9466111, 46.2949792 ], [ -72.9136801, 46.3073734 ] ] ] } },
{ "type": "Feature", "properties": { "hex_id": 4177, "count": 1, "date": "2025-11-27", "n_files": 22, "pct": 4.55 }, "geometry": { "type": "Polygon", "coordinates": [ [ [ -72.9005177, 45.8004808 ], [ -72.8995414, 45.8264459 ], [ -72.9312248, 45.8400157 ], [ -72.9638716, 45.8276109 ], [ -72.964818, 45.8016447 ], [ -72.9331476, 45.7880844 ], [ -72.9005177, 45.8004808 ] ] ] } },
{ "type": "Feature", "properties": { "hex_id": 4178, "count": 1, "date": "2025-11-27", "n_files": 22, "pct": 4.55 }, "geometry": { "type": "Polygon", "coordinates": [ [ [ -72.8975847, 45.8783758 ], [ -72.8966044, 45.9043405 ], [ -72.9283307, 45.9179117 ], [ -72.9610244, 45.9055086 ], [ -72.9619748, 45.8795428 ], [ -72.9302614, 45.8659811 ], [ -72.8975847, 45.8783758 ] ] ] } },
{ "type": "Feature", "properties": { "hex_id": 4179, "count": 1, "date": "2025-11-27", "n_files": 22, "pct": 4.55 }, "geometry": { "type": "Polygon", "coordinates": [ [ [ -72.8946396, 45.9562696 ], [ -72.8936553, 45.9822339 ], [ -72.9254247, 45.9958064 ], [ -72.9581655, 45.9834051 ], [ -72.9591197, 45.9574397 ], [ -72.9273634, 45.9438767 ], [ -72.8946396, 45.9562696 ] ] ] } },
{ "type": "Feature", "properties": { "hex_id": 4180, "count": 1, "date": "2025-11-27", "n_files": 22, "pct": 4.55 }, "geometry": { "type": "Polygon", "coordinates": [ [ [ -72.8916824, 46.0341621 ], [ -72.890694, 46.060126 ], [ -72.9225067, 46.0737 ], [ -72.9552947, 46.0613005 ], [ -72.9562529, 46.0353355 ], [ -72.9244534, 46.0217711 ], [ -72.8916824, 46.0341621 ] ] ] } },
{ "type": "Feature", "properties": { "hex_id": 4241, "count": 1, "date": "2025-11-27", "n_files": 22, "pct": 4.55 }, "geometry": { "type": "Polygon", "coordinates": [ [ [ -72.8668816, 45.8388321 ], [ -72.8658883, 45.8647965 ], [ -72.8975847, 45.8783758 ], [ -72.9302614, 45.8659811 ], [ -72.9312248, 45.8400157 ], [ -72.8995414, 45.8264459 ], [ -72.8668816, 45.8388321 ] ] ] } },
{ "type": "Feature", "properties": { "hex_id": 4242, "count": 1, "date": "2025-11-27", "n_files": 22, "pct": 4.55 }, "geometry": { "type": "Polygon", "coordinates": [ [ [ -72.8638977, 45.9167249 ], [ -72.8629003, 45.9426889 ], [ -72.8946396, 45.9562696 ], [ -72.9273634, 45.9438767 ], [ -72.9283307, 45.9179117 ], [ -72.8966044, 45.9043405 ], [ -72.8638977, 45.9167249 ] ] ] } },
{ "type": "Feature", "properties": { "hex_id": 4243, "count": 1, "date": "2025-11-27", "n_files": 22, "pct": 4.55 }, "geometry": { "type": "Polygon", "coordinates": [ [ [ -72.8609015, 45.9946164 ], [ -72.8599, 46.02058 ], [ -72.8916824, 46.0341621 ], [ -72.9244534, 46.0217711 ], [ -72.9254247, 45.9958064 ], [ -72.8936553, 45.9822339 ], [ -72.8609015, 45.9946164 ] ] ] } },
{ "type": "Feature", "properties": { "hex_id": 4281, "count": 1, "date": "2025-11-27", "n_files": 22, "pct": 4.55 }, "geometry": { "type": "Polygon", "coordinates": [ [ [ -72.7372632, 48.9535861 ], [ -72.7360883, 48.979534 ], [ -72.7696488, 48.9931735 ], [ -72.804369, 48.9808544 ], [ -72.8055086, 48.9549052 ], [ -72.7719633, 48.9412763 ], [ -72.7372632, 48.9535861 ] ] ] } },
{ "type": "Feature", "properties": { "hex_id": 4306, "count": 1, "date": "2025-11-27", "n_files": 22, "pct": 4.55 }, "geometry": { "type": "Polygon", "coordinates": [ [ [ -72.8331987, 45.8771725 ], [ -72.8321884, 45.9031361 ], [ -72.8638977, 45.9167249 ], [ -72.8966044, 45.9043405 ], [ -72.8975847, 45.8783758 ], [ -72.8658883, 45.8647965 ], [ -72.8331987, 45.8771725 ] ] ] } },
{ "type": "Feature", "properties": { "hex_id": 4307, "count": 1, "date": "2025-11-27", "n_files": 22, "pct": 4.55 }, "geometry": { "type": "Polygon", "coordinates": [ [ [ -72.8301636, 45.955063 ], [ -72.8291491, 45.9810262 ], [ -72.8609015, 45.9946164 ], [ -72.8936553, 45.9822339 ], [ -72.8946396, 45.9562696 ], [ -72.8629003, 45.9426889 ], [ -72.8301636, 45.955063 ] ] ] } },
{ "type": "Feature", "properties": { "hex_id": 4308, "count": 1, "date": "2025-11-27", "n_files": 22, "pct": 4.55 }, "geometry": { "type": "Polygon", "coordinates": [ [ [ -72.827116, 46.0329523 ], [ -72.8260973, 46.0589151 ], [ -72.8578929, 46.0725068 ], [ -72.890694, 46.060126 ], [ -72.8916824, 46.0341621 ], [ -72.8599, 46.02058 ], [ -72.827116, 46.0329523 ] ] ] } },
{ "type": "Feature", "properties": { "hex_id": 4345, "count": 1, "date": "2025-11-27", "n_files": 22, "pct": 4.55 }, "geometry": { "type": "Polygon", "coordinates": [ [ [ -72.7049281, 48.9139901 ], [ -72.7037381, 48.9399376 ], [ -72.7372632, 48.9535861 ], [ -72.7719633, 48.9412763 ], [ -72.7731181, 48.9153275 ], [ -72.7396081, 48.9016897 ], [ -72.7049281, 48.9139901 ] ] ] } },
{ "type": "Feature", "properties": { "hex_id": 4346, "count": 1, "date": "2025-11-27", "n_files": 22, "pct": 4.55 }, "geometry": { "type": "Polygon", "coordinates": [ [ [ -72.7013528, 48.9918324 ], [ -72.7001576, 49.017779499999989 ], [ -72.7337333, 49.0314296 ], [ -72.768489, 49.019121899999988 ], [ -72.7696488, 48.9931735 ], [ -72.7360883, 48.979534 ], [ -72.7013528, 48.9918324 ] ] ] } },
{ "type": "Feature", "properties": { "hex_id": 4370, "count": 1, "date": "2025-11-27", "n_files": 22, "pct": 4.55 }, "geometry": { "type": "Polygon", "coordinates": [ [ [ -72.7994688, 45.9155018 ], [ -72.7984414, 45.9414647 ], [ -72.8301636, 45.955063 ], [ -72.8629003, 45.9426889 ], [ -72.8638977, 45.9167249 ], [ -72.8321884, 45.9031361 ], [ -72.7994688, 45.9155018 ] ] ] } },
{ "type": "Feature", "properties": { "hex_id": 4371, "count": 1, "date": "2025-11-27", "n_files": 22, "pct": 4.55 }, "geometry": { "type": "Polygon", "coordinates": [ [ [ -72.7963823, 45.9933901 ], [ -72.7953507, 46.0193525 ], [ -72.827116, 46.0329523 ], [ -72.8599, 46.02058 ], [ -72.8609015, 45.9946164 ], [ -72.8291491, 45.9810262 ], [ -72.7963823, 45.9933901 ] ] ] } },
{ "type": "Feature", "properties": { "hex_id": 4408, "count": 1, "date": "2025-11-27", "n_files": 22, "pct": 4.55 }, "geometry": { "type": "Polygon", "coordinates": [ [ [ -72.672643400000013, 48.8743855 ], [ -72.6714383, 48.9003327 ], [ -72.7049281, 48.9139901 ], [ -72.7396081, 48.9016897 ], [ -72.740778, 48.8757413 ], [ -72.7073032, 48.8620945 ], [ -72.672643400000013, 48.8743855 ] ] ] } },
{ "type": "Feature", "properties": { "hex_id": 4409, "count": 1, "date": "2025-11-27", "n_files": 22, "pct": 4.55 }, "geometry": { "type": "Polygon", "coordinates": [ [ [ -72.6690228, 48.9522266 ], [ -72.6678125, 48.9781733 ], [ -72.7013528, 48.9918324 ], [ -72.7360883, 48.979534 ], [ -72.7372632, 48.9535861 ], [ -72.7037381, 48.9399376 ], [ -72.6690228, 48.9522266 ] ] ] } },
{ "type": "Feature", "properties": { "hex_id": 4472, "count": 1, "date": "2025-11-27", "n_files": 22, "pct": 4.55 }, "geometry": { "type": "Polygon", "coordinates": [ [ [ -72.6404088, 48.8347725 ], [ -72.6391887, 48.8607193 ], [ -72.672643400000013, 48.8743855 ], [ -72.7073032, 48.8620945 ], [ -72.7084881, 48.8361465 ], [ -72.6750485, 48.8224908 ], [ -72.6404088, 48.8347725 ] ] ] } },
{ "type": "Feature", "properties": { "hex_id": 4473, "count": 1, "date": "2025-11-27", "n_files": 22, "pct": 4.55 }, "geometry": { "type": "Polygon", "coordinates": [ [ [ -72.6367433, 48.9126123 ], [ -72.6355179, 48.9385586 ], [ -72.6690228, 48.9522266 ], [ -72.7037381, 48.9399376 ], [ -72.7049281, 48.9139901 ], [ -72.6714383, 48.9003327 ], [ -72.6367433, 48.9126123 ] ] ] } },
{ "type": "Feature", "properties": { "hex_id": 4474, "count": 1, "date": "2025-11-27", "n_files": 22, "pct": 4.55 }, "geometry": { "type": "Polygon", "coordinates": [ [ [ -72.6330619, 48.9904508 ], [ -72.6318313, 49.0163967 ], [ -72.665386700000013, 49.0300664 ], [ -72.7001576, 49.017779499999989 ], [ -72.7013528, 48.9918324 ], [ -72.6678125, 48.9781733 ], [ -72.6330619, 48.9904508 ] ] ] } },
{ "type": "Feature", "properties": { "hex_id": 4536, "count": 6, "date": "2025-11-27", "n_files": 22, "pct": 27.27 }, "geometry": { "type": "Polygon", "coordinates": [ [ [ -72.6045139, 48.8729895 ], [ -72.6032736, 48.8989354 ], [ -72.6367433, 48.9126123 ], [ -72.6714383, 48.9003327 ], [ -72.672643400000013, 48.8743855 ], [ -72.6391887, 48.8607193 ], [ -72.6045139, 48.8729895 ] ] ] } },
{ "type": "Feature", "properties": { "hex_id": 4537, "count": 1, "date": "2025-11-27", "n_files": 22, "pct": 4.55 }, "geometry": { "type": "Polygon", "coordinates": [ [ [ -72.6007876, 48.950826799999987 ], [ -72.599542, 48.9767723 ], [ -72.6330619, 48.9904508 ], [ -72.6678125, 48.9781733 ], [ -72.6690228, 48.9522266 ], [ -72.6355179, 48.9385586 ], [ -72.6007876, 48.950826799999987 ] ] ] } },
{ "type": "Feature", "properties": { "hex_id": 4553, "count": 5, "date": "2025-11-27", "n_files": 22, "pct": 22.73 }, "geometry": { "type": "Polygon", "coordinates": [ [ [ -72.7327889, 45.173648 ], [ -72.7317574, 45.1996131 ], [ -72.7630544, 45.2132234 ], [ -72.7953704, 45.2008593 ], [ -72.796373, 45.1748931 ], [ -72.7650885, 45.1612921 ], [ -72.7327889, 45.173648 ] ] ] } },
{ "type": "Feature", "properties": { "hex_id": 4600, "count": 6, "date": "2025-11-27", "n_files": 22, "pct": 27.27 }, "geometry": { "type": "Polygon", "coordinates": [ [ [ -72.5723347, 48.8333583 ], [ -72.5710795, 48.8593038 ], [ -72.6045139, 48.8729895 ], [ -72.6391887, 48.8607193 ], [ -72.6404088, 48.8347725 ], [ -72.6069893, 48.8210973 ], [ -72.5723347, 48.8333583 ] ] ] } },
{ "type": "Feature", "properties": { "hex_id": 4601, "count": 1, "date": "2025-11-27", "n_files": 22, "pct": 4.55 }, "geometry": { "type": "Polygon", "coordinates": [ [ [ -72.5685636, 48.9111943 ], [ -72.567303, 48.9371393 ], [ -72.6007876, 48.950826799999987 ], [ -72.6355179, 48.9385586 ], [ -72.6367433, 48.9126123 ], [ -72.6032736, 48.8989354 ], [ -72.5685636, 48.9111943 ] ] ] } },
{ "type": "Feature", "properties": { "hex_id": 4602, "count": 1, "date": "2025-11-27", "n_files": 22, "pct": 4.55 }, "geometry": { "type": "Polygon", "coordinates": [ [ [ -72.5647764, 48.9890289 ], [ -72.5635103, 49.0149735 ], [ -72.5970453, 49.0286628 ], [ -72.6318313, 49.0163967 ], [ -72.6330619, 48.9904508 ], [ -72.599542, 48.9767723 ], [ -72.5647764, 48.9890289 ] ] ] } },
{ "type": "Feature", "properties": { "hex_id": 4616, "count": 5, "date": "2025-11-27", "n_files": 22, "pct": 22.73 }, "geometry": { "type": "Polygon", "coordinates": [ [ [ -72.7025646, 45.1340651 ], [ -72.7015208, 45.1600298 ], [ -72.7327889, 45.173648 ], [ -72.7650885, 45.1612921 ], [ -72.7661034, 45.1353262 ], [ -72.7348477, 45.1217174 ], [ -72.7025646, 45.1340651 ] ] ] } },
{ "type": "Feature", "properties": { "hex_id": 4664, "count": 6, "date": "2025-11-27", "n_files": 22, "pct": 27.27 }, "geometry": { "type": "Polygon", "coordinates": [ [ [ -72.5363898, 48.8715533 ], [ -72.5351143, 48.8974979 ], [ -72.5685636, 48.9111943 ], [ -72.6032736, 48.8989354 ], [ -72.6045139, 48.8729895 ], [ -72.5710795, 48.8593038 ], [ -72.5363898, 48.8715533 ] ] ] } },
{ "type": "Feature", "properties": { "hex_id": 4665, "count": 1, "date": "2025-11-27", "n_files": 22, "pct": 4.55 }, "geometry": { "type": "Polygon", "coordinates": [ [ [ -72.5325578, 48.9493867 ], [ -72.531276800000015, 48.9753308 ], [ -72.5647764, 48.9890289 ], [ -72.599542, 48.9767723 ], [ -72.6007876, 48.950826799999987 ], [ -72.567303, 48.9371393 ], [ -72.5325578, 48.9493867 ] ] ] } },
{ "type": "Feature", "properties": { "hex_id": 4684, "count": 1, "date": "2025-11-27", "n_files": 22, "pct": 4.55 }, "geometry": { "type": "Polygon", "coordinates": [ [ [ -72.6596137, 45.4060379 ], [ -72.6585402, 45.4320006 ], [ -72.6899449, 45.4456327 ], [ -72.7224106, 45.4332927 ], [ -72.7234548, 45.4073288 ], [ -72.6920626, 45.3937061 ], [ -72.6596137, 45.4060379 ] ] ] } },
{ "type": "Feature", "properties": { "hex_id": 4728, "count": 10, "date": "2025-11-27", "n_files": 22, "pct": 45.45 }, "geometry": { "type": "Polygon", "coordinates": [ [ [ -72.504266, 48.831904 ], [ -72.5029756, 48.8578481 ], [ -72.5363898, 48.8715533 ], [ -72.5710795, 48.8593038 ], [ -72.5723347, 48.8333583 ], [ -72.5389353, 48.8196637 ], [ -72.504266, 48.831904 ] ] ] } },
{ "type": "Feature", "properties": { "hex_id": 4729, "count": 1, "date": "2025-11-27", "n_files": 22, "pct": 4.55 }, "geometry": { "type": "Polygon", "coordinates": [ [ [ -72.5003894, 48.909736 ], [ -72.4990936, 48.9356797 ], [ -72.5325578, 48.9493867 ], [ -72.567303, 48.9371393 ], [ -72.5685636, 48.9111943 ], [ -72.5351143, 48.8974979 ], [ -72.5003894, 48.909736 ] ] ] } },
{ "type": "Feature", "properties": { "hex_id": 4730, "count": 5, "date": "2025-11-27", "n_files": 22, "pct": 22.73 }, "geometry": { "type": "Polygon", "coordinates": [ [ [ -72.4964962, 48.9875667 ], [ -72.4951948, 49.0135099 ], [ -72.5287093, 49.0272187 ], [ -72.5635103, 49.0149735 ], [ -72.5647764, 48.9890289 ], [ -72.531276800000015, 48.9753308 ], [ -72.4964962, 48.9875667 ] ] ] } },
{ "type": "Feature", "properties": { "hex_id": 4745, "count": 5, "date": "2025-11-27", "n_files": 22, "pct": 22.73 }, "geometry": { "type": "Polygon", "coordinates": [ [ [ -72.6358079, 45.2106589 ], [ -72.6347309, 45.236622 ], [ -72.6660236, 45.2502588 ], [ -72.6983809, 45.2379232 ], [ -72.699429, 45.2119589 ], [ -72.6681486, 45.1983314 ], [ -72.6358079, 45.2106589 ] ] ] } },
{ "type": "Feature", "properties": { "hex_id": 4791, "count": 1, "date": "2025-11-27", "n_files": 22, "pct": 4.55 }, "geometry": { "type": "Polygon", "coordinates": [ [ [ -72.472192, 48.7922463 ], [ -72.4708869, 48.81819 ], [ -72.504266, 48.831904 ], [ -72.5389353, 48.8196637 ], [ -72.5402054, 48.7937187 ], [ -72.5068411, 48.7800153 ], [ -72.472192, 48.7922463 ] ] ] } },
{ "type": "Feature", "properties": { "hex_id": 4792, "count": 1, "date": "2025-11-27", "n_files": 22, "pct": 4.55 }, "geometry": { "type": "Polygon", "coordinates": [ [ [ -72.4682711, 48.8700769 ], [ -72.4669604, 48.8960201 ], [ -72.5003894, 48.909736 ], [ -72.5351143, 48.8974979 ], [ -72.5363898, 48.8715533 ], [ -72.5029756, 48.8578481 ], [ -72.4682711, 48.8700769 ] ] ] } },
{ "type": "Feature", "properties": { "hex_id": 4793, "count": 5, "date": "2025-11-27", "n_files": 22, "pct": 22.73 }, "geometry": { "type": "Polygon", "coordinates": [ [ [ -72.4643334, 48.9479062 ], [ -72.4630171, 48.973849 ], [ -72.4964962, 48.9875667 ], [ -72.531276800000015, 48.9753308 ], [ -72.5325578, 48.9493867 ], [ -72.4990936, 48.9356797 ], [ -72.4643334, 48.9479062 ] ] ] } },
{ "type": "Feature", "properties": { "hex_id": 4856, "count": 1, "date": "2025-11-27", "n_files": 22, "pct": 4.55 }, "geometry": { "type": "Polygon", "coordinates": [ [ [ -72.43620270000001, 48.8304095 ], [ -72.4348773, 48.8563523 ], [ -72.4682711, 48.8700769 ], [ -72.5029756, 48.8578481 ], [ -72.504266, 48.831904 ], [ -72.4708869, 48.81819 ], [ -72.43620270000001, 48.8304095 ] ] ] } },
{ "type": "Feature", "properties": { "hex_id": 4857, "count": 5, "date": "2025-11-27", "n_files": 22, "pct": 22.73 }, "geometry": { "type": "Polygon", "coordinates": [ [ [ -72.4322208, 48.9082374 ], [ -72.4308897, 48.9341797 ], [ -72.4643334, 48.9479062 ], [ -72.4990936, 48.9356797 ], [ -72.5003894, 48.909736 ], [ -72.4669604, 48.8960201 ], [ -72.4322208, 48.9082374 ] ] ] } },
{ "type": "Feature", "properties": { "hex_id": 4858, "count": 5, "date": "2025-11-27", "n_files": 22, "pct": 22.73 }, "geometry": { "type": "Polygon", "coordinates": [ [ [ -72.4282217, 48.986064 ], [ -72.4268848, 49.0120059 ], [ -72.4603788, 49.025734199999988 ], [ -72.4951948, 49.0135099 ], [ -72.4964962, 48.9875667 ], [ -72.4630171, 48.973849 ], [ -72.4282217, 48.986064 ] ] ] } },
{ "type": "Feature", "properties": { "hex_id": 4919, "count": 1, "date": "2025-11-27", "n_files": 22, "pct": 4.55 }, "geometry": { "type": "Polygon", "coordinates": [ [ [ -72.4041841, 48.7907338 ], [ -72.402844, 48.8166761 ], [ -72.43620270000001, 48.8304095 ], [ -72.4708869, 48.81819 ], [ -72.472192, 48.7922463 ], [ -72.4388479, 48.7785235 ], [ -72.4041841, 48.7907338 ] ] ] } },
{ "type": "Feature", "properties": { "hex_id": 4920, "count": 5, "date": "2025-11-27", "n_files": 22, "pct": 22.73 }, "geometry": { "type": "Polygon", "coordinates": [ [ [ -72.4001581, 48.8685603 ], [ -72.3988122, 48.8945021 ], [ -72.4322208, 48.9082374 ], [ -72.4669604, 48.8960201 ], [ -72.4682711, 48.8700769 ], [ -72.4348773, 48.8563523 ], [ -72.4001581, 48.8685603 ] ] ] } },
{ "type": "Feature", "properties": { "hex_id": 4921, "count": 1, "date": "2025-11-27", "n_files": 22, "pct": 4.55 }, "geometry": { "type": "Polygon", "coordinates": [ [ [ -72.3961147, 48.9463854 ], [ -72.3947631, 48.9723269 ], [ -72.4282217, 48.986064 ], [ -72.4630171, 48.973849 ], [ -72.4643334, 48.9479062 ], [ -72.4308897, 48.9341797 ], [ -72.3961147, 48.9463854 ] ] ] } },
{ "type": "Feature", "properties": { "hex_id": 4946, "count": 5, "date": "2025-11-27", "n_files": 22, "pct": 22.73 }, "geometry": { "type": "Polygon", "coordinates": [ [ [ -72.5113333, 45.8706124 ], [ -72.5101733, 45.8965701 ], [ -72.5417965, 45.9102466 ], [ -72.5745672, 45.8979558 ], [ -72.5756973, 45.8719969 ], [ -72.5440867, 45.8583299 ], [ -72.5113333, 45.8706124 ] ] ] } },
{ "type": "Feature", "properties": { "hex_id": 4984, "count": 1, "date": "2025-11-27", "n_files": 22, "pct": 4.55 }, "geometry": { "type": "Polygon", "coordinates": [ [ [ -72.3681452, 48.8288749 ], [ -72.3667847, 48.8548162 ], [ -72.4001581, 48.8685603 ], [ -72.4348773, 48.8563523 ], [ -72.43620270000001, 48.8304095 ], [ -72.402844, 48.8166761 ], [ -72.3681452, 48.8288749 ] ] ] } },
{ "type": "Feature", "properties": { "hex_id": 4985, "count": 1, "date": "2025-11-27", "n_files": 22, "pct": 4.55 }, "geometry": { "type": "Polygon", "coordinates": [ [ [ -72.3640578, 48.9066986 ], [ -72.3626915, 48.9326395 ], [ -72.3961147, 48.9463854 ], [ -72.4308897, 48.9341797 ], [ -72.4322208, 48.9082374 ], [ -72.3988122, 48.8945021 ], [ -72.3640578, 48.9066986 ] ] ] } },
{ "type": "Feature", "properties": { "hex_id": 4987, "count": 5, "date": "2025-11-27", "n_files": 22, "pct": 22.73 }, "geometry": { "type": "Polygon", "coordinates": [ [ [ -72.3558303, 49.0623421 ], [ -72.3544521, 49.0882821 ], [ -72.3879758, 49.1020318 ], [ -72.4228628, 49.0898308 ], [ -72.4242054, 49.0638893 ], [ -72.3906965, 49.0501503 ], [ -72.3558303, 49.0623421 ] ] ] } },
{ "type": "Feature", "properties": { "hex_id": 5048, "count": 1, "date": "2025-11-27", "n_files": 22, "pct": 4.55 }, "geometry": { "type": "Polygon", "coordinates": [ [ [ -72.3320508, 48.8670034 ], [ -72.3306698, 48.8929439 ], [ -72.3640578, 48.9066986 ], [ -72.3988122, 48.8945021 ], [ -72.4001581, 48.8685603 ], [ -72.3667847, 48.8548162 ], [ -72.3320508, 48.8670034 ] ] ] } },
{ "type": "Feature", "properties": { "hex_id": 5050, "count": 5, "date": "2025-11-27", "n_files": 22, "pct": 22.73 }, "geometry": { "type": "Polygon", "coordinates": [ [ [ -72.323735, 49.022644 ], [ -72.3223421, 49.0485835 ], [ -72.3558303, 49.0623421 ], [ -72.3906965, 49.0501503 ], [ -72.392054, 49.0242093 ], [ -72.3585806, 49.0104615 ], [ -72.323735, 49.022644 ] ] ] } },
{ "type": "Feature", "properties": { "hex_id": 5051, "count": 5, "date": "2025-11-27", "n_files": 22, "pct": 22.73 }, "geometry": { "type": "Polygon", "coordinates": [ [ [ -72.3195503, 49.1004622 ], [ -72.3181514, 49.1264014 ], [ -72.3516899, 49.1401618 ], [ -72.3866125, 49.1279724 ], [ -72.3879758, 49.1020318 ], [ -72.3544521, 49.0882821 ], [ -72.3195503, 49.1004622 ] ] ] } },
{ "type": "Feature", "properties": { "hex_id": 5114, "count": 5, "date": "2025-11-27", "n_files": 22, "pct": 22.73 }, "geometry": { "type": "Polygon", "coordinates": [ [ [ -72.29169, 48.9829376 ], [ -72.290282300000015, 49.0088767 ], [ -72.323735, 49.022644 ], [ -72.3585806, 49.0104615 ], [ -72.3599529, 48.984521 ], [ -72.3265149, 48.9707644 ], [ -72.29169, 48.9829376 ] ] ] } },
{ "type": "Feature", "properties": { "hex_id": 5115, "count": 5, "date": "2025-11-27", "n_files": 22, "pct": 22.73 }, "geometry": { "type": "Polygon", "coordinates": [ [ [ -72.2874611, 49.0607544 ], [ -72.2860474, 49.086693 ], [ -72.3195503, 49.1004622 ], [ -72.3544521, 49.0882821 ], [ -72.3558303, 49.0623421 ], [ -72.3223421, 49.0485835 ], [ -72.2874611, 49.0607544 ] ] ] } },
{ "type": "Feature", "properties": { "hex_id": 5178, "count": 5, "date": "2025-11-27", "n_files": 22, "pct": 22.73 }, "geometry": { "type": "Polygon", "coordinates": [ [ [ -72.255422, 49.0210382 ], [ -72.2539937, 49.0469763 ], [ -72.2874611, 49.0607544 ], [ -72.3223421, 49.0485835 ], [ -72.323735, 49.022644 ], [ -72.290282300000015, 49.0088767 ], [ -72.255422, 49.0210382 ] ] ] } },
{ "type": "Feature", "properties": { "hex_id": 5179, "count": 4, "date": "2025-11-27", "n_files": 22, "pct": 18.18 }, "geometry": { "type": "Polygon", "coordinates": [ [ [ -72.2511308, 49.098852099999988 ], [ -72.2496963, 49.1247898 ], [ -72.2832139, 49.1385698 ], [ -72.3181514, 49.1264014 ], [ -72.3195503, 49.1004622 ], [ -72.2860474, 49.086693 ], [ -72.2511308, 49.098852099999988 ] ] ] } },
{ "type": "Feature", "properties": { "hex_id": 5243, "count": 4, "date": "2025-11-27", "n_files": 22, "pct": 18.18 }, "geometry": { "type": "Polygon", "coordinates": [ [ [ -72.2190979, 49.0591262 ], [ -72.2176487, 49.0850633 ], [ -72.2511308, 49.098852099999988 ], [ -72.2860474, 49.086693 ], [ -72.2874611, 49.0607544 ], [ -72.2539937, 49.0469763 ], [ -72.2190979, 49.0591262 ] ] ] } },
{ "type": "Feature", "properties": { "hex_id": 5385, "count": 11, "date": "2025-11-27", "n_files": 22, "pct": 50.0 }, "geometry": { "type": "Polygon", "coordinates": [ [ [ -72.3177706, 45.2036282 ], [ -72.3165491, 45.229585 ], [ -72.3477578, 45.2433072 ], [ -72.380176, 45.2310632 ], [ -72.3813685, 45.2051051 ], [ -72.3501718, 45.1913923 ], [ -72.3177706, 45.2036282 ] ] ] } },
{ "type": "Feature", "properties": { "hex_id": 6135, "count": 2, "date": "2025-11-27", "n_files": 22, "pct": 9.09 }, "geometry": { "type": "Polygon", "coordinates": [ [ [ -71.7609205, 48.7354754 ], [ -71.7592519, 48.7614031 ], [ -71.7923895, 48.775318399999989 ], [ -71.8271818, 48.7632952 ], [ -71.8288156, 48.7373658 ], [ -71.7956919, 48.7234613 ], [ -71.7609205, 48.7354754 ] ] ] } },
{ "type": "Feature", "properties": { "hex_id": 6153, "count": 4, "date": "2025-11-27", "n_files": 22, "pct": 18.18 }, "geometry": { "type": "Polygon", "coordinates": [ [ [ -71.9362913, 45.194024 ], [ -71.9348968, 45.2199722 ], [ -71.9660029, 45.2337963 ], [ -71.998492, 45.2216628 ], [ -71.9998577, 45.1957131 ], [ -71.9687632, 45.1818985 ], [ -71.9362913, 45.194024 ] ] ] } },
{ "type": "Feature", "properties": { "hex_id": 6164, "count": 5, "date": "2025-11-27", "n_files": 22, "pct": 22.73 }, "geometry": { "type": "Polygon", "coordinates": [ [ [ -71.889252200000016, 46.0502327 ], [ -71.8877934, 46.0761758 ], [ -71.9193544, 46.090023 ], [ -71.9523622, 46.0779173 ], [ -71.9537909, 46.0519726 ], [ -71.9222419, 46.0381352 ], [ -71.889252200000016, 46.0502327 ] ] ] } },
{ "type": "Feature", "properties": { "hex_id": 6199, "count": 2, "date": "2025-11-27", "n_files": 22, "pct": 9.09 }, "geometry": { "type": "Polygon", "coordinates": [ [ [ -71.7244457, 48.7734054 ], [ -71.722756, 48.799332 ], [ -71.7559075, 48.813258 ], [ -71.7907347, 48.8012467 ], [ -71.7923895, 48.775318399999989 ], [ -71.7592519, 48.7614031 ], [ -71.7244457, 48.7734054 ] ] ] } },
{ "type": "Feature", "properties": { "hex_id": 6228, "count": 5, "date": "2025-11-27", "n_files": 22, "pct": 22.73 }, "geometry": { "type": "Polygon", "coordinates": [ [ [ -71.85919220000001, 46.0104353 ], [ -71.8577213, 46.0363778 ], [ -71.889252200000016, 46.0502327 ], [ -71.9222419, 46.0381352 ], [ -71.9236827, 46.0121911 ], [ -71.8921639, 45.998346 ], [ -71.85919220000001, 46.0104353 ] ] ] } },
{ "type": "Feature", "properties": { "hex_id": 6229, "count": 5, "date": "2025-11-27", "n_files": 22, "pct": 22.73 }, "geometry": { "type": "Polygon", "coordinates": [ [ [ -71.8547735, 46.0882624 ], [ -71.8532965, 46.1142045 ], [ -71.8848697, 46.1280615 ], [ -71.9179076, 46.1159666 ], [ -71.9193544, 46.090023 ], [ -71.8877934, 46.0761758 ], [ -71.8547735, 46.0882624 ] ] ] } },
{ "type": "Feature", "properties": { "hex_id": 6263, "count": 2, "date": "2025-11-27", "n_files": 22, "pct": 9.09 }, "geometry": { "type": "Polygon", "coordinates": [ [ [ -71.6930325, 48.7335451 ], [ -71.6913291, 48.759471 ], [ -71.7244457, 48.7734054 ], [ -71.7592519, 48.7614031 ], [ -71.7609205, 48.7354754 ], [ -71.7278177, 48.7215517 ], [ -71.6930325, 48.7335451 ] ] ] } },
{ "type": "Feature", "properties": { "hex_id": 6292, "count": 5, "date": "2025-11-27", "n_files": 22, "pct": 22.73 }, "geometry": { "type": "Polygon", "coordinates": [ [ [ -71.8247196, 46.0484563 ], [ -71.8232306, 46.0743978 ], [ -71.8547735, 46.0882624 ], [ -71.8877934, 46.0761758 ], [ -71.889252200000016, 46.0502327 ], [ -71.8577213, 46.0363778 ], [ -71.8247196, 46.0484563 ] ] ] } },
{ "type": "Feature", "properties": { "hex_id": 6356, "count": 5, "date": "2025-11-27", "n_files": 22, "pct": 22.73 }, "geometry": { "type": "Polygon", "coordinates": [ [ [ -71.7947078, 46.0086432 ], [ -71.7932068, 46.0345841 ], [ -71.8247196, 46.0484563 ], [ -71.8577213, 46.0363778 ], [ -71.85919220000001, 46.0104353 ], [ -71.8276914, 45.996572799999988 ], [ -71.7947078, 46.0086432 ] ] ] } },
{ "type": "Feature", "properties": { "hex_id": 6357, "count": 5, "date": "2025-11-27", "n_files": 22, "pct": 22.73 }, "geometry": { "type": "Polygon", "coordinates": [ [ [ -71.7901987, 46.086465499999989 ], [ -71.7886915, 46.1124059 ], [ -71.8202465, 46.1262804 ], [ -71.8532965, 46.1142045 ], [ -71.8547735, 46.0882624 ], [ -71.8232306, 46.0743978 ], [ -71.7901987, 46.086465499999989 ] ] ] } },
{ "type": "Feature", "properties": { "hex_id": 6420, "count": 5, "date": "2025-11-27", "n_files": 22, "pct": 22.73 }, "geometry": { "type": "Polygon", "coordinates": [ [ [ -71.7601931, 46.0466436 ], [ -71.758674, 46.0725835 ], [ -71.7901987, 46.086465499999989 ], [ -71.8232306, 46.0743978 ], [ -71.8247196, 46.0484563 ], [ -71.7932068, 46.0345841 ], [ -71.7601931, 46.0466436 ] ] ] } },
{ "type": "Feature", "properties": { "hex_id": 6644, "count": 2, "date": "2025-11-27", "n_files": 22, "pct": 9.09 }, "geometry": { "type": "Polygon", "coordinates": [ [ [ -71.505568, 48.4942228 ], [ -71.5037832, 48.5201447 ], [ -71.5366921, 48.5341287 ], [ -71.5713724, 48.52218 ], [ -71.5731229, 48.4962562 ], [ -71.5402274, 48.4822829 ], [ -71.505568, 48.4942228 ] ] ] } },
{ "type": "Feature", "properties": { "hex_id": 6837, "count": 3, "date": "2025-11-27", "n_files": 22, "pct": 13.64 }, "geometry": { "type": "Polygon", "coordinates": [ [ [ -71.3959661, 48.6077331 ], [ -71.394118, 48.6336515 ], [ -71.427067, 48.6476677 ], [ -71.4618508, 48.6357548 ], [ -71.4636643, 48.6098345 ], [ -71.4307286, 48.5958291 ], [ -71.3959661, 48.6077331 ] ] ] } },
{ "type": "Feature", "properties": { "hex_id": 6965, "count": 3, "date": "2025-11-27", "n_files": 22, "pct": 13.64 }, "geometry": { "type": "Polygon", "coordinates": [ [ [ -71.3282757, 48.6055921 ], [ -71.3263931, 48.6315085 ], [ -71.3593209, 48.6455436 ], [ -71.394118, 48.6336515 ], [ -71.3959661, 48.6077331 ], [ -71.3630516, 48.5937088 ], [ -71.3282757, 48.6055921 ] ] ] } },
{ "type": "Feature", "properties": { "hex_id": 7001, "count": 3, "date": "2025-11-27", "n_files": 22, "pct": 13.64 }, "geometry": { "type": "Polygon", "coordinates": [ [ [ -71.4473732, 46.3881062 ], [ -71.4456876, 46.4140361 ], [ -71.4773196, 46.428007199999989 ], [ -71.5106253, 46.4160384 ], [ -71.5122802, 46.3901067 ], [ -71.4806601, 46.3761456 ], [ -71.4473732, 46.3881062 ] ] ] } },
{ "type": "Feature", "properties": { "hex_id": 7071, "count": 6, "date": "2025-11-27", "n_files": 22, "pct": 27.27 }, "geometry": { "type": "Polygon", "coordinates": [ [ [ -71.3813273, 46.8926774 ], [ -71.3795799, 46.9186031 ], [ -71.4114823, 46.9325993 ], [ -71.44512, 46.9206596 ], [ -71.4468359, 46.894732 ], [ -71.4149457, 46.8807459 ], [ -71.3813273, 46.8926774 ] ] ] } },
{ "type": "Feature", "properties": { "hex_id": 7125, "count": 6, "date": "2025-11-27", "n_files": 22, "pct": 27.27 }, "geometry": { "type": "Polygon", "coordinates": [ [ [ -71.4028845, 46.0749192 ], [ -71.4011964, 46.1008492 ], [ -71.432641100000012, 46.1148278 ], [ -71.4657623, 46.1028664 ], [ -71.4674202, 46.0769345 ], [ -71.4359872, 46.0629658 ], [ -71.4028845, 46.0749192 ] ] ] } },
{ "type": "Feature", "properties": { "hex_id": 7135, "count": 7, "date": "2025-11-27", "n_files": 22, "pct": 31.82 }, "geometry": { "type": "Polygon", "coordinates": [ [ [ -71.3512159, 46.8527485 ], [ -71.3494564, 46.8786736 ], [ -71.3813273, 46.8926774 ], [ -71.4149457, 46.8807459 ], [ -71.4166737, 46.854819 ], [ -71.3848148, 46.8408254 ], [ -71.3512159, 46.8527485 ] ] ] } },
{ "type": "Feature", "properties": { "hex_id": 7136, "count": 6, "date": "2025-11-27", "n_files": 22, "pct": 27.27 }, "geometry": { "type": "Polygon", "coordinates": [ [ [ -71.3459302, 46.9305231 ], [ -71.3441634, 46.9564477 ], [ -71.3760779, 46.970454 ], [ -71.4097471, 46.9585257 ], [ -71.4114823, 46.9325993 ], [ -71.3795799, 46.9186031 ], [ -71.3459302, 46.9305231 ] ] ] } },
{ "type": "Feature", "properties": { "hex_id": 7324, "count": 1, "date": "2025-11-27", "n_files": 22, "pct": 4.55 }, "geometry": { "type": "Polygon", "coordinates": [ [ [ -71.2665123, 46.6551509 ], [ -71.2647244, 46.6810743 ], [ -71.2964584, 46.6950982 ], [ -71.3299684, 46.6831885 ], [ -71.3317252, 46.6572631 ], [ -71.3000031, 46.6432493 ], [ -71.2665123, 46.6551509 ] ] ] } },
{ "type": "Feature", "properties": { "hex_id": 7326, "count": 8, "date": "2025-11-27", "n_files": 22, "pct": 36.36 }, "geometry": { "type": "Polygon", "coordinates": [ [ [ -71.2557479, 46.8106891 ], [ -71.2539452, 46.8366115 ], [ -71.2857653, 46.8506406 ], [ -71.3193763, 46.8387371 ], [ -71.3211478, 46.8128128 ], [ -71.2893396, 46.7987938 ], [ -71.2557479, 46.8106891 ] ] ] } },
{ "type": "Feature", "properties": { "hex_id": 7389, "count": 1, "date": "2025-11-27", "n_files": 22, "pct": 4.55 }, "geometry": { "type": "Polygon", "coordinates": [ [ [ -71.2312026, 46.6929645 ], [ -71.2293955, 46.7188868 ], [ -71.2611413, 46.7329207 ], [ -71.2946824, 46.7210224 ], [ -71.2964584, 46.6950982 ], [ -71.2647244, 46.6810743 ], [ -71.2312026, 46.6929645 ] ] ] } },
{ "type": "Feature", "properties": { "hex_id": 7518, "count": 6, "date": "2025-11-27", "n_files": 22, "pct": 27.27 }, "geometry": { "type": "Polygon", "coordinates": [ [ [ -71.160432, 46.7685541 ], [ -71.1585861, 46.7944738 ], [ -71.1903556, 46.8085281 ], [ -71.2239591, 46.7966525 ], [ -71.2257737, 46.7707307 ], [ -71.1940161, 46.7566866 ], [ -71.160432, 46.7685541 ] ] ] } },
{ "type": "Feature", "properties": { "hex_id": 7797, "count": 5, "date": "2025-11-27", "n_files": 22, "pct": 22.73 }, "geometry": { "type": "Polygon", "coordinates": [ [ [ -70.8916449, 48.5518528 ], [ -70.8895428, 48.577756 ], [ -70.9223073, 48.591912 ], [ -70.9571612, 48.5801539 ], [ -70.9592289, 48.5542485 ], [ -70.9264772, 48.5401034 ], [ -70.8916449, 48.5518528 ] ] ] } },
{ "type": "Feature", "properties": { "hex_id": 7860, "count": 5, "date": "2025-11-27", "n_files": 22, "pct": 22.73 }, "geometry": { "type": "Polygon", "coordinates": [ [ [ -70.8610296, 48.5117865 ], [ -70.8589148, 48.5376889 ], [ -70.8916449, 48.5518528 ], [ -70.9264772, 48.5401034 ], [ -70.9285577, 48.5141988 ], [ -70.8958402, 48.5000458 ], [ -70.8610296, 48.5117865 ] ] ] } },
{ "type": "Feature", "properties": { "hex_id": 7861, "count": 10, "date": "2025-11-27", "n_files": 22, "pct": 45.45 }, "geometry": { "type": "Polygon", "coordinates": [ [ [ -70.8546762, 48.5894932 ], [ -70.8525523, 48.615395 ], [ -70.8853295, 48.6295619 ], [ -70.9202179, 48.617816 ], [ -70.9223073, 48.591912 ], [ -70.8895428, 48.577756 ], [ -70.8546762, 48.5894932 ] ] ] } },
{ "type": "Feature", "properties": { "hex_id": 7925, "count": 5, "date": "2025-11-27", "n_files": 22, "pct": 22.73 }, "geometry": { "type": "Polygon", "coordinates": [ [ [ -70.8240698, 48.5494174 ], [ -70.8219334, 48.5753185 ], [ -70.8546762, 48.5894932 ], [ -70.8895428, 48.577756 ], [ -70.8916449, 48.5518528 ], [ -70.8589148, 48.5376889 ], [ -70.8240698, 48.5494174 ] ] ] } },
{ "type": "Feature", "properties": { "hex_id": 7926, "count": 10, "date": "2025-11-27", "n_files": 22, "pct": 45.45 }, "geometry": { "type": "Polygon", "coordinates": [ [ [ -70.8176513, 48.6271199 ], [ -70.8155057, 48.6530204 ], [ -70.8482956, 48.6671981 ], [ -70.8832184, 48.6554645 ], [ -70.8853295, 48.6295619 ], [ -70.8525523, 48.615395 ], [ -70.8176513, 48.6271199 ] ] ] } },
{ "type": "Feature", "properties": { "hex_id": 7961, "count": 1, "date": "2025-11-27", "n_files": 22, "pct": 4.55 }, "geometry": { "type": "Polygon", "coordinates": [ [ [ -70.957928, 46.410804399999989 ], [ -70.956009, 46.4367194 ], [ -70.9875193, 46.4508226 ], [ -71.0209372, 46.4390005 ], [ -71.0228255, 46.4130834 ], [ -70.9913266, 46.3989904 ], [ -70.957928, 46.410804399999989 ] ] ] } },
{ "type": "Feature", "properties": { "hex_id": 7989, "count": 10, "date": "2025-11-27", "n_files": 22, "pct": 45.45 }, "geometry": { "type": "Polygon", "coordinates": [ [ [ -70.7870541, 48.5870347 ], [ -70.7848959, 48.6129343 ], [ -70.8176513, 48.6271199 ], [ -70.8525523, 48.615395 ], [ -70.8546762, 48.5894932 ], [ -70.8219334, 48.5753185 ], [ -70.7870541, 48.5870347 ] ] ] } },
{ "type": "Feature", "properties": { "hex_id": 8025, "count": 1, "date": "2025-11-27", "n_files": 22, "pct": 4.55 }, "geometry": { "type": "Polygon", "coordinates": [ [ [ -70.9283786, 46.3707797 ], [ -70.9264483, 46.396694 ], [ -70.957928, 46.410804399999989 ], [ -70.9913266, 46.3989904 ], [ -70.9932264, 46.373074 ], [ -70.961758, 46.3589737 ], [ -70.9283786, 46.3707797 ] ] ] } },
{ "type": "Feature", "properties": { "hex_id": 8054, "count": 10, "date": "2025-11-27", "n_files": 22, "pct": 45.45 }, "geometry": { "type": "Polygon", "coordinates": [ [ [ -70.7499822, 48.6246383 ], [ -70.7478022, 48.6505365 ], [ -70.7805702, 48.664733 ], [ -70.8155057, 48.6530204 ], [ -70.8176513, 48.6271199 ], [ -70.7848959, 48.6129343 ], [ -70.7499822, 48.6246383 ] ] ] } },
{ "type": "Feature", "properties": { "hex_id": 8095, "count": 13, "date": "2025-11-27", "n_files": 22, "pct": 59.09 }, "geometry": { "type": "Polygon", "coordinates": [ [ [ -70.8575312, 46.8748945 ], [ -70.8555326, 46.9008042 ], [ -70.8872781, 46.9149421 ], [ -70.9210107, 46.9031599 ], [ -70.922978, 46.8772481 ], [ -70.8912441, 46.8631205 ], [ -70.8575312, 46.8748945 ] ] ] } },
{ "type": "Feature", "properties": { "hex_id": 8159, "count": 5, "date": "2025-11-27", "n_files": 22, "pct": 22.73 }, "geometry": { "type": "Polygon", "coordinates": [ [ [ -70.8278272, 46.8348404 ], [ -70.8258171, 46.8607493 ], [ -70.8575312, 46.8748945 ], [ -70.8912441, 46.8631205 ], [ -70.8932229, 46.8372095 ], [ -70.8615203, 46.8230745 ], [ -70.8278272, 46.8348404 ] ] ] } },
{ "type": "Feature", "properties": { "hex_id": 8223, "count": 5, "date": "2025-11-27", "n_files": 22, "pct": 22.73 }, "geometry": { "type": "Polygon", "coordinates": [ [ [ -70.7920927, 46.8725036 ], [ -70.7900627, 46.8984111 ], [ -70.821788400000017, 46.9125666 ], [ -70.8555326, 46.9008042 ], [ -70.8575312, 46.8748945 ], [ -70.8258171, 46.8607493 ], [ -70.7920927, 46.8725036 ] ] ] } },
{ "type": "Feature", "properties": { "hex_id": 8852, "count": 3, "date": "2025-11-27", "n_files": 22, "pct": 13.64 }, "geometry": { "type": "Polygon", "coordinates": [ [ [ -70.5355175, 46.0053031 ], [ -70.5334282, 46.0312057 ], [ -70.5645971, 46.0454142 ], [ -70.5978448, 46.03371 ], [ -70.5999042, 46.0078051 ], [ -70.5687459, 45.9936066 ], [ -70.5355175, 46.0053031 ] ] ] } },
{ "type": "Feature", "properties": { "hex_id": 8917, "count": 3, "date": "2025-11-27", "n_files": 22, "pct": 13.64 }, "geometry": { "type": "Polygon", "coordinates": [ [ [ -70.5001699, 46.0428908 ], [ -70.4980612, 46.068792 ], [ -70.5292409, 46.0830105 ], [ -70.5625185, 46.0713177 ], [ -70.5645971, 46.0454142 ], [ -70.5334282, 46.0312057 ], [ -70.5001699, 46.0428908 ] ] ] } },
{ "type": "Feature", "properties": { "hex_id": 9702, "count": 1, "date": "2025-11-27", "n_files": 22, "pct": 4.55 }, "geometry": { "type": "Polygon", "coordinates": [ [ [ -69.9929922, 47.346959 ], [ -69.9905372, 47.3728352 ], [ -70.0223058, 47.3872145 ], [ -70.0565185, 47.3757069 ], [ -70.0589415, 47.3498281 ], [ -70.0271838, 47.3354594 ], [ -69.9929922, 47.346959 ] ] ] } },
{ "type": "Feature", "properties": { "hex_id": 9766, "count": 1, "date": "2025-11-27", "n_files": 22, "pct": 4.55 }, "geometry": { "type": "Polygon", "coordinates": [ [ [ -69.9563137, 47.3843226 ], [ -69.9538375, 47.4101972 ], [ -69.985617, 47.4245871 ], [ -70.0198617, 47.4130917 ], [ -70.0223058, 47.3872145 ], [ -69.9905372, 47.3728352 ], [ -69.9563137, 47.3843226 ] ] ] } },
{ "type": "Feature", "properties": { "hex_id": 9830, "count": 1, "date": "2025-11-27", "n_files": 22, "pct": 4.55 }, "geometry": { "type": "Polygon", "coordinates": [ [ [ -69.9270533, 47.3440521 ], [ -69.9245663, 47.3699257 ], [ -69.9563137, 47.3843226 ], [ -69.9905372, 47.3728352 ], [ -69.9929922, 47.346959 ], [ -69.9612557, 47.3325727 ], [ -69.9270533, 47.3440521 ] ] ] } },
{ "type": "Feature", "properties": { "hex_id": 10541, "count": 4, "date": "2025-11-27", "n_files": 22, "pct": 18.18 }, "geometry": { "type": "Polygon", "coordinates": [ [ [ -69.5037606, 47.9091517 ], [ -69.5010129, 47.9350051 ], [ -69.5329651, 47.9495278 ], [ -69.5676543, 47.9381862 ], [ -69.5703691, 47.91233 ], [ -69.5384276, 47.8978182 ], [ -69.5037606, 47.9091517 ] ] ] } },
{ "type": "Feature", "properties": { "hex_id": 10669, "count": 4, "date": "2025-11-27", "n_files": 22, "pct": 18.18 }, "geometry": { "type": "Polygon", "coordinates": [ [ [ -69.4371637, 47.9059349 ], [ -69.4343831, 47.9317854 ], [ -69.466313, 47.9463259 ], [ -69.5010129, 47.9350051 ], [ -69.5037606, 47.9091517 ], [ -69.4718413, 47.8946221 ], [ -69.4371637, 47.9059349 ] ] ] } },
{ "type": "Feature", "properties": { "hex_id": 11192, "count": 5, "date": "2025-11-27", "n_files": 22, "pct": 22.73 }, "geometry": { "type": "Polygon", "coordinates": [ [ [ -69.0726028, 48.7452209 ], [ -69.0695521, 48.771051 ], [ -69.1018772, 48.7857095 ], [ -69.1372423, 48.7745265 ], [ -69.1402587, 48.7486932 ], [ -69.1079443, 48.7340461 ], [ -69.0726028, 48.7452209 ] ] ] } },
{ "type": "Feature", "properties": { "hex_id": 11256, "count": 3, "date": "2025-11-27", "n_files": 22, "pct": 13.64 }, "geometry": { "type": "Polygon", "coordinates": [ [ [ -69.0433735, 48.704726699999988 ], [ -69.0403121, 48.7305556 ], [ -69.0726028, 48.7452209 ], [ -69.1079443, 48.7340461 ], [ -69.1109715, 48.708214 ], [ -69.0786914, 48.6935599 ], [ -69.0433735, 48.704726699999988 ] ] ] } },
{ "type": "Feature", "properties": { "hex_id": 11257, "count": 5, "date": "2025-11-27", "n_files": 22, "pct": 22.73 }, "geometry": { "type": "Polygon", "coordinates": [ [ [ -69.0341763, 48.7822127 ], [ -69.0311019, 48.8080408 ], [ -69.0634376, 48.8227105 ], [ -69.0988371, 48.8115408 ], [ -69.1018772, 48.7857095 ], [ -69.0695521, 48.771051 ], [ -69.0341763, 48.7822127 ] ] ] } },
{ "type": "Feature", "properties": { "hex_id": 11320, "count": 8, "date": "2025-11-27", "n_files": 22, "pct": 36.36 }, "geometry": { "type": "Polygon", "coordinates": [ [ [ -69.00496, 48.7417091 ], [ -69.001875, 48.767536 ], [ -69.0341763, 48.7822127 ], [ -69.0695521, 48.771051 ], [ -69.0726028, 48.7452209 ], [ -69.0403121, 48.7305556 ], [ -69.00496, 48.7417091 ] ] ] } },
{ "type": "Feature", "properties": { "hex_id": 11321, "count": 5, "date": "2025-11-27", "n_files": 22, "pct": 22.73 }, "geometry": { "type": "Polygon", "coordinates": [ [ [ -68.9956917, 48.8191891 ], [ -68.9925935, 48.8450153 ], [ -69.0249398, 48.8596963 ], [ -69.0603738, 48.8485398 ], [ -69.0634376, 48.8227105 ], [ -69.0311019, 48.8080408 ], [ -68.9956917, 48.8191891 ] ] ] } },
{ "type": "Feature", "properties": { "hex_id": 11385, "count": 5, "date": "2025-11-27", "n_files": 22, "pct": 22.73 }, "geometry": { "type": "Polygon", "coordinates": [ [ [ -68.9664885, 48.7786763 ], [ -68.9633797, 48.8045012 ], [ -68.9956917, 48.8191891 ], [ -69.0311019, 48.8080408 ], [ -69.0341763, 48.7822127 ], [ -69.001875, 48.767536 ], [ -68.9664885, 48.7786763 ] ] ] } },
{ "type": "Feature", "properties": { "hex_id": 11386, "count": 5, "date": "2025-11-27", "n_files": 22, "pct": 22.73 }, "geometry": { "type": "Polygon", "coordinates": [ [ [ -68.9571488, 48.856150299999989 ], [ -68.9540267, 48.8819745 ], [ -68.9863837, 48.8966668 ], [ -69.0218522, 48.8855236 ], [ -69.0249398, 48.8596963 ], [ -68.9925935, 48.8450153 ], [ -68.9571488, 48.856150299999989 ] ] ] } },
{ "type": "Feature", "properties": { "hex_id": 11449, "count": 5, "date": "2025-11-27", "n_files": 22, "pct": 22.73 }, "geometry": { "type": "Polygon", "coordinates": [ [ [ -68.927959, 48.8156282 ], [ -68.9248263, 48.8414511 ], [ -68.9571488, 48.856150299999989 ], [ -68.9925935, 48.8450153 ], [ -68.9956917, 48.8191891 ], [ -68.9633797, 48.8045012 ], [ -68.927959, 48.8156282 ] ] ] } },
{ "type": "Feature", "properties": { "hex_id": 11513, "count": 5, "date": "2025-11-27", "n_files": 22, "pct": 22.73 }, "geometry": { "type": "Polygon", "coordinates": [ [ [ -68.898814, 48.7751003 ], [ -68.8956709, 48.8009221 ], [ -68.927959, 48.8156282 ], [ -68.9633797, 48.8045012 ], [ -68.9664885, 48.7786763 ], [ -68.934211, 48.7639815 ], [ -68.898814, 48.7751003 ] ] ] } },
{ "type": "Feature", "properties": { "hex_id": 11514, "count": 5, "date": "2025-11-27", "n_files": 22, "pct": 22.73 }, "geometry": { "type": "Polygon", "coordinates": [ [ [ -68.8893711, 48.8525647 ], [ -68.8862146, 48.8783856 ], [ -68.9185476, 48.8930961 ], [ -68.9540267, 48.8819745 ], [ -68.9571488, 48.856150299999989 ], [ -68.9248263, 48.8414511 ], [ -68.8893711, 48.8525647 ] ] ] } },
{ "type": "Feature", "properties": { "hex_id": 11577, "count": 5, "date": "2025-11-27", "n_files": 22, "pct": 22.73 }, "geometry": { "type": "Polygon", "coordinates": [ [ [ -68.8602396, 48.8120276 ], [ -68.8570726, 48.8378473 ], [ -68.8893711, 48.8525647 ], [ -68.9248263, 48.8414511 ], [ -68.927959, 48.8156282 ], [ -68.8956709, 48.8009221 ], [ -68.8602396, 48.8120276 ] ] ] } },
{ "type": "Feature", "properties": { "hex_id": 11578, "count": 5, "date": "2025-11-27", "n_files": 22, "pct": 22.73 }, "geometry": { "type": "Polygon", "coordinates": [ [ [ -68.8507249, 48.8894858 ], [ -68.8475443, 48.9153047 ], [ -68.879887900000014, 48.9300266 ], [ -68.9154016, 48.9189183 ], [ -68.9185476, 48.8930961 ], [ -68.8862146, 48.8783856 ], [ -68.8507249, 48.8894858 ] ] ] } },
{ "type": "Feature", "properties": { "hex_id": 11642, "count": 5, "date": "2025-11-27", "n_files": 22, "pct": 22.73 }, "geometry": { "type": "Polygon", "coordinates": [ [ [ -68.8216069, 48.8489394 ], [ -68.8184159, 48.874757 ], [ -68.8507249, 48.8894858 ], [ -68.8862146, 48.8783856 ], [ -68.8893711, 48.8525647 ], [ -68.8570726, 48.8378473 ], [ -68.8216069, 48.8489394 ] ] ] } },
{ "type": "Feature", "properties": { "hex_id": 11643, "count": 5, "date": "2025-11-27", "n_files": 22, "pct": 22.73 }, "geometry": { "type": "Polygon", "coordinates": [ [ [ -68.8120201, 48.9263915 ], [ -68.808815400000015, 48.9522083 ], [ -68.8411695, 48.9669416 ], [ -68.8767178, 48.9558467 ], [ -68.879887900000014, 48.9300266 ], [ -68.8475443, 48.9153047 ], [ -68.8120201, 48.9263915 ] ] ] } },
{ "type": "Feature", "properties": { "hex_id": 11705, "count": 5, "date": "2025-11-27", "n_files": 22, "pct": 22.73 }, "geometry": { "type": "Polygon", "coordinates": [ [ [ -68.7925338, 48.8083874 ], [ -68.7893323, 48.8342038 ], [ -68.8216069, 48.8489394 ], [ -68.8570726, 48.8378473 ], [ -68.8602396, 48.8120276 ], [ -68.8279754, 48.7973033 ], [ -68.7925338, 48.8083874 ] ] ] } },
{ "type": "Feature", "properties": { "hex_id": 11706, "count": 5, "date": "2025-11-27", "n_files": 22, "pct": 22.73 }, "geometry": { "type": "Polygon", "coordinates": [ [ [ -68.7829158, 48.8858358 ], [ -68.7797006, 48.911651299999988 ], [ -68.8120201, 48.9263915 ], [ -68.8475443, 48.9153047 ], [ -68.8507249, 48.8894858 ], [ -68.8184159, 48.874757 ], [ -68.7829158, 48.8858358 ] ] ] } },
{ "type": "Feature", "properties": { "hex_id": 11770, "count": 5, "date": "2025-11-27", "n_files": 22, "pct": 22.73 }, "geometry": { "type": "Polygon", "coordinates": [ [ [ -68.7538563, 48.8452745 ], [ -68.7506308, 48.8710888 ], [ -68.7829158, 48.8858358 ], [ -68.8184159, 48.874757 ], [ -68.8216069, 48.8489394 ], [ -68.7893323, 48.8342038 ], [ -68.7538563, 48.8452745 ] ] ] } },
{ "type": "Feature", "properties": { "hex_id": 11771, "count": 5, "date": "2025-11-27", "n_files": 22, "pct": 22.73 }, "geometry": { "type": "Polygon", "coordinates": [ [ [ -68.744166, 48.9227166 ], [ -68.7409267, 48.9485301 ], [ -68.7732566, 48.9632816 ], [ -68.808815400000015, 48.9522083 ], [ -68.8120201, 48.9263915 ], [ -68.7797006, 48.911651299999988 ], [ -68.744166, 48.9227166 ] ] ] } },
{ "type": "Feature", "properties": { "hex_id": 11834, "count": 5, "date": "2025-11-27", "n_files": 22, "pct": 22.73 }, "geometry": { "type": "Polygon", "coordinates": [ [ [ -68.7151203, 48.8821461 ], [ -68.7118707, 48.9079583 ], [ -68.744166, 48.9227166 ], [ -68.7797006, 48.911651299999988 ], [ -68.7829158, 48.8858358 ], [ -68.7506308, 48.8710888 ], [ -68.7151203, 48.8821461 ] ] ] } },
{ "type": "Feature", "properties": { "hex_id": 11899, "count": 5, "date": "2025-11-27", "n_files": 22, "pct": 22.73 }, "geometry": { "type": "Polygon", "coordinates": [ [ [ -68.6763258, 48.9190021 ], [ -68.6730519, 48.9448122 ], [ -68.7053575, 48.9595819 ], [ -68.7409267, 48.9485301 ], [ -68.744166, 48.9227166 ], [ -68.7118707, 48.9079583 ], [ -68.6763258, 48.9190021 ] ] ] } },
{ "type": "Feature", "properties": { "hex_id": 12092, "count": 6, "date": "2025-11-27", "n_files": 22, "pct": 27.27 }, "geometry": { "type": "Polygon", "coordinates": [ [ [ -68.5595888, 49.0294762 ], [ -68.5562418, 49.05528 ], [ -68.5885783, 49.070084 ], [ -68.6242515, 49.0590729 ], [ -68.6275638, 49.0332657 ], [ -68.5952376, 49.0184731 ], [ -68.5595888, 49.0294762 ] ] ] } },
{ "type": "Feature", "properties": { "hex_id": 12093, "count": 2, "date": "2025-11-27", "n_files": 22, "pct": 9.09 }, "geometry": { "type": "Polygon", "coordinates": [ [ [ -68.5495334, 49.1068866 ], [ -68.5461721, 49.1326895 ], [ -68.5785536, 49.147498299999988 ], [ -68.6142863, 49.1364927 ], [ -68.6176128, 49.1106863 ], [ -68.5852415, 49.0958891 ], [ -68.5495334, 49.1068866 ] ] ] } },
{ "type": "Feature", "properties": { "hex_id": 12157, "count": 6, "date": "2025-11-27", "n_files": 22, "pct": 27.27 }, "geometry": { "type": "Polygon", "coordinates": [ [ [ -68.5205583, 49.0662695 ], [ -68.5171868, 49.0920711 ], [ -68.5495334, 49.1068866 ], [ -68.5852415, 49.0958891 ], [ -68.5885783, 49.070084 ], [ -68.5562418, 49.05528 ], [ -68.5205583, 49.0662695 ] ] ] } },
{ "type": "Feature", "properties": { "hex_id": 12220, "count": 2, "date": "2025-11-27", "n_files": 22, "pct": 9.09 }, "geometry": { "type": "Polygon", "coordinates": [ [ [ -68.4916282, 49.025647 ], [ -68.4882464, 49.0514472 ], [ -68.5205583, 49.0662695 ], [ -68.5562418, 49.05528 ], [ -68.5595888, 49.0294762 ], [ -68.5272871, 49.0146655 ], [ -68.4916282, 49.025647 ] ] ] } },
{ "type": "Feature", "properties": { "hex_id": 12221, "count": 2, "date": "2025-11-27", "n_files": 22, "pct": 9.09 }, "geometry": { "type": "Polygon", "coordinates": [ [ [ -68.4814685, 49.1030469 ], [ -68.4780722, 49.1288464 ], [ -68.5104291, 49.1436734 ], [ -68.5461721, 49.1326895 ], [ -68.5495334, 49.1068866 ], [ -68.5171868, 49.0920711 ], [ -68.4814685, 49.1030469 ] ] ] } },
{ "type": "Feature", "properties": { "hex_id": 12285, "count": 2, "date": "2025-11-27", "n_files": 22, "pct": 9.09 }, "geometry": { "type": "Polygon", "coordinates": [ [ [ -68.4525528, 49.0624151 ], [ -68.4491464, 49.0882132 ], [ -68.4814685, 49.1030469 ], [ -68.5171868, 49.0920711 ], [ -68.5205583, 49.0662695 ], [ -68.4882464, 49.0514472 ], [ -68.4525528, 49.0624151 ] ] ] } },
{ "type": "Feature", "properties": { "hex_id": 12286, "count": 1, "date": "2025-11-27", "n_files": 22, "pct": 4.55 }, "geometry": { "type": "Polygon", "coordinates": [ [ [ -68.4423191, 49.1398085 ], [ -68.4388982, 49.1656058 ], [ -68.4712652, 49.1804443 ], [ -68.5070431, 49.1694741 ], [ -68.5104291, 49.1436734 ], [ -68.4780722, 49.1288464 ], [ -68.4423191, 49.1398085 ] ] ] } },
{ "type": "Feature", "properties": { "hex_id": 12349, "count": 2, "date": "2025-11-27", "n_files": 22, "pct": 9.09 }, "geometry": { "type": "Polygon", "coordinates": [ [ [ -68.413418, 49.0991674 ], [ -68.409987, 49.1249633 ], [ -68.4423191, 49.1398085 ], [ -68.4780722, 49.1288464 ], [ -68.4814685, 49.1030469 ], [ -68.4491464, 49.0882132 ], [ -68.413418, 49.0991674 ] ] ] } },
{ "type": "Feature", "properties": { "hex_id": 12413, "count": 2, "date": "2025-11-27", "n_files": 22, "pct": 9.09 }, "geometry": { "type": "Polygon", "coordinates": [ [ [ -68.3845618, 49.0585209 ], [ -68.3811207, 49.0843155 ], [ -68.413418, 49.0991674 ], [ -68.4491464, 49.0882132 ], [ -68.4525528, 49.0624151 ], [ -68.4202655, 49.0475747 ], [ -68.3845618, 49.0585209 ] ] ] } },
{ "type": "Feature", "properties": { "hex_id": 12414, "count": 2, "date": "2025-11-27", "n_files": 22, "pct": 9.09 }, "geometry": { "type": "Polygon", "coordinates": [ [ [ -68.3742238, 49.1359037 ], [ -68.3707679, 49.1616974 ], [ -68.4031101, 49.1765542 ], [ -68.4388982, 49.1656058 ], [ -68.4423191, 49.1398085 ], [ -68.409987, 49.1249633 ], [ -68.3742238, 49.1359037 ] ] ] } },
{ "type": "Feature", "properties": { "hex_id": 12466, "count": 3, "date": "2025-11-27", "n_files": 22, "pct": 13.64 }, "geometry": { "type": "Polygon", "coordinates": [ [ [ -68.4570379, 48.2439351 ], [ -68.4537304, 48.2697371 ], [ -68.4855551, 48.2845476 ], [ -68.5206776, 48.273545 ], [ -68.5239519, 48.2477395 ], [ -68.4921369, 48.2329402 ], [ -68.4570379, 48.2439351 ] ] ] } },
{ "type": "Feature", "properties": { "hex_id": 12477, "count": 2, "date": "2025-11-27", "n_files": 22, "pct": 9.09 }, "geometry": { "type": "Polygon", "coordinates": [ [ [ -68.3453823, 49.0952479 ], [ -68.3419164, 49.1210403 ], [ -68.3742238, 49.1359037 ], [ -68.409987, 49.1249633 ], [ -68.413418, 49.0991674 ], [ -68.3811207, 49.0843155 ], [ -68.3453823, 49.0952479 ] ] ] } },
{ "type": "Feature", "properties": { "hex_id": 12531, "count": 3, "date": "2025-11-27", "n_files": 22, "pct": 13.64 }, "geometry": { "type": "Polygon", "coordinates": [ [ [ -68.4185982, 48.2807186 ], [ -68.4152671, 48.3065185 ], [ -68.4471014, 48.3213402 ], [ -68.4822573, 48.3103509 ], [ -68.4855551, 48.2845476 ], [ -68.4537304, 48.2697371 ], [ -68.4185982, 48.2807186 ] ] ] } },
{ "type": "Feature", "properties": { "hex_id": 12659, "count": 4, "date": "2025-11-27", "n_files": 22, "pct": 18.18 }, "geometry": { "type": "Polygon", "coordinates": [ [ [ -68.3516554, 48.2768508 ], [ -68.3482909, 48.3026472 ], [ -68.3801016, 48.3174866 ], [ -68.4152671, 48.3065185 ], [ -68.4185982, 48.2807186 ], [ -68.3867972, 48.2658904 ], [ -68.3516554, 48.2768508 ] ] ] } },
{ "type": "Feature", "properties": { "hex_id": 12722, "count": 4, "date": "2025-11-27", "n_files": 22, "pct": 18.18 }, "geometry": { "type": "Polygon", "coordinates": [ [ [ -68.3232519, 48.23621 ], [ -68.319878, 48.262005 ], [ -68.3516554, 48.2768508 ], [ -68.3867972, 48.2658904 ], [ -68.3901379, 48.2400919 ], [ -68.35837, 48.2252572 ], [ -68.3232519, 48.23621 ] ] ] } },
{ "type": "Feature", "properties": { "hex_id": 12733, "count": 3, "date": "2025-11-27", "n_files": 22, "pct": 13.64 }, "geometry": { "type": "Polygon", "coordinates": [ [ [ -68.2093554, 49.0872895 ], [ -68.20582, 49.1130747 ], [ -68.2380776, 49.1279744 ], [ -68.2738607, 49.1170774 ], [ -68.2773613, 49.0912886 ], [ -68.2451136, 49.0764004 ], [ -68.2093554, 49.0872895 ] ] ] } },
{ "type": "Feature", "properties": { "hex_id": 12787, "count": 4, "date": "2025-11-27", "n_files": 22, "pct": 18.18 }, "geometry": { "type": "Polygon", "coordinates": [ [ [ -68.2847267, 48.2729443 ], [ -68.2813291, 48.2987372 ], [ -68.3131159, 48.3135942 ], [ -68.3482909, 48.3026472 ], [ -68.3516554, 48.2768508 ], [ -68.319878, 48.262005 ], [ -68.2847267, 48.2729443 ] ] ] } },
{ "type": "Feature", "properties": { "hex_id": 12798, "count": 3, "date": "2025-11-27", "n_files": 22, "pct": 13.64 }, "geometry": { "type": "Polygon", "coordinates": [ [ [ -68.170027, 49.1239499 ], [ -68.1664666, 49.1497328 ], [ -68.198734, 49.1646441 ], [ -68.234552, 49.1537609 ], [ -68.2380776, 49.1279744 ], [ -68.20582, 49.1130747 ], [ -68.170027, 49.1239499 ] ] ] } },
{ "type": "Feature", "properties": { "hex_id": 12850, "count": 4, "date": "2025-11-27", "n_files": 22, "pct": 18.18 }, "geometry": { "type": "Polygon", "coordinates": [ [ [ -68.2563802, 48.2322894 ], [ -68.2529731, 48.2580809 ], [ -68.2847267, 48.2729443 ], [ -68.319878, 48.262005 ], [ -68.3232519, 48.23621 ], [ -68.2915078, 48.2213578 ], [ -68.2563802, 48.2322894 ] ] ] } },
{ "type": "Feature", "properties": { "hex_id": 12861, "count": 3, "date": "2025-11-27", "n_files": 22, "pct": 13.64 }, "geometry": { "type": "Polygon", "coordinates": [ [ [ -68.1413645, 49.0832505 ], [ -68.1377944, 49.1090321 ], [ -68.170027, 49.1239499 ], [ -68.20582, 49.1130747 ], [ -68.2093554, 49.0872895 ], [ -68.1771325, 49.0723832 ], [ -68.1413645, 49.0832505 ] ] ] } },
{ "type": "Feature", "properties": { "hex_id": 14202, "count": 9, "date": "2025-11-27", "n_files": 22, "pct": 40.91 }, "geometry": { "type": "Polygon", "coordinates": [ [ [ -67.4693697, 48.7681411 ], [ -67.4654949, 48.7938858 ], [ -67.4973114, 48.8089728 ], [ -67.5329938, 48.7983035 ], [ -67.5368347, 48.7725548 ], [ -67.505027, 48.7574793 ], [ -67.4693697, 48.7681411 ] ] ] } },
{ "type": "Feature", "properties": { "hex_id": 14265, "count": 9, "date": "2025-11-27", "n_files": 22, "pct": 40.91 }, "geometry": { "type": "Polygon", "coordinates": [ [ [ -67.4414707, 48.7273048 ], [ -67.4375872, 48.753048 ], [ -67.4693697, 48.7681411 ], [ -67.505027, 48.7574793 ], [ -67.5088767, 48.7317321 ], [ -67.4771028, 48.7166506 ], [ -67.4414707, 48.7273048 ] ] ] } },
{ "type": "Feature", "properties": { "hex_id": 14329, "count": 9, "date": "2025-11-27", "n_files": 22, "pct": 40.91 }, "geometry": { "type": "Polygon", "coordinates": [ [ [ -67.4136141, 48.686464 ], [ -67.4097219, 48.7122057 ], [ -67.4414707, 48.7273048 ], [ -67.4771028, 48.7166506 ], [ -67.4809612, 48.6909049 ], [ -67.4492211, 48.6758173 ], [ -67.4136141, 48.686464 ] ] ] } },
{ "type": "Feature", "properties": { "hex_id": 14330, "count": 9, "date": "2025-11-27", "n_files": 22, "pct": 40.91 }, "geometry": { "type": "Polygon", "coordinates": [ [ [ -67.4019212, 48.7636882 ], [ -67.3980125, 48.7894289 ], [ -67.4298037, 48.8045335 ], [ -67.4654949, 48.7938858 ], [ -67.4693697, 48.7681411 ], [ -67.4375872, 48.753048 ], [ -67.4019212, 48.7636882 ] ] ] } },
{ "type": "Feature", "properties": { "hex_id": 14393, "count": 9, "date": "2025-11-27", "n_files": 22, "pct": 40.91 }, "geometry": { "type": "Polygon", "coordinates": [ [ [ -67.3740811, 48.7228384 ], [ -67.3701638, 48.7485776 ], [ -67.4019212, 48.7636882 ], [ -67.4375872, 48.753048 ], [ -67.4414707, 48.7273048 ], [ -67.4097219, 48.7122057 ], [ -67.3740811, 48.7228384 ] ] ] } },
{ "type": "Feature", "properties": { "hex_id": 14457, "count": 9, "date": "2025-11-27", "n_files": 22, "pct": 40.91 }, "geometry": { "type": "Polygon", "coordinates": [ [ [ -67.3462834, 48.681984 ], [ -67.3423576, 48.7077218 ], [ -67.3740811, 48.7228384 ], [ -67.4097219, 48.7122057 ], [ -67.4136141, 48.686464 ], [ -67.3818991, 48.6713589 ], [ -67.3462834, 48.681984 ] ] ] } },
{ "type": "Feature", "properties": { "hex_id": 14458, "count": 9, "date": "2025-11-27", "n_files": 22, "pct": 40.91 }, "geometry": { "type": "Polygon", "coordinates": [ [ [ -67.3344892, 48.7591961 ], [ -67.3305467, 48.7849328 ], [ -67.3623126, 48.800055 ], [ -67.3980125, 48.7894289 ], [ -67.4019212, 48.7636882 ], [ -67.3701638, 48.7485776 ], [ -67.3344892, 48.7591961 ] ] ] } },
{ "type": "Feature", "properties": { "hex_id": 14520, "count": 9, "date": "2025-11-27", "n_files": 22, "pct": 40.91 }, "geometry": { "type": "Polygon", "coordinates": [ [ [ -67.3185279, 48.6411252 ], [ -67.3145936, 48.6668615 ], [ -67.3462834, 48.681984 ], [ -67.3818991, 48.6713589 ], [ -67.3857998, 48.6456186 ], [ -67.3541185, 48.6305076 ], [ -67.3185279, 48.6411252 ] ] ] } },
{ "type": "Feature", "properties": { "hex_id": 14521, "count": 9, "date": "2025-11-27", "n_files": 22, "pct": 40.91 }, "geometry": { "type": "Polygon", "coordinates": [ [ [ -67.3067082, 48.7183328 ], [ -67.3027572, 48.744068 ], [ -67.3344892, 48.7591961 ], [ -67.3701638, 48.7485776 ], [ -67.3740811, 48.7228384 ], [ -67.3423576, 48.7077218 ], [ -67.3067082, 48.7183328 ] ] ] } },
{ "type": "Feature", "properties": { "hex_id": 14585, "count": 9, "date": "2025-11-27", "n_files": 22, "pct": 40.91 }, "geometry": { "type": "Polygon", "coordinates": [ [ [ -67.2789694, 48.6774651 ], [ -67.2750099, 48.7031987 ], [ -67.3067082, 48.7183328 ], [ -67.3423576, 48.7077218 ], [ -67.3462834, 48.681984 ], [ -67.3145936, 48.6668615 ], [ -67.2789694, 48.6774651 ] ] ] } },
{ "type": "Feature", "properties": { "hex_id": 14649, "count": 9, "date": "2025-11-27", "n_files": 22, "pct": 40.91 }, "geometry": { "type": "Polygon", "coordinates": [ [ [ -67.2393521, 48.7137882 ], [ -67.2353673, 48.7395193 ], [ -67.267074, 48.754665 ], [ -67.3027572, 48.744068 ], [ -67.3067082, 48.7183328 ], [ -67.2750099, 48.7031987 ], [ -67.2393521, 48.7137882 ] ] ] } },
{ "type": "Feature", "properties": { "hex_id": 14713, "count": 9, "date": "2025-11-27", "n_files": 22, "pct": 40.91 }, "geometry": { "type": "Polygon", "coordinates": [ [ [ -67.2116722, 48.6729071 ], [ -67.207679, 48.6986366 ], [ -67.2393521, 48.7137882 ], [ -67.2750099, 48.7031987 ], [ -67.2789694, 48.6774651 ], [ -67.2473048, 48.662325 ], [ -67.2116722, 48.6729071 ] ] ] } }
]
}
