{
"type": "FeatureCollection",
"name": "daily_2026-03-27",
"crs": { "type": "name", "properties": { "name": "urn:ogc:def:crs:OGC:1.3:CRS84" } },
"features": [
{ "type": "Feature", "properties": { "hex_id": 597695, "centroid_lon": -73.338641475302097, "centroid_lat": 45.012285212122627, "occurrences_today": 6, "datetimes_today": "2026-03-27 00:01:23, 2026-03-27 00:16:38, 2026-03-27 00:31:33, 2026-03-27 00:46:39, 2026-03-27 00:57:09, 2026-03-27 01:16:32", "cumulative_total": 161.0 }, "geometry": { "type": "Polygon", "coordinates": [ [ [ -73.338791692975235, 45.007090144132036 ], [ -73.345058948586953, 45.009779786164948 ], [ -73.344909283456346, 45.014974868177667 ], [ -73.338491216847899, 45.01748027497289 ], [ -73.332223449481418, 45.014790268070996 ], [ -73.332374260464675, 45.009595219306185 ], [ -73.338791692975235, 45.007090144132036 ] ] ] } },
{ "type": "Feature", "properties": { "hex_id": 597696, "centroid_lon": -73.338190577542335, "centroid_lat": 45.027870385251902, "occurrences_today": 6, "datetimes_today": "2026-03-27 00:01:23, 2026-03-27 00:16:38, 2026-03-27 00:31:33, 2026-03-27 00:46:39, 2026-03-27 00:57:09, 2026-03-27 01:16:32", "cumulative_total": 161.0 }, "geometry": { "type": "Polygon", "coordinates": [ [ [ -73.338340917599155, 45.022675332682702 ], [ -73.344609831284416, 45.025365016790701 ], [ -73.344460044216149, 45.030560083390753 ], [ -73.338040196663925, 45.033065432680388 ], [ -73.331770770818451, 45.030375383504605 ], [ -73.331921704671885, 45.025180350170331 ], [ -73.338340917599155, 45.022675332682702 ] ] ] } },
{ "type": "Feature", "properties": { "hex_id": 598306, "centroid_lon": -73.332072597555026, "centroid_lat": 45.019985311692423, "occurrences_today": 6, "datetimes_today": "2026-03-27 00:01:23, 2026-03-27 00:16:38, 2026-03-27 00:31:33, 2026-03-27 00:46:39, 2026-03-27 00:57:09, 2026-03-27 01:16:32", "cumulative_total": 161.0 }, "geometry": { "type": "Polygon", "coordinates": [ [ [ -73.332223449481418, 45.014790268070996 ], [ -73.338491216847899, 45.01748027497289 ], [ -73.338340917599155, 45.022675332682702 ], [ -73.331921704671885, 45.025180350170331 ], [ -73.32565342559127, 45.022489978243442 ], [ -73.325804871138502, 45.017294953917251 ], [ -73.332223449481418, 45.014790268070996 ] ] ] } },
{ "type": "Feature", "properties": { "hex_id": 598307, "centroid_lon": -73.33161979598114, "centroid_lat": 45.035570411695076, "occurrences_today": 6, "datetimes_today": "2026-03-27 00:01:23, 2026-03-27 00:16:38, 2026-03-27 00:31:33, 2026-03-27 00:46:39, 2026-03-27 00:57:09, 2026-03-27 01:16:32", "cumulative_total": 181.0 }, "geometry": { "type": "Polygon", "coordinates": [ [ [ -73.331770770818451, 45.030375383504605 ], [ -73.338040196663925, 45.033065432680388 ], [ -73.337889774950412, 45.038260474968006 ], [ -73.331468780146395, 45.04076543474163 ], [ -73.325198842181379, 45.038075020341978 ], [ -73.325350411126337, 45.032880011455944 ], [ -73.331770770818451, 45.030375383504605 ] ] ] } },
{ "type": "Feature", "properties": { "hex_id": 598308, "centroid_lon": -73.3311666254302, "centroid_lat": 45.051155465402395, "occurrences_today": 6, "datetimes_today": "2026-03-27 00:01:23, 2026-03-27 00:16:38, 2026-03-27 00:31:33, 2026-03-27 00:46:39, 2026-03-27 00:57:09, 2026-03-27 01:16:32", "cumulative_total": 91.0 }, "geometry": { "type": "Polygon", "coordinates": [ [ [ -73.331317723300614, 45.045960452644124 ], [ -73.337588808963886, 45.048650544120072 ], [ -73.337438264663817, 45.053845570984265 ], [ -73.331015486521565, 45.056350473016359 ], [ -73.324743888332961, 45.053660016117547 ], [ -73.324895580798341, 45.048465022672907 ], [ -73.331317723300614, 45.045960452644124 ] ] ] } },
{ "type": "Feature", "properties": { "hex_id": 598916, "centroid_lon": -73.325956275580396, "centroid_lat": 45.012099924444627, "occurrences_today": 6, "datetimes_today": "2026-03-27 00:01:23, 2026-03-27 00:16:38, 2026-03-27 00:31:33, 2026-03-27 00:46:39, 2026-03-27 00:57:09, 2026-03-27 01:16:32", "cumulative_total": 161.0 }, "geometry": { "type": "Polygon", "coordinates": [ [ [ -73.326107638930566, 45.006904889825691 ], [ -73.332374260464675, 45.009595219306185 ], [ -73.332223449481418, 45.014790268070996 ], [ -73.325804871138502, 45.017294953917251 ], [ -73.31953773833601, 45.014604259454565 ], [ -73.319689695131231, 45.00940924419114 ], [ -73.326107638930566, 45.006904889825691 ] ] ] } },
{ "type": "Feature", "properties": { "hex_id": 598917, "centroid_lon": -73.325501938925086, "centroid_lat": 45.027684997423052, "occurrences_today": 6, "datetimes_today": "2026-03-27 00:01:23, 2026-03-27 00:16:38, 2026-03-27 00:31:33, 2026-03-27 00:46:39, 2026-03-27 00:57:09, 2026-03-27 01:16:32", "cumulative_total": 161.0 }, "geometry": { "type": "Polygon", "coordinates": [ [ [ -73.32565342559127, 45.022489978243442 ], [ -73.331921704671885, 45.025180350170331 ], [ -73.331770770818451, 45.030375383504605 ], [ -73.325350411126337, 45.032880011455944 ], [ -73.319081620372359, 45.030189274348004 ], [ -73.31923370097023, 45.024994274533142 ], [ -73.32565342559127, 45.022489978243442 ] ] ] } },
{ "type": "Feature", "properties": { "hex_id": 598918, "centroid_lon": -73.325047232076599, "centroid_lat": 45.043270024081004, "occurrences_today": 6, "datetimes_today": "2026-03-27 00:01:23, 2026-03-27 00:16:38, 2026-03-27 00:31:33, 2026-03-27 00:46:39, 2026-03-27 00:57:09, 2026-03-27 01:16:32", "cumulative_total": 196.0 }, "geometry": { "type": "Polygon", "coordinates": [ [ [ -73.325198842181379, 45.038075020341978 ], [ -73.331468780146395, 45.04076543474163 ], [ -73.331317723300614, 45.045960452644124 ], [ -73.324895580798341, 45.048465022672907 ], [ -73.318625130754612, 45.045774242893252 ], [ -73.318777335278241, 45.040579258528211 ], [ -73.325198842181379, 45.038075020341978 ] ] ] } },
{ "type": "Feature", "properties": { "hex_id": 598919, "centroid_lon": -73.324592154666803, "centroid_lat": 45.058855004414774, "occurrences_today": 6, "datetimes_today": "2026-03-27 00:01:23, 2026-03-27 00:16:38, 2026-03-27 00:31:33, 2026-03-27 00:46:39, 2026-03-27 00:57:09, 2026-03-27 01:16:32", "cumulative_total": 163.0 }, "geometry": { "type": "Polygon", "coordinates": [ [ [ -73.324743888332961, 45.053660016117547 ], [ -73.331015486521565, 45.056350473016359 ], [ -73.330864306561082, 45.061545475485865 ], [ -73.324440379786211, 45.064049987564459 ], [ -73.318168269113201, 45.061359165086579 ], [ -73.318320597685812, 45.056164196172581 ], [ -73.324743888332961, 45.053660016117547 ] ] ] } },
{ "type": "Feature", "properties": { "hex_id": 598920, "centroid_lon": -73.324136706327067, "centroid_lat": 45.07443993842066, "occurrences_today": 6, "datetimes_today": "2026-03-27 00:01:23, 2026-03-27 00:16:38, 2026-03-27 00:31:33, 2026-03-27 00:46:39, 2026-03-27 00:57:09, 2026-03-27 01:16:32", "cumulative_total": 75.0 }, "geometry": { "type": "Polygon", "coordinates": [ [ [ -73.324288563677527, 45.069244965566469 ], [ -73.330561823430202, 45.071935464990894 ], [ -73.330410520232533, 45.077130452026147 ], [ -73.32398480772116, 45.079634906126905 ], [ -73.317711035077977, 45.076944040924225 ], [ -73.317863487823004, 45.071749087462535 ], [ -73.324288563677527, 45.069244965566469 ] ] ] } },
{ "type": "Feature", "properties": { "hex_id": 599527, "centroid_lon": -73.31938574028689, "centroid_lat": 45.019799269568601, "occurrences_today": 6, "datetimes_today": "2026-03-27 00:01:23, 2026-03-27 00:16:38, 2026-03-27 00:31:33, 2026-03-27 00:46:39, 2026-03-27 00:57:09, 2026-03-27 01:16:32", "cumulative_total": 89.0 }, "geometry": { "type": "Polygon", "coordinates": [ [ [ -73.31953773833601, 45.014604259454565 ], [ -73.325804871138502, 45.017294953917251 ], [ -73.32565342559127, 45.022489978243442 ], [ -73.31923370097023, 45.024994274533142 ], [ -73.31296605694024, 45.022303214932286 ], [ -73.313118648745117, 45.017108224243238 ], [ -73.31953773833601, 45.014604259454565 ] ] ] } },
{ "type": "Feature", "properties": { "hex_id": 599528, "centroid_lon": -73.318929498479591, "centroid_lat": 45.035384269013079, "occurrences_today": 6, "datetimes_today": "2026-03-27 00:01:23, 2026-03-27 00:16:38, 2026-03-27 00:31:33, 2026-03-27 00:46:39, 2026-03-27 00:57:09, 2026-03-27 01:16:32", "cumulative_total": 161.0 }, "geometry": { "type": "Polygon", "coordinates": [ [ [ -73.319081620372359, 45.030189274348004 ], [ -73.325350411126337, 45.032880011455944 ], [ -73.325198842181379, 45.038075020341978 ], [ -73.318777335278241, 45.040579258528211 ], [ -73.312508032891856, 45.037888156083191 ], [ -73.31266074902733, 45.032693180852398 ], [ -73.319081620372359, 45.030189274348004 ] ] ] } },
{ "type": "Feature", "properties": { "hex_id": 599529, "centroid_lon": -73.318472884895044, "centroid_lat": 45.050969222108094, "occurrences_today": 6, "datetimes_today": "2026-03-27 00:01:23, 2026-03-27 00:16:38, 2026-03-27 00:31:33, 2026-03-27 00:46:39, 2026-03-27 00:57:09, 2026-03-27 01:16:32", "cumulative_total": 161.0 }, "geometry": { "type": "Polygon", "coordinates": [ [ [ -73.318625130754612, 45.045774242893252 ], [ -73.324895580798341, 45.048465022672907 ], [ -73.324743888332961, 45.053660016117547 ], [ -73.318320597685812, 45.056164196172581 ], [ -73.31204963560441, 45.053473050856788 ], [ -73.31220247619413, 45.048278091085514 ], [ -73.318625130754612, 45.045774242893252 ] ] ] } },
{ "type": "Feature", "properties": { "hex_id": 599530, "centroid_lon": -73.318015899163498, "centroid_lat": 45.06655412884993, "occurrences_today": 6, "datetimes_today": "2026-03-27 00:01:23, 2026-03-27 00:16:38, 2026-03-27 00:31:33, 2026-03-27 00:46:39, 2026-03-27 00:57:09, 2026-03-27 01:16:32", "cumulative_total": 163.0 }, "geometry": { "type": "Polygon", "coordinates": [ [ [ -73.318168269113201, 45.061359165086579 ], [ -73.324440379786211, 45.064049987564459 ], [ -73.324288563677527, 45.069244965566469 ], [ -73.317863487823004, 45.071749087462535 ], [ -73.311590864706645, 45.069057899249351 ], [ -73.31174382987443, 45.063862954938855 ], [ -73.318168269113201, 45.061359165086579 ] ] ] } },
{ "type": "Feature", "properties": { "hex_id": 599531, "centroid_lon": -73.317558540914661, "centroid_lat": 45.082138989234871, "occurrences_today": 6, "datetimes_today": "2026-03-27 00:01:23, 2026-03-27 00:16:38, 2026-03-27 00:31:33, 2026-03-27 00:46:39, 2026-03-27 00:57:09, 2026-03-27 01:16:32", "cumulative_total": 163.0 }, "geometry": { "type": "Polygon", "coordinates": [ [ [ -73.317711035077977, 45.076944040924225 ], [ -73.32398480772116, 45.079634906126905 ], [ -73.323832867846107, 45.084829868685055 ], [ -73.317406005319356, 45.087333932394337 ], [ -73.311131719826804, 45.08464270125711 ], [ -73.311284809696616, 45.079447772408614 ], [ -73.317711035077977, 45.076944040924225 ] ] ] } },
{ "type": "Feature", "properties": { "hex_id": 600139, "centroid_lon": -73.31235527528537, "centroid_lat": 45.043083126160937, "occurrences_today": 6, "datetimes_today": "2026-03-27 00:01:23, 2026-03-27 00:16:38, 2026-03-27 00:31:33, 2026-03-27 00:46:39, 2026-03-27 00:57:09, 2026-03-27 01:16:32", "cumulative_total": 161.0 }, "geometry": { "type": "Polygon", "coordinates": [ [ [ -73.312508032891856, 45.037888156083191 ], [ -73.318777335278241, 45.040579258528211 ], [ -73.318625130754612, 45.045774242893252 ], [ -73.31220247619413, 45.048278091085514 ], [ -73.305932662216506, 45.045586623147301 ], [ -73.306086014376874, 45.040391672573421 ], [ -73.312508032891856, 45.037888156083191 ] ] ] } },
{ "type": "Feature", "properties": { "hex_id": 600140, "centroid_lon": -73.311896753502424, "centroid_lat": 45.058668005474608, "occurrences_today": 6, "datetimes_today": "2026-03-27 00:01:23, 2026-03-27 00:16:38, 2026-03-27 00:31:33, 2026-03-27 00:46:39, 2026-03-27 00:57:09, 2026-03-27 01:16:32", "cumulative_total": 161.0 }, "geometry": { "type": "Polygon", "coordinates": [ [ [ -73.31204963560441, 45.053473050856788 ], [ -73.318320597685812, 45.056164196172581 ], [ -73.318168269113201, 45.061359165086579 ], [ -73.31174382987443, 45.063862954938855 ], [ -73.305472355796553, 45.061171443930739 ], [ -73.305625832940166, 45.055976508826085 ], [ -73.31204963560441, 45.053473050856788 ] ] ] } },
{ "type": "Feature", "properties": { "hex_id": 600141, "centroid_lon": -73.311437857985297, "centroid_lat": 45.07425283840599, "occurrences_today": 6, "datetimes_today": "2026-03-27 00:01:23, 2026-03-27 00:16:38, 2026-03-27 00:31:33, 2026-03-27 00:46:39, 2026-03-27 00:57:09, 2026-03-27 01:16:32", "cumulative_total": 163.0 }, "geometry": { "type": "Polygon", "coordinates": [ [ [ -73.311590864706645, 45.069057899249351 ], [ -73.317863487823004, 45.071749087462535 ], [ -73.317711035077977, 45.076944040924225 ], [ -73.311284809696616, 45.079447772408614 ], [ -73.305011674178189, 45.076756218303849 ], [ -73.305165276429392, 45.071561298669756 ], [ -73.311590864706645, 45.069057899249351 ] ] ] } },
{ "type": "Feature", "properties": { "hex_id": 600142, "centroid_lon": -73.310978588362048, "centroid_lat": 45.089837624951301, "occurrences_today": 6, "datetimes_today": "2026-03-27 00:01:23, 2026-03-27 00:16:38, 2026-03-27 00:31:33, 2026-03-27 00:46:39, 2026-03-27 00:57:09, 2026-03-27 01:16:32", "cumulative_total": 163.0 }, "geometry": { "type": "Polygon", "coordinates": [ [ [ -73.311131719826804, 45.08464270125711 ], [ -73.317406005319356, 45.087333932394337 ], [ -73.317253428278306, 45.092528870402475 ], [ -73.310825415288591, 45.095032543491072 ], [ -73.304550616987981, 45.092340946262915 ], [ -73.304704344471318, 45.087146042100585 ], [ -73.311131719826804, 45.08464270125711 ] ] ] } },
{ "type": "Feature", "properties": { "hex_id": 600750, "centroid_lon": -73.30577926840887, "centroid_lat": 45.050781568564908, "occurrences_today": 6, "datetimes_today": "2026-03-27 00:01:23, 2026-03-27 00:16:38, 2026-03-27 00:31:33, 2026-03-27 00:46:39, 2026-03-27 00:57:09, 2026-03-27 01:16:32", "cumulative_total": 161.0 }, "geometry": { "type": "Polygon", "coordinates": [ [ [ -73.305932662216506, 45.045586623147301 ], [ -73.31220247619413, 45.048278091085514 ], [ -73.31204963560441, 45.053473050856788 ], [ -73.305625832940166, 45.055976508826085 ], [ -73.299355507412614, 45.053284675238565 ], [ -73.29950949608542, 45.04808974939445 ], [ -73.305932662216506, 45.045586623147301 ] ] ] } },
{ "type": "Feature", "properties": { "hex_id": 600751, "centroid_lon": -73.305318836964247, "centroid_lat": 45.066366373878658, "occurrences_today": 6, "datetimes_today": "2026-03-27 00:01:23, 2026-03-27 00:16:38, 2026-03-27 00:31:33, 2026-03-27 00:46:39, 2026-03-27 00:57:09, 2026-03-27 01:16:32", "cumulative_total": 161.0 }, "geometry": { "type": "Polygon", "coordinates": [ [ [ -73.305472355796553, 45.061171443930739 ], [ -73.31174382987443, 45.063862954938855 ], [ -73.311590864706645, 45.069057899249351 ], [ -73.305165276429392, 45.071561298669756 ], [ -73.29889329039645, 45.068869421813112 ], [ -73.299047404581998, 45.063674511448042 ], [ -73.305472355796553, 45.061171443930739 ] ] ] } },
{ "type": "Feature", "properties": { "hex_id": 600752, "centroid_lon": -73.304858030196783, "centroid_lat": 45.081951132780851, "occurrences_today": 6, "datetimes_today": "2026-03-27 00:01:23, 2026-03-27 00:16:38, 2026-03-27 00:31:33, 2026-03-27 00:46:39, 2026-03-27 00:57:09, 2026-03-27 01:16:32", "cumulative_total": 163.0 }, "geometry": { "type": "Polygon", "coordinates": [ [ [ -73.305011674178189, 45.076756218303849 ], [ -73.311284809696616, 45.079447772408614 ], [ -73.311131719826804, 45.08464270125711 ], [ -73.304704344471318, 45.087146042100585 ], [ -73.298430696592277, 45.084454121948006 ], [ -73.298584936415466, 45.079259227063233 ], [ -73.305011674178189, 45.076756218303849 ] ] ] } },
{ "type": "Feature", "properties": { "hex_id": 601361, "centroid_lon": -73.299201476916082, "centroid_lat": 45.058479595923131, "occurrences_today": 6, "datetimes_today": "2026-03-27 00:01:23, 2026-03-27 00:16:38, 2026-03-27 00:31:33, 2026-03-27 00:46:39, 2026-03-27 00:57:09, 2026-03-27 01:16:32", "cumulative_total": 161.0 }, "geometry": { "type": "Polygon", "coordinates": [ [ [ -73.299355507412614, 45.053284675238565 ], [ -73.305625832940166, 45.055976508826085 ], [ -73.305472355796553, 45.061171443930739 ], [ -73.299047404581998, 45.063674511448042 ], [ -73.292776567546042, 45.060982312055039 ], [ -73.292931193219189, 45.055787411013618 ], [ -73.299355507412614, 45.053284675238565 ] ] ] } },
{ "type": "Feature", "properties": { "hex_id": 601362, "centroid_lon": -73.298739134345567, "centroid_lat": 45.074064327018228, "occurrences_today": 6, "datetimes_today": "2026-03-27 00:01:23, 2026-03-27 00:16:38, 2026-03-27 00:31:33, 2026-03-27 00:46:39, 2026-03-27 00:57:09, 2026-03-27 01:16:32", "cumulative_total": 161.0 }, "geometry": { "type": "Polygon", "coordinates": [ [ [ -73.29889329039645, 45.068869421813112 ], [ -73.305165276429392, 45.071561298669756 ], [ -73.305011674178189, 45.076756218303849 ], [ -73.298584936415466, 45.079259227063233 ], [ -73.292312438469011, 45.076566984201826 ], [ -73.29246719018488, 45.071372098649285 ], [ -73.29889329039645, 45.068869421813112 ] ] ] } },
{ "type": "Feature", "properties": { "hex_id": 607497, "centroid_lon": -73.220676584999183, "centroid_lat": 45.540605171631299, "occurrences_today": 6, "datetimes_today": "2026-03-27 00:01:23, 2026-03-27 00:16:38, 2026-03-27 00:31:33, 2026-03-27 00:46:39, 2026-03-27 00:57:09, 2026-03-27 01:16:32", "cumulative_total": 89.0 }, "geometry": { "type": "Polygon", "coordinates": [ [ [ -73.220840455019612, 45.535410907809428 ], [ -73.227159612514853, 45.53810759257523 ], [ -73.226996308988078, 45.543301871728609 ], [ -73.220512670216223, 45.545799430248479 ], [ -73.214192990997375, 45.543102372873335 ], [ -73.214357472258982, 45.537908129652152 ], [ -73.220840455019612, 45.535410907809428 ] ] ] } },
{ "type": "Feature", "properties": { "hex_id": 603278, "centroid_lon": -73.238770393727862, "centroid_lat": 46.390507222505917, "occurrences_today": 5, "datetimes_today": "2026-03-27 00:16:38, 2026-03-27 00:31:33, 2026-03-27 00:46:39, 2026-03-27 00:57:09, 2026-03-27 01:16:32", "cumulative_total": 47.0 }, "geometry": { "type": "Polygon", "coordinates": [ [ [ -73.238937476550689, 46.385313683532445 ], [ -73.245353726778717, 46.38801039773643 ], [ -73.245187236850754, 46.393203952128417 ], [ -73.238603264775705, 46.395700756276064 ], [ -73.232186467790044, 46.393003658629006 ], [ -73.232354189621248, 46.387810140343852 ], [ -73.238937476550689, 46.385313683532445 ] ] ] } },
{ "type": "Feature", "properties": { "hex_id": 552558, "centroid_lon": -73.794920433643298, "centroid_lat": 45.641649442775247, "occurrences_today": 6, "datetimes_today": "2026-03-27 00:01:23, 2026-03-27 00:16:38, 2026-03-27 00:31:33, 2026-03-27 00:46:39, 2026-03-27 00:57:09, 2026-03-27 01:16:32", "cumulative_total": 24.0 }, "geometry": { "type": "Polygon", "coordinates": [ [ [ -73.795031818823247, 45.636453912850669 ], [ -73.801390383912178, 45.63911916481814 ], [ -73.801279576127186, 45.644314704424879 ], [ -73.794809017992236, 45.646844967741771 ], [ -73.788449905984621, 45.644179347214262 ], [ -73.788561899020365, 45.638983831994743 ], [ -73.795031818823247, 45.636453912850669 ] ] ] } },
{ "type": "Feature", "properties": { "hex_id": 365744, "centroid_lon": -75.758048104641148, "centroid_lat": 45.629900573330438, "occurrences_today": 5, "datetimes_today": "2026-03-27 00:16:38, 2026-03-27 00:31:33, 2026-03-27 00:46:39, 2026-03-27 00:57:09, 2026-03-27 01:16:32", "cumulative_total": 28.0 }, "geometry": { "type": "Polygon", "coordinates": [ [ [ -75.757978064041325, 45.624704337049906 ], [ -75.764426835660714, 45.627259717178987 ], [ -75.764497478413404, 45.632455943341398 ], [ -75.75811816440148, 45.635096804779835 ], [ -75.751668771465503, 45.632541075863138 ], [ -75.751599313864489, 45.627344834360493 ], [ -75.757978064041325, 45.624704337049906 ] ] ] } },
{ "type": "Feature", "properties": { "hex_id": 561717, "centroid_lon": -73.698163358239242, "centroid_lat": 45.663972814568361, "occurrences_today": 1, "datetimes_today": "2026-03-27 00:01:23", "cumulative_total": 12.0 }, "geometry": { "type": "Polygon", "coordinates": [ [ [ -73.698283778837066, 45.658777497294565 ], [ -73.704640138599146, 45.661448102488194 ], [ -73.704520294766212, 45.666643430410105 ], [ -73.698042904690794, 45.669168126848945 ], [ -73.691686001120019, 45.666497151898668 ], [ -73.691807031422258, 45.661301850331078 ], [ -73.698283778837066, 45.658777497294565 ] ] ] } },
{ "type": "Feature", "properties": { "hex_id": 561718, "centroid_lon": -73.697801898697534, "centroid_lat": 45.679558736430216, "occurrences_today": 1, "datetimes_today": "2026-03-27 00:01:23", "cumulative_total": 12.0 }, "geometry": { "type": "Polygon", "coordinates": [ [ [ -73.697922418180582, 45.674363434136239 ], [ -73.704280508707356, 45.677034071281369 ], [ -73.704160566459336, 45.682229384230588 ], [ -73.69768134623051, 45.684754033730776 ], [ -73.691322711458227, 45.682083026627197 ], [ -73.69144384114918, 45.676887740046794 ], [ -73.697922418180582, 45.674363434136239 ] ] ] } },
{ "type": "Feature", "properties": { "hex_id": 562328, "centroid_lon": -73.691564937699383, "centroid_lat": 45.671692448470601, "occurrences_today": 1, "datetimes_today": "2026-03-27 00:01:23", "cumulative_total": 12.0 }, "geometry": { "type": "Polygon", "coordinates": [ [ [ -73.691686001120019, 45.666497151898668 ], [ -73.698042904690794, 45.669168126848945 ], [ -73.697922418180582, 45.674363434136239 ], [ -73.69144384114918, 45.676887740046794 ], [ -73.685086393803118, 45.674216395179535 ], [ -73.685208067252603, 45.669021114383611 ], [ -73.691686001120019, 45.666497151898668 ] ] ] } },
{ "type": "Feature", "properties": { "hex_id": 562329, "centroid_lon": -73.691201548615396, "centroid_lat": 45.687278308211738, "occurrences_today": 1, "datetimes_today": "2026-03-27 00:01:23", "cumulative_total": 12.0 }, "geometry": { "type": "Polygon", "coordinates": [ [ [ -73.691322711458227, 45.682083026627197 ], [ -73.69768134623051, 45.684754033730776 ], [ -73.697560760768397, 45.689949326037883 ], [ -73.691080352609433, 45.692473584800361 ], [ -73.684721173625107, 45.689802207577856 ], [ -73.684842947000604, 45.684606941776714 ], [ -73.691322711458227, 45.682083026627197 ] ] ] } },
{ "type": "Feature", "properties": { "hex_id": 562938, "centroid_lon": -73.68532970741586, "centroid_lat": 45.663825828589552, "occurrences_today": 1, "datetimes_today": "2026-03-27 00:01:23", "cumulative_total": 12.0 }, "geometry": { "type": "Polygon", "coordinates": [ [ [ -73.685451314304089, 45.658630537797421 ], [ -73.691807031422258, 45.661301850331078 ], [ -73.691686001120019, 45.666497151898668 ], [ -73.685208067252603, 45.669021114383611 ], [ -73.678851806829044, 45.666349431974503 ], [ -73.678974023567093, 45.661154157020782 ], [ -73.685451314304089, 45.658630537797421 ] ] ] } },
{ "type": "Feature", "properties": { "hex_id": 562939, "centroid_lon": -73.684964687056208, "centroid_lat": 45.679411670977274, "occurrences_today": 1, "datetimes_today": "2026-03-27 00:01:23", "cumulative_total": 12.0 }, "geometry": { "type": "Polygon", "coordinates": [ [ [ -73.685086393803118, 45.674216395179535 ], [ -73.69144384114918, 45.676887740046794 ], [ -73.691322711458227, 45.682083026627197 ], [ -73.684842947000604, 45.684606941776714 ], [ -73.67848495591285, 45.681935226832124 ], [ -73.678607273013199, 45.676739966880241 ], [ -73.685086393803118, 45.674216395179535 ] ] ] } },
{ "type": "Feature", "properties": { "hex_id": 563549, "centroid_lon": -73.678729556648179, "centroid_lat": 45.671544701927679, "occurrences_today": 1, "datetimes_today": "2026-03-27 00:01:23", "cumulative_total": 12.0 }, "geometry": { "type": "Polygon", "coordinates": [ [ [ -73.678851806829044, 45.666349431974503 ], [ -73.685208067252603, 45.669021114383611 ], [ -73.685086393803118, 45.674216395179535 ], [ -73.678607273013199, 45.676739966880241 ], [ -73.672250469317987, 45.674067914435341 ], [ -73.672373329673079, 45.668872660390427 ], [ -73.678851806829044, 45.666349431974503 ] ] ] } },
{ "type": "Feature", "properties": { "hex_id": 563550, "centroid_lon": -73.678362605335849, "centroid_lat": 45.68713048178325, "occurrences_today": 1, "datetimes_today": "2026-03-27 00:01:23", "cumulative_total": 23.0 }, "geometry": { "type": "Polygon", "coordinates": [ [ [ -73.67848495591285, 45.681935226832124 ], [ -73.684842947000604, 45.684606941776714 ], [ -73.684721173625107, 45.689802207577856 ], [ -73.678240221270897, 45.692325731733568 ], [ -73.671881686475231, 45.689653646551179 ], [ -73.672004647730404, 45.684458407515791 ], [ -73.67848495591285, 45.681935226832124 ] ] ] } },
{ "type": "Feature", "properties": { "hex_id": 564159, "centroid_lon": -73.672496156417481, "centroid_lat": 45.663677401342447, "occurrences_today": 1, "datetimes_today": "2026-03-27 00:01:23", "cumulative_total": 17.0 }, "geometry": { "type": "Polygon", "coordinates": [ [ [ -73.672618949562519, 45.658482137291514 ], [ -73.678974023567093, 45.661154157020782 ], [ -73.678851806829044, 45.666349431974503 ], [ -73.672373329673079, 45.668872660390427 ], [ -73.666017712866562, 45.666200270666984 ], [ -73.666141116006628, 45.661005022586664 ], [ -73.672618949562519, 45.658482137291514 ] ] ] } },
{ "type": "Feature", "properties": { "hex_id": 564160, "centroid_lon": -73.67212757534088, "centroid_lat": 45.679263163477167, "occurrences_today": 1, "datetimes_today": "2026-03-27 00:01:23", "cumulative_total": 42.0 }, "geometry": { "type": "Polygon", "coordinates": [ [ [ -73.672250469317987, 45.674067914435341 ], [ -73.678607273013199, 45.676739966880241 ], [ -73.67848495591285, 45.681935226832124 ], [ -73.672004647730404, 45.684458407515791 ], [ -73.665647300797445, 45.681785984874764 ], [ -73.665770805273354, 45.676590751811105 ], [ -73.672250469317987, 45.674067914435341 ] ] ] } },
{ "type": "Feature", "properties": { "hex_id": 564770, "centroid_lon": -73.665894275959261, "centroid_lat": 45.671395513741821, "occurrences_today": 1, "datetimes_today": "2026-03-27 00:01:23", "cumulative_total": 12.0 }, "geometry": { "type": "Polygon", "coordinates": [ [ [ -73.666017712866562, 45.666200270666984 ], [ -73.672373329673079, 45.668872660390427 ], [ -73.672250469317987, 45.674067914435341 ], [ -73.665770805273354, 45.676590751811105 ], [ -73.659414645698931, 45.673917991933187 ], [ -73.659538692925651, 45.668722764898881 ], [ -73.666017712866562, 45.666200270666984 ] ] ] } },
{ "type": "Feature", "properties": { "hex_id": 564771, "centroid_lon": -73.665523762520152, "centroid_lat": 45.68698121293275, "occurrences_today": 1, "datetimes_today": "2026-03-27 00:01:23", "cumulative_total": 65.0 }, "geometry": { "type": "Polygon", "coordinates": [ [ [ -73.665647300797445, 45.681785984874764 ], [ -73.672004647730404, 45.684458407515791 ], [ -73.671881686475231, 45.689653646551179 ], [ -73.665400190430063, 45.692176435984976 ], [ -73.659042300293464, 45.689503642987439 ], [ -73.659166449394277, 45.684308430977531 ], [ -73.665647300797445, 45.681785984874764 ] ] ] } },
{ "type": "Feature", "properties": { "hex_id": 565380, "centroid_lon": -73.659662706217233, "centroid_lat": 45.66352753285657, "occurrences_today": 1, "datetimes_today": "2026-03-27 00:01:23", "cumulative_total": 17.0 }, "geometry": { "type": "Polygon", "coordinates": [ [ [ -73.659786685585104, 45.658332295806332 ], [ -73.666141116006628, 45.661005022586664 ], [ -73.666017712866562, 45.666200270666984 ], [ -73.659538692925651, 45.668722764898881 ], [ -73.653183720205746, 45.666049668005769 ], [ -73.653308309713694, 45.660854447058398 ], [ -73.659786685585104, 45.658332295806332 ] ] ] } },
{ "type": "Feature", "properties": { "hex_id": 565381, "centroid_lon": -73.65929056452562, "centroid_lat": 45.679113213959432, "occurrences_today": 1, "datetimes_today": "2026-03-27 00:01:23", "cumulative_total": 22.0 }, "geometry": { "type": "Polygon", "coordinates": [ [ [ -73.659414645698931, 45.673917991933187 ], [ -73.665770805273354, 45.676590751811105 ], [ -73.665647300797445, 45.681785984874764 ], [ -73.659166449394277, 45.684308430977531 ], [ -73.652809747086195, 45.681635300784841 ], [ -73.652934438903486, 45.676440094869051 ], [ -73.659414645698931, 45.673917991933187 ] ] ] } },
{ "type": "Feature", "properties": { "hex_id": 565991, "centroid_lon": -73.653059096606171, "centroid_lat": 45.671244883942677, "occurrences_today": 1, "datetimes_today": "2026-03-27 00:01:23", "cumulative_total": 27.0 }, "geometry": { "type": "Polygon", "coordinates": [ [ [ -73.653183720205746, 45.666049668005769 ], [ -73.659538692925651, 45.668722764898881 ], [ -73.659414645698931, 45.673917991933187 ], [ -73.652934438903486, 45.676440094869051 ], [ -73.646578923919606, 45.673766627702896 ], [ -73.646704157983635, 45.668571427938801 ], [ -73.653183720205746, 45.666049668005769 ] ] ] } },
{ "type": "Feature", "properties": { "hex_id": 565992, "centroid_lon": -73.652685021142801, "centroid_lat": 45.686830501689947, "occurrences_today": 1, "datetimes_today": "2026-03-27 00:01:23", "cumulative_total": 52.0 }, "geometry": { "type": "Polygon", "coordinates": [ [ [ -73.652809747086195, 45.681635300784841 ], [ -73.659166449394277, 45.684308430977531 ], [ -73.659042300293464, 45.689503642987439 ], [ -73.652560261061808, 45.69202569758432 ], [ -73.646203016054514, 45.68935219691646 ], [ -73.646328352966592, 45.68415701219179 ], [ -73.652809747086195, 45.681635300784841 ] ] ] } },
{ "type": "Feature", "properties": { "hex_id": 566602, "centroid_lon": -73.646453655584438, "centroid_lat": 45.678961822453928, "occurrences_today": 1, "datetimes_today": "2026-03-27 00:01:23", "cumulative_total": 27.0 }, "geometry": { "type": "Polygon", "coordinates": [ [ [ -73.646578923919606, 45.673766627702896 ], [ -73.652934438903486, 45.676440094869051 ], [ -73.652809747086195, 45.681635300784841 ], [ -73.646328352966592, 45.68415701219179 ], [ -73.639972295753282, 45.681483174592302 ], [ -73.640098174877451, 45.676287996084071 ], [ -73.646578923919606, 45.673766627702896 ] ] ] } },
{ "type": "Feature", "properties": { "hex_id": 521398, "centroid_lon": -74.127995262213076, "centroid_lat": 45.262708481779264, "occurrences_today": 1, "datetimes_today": "2026-03-27 00:01:23", "cumulative_total": 59.0 }, "geometry": { "type": "Polygon", "coordinates": [ [ [ -74.128074806724882, 45.257512057273523 ], [ -74.134407152448446, 45.260158743543187 ], [ -74.134328178299526, 45.26535517435461 ], [ -74.127915696036908, 45.267904901427045 ], [ -74.121582801618402, 45.2652578545393 ], [ -74.121662938150251, 45.260061441261236 ], [ -74.128074806724882, 45.257512057273523 ] ] ] } },
{ "type": "Feature", "properties": { "hex_id": 701515, "centroid_lon": -72.23457419156496, "centroid_lat": 45.536569081940527, "occurrences_today": 6, "datetimes_today": "2026-03-27 00:01:23, 2026-03-27 00:16:38, 2026-03-27 00:31:33, 2026-03-27 00:46:39, 2026-03-27 00:57:09, 2026-03-27 01:16:32", "cumulative_total": 33.0 }, "geometry": { "type": "Polygon", "coordinates": [ [ [ -72.234828785019019, 45.531378366125772 ], [ -72.24109775890976, 45.534128502921327 ], [ -72.24084371785429, 45.53931924367464 ], [ -72.234319528617448, 45.541759791905449 ], [ -72.228050071833252, 45.53900927383247 ], [ -72.228305287156033, 45.533818588870247 ], [ -72.234828785019019, 45.531378366125772 ] ] ] } },
{ "type": "Feature", "properties": { "hex_id": 702126, "centroid_lon": -72.227794786845578, "centroid_lat": 45.54419995293955, "occurrences_today": 6, "datetimes_today": "2026-03-27 00:01:23, 2026-03-27 00:16:38, 2026-03-27 00:31:33, 2026-03-27 00:46:39, 2026-03-27 00:57:09, 2026-03-27 01:16:32", "cumulative_total": 33.0 }, "geometry": { "type": "Polygon", "coordinates": [ [ [ -72.228050071833252, 45.53900927383247 ], [ -72.234319528617448, 45.541759791905449 ], [ -72.234064796153149, 45.546950496020123 ], [ -72.22753943216965, 45.549390626191126 ], [ -72.221269492562016, 45.546639726684397 ], [ -72.221525399737942, 45.541449078504577 ], [ -72.228050071833252, 45.53900927383247 ] ] ] } },
{ "type": "Feature", "properties": { "hex_id": 520788, "centroid_lon": -74.134249182640886, "centroid_lat": 45.270551600309652, "occurrences_today": 1, "datetimes_today": "2026-03-27 00:01:23", "cumulative_total": 27.0 }, "geometry": { "type": "Polygon", "coordinates": [ [ [ -74.134328178299526, 45.26535517435461 ], [ -74.14066168641682, 45.268001518890053 ], [ -74.14058326143757, 45.27319795108987 ], [ -74.134170165465363, 45.27574802140829 ], [ -74.127836108189143, 45.273101316216845 ], [ -74.127915696036908, 45.267904901427045 ], [ -74.134328178299526, 45.26535517435461 ] ] ] } },
{ "type": "Feature", "properties": { "hex_id": 572089, "centroid_lon": -73.591618957403881, "centroid_lat": 45.561372450908181, "occurrences_today": 6, "datetimes_today": "2026-03-27 00:01:23, 2026-03-27 00:16:38, 2026-03-27 00:31:33, 2026-03-27 00:46:39, 2026-03-27 00:57:09, 2026-03-27 01:16:32", "cumulative_total": 42.0 }, "geometry": { "type": "Polygon", "coordinates": [ [ [ -73.591748766480507, 45.55617726881389 ], [ -73.598088462774342, 45.558853653569749 ], [ -73.597959225902926, 45.56404884734372 ], [ -73.591489112853466, 45.566567627968034 ], [ -73.585148879834165, 45.563890873761487 ], [ -73.58527929657788, 45.558695708445931 ], [ -73.591748766480507, 45.55617726881389 ] ] ] } },
{ "type": "Feature", "properties": { "hex_id": 571479, "centroid_lon": -73.597829953712861, "centroid_lat": 45.569244036085792, "occurrences_today": 6, "datetimes_today": "2026-03-27 00:01:23, 2026-03-27 00:16:38, 2026-03-27 00:31:33, 2026-03-27 00:46:39, 2026-03-27 00:57:09, 2026-03-27 01:16:32", "cumulative_total": 44.0 }, "geometry": { "type": "Polygon", "coordinates": [ [ [ -73.597959225902926, 45.56404884734372 ], [ -73.60430010208691, 45.566724897653614 ], [ -73.604171402424242, 45.571920098015838 ], [ -73.597700646192266, 45.57443921979592 ], [ -73.591359232817354, 45.571762799993358 ], [ -73.591489112853466, 45.566567627968034 ], [ -73.597959225902926, 45.56404884734372 ] ] ] } },
{ "type": "Feature", "properties": { "hex_id": 542786, "centroid_lon": -73.898776900899179, "centroid_lat": 45.580337184395496, "occurrences_today": 5, "datetimes_today": "2026-03-27 00:01:23, 2026-03-27 00:16:38, 2026-03-27 00:31:33, 2026-03-27 00:46:39, 2026-03-27 00:57:09", "cumulative_total": 50.0 }, "geometry": { "type": "Polygon", "coordinates": [ [ [ -73.898878470599342, 45.575141408609618 ], [ -73.905235191819614, 45.577800888897237 ], [ -73.905134199043488, 45.582996673320416 ], [ -73.898675303432753, 45.585532955258046 ], [ -73.892318033059368, 45.582873108172684 ], [ -73.892420207440495, 45.577677346012187 ], [ -73.898878470599342, 45.575141408609618 ] ] ] } },
{ "type": "Feature", "properties": { "hex_id": 520177, "centroid_lon": -74.140740090041021, "centroid_lat": 45.262805081835396, "occurrences_today": 1, "datetimes_today": "2026-03-27 00:01:23", "cumulative_total": 21.0 }, "geometry": { "type": "Polygon", "coordinates": [ [ [ -74.140818472317335, 45.257608639925955 ], [ -74.147151431254272, 45.260254623964265 ], [ -74.147073619509783, 45.265451072052912 ], [ -74.14066168641682, 45.268001518890053 ], [ -74.134328178299526, 45.26535517435461 ], [ -74.134407152448446, 45.260158743543187 ], [ -74.140818472317335, 45.257608639925955 ] ] ] } },
{ "type": "Feature", "properties": { "hex_id": 846244, "centroid_lon": -70.671750393676334, "centroid_lat": 46.119407610974172, "occurrences_today": 1, "datetimes_today": "2026-03-27 01:16:32", "cumulative_total": 93.0 }, "geometry": { "type": "Polygon", "coordinates": [ [ [ -70.672156816877674, 46.114226207418383 ], [ -70.678406062987335, 46.117061502781972 ], [ -70.67800018540413, 46.122242946569237 ], [ -70.671343858923706, 46.124589007034189 ], [ -70.665094178766111, 46.121753310016537 ], [ -70.665501259099003, 46.116571954252649 ], [ -70.672156816877674, 46.114226207418383 ] ] ] } },
{ "type": "Feature", "properties": { "hex_id": 398095, "centroid_lon": -75.417449817812724, "centroid_lat": 45.545906889128716, "occurrences_today": 2, "datetimes_today": "2026-03-27 00:57:09, 2026-03-27 01:16:32", "cumulative_total": 76.0 }, "geometry": { "type": "Polygon", "coordinates": [ [ [ -75.417411359098963, 45.540710258735402 ], [ -75.423835177476334, 45.543284991204203 ], [ -75.423874231550641, 45.54848161496038 ], [ -75.417488287037287, 45.551103514748498 ], [ -75.41106386278679, 45.548528430979161 ], [ -75.411025988926298, 45.54333179878698 ], [ -75.417411359098963, 45.540710258735402 ] ] ] } },
{ "type": "Feature", "properties": { "hex_id": 563546, "centroid_lon": -73.679828605280036, "centroid_lat": 45.624787092335026, "occurrences_today": 6, "datetimes_today": "2026-03-27 00:01:23, 2026-03-27 00:16:38, 2026-03-27 00:31:33, 2026-03-27 00:46:39, 2026-03-27 00:57:09, 2026-03-27 01:16:32", "cumulative_total": 82.0 }, "geometry": { "type": "Polygon", "coordinates": [ [ [ -73.67995055488062, 45.619591777379355 ], [ -73.686301631762376, 45.622263362312253 ], [ -73.686180257485645, 45.627458688088979 ], [ -73.679706622326592, 45.629982402290693 ], [ -73.673355003479429, 45.62731044792725 ], [ -73.673477561745486, 45.622115148857411 ], [ -73.67995055488062, 45.619591777379355 ] ] ] } },
{ "type": "Feature", "properties": { "hex_id": 634361, "centroid_lon": -72.937911071584409, "centroid_lat": 45.567029944861559, "occurrences_today": 6, "datetimes_today": "2026-03-27 00:01:23, 2026-03-27 00:16:38, 2026-03-27 00:31:33, 2026-03-27 00:46:39, 2026-03-27 00:57:09, 2026-03-27 01:16:32", "cumulative_total": 150.0 }, "geometry": { "type": "Polygon", "coordinates": [ [ [ -72.938101147965469, 45.561836566068656 ], [ -72.944409144815793, 45.564548702746499 ], [ -72.944219631774573, 45.569742099652601 ], [ -72.937720943274343, 45.572223318292892 ], [ -72.931412435021869, 45.569510806110834 ], [ -72.931603126654338, 45.564317450857189 ], [ -72.938101147965469, 45.561836566068656 ] ] ] } },
{ "type": "Feature", "properties": { "hex_id": 541565, "centroid_lon": -73.911592517568792, "centroid_lat": 45.580460019690562, "occurrences_today": 5, "datetimes_today": "2026-03-27 00:01:23, 2026-03-27 00:16:38, 2026-03-27 00:31:33, 2026-03-27 00:46:39, 2026-03-27 00:57:09", "cumulative_total": 43.0 }, "geometry": { "type": "Polygon", "coordinates": [ [ [ -73.911692905811364, 45.575264221773487 ], [ -73.918050258999372, 45.577922994464011 ], [ -73.917950447856114, 45.583118800890965 ], [ -73.911492101882757, 45.585655812688373 ], [ -73.905134199043488, 45.582996673320416 ], [ -73.905235191819614, 45.577800888897237 ], [ -73.911692905811364, 45.575264221773487 ] ] ] } },
{ "type": "Feature", "properties": { "hex_id": 675263, "centroid_lon": -72.510015532594764, "centroid_lat": 45.535114191293857, "occurrences_today": 3, "datetimes_today": "2026-03-27 00:01:23, 2026-03-27 00:16:38, 2026-03-27 00:31:33", "cumulative_total": 24.0 }, "geometry": { "type": "Polygon", "coordinates": [ [ [ -72.510244773223221, 45.529922327040673 ], [ -72.516527668571342, 45.532657610686023 ], [ -72.516298984268616, 45.537849497210203 ], [ -72.509786229380367, 45.540306049905581 ], [ -72.503502840302943, 45.537570387381464 ], [ -72.503732699822066, 45.532378551104976 ], [ -72.510244773223221, 45.529922327040673 ] ] ] } },
{ "type": "Feature", "properties": { "hex_id": 932464, "centroid_lon": -69.54497342123318, "centroid_lat": 48.246049987863024, "occurrences_today": 1, "datetimes_today": "2026-03-27 00:01:23", "cumulative_total": 2.0 }, "geometry": { "type": "Polygon", "coordinates": [ [ [ -69.54552487050924, 48.240879233582383 ], [ -69.551953251170275, 48.243783413028716 ], [ -69.551402393742308, 48.248954220133712 ], [ -69.544421816341355, 48.25122073272356 ], [ -69.537992999475875, 48.248316113432764 ], [ -69.538545196159987, 48.243145421465698 ], [ -69.54552487050924, 48.240879233582383 ] ] ] } },
{ "type": "Feature", "properties": { "hex_id": 843191, "centroid_lon": -70.704620033129018, "centroid_lat": 46.112854614305768, "occurrences_today": 1, "datetimes_today": "2026-03-27 01:16:32", "cumulative_total": 1.0 }, "geometry": { "type": "Polygon", "coordinates": [ [ [ -70.705023283482987, 46.107672980342642 ], [ -70.711273630322424, 46.11050650909602 ], [ -70.71087092592002, 46.11568818297485 ], [ -70.704216672099022, 46.118036240815229 ], [ -70.69796589000282, 46.115202310749368 ], [ -70.698369796946793, 46.110020724220284 ], [ -70.705023283482987, 46.107672980342642 ] ] ] } },
{ "type": "Feature", "properties": { "hex_id": 843192, "centroid_lon": -70.703409617860601, "centroid_lat": 46.128399471469386, "occurrences_today": 1, "datetimes_today": "2026-03-27 01:16:32", "cumulative_total": 1.0 }, "geometry": { "type": "Polygon", "coordinates": [ [ [ -70.703813200355441, 46.123217859870095 ], [ -70.710065185484524, 46.126051508393452 ], [ -70.7096621493763, 46.131233159931305 ], [ -70.703005924576928, 46.133581075612156 ], [ -70.696753503868933, 46.13074702555933 ], [ -70.697157743501577, 46.125565461419853 ], [ -70.703813200355441, 46.123217859870095 ] ] ] } },
{ "type": "Feature", "properties": { "hex_id": 843801, "centroid_lon": -70.698773593069845, "centroid_lat": 46.104839130229934, "occurrences_today": 1, "datetimes_today": "2026-03-27 01:16:32", "cumulative_total": 1.0 }, "geometry": { "type": "Polygon", "coordinates": [ [ [ -70.69917727840965, 46.099657528779282 ], [ -70.705426423198531, 46.102491338926839 ], [ -70.705023283482987, 46.107672980342642 ], [ -70.698369796946793, 46.110020724220284 ], [ -70.692120217335741, 46.107186512822011 ], [ -70.692524559045438, 46.102004958861478 ], [ -70.69917727840965, 46.099657528779282 ] ] ] } },
{ "type": "Feature", "properties": { "hex_id": 843802, "centroid_lon": -70.697561872200311, "centroid_lat": 46.12038388981621, "occurrences_today": 1, "datetimes_today": "2026-03-27 01:16:32", "cumulative_total": 1.0 }, "geometry": { "type": "Polygon", "coordinates": [ [ [ -70.69796589000282, 46.115202310749368 ], [ -70.704216672099022, 46.118036240815229 ], [ -70.703813200355441, 46.123217859870095 ], [ -70.697157743501577, 46.125565461419853 ], [ -70.690906526261486, 46.122731129886354 ], [ -70.691311200981474, 46.117549598335415 ], [ -70.69796589000282, 46.115202310749368 ] ] ] } },
{ "type": "Feature", "properties": { "hex_id": 844412, "centroid_lon": -70.69171576466033, "centroid_lat": 46.112368059313653, "occurrences_today": 1, "datetimes_today": "2026-03-27 01:16:32", "cumulative_total": 1.0 }, "geometry": { "type": "Polygon", "coordinates": [ [ [ -70.692120217335741, 46.107186512822011 ], [ -70.698369796946793, 46.110020724220284 ], [ -70.69796589000282, 46.115202310749368 ], [ -70.691311200981474, 46.117549598335415 ], [ -70.685061186661258, 46.114714985531343 ], [ -70.685466296033852, 46.109533486611689 ], [ -70.692120217335741, 46.107186512822011 ] ] ] } },
{ "type": "Feature", "properties": { "hex_id": 844413, "centroid_lon": -70.690501740462636, "centroid_lat": 46.127912653965467, "occurrences_today": 1, "datetimes_today": "2026-03-27 01:16:32", "cumulative_total": 1.0 }, "geometry": { "type": "Polygon", "coordinates": [ [ [ -70.690906526261486, 46.122731129886354 ], [ -70.697157743501577, 46.125565461419853 ], [ -70.696753503868933, 46.13074702555933 ], [ -70.690096843547167, 46.133094170571816 ], [ -70.683845191276362, 46.130259437415496 ], [ -70.684250634320307, 46.125077960934213 ], [ -70.690906526261486, 46.122731129886354 ] ] ] } },
{ "type": "Feature", "properties": { "hex_id": 845022, "centroid_lon": -70.68587129425822, "centroid_lat": 46.104351980214524, "occurrences_today": 1, "datetimes_today": "2026-03-27 01:16:32", "cumulative_total": 1.0 }, "geometry": { "type": "Polygon", "coordinates": [ [ [ -70.686276181372065, 46.099170466340816 ], [ -70.692524559045438, 46.102004958861478 ], [ -70.692120217335741, 46.107186512822011 ], [ -70.685466296033852, 46.109533486611689 ], [ -70.679217484085697, 46.106698592747087 ], [ -70.679623027676485, 46.101517126501399 ], [ -70.686276181372065, 46.099170466340816 ] ] ] } },
{ "type": "Feature", "properties": { "hex_id": 845023, "centroid_lon": -70.684655966102653, "centroid_lat": 46.119896476972507, "occurrences_today": 1, "datetimes_today": "2026-03-27 01:16:32", "cumulative_total": 1.0 }, "geometry": { "type": "Polygon", "coordinates": [ [ [ -70.685061186661258, 46.114714985531343 ], [ -70.691311200981474, 46.117549598335415 ], [ -70.690906526261486, 46.122731129886354 ], [ -70.684250634320307, 46.125077960934213 ], [ -70.67800018540413, 46.122242946569237 ], [ -70.678406062987335, 46.117061502781972 ], [ -70.685061186661258, 46.114714985531343 ] ] ] } },
{ "type": "Feature", "properties": { "hex_id": 845633, "centroid_lon": -70.678811829201919, "centroid_lat": 46.111880051507597, "occurrences_today": 1, "datetimes_today": "2026-03-27 01:16:32", "cumulative_total": 1.0 }, "geometry": { "type": "Polygon", "coordinates": [ [ [ -70.679217484085697, 46.106698592747087 ], [ -70.685466296033852, 46.109533486611689 ], [ -70.685061186661258, 46.114714985531343 ], [ -70.678406062987335, 46.117061502781972 ], [ -70.672156816877674, 46.114226207418383 ], [ -70.672563128565642, 46.109044796367805 ], [ -70.679217484085697, 46.106698592747087 ] ] ] } }
]
}
