{
"type": "FeatureCollection",
"name": "daily_2026-03-24",
"crs": { "type": "name", "properties": { "name": "urn:ogc:def:crs:OGC:1.3:CRS84" } },
"features": [
{ "type": "Feature", "properties": { "hex_id": 595896, "centroid_lon": -73.342995170247605, "centroid_lat": 45.519059805586508, "occurrences_today": 4, "datetimes_today": "2026-03-24 07:16:37, 2026-03-24 07:31:26, 2026-03-24 07:46:30, 2026-03-24 08:01:24", "cumulative_total": 175.0 }, "geometry": { "type": "Polygon", "coordinates": [ [ [ -73.343147663804274, 45.513865188938141 ], [ -73.349470475141018, 45.516555162271054 ], [ -73.349318549119531, 45.52174979304138 ], [ -73.342842635044136, 45.524254417090944 ], [ -73.336519297825973, 45.521564072542766 ], [ -73.336672400550654, 45.516369475224778 ], [ -73.343147663804274, 45.513865188938141 ] ] ] } },
{ "type": "Feature", "properties": { "hex_id": 596507, "centroid_lon": -73.336366153287031, "centroid_lat": 45.526758664713704, "occurrences_today": 4, "datetimes_today": "2026-03-24 07:16:37, 2026-03-24 07:31:26, 2026-03-24 07:46:30, 2026-03-24 08:01:24", "cumulative_total": 57.0 }, "geometry": { "type": "Polygon", "coordinates": [ [ [ -73.336519297825973, 45.521564072542766 ], [ -73.342842635044136, 45.524254417090944 ], [ -73.342690058179898, 45.529449023451328 ], [ -73.33621296691976, 45.531953251737512 ], [ -73.329889103862229, 45.529262535815221 ], [ -73.330042857890177, 45.524067963045376 ], [ -73.336519297825973, 45.521564072542766 ] ] ] } },
{ "type": "Feature", "properties": { "hex_id": 575751, "centroid_lon": -73.553590107123568, "centroid_lat": 45.545306809196546, "occurrences_today": 1, "datetimes_today": "2026-03-24 08:01:24", "cumulative_total": 65.0 }, "geometry": { "type": "Polygon", "coordinates": [ [ [ -73.553723345924837, 45.540111698482782 ], [ -73.560059397362508, 45.542790157542946 ], [ -73.55992672976457, 45.547985280308424 ], [ -73.553456831918936, 45.550501914860313 ], [ -73.547120245687395, 45.547823086198996 ], [ -73.547254092083151, 45.542627992651511 ], [ -73.553723345924837, 45.540111698482782 ] ] ] } },
{ "type": "Feature", "properties": { "hex_id": 569040, "centroid_lon": -73.622309555729871, "centroid_lat": 45.616312709023838, "occurrences_today": 3, "datetimes_today": "2026-03-24 07:31:26, 2026-03-24 07:46:30, 2026-03-24 08:01:24", "cumulative_total": 285.0 }, "geometry": { "type": "Polygon", "coordinates": [ [ [ -73.622436780017793, 45.611117509328437 ], [ -73.628784102695818, 45.613792253800433 ], [ -73.62865745269292, 45.618987464885009 ], [ -73.622182296650891, 45.621507903696838 ], [ -73.615834434484725, 45.618832789362827 ], [ -73.615962267837034, 45.613637606143733 ], [ -73.622436780017793, 45.611117509328437 ] ] ] } },
{ "type": "Feature", "properties": { "hex_id": 575740, "centroid_lon": -73.557967839464396, "centroid_lat": 45.373865489779625, "occurrences_today": 2, "datetimes_today": "2026-03-24 07:46:30, 2026-03-24 08:01:24", "cumulative_total": 56.0 }, "geometry": { "type": "Polygon", "coordinates": [ [ [ -73.558099883777444, 45.368670212466299 ], [ -73.564417172008845, 45.371348275282415 ], [ -73.564285693819613, 45.376543564561572 ], [ -73.557835759148347, 45.379060762045903 ], [ -73.551517940802185, 45.376382331839196 ], [ -73.55165058723, 45.371187071602954 ], [ -73.558099883777444, 45.368670212466299 ] ] ] } },
{ "type": "Feature", "properties": { "hex_id": 573914, "centroid_lon": -73.574963755356109, "centroid_lat": 45.459827774173995, "occurrences_today": 2, "datetimes_today": "2026-03-24 07:46:30, 2026-03-24 08:01:24", "cumulative_total": 50.0 }, "geometry": { "type": "Polygon", "coordinates": [ [ [ -73.575094635205986, 45.454632536746644 ], [ -73.581422244780981, 45.457309745956906 ], [ -73.581291933854786, 45.462504995203666 ], [ -73.574832839783781, 45.465023006560735 ], [ -73.568504697013523, 45.4623454290317 ], [ -73.568636181497567, 45.457150208528731 ], [ -73.575094635205986, 45.454632536746644 ] ] ] } },
{ "type": "Feature", "properties": { "hex_id": 559266, "centroid_lon": -73.727006946835758, "centroid_lat": 45.5239857381723, "occurrences_today": 1, "datetimes_today": "2026-03-24 08:01:24", "cumulative_total": 83.0 }, "geometry": { "type": "Polygon", "coordinates": [ [ [ -73.727124126699962, 45.518790234179157 ], [ -73.733466247120404, 45.521459144519056 ], [ -73.733349640164533, 45.526654658842851 ], [ -73.72688973496173, 45.529181237183487 ], [ -73.720547073648163, 45.526511959135199 ], [ -73.720664858419767, 45.521316470519224 ], [ -73.727124126699962, 45.518790234179157 ] ] ] } },
{ "type": "Feature", "properties": { "hex_id": 541562, "centroid_lon": -73.91249502489427, "centroid_lat": 45.533697661348135, "occurrences_today": 1, "datetimes_today": "2026-03-24 08:01:24", "cumulative_total": 45.0 }, "geometry": { "type": "Polygon", "coordinates": [ [ [ -73.912595166560493, 45.528501819159494 ], [ -73.918947332903187, 45.531160515350251 ], [ -73.918847766927172, 45.536356366030951 ], [ -73.912394855867461, 45.538893498617902 ], [ -73.906042141199705, 45.536234436349616 ], [ -73.906142885907542, 45.531038607636518 ], [ -73.912595166560493, 45.528501819159494 ] ] ] } },
{ "type": "Feature", "properties": { "hex_id": 797453, "centroid_lon": -71.134475124193131, "centroid_lat": 46.899905870858653, "occurrences_today": 3, "datetimes_today": "2026-03-24 00:01:21, 2026-03-24 00:16:30, 2026-03-24 00:28:43", "cumulative_total": 15.0 }, "geometry": { "type": "Polygon", "coordinates": [ [ [ -71.13484819072238, 46.894722174370578 ], [ -71.141210923838273, 46.897535297872885 ], [ -71.140838433921488, 46.902719030726431 ], [ -71.13410195415419, 46.905089560353382 ], [ -71.127738747953472, 46.902276028294629 ], [ -71.128112494568953, 46.897092375232219 ], [ -71.13484819072238, 46.894722174370578 ] ] ] } },
{ "type": "Feature", "properties": { "hex_id": 783406, "centroid_lon": -71.291038912207071, "centroid_lat": 46.819354309023183, "occurrences_today": 5, "datetimes_today": "2026-03-24 00:01:21, 2026-03-24 00:16:30, 2026-03-24 00:28:43, 2026-03-24 00:46:31, 2026-03-24 01:01:26", "cumulative_total": 88.0 }, "geometry": { "type": "Polygon", "coordinates": [ [ [ -71.291395884510692, 46.814169600307828 ], [ -71.297758060524558, 46.816973996529271 ], [ -71.297401664863543, 46.822158740038979 ], [ -71.290681840948906, 46.824539010928895 ], [ -71.284319187264117, 46.821734208525875 ], [ -71.284676835130625, 46.816549541481209 ], [ -71.291395884510692, 46.814169600307828 ] ] ] } },
{ "type": "Feature", "properties": { "hex_id": 575130, "centroid_lon": -73.564154179780445, "centroid_lat": 45.381738848796317, "occurrences_today": 2, "datetimes_today": "2026-03-24 07:46:30, 2026-03-24 08:01:24", "cumulative_total": 118.0 }, "geometry": { "type": "Polygon", "coordinates": [ [ [ -73.564285693819613, 45.376543564561572 ], [ -73.570604150307616, 45.379221295850535 ], [ -73.570473202710517, 45.384416591992093 ], [ -73.564022629879389, 45.386934127986521 ], [ -73.557703642817216, 45.384256029265075 ], [ -73.557835759148347, 45.379060762045903 ], [ -73.564285693819613, 45.376543564561572 ] ] ] } },
{ "type": "Feature", "properties": { "hex_id": 576974, "centroid_lon": -73.539976991032702, "centroid_lat": 45.576314294191398, "occurrences_today": 1, "datetimes_today": "2026-03-24 08:01:24", "cumulative_total": 165.0 }, "geometry": { "type": "Polygon", "coordinates": [ [ [ -73.540111628988413, 45.571119243155628 ], [ -73.546450464907025, 45.573798478143907 ], [ -73.546316398904537, 45.578993541373755 ], [ -73.539842316277756, 45.581509340171266 ], [ -73.533502945211325, 45.578829735061191 ], [ -73.53363819190713, 45.573634701340062 ], [ -73.540111628988413, 45.571119243155628 ] ] ] } },
{ "type": "Feature", "properties": { "hex_id": 729686, "centroid_lon": -71.863285024249095, "centroid_lat": 46.898839630617573, "occurrences_today": 4, "datetimes_today": "2026-03-24 00:01:21, 2026-03-24 00:16:30, 2026-03-24 00:28:43, 2026-03-24 00:46:31", "cumulative_total": 55.0 }, "geometry": { "type": "Polygon", "coordinates": [ [ [ -71.863587819253382, 46.893651891801234 ], [ -71.869990654205253, 46.896425324677423 ], [ -71.869688447457165, 46.90161309275495 ], [ -71.86298214516809, 46.904027363210339 ], [ -71.856578806051331, 46.901253527850038 ], [ -71.856882273359318, 46.896065824585676 ], [ -71.863587819253382, 46.893651891801234 ] ] ] } },
{ "type": "Feature", "properties": { "hex_id": 778518, "centroid_lon": -71.347585812064864, "centroid_lat": 46.75881974914568, "occurrences_today": 6, "datetimes_today": "2026-03-24 06:31:20, 2026-03-24 07:01:49, 2026-03-24 07:16:37, 2026-03-24 07:31:26, 2026-03-24 07:46:30, 2026-03-24 08:01:24", "cumulative_total": 49.0 }, "geometry": { "type": "Polygon", "coordinates": [ [ [ -71.347936607161643, 46.753634655773205 ], [ -71.354294958130808, 46.756435808337535 ], [ -71.353944738706019, 46.761620935916234 ], [ -71.347234919798666, 46.764004835774735 ], [ -71.340876090343727, 46.761203278316486 ], [ -71.341227558248292, 46.756018225960247 ], [ -71.347936607161643, 46.753634655773205 ] ] ] } },
{ "type": "Feature", "properties": { "hex_id": 779128, "centroid_lon": -71.341578928828383, "centroid_lat": 46.750833166853759, "occurrences_today": 6, "datetimes_today": "2026-03-24 06:31:20, 2026-03-24 07:01:49, 2026-03-24 07:16:37, 2026-03-24 07:31:26, 2026-03-24 07:46:30, 2026-03-24 08:01:24", "cumulative_total": 80.0 }, "geometry": { "type": "Polygon", "coordinates": [ [ [ -71.341930202117638, 46.745648100997727 ], [ -71.348287305122611, 46.748449555657992 ], [ -71.347936607161643, 46.753634655773205 ], [ -71.341227558248292, 46.756018225960247 ], [ -71.334869977222695, 46.753216366465459 ], [ -71.335221923097421, 46.748031341684751 ], [ -71.341930202117638, 46.745648100997727 ] ] ] } },
{ "type": "Feature", "properties": { "hex_id": 569037, "centroid_lon": -73.623453323247105, "centroid_lat": 45.569555730968297, "occurrences_today": 4, "datetimes_today": "2026-03-24 00:01:21, 2026-03-24 00:16:30, 2026-03-24 00:28:43, 2026-03-24 00:46:31", "cumulative_total": 99.0 }, "geometry": { "type": "Polygon", "coordinates": [ [ [ -73.623580234941699, 45.564360486074818 ], [ -73.629922396058163, 45.567035128156988 ], [ -73.62979605724847, 45.572230384417104 ], [ -73.623326376866615, 45.574750970840078 ], [ -73.616983677556973, 45.572075959500729 ], [ -73.617111196810725, 45.566880731060223 ], [ -73.623580234941699, 45.564360486074818 ] ] ] } },
{ "type": "Feature", "properties": { "hex_id": 570258, "centroid_lon": -73.61064158596767, "centroid_lat": 45.569400601738927, "occurrences_today": 4, "datetimes_today": "2026-03-24 00:01:21, 2026-03-24 00:16:30, 2026-03-24 00:28:43, 2026-03-24 00:46:31", "cumulative_total": 120.0 }, "geometry": { "type": "Polygon", "coordinates": [ [ [ -73.610769677927635, 45.56420538479184 ], [ -73.617111196810725, 45.566880731060223 ], [ -73.616983677556973, 45.572075959500729 ], [ -73.610513458999463, 45.574595813659208 ], [ -73.604171402424242, 45.571920098015838 ], [ -73.60430010208691, 45.566724897653614 ], [ -73.610769677927635, 45.56420538479184 ] ] ] } },
{ "type": "Feature", "properties": { "hex_id": 668599, "centroid_lon": -72.545231443543543, "centroid_lat": 46.338745270685401, "occurrences_today": 1, "datetimes_today": "2026-03-24 00:01:21", "cumulative_total": 54.0 }, "geometry": { "type": "Polygon", "coordinates": [ [ [ -72.545463865951021, 46.333554001314852 ], [ -72.551838423300978, 46.336288870644829 ], [ -72.551606582020554, 46.341480162288498 ], [ -72.544998957039013, 46.343936534419932 ], [ -72.538623882670052, 46.341201276047272 ], [ -72.538856950279666, 46.336010034651999 ], [ -72.545463865951021, 46.333554001314852 ] ] ] } },
{ "type": "Feature", "properties": { "hex_id": 565986, "centroid_lon": -73.654924876197995, "centroid_lat": 45.593316118823282, "occurrences_today": 8, "datetimes_today": "2026-03-24 06:01:35, 2026-03-24 06:16:46, 2026-03-24 06:31:20, 2026-03-24 07:01:49, 2026-03-24 07:16:37, 2026-03-24 07:31:26, 2026-03-24 07:46:30, 2026-03-24 08:01:24", "cumulative_total": 70.0 }, "geometry": { "type": "Polygon", "coordinates": [ [ [ -73.655048989626735, 45.588120827736994 ], [ -73.661395335501894, 45.590793758463782 ], [ -73.66127179610433, 45.595989060610677 ], [ -73.654800728837941, 45.59851140490013 ], [ -73.648453842868662, 45.595838104909063 ], [ -73.648578564248467, 45.590642829957524 ], [ -73.655048989626735, 45.588120827736994 ] ] ] } },
{ "type": "Feature", "properties": { "hex_id": 667989, "centroid_lon": -72.551374676800762, "centroid_lat": 46.346671448300697, "occurrences_today": 31, "datetimes_today": "2026-03-24 00:01:21, 2026-03-24 00:16:30, 2026-03-24 00:28:43, 2026-03-24 00:46:31, 2026-03-24 01:01:26, 2026-03-24 01:16:30, 2026-03-24 01:31:57, 2026-03-24 01:44:56, 2026-03-24 02:01:22, 2026-03-24 02:16:31, 2026-03-24 02:31:28, 2026-03-24 02:46:35, 2026-03-24 03:02:45, 2026-03-24 03:16:59, 2026-03-24 03:31:29, 2026-03-24 03:44:38, 2026-03-24 04:01:46, 2026-03-24 04:16:27, 2026-03-24 04:31:47, 2026-03-24 04:46:28, 2026-03-24 05:01:34, 2026-03-24 05:16:45, 2026-03-24 05:31:50, 2026-03-24 06:01:35, 2026-03-24 06:16:46, 2026-03-24 06:31:20, 2026-03-24 07:01:49, 2026-03-24 07:16:37, 2026-03-24 07:31:26, 2026-03-24 07:46:30, 2026-03-24 08:01:24", "cumulative_total": 150.0 }, "geometry": { "type": "Polygon", "coordinates": [ [ [ -72.551606582020554, 46.341480162288498 ], [ -72.557982365732613, 46.344214709358404 ], [ -72.557751041977255, 46.349406017586688 ], [ -72.55114270761969, 46.351862728681148 ], [ -72.544766406415462, 46.349127792518139 ], [ -72.544998957039013, 46.343936534419932 ], [ -72.551606582020554, 46.341480162288498 ] ] ] } },
{ "type": "Feature", "properties": { "hex_id": 669210, "centroid_lon": -72.538390750783705, "centroid_lat": 46.346392511801668, "occurrences_today": 1, "datetimes_today": "2026-03-24 00:01:21", "cumulative_total": 65.0 }, "geometry": { "type": "Polygon", "coordinates": [ [ [ -72.538623882670052, 46.341201276047272 ], [ -72.544998957039013, 46.343936534419932 ], [ -72.544766406415462, 46.349127792518139 ], [ -72.538157554598627, 46.351583741914872 ], [ -72.531781963276657, 46.34884809433786 ], [ -72.532015740702462, 46.343656886634626 ], [ -72.538623882670052, 46.341201276047272 ] ] ] } },
{ "type": "Feature", "properties": { "hex_id": 585522, "centroid_lon": -73.449860770987485, "centroid_lat": 45.590717041452002, "occurrences_today": 8, "datetimes_today": "2026-03-24 02:31:28, 2026-03-24 02:46:35, 2026-03-24 03:02:45, 2026-03-24 03:16:59, 2026-03-24 07:16:37, 2026-03-24 07:31:26, 2026-03-24 07:46:30, 2026-03-24 08:01:24", "cumulative_total": 178.0 }, "geometry": { "type": "Polygon", "coordinates": [ [ [ -73.450003788946503, 45.585522218579065 ], [ -73.456339808962156, 45.588206413782544 ], [ -73.456197362158704, 45.593401249743714 ], [ -73.449717713933609, 45.595911859229822 ], [ -73.443381161863812, 45.593227292884833 ], [ -73.443524790060124, 45.588032488259884 ], [ -73.450003788946503, 45.585522218579065 ] ] ] } },
{ "type": "Feature", "properties": { "hex_id": 604434, "centroid_lon": -73.25773195176248, "centroid_lat": 45.37747478587103, "occurrences_today": 5, "datetimes_today": "2026-03-24 00:01:21, 2026-03-24 00:16:30, 2026-03-24 00:28:43, 2026-03-24 00:46:31, 2026-03-24 01:01:26", "cumulative_total": 43.0 }, "geometry": { "type": "Polygon", "coordinates": [ [ [ -73.257891500504996, 45.372280269669695 ], [ -73.26419451518926, 45.374974734863279 ], [ -73.264035528594476, 45.380169265983113 ], [ -73.257572359522101, 45.382669296888359 ], [ -73.251268826195258, 45.379974461495827 ], [ -73.251428980568818, 45.374779965461137 ], [ -73.257891500504996, 45.372280269669695 ] ] ] } },
{ "type": "Feature", "properties": { "hex_id": 583700, "centroid_lon": -73.465042522579878, "centroid_lat": 45.739027980817099, "occurrences_today": 26, "datetimes_today": "2026-03-24 00:01:21, 2026-03-24 00:16:30, 2026-03-24 00:28:43, 2026-03-24 00:46:31, 2026-03-24 01:01:26, 2026-03-24 01:16:30, 2026-03-24 01:31:57, 2026-03-24 01:44:56, 2026-03-24 02:01:22, 2026-03-24 02:16:31, 2026-03-24 02:31:28, 2026-03-24 02:46:35, 2026-03-24 03:02:45, 2026-03-24 03:16:59, 2026-03-24 03:31:29, 2026-03-24 03:44:38, 2026-03-24 04:01:46, 2026-03-24 04:16:27, 2026-03-24 04:31:47, 2026-03-24 04:46:28, 2026-03-24 05:01:34, 2026-03-24 05:16:45, 2026-03-24 05:31:50, 2026-03-24 06:01:35, 2026-03-24 06:16:46, 2026-03-24 06:31:20", "cumulative_total": 217.0 }, "geometry": { "type": "Polygon", "coordinates": [ [ [ -73.465184874170177, 45.733833256242164 ], [ -73.471538213813901, 45.736516765683149 ], [ -73.471396438083474, 45.741711503236068 ], [ -73.464900132006079, 45.744222700302615 ], [ -73.458546255492564, 45.74153881796758 ], [ -73.458689221913062, 45.73634411152505 ], [ -73.465184874170177, 45.733833256242164 ] ] ] } },
{ "type": "Feature", "properties": { "hex_id": 554386, "centroid_lon": -73.776863587931942, "centroid_lat": 45.586891880192226, "occurrences_today": 13, "datetimes_today": "2026-03-24 01:31:57, 2026-03-24 01:44:56, 2026-03-24 02:01:22, 2026-03-24 02:16:31, 2026-03-24 02:31:28, 2026-03-24 02:46:35, 2026-03-24 03:02:45, 2026-03-24 03:16:59, 2026-03-24 03:31:29, 2026-03-24 03:44:38, 2026-03-24 04:01:46, 2026-03-24 04:16:27, 2026-03-24 04:31:47", "cumulative_total": 82.0 }, "geometry": { "type": "Polygon", "coordinates": [ [ [ -73.776976426289039, 45.581696335009809 ], [ -73.783327983328675, 45.584362545155685 ], [ -73.783215720457008, 45.589558100187986 ], [ -73.776750718726944, 45.592087420410422 ], [ -73.770398617054965, 45.589420842228847 ], [ -73.770512061735019, 45.584225311925273 ], [ -73.776976426289039, 45.581696335009809 ] ] ] } },
{ "type": "Feature", "properties": { "hex_id": 784016, "centroid_lon": -71.285034383887236, "centroid_lat": 46.811364867619993, "occurrences_today": 5, "datetimes_today": "2026-03-24 00:01:21, 2026-03-24 00:16:30, 2026-03-24 00:28:43, 2026-03-24 00:46:31, 2026-03-24 01:01:26", "cumulative_total": 69.0 }, "geometry": { "type": "Polygon", "coordinates": [ [ [ -71.285391833568269, 46.806180186942967 ], [ -71.291752757894045, 46.808984884783577 ], [ -71.291395884510692, 46.814169600307828 ], [ -71.284676835130625, 46.816549541481209 ], [ -71.278315433599886, 46.813744437518913 ], [ -71.278673558619872, 46.808559798571615 ], [ -71.285391833568269, 46.806180186942967 ] ] ] } },
{ "type": "Feature", "properties": { "hex_id": 585523, "centroid_lon": -73.449431482488691, "centroid_lat": 45.606301479499606, "occurrences_today": 8, "datetimes_today": "2026-03-24 06:01:35, 2026-03-24 06:16:46, 2026-03-24 06:31:20, 2026-03-24 07:01:49, 2026-03-24 07:16:37, 2026-03-24 07:31:26, 2026-03-24 07:46:30, 2026-03-24 08:01:24", "cumulative_total": 47.0 }, "geometry": { "type": "Polygon", "coordinates": [ [ [ -73.449574617771731, 45.601106671912383 ], [ -73.455912351718368, 45.603790906388959 ], [ -73.455769788055306, 45.60898572707282 ], [ -73.449288308071345, 45.611496281991371 ], [ -73.442950041645631, 45.608811676170824 ], [ -73.443093787669795, 45.603616886840399 ], [ -73.449574617771731, 45.601106671912383 ] ] ] } },
{ "type": "Feature", "properties": { "hex_id": 586743, "centroid_lon": -73.437045220192587, "centroid_lat": 45.590542381676784, "occurrences_today": 4, "datetimes_today": "2026-03-24 07:16:37, 2026-03-24 07:31:26, 2026-03-24 07:46:30, 2026-03-24 08:01:24", "cumulative_total": 75.0 }, "geometry": { "type": "Polygon", "coordinates": [ [ [ -73.437189419363435, 45.585347590266551 ], [ -73.443524790060124, 45.588032488259884 ], [ -73.443381161863812, 45.593227292884833 ], [ -73.436900981604325, 45.59573716798613 ], [ -73.430565079357137, 45.593051898734906 ], [ -73.430709888906691, 45.587857125704907 ], [ -73.437189419363435, 45.585347590266551 ] ] ] } },
{ "type": "Feature", "properties": { "hex_id": 586134, "centroid_lon": -73.442806256319116, "centroid_lat": 45.614006460402869, "occurrences_today": 8, "datetimes_today": "2026-03-24 06:01:35, 2026-03-24 06:16:46, 2026-03-24 06:31:20, 2026-03-24 07:01:49, 2026-03-24 07:16:37, 2026-03-24 07:31:26, 2026-03-24 07:46:30, 2026-03-24 08:01:24", "cumulative_total": 84.0 }, "geometry": { "type": "Polygon", "coordinates": [ [ [ -73.442950041645631, 45.608811676170824 ], [ -73.449288308071345, 45.611496281991371 ], [ -73.449145094506505, 45.616691079387564 ], [ -73.442662431676993, 45.619201239536423 ], [ -73.436323632811806, 45.616516262212393 ], [ -73.436468029202388, 45.611321496307703 ], [ -73.442950041645631, 45.608811676170824 ] ] ] } },
{ "type": "Feature", "properties": { "hex_id": 151018, "centroid_lon": -78.166297816625672, "centroid_lat": 48.238496185684809, "occurrences_today": 3, "datetimes_today": "2026-03-24 00:01:21, 2026-03-24 00:16:30, 2026-03-24 00:28:43", "cumulative_total": 14.0 }, "geometry": { "type": "Polygon", "coordinates": [ [ [ -78.1659775005554, 48.233309810656202 ], [ -78.172860893733102, 48.235717482496369 ], [ -78.173181932627756, 48.240903820793186 ], [ -78.166618223350014, 48.243682554409794 ], [ -78.159734016677518, 48.241274528208258 ], [ -78.159414332810215, 48.236088122822153 ], [ -78.1659775005554, 48.233309810656202 ] ] ] } },
{ "type": "Feature", "properties": { "hex_id": 151628, "centroid_lon": -78.159094739389815, "centroid_lat": 48.230901711139403, "occurrences_today": 3, "datetimes_today": "2026-03-24 00:01:21, 2026-03-24 00:16:30, 2026-03-24 00:28:43", "cumulative_total": 14.0 }, "geometry": { "type": "Polygon", "coordinates": [ [ [ -78.158775236383704, 48.225715293160455 ], [ -78.165657275106554, 48.228123429324441 ], [ -78.1659775005554, 48.233309810656202 ], [ -78.159414332810215, 48.236088122822153 ], [ -78.152531481214012, 48.233679632306668 ], [ -78.152212610268933, 48.228493184047409 ], [ -78.158775236383704, 48.225715293160455 ] ] ] } },
{ "type": "Feature", "properties": { "hex_id": 152239, "centroid_lon": -78.152850442398872, "centroid_lat": 48.23886607427621, "occurrences_today": 11, "datetimes_today": "2026-03-24 00:01:21, 2026-03-24 00:16:30, 2026-03-24 00:28:43, 2026-03-24 00:46:31, 2026-03-24 01:01:26, 2026-03-24 01:16:30, 2026-03-24 01:31:57, 2026-03-24 01:44:56, 2026-03-24 02:01:22, 2026-03-24 02:16:31, 2026-03-24 02:31:28", "cumulative_total": 22.0 }, "geometry": { "type": "Polygon", "coordinates": [ [ [ -78.152531481214012, 48.233679632306668 ], [ -78.159414332810215, 48.236088122822153 ], [ -78.159734016677518, 48.241274528208258 ], [ -78.153169493856026, 48.244052509955551 ], [ -78.146285829288828, 48.241643664907244 ], [ -78.145967500546647, 48.236457192715157 ], [ -78.152531481214012, 48.233679632306668 ] ] ] } },
{ "type": "Feature", "properties": { "hex_id": 152849, "centroid_lon": -78.145649261869622, "centroid_lat": 48.231270714239812, "occurrences_today": 3, "datetimes_today": "2026-03-24 00:01:21, 2026-03-24 00:16:30, 2026-03-24 00:28:43", "cumulative_total": 14.0 }, "geometry": { "type": "Polygon", "coordinates": [ [ [ -78.145331113225325, 48.226084229481671 ], [ -78.152212610268933, 48.228493184047409 ], [ -78.152531481214012, 48.233679632306668 ], [ -78.145967500546647, 48.236457192715157 ], [ -78.139085191153313, 48.234047883626566 ], [ -78.1387676748095, 48.228861368723031 ], [ -78.145331113225325, 48.226084229481671 ] ] ] } },
{ "type": "Feature", "properties": { "hex_id": 153460, "centroid_lon": -78.139402797355203, "centroid_lat": 48.239234392253742, "occurrences_today": 3, "datetimes_today": "2026-03-24 00:01:21, 2026-03-24 00:16:30, 2026-03-24 00:28:43", "cumulative_total": 14.0 }, "geometry": { "type": "Polygon", "coordinates": [ [ [ -78.139085191153313, 48.234047883626566 ], [ -78.145967500546647, 48.236457192715157 ], [ -78.146285829288828, 48.241643664907244 ], [ -78.139720493447555, 48.244420894604097 ], [ -78.13283737160728, 48.242011230811357 ], [ -78.132520398087607, 48.236824692096604 ], [ -78.139085191153313, 48.234047883626566 ] ] ] } },
{ "type": "Feature", "properties": { "hex_id": 542184, "centroid_lon": -73.902600382343564, "centroid_lat": 45.712889684374474, "occurrences_today": 1, "datetimes_today": "2026-03-24 06:01:35", "cumulative_total": 92.0 }, "geometry": { "type": "Polygon", "coordinates": [ [ [ -73.902702068153175, 45.707694022995589 ], [ -73.90907386832157, 45.71035336875601 ], [ -73.908972763538301, 45.71554903875974 ], [ -73.902498668690967, 45.718085340831074 ], [ -73.896126315343921, 45.7154256266275 ], [ -73.896228610013452, 45.710229978860752 ], [ -73.902702068153175, 45.707694022995589 ] ] ] } },
{ "type": "Feature", "properties": { "hex_id": 681950, "centroid_lon": -72.459565186572675, "centroid_lat": 45.089656604708345, "occurrences_today": 9, "datetimes_today": "2026-03-24 03:44:38, 2026-03-24 04:01:46, 2026-03-24 04:16:27, 2026-03-24 04:31:47, 2026-03-24 04:46:28, 2026-03-24 05:01:34, 2026-03-24 05:16:45, 2026-03-24 05:31:50, 2026-03-24 08:01:24", "cumulative_total": 41.0 }, "geometry": { "type": "Polygon", "coordinates": [ [ [ -72.459795466256637, 45.084464535166909 ], [ -72.466027678790439, 45.087201669954297 ], [ -72.465797941801185, 45.092393762066514 ], [ -72.459334844351886, 45.094848668584923 ], [ -72.453102151670592, 45.092111160158261 ], [ -72.45333303656534, 45.086919118915688 ], [ -72.459795466256637, 45.084464535166909 ] ] ] } },
{ "type": "Feature", "properties": { "hex_id": 550722, "centroid_lon": -73.815641327748608, "centroid_lat": 45.571710278312459, "occurrences_today": 1, "datetimes_today": "2026-03-24 08:01:24", "cumulative_total": 30.0 }, "geometry": { "type": "Polygon", "coordinates": [ [ [ -73.815750531448458, 45.566514645263325 ], [ -73.822102270048617, 45.569178707279484 ], [ -73.821993641895247, 45.574374349790361 ], [ -73.815532094199568, 45.576905906410893 ], [ -73.809179809907135, 45.574241476917855 ], [ -73.809289618992622, 45.569045858345838 ], [ -73.815750531448458, 45.566514645263325 ] ] ] } },
{ "type": "Feature", "properties": { "hex_id": 584311, "centroid_lon": -73.458403249919101, "centroid_lat": 45.746733519317779, "occurrences_today": 26, "datetimes_today": "2026-03-24 00:01:21, 2026-03-24 00:16:30, 2026-03-24 00:28:43, 2026-03-24 00:46:31, 2026-03-24 01:01:26, 2026-03-24 01:16:30, 2026-03-24 01:31:57, 2026-03-24 01:44:56, 2026-03-24 02:01:22, 2026-03-24 02:16:31, 2026-03-24 02:31:28, 2026-03-24 02:46:35, 2026-03-24 03:02:45, 2026-03-24 03:16:59, 2026-03-24 03:31:29, 2026-03-24 03:44:38, 2026-03-24 04:01:46, 2026-03-24 04:16:27, 2026-03-24 04:31:47, 2026-03-24 04:46:28, 2026-03-24 05:01:34, 2026-03-24 05:16:45, 2026-03-24 05:31:50, 2026-03-24 06:01:35, 2026-03-24 06:16:46, 2026-03-24 06:31:20", "cumulative_total": 128.0 }, "geometry": { "type": "Polygon", "coordinates": [ [ [ -73.458546255492564, 45.74153881796758 ], [ -73.464900132006079, 45.744222700302615 ], [ -73.464757702435634, 45.749417414698613 ], [ -73.458260205179471, 45.751928215575553 ], [ -73.451905791835713, 45.749243960186192 ], [ -73.452049412565131, 45.744049277039224 ], [ -73.458546255492564, 45.74153881796758 ] ] ] } },
{ "type": "Feature", "properties": { "hex_id": 549501, "centroid_lon": -73.828454613883167, "centroid_lat": 45.57184242077075, "occurrences_today": 1, "datetimes_today": "2026-03-24 08:01:24", "cumulative_total": 14.0 }, "geometry": { "type": "Polygon", "coordinates": [ [ [ -73.828562636797145, 45.566646763914321 ], [ -73.834915010153367, 45.569310119447493 ], [ -73.834807562962069, 45.574505785638436 ], [ -73.828346561442572, 45.577038072680821 ], [ -73.821993641895247, 45.574374349790361 ], [ -73.822102270048617, 45.569178707279484 ], [ -73.828562636797145, 45.566646763914321 ] ] ] } },
{ "type": "Feature", "properties": { "hex_id": 793784, "centroid_lon": -71.180405382653888, "centroid_lat": 46.807916142100112, "occurrences_today": 6, "datetimes_today": "2026-03-24 00:16:30, 2026-03-24 00:28:43, 2026-03-24 00:46:31, 2026-03-24 01:01:26, 2026-03-24 01:16:30, 2026-03-24 01:31:57", "cumulative_total": 6.0 }, "geometry": { "type": "Polygon", "coordinates": [ [ [ -71.180772840724501, 46.802732082537396 ], [ -71.187127556990077, 46.805542435106666 ], [ -71.18676067342156, 46.810726530527077 ], [ -71.180037822750634, 46.81310019472874 ], [ -71.173682633833238, 46.810289435233166 ], [ -71.174050768203315, 46.805105418528861 ], [ -71.180772840724501, 46.802732082537396 ] ] ] } }
]
}
