{
"type": "FeatureCollection",
"name": "daily_2026-08-29",
"crs": { "type": "name", "properties": { "name": "urn:ogc:def:crs:OGC:1.3:CRS84" } },
"features": [
{ "type": "Feature", "properties": { "hex_id": 524441, "centroid_lon": -74.09847453324997, "centroid_lat": 45.114362027301368, "occurrences_today": 2, "datetimes_today": "2026-08-29 00:02:30, 2026-08-29 00:17:04", "cumulative_total": 80.0 }, "geometry": { "type": "Polygon", "coordinates": [ [ [ -74.098556346409083, 45.109165508756561 ], [ -74.104870978509922, 45.111813761959723 ], [ -74.10478973090909, 45.117010287080369 ], [ -74.098392697847416, 45.119558540981032 ], [ -74.092077522435432, 45.116909928724077 ], [ -74.092159923388877, 45.111713421683923 ], [ -74.098556346409083, 45.109165508756561 ] ] ] } },
{ "type": "Feature", "properties": { "hex_id": 600758, "centroid_lon": -73.302085286853938, "centroid_lat": 45.175458711339914, "occurrences_today": 2, "datetimes_today": "2026-08-29 00:02:30, 2026-08-29 00:17:04", "cumulative_total": 25.0 }, "geometry": { "type": "Polygon", "coordinates": [ [ [ -73.302239684352514, 45.170263889714946 ], [ -73.308522816734168, 45.172955702962774 ], [ -73.308368976038722, 45.178150539012975 ], [ -73.301930847361035, 45.18065352780512 ], [ -73.295647200177555, 45.177961347311111 ], [ -73.295802196459647, 45.172766545334831 ], [ -73.302239684352514, 45.170263889714946 ] ] ] } },
{ "type": "Feature", "properties": { "hex_id": 601369, "centroid_lon": -73.295492161737172, "centroid_lat": 45.183156144124489, "occurrences_today": 2, "datetimes_today": "2026-08-29 00:02:30, 2026-08-29 00:17:04", "cumulative_total": 25.0 }, "geometry": { "type": "Polygon", "coordinates": [ [ [ -73.295647200177555, 45.177961347311111 ], [ -73.301930847361035, 45.18065352780512 ], [ -73.301776365859794, 45.185848339110407 ], [ -73.295337081124472, 45.188350935774807 ], [ -73.289052919181188, 45.185658387877801 ], [ -73.289208556719018, 45.180463610783107 ], [ -73.295647200177555, 45.177961347311111 ] ] ] } },
{ "type": "Feature", "properties": { "hex_id": 357837, "centroid_lon": -75.84839487097193, "centroid_lat": 46.089155227159232, "occurrences_today": 2, "datetimes_today": "2026-08-29 00:02:30, 2026-08-29 00:17:04", "cumulative_total": 190.0 }, "geometry": { "type": "Polygon", "coordinates": [ [ [ -75.848315218125151, 46.083959525359411 ], [ -75.854821668086686, 46.086509195374191 ], [ -75.854901938951159, 46.091704886061663 ], [ -75.848474545732913, 46.094350924108014 ], [ -75.841967455835785, 46.091800900545358 ], [ -75.841888399099957, 46.086605192550167 ], [ -75.848315218125151, 46.083959525359411 ] ] ] } },
{ "type": "Feature", "properties": { "hex_id": 603199, "centroid_lon": -73.277113140951741, "centroid_lat": 45.1594932549893, "occurrences_today": 2, "datetimes_today": "2026-08-29 00:02:30, 2026-08-29 00:17:04", "cumulative_total": 29.0 }, "geometry": { "type": "Polygon", "coordinates": [ [ [ -73.277269721444313, 45.154298486500167 ], [ -73.283549903405827, 45.156991637581079 ], [ -73.283393878911127, 45.162186420735026 ], [ -73.276956517879583, 45.164688018306727 ], [ -73.270675822506888, 45.161994499952833 ], [ -73.27083300156275, 45.156799751363849 ], [ -73.277269721444313, 45.154298486500167 ] ] ] } },
{ "type": "Feature", "properties": { "hex_id": 603200, "centroid_lon": -73.276643143939822, "centroid_lat": 45.175077529425884, "occurrences_today": 2, "datetimes_today": "2026-08-29 00:02:30, 2026-08-29 00:17:04", "cumulative_total": 36.0 }, "geometry": { "type": "Polygon", "coordinates": [ [ [ -73.276799852213671, 45.169882776452305 ], [ -73.283081702617949, 45.172575971536752 ], [ -73.282925550791276, 45.177770739184254 ], [ -73.276486393043896, 45.180272277227324 ], [ -73.270204028821638, 45.177578714669799 ], [ -73.270361336150557, 45.172383981605954 ], [ -73.276799852213671, 45.169882776452305 ] ] ] } },
{ "type": "Feature", "properties": { "hex_id": 603809, "centroid_lon": -73.270990137889328, "centroid_lat": 45.151604997600096, "occurrences_today": 2, "datetimes_today": "2026-08-29 00:02:30, 2026-08-29 00:17:04", "cumulative_total": 29.0 }, "geometry": { "type": "Polygon", "coordinates": [ [ [ -73.271147231500848, 45.146410238661751 ], [ -73.277426259371424, 45.149103712839441 ], [ -73.277269721444313, 45.154298486500167 ], [ -73.27083300156275, 45.156799751363849 ], [ -73.264553460729942, 45.154105909956627 ], [ -73.264711152726733, 45.148911170978849 ], [ -73.271147231500848, 45.146410238661751 ] ] ] } },
{ "type": "Feature", "properties": { "hex_id": 603810, "centroid_lon": -73.270518600707575, "centroid_lat": 45.167189243366913, "occurrences_today": 2, "datetimes_today": "2026-08-29 00:02:30, 2026-08-29 00:17:04", "cumulative_total": 27.0 }, "geometry": { "type": "Polygon", "coordinates": [ [ [ -73.270675822506888, 45.161994499952833 ], [ -73.276956517879583, 45.164688018306727 ], [ -73.276799852213671, 45.169882776452305 ], [ -73.270361336150557, 45.172383981605954 ], [ -73.264080127409244, 45.169690095822432 ], [ -73.264237948085452, 45.164495372378546 ], [ -73.270675822506888, 45.161994499952833 ] ] ] } },
{ "type": "Feature", "properties": { "hex_id": 603811, "centroid_lon": -73.270046678706592, "centroid_lat": 45.182773442558322, "occurrences_today": 2, "datetimes_today": "2026-08-29 00:02:30, 2026-08-29 00:17:04", "cumulative_total": 30.0 }, "geometry": { "type": "Polygon", "coordinates": [ [ [ -73.270204028821638, 45.177578714669799 ], [ -73.276486393043896, 45.180272277227324 ], [ -73.276329599511712, 45.185467019856482 ], [ -73.26988928579118, 45.18796816527135 ], [ -73.26360640779356, 45.185274235083995 ], [ -73.263764357277566, 45.180079527175309 ], [ -73.270204028821638, 45.177578714669799 ] ] ] } },
{ "type": "Feature", "properties": { "hex_id": 603812, "centroid_lon": -73.269574371502344, "centroid_lat": 45.198357595170386, "occurrences_today": 2, "datetimes_today": "2026-08-29 00:02:30, 2026-08-29 00:17:04", "cumulative_total": 53.0 }, "geometry": { "type": "Polygon", "coordinates": [ [ [ -73.269731850061191, 45.193162882808743 ], [ -73.276015884481779, 45.195856489597347 ], [ -73.275858962955667, 45.201051216708791 ], [ -73.269416850100413, 45.203552302356108 ], [ -73.263132301497308, 45.20085832773735 ], [ -73.263290379917734, 45.195663635365158 ], [ -73.269731850061191, 45.193162882808743 ] ] ] } },
{ "type": "Feature", "properties": { "hex_id": 604420, "centroid_lon": -73.264395725854271, "centroid_lat": 45.159300643756573, "occurrences_today": 2, "datetimes_today": "2026-08-29 00:02:30, 2026-08-29 00:17:04", "cumulative_total": 29.0 }, "geometry": { "type": "Polygon", "coordinates": [ [ [ -73.264553460729942, 45.154105909956627 ], [ -73.27083300156275, 45.156799751363849 ], [ -73.270675822506888, 45.161994499952833 ], [ -73.264237948085452, 45.164495372378546 ], [ -73.257957894333089, 45.161801163585146 ], [ -73.258116227907465, 45.156606449815818 ], [ -73.264553460729942, 45.154105909956627 ] ] ] } },
{ "type": "Feature", "properties": { "hex_id": 604421, "centroid_lon": -73.263922263811367, "centroid_lat": 45.174884814088074, "occurrences_today": 2, "datetimes_today": "2026-08-29 00:02:30, 2026-08-29 00:17:04", "cumulative_total": 41.0 }, "geometry": { "type": "Polygon", "coordinates": [ [ [ -73.264080127409244, 45.169690095822432 ], [ -73.270361336150557, 45.172383981605954 ], [ -73.270204028821638, 45.177578714669799 ], [ -73.263764357277566, 45.180079527175309 ], [ -73.25748263521038, 45.177385273805434 ], [ -73.257641097998871, 45.172190575580089 ], [ -73.264080127409244, 45.169690095822432 ] ] ] } },
{ "type": "Feature", "properties": { "hex_id": 604422, "centroid_lon": -73.263448415345039, "centroid_lat": 45.190468937813975, "occurrences_today": 2, "datetimes_today": "2026-08-29 00:02:30, 2026-08-29 00:17:04", "cumulative_total": 46.0 }, "geometry": { "type": "Polygon", "coordinates": [ [ [ -73.26360640779356, 45.185274235083995 ], [ -73.26988928579118, 45.18796816527135 ], [ -73.269731850061191, 45.193162882808743 ], [ -73.263290379917734, 45.195663635365158 ], [ -73.257006988187513, 45.192969337391176 ], [ -73.257165580319054, 45.187774654711141 ], [ -73.26360640779356, 45.185274235083995 ] ] ] } },
{ "type": "Feature", "properties": { "hex_id": 605032, "centroid_lon": -73.257324129321887, "centroid_lat": 45.182579966849175, "occurrences_today": 2, "datetimes_today": "2026-08-29 00:02:30, 2026-08-29 00:17:04", "cumulative_total": 27.0 }, "geometry": { "type": "Polygon", "coordinates": [ [ [ -73.25748263521038, 45.177385273805434 ], [ -73.263764357277566, 45.180079527175309 ], [ -73.26360640779356, 45.185274235083995 ], [ -73.257165580319054, 45.187774654711141 ], [ -73.250883344968912, 45.185080033598169 ], [ -73.251042450361879, 45.179885360664869 ], [ -73.25748263521038, 45.177385273805434 ] ] ] } },
{ "type": "Feature", "properties": { "hex_id": 365731, "centroid_lon": -75.755330655722744, "centroid_lat": 45.427243778583524, "occurrences_today": 1, "datetimes_today": "2026-08-29 00:17:04", "cumulative_total": 214.0 }, "geometry": { "type": "Polygon", "coordinates": [ [ [ -75.755261357380917, 45.422047353894406 ], [ -75.76168677337715, 45.424603127531164 ], [ -75.76175666746866, 45.429799542156992 ], [ -75.755399972975752, 45.432440198441839 ], [ -75.748973942315502, 45.429884078484015 ], [ -75.7489052208185, 45.42468764862685 ], [ -75.755261357380917, 45.422047353894406 ] ] ] } },
{ "type": "Feature", "properties": { "hex_id": 366341, "centroid_lon": -75.748836518069581, "centroid_lat": 45.419491213940255, "occurrences_today": 1, "datetimes_today": "2026-08-29 00:17:04", "cumulative_total": 219.0 }, "geometry": { "type": "Polygon", "coordinates": [ [ [ -75.748767834062491, 45.414294774424249 ], [ -75.755192077943917, 45.416850924374472 ], [ -75.755261357380917, 45.422047353894406 ], [ -75.7489052208185, 45.42468764862685 ], [ -75.742480362762223, 45.422131152382562 ], [ -75.742412255449494, 45.41693470776427 ], [ -75.748767834062491, 45.414294774424249 ] ] ] } },
{ "type": "Feature", "properties": { "hex_id": 371234, "centroid_lon": -75.699448956512612, "centroid_lat": 45.560118558878344, "occurrences_today": 2, "datetimes_today": "2026-08-29 00:02:30, 2026-08-29 00:17:04", "cumulative_total": 249.0 }, "geometry": { "type": "Polygon", "coordinates": [ [ [ -75.699384486951814, 45.554922191144634 ], [ -75.705822613709088, 45.557480973484729 ], [ -75.705887682512596, 45.562677331707924 ], [ -75.699513443695182, 45.565314921793124 ], [ -75.693074700070468, 45.562755790911396 ], [ -75.693010812136535, 45.557559418550817 ], [ -75.699384486951814, 45.554922191144634 ] ] ] } },
{ "type": "Feature", "properties": { "hex_id": 680726, "centroid_lon": -72.474320445863853, "centroid_lat": 45.043209190180157, "occurrences_today": 2, "datetimes_today": "2026-08-29 00:02:30, 2026-08-29 00:17:04", "cumulative_total": 86.0 }, "geometry": { "type": "Polygon", "coordinates": [ [ [ -72.474549018659914, 45.03801701901299 ], [ -72.48077701908025, 45.040753272463547 ], [ -72.4805489878609, 45.045945466040067 ], [ -72.474091811027094, 45.048401355694487 ], [ -72.46786333108102, 45.045664729318823 ], [ -72.468092507473941, 45.040472586277005 ], [ -72.474549018659914, 45.03801701901299 ] ] ] } },
{ "type": "Feature", "properties": { "hex_id": 595883, "centroid_lon": -73.348911696132291, "centroid_lat": 45.316465945886435, "occurrences_today": 2, "datetimes_today": "2026-08-29 00:02:30, 2026-08-29 00:17:04", "cumulative_total": 105.0 }, "geometry": { "type": "Polygon", "coordinates": [ [ [ -73.349062576297698, 45.311271128722566 ], [ -73.355363372972164, 45.313960553614272 ], [ -73.355213054393786, 45.319155384784622 ], [ -73.348760774860153, 45.321660757911289 ], [ -73.342459457712238, 45.318970964425311 ], [ -73.342610940557691, 45.313776166470937 ], [ -73.349062576297698, 45.311271128722566 ] ] ] } },
{ "type": "Feature", "properties": { "hex_id": 351727, "centroid_lon": -75.911780044827353, "centroid_lat": 46.010722215713805, "occurrences_today": 2, "datetimes_today": "2026-08-29 00:02:30, 2026-08-29 00:17:04", "cumulative_total": 167.0 }, "geometry": { "type": "Polygon", "coordinates": [ [ [ -75.911694675249223, 46.005526530725405 ], [ -75.918194727116799, 46.008072674386298 ], [ -75.918280712931406, 46.013268347620759 ], [ -75.911865437868812, 46.015917895834555 ], [ -75.905364746297394, 46.013371400284257 ], [ -75.905279969500413, 46.008175708475321 ], [ -75.911694675249223, 46.005526530725405 ] ] ] } },
{ "type": "Feature", "properties": { "hex_id": 365120, "centroid_lon": -75.761616898353552, "centroid_lat": 45.419406708073119, "occurrences_today": 1, "datetimes_today": "2026-08-29 00:17:04", "cumulative_total": 437.0 }, "geometry": { "type": "Polygon", "coordinates": [ [ [ -75.761547042391513, 45.414210283782893 ], [ -75.767971843742799, 45.416765711260659 ], [ -75.768042295285071, 45.421962125424606 ], [ -75.76168677337715, 45.424603127531164 ], [ -75.755261357380917, 45.422047353894406 ], [ -75.755192077943917, 45.416850924374472 ], [ -75.761547042391513, 45.414210283782893 ] ] ] } },
{ "type": "Feature", "properties": { "hex_id": 527506, "centroid_lon": -74.063502871712558, "centroid_lat": 45.3089709356545, "occurrences_today": 2, "datetimes_today": "2026-08-29 00:02:30, 2026-08-29 00:17:04", "cumulative_total": 139.0 }, "geometry": { "type": "Polygon", "coordinates": [ [ [ -74.063588436567755, 45.303774645879777 ], [ -74.069922840476053, 45.306424903740385 ], [ -74.069837846527733, 45.311621200468068 ], [ -74.063417283541014, 45.314167220554545 ], [ -74.057082332046051, 45.311516600880815 ], [ -74.057168491116727, 45.306320322997855 ], [ -74.063588436567755, 45.303774645879777 ] ] ] } },
{ "type": "Feature", "properties": { "hex_id": 1394058, "centroid_lon": -64.340364265821052, "centroid_lat": 48.752898517818416, "occurrences_today": 2, "datetimes_today": "2026-08-29 00:02:30, 2026-08-29 00:17:04", "cumulative_total": 31.0 }, "geometry": { "type": "Polygon", "coordinates": [ [ [ -64.341456548663658, 48.747794402265725 ], [ -64.347595081721678, 48.750971799698831 ], [ -64.346503298781684, 48.756076015479451 ], [ -64.339271676327641, 48.758002610532813 ], [ -64.333132950072425, 48.754824736674863 ], [ -64.33422603935918, 48.749720744252087 ], [ -64.341456548663658, 48.747794402265725 ] ] ] } },
{ "type": "Feature", "properties": { "hex_id": 1403198, "centroid_lon": -64.297560735367298, "centroid_lat": 48.475562922339918, "occurrences_today": 2, "datetimes_today": "2026-08-29 00:02:30, 2026-08-29 00:17:04", "cumulative_total": 36.0 }, "geometry": { "type": "Polygon", "coordinates": [ [ [ -64.298646722921859, 48.470459282375188 ], [ -64.30475095303126, 48.473636284365142 ], [ -64.303665456690752, 48.478740024394618 ], [ -64.296474444269577, 48.480666539494649 ], [ -64.290370026542945, 48.477489065140645 ], [ -64.29145680874737, 48.472385548113614 ], [ -64.298646722921859, 48.470459282375188 ] ] ] } },
{ "type": "Feature", "properties": { "hex_id": 601368, "centroid_lon": -73.295957150597445, "centroid_lat": 45.167571738195768, "occurrences_today": 2, "datetimes_today": "2026-08-29 00:02:30, 2026-08-29 00:17:04", "cumulative_total": 19.0 }, "geometry": { "type": "Polygon", "coordinates": [ [ [ -73.29611206260499, 45.16237692589408 ], [ -73.302394039870705, 45.16506906293035 ], [ -73.302239684352514, 45.170263889714946 ], [ -73.295802196459647, 45.172766545334831 ], [ -73.289519704841851, 45.170074041095653 ], [ -73.289675215454992, 45.164879248503162 ], [ -73.29611206260499, 45.16237692589408 ] ] ] } },
{ "type": "Feature", "properties": { "hex_id": 601979, "centroid_lon": -73.289364151934549, "centroid_lat": 45.175268828522341, "occurrences_today": 2, "datetimes_today": "2026-08-29 00:02:30, 2026-08-29 00:17:04", "cumulative_total": 19.0 }, "geometry": { "type": "Polygon", "coordinates": [ [ [ -73.289519704841851, 45.170074041095653 ], [ -73.295802196459647, 45.172766545334831 ], [ -73.295647200177555, 45.177961347311111 ], [ -73.289208556719018, 45.180463610783107 ], [ -73.282925550791276, 45.177770739184254 ], [ -73.283081702617949, 45.172575971536752 ], [ -73.289519704841851, 45.170074041095653 ] ] ] } },
{ "type": "Feature", "properties": { "hex_id": 602589, "centroid_lon": -73.283237811986538, "centroid_lat": 45.167381198720292, "occurrences_today": 2, "datetimes_today": "2026-08-29 00:02:30, 2026-08-29 00:17:04", "cumulative_total": 20.0 }, "geometry": { "type": "Polygon", "coordinates": [ [ [ -73.283393878911127, 45.162186420735026 ], [ -73.289675215454992, 45.164879248503162 ], [ -73.289519704841851, 45.170074041095653 ], [ -73.283081702617949, 45.172575971536752 ], [ -73.276799852213671, 45.169882776452305 ], [ -73.276956517879583, 45.164688018306727 ], [ -73.283393878911127, 45.162186420735026 ] ] ] } },
{ "type": "Feature", "properties": { "hex_id": 602590, "centroid_lon": -73.282769356492366, "centroid_lat": 45.182965501662657, "occurrences_today": 2, "datetimes_today": "2026-08-29 00:02:30, 2026-08-29 00:17:04", "cumulative_total": 19.0 }, "geometry": { "type": "Polygon", "coordinates": [ [ [ -73.282925550791276, 45.177770739184254 ], [ -73.289208556719018, 45.180463610783107 ], [ -73.289052919181188, 45.185658387877801 ], [ -73.282613119707122, 45.188160258971791 ], [ -73.276329599511712, 45.185467019856482 ], [ -73.276486393043896, 45.180272277227324 ], [ -73.282925550791276, 45.177770739184254 ] ] ] } },
{ "type": "Feature", "properties": { "hex_id": 603201, "centroid_lon": -73.276172763329072, "centroid_lat": 45.190661757313187, "occurrences_today": 2, "datetimes_today": "2026-08-29 00:02:30, 2026-08-29 00:17:04", "cumulative_total": 39.0 }, "geometry": { "type": "Polygon", "coordinates": [ [ [ -73.276329599511712, 45.185467019856482 ], [ -73.282613119707122, 45.188160258971791 ], [ -73.282456840421389, 45.193355011111564 ], [ -73.276015884481779, 45.195856489597347 ], [ -73.269731850061191, 45.193162882808743 ], [ -73.26988928579118, 45.18796816527135 ], [ -73.276329599511712, 45.185467019856482 ] ] ] } },
{ "type": "Feature", "properties": { "hex_id": 681336, "centroid_lon": -72.468321621681483, "centroid_lat": 45.035280437577974, "occurrences_today": 2, "datetimes_today": "2026-08-29 00:02:30, 2026-08-29 00:17:04", "cumulative_total": 39.0 }, "geometry": { "type": "Polygon", "coordinates": [ [ [ -72.468550673724209, 45.030088283222028 ], [ -72.474777529435812, 45.032824842193293 ], [ -72.474549018659914, 45.03801701901299 ], [ -72.468092507473941, 45.040472586277005 ], [ -72.461865172670613, 45.037735654428978 ], [ -72.462094828124407, 45.032543528256817 ], [ -72.468550673724209, 45.030088283222028 ] ] ] } },
{ "type": "Feature", "properties": { "hex_id": 735081, "centroid_lon": -71.892698632867464, "centroid_lat": 45.348477803824316, "occurrences_today": 2, "datetimes_today": "2026-08-29 00:02:30, 2026-08-29 00:17:04", "cumulative_total": 12.0 }, "geometry": { "type": "Polygon", "coordinates": [ [ [ -71.892982802542974, 45.343288507444548 ], [ -71.899213821422606, 45.346056518666586 ], [ -71.898930193724965, 45.351245843178525 ], [ -71.892414385823571, 45.353667094073842 ], [ -71.8861829023474, 45.350898701103979 ], [ -71.886467691343356, 45.345709439050211 ], [ -71.892982802542974, 45.343288507444548 ] ] ] } },
{ "type": "Feature", "properties": { "hex_id": 235610, "centroid_lon": -77.509903643113432, "centroid_lat": 53.598220051126987, "occurrences_today": 2, "datetimes_today": "2026-08-29 00:02:30, 2026-08-29 00:17:04", "cumulative_total": 74.0 }, "geometry": { "type": "Polygon", "coordinates": [ [ [ -77.509596192533607, 53.593035504607123 ], [ -77.517297409457299, 53.595469145549998 ], [ -77.517605830292425, 53.600653659330348 ], [ -77.51021118950618, 53.603404591908337 ], [ -77.502508906494171, 53.600970509333052 ], [ -77.502202330396898, 53.595785935901461 ], [ -77.509596192533607, 53.593035504607123 ] ] ] } },
{ "type": "Feature", "properties": { "hex_id": 236221, "centroid_lon": -77.502815578137884, "centroid_lat": 53.60615507703325, "occurrences_today": 2, "datetimes_today": "2026-08-29 00:02:30, 2026-08-29 00:17:04", "cumulative_total": 74.0 }, "geometry": { "type": "Polygon", "coordinates": [ [ [ -77.502508906494171, 53.600970509333052 ], [ -77.51021118950618, 53.603404591908337 ], [ -77.510518831752051, 53.60858912695091 ], [ -77.503122345368098, 53.611339639001791 ], [ -77.495418996147379, 53.608905114566284 ], [ -77.495113199559398, 53.603720520029434 ], [ -77.502508906494171, 53.600970509333052 ] ] ] } }
]
}
