{
"type": "FeatureCollection",
"name": "daily_2026-09-18",
"crs": { "type": "name", "properties": { "name": "urn:ogc:def:crs:OGC:1.3:CRS84" } },
"features": [
{ "type": "Feature", "properties": { "hex_id": 597118, "centroid_lon": -73.329735307838376, "centroid_lat": 45.534457103434789, "occurrences_today": 15, "datetimes_today": "2026-09-18 00:01:38, 2026-09-18 00:17:30, 2026-09-18 00:31:46, 2026-09-18 01:01:41, 2026-09-18 01:17:09, 2026-09-18 01:31:48, 2026-09-18 01:47:08, 2026-09-18 02:02:09, 2026-09-18 02:16:40, 2026-09-18 02:31:45, 2026-09-18 02:47:11, 2026-09-18 03:01:58, 2026-09-18 03:16:44, 2026-09-18 03:31:58, 2026-09-18 03:47:38", "cumulative_total": 350.0 }, "geometry": { "type": "Polygon", "coordinates": [ [ [ -73.329889103862229, 45.529262535815221 ], [ -73.33621296691976, 45.531953251737512 ], [ -73.336059738710134, 45.537147833613993 ], [ -73.329581469804495, 45.539651665903925 ], [ -73.323257080949801, 45.536960578448713 ], [ -73.323411486783812, 45.531766030301014 ], [ -73.329889103862229, 45.529262535815221 ] ] ] } },
{ "type": "Feature", "properties": { "hex_id": 787071, "centroid_lon": -71.249628229639782, "centroid_lat": 46.84918083943365, "occurrences_today": 14, "datetimes_today": "2026-09-18 00:01:38, 2026-09-18 00:17:30, 2026-09-18 00:31:46, 2026-09-18 01:01:41, 2026-09-18 01:17:09, 2026-09-18 01:31:48, 2026-09-18 01:47:08, 2026-09-18 02:02:09, 2026-09-18 02:16:40, 2026-09-18 02:31:45, 2026-09-18 02:47:11, 2026-09-18 03:01:58, 2026-09-18 03:16:44, 2026-09-18 03:31:58", "cumulative_total": 206.0 }, "geometry": { "type": "Polygon", "coordinates": [ [ [ -71.249989558034812, 46.843996402427742 ], [ -71.25635286735195, 46.846803132487018 ], [ -71.255992115858859, 46.85198760470864 ], [ -71.249266801047142, 46.854365269581663 ], [ -71.242903015043012, 46.851558132595457 ], [ -71.243265020502847, 46.846373737729934 ], [ -71.249989558034812, 46.843996402427742 ] ] ] } },
{ "type": "Feature", "properties": { "hex_id": 534835, "centroid_lon": -73.986140449771582, "centroid_lat": 45.355083088623317, "occurrences_today": 3, "datetimes_today": "2026-09-18 00:01:38, 2026-09-18 00:17:30, 2026-09-18 00:31:46", "cumulative_total": 169.0 }, "geometry": { "type": "Polygon", "coordinates": [ [ [ -73.986233231262261, 45.349886960589046 ], [ -73.992569057575068, 45.352541501089284 ], [ -73.992476847358674, 45.357737636851823 ], [ -73.986047642984815, 45.360279211761224 ], [ -73.979711270698033, 45.357624308132493 ], [ -73.979804648750644, 45.352428192787087 ], [ -73.986233231262261, 45.349886960589046 ] ] ] } },
{ "type": "Feature", "properties": { "hex_id": 517133, "centroid_lon": -74.170670819972315, "centroid_lat": 45.395549072513255, "occurrences_today": 5, "datetimes_today": "2026-09-18 02:47:11, 2026-09-18 03:01:58, 2026-09-18 03:16:44, 2026-09-18 03:31:58, 2026-09-18 03:47:38", "cumulative_total": 316.0 }, "geometry": { "type": "Polygon", "coordinates": [ [ [ -74.17074682291414, 45.390352711823347 ], [ -74.177095920660562, 45.392997089650677 ], [ -74.177020492636601, 45.39819345624155 ], [ -74.170594796297891, 45.400745428355506 ], [ -74.164245144369715, 45.398100688658893 ], [ -74.164321742955053, 45.392904338781939 ], [ -74.17074682291414, 45.390352711823347 ] ] ] } },
{ "type": "Feature", "properties": { "hex_id": 691800, "centroid_lon": -72.297071946414803, "centroid_lat": 46.364322653936838, "occurrences_today": 7, "datetimes_today": "2026-09-18 00:01:38, 2026-09-18 00:17:30, 2026-09-18 00:31:46, 2026-09-18 01:01:41, 2026-09-18 01:17:09, 2026-09-18 01:31:48, 2026-09-18 01:47:08", "cumulative_total": 99.0 }, "geometry": { "type": "Polygon", "coordinates": [ [ [ -72.297328076947736, 46.359132421923299 ], [ -72.303692543375377, 46.361880921461427 ], [ -72.303436991050575, 46.367071178198373 ], [ -72.296815745237041, 46.369512880124127 ], [ -72.290450771258207, 46.366763989024953 ], [ -72.290707550619885, 46.361573787627172 ], [ -72.297328076947736, 46.359132421923299 ] ] ] } },
{ "type": "Feature", "properties": { "hex_id": 692411, "centroid_lon": -72.29019392107088, "centroid_lat": 46.371954184591097, "occurrences_today": 7, "datetimes_today": "2026-09-18 00:01:38, 2026-09-18 00:17:30, 2026-09-18 00:31:46, 2026-09-18 01:01:41, 2026-09-18 01:17:09, 2026-09-18 01:31:48, 2026-09-18 01:47:08", "cumulative_total": 99.0 }, "geometry": { "type": "Polygon", "coordinates": [ [ [ -72.290450771258207, 46.366763989024953 ], [ -72.296815745237041, 46.369512880124127 ], [ -72.296559473390204, 46.37470310048478 ], [ -72.289937000033618, 46.377144374325205 ], [ -72.28357151857638, 46.374395091503764 ], [ -72.283829017929833, 46.369204926630296 ], [ -72.290450771258207, 46.366763989024953 ] ] ] } },
{ "type": "Feature", "properties": { "hex_id": 38021, "centroid_lon": -79.337706734369277, "centroid_lat": 47.350638398434889, "occurrences_today": 1, "datetimes_today": "2026-09-18 03:47:38", "cumulative_total": 34.0 }, "geometry": { "type": "Polygon", "coordinates": [ [ [ -79.337281534616153, 47.345458177464778 ], [ -79.344094933250858, 47.347797833160783 ], [ -79.344520834514327, 47.352978005180972 ], [ -79.338132052761608, 47.355818611788536 ], [ -79.331317833956533, 47.353478627741055 ], [ -79.330893217116198, 47.348298365505144 ], [ -79.337281534616153, 47.345458177464778 ] ] ] } },
{ "type": "Feature", "properties": { "hex_id": 535476, "centroid_lon": -73.971106214268389, "centroid_lat": 45.830450296245125, "occurrences_today": 5, "datetimes_today": "2026-09-18 00:01:38, 2026-09-18 00:17:30, 2026-09-18 00:31:46, 2026-09-18 01:01:41, 2026-09-18 01:17:09", "cumulative_total": 234.0 }, "geometry": { "type": "Polygon", "coordinates": [ [ [ -73.971201944485188, 45.825254626776569 ], [ -73.977590371325519, 45.827910239358957 ], [ -73.977495226683644, 45.833105916790608 ], [ -73.97101045780073, 45.835645960812563 ], [ -73.964621471640768, 45.832989978944177 ], [ -73.964717813674469, 45.827794322405126 ], [ -73.971201944485188, 45.825254626776569 ] ] ] } },
{ "type": "Feature", "properties": { "hex_id": 536381, "centroid_lon": -73.86809375093496, "centroid_lat": 50.418841218787776, "occurrences_today": 15, "datetimes_today": "2026-09-18 00:01:38, 2026-09-18 00:17:30, 2026-09-18 00:31:46, 2026-09-18 01:01:41, 2026-09-18 01:17:09, 2026-09-18 01:31:48, 2026-09-18 01:47:08, 2026-09-18 02:02:09, 2026-09-18 02:16:40, 2026-09-18 02:31:45, 2026-09-18 02:47:11, 2026-09-18 03:01:58, 2026-09-18 03:16:44, 2026-09-18 03:31:58, 2026-09-18 03:47:38", "cumulative_total": 147.0 }, "geometry": { "type": "Polygon", "coordinates": [ [ [ -73.868217463877045, 50.413649887783109 ], [ -73.875191904369672, 50.416313797259676 ], [ -73.875068942069348, 50.421505138335561 ], [ -73.867970001677648, 50.4240325449137 ], [ -73.860994846865466, 50.42136820106218 ], [ -73.861119346750613, 50.416176885085449 ], [ -73.868217463877045, 50.413649887783109 ] ] ] } },
{ "type": "Feature", "properties": { "hex_id": 948287, "centroid_lon": -69.454264950433938, "centroid_lat": 47.462131031569605, "occurrences_today": 9, "datetimes_today": "2026-09-18 00:31:46, 2026-09-18 01:01:41, 2026-09-18 01:17:09, 2026-09-18 01:31:48, 2026-09-18 01:47:08, 2026-09-18 02:02:09, 2026-09-18 02:16:40, 2026-09-18 02:31:45, 2026-09-18 02:47:11", "cumulative_total": 16.0 }, "geometry": { "type": "Polygon", "coordinates": [ [ [ -69.454810360337035, 47.456960359142947 ], [ -69.461140468361265, 47.459865844388837 ], [ -69.460595623766565, 47.465036569702889 ], [ -69.453719388389558, 47.467301694537852 ], [ -69.44738886722493, 47.464395780102741 ], [ -69.447934994524275, 47.459225170088899 ], [ -69.454810360337035, 47.456960359142947 ] ] ] } },
{ "type": "Feature", "properties": { "hex_id": 377385, "centroid_lon": -75.643624368868231, "centroid_lat": 46.277554815216114, "occurrences_today": 11, "datetimes_today": "2026-09-18 00:31:46, 2026-09-18 01:01:41, 2026-09-18 01:17:09, 2026-09-18 01:31:48, 2026-09-18 01:47:08, 2026-09-18 02:02:09, 2026-09-18 02:16:40, 2026-09-18 02:31:45, 2026-09-18 02:47:11, 2026-09-18 03:01:58, 2026-09-18 03:16:44", "cumulative_total": 34.0 }, "geometry": { "type": "Polygon", "coordinates": [ [ [ -75.6435635419178, 46.272359043274093 ], [ -75.650083008876095, 46.274920217753177 ], [ -75.650144457483123, 46.280115980671788 ], [ -75.643685212594534, 46.282750582353096 ], [ -75.6371651072009, 46.280189049775061 ], [ -75.637104885136935, 46.274993273681098 ], [ -75.6435635419178, 46.272359043274093 ] ] ] } }
]
}
