{
"type": "FeatureCollection",
"name": "daily_2026-08-22",
"crs": { "type": "name", "properties": { "name": "urn:ogc:def:crs:OGC:1.3:CRS84" } },
"features": [
{ "type": "Feature", "properties": { "hex_id": 860369, "centroid_lon": -70.414351007012257, "centroid_lat": 47.411120041668511, "occurrences_today": 5, "datetimes_today": "2026-08-22 00:16:42, 2026-08-22 00:31:56, 2026-08-22 00:46:42, 2026-08-22 00:57:03, 2026-08-22 02:01:56", "cumulative_total": 48.0 }, "geometry": { "type": "Polygon", "coordinates": [ [ [ -70.414801412339855, 47.405941626671826 ], [ -70.4211824496265, 47.408795441379567 ], [ -70.420732624885559, 47.413973900080492 ], [ -70.413900475948267, 47.416298448704197 ], [ -70.407518983833455, 47.413444212649566 ], [ -70.407970095439893, 47.408265849385764 ], [ -70.414801412339855, 47.405941626671826 ] ] ] } },
{ "type": "Feature", "properties": { "hex_id": 860979, "centroid_lon": -70.408421081154117, "centroid_lat": 47.403087478152308, "occurrences_today": 5, "datetimes_today": "2026-08-22 00:16:42, 2026-08-22 00:31:56, 2026-08-22 00:46:42, 2026-08-22 00:57:03, 2026-08-22 02:01:56", "cumulative_total": 48.0 }, "geometry": { "type": "Polygon", "coordinates": [ [ [ -70.408871941020337, 47.397909098950315 ], [ -70.415251691975229, 47.40076320371535 ], [ -70.414801412339855, 47.405941626671826 ], [ -70.407970095439893, 47.408265849385764 ], [ -70.401589890124271, 47.405411323341113 ], [ -70.402041456025117, 47.40023299592977 ], [ -70.408871941020337, 47.397909098950315 ] ] ] } },
{ "type": "Feature", "properties": { "hex_id": 860980, "centroid_lon": -70.407067746290522, "centroid_lat": 47.418622567942535, "occurrences_today": 5, "datetimes_today": "2026-08-22 00:16:42, 2026-08-22 00:31:56, 2026-08-22 00:46:42, 2026-08-22 00:57:03, 2026-08-22 02:01:56", "cumulative_total": 41.0 }, "geometry": { "type": "Polygon", "coordinates": [ [ [ -70.407518983833455, 47.413444212649566 ], [ -70.413900475948267, 47.416298448704197 ], [ -70.413449819103676, 47.421476847777768 ], [ -70.406616382766828, 47.423800915263541 ], [ -70.400234435956563, 47.420946257700272 ], [ -70.400686380134317, 47.415767954227512 ], [ -70.407518983833455, 47.413444212649566 ] ] ] } },
{ "type": "Feature", "properties": { "hex_id": 861590, "centroid_lon": -70.401138198175445, "centroid_lat": 47.410589642774077, "occurrences_today": 5, "datetimes_today": "2026-08-22 00:16:42, 2026-08-22 00:31:56, 2026-08-22 00:46:42, 2026-08-22 00:57:03, 2026-08-22 02:01:56", "cumulative_total": 55.0 }, "geometry": { "type": "Polygon", "coordinates": [ [ [ -70.401589890124271, 47.405411323341113 ], [ -70.407970095439893, 47.408265849385764 ], [ -70.407518983833455, 47.413444212649566 ], [ -70.400686380134317, 47.415767954227512 ], [ -70.394305720590751, 47.41291300674154 ], [ -70.394758118929957, 47.407734739186552 ], [ -70.401589890124271, 47.405411323341113 ] ] ] } },
{ "type": "Feature", "properties": { "hex_id": 862200, "centroid_lon": -70.395210391021138, "centroid_lat": 47.402556463643322, "occurrences_today": 5, "datetimes_today": "2026-08-22 00:16:42, 2026-08-22 00:31:56, 2026-08-22 00:46:42, 2026-08-22 00:57:03, 2026-08-22 02:01:56", "cumulative_total": 41.0 }, "geometry": { "type": "Polygon", "coordinates": [ [ [ -70.395662536908631, 47.397378180113002 ], [ -70.402041456025117, 47.40023299592977 ], [ -70.401589890124271, 47.405411323341113 ], [ -70.394758118929957, 47.407734739186552 ], [ -70.388378746052652, 47.404879501995829 ], [ -70.388831598086142, 47.399701270401238 ], [ -70.395662536908631, 47.397378180113002 ] ] ] } },
{ "type": "Feature", "properties": { "hex_id": 862201, "centroid_lon": -70.393853195959139, "centroid_lat": 47.418091266307123, "occurrences_today": 5, "datetimes_today": "2026-08-22 00:16:42, 2026-08-22 00:31:56, 2026-08-22 00:46:42, 2026-08-22 00:57:03, 2026-08-22 02:01:56", "cumulative_total": 63.0 }, "geometry": { "type": "Polygon", "coordinates": [ [ [ -70.394305720590751, 47.41291300674154 ], [ -70.400686380134317, 47.415767954227512 ], [ -70.400234435956563, 47.420946257700272 ], [ -70.39340054499074, 47.423269517882154 ], [ -70.387019431352314, 47.420414148793185 ], [ -70.38747266273019, 47.415235941192961 ], [ -70.394305720590751, 47.41291300674154 ] ] ] } },
{ "type": "Feature", "properties": { "hex_id": 862811, "centroid_lon": -70.387925767615485, "centroid_lat": 47.410057725593461, "occurrences_today": 5, "datetimes_today": "2026-08-22 00:16:42, 2026-08-22 00:31:56, 2026-08-22 00:46:42, 2026-08-22 00:57:03, 2026-08-22 02:01:56", "cumulative_total": 56.0 }, "geometry": { "type": "Polygon", "coordinates": [ [ [ -70.388378746052652, 47.404879501995829 ], [ -70.394758118929957, 47.407734739186552 ], [ -70.394305720590751, 47.41291300674154 ], [ -70.38747266273019, 47.415235941192961 ], [ -70.38109283622525, 47.412380282466664 ], [ -70.381546521164097, 47.407202110892129 ], [ -70.388378746052652, 47.404879501995829 ] ] ] } },
{ "type": "Feature", "properties": { "hex_id": 862812, "centroid_lon": -70.386566073437393, "centroid_lat": 47.425592348392946, "occurrences_today": 5, "datetimes_today": "2026-08-22 00:16:42, 2026-08-22 00:31:56, 2026-08-22 00:46:42, 2026-08-22 00:57:03, 2026-08-22 02:01:56", "cumulative_total": 56.0 }, "geometry": { "type": "Polygon", "coordinates": [ [ [ -70.387019431352314, 47.420414148793185 ], [ -70.39340054499074, 47.423269517882154 ], [ -70.392947767641104, 47.42844776146547 ], [ -70.386112588940975, 47.430770539991116 ], [ -70.379731021341044, 47.427914749137436 ], [ -70.380185086358267, 47.422736601590493 ], [ -70.387019431352314, 47.420414148793185 ] ] ] } },
{ "type": "Feature", "properties": { "hex_id": 863421, "centroid_lon": -70.382000079499164, "centroid_lat": 47.402023931310715, "occurrences_today": 5, "datetimes_today": "2026-08-22 00:16:42, 2026-08-22 00:31:56, 2026-08-22 00:46:42, 2026-08-22 00:57:03, 2026-08-22 02:01:56", "cumulative_total": 56.0 }, "geometry": { "type": "Polygon", "coordinates": [ [ [ -70.382453511274946, 47.396845743723603 ], [ -70.388831598086142, 47.399701270401238 ], [ -70.388378746052652, 47.404879501995829 ], [ -70.381546521164097, 47.407202110892129 ], [ -70.375167981192121, 47.404346162746364 ], [ -70.375622119225042, 47.399168027240037 ], [ -70.382453511274946, 47.396845743723603 ] ] ] } },
{ "type": "Feature", "properties": { "hex_id": 863422, "centroid_lon": -70.380639024638143, "centroid_lat": 47.417558446033162, "occurrences_today": 5, "datetimes_today": "2026-08-22 00:16:42, 2026-08-22 00:31:56, 2026-08-22 00:46:42, 2026-08-22 00:57:03, 2026-08-22 02:01:56", "cumulative_total": 66.0 }, "geometry": { "type": "Polygon", "coordinates": [ [ [ -70.38109283622525, 47.412380282466664 ], [ -70.38747266273019, 47.415235941192961 ], [ -70.387019431352314, 47.420414148793185 ], [ -70.380185086358267, 47.422736601590493 ], [ -70.373804806359132, 47.419880521166952 ], [ -70.374259324803731, 47.414702409710991 ], [ -70.38109283622525, 47.412380282466664 ] ] ] } },
{ "type": "Feature", "properties": { "hex_id": 864031, "centroid_lon": -70.376076130543126, "centroid_lat": 47.393989883719271, "occurrences_today": 5, "datetimes_today": "2026-08-22 00:16:42, 2026-08-22 00:31:56, 2026-08-22 00:46:42, 2026-08-22 00:57:03, 2026-08-22 02:01:56", "cumulative_total": 82.0 }, "geometry": { "type": "Polygon", "coordinates": [ [ [ -70.376530015190909, 47.388811732185211 ], [ -70.382906816535893, 47.391667548131956 ], [ -70.382453511274946, 47.396845743723603 ], [ -70.375622119225042, 47.399168027240037 ], [ -70.369244865185777, 47.396311789892572 ], [ -70.369699455846231, 47.391133690496979 ], [ -70.376530015190909, 47.388811732185211 ] ] ] } },
{ "type": "Feature", "properties": { "hex_id": 864032, "centroid_lon": -70.374713716399881, "centroid_lat": 47.409524290237066, "occurrences_today": 5, "datetimes_today": "2026-08-22 00:16:42, 2026-08-22 00:31:56, 2026-08-22 00:46:42, 2026-08-22 00:57:03, 2026-08-22 02:01:56", "cumulative_total": 56.0 }, "geometry": { "type": "Polygon", "coordinates": [ [ [ -70.375167981192121, 47.404346162746364 ], [ -70.381546521164097, 47.407202110892129 ], [ -70.38109283622525, 47.412380282466664 ], [ -70.374259324803731, 47.414702409710991 ], [ -70.367880331804514, 47.411846039935511 ], [ -70.368335303209506, 47.406667964613007 ], [ -70.375167981192121, 47.404346162746364 ] ] ] } },
{ "type": "Feature", "properties": { "hex_id": 864033, "centroid_lon": -70.373350161021492, "centroid_lat": 47.425058624603821, "occurrences_today": 5, "datetimes_today": "2026-08-22 00:16:42, 2026-08-22 00:31:56, 2026-08-22 00:46:42, 2026-08-22 00:57:03, 2026-08-22 02:01:56", "cumulative_total": 66.0 }, "geometry": { "type": "Polygon", "coordinates": [ [ [ -70.373804806359132, 47.419880521166952 ], [ -70.380185086358267, 47.422736601590493 ], [ -70.379731021341044, 47.427914749137436 ], [ -70.372895388746187, 47.430236720020396 ], [ -70.366514655386609, 47.427380217737984 ], [ -70.366970007937709, 47.422202166499162 ], [ -70.373804806359132, 47.419880521166952 ] ] ] } },
{ "type": "Feature", "properties": { "hex_id": 864642, "centroid_lon": -70.368790147655062, "centroid_lat": 47.401489881264986, "occurrences_today": 5, "datetimes_today": "2026-08-22 00:16:42, 2026-08-22 00:31:56, 2026-08-22 00:46:42, 2026-08-22 00:57:03, 2026-08-22 02:01:56", "cumulative_total": 82.0 }, "geometry": { "type": "Polygon", "coordinates": [ [ [ -70.369244865185777, 47.396311789892572 ], [ -70.375622119225042, 47.399168027240037 ], [ -70.375167981192121, 47.404346162746364 ], [ -70.368335303209506, 47.406667964613007 ], [ -70.361957596609585, 47.403811305703357 ], [ -70.362413020508356, 47.398633266556836 ], [ -70.369244865185777, 47.396311789892572 ] ] ] } },
{ "type": "Feature", "properties": { "hex_id": 864643, "centroid_lon": -70.367425233395466, "centroid_lat": 47.417024107231271, "occurrences_today": 5, "datetimes_today": "2026-08-22 00:16:42, 2026-08-22 00:31:56, 2026-08-22 00:46:42, 2026-08-22 00:57:03, 2026-08-22 02:01:56", "cumulative_total": 66.0 }, "geometry": { "type": "Polygon", "coordinates": [ [ [ -70.367880331804514, 47.411846039935511 ], [ -70.374259324803731, 47.414702409710991 ], [ -70.373804806359132, 47.419880521166952 ], [ -70.366970007937709, 47.422202166499162 ], [ -70.360590562045076, 47.419345374932369 ], [ -70.361046367422631, 47.414167359892303 ], [ -70.367880331804514, 47.411846039935511 ] ] ] } },
{ "type": "Feature", "properties": { "hex_id": 865252, "centroid_lon": -70.362868317336861, "centroid_lat": 47.393455219377145, "occurrences_today": 5, "datetimes_today": "2026-08-22 00:16:42, 2026-08-22 00:31:56, 2026-08-22 00:46:42, 2026-08-22 00:57:03, 2026-08-22 02:01:56", "cumulative_total": 82.0 }, "geometry": { "type": "Polygon", "coordinates": [ [ [ -70.363323487139709, 47.388277164165501 ], [ -70.369699455846231, 47.391133690496979 ], [ -70.369244865185777, 47.396311789892572 ], [ -70.362413020508356, 47.398633266556836 ], [ -70.356036599707394, 47.395776318730668 ], [ -70.356492475633686, 47.390598315802521 ], [ -70.363323487139709, 47.388277164165501 ] ] ] } },
{ "type": "Feature", "properties": { "hex_id": 865253, "centroid_lon": -70.361502045595898, "centroid_lat": 47.40898933681558, "occurrences_today": 5, "datetimes_today": "2026-08-22 00:16:42, 2026-08-22 00:31:56, 2026-08-22 00:46:42, 2026-08-22 00:57:03, 2026-08-22 02:01:56", "cumulative_total": 81.0 }, "geometry": { "type": "Polygon", "coordinates": [ [ [ -70.361957596609585, 47.403811305703357 ], [ -70.368335303209506, 47.406667964613007 ], [ -70.367880331804514, 47.411846039935511 ], [ -70.361046367422631, 47.414167359892303 ], [ -70.354668208395935, 47.41131027925892 ], [ -70.355124466133219, 47.406132300460058 ], [ -70.361957596609585, 47.403811305703357 ] ] ] } },
{ "type": "Feature", "properties": { "hex_id": 865254, "centroid_lon": -70.360134629418525, "centroid_lat": 47.424523381934605, "occurrences_today": 5, "datetimes_today": "2026-08-22 00:16:42, 2026-08-22 00:31:56, 2026-08-22 00:46:42, 2026-08-22 00:57:03, 2026-08-22 02:01:56", "cumulative_total": 66.0 }, "geometry": { "type": "Polygon", "coordinates": [ [ [ -70.360590562045076, 47.419345374932369 ], [ -70.366970007937709, 47.422202166499162 ], [ -70.366514655386609, 47.427380217737984 ], [ -70.359678569498257, 47.429701380897832 ], [ -70.353298670846272, 47.426844167378121 ], [ -70.353755310797226, 47.421666212719124 ], [ -70.360590562045076, 47.419345374932369 ] ] ] } },
{ "type": "Feature", "properties": { "hex_id": 865863, "centroid_lon": -70.35558059655547, "centroid_lat": 47.400954313616914, "occurrences_today": 5, "datetimes_today": "2026-08-22 00:16:42, 2026-08-22 00:31:56, 2026-08-22 00:46:42, 2026-08-22 00:57:03, 2026-08-22 02:01:56", "cumulative_total": 81.0 }, "geometry": { "type": "Polygon", "coordinates": [ [ [ -70.356036599707394, 47.395776318730668 ], [ -70.362413020508356, 47.398633266556836 ], [ -70.361957596609585, 47.403811305703357 ], [ -70.355124466133219, 47.406132300460058 ], [ -70.348747593371783, 47.403274930977787 ], [ -70.349204303002466, 47.39809698846252 ], [ -70.356036599707394, 47.395776318730668 ] ] ] } },
{ "type": "Feature", "properties": { "hex_id": 865864, "centroid_lon": -70.354211823298854, "centroid_lat": 47.416488250012343, "occurrences_today": 5, "datetimes_today": "2026-08-22 00:16:42, 2026-08-22 00:31:56, 2026-08-22 00:46:42, 2026-08-22 00:57:03, 2026-08-22 02:01:56", "cumulative_total": 81.0 }, "geometry": { "type": "Polygon", "coordinates": [ [ [ -70.354668208395935, 47.41131027925892 ], [ -70.361046367422631, 47.414167359892303 ], [ -70.360590562045076, 47.419345374932369 ], [ -70.353755310797226, 47.421666212719124 ], [ -70.347376699477962, 47.418808710200487 ], [ -70.347833791654324, 47.41363079184795 ], [ -70.354668208395935, 47.41131027925892 ] ] ] } },
{ "type": "Feature", "properties": { "hex_id": 866474, "centroid_lon": -70.348290756270671, "centroid_lat": 47.40845286543999, "occurrences_today": 5, "datetimes_today": "2026-08-22 00:16:42, 2026-08-22 00:31:56, 2026-08-22 00:46:42, 2026-08-22 00:57:03, 2026-08-22 02:01:56", "cumulative_total": 81.0 }, "geometry": { "type": "Polygon", "coordinates": [ [ [ -70.348747593371783, 47.403274930977787 ], [ -70.355124466133219, 47.406132300460058 ], [ -70.354668208395935, 47.41131027925892 ], [ -70.347833791654324, 47.41363079184795 ], [ -70.341456467066692, 47.410773000548097 ], [ -70.341914011002046, 47.405595118544376 ], [ -70.348747593371783, 47.403274930977787 ] ] ] } },
{ "type": "Feature", "properties": { "hex_id": 866475, "centroid_lon": -70.346919479696709, "centroid_lat": 47.423986620496429, "occurrences_today": 5, "datetimes_today": "2026-08-22 00:16:42, 2026-08-22 00:31:56, 2026-08-22 00:46:42, 2026-08-22 00:57:03, 2026-08-22 02:01:56", "cumulative_total": 66.0 }, "geometry": { "type": "Polygon", "coordinates": [ [ [ -70.347376699477962, 47.418808710200487 ], [ -70.353755310797226, 47.421666212719124 ], [ -70.353298670846272, 47.426844167378121 ], [ -70.346462132265742, 47.429164522734567 ], [ -70.340083068788346, 47.426306598169091 ], [ -70.340540996004748, 47.421128740361638 ], [ -70.347376699477962, 47.418808710200487 ] ] ] } },
{ "type": "Feature", "properties": { "hex_id": 867085, "centroid_lon": -70.340998795415885, "centroid_lat": 47.415950874487578, "occurrences_today": 5, "datetimes_today": "2026-08-22 00:16:42, 2026-08-22 00:31:56, 2026-08-22 00:46:42, 2026-08-22 00:57:03, 2026-08-22 02:01:56", "cumulative_total": 81.0 }, "geometry": { "type": "Polygon", "coordinates": [ [ [ -70.341456467066692, 47.410773000548097 ], [ -70.347833791654324, 47.41363079184795 ], [ -70.347376699477962, 47.418808710200487 ], [ -70.340540996004748, 47.421128740361638 ], [ -70.33416321972544, 47.418270527082711 ], [ -70.334621598566116, 47.413092705689301 ], [ -70.341456467066692, 47.410773000548097 ] ] ] } },
{ "type": "Feature", "properties": { "hex_id": 867086, "centroid_lon": -70.339625013721786, "centroid_lat": 47.431484447908787, "occurrences_today": 5, "datetimes_today": "2026-08-22 00:16:42, 2026-08-22 00:31:56, 2026-08-22 00:46:42, 2026-08-22 00:57:03, 2026-08-22 02:01:56", "cumulative_total": 72.0 }, "geometry": { "type": "Polygon", "coordinates": [ [ [ -70.340083068788346, 47.426306598169091 ], [ -70.346462132265742, 47.429164522734567 ], [ -70.346004657140156, 47.434342416913729 ], [ -70.339166830760107, 47.436662289579466 ], [ -70.332787315259338, 47.433803942805625 ], [ -70.333246078117028, 47.428626145642063 ], [ -70.340083068788346, 47.426306598169091 ] ] ] } },
{ "type": "Feature", "properties": { "hex_id": 867696, "centroid_lon": -70.333704712924074, "centroid_lat": 47.423448340400697, "occurrences_today": 5, "datetimes_today": "2026-08-22 00:16:42, 2026-08-22 00:31:56, 2026-08-22 00:46:42, 2026-08-22 00:57:03, 2026-08-22 02:01:56", "cumulative_total": 92.0 }, "geometry": { "type": "Polygon", "coordinates": [ [ [ -70.33416321972544, 47.418270527082711 ], [ -70.340540996004748, 47.421128740361638 ], [ -70.340083068788346, 47.426306598169091 ], [ -70.333246078117028, 47.428626145642063 ], [ -70.326867850280919, 47.425767510222535 ], [ -70.327327064627951, 47.420589749538259 ], [ -70.33416321972544, 47.418270527082711 ] ] ] } },
{ "type": "Feature", "properties": { "hex_id": 524450, "centroid_lon": -74.096257145653567, "centroid_lat": 45.254666188882751, "occurrences_today": 4, "datetimes_today": "2026-08-22 00:16:42, 2026-08-22 00:31:56, 2026-08-22 00:46:42, 2026-08-22 00:57:03", "cumulative_total": 59.0 }, "geometry": { "type": "Polygon", "coordinates": [ [ [ -74.096339561989566, 45.249469801707889 ], [ -74.102669518030851, 45.2521182330239 ], [ -74.102587671403114, 45.257314626818172 ], [ -74.09617470687337, 45.25986257119164 ], [ -74.089844203571744, 45.257213779054084 ], [ -74.089927212052729, 45.252017403428617 ], [ -74.096339561989566, 45.249469801707889 ] ] ] } },
{ "type": "Feature", "properties": { "hex_id": 525061, "centroid_lon": -74.089761172484685, "centroid_lat": 45.262410149811913, "occurrences_today": 1, "datetimes_today": "2026-08-22 00:57:03", "cumulative_total": 54.0 }, "geometry": { "type": "Polygon", "coordinates": [ [ [ -74.089844203571744, 45.257213779054084 ], [ -74.09617470687337, 45.25986257119164 ], [ -74.096092245641501, 45.265058948634518 ], [ -74.089678118783993, 45.26760651570207 ], [ -74.083347068244578, 45.264957362584191 ], [ -74.083430691792913, 45.259761003443117 ], [ -74.089844203571744, 45.257213779054084 ] ] ] } },
{ "type": "Feature", "properties": { "hex_id": 157754, "centroid_lon": -78.111746433544013, "centroid_lat": 48.559483633933304, "occurrences_today": 5, "datetimes_today": "2026-08-22 00:16:42, 2026-08-22 00:31:56, 2026-08-22 00:46:42, 2026-08-22 00:57:03, 2026-08-22 01:16:52", "cumulative_total": 37.0 }, "geometry": { "type": "Polygon", "coordinates": [ [ [ -78.111428064515209, 48.554297278310479 ], [ -78.118353264757218, 48.556707229972233 ], [ -78.118672368700857, 48.561893549254535 ], [ -78.11206489311968, 48.564669983295815 ], [ -78.105138867399518, 48.562259672378012 ], [ -78.104821142771613, 48.557073286746594 ], [ -78.111428064515209, 48.554297278310479 ] ] ] } },
{ "type": "Feature", "properties": { "hex_id": 158365, "centroid_lon": -78.105456682395442, "centroid_lat": 48.567446051755589, "occurrences_today": 5, "datetimes_today": "2026-08-22 00:16:42, 2026-08-22 00:31:56, 2026-08-22 00:46:42, 2026-08-22 00:57:03, 2026-08-22 01:16:52", "cumulative_total": 48.0 }, "geometry": { "type": "Polygon", "coordinates": [ [ [ -78.105138867399518, 48.562259672378012 ], [ -78.11206489311968, 48.564669983295815 ], [ -78.112383443275135, 48.569856326397506 ], [ -78.105774587792212, 48.572632424878819 ], [ -78.09884773649523, 48.570221754521313 ], [ -78.098530566290862, 48.56503534519382 ], [ -78.105138867399518, 48.562259672378012 ] ] ] } },
{ "type": "Feature", "properties": { "hex_id": 158975, "centroid_lon": -78.098213486275554, "centroid_lat": 48.559848929618973, "occurrences_today": 5, "datetimes_today": "2026-08-22 00:16:42, 2026-08-22 00:31:56, 2026-08-22 00:46:42, 2026-08-22 00:57:03, 2026-08-22 01:16:52", "cumulative_total": 30.0 }, "geometry": { "type": "Polygon", "coordinates": [ [ [ -78.09789649641651, 48.554662507797218 ], [ -78.104821142771613, 48.557073286746594 ], [ -78.105138867399518, 48.562259672378012 ], [ -78.098530566290862, 48.56503534519382 ], [ -78.091605094994222, 48.562624206815158 ], [ -78.09128874978056, 48.55743775512159 ], [ -78.09789649641651, 48.554662507797218 ] ] ] } },
{ "type": "Feature", "properties": { "hex_id": 586143, "centroid_lon": -73.438909147732815, "centroid_lat": 45.754263707100989, "occurrences_today": 11, "datetimes_today": "2026-08-22 00:16:42, 2026-08-22 00:31:56, 2026-08-22 00:46:42, 2026-08-22 00:57:03, 2026-08-22 01:16:52, 2026-08-22 01:31:44, 2026-08-22 01:46:42, 2026-08-22 02:01:56, 2026-08-22 02:16:49, 2026-08-22 02:31:58, 2026-08-22 02:46:57", "cumulative_total": 283.0 }, "geometry": { "type": "Polygon", "coordinates": [ [ [ -73.439053999243029, 45.749069060564381 ], [ -73.445407757769175, 45.751754022812385 ], [ -73.445263482222146, 45.756948682589844 ], [ -73.438764256547572, 45.759458348536327 ], [ -73.432409961740007, 45.756773012956593 ], [ -73.43255542887502, 45.75157838482712 ], [ -73.439053999243029, 45.749069060564381 ] ] ] } },
{ "type": "Feature", "properties": { "hex_id": 556827, "centroid_lon": -73.751576259641965, "centroid_lat": 45.571028013326888, "occurrences_today": 11, "datetimes_today": "2026-08-22 00:16:42, 2026-08-22 00:31:56, 2026-08-22 00:46:42, 2026-08-22 00:57:03, 2026-08-22 01:16:52, 2026-08-22 01:31:44, 2026-08-22 01:46:42, 2026-08-22 02:01:56, 2026-08-22 02:16:49, 2026-08-22 02:31:58, 2026-08-22 02:46:57", "cumulative_total": 419.0 }, "geometry": { "type": "Polygon", "coordinates": [ [ [ -73.751691366813219, 45.565832503195409 ], [ -73.758039924605995, 45.568500095486094 ], [ -73.757925392097903, 45.573695615714989 ], [ -73.751461121008887, 45.576223518485186 ], [ -73.745112020020059, 45.573555558121413 ], [ -73.745227733305711, 45.568360063125191 ], [ -73.751691366813219, 45.565832503195409 ] ] ] } },
{ "type": "Feature", "properties": { "hex_id": 582466, "centroid_lon": -73.483368931760381, "centroid_lat": 45.536600695585271, "occurrences_today": 7, "datetimes_today": "2026-08-22 01:16:52, 2026-08-22 01:31:44, 2026-08-22 01:46:42, 2026-08-22 02:01:56, 2026-08-22 02:16:49, 2026-08-22 02:31:58, 2026-08-22 02:46:57", "cumulative_total": 262.0 }, "geometry": { "type": "Polygon", "coordinates": [ [ [ -73.483508595266358, 45.531405741843315 ], [ -73.489840244009571, 45.534088045492382 ], [ -73.489701150487662, 45.539283011977375 ], [ -73.483229230100889, 45.541795644247323 ], [ -73.47689704953352, 45.539112970455399 ], [ -73.477037321164261, 45.533918034600944 ], [ -73.483508595266358, 45.531405741843315 ] ] ] } },
{ "type": "Feature", "properties": { "hex_id": 586743, "centroid_lon": -73.437045220192587, "centroid_lat": 45.590542381676784, "occurrences_today": 2, "datetimes_today": "2026-08-22 00:31:56, 2026-08-22 00:46:42", "cumulative_total": 184.0 }, "geometry": { "type": "Polygon", "coordinates": [ [ [ -73.437189419363435, 45.585347590266551 ], [ -73.443524790060124, 45.588032488259884 ], [ -73.443381161863812, 45.593227292884833 ], [ -73.436900981604325, 45.59573716798613 ], [ -73.430565079357137, 45.593051898734906 ], [ -73.430709888906691, 45.587857125704907 ], [ -73.437189419363435, 45.585347590266551 ] ] ] } },
{ "type": "Feature", "properties": { "hex_id": 587354, "centroid_lon": -73.430420230222225, "centroid_lat": 45.598246666661048, "occurrences_today": 2, "datetimes_today": "2026-08-22 00:31:56, 2026-08-22 00:46:42", "cumulative_total": 160.0 }, "geometry": { "type": "Polygon", "coordinates": [ [ [ -73.430565079357137, 45.593051898734906 ], [ -73.436900981604325, 45.59573716798613 ], [ -73.436756703585388, 45.600931949194468 ], [ -73.430275341488652, 45.60344142948324 ], [ -73.423938907730843, 45.600755788814723 ], [ -73.424084367567048, 45.595561039339394 ], [ -73.430565079357137, 45.593051898734906 ] ] ] } },
{ "type": "Feature", "properties": { "hex_id": 590408, "centroid_lon": -73.39771197723212, "centroid_lat": 45.621177844954083, "occurrences_today": 2, "datetimes_today": "2026-08-22 00:31:56, 2026-08-22 00:46:42", "cumulative_total": 89.0 }, "geometry": { "type": "Polygon", "coordinates": [ [ [ -73.397859962312552, 45.615983180196459 ], [ -73.404196807171374, 45.618670267285928 ], [ -73.404049393449199, 45.62386494565493 ], [ -73.397563951685115, 45.626372504592588 ], [ -73.391226575941459, 45.623685045491257 ], [ -73.391375172833108, 45.618490399528852 ], [ -73.397859962312552, 45.615983180196459 ] ] ] } },
{ "type": "Feature", "properties": { "hex_id": 591019, "centroid_lon": -73.39107793841481, "centroid_lat": 45.628879686331523, "occurrences_today": 2, "datetimes_today": "2026-08-22 00:31:56, 2026-08-22 00:46:42", "cumulative_total": 102.0 }, "geometry": { "type": "Polygon", "coordinates": [ [ [ -73.391226575941459, 45.623685045491257 ], [ -73.397563951685115, 45.626372504592588 ], [ -73.397415885657878, 45.63156715911186 ], [ -73.390929260239474, 45.634074322049514 ], [ -73.384591353651913, 45.631386490776841 ], [ -73.384740603312991, 45.626191868802586 ], [ -73.391226575941459, 45.623685045491257 ] ] ] } },
{ "type": "Feature", "properties": { "hex_id": 591629, "centroid_lon": -73.384889812170584, "centroid_lat": 45.620997241703137, "occurrences_today": 2, "datetimes_today": "2026-08-22 00:31:56, 2026-08-22 00:46:42", "cumulative_total": 130.0 }, "geometry": { "type": "Polygon", "coordinates": [ [ [ -73.385038980238448, 45.6158026094786 ], [ -73.391375172833108, 45.618490399528852 ], [ -73.391226575941459, 45.623685045491257 ], [ -73.384740603312991, 45.626191868802586 ], [ -73.378403880338738, 45.623503706624447 ], [ -73.378553660358833, 45.618309093327582 ], [ -73.385038980238448, 45.6158026094786 ] ] ] } },
{ "type": "Feature", "properties": { "hex_id": 581245, "centroid_lon": -73.496172500729614, "centroid_lat": 45.536770004512022, "occurrences_today": 7, "datetimes_today": "2026-08-22 01:16:52, 2026-08-22 01:31:44, 2026-08-22 01:46:42, 2026-08-22 02:01:56, 2026-08-22 02:16:49, 2026-08-22 02:31:58, 2026-08-22 02:46:57", "cumulative_total": 164.0 }, "geometry": { "type": "Polygon", "coordinates": [ [ [ -73.496310986268313, 45.531575020271433 ], [ -73.502643280814013, 45.534256621946035 ], [ -73.502505365439205, 45.539451618803326 ], [ -73.496033977358906, 45.541964983678284 ], [ -73.489701150487662, 45.539283011977375 ], [ -73.489840244009571, 45.534088045492382 ], [ -73.496310986268313, 45.531575020271433 ] ] ] } },
{ "type": "Feature", "properties": { "hex_id": 587964, "centroid_lon": -73.424229787649949, "centroid_lat": 45.590366284757252, "occurrences_today": 2, "datetimes_today": "2026-08-22 00:31:56, 2026-08-22 00:46:42", "cumulative_total": 105.0 }, "geometry": { "type": "Polygon", "coordinates": [ [ [ -73.424375167992864, 45.585171525068425 ], [ -73.430709888906691, 45.587857125704907 ], [ -73.430565079357137, 45.593051898734906 ], [ -73.424084367567048, 45.595561039339394 ], [ -73.417749115606512, 45.592875067328755 ], [ -73.417895106469402, 45.587680326152416 ], [ -73.424375167992864, 45.585171525068425 ] ] ] } },
{ "type": "Feature", "properties": { "hex_id": 589185, "centroid_lon": -73.411414474327188, "centroid_lat": 45.590188750728366, "occurrences_today": 2, "datetimes_today": "2026-08-22 00:31:56, 2026-08-22 00:46:42", "cumulative_total": 137.0 }, "geometry": { "type": "Polygon", "coordinates": [ [ [ -73.411561035802109, 45.584994023019604 ], [ -73.417895106469402, 45.587680326152416 ], [ -73.417749115606512, 45.592875067328755 ], [ -73.411267872789793, 45.595383473324574 ], [ -73.404933271579722, 45.592696798701468 ], [ -73.405080443715676, 45.587502089637475 ], [ -73.411561035802109, 45.584994023019604 ] ] ] } },
{ "type": "Feature", "properties": { "hex_id": 589796, "centroid_lon": -73.404786059213237, "centroid_lat": 45.597891502649915, "occurrences_today": 2, "datetimes_today": "2026-08-22 00:31:56, 2026-08-22 00:46:42", "cumulative_total": 87.0 }, "geometry": { "type": "Polygon", "coordinates": [ [ [ -73.404933271579722, 45.592696798701468 ], [ -73.411267872789793, 45.595383473324574 ], [ -73.411121231176409, 45.600578190808129 ], [ -73.404638806602691, 45.603086201482689 ], [ -73.398303674890329, 45.600399155209921 ], [ -73.398451498240433, 45.595204469976906 ], [ -73.404933271579722, 45.592696798701468 ] ] ] } },
{ "type": "Feature", "properties": { "hex_id": 591630, "centroid_lon": -73.384442063173651, "centroid_lat": 45.636581107625794, "occurrences_today": 2, "datetimes_today": "2026-08-22 00:31:56, 2026-08-22 00:46:42", "cumulative_total": 121.0 }, "geometry": { "type": "Polygon", "coordinates": [ [ [ -73.384591353651913, 45.631386490776841 ], [ -73.390929260239474, 45.634074322049514 ], [ -73.390780541401767, 45.639268952645139 ], [ -73.38429273186442, 45.641775719349319 ], [ -73.377954294474122, 45.639087515745757 ], [ -73.378104197410167, 45.633892917833649 ], [ -73.384591353651913, 45.631386490776841 ] ] ] } },
{ "type": "Feature", "properties": { "hex_id": 592240, "centroid_lon": -73.378254059360444, "centroid_lat": 45.628698314793176, "occurrences_today": 2, "datetimes_today": "2026-08-22 00:31:56, 2026-08-22 00:46:42", "cumulative_total": 97.0 }, "geometry": { "type": "Polygon", "coordinates": [ [ [ -73.378403880338738, 45.623503706624447 ], [ -73.384740603312991, 45.626191868802586 ], [ -73.384591353651913, 45.631386490776841 ], [ -73.378104197410167, 45.633892917833649 ], [ -73.371766944097573, 45.63120438336815 ], [ -73.371917377351281, 45.626009794197941 ], [ -73.378403880338738, 45.623503706624447 ] ] ] } },
{ "type": "Feature", "properties": { "hex_id": 400536, "centroid_lon": -75.391721932544783, "centroid_lat": 45.530407685378627, "occurrences_today": 4, "datetimes_today": "2026-08-22 02:01:56, 2026-08-22 02:16:49, 2026-08-22 02:31:58, 2026-08-22 02:46:57", "cumulative_total": 15.0 }, "geometry": { "type": "Polygon", "coordinates": [ [ [ -75.391685863534576, 45.525211024320654 ], [ -75.398106748562952, 45.527787220363798 ], [ -75.398143412133138, 45.53298387504713 ], [ -75.391758011410886, 45.53560434166598 ], [ -75.385336521965002, 45.533027794248675 ], [ -75.385301037662188, 45.527831131651361 ], [ -75.391685863534576, 45.525211024320654 ] ] ] } },
{ "type": "Feature", "properties": { "hex_id": 587965, "centroid_lon": -73.423793408127906, "centroid_lat": 45.60595053318314, "occurrences_today": 2, "datetimes_today": "2026-08-22 00:31:56, 2026-08-22 00:46:42", "cumulative_total": 52.0 }, "geometry": { "type": "Polygon", "coordinates": [ [ [ -73.423938907730843, 45.600755788814723 ], [ -73.430275341488652, 45.60344142948324 ], [ -73.43013041314309, 45.60863618720137 ], [ -73.423647868744908, 45.611145272444517 ], [ -73.417310903516494, 45.608459260199282 ], [ -73.41745701414348, 45.603264534352292 ], [ -73.423938907730843, 45.600755788814723 ] ] ] } },
{ "type": "Feature", "properties": { "hex_id": 588576, "centroid_lon": -73.417164752941261, "centroid_lat": 45.613653980936263, "occurrences_today": 2, "datetimes_today": "2026-08-22 00:31:56, 2026-08-22 00:46:42", "cumulative_total": 35.0 }, "geometry": { "type": "Polygon", "coordinates": [ [ [ -73.417310903516494, 45.608459260199282 ], [ -73.423647868744908, 45.611145272444517 ], [ -73.423502289568418, 45.616340006598769 ], [ -73.417018562404351, 45.61884869656312 ], [ -73.410681065745592, 45.616162312581693 ], [ -73.410827827667788, 45.610967610436795 ], [ -73.417310903516494, 45.608459260199282 ] ] ] } },
{ "type": "Feature", "properties": { "hex_id": 589187, "centroid_lon": -73.410534263693449, "centroid_lat": 45.621357009613476, "occurrences_today": 2, "datetimes_today": "2026-08-22 00:31:56, 2026-08-22 00:46:42", "cumulative_total": 35.0 }, "geometry": { "type": "Polygon", "coordinates": [ [ [ -73.410681065745592, 45.616162312581693 ], [ -73.417018562404351, 45.61884869656312 ], [ -73.416872331892336, 45.62404340707976 ], [ -73.410387421497887, 45.626551701532073 ], [ -73.404049393449199, 45.62386494565493 ], [ -73.404196807171374, 45.618670267285928 ], [ -73.410681065745592, 45.616162312581693 ] ] ] } },
{ "type": "Feature", "properties": { "hex_id": 589797, "centroid_lon": -73.404344180595302, "centroid_lat": 45.613475583800806, "occurrences_today": 2, "datetimes_today": "2026-08-22 00:31:56, 2026-08-22 00:46:42", "cumulative_total": 17.0 }, "geometry": { "type": "Polygon", "coordinates": [ [ [ -73.40449151373457, 45.608280895199698 ], [ -73.410827827667788, 45.610967610436795 ], [ -73.410681065745592, 45.616162312581693 ], [ -73.404196807171374, 45.618670267285928 ], [ -73.397859962312552, 45.615983180196459 ], [ -73.398007906939981, 45.610788510319807 ], [ -73.40449151373457, 45.608280895199698 ] ] ] } },
{ "type": "Feature", "properties": { "hex_id": 588575, "centroid_lon": -73.41760308483569, "centroid_lat": 45.598069803395411, "occurrences_today": 2, "datetimes_today": "2026-08-22 00:31:56, 2026-08-22 00:46:42", "cumulative_total": 19.0 }, "geometry": { "type": "Polygon", "coordinates": [ [ [ -73.417749115606512, 45.592875067328755 ], [ -73.424084367567048, 45.595561039339394 ], [ -73.423938907730843, 45.600755788814723 ], [ -73.41745701414348, 45.603264534352292 ], [ -73.411121231176409, 45.600578190808129 ], [ -73.411267872789793, 45.595383473324574 ], [ -73.417749115606512, 45.592875067328755 ] ] ] } },
{ "type": "Feature", "properties": { "hex_id": 589186, "centroid_lon": -73.410974549473579, "centroid_lat": 45.605772903178909, "occurrences_today": 2, "datetimes_today": "2026-08-22 00:31:56, 2026-08-22 00:46:42", "cumulative_total": 16.0 }, "geometry": { "type": "Polygon", "coordinates": [ [ [ -73.411121231176409, 45.600578190808129 ], [ -73.41745701414348, 45.603264534352292 ], [ -73.417310903516494, 45.608459260199282 ], [ -73.410827827667788, 45.610967610436795 ], [ -73.40449151373457, 45.608280895199698 ], [ -73.404638806602691, 45.603086201482689 ], [ -73.411121231176409, 45.600578190808129 ] ] ] } },
{ "type": "Feature", "properties": { "hex_id": 590407, "centroid_lon": -73.398155811128049, "centroid_lat": 45.605593835324264, "occurrences_today": 2, "datetimes_today": "2026-08-22 00:31:56, 2026-08-22 00:46:42", "cumulative_total": 30.0 }, "geometry": { "type": "Polygon", "coordinates": [ [ [ -73.398303674890329, 45.600399155209921 ], [ -73.404638806602691, 45.603086201482689 ], [ -73.40449151373457, 45.608280895199698 ], [ -73.398007906939981, 45.610788510319807 ], [ -73.391672244766042, 45.608101092238009 ], [ -73.391820719834655, 45.602906430909805 ], [ -73.398303674890329, 45.600399155209921 ] ] ] } },
{ "type": "Feature", "properties": { "hex_id": 591018, "centroid_lon": -73.391523729103397, "centroid_lat": 45.613295748444401, "occurrences_today": 2, "datetimes_today": "2026-08-22 00:31:56, 2026-08-22 00:46:42", "cumulative_total": 30.0 }, "geometry": { "type": "Polygon", "coordinates": [ [ [ -73.391672244766042, 45.608101092238009 ], [ -73.398007906939981, 45.610788510319807 ], [ -73.397859962312552, 45.615983180196459 ], [ -73.391375172833108, 45.618490399528852 ], [ -73.385038980238448, 45.6158026094786 ], [ -73.385188107530297, 45.610607972129095 ], [ -73.391672244766042, 45.608101092238009 ] ] ] } },
{ "type": "Feature", "properties": { "hex_id": 561146, "centroid_lon": -73.69014540708055, "centroid_lat": 46.279657068127555, "occurrences_today": 11, "datetimes_today": "2026-08-22 00:16:42, 2026-08-22 00:31:56, 2026-08-22 00:46:42, 2026-08-22 00:57:03, 2026-08-22 01:16:52, 2026-08-22 01:31:44, 2026-08-22 01:46:42, 2026-08-22 02:01:56, 2026-08-22 02:16:49, 2026-08-22 02:31:58, 2026-08-22 02:46:57", "cumulative_total": 25.0 }, "geometry": { "type": "Polygon", "coordinates": [ [ [ -73.690269198330014, 46.274462329530834 ], [ -73.69669534163674, 46.277133852002734 ], [ -73.696572146179065, 46.282328601471235 ], [ -73.690021581695717, 46.284851801726752 ], [ -73.683594876738425, 46.282179901497038 ], [ -73.683719297903352, 46.276985178835929 ], [ -73.690269198330014, 46.274462329530834 ] ] ] } },
{ "type": "Feature", "properties": { "hex_id": 519568, "centroid_lon": -74.146762160528979, "centroid_lat": 45.286236815874716, "occurrences_today": 2, "datetimes_today": "2026-08-22 00:16:42, 2026-08-22 00:31:56", "cumulative_total": 46.0 }, "geometry": { "type": "Polygon", "coordinates": [ [ [ -74.146840057088767, 45.281040387199234 ], [ -74.153175891450203, 45.283686047604085 ], [ -74.153098566203312, 45.288882482402414 ], [ -74.146684242747696, 45.29143323969685 ], [ -74.140347858298412, 45.288787218560167 ], [ -74.1404263473855, 45.283590800924962 ], [ -74.146840057088767, 45.281040387199234 ] ] ] } },
{ "type": "Feature", "properties": { "hex_id": 731446, "centroid_lon": -71.907086813975567, "centroid_lat": 45.785407469805868, "occurrences_today": 1, "datetimes_today": "2026-08-22 00:16:42", "cumulative_total": 90.0 }, "geometry": { "type": "Polygon", "coordinates": [ [ [ -71.907374009505517, 45.780218500989619 ], [ -71.913653200412028, 45.78298682584191 ], [ -71.913366559771987, 45.788175822880596 ], [ -71.906799539837735, 45.790596432485373 ], [ -71.900519872662457, 45.787827720351629 ], [ -71.900807701663666, 45.782638785959115 ], [ -71.907374009505517, 45.780218500989619 ] ] ] } },
{ "type": "Feature", "properties": { "hex_id": 352944, "centroid_lon": -75.897856243510418, "centroid_lat": 45.948475767240033, "occurrences_today": 11, "datetimes_today": "2026-08-22 00:16:42, 2026-08-22 00:31:56, 2026-08-22 00:46:42, 2026-08-22 00:57:03, 2026-08-22 01:16:52, 2026-08-22 01:31:44, 2026-08-22 01:46:42, 2026-08-22 02:01:56, 2026-08-22 02:16:49, 2026-08-22 02:31:58, 2026-08-22 02:46:57", "cumulative_total": 40.0 }, "geometry": { "type": "Polygon", "coordinates": [ [ [ -75.897772359757795, 45.94328000544035 ], [ -75.904264462552561, 45.945827027228525 ], [ -75.904348960351697, 45.951022777427958 ], [ -75.897940150300087, 45.953671524175576 ], [ -75.89144741041784, 45.95112415112645 ], [ -75.8913641176825, 45.945928382656255 ], [ -75.897772359757795, 45.94328000544035 ] ] ] } },
{ "type": "Feature", "properties": { "hex_id": 353554, "centroid_lon": -75.891280847814954, "centroid_lat": 45.940732609323632, "occurrences_today": 11, "datetimes_today": "2026-08-22 00:16:42, 2026-08-22 00:31:56, 2026-08-22 00:46:42, 2026-08-22 00:57:03, 2026-08-22 01:16:52, 2026-08-22 01:31:44, 2026-08-22 01:46:42, 2026-08-22 02:01:56, 2026-08-22 02:16:49, 2026-08-22 02:31:58, 2026-08-22 02:46:57", "cumulative_total": 40.0 }, "geometry": { "type": "Polygon", "coordinates": [ [ [ -75.89119760080743, 45.935536831128594 ], [ -75.89768849903443, 45.938084238776561 ], [ -75.897772359757795, 45.94328000544035 ], [ -75.8913641176825, 45.945928382656255 ], [ -75.884872582875758, 45.943380623773798 ], [ -75.884789926731813, 45.938184838975495 ], [ -75.89119760080743, 45.935536831128594 ] ] ] } },
{ "type": "Feature", "properties": { "hex_id": 774355, "centroid_lon": -71.272986775081037, "centroid_lat": 48.478844381516296, "occurrences_today": 1, "datetimes_today": "2026-08-22 00:16:42", "cumulative_total": 29.0 }, "geometry": { "type": "Polygon", "coordinates": [ [ [ -71.273366934294074, 48.473661283636091 ], [ -71.27992790206865, 48.476471537202031 ], [ -71.279548373767014, 48.48165467122012 ], [ -71.272606507949945, 48.484027472467766 ], [ -71.266045017201591, 48.481216789183087 ], [ -71.266425915204991, 48.476033734440549 ], [ -71.273366934294074, 48.473661283636091 ] ] ] } }
]
}
