{
"type": "FeatureCollection",
"name": "daily_2026-04-07",
"crs": { "type": "name", "properties": { "name": "urn:ogc:def:crs:OGC:1.3:CRS84" } },
"features": [
{ "type": "Feature", "properties": { "hex_id": 431131, "centroid_lon": -75.072982254422499, "centroid_lat": 46.622275128238442, "occurrences_today": 14, "datetimes_today": "2026-04-07 00:01:35, 2026-04-07 00:16:32, 2026-04-07 00:31:57, 2026-04-07 00:46:31, 2026-04-07 01:02:06, 2026-04-07 01:16:35, 2026-04-07 01:46:44, 2026-04-07 02:01:35, 2026-04-07 02:16:33, 2026-04-07 02:31:41, 2026-04-07 02:46:49, 2026-04-07 03:16:40, 2026-04-07 03:31:39, 2026-04-07 03:50:35", "cumulative_total": 60.0 }, "geometry": { "type": "Polygon", "coordinates": [ [ [ -75.072975273491011, 46.617079346821164 ], [ -75.079509296293708, 46.619672886149637 ], [ -75.079516902968507, 46.624868664410904 ], [ -75.072989237288112, 46.627470904914404 ], [ -75.066454586807666, 46.624876997100728 ], [ -75.066448229686003, 46.619681217336051 ], [ -75.072975273491011, 46.617079346821164 ] ] ] } },
{ "type": "Feature", "properties": { "hex_id": 627038, "centroid_lon": -73.013104189942808, "centroid_lat": 45.615134130264018, "occurrences_today": 14, "datetimes_today": "2026-04-07 02:16:33, 2026-04-07 02:31:41, 2026-04-07 02:46:49, 2026-04-07 03:16:40, 2026-04-07 03:31:39, 2026-04-07 03:50:35, 2026-04-07 04:01:29, 2026-04-07 04:14:15, 2026-04-07 04:31:23, 2026-04-07 04:46:49, 2026-04-07 05:01:47, 2026-04-07 05:16:45, 2026-04-07 05:31:40, 2026-04-07 06:01:34", "cumulative_total": 17.0 }, "geometry": { "type": "Polygon", "coordinates": [ [ [ -73.013287645418046, 45.609940554082215 ], [ -73.019604721278398, 45.612648665313628 ], [ -73.019421831634503, 45.617842258888835 ], [ -73.012920684315844, 45.62032770112738 ], [ -73.006603092784317, 45.617619214451892 ], [ -73.006787164225756, 45.612425661046544 ], [ -73.013287645418046, 45.609940554082215 ] ] ] } },
{ "type": "Feature", "properties": { "hex_id": 1187792, "centroid_lon": -66.388321727349123, "centroid_lat": 50.221196069751116, "occurrences_today": 3, "datetimes_today": "2026-04-07 07:16:31, 2026-04-07 07:31:42, 2026-04-07 08:01:34", "cumulative_total": 27.0 }, "geometry": { "type": "Polygon", "coordinates": [ [ [ -66.389252935977055, 50.216062147490398 ], [ -66.3957169097649, 50.219146345090834 ], [ -66.394786293226829, 50.224280352409757 ], [ -66.387390249320987, 50.226329974826889 ], [ -66.380925952893961, 50.223245286983108 ], [ -66.381858022911047, 50.218111467036458 ], [ -66.389252935977055, 50.216062147490398 ] ] ] } },
{ "type": "Feature", "properties": { "hex_id": 581252, "centroid_lon": -73.493255545612783, "centroid_lat": 45.645863501241514, "occurrences_today": 2, "datetimes_today": "2026-04-07 07:31:42, 2026-04-07 08:01:34", "cumulative_total": 154.0 }, "geometry": { "type": "Polygon", "coordinates": [ [ [ -73.493394828299841, 45.640668623582499 ], [ -73.499739128785819, 45.643350490780286 ], [ -73.499600419516426, 45.648545381113323 ], [ -73.493116224825627, 45.651058373824149 ], [ -73.48677138902849, 45.648376135184641 ], [ -73.486911283220508, 45.643181275340829 ], [ -73.493394828299841, 45.640668623582499 ] ] ] } },
{ "type": "Feature", "properties": { "hex_id": 604430, "centroid_lon": -73.259643669966394, "centroid_lat": 45.31514024935197, "occurrences_today": 1, "datetimes_today": "2026-04-07 08:01:34", "cumulative_total": 140.0 }, "geometry": { "type": "Polygon", "coordinates": [ [ [ -73.259802697866505, 45.309945670953788 ], [ -73.266098978594513, 45.312639957367274 ], [ -73.265940511025306, 45.317834550646772 ], [ -73.259484598742418, 45.320334822567879 ], [ -73.25318780101459, 45.317640166761393 ], [ -73.253347432554989, 45.312445608490769 ], [ -73.259802697866505, 45.309945670953788 ] ] ] } },
{ "type": "Feature", "properties": { "hex_id": 577583, "centroid_lon": -73.534178809272461, "centroid_lat": 45.55285451587087, "occurrences_today": 29, "datetimes_today": "2026-04-07 00:01:35, 2026-04-07 00:16:32, 2026-04-07 00:31:57, 2026-04-07 00:46:31, 2026-04-07 01:02:06, 2026-04-07 01:16:35, 2026-04-07 01:46:44, 2026-04-07 02:01:35, 2026-04-07 02:16:33, 2026-04-07 02:31:41, 2026-04-07 02:46:49, 2026-04-07 03:16:40, 2026-04-07 03:31:39, 2026-04-07 03:50:35, 2026-04-07 04:01:29, 2026-04-07 04:14:15, 2026-04-07 04:31:23, 2026-04-07 04:46:49, 2026-04-07 05:01:47, 2026-04-07 05:16:45, 2026-04-07 05:31:40, 2026-04-07 06:01:34, 2026-04-07 06:17:22, 2026-04-07 06:31:24, 2026-04-07 06:45:18, 2026-04-07 07:01:44, 2026-04-07 07:16:31, 2026-04-07 07:31:42, 2026-04-07 08:01:34", "cumulative_total": 104.0 }, "geometry": { "type": "Polygon", "coordinates": [ [ [ -73.534313871321373, 45.547659456857865 ], [ -73.540649813066267, 45.550338988455394 ], [ -73.540515322183836, 45.55553405971385 ], [ -73.534043710318983, 45.558049569825684 ], [ -73.52770723431837, 45.555369668350536 ], [ -73.527842904425938, 45.550174626705761 ], [ -73.534313871321373, 45.547659456857865 ] ] ] } },
{ "type": "Feature", "properties": { "hex_id": 578194, "centroid_lon": -73.527571527139074, "centroid_lat": 45.560564704934364, "occurrences_today": 6, "datetimes_today": "2026-04-07 00:01:35, 2026-04-07 00:16:32, 2026-04-07 00:31:57, 2026-04-07 00:46:31, 2026-04-07 01:02:06, 2026-04-07 01:16:35", "cumulative_total": 33.0 }, "geometry": { "type": "Polygon", "coordinates": [ [ [ -73.52770723431837, 45.555369668350536 ], [ -73.534043710318983, 45.558049569825684 ], [ -73.533908574448546, 45.563244618722223 ], [ -73.527435782875571, 45.565759736457146 ], [ -73.521098772656529, 45.563079464944998 ], [ -73.521235088216415, 45.557884445799516 ], [ -73.52770723431837, 45.555369668350536 ] ] ] } },
{ "type": "Feature", "properties": { "hex_id": 584902, "centroid_lon": -73.460312562756727, "centroid_lat": 45.442748939803273, "occurrences_today": 10, "datetimes_today": "2026-04-07 00:01:35, 2026-04-07 00:16:32, 2026-04-07 00:31:57, 2026-04-07 00:46:31, 2026-04-07 01:02:06, 2026-04-07 01:16:35, 2026-04-07 01:46:44, 2026-04-07 02:01:35, 2026-04-07 02:16:33, 2026-04-07 02:31:41", "cumulative_total": 139.0 }, "geometry": { "type": "Polygon", "coordinates": [ [ [ -73.4604538859667, 45.437553956209591 ], [ -73.466774014802652, 45.440237429923194 ], [ -73.466633258448923, 45.445432426462553 ], [ -73.460171200983766, 45.447943918307637 ], [ -73.45385054386098, 45.445260075428116 ], [ -73.453992472477282, 45.440065109933762 ], [ -73.4604538859667, 45.437553956209591 ] ] ] } },
{ "type": "Feature", "properties": { "hex_id": 804261, "centroid_lon": -70.952783514728679, "centroid_lat": 48.335523362367134, "occurrences_today": 1, "datetimes_today": "2026-04-07 08:01:34", "cumulative_total": 17.0 }, "geometry": { "type": "Polygon", "coordinates": [ [ [ -70.953194212135841, 48.330342105142996 ], [ -70.959718415386433, 48.333169695265191 ], [ -70.959308338321904, 48.338350991698668 ], [ -70.952372701031564, 48.340704612276049 ], [ -70.945847993749297, 48.337876591868024 ], [ -70.946259427747066, 48.332695381238914 ], [ -70.953194212135841, 48.330342105142996 ] ] ] } },
{ "type": "Feature", "properties": { "hex_id": 804871, "centroid_lon": -70.946670745285189, "centroid_lat": 48.327514163286367, "occurrences_today": 1, "datetimes_today": "2026-04-07 08:01:34", "cumulative_total": 22.0 }, "geometry": { "type": "Polygon", "coordinates": [ [ [ -70.947081946405689, 48.3223329380113 ], [ -70.953604793295, 48.325160840604497 ], [ -70.953194212135841, 48.330342105142996 ], [ -70.946259427747066, 48.332695381238914 ], [ -70.939736077335056, 48.32986704842628 ], [ -70.940148014792555, 48.324685869807574 ], [ -70.947081946405689, 48.3223329380113 ] ] ] } },
{ "type": "Feature", "properties": { "hex_id": 576972, "centroid_lon": -73.540784267211237, "centroid_lat": 45.545143912141498, "occurrences_today": 6, "datetimes_today": "2026-04-07 00:01:35, 2026-04-07 00:16:32, 2026-04-07 00:31:57, 2026-04-07 00:46:31, 2026-04-07 01:02:06, 2026-04-07 01:16:35", "cumulative_total": 153.0 }, "geometry": { "type": "Polygon", "coordinates": [ [ [ -73.540918684631094, 45.539948830772239 ], [ -73.547254092083151, 45.542627992651511 ], [ -73.547120245687395, 45.547823086198996 ], [ -73.540649813066267, 45.550338988455394 ], [ -73.534313871321373, 45.547659456857865 ], [ -73.534448896478111, 45.542464392786776 ], [ -73.540918684631094, 45.539948830772239 ] ] ] } },
{ "type": "Feature", "properties": { "hex_id": 363298, "centroid_lon": -75.78283659611327, "centroid_lat": 45.567372662762843, "occurrences_today": 5, "datetimes_today": "2026-04-07 04:46:49, 2026-04-07 05:01:47, 2026-04-07 05:16:45, 2026-04-07 05:31:40, 2026-04-07 06:01:34", "cumulative_total": 93.0 }, "geometry": { "type": "Polygon", "coordinates": [ [ [ -75.782764422758021, 45.562176399637217 ], [ -75.789207103974562, 45.564730448447413 ], [ -75.78927987780655, 45.569926701210079 ], [ -75.782908789197378, 45.572568921051705 ], [ -75.776465487771944, 45.570014524486474 ], [ -75.776393895171211, 45.564818255899375 ], [ -75.782764422758021, 45.562176399637217 ] ] ] } },
{ "type": "Feature", "properties": { "hex_id": 570865, "centroid_lon": -73.605585166670551, "centroid_lat": 45.514772617430772, "occurrences_today": 1, "datetimes_today": "2026-04-07 06:01:34", "cumulative_total": 178.0 }, "geometry": { "type": "Polygon", "coordinates": [ [ [ -73.605713480183979, 45.50957736175021 ], [ -73.612048674660471, 45.512252938863924 ], [ -73.611920932136627, 45.517448206074725 ], [ -73.605456818111549, 45.519967868082809 ], [ -73.599121087696915, 45.517291922239899 ], [ -73.599250007233749, 45.512096683182634 ], [ -73.605713480183979, 45.50957736175021 ] ] ] } },
{ "type": "Feature", "properties": { "hex_id": 567200, "centroid_lon": -73.644731589212739, "centroid_lat": 45.484062865911191, "occurrences_today": 1, "datetimes_today": "2026-04-07 08:01:34", "cumulative_total": 413.0 }, "geometry": { "type": "Polygon", "coordinates": [ [ [ -73.644856167759627, 45.478867496860872 ], [ -73.651189856732543, 45.481540898336519 ], [ -73.651065848780647, 45.48673627852272 ], [ -73.644606976652412, 45.489258229948611 ], [ -73.638272751103656, 45.486584460498399 ], [ -73.638397934247578, 45.481389107661329 ], [ -73.644856167759627, 45.478867496860872 ] ] ] } },
{ "type": "Feature", "properties": { "hex_id": 549496, "centroid_lon": -73.830071862845401, "centroid_lat": 45.493907048585001, "occurrences_today": 1, "datetimes_today": "2026-04-07 08:01:34", "cumulative_total": 180.0 }, "geometry": { "type": "Polygon", "coordinates": [ [ [ -73.830179444048142, 45.48871131753927 ], [ -73.836523200291239, 45.491374533310413 ], [ -73.8364161924721, 45.496570273658726 ], [ -73.829964252264404, 45.499102774685149 ], [ -73.823619952020906, 45.496439192557688 ], [ -73.823728135975642, 45.491243475824646 ], [ -73.830179444048142, 45.48871131753927 ] ] ] } },
{ "type": "Feature", "properties": { "hex_id": 645343, "centroid_lon": -72.826860829025904, "centroid_lat": 45.455836382801181, "occurrences_today": 21, "datetimes_today": "2026-04-07 00:01:35, 2026-04-07 00:16:32, 2026-04-07 00:31:57, 2026-04-07 00:46:31, 2026-04-07 01:02:06, 2026-04-07 01:16:35, 2026-04-07 01:46:44, 2026-04-07 02:01:35, 2026-04-07 02:16:33, 2026-04-07 02:31:41, 2026-04-07 02:46:49, 2026-04-07 03:16:40, 2026-04-07 03:31:39, 2026-04-07 03:50:35, 2026-04-07 04:01:29, 2026-04-07 04:14:15, 2026-04-07 04:31:23, 2026-04-07 04:46:49, 2026-04-07 05:01:47, 2026-04-07 05:16:45, 2026-04-07 05:31:40", "cumulative_total": 46.0 }, "geometry": { "type": "Polygon", "coordinates": [ [ [ -72.827060362133679, 45.450643275276164 ], [ -72.833350578312476, 45.453361271309582 ], [ -72.833151603689245, 45.458554397992145 ], [ -72.826661241482398, 45.461029484899029 ], [ -72.820370521263911, 45.458311113791162 ], [ -72.820570667273742, 45.453118030915029 ], [ -72.827060362133679, 45.450643275276164 ] ] ] } },
{ "type": "Feature", "properties": { "hex_id": 584291, "centroid_lon": -73.466914732759591, "centroid_lat": 45.435042428297407, "occurrences_today": 10, "datetimes_today": "2026-04-07 00:01:35, 2026-04-07 00:16:32, 2026-04-07 00:31:57, 2026-04-07 00:46:31, 2026-04-07 01:02:06, 2026-04-07 01:16:35, 2026-04-07 01:46:44, 2026-04-07 02:01:35, 2026-04-07 02:16:33, 2026-04-07 02:31:41", "cumulative_total": 147.0 }, "geometry": { "type": "Polygon", "coordinates": [ [ [ -73.467055412332641, 45.429847421585279 ], [ -73.473375012843078, 45.432530526291551 ], [ -73.473234899985869, 45.43772554588228 ], [ -73.466774014802652, 45.440237429923194 ], [ -73.4604538859667, 45.437553956209591 ], [ -73.460595170626647, 45.432358967526724 ], [ -73.467055412332641, 45.429847421585279 ] ] ] } },
{ "type": "Feature", "properties": { "hex_id": 728985, "centroid_lon": -71.948890533810186, "centroid_lat": 45.490312650539323, "occurrences_today": 5, "datetimes_today": "2026-04-07 00:01:35, 2026-04-07 00:16:32, 2026-04-07 00:31:57, 2026-04-07 00:46:31, 2026-04-07 01:02:06", "cumulative_total": 10.0 }, "geometry": { "type": "Polygon", "coordinates": [ [ [ -71.949170952157885, 45.48512320925277 ], [ -71.955420158674727, 45.487888568679004 ], [ -71.9551402872127, 45.493078037632245 ], [ -71.94861003898194, 45.495502085738927 ], [ -71.94236036207279, 45.492736343209835 ], [ -71.942641403761101, 45.487546935740838 ], [ -71.949170952157885, 45.48512320925277 ] ] ] } },
{ "type": "Feature", "properties": { "hex_id": 553163, "centroid_lon": -73.790349629190914, "centroid_lat": 45.555854913923326, "occurrences_today": 13, "datetimes_today": "2026-04-07 00:01:35, 2026-04-07 00:16:32, 2026-04-07 00:31:57, 2026-04-07 00:46:31, 2026-04-07 01:02:06, 2026-04-07 01:16:35, 2026-04-07 01:46:44, 2026-04-07 02:01:35, 2026-04-07 02:16:33, 2026-04-07 02:31:41, 2026-04-07 02:46:49, 2026-04-07 03:16:40, 2026-04-07 03:31:39", "cumulative_total": 53.0 }, "geometry": { "type": "Polygon", "coordinates": [ [ [ -73.790461102950488, 45.550659314386671 ], [ -73.796809845988207, 45.553324759806124 ], [ -73.796698946954038, 45.55852036905226 ], [ -73.790238124967772, 45.5610505085006 ], [ -73.783888837673302, 45.558384695566055 ], [ -73.784000916611646, 45.553189110762908 ], [ -73.790461102950488, 45.550659314386671 ] ] ] } },
{ "type": "Feature", "properties": { "hex_id": 565987, "centroid_lon": -73.654552332278186, "centroid_lat": 45.608901962025158, "occurrences_today": 12, "datetimes_today": "2026-04-07 04:46:49, 2026-04-07 05:01:47, 2026-04-07 05:16:45, 2026-04-07 05:31:40, 2026-04-07 06:01:34, 2026-04-07 06:17:22, 2026-04-07 06:31:24, 2026-04-07 06:45:18, 2026-04-07 07:01:44, 2026-04-07 07:16:31, 2026-04-07 07:31:42, 2026-04-07 08:01:34", "cumulative_total": 46.0 }, "geometry": { "type": "Polygon", "coordinates": [ [ [ -73.654676547535146, 45.603706685967445 ], [ -73.661024615971087, 45.606379649883372 ], [ -73.660900975212698, 45.611574937009038 ], [ -73.654428083055663, 45.614097233073203 ], [ -73.648079474092441, 45.611423899691474 ], [ -73.648204297802124, 45.606228639776113 ], [ -73.654676547535146, 45.603706685967445 ] ] ] } },
{ "type": "Feature", "properties": { "hex_id": 777914, "centroid_lon": -71.347272098566421, "centroid_lat": 46.860137079162449, "occurrences_today": 5, "datetimes_today": "2026-04-07 06:45:18, 2026-04-07 07:01:44, 2026-04-07 07:16:31, 2026-04-07 07:31:42, 2026-04-07 08:01:34", "cumulative_total": 14.0 }, "geometry": { "type": "Polygon", "coordinates": [ [ [ -71.34762416701976, 46.854952079698059 ], [ -71.353994158600258, 46.857753545746434 ], [ -71.353642668965136, 46.862938579486652 ], [ -71.346919932458064, 46.865322071877088 ], [ -71.340549459731292, 46.86252019955139 ], [ -71.340902204623987, 46.857335241179427 ], [ -71.34762416701976, 46.854952079698059 ] ] ] } },
{ "type": "Feature", "properties": { "hex_id": 466518, "centroid_lon": -74.696108267126718, "centroid_lat": 46.278962534114306, "occurrences_today": 1, "datetimes_today": "2026-04-07 08:01:34", "cumulative_total": 116.0 }, "geometry": { "type": "Polygon", "coordinates": [ [ [ -74.696136988872709, 46.273766508335846 ], [ -74.702612178608291, 46.276381585269903 ], [ -74.70258406634035, 46.281577611747132 ], [ -74.696079537458829, 46.284158555135377 ], [ -74.689603746168459, 46.281543110297108 ], [ -74.689633085311669, 46.276347090041263 ], [ -74.696136988872709, 46.273766508335846 ] ] ] } },
{ "type": "Feature", "properties": { "hex_id": 487850, "centroid_lon": -74.474236098989309, "centroid_lat": 45.724745491097416, "occurrences_today": 6, "datetimes_today": "2026-04-07 01:46:44, 2026-04-07 02:01:35, 2026-04-07 02:16:33, 2026-04-07 02:31:41, 2026-04-07 02:46:49, 2026-04-07 03:16:40", "cumulative_total": 63.0 }, "geometry": { "type": "Polygon", "coordinates": [ [ [ -74.474284839058214, 45.719549105077682 ], [ -74.480685372475321, 45.722176683368438 ], [ -74.480637221385564, 45.727373072290739 ], [ -74.474187345570854, 45.729941872329469 ], [ -74.467786236526393, 45.727313930984252 ], [ -74.467835578919491, 45.722117552719915 ], [ -74.474284839058214, 45.719549105077682 ] ] ] } },
{ "type": "Feature", "properties": { "hex_id": 501887, "centroid_lon": -74.327300981119379, "centroid_lat": 45.653820131972687, "occurrences_today": 2, "datetimes_today": "2026-04-07 04:14:15, 2026-04-07 04:31:23", "cumulative_total": 59.0 }, "geometry": { "type": "Polygon", "coordinates": [ [ [ -74.327363188031228, 45.648623820747098 ], [ -74.333748703109009, 45.651259579166293 ], [ -74.333687081055302, 45.656455894762253 ], [ -74.327238757184745, 45.65901643838486 ], [ -74.320852674274448, 45.656380316366374 ], [ -74.320915483061484, 45.6511840143895 ], [ -74.327363188031228, 45.648623820747098 ] ] ] } },
{ "type": "Feature", "properties": { "hex_id": 527542, "centroid_lon": -74.054122972132404, "centroid_lat": 45.870141533335264, "occurrences_today": 1, "datetimes_today": "2026-04-07 07:31:42", "cumulative_total": 62.0 }, "geometry": { "type": "Polygon", "coordinates": [ [ [ -74.054211100901952, 45.864945770174451 ], [ -74.06060806778126, 45.867596788843599 ], [ -74.060520526937836, 45.872792559143583 ], [ -74.054034819183954, 45.87533729161887 ], [ -74.047637288561532, 45.872685903955258 ], [ -74.047726029427906, 45.867490152876229 ], [ -74.054211100901952, 45.864945770174451 ] ] ] } },
{ "type": "Feature", "properties": { "hex_id": 585512, "centroid_lon": -73.45413436237736, "centroid_lat": 45.434870139347311, "occurrences_today": 10, "datetimes_today": "2026-04-07 00:01:35, 2026-04-07 00:16:32, 2026-04-07 00:31:57, 2026-04-07 00:46:31, 2026-04-07 01:02:06, 2026-04-07 01:16:35, 2026-04-07 01:46:44, 2026-04-07 02:01:35, 2026-04-07 02:16:33, 2026-04-07 02:31:41", "cumulative_total": 114.0 }, "geometry": { "type": "Polygon", "coordinates": [ [ [ -73.454276213574147, 45.42967516366889 ], [ -73.460595170626647, 45.432358967526724 ], [ -73.4604538859667, 45.437553956209591 ], [ -73.453992472477282, 45.440065109933762 ], [ -73.447672987597684, 45.437380936952678 ], [ -73.447815444021657, 45.43218597943499 ], [ -73.454276213574147, 45.42967516366889 ] ] ] } },
{ "type": "Feature", "properties": { "hex_id": 362687, "centroid_lon": -75.789134350029457, "centroid_lat": 45.559534190846534, "occurrences_today": 5, "datetimes_today": "2026-04-07 04:46:49, 2026-04-07 05:01:47, 2026-04-07 05:16:45, 2026-04-07 05:31:40, 2026-04-07 06:01:34", "cumulative_total": 13.0 }, "geometry": { "type": "Polygon", "coordinates": [ [ [ -75.78906161596457, 45.55433792840747 ], [ -75.795503676992197, 45.556891629625518 ], [ -75.795577011362468, 45.562087881638369 ], [ -75.789207103974562, 45.564730448447413 ], [ -75.782764422758021, 45.562176399637217 ], [ -75.782692269124979, 45.556980131674848 ], [ -75.78906161596457, 45.55433792840747 ] ] ] } },
{ "type": "Feature", "properties": { "hex_id": 551324, "centroid_lon": -73.812025120510853, "centroid_lat": 45.439153784496952, "occurrences_today": 3, "datetimes_today": "2026-04-07 07:16:31, 2026-04-07 07:31:42, 2026-04-07 08:01:34", "cumulative_total": 46.0 }, "geometry": { "type": "Polygon", "coordinates": [ [ [ -73.812134152719892, 45.433958037167343 ], [ -73.818470952215577, 45.436622210206004 ], [ -73.818362491497638, 45.44181796700591 ], [ -73.811916058547041, 45.444349526875023 ], [ -73.805578717320003, 45.441684988000468 ], [ -73.805688350764953, 45.436489255157085 ], [ -73.812134152719892, 45.433958037167343 ] ] ] } },
{ "type": "Feature", "properties": { "hex_id": 677750, "centroid_lon": -72.45257081323129, "centroid_lat": 46.235389111329759, "occurrences_today": 1, "datetimes_today": "2026-04-07 08:01:34", "cumulative_total": 50.0 }, "geometry": { "type": "Polygon", "coordinates": [ [ [ -72.452811135310128, 46.230198114986749 ], [ -72.45916909048664, 46.23293786108588 ], [ -72.458929344965014, 46.238128880566784 ], [ -72.452330424969702, 46.240580101970721 ], [ -72.445971959430054, 46.237839967376694 ], [ -72.446212924226217, 46.232648999939471 ], [ -72.452811135310128, 46.230198114986749 ] ] ] } },
{ "type": "Feature", "properties": { "hex_id": 805297, "centroid_lon": -71.151198684322082, "centroid_lat": 45.458395457431472, "occurrences_today": 29, "datetimes_today": "2026-04-07 00:01:35, 2026-04-07 00:16:32, 2026-04-07 00:31:57, 2026-04-07 00:46:31, 2026-04-07 01:02:06, 2026-04-07 01:16:35, 2026-04-07 01:46:44, 2026-04-07 02:01:35, 2026-04-07 02:16:33, 2026-04-07 02:31:41, 2026-04-07 02:46:49, 2026-04-07 03:16:40, 2026-04-07 03:31:39, 2026-04-07 03:50:35, 2026-04-07 04:01:29, 2026-04-07 04:14:15, 2026-04-07 04:31:23, 2026-04-07 04:46:49, 2026-04-07 05:01:47, 2026-04-07 05:16:45, 2026-04-07 05:31:40, 2026-04-07 06:01:34, 2026-04-07 06:17:22, 2026-04-07 06:31:24, 2026-04-07 06:45:18, 2026-04-07 07:01:44, 2026-04-07 07:16:31, 2026-04-07 07:31:42, 2026-04-07 08:01:34", "cumulative_total": 227.0 }, "geometry": { "type": "Polygon", "coordinates": [ [ [ -71.151551924669818, 45.453210347631845 ], [ -71.157755759066518, 45.456018024169715 ], [ -71.157403052790585, 45.461203169214819 ], [ -71.150845347750376, 45.463580560356363 ], [ -71.144641075521932, 45.46077249461981 ], [ -71.144994946133309, 45.455587427003863 ], [ -71.151551924669818, 45.453210347631845 ] ] ] } },
{ "type": "Feature", "properties": { "hex_id": 805907, "centroid_lon": -71.145348720379204, "centroid_lat": 45.450402352506536, "occurrences_today": 29, "datetimes_today": "2026-04-07 00:01:35, 2026-04-07 00:16:32, 2026-04-07 00:31:57, 2026-04-07 00:46:31, 2026-04-07 01:02:06, 2026-04-07 01:16:35, 2026-04-07 01:46:44, 2026-04-07 02:01:35, 2026-04-07 02:16:33, 2026-04-07 02:31:41, 2026-04-07 02:46:49, 2026-04-07 03:16:40, 2026-04-07 03:31:39, 2026-04-07 03:50:35, 2026-04-07 04:01:29, 2026-04-07 04:14:15, 2026-04-07 04:31:23, 2026-04-07 04:46:49, 2026-04-07 05:01:47, 2026-04-07 05:16:45, 2026-04-07 05:31:40, 2026-04-07 06:01:34, 2026-04-07 06:17:22, 2026-04-07 06:31:24, 2026-04-07 06:45:18, 2026-04-07 07:01:44, 2026-04-07 07:16:31, 2026-04-07 07:31:42, 2026-04-07 08:01:34", "cumulative_total": 60.0 }, "geometry": { "type": "Polygon", "coordinates": [ [ [ -71.145702398291803, 45.445217271128584 ], [ -71.151905068825698, 45.448025230958251 ], [ -71.151551924669818, 45.453210347631845 ], [ -71.144994946133309, 45.455587427003863 ], [ -71.138791838192091, 45.452779078032904 ], [ -71.139146146162531, 45.447594038894657 ], [ -71.145702398291803, 45.445217271128584 ] ] ] } },
{ "type": "Feature", "properties": { "hex_id": 807128, "centroid_lon": -71.132589360466199, "centroid_lat": 45.449970410619507, "occurrences_today": 29, "datetimes_today": "2026-04-07 00:01:35, 2026-04-07 00:16:32, 2026-04-07 00:31:57, 2026-04-07 00:46:31, 2026-04-07 01:02:06, 2026-04-07 01:16:35, 2026-04-07 01:46:44, 2026-04-07 02:01:35, 2026-04-07 02:16:33, 2026-04-07 02:31:41, 2026-04-07 02:46:49, 2026-04-07 03:16:40, 2026-04-07 03:31:39, 2026-04-07 03:50:35, 2026-04-07 04:01:29, 2026-04-07 04:14:15, 2026-04-07 04:31:23, 2026-04-07 04:46:49, 2026-04-07 05:01:47, 2026-04-07 05:16:45, 2026-04-07 05:31:40, 2026-04-07 06:01:34, 2026-04-07 06:17:22, 2026-04-07 06:31:24, 2026-04-07 06:45:18, 2026-04-07 07:01:44, 2026-04-07 07:16:31, 2026-04-07 07:31:42, 2026-04-07 08:01:34", "cumulative_total": 60.0 }, "geometry": { "type": "Polygon", "coordinates": [ [ [ -71.132944201987584, 45.444785406897111 ], [ -71.139146146162531, 45.447594038894657 ], [ -71.138791838192091, 45.452779078032904 ], [ -71.132234422296534, 45.45515540744718 ], [ -71.126032041235064, 45.45234638621293 ], [ -71.126387512923387, 45.447161424864532 ], [ -71.132944201987584, 45.444785406897111 ] ] ] } },
{ "type": "Feature", "properties": { "hex_id": 787073, "centroid_lon": -71.247458153903011, "centroid_lat": 46.880287317426884, "occurrences_today": 5, "datetimes_today": "2026-04-07 01:16:35, 2026-04-07 01:46:44, 2026-04-07 02:01:35, 2026-04-07 02:16:33, 2026-04-07 02:31:41", "cumulative_total": 13.0 }, "geometry": { "type": "Polygon", "coordinates": [ [ [ -71.247820084005284, 46.87510292157959 ], [ -71.254186857067083, 46.87790986303812 ], [ -71.25382550480029, 46.88309429414317 ], [ -71.247096123394385, 46.885471706411842 ], [ -71.240728872920897, 46.882664357583437 ], [ -71.241091481230171, 46.877480003923075 ], [ -71.247820084005284, 46.87510292157959 ] ] ] } },
{ "type": "Feature", "properties": { "hex_id": 810856, "centroid_lon": -71.022532105636927, "centroid_lat": 46.45956250430298, "occurrences_today": 1, "datetimes_today": "2026-04-07 08:01:34", "cumulative_total": 19.0 }, "geometry": { "type": "Polygon", "coordinates": [ [ [ -71.022910103874295, 46.45437910286995 ], [ -71.029216513234047, 46.457196857067466 ], [ -71.028839076316387, 46.46238029563704 ], [ -71.02215400314806, 46.464745898642263 ], [ -71.015847136737989, 46.461927740976193 ], [ -71.016225800510796, 46.456744383839144 ], [ -71.022910103874295, 46.45437910286995 ] ] ] } },
{ "type": "Feature", "properties": { "hex_id": 633754, "centroid_lon": -72.942321650754366, "centroid_lat": 45.621675773996309, "occurrences_today": 7, "datetimes_today": "2026-04-07 06:17:22, 2026-04-07 06:31:24, 2026-04-07 06:45:18, 2026-04-07 07:01:44, 2026-04-07 07:16:31, 2026-04-07 07:31:42, 2026-04-07 08:01:34", "cumulative_total": 41.0 }, "geometry": { "type": "Polygon", "coordinates": [ [ [ -72.942511682349405, 45.616482430678182 ], [ -72.948825936248895, 45.619194408794165 ], [ -72.948636469685908, 45.624387770201643 ], [ -72.942131567208008, 45.626869111954527 ], [ -72.935816800236523, 45.624156757673873 ], [ -72.936007448797497, 45.618963437869631 ], [ -72.942511682349405, 45.616482430678182 ] ] ] } },
{ "type": "Feature", "properties": { "hex_id": 778524, "centroid_lon": -71.341254851705571, "centroid_lat": 46.852150276050835, "occurrences_today": 4, "datetimes_today": "2026-04-07 07:01:44, 2026-04-07 07:16:31, 2026-04-07 07:31:42, 2026-04-07 08:01:34", "cumulative_total": 12.0 }, "geometry": { "type": "Polygon", "coordinates": [ [ [ -71.341607401009966, 46.846965304166318 ], [ -71.347976137851973, 46.849767073484557 ], [ -71.34762416701976, 46.854952079698059 ], [ -71.340902204623987, 46.857335241179427 ], [ -71.334532987103927, 46.854533065643508 ], [ -71.334886212623786, 46.849348134910713 ], [ -71.341607401009966, 46.846965304166318 ] ] ] } },
{ "type": "Feature", "properties": { "hex_id": 786463, "centroid_lon": -71.253464052282922, "centroid_lat": 46.88827871839289, "occurrences_today": 5, "datetimes_today": "2026-04-07 01:16:35, 2026-04-07 01:46:44, 2026-04-07 02:01:35, 2026-04-07 02:16:33, 2026-04-07 02:31:41", "cumulative_total": 9.0 }, "geometry": { "type": "Polygon", "coordinates": [ [ [ -71.25382550480029, 46.88309429414317 ], [ -71.260193533956823, 46.88590093396585 ], [ -71.259832659621324, 46.891085393420489 ], [ -71.253102499480136, 46.893463135786547 ], [ -71.246733992444533, 46.890656088533703 ], [ -71.247096123394385, 46.885471706411842 ], [ -71.25382550480029, 46.88309429414317 ] ] ] } },
{ "type": "Feature", "properties": { "hex_id": 643511, "centroid_lon": -72.846328401386515, "centroid_lat": 45.448409907194986, "occurrences_today": 21, "datetimes_today": "2026-04-07 00:01:35, 2026-04-07 00:16:32, 2026-04-07 00:31:57, 2026-04-07 00:46:31, 2026-04-07 01:02:06, 2026-04-07 01:16:35, 2026-04-07 01:46:44, 2026-04-07 02:01:35, 2026-04-07 02:16:33, 2026-04-07 02:31:41, 2026-04-07 02:46:49, 2026-04-07 03:16:40, 2026-04-07 03:31:39, 2026-04-07 03:50:35, 2026-04-07 04:01:29, 2026-04-07 04:14:15, 2026-04-07 04:31:23, 2026-04-07 04:46:49, 2026-04-07 05:01:47, 2026-04-07 05:16:45, 2026-04-07 05:31:40", "cumulative_total": 45.0 }, "geometry": { "type": "Polygon", "coordinates": [ [ [ -72.846526096690056, 45.443216726132832 ], [ -72.852816475137786, 45.445933654758747 ], [ -72.852619338373145, 45.451126854785926 ], [ -72.846130652152738, 45.4536030828422 ], [ -72.839839769105382, 45.450885779409731 ], [ -72.840038076860012, 45.445692622791704 ], [ -72.846526096690056, 45.443216726132832 ] ] ] } },
{ "type": "Feature", "properties": { "hex_id": 643512, "centroid_lon": -72.845734991822198, "centroid_lat": 45.463989417890858, "occurrences_today": 21, "datetimes_today": "2026-04-07 00:01:35, 2026-04-07 00:16:32, 2026-04-07 00:31:57, 2026-04-07 00:46:31, 2026-04-07 01:02:06, 2026-04-07 01:16:35, 2026-04-07 01:46:44, 2026-04-07 02:01:35, 2026-04-07 02:16:33, 2026-04-07 02:31:41, 2026-04-07 02:46:49, 2026-04-07 03:16:40, 2026-04-07 03:31:39, 2026-04-07 03:50:35, 2026-04-07 04:01:29, 2026-04-07 04:14:15, 2026-04-07 04:31:23, 2026-04-07 04:46:49, 2026-04-07 05:01:47, 2026-04-07 05:16:45, 2026-04-07 05:31:40", "cumulative_total": 45.0 }, "geometry": { "type": "Polygon", "coordinates": [ [ [ -72.845932848970662, 45.458796253074233 ], [ -72.852224903486317, 45.46151323860667 ], [ -72.852027605328075, 45.466706422399817 ], [ -72.845537080689297, 45.469182577291882 ], [ -72.839244521176909, 45.466465216748809 ], [ -72.839442991281956, 45.461272076388518 ], [ -72.845932848970662, 45.458796253074233 ] ] ] } },
{ "type": "Feature", "properties": { "hex_id": 644121, "centroid_lon": -72.84023633053404, "centroid_lat": 45.440499460754893, "occurrences_today": 23, "datetimes_today": "2026-04-07 00:01:35, 2026-04-07 00:16:32, 2026-04-07 00:31:57, 2026-04-07 00:46:31, 2026-04-07 01:02:06, 2026-04-07 01:16:35, 2026-04-07 01:46:44, 2026-04-07 02:01:35, 2026-04-07 02:16:33, 2026-04-07 02:31:41, 2026-04-07 02:46:49, 2026-04-07 03:16:40, 2026-04-07 03:31:39, 2026-04-07 03:50:35, 2026-04-07 04:01:29, 2026-04-07 04:14:15, 2026-04-07 04:31:23, 2026-04-07 04:46:49, 2026-04-07 05:01:47, 2026-04-07 05:16:45, 2026-04-07 05:31:40, 2026-04-07 06:45:18, 2026-04-07 07:01:44", "cumulative_total": 47.0 }, "geometry": { "type": "Polygon", "coordinates": [ [ [ -72.840434530145615, 45.435306293299512 ], [ -72.846723738081408, 45.438023539655951 ], [ -72.846526096690056, 45.443216726132832 ], [ -72.840038076860012, 45.445692622791704 ], [ -72.833748364775531, 45.442975001675407 ], [ -72.833947176651691, 45.437781858724236 ], [ -72.840434530145615, 45.435306293299512 ] ] ] } },
{ "type": "Feature", "properties": { "hex_id": 644122, "centroid_lon": -72.839641407252074, "centroid_lat": 45.45607893060874, "occurrences_today": 21, "datetimes_today": "2026-04-07 00:01:35, 2026-04-07 00:16:32, 2026-04-07 00:31:57, 2026-04-07 00:46:31, 2026-04-07 01:02:06, 2026-04-07 01:16:35, 2026-04-07 01:46:44, 2026-04-07 02:01:35, 2026-04-07 02:16:33, 2026-04-07 02:31:41, 2026-04-07 02:46:49, 2026-04-07 03:16:40, 2026-04-07 03:31:39, 2026-04-07 03:50:35, 2026-04-07 04:01:29, 2026-04-07 04:14:15, 2026-04-07 04:31:23, 2026-04-07 04:46:49, 2026-04-07 05:01:47, 2026-04-07 05:16:45, 2026-04-07 05:31:40", "cumulative_total": 45.0 }, "geometry": { "type": "Polygon", "coordinates": [ [ [ -72.839839769105382, 45.450885779409731 ], [ -72.846130652152738, 45.4536030828422 ], [ -72.845932848970662, 45.458796253074233 ], [ -72.839442991281956, 45.461272076388518 ], [ -72.833151603689245, 45.458554397992145 ], [ -72.833350578312476, 45.453361271309582 ], [ -72.839839769105382, 45.450885779409731 ] ] ] } },
{ "type": "Feature", "properties": { "hex_id": 644123, "centroid_lon": -72.839045996918784, "centroid_lat": 45.47165835168942, "occurrences_today": 21, "datetimes_today": "2026-04-07 00:01:35, 2026-04-07 00:16:32, 2026-04-07 00:31:57, 2026-04-07 00:46:31, 2026-04-07 01:02:06, 2026-04-07 01:16:35, 2026-04-07 01:46:44, 2026-04-07 02:01:35, 2026-04-07 02:16:33, 2026-04-07 02:31:41, 2026-04-07 02:46:49, 2026-04-07 03:16:40, 2026-04-07 03:31:39, 2026-04-07 03:50:35, 2026-04-07 04:01:29, 2026-04-07 04:14:15, 2026-04-07 04:31:23, 2026-04-07 04:46:49, 2026-04-07 05:01:47, 2026-04-07 05:16:45, 2026-04-07 05:31:40", "cumulative_total": 45.0 }, "geometry": { "type": "Polygon", "coordinates": [ [ [ -72.839244521176909, 45.466465216748809 ], [ -72.845537080689297, 45.469182577291882 ], [ -72.845339115553855, 45.47437573127705 ], [ -72.838847418489451, 45.476851481210112 ], [ -72.83255435403467, 45.474133745498975 ], [ -72.832753491568539, 45.468940635087066 ], [ -72.839244521176909, 45.466465216748809 ] ] ] } },
{ "type": "Feature", "properties": { "hex_id": 644731, "centroid_lon": -72.834145934315146, "centroid_lat": 45.432588710350643, "occurrences_today": 21, "datetimes_today": "2026-04-07 00:01:35, 2026-04-07 00:16:32, 2026-04-07 00:31:57, 2026-04-07 00:46:31, 2026-04-07 01:02:06, 2026-04-07 01:16:35, 2026-04-07 01:46:44, 2026-04-07 02:01:35, 2026-04-07 02:16:33, 2026-04-07 02:31:41, 2026-04-07 02:46:49, 2026-04-07 03:16:40, 2026-04-07 03:31:39, 2026-04-07 03:50:35, 2026-04-07 04:01:29, 2026-04-07 04:14:15, 2026-04-07 04:31:23, 2026-04-07 04:46:49, 2026-04-07 05:01:47, 2026-04-07 05:16:45, 2026-04-07 05:31:40", "cumulative_total": 45.0 }, "geometry": { "type": "Polygon", "coordinates": [ [ [ -72.834344637784028, 45.427395556554885 ], [ -72.840632675712783, 45.430113120425787 ], [ -72.840434530145615, 45.435306293299512 ], [ -72.833947176651691, 45.437781858724236 ], [ -72.827658635024861, 45.435063920140216 ], [ -72.827857950571882, 45.429870790908716 ], [ -72.834344637784028, 45.427395556554885 ] ] ] } },
{ "type": "Feature", "properties": { "hex_id": 644732, "centroid_lon": -72.833549498668503, "centroid_lat": 45.448168139203915, "occurrences_today": 25, "datetimes_today": "2026-04-07 00:01:35, 2026-04-07 00:16:32, 2026-04-07 00:31:57, 2026-04-07 00:46:31, 2026-04-07 01:02:06, 2026-04-07 01:16:35, 2026-04-07 01:46:44, 2026-04-07 02:01:35, 2026-04-07 02:16:33, 2026-04-07 02:31:41, 2026-04-07 02:46:49, 2026-04-07 03:16:40, 2026-04-07 03:31:39, 2026-04-07 03:50:35, 2026-04-07 04:01:29, 2026-04-07 04:14:15, 2026-04-07 04:31:23, 2026-04-07 04:46:49, 2026-04-07 05:01:47, 2026-04-07 05:16:45, 2026-04-07 05:31:40, 2026-04-07 06:17:22, 2026-04-07 06:31:24, 2026-04-07 06:45:18, 2026-04-07 07:01:44", "cumulative_total": 49.0 }, "geometry": { "type": "Polygon", "coordinates": [ [ [ -72.833748364775531, 45.442975001675407 ], [ -72.840038076860012, 45.445692622791704 ], [ -72.839839769105382, 45.450885779409731 ], [ -72.833350578312476, 45.453361271309582 ], [ -72.827060362133679, 45.450643275276164 ], [ -72.82725984082397, 45.445450162324164 ], [ -72.833748364775531, 45.442975001675407 ] ] ] } },
{ "type": "Feature", "properties": { "hex_id": 644733, "centroid_lon": -72.832952574780663, "centroid_lat": 45.463747519251378, "occurrences_today": 21, "datetimes_today": "2026-04-07 00:01:35, 2026-04-07 00:16:32, 2026-04-07 00:31:57, 2026-04-07 00:46:31, 2026-04-07 01:02:06, 2026-04-07 01:16:35, 2026-04-07 01:46:44, 2026-04-07 02:01:35, 2026-04-07 02:16:33, 2026-04-07 02:31:41, 2026-04-07 02:46:49, 2026-04-07 03:16:40, 2026-04-07 03:31:39, 2026-04-07 03:50:35, 2026-04-07 04:01:29, 2026-04-07 04:14:15, 2026-04-07 04:31:23, 2026-04-07 04:46:49, 2026-04-07 05:01:47, 2026-04-07 05:16:45, 2026-04-07 05:31:40", "cumulative_total": 45.0 }, "geometry": { "type": "Polygon", "coordinates": [ [ [ -72.833151603689245, 45.458554397992145 ], [ -72.839442991281956, 45.461272076388518 ], [ -72.839244521176909, 45.466465216748809 ], [ -72.832753491568539, 45.468940635087066 ], [ -72.826461599484929, 45.466222581569447 ], [ -72.826661241482398, 45.461029484899029 ], [ -72.833151603689245, 45.458554397992145 ] ] ] } },
{ "type": "Feature", "properties": { "hex_id": 645342, "centroid_lon": -72.827459265114953, "centroid_lat": 45.440257043945444, "occurrences_today": 21, "datetimes_today": "2026-04-07 00:01:35, 2026-04-07 00:16:32, 2026-04-07 00:31:57, 2026-04-07 00:46:31, 2026-04-07 01:02:06, 2026-04-07 01:16:35, 2026-04-07 01:46:44, 2026-04-07 02:01:35, 2026-04-07 02:16:33, 2026-04-07 02:31:41, 2026-04-07 02:46:49, 2026-04-07 03:16:40, 2026-04-07 03:31:39, 2026-04-07 03:50:35, 2026-04-07 04:01:29, 2026-04-07 04:14:15, 2026-04-07 04:31:23, 2026-04-07 04:46:49, 2026-04-07 05:01:47, 2026-04-07 05:16:45, 2026-04-07 05:31:40", "cumulative_total": 45.0 }, "geometry": { "type": "Polygon", "coordinates": [ [ [ -72.827658635024861, 45.435063920140216 ], [ -72.833947176651691, 45.437781858724236 ], [ -72.833748364775531, 45.442975001675407 ], [ -72.82725984082397, 45.445450162324164 ], [ -72.820970795553578, 45.442731848869812 ], [ -72.821170777860104, 45.437538749701169 ], [ -72.827658635024861, 45.435063920140216 ] ] ] } },
{ "type": "Feature", "properties": { "hex_id": 1078644, "centroid_lon": -67.297172646779686, "centroid_lat": 52.337607667418247, "occurrences_today": 29, "datetimes_today": "2026-04-07 00:01:35, 2026-04-07 00:16:32, 2026-04-07 00:31:57, 2026-04-07 00:46:31, 2026-04-07 01:02:06, 2026-04-07 01:16:35, 2026-04-07 01:46:44, 2026-04-07 02:01:35, 2026-04-07 02:16:33, 2026-04-07 02:31:41, 2026-04-07 02:46:49, 2026-04-07 03:16:40, 2026-04-07 03:31:39, 2026-04-07 03:50:35, 2026-04-07 04:01:29, 2026-04-07 04:14:15, 2026-04-07 04:31:23, 2026-04-07 04:46:49, 2026-04-07 05:01:47, 2026-04-07 05:16:45, 2026-04-07 05:31:40, 2026-04-07 06:01:34, 2026-04-07 06:17:22, 2026-04-07 06:31:24, 2026-04-07 06:45:18, 2026-04-07 07:01:44, 2026-04-07 07:16:31, 2026-04-07 07:31:42, 2026-04-07 08:01:34", "cumulative_total": 133.0 }, "geometry": { "type": "Polygon", "coordinates": [ [ [ -67.298071644475257, 52.332463907115105 ], [ -67.304894183498419, 52.335512494585963 ], [ -67.303995878711007, 52.340656335115177 ], [ -67.296273378143411, 52.342751412309092 ], [ -67.289450417206837, 52.339702303846394 ], [ -67.290350378643154, 52.334558639260663 ], [ -67.298071644475257, 52.332463907115105 ] ] ] } },
{ "type": "Feature", "properties": { "hex_id": 578193, "centroid_lon": -73.527978537474226, "centroid_lat": 45.544979580000138, "occurrences_today": 6, "datetimes_today": "2026-04-07 00:01:35, 2026-04-07 00:16:32, 2026-04-07 00:31:57, 2026-04-07 00:46:31, 2026-04-07 01:02:06, 2026-04-07 01:16:35", "cumulative_total": 7.0 }, "geometry": { "type": "Polygon", "coordinates": [ [ [ -73.528114133475682, 45.539784528233746 ], [ -73.534448896478111, 45.542464392786776 ], [ -73.534313871321373, 45.547659456857865 ], [ -73.527842904425938, 45.550174626705761 ], [ -73.521507607631861, 45.547494392317489 ], [ -73.521643811512419, 45.542299357981129 ], [ -73.528114133475682, 45.539784528233746 ] ] ] } },
{ "type": "Feature", "properties": { "hex_id": 721649, "centroid_lon": -72.033740239559179, "centroid_lat": 45.336640148152384, "occurrences_today": 5, "datetimes_today": "2026-04-07 01:16:35, 2026-04-07 01:46:44, 2026-04-07 02:01:35, 2026-04-07 02:16:33, 2026-04-07 02:31:41", "cumulative_total": 5.0 }, "geometry": { "type": "Polygon", "coordinates": [ [ [ -72.034011410512036, 45.331450162192347 ], [ -72.040248432516037, 45.33421061484983 ], [ -72.03997780525394, 45.339400627585036 ], [ -72.03346899477765, 45.341830128105066 ], [ -72.027231502923883, 45.339069295033674 ], [ -72.027503291371531, 45.333879341919783 ], [ -72.034011410512036, 45.331450162192347 ] ] ] } },
{ "type": "Feature", "properties": { "hex_id": 722870, "centroid_lon": -72.020994628722363, "centroid_lat": 45.33630813520368, "occurrences_today": 5, "datetimes_today": "2026-04-07 01:16:35, 2026-04-07 01:46:44, 2026-04-07 02:01:35, 2026-04-07 02:16:33, 2026-04-07 02:31:41", "cumulative_total": 5.0 }, "geometry": { "type": "Polygon", "coordinates": [ [ [ -72.021266960666352, 45.331118208987036 ], [ -72.027503291371531, 45.333879341919783 ], [ -72.027231502923883, 45.339069295033674 ], [ -72.020722222634788, 45.341498055402162 ], [ -72.014485422589246, 45.338736541952478 ], [ -72.014758372148449, 45.333546648714837 ], [ -72.021266960666352, 45.331118208987036 ] ] ] } },
{ "type": "Feature", "properties": { "hex_id": 74716, "centroid_lon": -79.018982058650053, "centroid_lat": 48.375482682629148, "occurrences_today": 1, "datetimes_today": "2026-04-07 08:01:34", "cumulative_total": 1.0 }, "geometry": { "type": "Polygon", "coordinates": [ [ [ -79.018573649471193, 48.370301281280213 ], [ -79.025512788221448, 48.372656136448477 ], [ -79.025921935282383, 48.377837491483376 ], [ -79.019390583544762, 48.380664076696135 ], [ -79.012450591175678, 48.378308876167821 ], [ -79.012042804204839, 48.373127435857363 ], [ -79.018573649471193, 48.370301281280213 ] ] ] } }
]
}
