{
"type": "FeatureCollection",
"name": "daily_2026-03-23",
"crs": { "type": "name", "properties": { "name": "urn:ogc:def:crs:OGC:1.3:CRS84" } },
"features": [
{ "type": "Feature", "properties": { "hex_id": 523262, "centroid_lon": -74.100845117504107, "centroid_lat": 45.769186358566103, "occurrences_today": 1, "datetimes_today": "2026-03-23 09:01:36", "cumulative_total": 63.0 }, "geometry": { "type": "Polygon", "coordinates": [ [ [ -74.100928599147338, 45.763990434874479 ], [ -74.107316344606829, 45.766638815168747 ], [ -74.107233448384861, 45.771834745515051 ], [ -74.100761612985238, 45.774382277392895 ], [ -74.094373304984003, 45.771733529840816 ], [ -74.09445739491639, 45.766537617733889 ], [ -74.100928599147338, 45.763990434874479 ] ] ] } },
{ "type": "Feature", "properties": { "hex_id": 523872, "centroid_lon": -74.094541461813549, "centroid_lat": 45.761341700760482, "occurrences_today": 1, "datetimes_today": "2026-03-23 09:01:36", "cumulative_total": 78.0 }, "geometry": { "type": "Polygon", "coordinates": [ [ [ -74.094625505683297, 45.756145778920597 ], [ -74.101012057922659, 45.758794506318068 ], [ -74.100928599147338, 45.763990434874479 ], [ -74.09445739491639, 45.766537617733889 ], [ -74.08807028061392, 45.763888523117487 ], [ -74.088154932597746, 45.758692612925756 ], [ -74.094625505683297, 45.756145778920597 ] ] ] } },
{ "type": "Feature", "properties": { "hex_id": 523873, "centroid_lon": -74.094289192008603, "centroid_lat": 45.77692943708125, "occurrences_today": 1, "datetimes_today": "2026-03-23 09:01:36", "cumulative_total": 78.0 }, "geometry": { "type": "Polygon", "coordinates": [ [ [ -74.094373304984003, 45.771733529840816 ], [ -74.100761612985238, 45.774382277392895 ], [ -74.100678085583013, 45.779578191354879 ], [ -74.094205055982414, 45.782125339455149 ], [ -74.0878161854627, 45.779476224483567 ], [ -74.087900907054234, 45.77428032889641 ], [ -74.094373304984003, 45.771733529840816 ] ] ] } },
{ "type": "Feature", "properties": { "hex_id": 524482, "centroid_lon": -74.088239561394644, "centroid_lat": 45.753496697865849, "occurrences_today": 1, "datetimes_today": "2026-03-23 09:01:36", "cumulative_total": 63.0 }, "geometry": { "type": "Polygon", "coordinates": [ [ [ -74.088324167012502, 45.748300777937828 ], [ -74.094709526533393, 45.750949852214248 ], [ -74.094625505683297, 45.756145778920597 ], [ -74.088154932597746, 45.758692612925756 ], [ -74.081769011492071, 45.756043171469351 ], [ -74.081854225048914, 45.750847263252901 ], [ -74.088324167012502, 45.748300777937828 ] ] ] } },
{ "type": "Feature", "properties": { "hex_id": 524483, "centroid_lon": -74.087985605435364, "centroid_lat": 45.769084428441055, "occurrences_today": 1, "datetimes_today": "2026-03-23 09:01:36", "cumulative_total": 63.0 }, "geometry": { "type": "Polygon", "coordinates": [ [ [ -74.08807028061392, 45.763888523117487 ], [ -74.09445739491639, 45.766537617733889 ], [ -74.094373304984003, 45.771733529840816 ], [ -74.087900907054234, 45.77428032889641 ], [ -74.081513230712119, 45.771630866899443 ], [ -74.08159851433156, 45.76643497329264 ], [ -74.08807028061392, 45.763888523117487 ] ] ] } },
{ "type": "Feature", "properties": { "hex_id": 525093, "centroid_lon": -74.08168377458891, "centroid_lat": 45.761239074815933, "occurrences_today": 1, "datetimes_today": "2026-03-23 09:01:36", "cumulative_total": 63.0 }, "geometry": { "type": "Polygon", "coordinates": [ [ [ -74.081769011492071, 45.756043171469351 ], [ -74.088154932597746, 45.758692612925756 ], [ -74.08807028061392, 45.763888523117487 ], [ -74.08159851433156, 45.76643497329264 ], [ -74.075212031664705, 45.763785164494649 ], [ -74.075297876833503, 45.758589272928248 ], [ -74.081769011492071, 45.756043171469351 ] ] ] } },
{ "type": "Feature", "properties": { "hex_id": 525094, "centroid_lon": -74.081427923722671, "centroid_lat": 45.776826755636357, "occurrences_today": 1, "datetimes_today": "2026-03-23 09:01:36", "cumulative_total": 78.0 }, "geometry": { "type": "Polygon", "coordinates": [ [ [ -74.081513230712119, 45.771630866899443 ], [ -74.087900907054234, 45.77428032889641 ], [ -74.0878161854627, 45.779476224483567 ], [ -74.081342593355345, 45.782022639503332 ], [ -74.074954354997175, 45.779372809964137 ], [ -74.075040270754485, 45.774176933012619 ], [ -74.081513230712119, 45.771630866899443 ] ] ] } },
{ "type": "Feature", "properties": { "hex_id": 525704, "centroid_lon": -74.075126162974357, "centroid_lat": 45.768981051189449, "occurrences_today": 1, "datetimes_today": "2026-03-23 09:01:36", "cumulative_total": 253.0 }, "geometry": { "type": "Polygon", "coordinates": [ [ [ -74.075212031664705, 45.763785164494649 ], [ -74.08159851433156, 45.76643497329264 ], [ -74.081513230712119, 45.771630866899443 ], [ -74.075040270754485, 45.774176933012619 ], [ -74.068653226550211, 45.771526756711424 ], [ -74.068739703833018, 45.766330881865457 ], [ -74.075212031664705, 45.763785164494649 ] ] ] } },
{ "type": "Feature", "properties": { "hex_id": 526314, "centroid_lon": -74.068826157426884, "centroid_lat": 45.76113500214614, "occurrences_today": 1, "datetimes_today": "2026-03-23 09:01:36", "cumulative_total": 72.0 }, "geometry": { "type": "Polygon", "coordinates": [ [ [ -74.068912587339767, 45.755939117553488 ], [ -74.075297876833503, 45.758589272928248 ], [ -74.075212031664705, 45.763785164494649 ], [ -74.068739703833018, 45.766330881865457 ], [ -74.062353853280158, 45.763680359026573 ], [ -74.062440891610095, 45.758484486346156 ], [ -74.068912587339767, 45.755939117553488 ] ] ] } },
{ "type": "Feature", "properties": { "hex_id": 526925, "centroid_lon": -74.062266791101848, "centroid_lat": 45.768876226831907, "occurrences_today": 1, "datetimes_today": "2026-03-23 09:01:36", "cumulative_total": 253.0 }, "geometry": { "type": "Polygon", "coordinates": [ [ [ -74.062353853280158, 45.763680359026573 ], [ -74.068739703833018, 45.766330881865457 ], [ -74.068653226550211, 45.771526756711424 ], [ -74.062179705067123, 45.774072089762136 ], [ -74.055793293479212, 45.771421199297521 ], [ -74.055880964401368, 45.766225343473117 ], [ -74.062353853280158, 45.763680359026573 ] ] ] } },
{ "type": "Feature", "properties": { "hex_id": 571481, "centroid_lon": -73.597053578215608, "centroid_lat": 45.60041506286408, "occurrences_today": 5, "datetimes_today": "2026-03-23 08:01:33, 2026-03-23 08:16:31, 2026-03-23 08:31:22, 2026-03-23 08:46:37, 2026-03-23 09:01:36", "cumulative_total": 77.0 }, "geometry": { "type": "Polygon", "coordinates": [ [ [ -73.597183062567083, 45.595219904315037 ], [ -73.603527376245083, 45.597896024384013 ], [ -73.603398465353237, 45.603091194568492 ], [ -73.596924058462264, 45.60561021638069 ], [ -73.590579206732471, 45.602933726415692 ], [ -73.590709299933508, 45.59773858459922 ], [ -73.597183062567083, 45.595219904315037 ] ] ] } },
{ "type": "Feature", "properties": { "hex_id": 572091, "centroid_lon": -73.590839357577181, "centroid_lat": 45.592543437747757, "occurrences_today": 5, "datetimes_today": "2026-03-23 08:01:33, 2026-03-23 08:16:31, 2026-03-23 08:31:22, 2026-03-23 08:46:37, 2026-03-23 09:01:36", "cumulative_total": 125.0 }, "geometry": { "type": "Polygon", "coordinates": [ [ [ -73.590969379675457, 45.587348285861346 ], [ -73.597312511528585, 45.590024740733597 ], [ -73.597183062567083, 45.595219904315037 ], [ -73.590709299933508, 45.59773858459922 ], [ -73.584365630494986, 45.595061759872991 ], [ -73.584496261263496, 45.58986662478123 ], [ -73.590969379675457, 45.587348285861346 ] ] ] } },
{ "type": "Feature", "properties": { "hex_id": 554382, "centroid_lon": -73.778215615217789, "centroid_lat": 45.524545010380336, "occurrences_today": 1, "datetimes_today": "2026-03-23 09:01:36", "cumulative_total": 34.0 }, "geometry": { "type": "Polygon", "coordinates": [ [ [ -73.778328084207544, 45.51934940563158 ], [ -73.784672747591642, 45.5220154977522 ], [ -73.784560852216217, 45.527211112324174 ], [ -73.778103115504265, 45.529740610165533 ], [ -73.771757909234779, 45.527074150811643 ], [ -73.771870982552301, 45.521878560914232 ], [ -73.778328084207544, 45.51934940563158 ] ] ] } },
{ "type": "Feature", "properties": { "hex_id": 878082, "centroid_lon": -70.210797657455018, "centroid_lat": 47.535291485134856, "occurrences_today": 1, "datetimes_today": "2026-03-23 09:01:36", "cumulative_total": 17.0 }, "geometry": { "type": "Polygon", "coordinates": [ [ [ -70.211270057757261, 47.530114692767086 ], [ -70.217653748505697, 47.532979967091649 ], [ -70.217181929189849, 47.538156805225363 ], [ -70.210325125082761, 47.540468269235618 ], [ -70.203940985441221, 47.537602570252673 ], [ -70.204414098753332, 47.532425831985641 ], [ -70.211270057757261, 47.530114692767086 ] ] ] } },
{ "type": "Feature", "properties": { "hex_id": 584293, "centroid_lon": -73.466069848808985, "centroid_lat": 45.466212361753485, "occurrences_today": 5, "datetimes_today": "2026-03-23 08:01:33, 2026-03-23 08:16:31, 2026-03-23 08:31:22, 2026-03-23 08:46:37, 2026-03-23 09:01:36", "cumulative_total": 142.0 }, "geometry": { "type": "Polygon", "coordinates": [ [ [ -73.466210758878475, 45.461017385560943 ], [ -73.472533761984266, 45.463700567580204 ], [ -73.472393419551096, 45.468895556667917 ], [ -73.465928900278342, 45.471407332859087 ], [ -73.459605368003835, 45.468723781429858 ], [ -73.459746884157894, 45.463528823283795 ], [ -73.466210758878475, 45.461017385560943 ] ] ] } },
{ "type": "Feature", "properties": { "hex_id": 547676, "centroid_lon": -73.845596984139121, "centroid_lat": 45.673352948426583, "occurrences_today": 4, "datetimes_today": "2026-03-23 08:16:31, 2026-03-23 08:31:22, 2026-03-23 08:46:37, 2026-03-23 09:01:36", "cumulative_total": 6.0 }, "geometry": { "type": "Polygon", "coordinates": [ [ [ -73.845703803918553, 45.668157352681135 ], [ -73.852068388543358, 45.670819826903525 ], [ -73.851962147810681, 45.676015431833719 ], [ -73.845490135125686, 45.678548539231208 ], [ -73.839125000693087, 45.675885696526151 ], [ -73.839232428743387, 45.670690114971187 ], [ -73.845703803918553, 45.668157352681135 ] ] ] } },
{ "type": "Feature", "properties": { "hex_id": 527535, "centroid_lon": -74.055968611307719, "centroid_lat": 45.761029482771853, "occurrences_today": 1, "datetimes_today": "2026-03-23 09:01:36", "cumulative_total": 71.0 }, "geometry": { "type": "Polygon", "coordinates": [ [ [ -74.056056234206352, 45.755833617193765 ], [ -74.062440891610095, 45.758484486346156 ], [ -74.062353853280158, 45.763680359026573 ], [ -74.055880964401368, 45.766225343473117 ], [ -74.049495746440698, 45.763574106734161 ], [ -74.049583977907616, 45.75837825320037 ], [ -74.056056234206352, 45.755833617193765 ] ] ] } },
{ "type": "Feature", "properties": { "hex_id": 567200, "centroid_lon": -73.644731589212739, "centroid_lat": 45.484062865911191, "occurrences_today": 3, "datetimes_today": "2026-03-23 08:31:22, 2026-03-23 08:46:37, 2026-03-23 09:01:36", "cumulative_total": 316.0 }, "geometry": { "type": "Polygon", "coordinates": [ [ [ -73.644856167759627, 45.478867496860872 ], [ -73.651189856732543, 45.481540898336519 ], [ -73.651065848780647, 45.48673627852272 ], [ -73.644606976652412, 45.489258229948611 ], [ -73.638272751103656, 45.486584460498399 ], [ -73.638397934247578, 45.481389107661329 ], [ -73.644856167759627, 45.478867496860872 ] ] ] } },
{ "type": "Feature", "properties": { "hex_id": 567817, "centroid_lon": -73.635887764173916, "centroid_lat": 45.585295211386736, "occurrences_today": 4, "datetimes_today": "2026-03-23 08:16:31, 2026-03-23 08:31:22, 2026-03-23 08:46:37, 2026-03-23 09:01:36", "cumulative_total": 64.0 }, "geometry": { "type": "Polygon", "coordinates": [ [ [ -73.636013598693509, 45.580099953855616 ], [ -73.642358121233997, 45.582773925333967 ], [ -73.642232860244263, 45.587969194112347 ], [ -73.635761895256081, 45.590490463900984 ], [ -73.629416833589744, 45.58781612308195 ], [ -73.629543276025871, 45.582620881879663 ], [ -73.636013598693509, 45.580099953855616 ] ] ] } },
{ "type": "Feature", "properties": { "hex_id": 560487, "centroid_lon": -73.714205017402747, "centroid_lat": 45.523842334140781, "occurrences_today": 7, "datetimes_today": "2026-03-23 07:31:20, 2026-03-23 07:44:35, 2026-03-23 08:01:33, 2026-03-23 08:16:31, 2026-03-23 08:31:22, 2026-03-23 08:46:37, 2026-03-23 09:01:36", "cumulative_total": 89.0 }, "geometry": { "type": "Polygon", "coordinates": [ [ [ -73.714323374905788, 45.518646855982247 ], [ -73.720664858419767, 45.521316470519224 ], [ -73.720547073648163, 45.526511959135199 ], [ -73.714086627568392, 45.529037807312633 ], [ -73.707744603659719, 45.526367824948736 ], [ -73.707863566214641, 45.521172362298884 ], [ -73.714323374905788, 45.518646855982247 ] ] ] } },
{ "type": "Feature", "properties": { "hex_id": 570268, "centroid_lon": -73.60678249526957, "centroid_lat": 45.725254772331759, "occurrences_today": 2, "datetimes_today": "2026-03-23 08:46:37, 2026-03-23 09:01:36", "cumulative_total": 68.0 }, "geometry": { "type": "Polygon", "coordinates": [ [ [ -73.6069116426183, 45.720059706223012 ], [ -73.613270410453481, 45.722735398394796 ], [ -73.613141840492474, 45.727930476073027 ], [ -73.606653312557128, 45.730449833411328 ], [ -73.600294002703919, 45.727773769843772 ], [ -73.600423762792147, 45.722578720398687 ], [ -73.6069116426183, 45.720059706223012 ] ] ] } },
{ "type": "Feature", "properties": { "hex_id": 543391, "centroid_lon": -73.894051206386749, "centroid_lat": 45.494544481627287, "occurrences_today": 2, "datetimes_today": "2026-03-23 08:46:37, 2026-03-23 09:01:36", "cumulative_total": 168.0 }, "geometry": { "type": "Polygon", "coordinates": [ [ [ -73.8941529073509, 45.489348635741877 ], [ -73.90049981719369, 45.492008326499047 ], [ -73.900398690487251, 45.49720418105224 ], [ -73.893949477649286, 45.499740322588053 ], [ -73.887602021326771, 45.497080266072579 ], [ -73.887704324312608, 45.491884433844113 ], [ -73.8941529073509, 45.489348635741877 ] ] ] } },
{ "type": "Feature", "properties": { "hex_id": 544002, "centroid_lon": -73.887499690402407, "centroid_lat": 45.502276093374327, "occurrences_today": 2, "datetimes_today": "2026-03-23 08:46:37, 2026-03-23 09:01:36", "cumulative_total": 68.0 }, "geometry": { "type": "Polygon", "coordinates": [ [ [ -73.887602021326771, 45.497080266072579 ], [ -73.893949477649286, 45.499740322588053 ], [ -73.893847721129191, 45.50493615862414 ], [ -73.887397331530138, 45.507471915749313 ], [ -73.88104932875595, 45.504811493315742 ], [ -73.881152262023093, 45.499615679739627 ], [ -73.887602021326771, 45.497080266072579 ] ] ] } },
{ "type": "Feature", "properties": { "hex_id": 352344, "centroid_lon": -75.906979941732601, "centroid_lat": 46.112088620118527, "occurrences_today": 3, "datetimes_today": "2026-03-23 08:31:22, 2026-03-23 08:46:37, 2026-03-23 09:01:36", "cumulative_total": 37.0 }, "geometry": { "type": "Polygon", "coordinates": [ [ [ -75.906894720852605, 46.10689302076355 ], [ -75.913406533966167, 46.10943930563095 ], [ -75.913492374332293, 46.114634893264871 ], [ -75.907065186065097, 46.117284214607452 ], [ -75.900552730008883, 46.114737576530267 ], [ -75.900468105170518, 46.109541970386275 ], [ -75.906894720852605, 46.10689302076355 ] ] ] } },
{ "type": "Feature", "properties": { "hex_id": 352955, "centroid_lon": -75.90063737813658, "centroid_lat": 46.119933177809905, "occurrences_today": 3, "datetimes_today": "2026-03-23 08:31:22, 2026-03-23 08:46:37, 2026-03-23 09:01:36", "cumulative_total": 37.0 }, "geometry": { "type": "Polygon", "coordinates": [ [ [ -75.900552730008883, 46.114737576530267 ], [ -75.907065186065097, 46.117284214607452 ], [ -75.907150453858151, 46.122479804230295 ], [ -75.900722049561537, 46.125128774225189 ], [ -75.894208950538726, 46.122581782771967 ], [ -75.894124898787055, 46.117386174765898 ], [ -75.900552730008883, 46.114737576530267 ] ] ] } },
{ "type": "Feature", "properties": { "hex_id": 353565, "centroid_lon": -75.894040870161447, "centroid_lat": 46.112190561897172, "occurrences_today": 3, "datetimes_today": "2026-03-23 08:31:22, 2026-03-23 08:46:37, 2026-03-23 09:01:36", "cumulative_total": 37.0 }, "geometry": { "type": "Polygon", "coordinates": [ [ [ -75.893956864654015, 46.106994944165827 ], [ -75.900468105170518, 46.109541970386275 ], [ -75.900552730008883, 46.114737576530267 ], [ -75.894124898787055, 46.117386174765898 ], [ -75.887613015817507, 46.114838795195979 ], [ -75.88752960653072, 46.109643170805889 ], [ -75.893956864654015, 46.106994944165827 ] ] ] } },
{ "type": "Feature", "properties": { "hex_id": 555592, "centroid_lon": -73.769147320588985, "centroid_lat": 45.352950582925793, "occurrences_today": 8, "datetimes_today": "2026-03-23 06:46:34, 2026-03-23 07:16:51, 2026-03-23 07:31:20, 2026-03-23 07:44:35, 2026-03-23 08:01:33, 2026-03-23 08:16:31, 2026-03-23 08:31:22, 2026-03-23 08:46:37", "cumulative_total": 21.0 }, "geometry": { "type": "Polygon", "coordinates": [ [ [ -73.769259948665578, 45.347754839065807 ], [ -73.775585140498535, 45.350421308853036 ], [ -73.775473080754523, 45.355617062589687 ], [ -73.769034661808362, 45.358146321819689 ], [ -73.76270893235197, 45.355479486878174 ], [ -73.762822159454927, 45.350283757925119 ], [ -73.769259948665578, 45.347754839065807 ] ] ] } },
{ "type": "Feature", "properties": { "hex_id": 662430, "centroid_lon": -72.652472398514604, "centroid_lat": 45.343247679155574, "occurrences_today": 8, "datetimes_today": "2026-03-23 01:16:21, 2026-03-23 01:31:45, 2026-03-23 01:46:49, 2026-03-23 02:01:31, 2026-03-23 02:16:29, 2026-03-23 02:31:29, 2026-03-23 02:46:41, 2026-03-23 03:01:25", "cumulative_total": 39.0 }, "geometry": { "type": "Polygon", "coordinates": [ [ [ -72.652687090983576, 45.338055093689285 ], [ -72.658956285204354, 45.340782332184148 ], [ -72.65874214546416, 45.345974938460621 ], [ -72.652257647559765, 45.348440259084249 ], [ -72.645987959105796, 45.345712645410437 ], [ -72.646203262769887, 45.340520086355816 ], [ -72.652687090983576, 45.338055093689285 ] ] ] } },
{ "type": "Feature", "properties": { "hex_id": 664261, "centroid_lon": -72.633666824816899, "centroid_lat": 45.335063900668864, "occurrences_today": 8, "datetimes_today": "2026-03-23 01:16:21, 2026-03-23 01:31:45, 2026-03-23 01:46:49, 2026-03-23 02:01:31, 2026-03-23 02:16:29, 2026-03-23 02:31:29, 2026-03-23 02:46:41, 2026-03-23 03:01:25", "cumulative_total": 39.0 }, "geometry": { "type": "Polygon", "coordinates": [ [ [ -72.633883174464984, 45.329871377991353 ], [ -72.640150535633452, 45.332599616493731 ], [ -72.639934738210528, 45.337792160160518 ], [ -72.633450416238048, 45.340256417796255 ], [ -72.62718256178502, 45.33752780405429 ], [ -72.627399522569348, 45.332335307980031 ], [ -72.633883174464984, 45.329871377991353 ] ] ] } },
{ "type": "Feature", "properties": { "hex_id": 568422, "centroid_lon": -73.6315616635776, "centroid_lat": 45.499496340063089, "occurrences_today": 20, "datetimes_today": "2026-03-23 00:01:23, 2026-03-23 00:16:34, 2026-03-23 00:31:32, 2026-03-23 01:01:26, 2026-03-23 01:16:21, 2026-03-23 01:31:45, 2026-03-23 01:46:49, 2026-03-23 02:01:31, 2026-03-23 02:16:29, 2026-03-23 02:31:29, 2026-03-23 02:46:41, 2026-03-23 03:01:25, 2026-03-23 03:16:23, 2026-03-23 03:31:49, 2026-03-23 04:01:24, 2026-03-23 04:16:36, 2026-03-23 04:31:47, 2026-03-23 05:01:35, 2026-03-23 05:16:39, 2026-03-23 05:31:31", "cumulative_total": 150.0 }, "geometry": { "type": "Polygon", "coordinates": [ [ [ -73.631687520175689, 45.494301013542234 ], [ -73.63802228226595, 45.496975151126236 ], [ -73.63789699654923, 45.502170488916853 ], [ -73.631435772610928, 45.504691661565815 ], [ -73.625100474013635, 45.502017155688776 ], [ -73.625226935850151, 45.496821845520273 ], [ -73.631687520175689, 45.494301013542234 ] ] ] } },
{ "type": "Feature", "properties": { "hex_id": 569033, "centroid_lon": -73.624973977642313, "centroid_lat": 45.50721246083657, "occurrences_today": 20, "datetimes_today": "2026-03-23 00:01:23, 2026-03-23 00:16:34, 2026-03-23 00:31:32, 2026-03-23 01:01:26, 2026-03-23 01:16:21, 2026-03-23 01:31:45, 2026-03-23 01:46:49, 2026-03-23 02:01:31, 2026-03-23 02:16:29, 2026-03-23 02:31:29, 2026-03-23 02:46:41, 2026-03-23 03:01:25, 2026-03-23 03:16:23, 2026-03-23 03:31:49, 2026-03-23 04:01:24, 2026-03-23 04:16:36, 2026-03-23 04:31:47, 2026-03-23 05:01:35, 2026-03-23 05:16:39, 2026-03-23 05:31:31", "cumulative_total": 237.0 }, "geometry": { "type": "Polygon", "coordinates": [ [ [ -73.625100474013635, 45.502017155688776 ], [ -73.631435772610928, 45.504691661565815 ], [ -73.631309847264149, 45.509886978050346 ], [ -73.624847446724587, 45.512407760963612 ], [ -73.618511611654952, 45.509732886634225 ], [ -73.618638713585625, 45.50453759790841 ], [ -73.625100474013635, 45.502017155688776 ] ] ] } },
{ "type": "Feature", "properties": { "hex_id": 569643, "centroid_lon": -73.61876578081521, "centroid_lat": 45.499342304159349, "occurrences_today": 20, "datetimes_today": "2026-03-23 00:01:23, 2026-03-23 00:16:34, 2026-03-23 00:31:32, 2026-03-23 01:01:26, 2026-03-23 01:16:21, 2026-03-23 01:31:45, 2026-03-23 01:46:49, 2026-03-23 02:01:31, 2026-03-23 02:16:29, 2026-03-23 02:31:29, 2026-03-23 02:46:41, 2026-03-23 03:01:25, 2026-03-23 03:16:23, 2026-03-23 03:31:49, 2026-03-23 04:01:24, 2026-03-23 04:16:36, 2026-03-23 04:31:47, 2026-03-23 05:01:35, 2026-03-23 05:16:39, 2026-03-23 05:31:31", "cumulative_total": 123.0 }, "geometry": { "type": "Polygon", "coordinates": [ [ [ -73.61889281335533, 45.494147005387092 ], [ -73.625226935850151, 45.496821845520273 ], [ -73.625100474013635, 45.502017155688776 ], [ -73.618638713585625, 45.50453759790841 ], [ -73.612304055082475, 45.501862389364604 ], [ -73.612431693004027, 45.496667107076235 ], [ -73.61889281335533, 45.494147005387092 ] ] ] } },
{ "type": "Feature", "properties": { "hex_id": 570254, "centroid_lon": -73.612176382305179, "centroid_lat": 45.507057666627183, "occurrences_today": 20, "datetimes_today": "2026-03-23 00:01:23, 2026-03-23 00:16:34, 2026-03-23 00:31:32, 2026-03-23 01:01:26, 2026-03-23 01:16:21, 2026-03-23 01:31:45, 2026-03-23 01:46:49, 2026-03-23 02:01:31, 2026-03-23 02:16:29, 2026-03-23 02:31:29, 2026-03-23 02:46:41, 2026-03-23 03:01:25, 2026-03-23 03:16:23, 2026-03-23 03:31:49, 2026-03-23 04:01:24, 2026-03-23 04:16:36, 2026-03-23 04:31:47, 2026-03-23 05:01:35, 2026-03-23 05:16:39, 2026-03-23 05:31:31", "cumulative_total": 131.0 }, "geometry": { "type": "Polygon", "coordinates": [ [ [ -73.612304055082475, 45.501862389364604 ], [ -73.618638713585625, 45.50453759790841 ], [ -73.618511611654952, 45.509732886634225 ], [ -73.612048674660471, 45.512252938863924 ], [ -73.605713480183979, 45.50957736175021 ], [ -73.605841758663601, 45.504382101041195 ], [ -73.612304055082475, 45.501862389364604 ] ] ] } },
{ "type": "Feature", "properties": { "hex_id": 562319, "centroid_lon": -73.694822058039207, "centroid_lat": 45.531417687743598, "occurrences_today": 5, "datetimes_today": "2026-03-23 08:01:33, 2026-03-23 08:16:31, 2026-03-23 08:31:22, 2026-03-23 08:46:37, 2026-03-23 09:01:36", "cumulative_total": 60.0 }, "geometry": { "type": "Polygon", "coordinates": [ [ [ -73.694942231163736, 45.526222256312025 ], [ -73.701283617201554, 45.528892942848039 ], [ -73.701164016775721, 45.534088384930762 ], [ -73.694701852084648, 45.536613114181286 ], [ -73.688359926183665, 45.533942059540387 ], [ -73.688480704825906, 45.52874664381843 ], [ -73.694942231163736, 45.526222256312025 ] ] ] } },
{ "type": "Feature", "properties": { "hex_id": 563540, "centroid_lon": -73.682018605961204, "centroid_lat": 45.531270658197961, "occurrences_today": 5, "datetimes_today": "2026-03-23 08:01:33, 2026-03-23 08:16:31, 2026-03-23 08:31:22, 2026-03-23 08:46:37, 2026-03-23 09:01:36", "cumulative_total": 78.0 }, "geometry": { "type": "Polygon", "coordinates": [ [ [ -73.682139957124775, 45.526075253253907 ], [ -73.688480704825906, 45.52874664381843 ], [ -73.688359926183665, 45.533942059540387 ], [ -73.681897221645997, 45.53646605814329 ], [ -73.6755559345807, 45.533794299355627 ], [ -73.67567789140611, 45.528598910252775 ], [ -73.682139957124775, 45.526075253253907 ] ] ] } },
{ "type": "Feature", "properties": { "hex_id": 381626, "centroid_lon": -75.592758906932886, "centroid_lat": 45.771186840725449, "occurrences_today": 11, "datetimes_today": "2026-03-23 00:31:32, 2026-03-23 01:01:26, 2026-03-23 01:16:21, 2026-03-23 01:31:45, 2026-03-23 01:46:49, 2026-03-23 02:01:31, 2026-03-23 02:16:29, 2026-03-23 02:31:29, 2026-03-23 02:46:41, 2026-03-23 03:01:25, 2026-03-23 03:16:23", "cumulative_total": 23.0 }, "geometry": { "type": "Polygon", "coordinates": [ [ [ -75.592703867381886, 45.765990556528621 ], [ -75.599161532642839, 45.768555159706771 ], [ -75.599217176817461, 45.773751435458955 ], [ -75.592813961567259, 45.77638312012391 ], [ -75.586355676596767, 45.773818164670885 ], [ -75.586301226591104, 45.768621876893022 ], [ -75.592703867381886, 45.765990556528621 ] ] ] } },
{ "type": "Feature", "properties": { "hex_id": 368784, "centroid_lon": -75.723474718545887, "centroid_lat": 45.435245314715097, "occurrences_today": 2, "datetimes_today": "2026-03-23 08:46:37, 2026-03-23 09:01:36", "cumulative_total": 84.0 }, "geometry": { "type": "Polygon", "coordinates": [ [ [ -75.723408324179601, 45.430048859992297 ], [ -75.729833237529874, 45.432606425314596 ], [ -75.729900227513895, 45.437802870297581 ], [ -75.723541131032718, 45.440441764613844 ], [ -75.71711560394111, 45.437883852538462 ], [ -75.717049787078082, 45.432687392964347 ], [ -75.723408324179601, 45.430048859992297 ] ] ] } },
{ "type": "Feature", "properties": { "hex_id": 573308, "centroid_lon": -73.579594650744994, "centroid_lat": 45.530042776917789, "occurrences_today": 2, "datetimes_today": "2026-03-23 08:46:37, 2026-03-23 09:01:36", "cumulative_total": 70.0 }, "geometry": { "type": "Polygon", "coordinates": [ [ [ -73.579725424991892, 45.52484759317236 ], [ -73.586061049252862, 45.527524610778421 ], [ -73.585930846102869, 45.532719806314745 ], [ -73.579463840774253, 45.535237955624083 ], [ -73.573127681146204, 45.532560568852801 ], [ -73.573259062201871, 45.527365402001962 ], [ -73.579725424991892, 45.52484759317236 ] ] ] } },
{ "type": "Feature", "properties": { "hex_id": 553170, "centroid_lon": -73.788001627355641, "centroid_lat": 45.66496135848864, "occurrences_today": 6, "datetimes_today": "2026-03-23 07:44:35, 2026-03-23 08:01:33, 2026-03-23 08:16:31, 2026-03-23 08:31:22, 2026-03-23 08:46:37, 2026-03-23 09:01:36", "cumulative_total": 49.0 }, "geometry": { "type": "Polygon", "coordinates": [ [ [ -73.78811374300642, 45.659765863110707 ], [ -73.794474588109722, 45.662431512892553 ], [ -73.794363050471532, 45.667627018026366 ], [ -73.78788948102526, 45.670156848906061 ], [ -73.781528088594143, 45.667490830202503 ], [ -73.781640812926767, 45.662295349605849 ], [ -73.78811374300642, 45.659765863110707 ] ] ] } },
{ "type": "Feature", "properties": { "hex_id": 179705, "centroid_lon": -77.844604992439216, "centroid_lat": 48.145608581207142, "occurrences_today": 11, "datetimes_today": "2026-03-23 04:01:24, 2026-03-23 04:16:36, 2026-03-23 04:31:47, 2026-03-23 05:01:35, 2026-03-23 05:16:39, 2026-03-23 05:31:31, 2026-03-23 05:46:50, 2026-03-23 06:01:24, 2026-03-23 06:16:40, 2026-03-23 06:31:35, 2026-03-23 06:46:34", "cumulative_total": 22.0 }, "geometry": { "type": "Polygon", "coordinates": [ [ [ -77.844318127883696, 48.140420591030484 ], [ -77.851174642122132, 48.142848121489386 ], [ -77.851462222100821, 48.148036078538489 ], [ -77.844891938093014, 48.150796565388511 ], [ -77.838034627318549, 48.14836867782649 ], [ -77.837748397117068, 48.143180660588165 ], [ -77.844318127883696, 48.140420591030484 ] ] ] } },
{ "type": "Feature", "properties": { "hex_id": 180315, "centroid_lon": -77.837462247809242, "centroid_lat": 48.137992637360746, "occurrences_today": 11, "datetimes_today": "2026-03-23 04:01:24, 2026-03-23 04:16:36, 2026-03-23 04:31:47, 2026-03-23 05:01:35, 2026-03-23 05:16:39, 2026-03-23 05:31:31, 2026-03-23 05:46:50, 2026-03-23 06:01:24, 2026-03-23 06:16:40, 2026-03-23 06:31:35, 2026-03-23 06:46:34", "cumulative_total": 22.0 }, "geometry": { "type": "Polygon", "coordinates": [ [ [ -77.837176179365969, 48.132804608144617 ], [ -77.844031344397322, 48.13523259485892 ], [ -77.844318127883696, 48.140420591030484 ], [ -77.837748397117068, 48.143180660588165 ], [ -77.830892436163509, 48.140752316783264 ], [ -77.830607001927831, 48.135564260581887 ], [ -77.837176179365969, 48.132804608144617 ] ] ] } },
{ "type": "Feature", "properties": { "hex_id": 565984, "centroid_lon": -73.65566904819967, "centroid_lat": 45.562144297166171, "occurrences_today": 2, "datetimes_today": "2026-03-23 08:46:37, 2026-03-23 09:01:36", "cumulative_total": 64.0 }, "geometry": { "type": "Polygon", "coordinates": [ [ [ -73.655792958279861, 45.556948976024657 ], [ -73.662135863235946, 45.559621840439206 ], [ -73.662012526253491, 45.564817172626661 ], [ -73.655545104256518, 45.567339613298671 ], [ -73.649201660071341, 45.564666380022558 ], [ -73.649326177100832, 45.559471075000623 ], [ -73.655792958279861, 45.556948976024657 ] ] ] } },
{ "type": "Feature", "properties": { "hex_id": 575756, "centroid_lon": -73.551587149840771, "centroid_lat": 45.623232863854362, "occurrences_today": 2, "datetimes_today": "2026-03-23 07:16:51, 2026-03-23 07:31:20", "cumulative_total": 20.0 }, "geometry": { "type": "Polygon", "coordinates": [ [ [ -73.551720935979361, 45.618037828899759 ], [ -73.558065571743327, 45.62071646901115 ], [ -73.557932359135293, 45.625911516056874 ], [ -73.551453327114743, 45.628427893757667 ], [ -73.545108154413811, 45.625748883035683 ], [ -73.54524255065806, 45.620553865288244 ], [ -73.551720935979361, 45.618037828899759 ] ] ] } },
{ "type": "Feature", "properties": { "hex_id": 661821, "centroid_lon": -72.657885002934449, "centroid_lat": 45.366745308228843, "occurrences_today": 8, "datetimes_today": "2026-03-23 01:16:21, 2026-03-23 01:31:45, 2026-03-23 01:46:49, 2026-03-23 02:01:31, 2026-03-23 02:16:29, 2026-03-23 02:31:29, 2026-03-23 02:46:41, 2026-03-23 03:01:25", "cumulative_total": 42.0 }, "geometry": { "type": "Polygon", "coordinates": [ [ [ -72.658099376141195, 45.361552724087979 ], [ -72.664371393896317, 45.36427971207516 ], [ -72.664157574180464, 45.369472316982971 ], [ -72.657670571312309, 45.371937886835141 ], [ -72.651398058491424, 45.369210523417145 ], [ -72.651613043584959, 45.364017965641743 ], [ -72.658099376141195, 45.361552724087979 ] ] ] } },
{ "type": "Feature", "properties": { "hex_id": 662431, "centroid_lon": -72.651827970114496, "centroid_lat": 45.358825402327597, "occurrences_today": 8, "datetimes_today": "2026-03-23 01:16:21, 2026-03-23 01:31:45, 2026-03-23 01:46:49, 2026-03-23 02:01:31, 2026-03-23 02:16:29, 2026-03-23 02:31:29, 2026-03-23 02:46:41, 2026-03-23 03:01:25", "cumulative_total": 40.0 }, "geometry": { "type": "Polygon", "coordinates": [ [ [ -72.65204283809959, 45.353632833475011 ], [ -72.65831369095207, 45.356360134412796 ], [ -72.658099376141195, 45.361552724087979 ], [ -72.651613043584959, 45.364017965641743 ], [ -72.645341696112482, 45.361290289320884 ], [ -72.645557175796668, 45.356097746893248 ], [ -72.65204283809959, 45.353632833475011 ] ] ] } },
{ "type": "Feature", "properties": { "hex_id": 663042, "centroid_lon": -72.645126157715723, "centroid_lat": 45.366482826205655, "occurrences_today": 8, "datetimes_today": "2026-03-23 01:16:21, 2026-03-23 01:31:45, 2026-03-23 01:46:49, 2026-03-23 02:01:31, 2026-03-23 02:16:29, 2026-03-23 02:31:29, 2026-03-23 02:46:41, 2026-03-23 03:01:25", "cumulative_total": 42.0 }, "geometry": { "type": "Polygon", "coordinates": [ [ [ -72.645341696112482, 45.361290289320884 ], [ -72.651613043584959, 45.364017965641743 ], [ -72.651398058491424, 45.369210523417145 ], [ -72.644910560586794, 45.371675357547275 ], [ -72.638638718553068, 45.368947305686994 ], [ -72.638854868965595, 45.363754795299954 ], [ -72.645341696112482, 45.361290289320884 ] ] ] } },
{ "type": "Feature", "properties": { "hex_id": 663652, "centroid_lon": -72.639070960497421, "centroid_lat": 45.358562279365586, "occurrences_today": 8, "datetimes_today": "2026-03-23 01:16:21, 2026-03-23 01:31:45, 2026-03-23 01:46:49, 2026-03-23 02:01:31, 2026-03-23 02:16:29, 2026-03-23 02:31:29, 2026-03-23 02:46:41, 2026-03-23 03:01:25", "cumulative_total": 81.0 }, "geometry": { "type": "Polygon", "coordinates": [ [ [ -72.63928699316817, 45.353369757884181 ], [ -72.645557175796668, 45.356097746893248 ], [ -72.645341696112482, 45.361290289320884 ], [ -72.638854868965595, 45.363754795299954 ], [ -72.632584192221429, 45.361026430799292 ], [ -72.632800836720151, 45.355833935875076 ], [ -72.63928699316817, 45.353369757884181 ] ] ] } },
{ "type": "Feature", "properties": { "hex_id": 784630, "centroid_lon": -71.274728718134611, "centroid_lat": 46.865590451581163, "occurrences_today": 1, "datetimes_today": "2026-03-23 08:46:37", "cumulative_total": 63.0 }, "geometry": { "type": "Polygon", "coordinates": [ [ [ -71.275087837356196, 46.860405880901183 ], [ -71.281454432250683, 46.863211299401272 ], [ -71.281095890847496, 46.868395905064666 ], [ -71.27436949930312, 46.870775015430418 ], [ -71.268002426217393, 46.867969189984102 ], [ -71.268362222832721, 46.862784661185074 ], [ -71.275087837356196, 46.860405880901183 ] ] ] } },
{ "type": "Feature", "properties": { "hex_id": 584310, "centroid_lon": -73.45883214919381, "centroid_lat": 45.731149399990258, "occurrences_today": 3, "datetimes_today": "2026-03-23 08:31:22, 2026-03-23 08:46:37, 2026-03-23 09:01:36", "cumulative_total": 139.0 }, "geometry": { "type": "Polygon", "coordinates": [ [ [ -73.45897503734804, 45.725954683363334 ], [ -73.465327186790134, 45.728638526577896 ], [ -73.465184874170177, 45.733833256242164 ], [ -73.458689221913062, 45.73634411152505 ], [ -73.452336536069822, 45.733659895459596 ], [ -73.452480038871641, 45.72846519702712 ], [ -73.45897503734804, 45.725954683363334 ] ] ] } },
{ "type": "Feature", "properties": { "hex_id": 777911, "centroid_lon": -71.350437203127285, "centroid_lat": 46.813471841073984, "occurrences_today": 4, "datetimes_today": "2026-03-23 08:16:31, 2026-03-23 08:31:22, 2026-03-23 08:46:37, 2026-03-23 09:01:36", "cumulative_total": 18.0 }, "geometry": { "type": "Polygon", "coordinates": [ [ [ -71.35078839420774, 46.808286780892757 ], [ -71.357153183443472, 46.811087938766121 ], [ -71.356802569777997, 46.816273033161735 ], [ -71.350085914696038, 46.818656894511669 ], [ -71.343720645412958, 46.815855331023648 ], [ -71.344072511225448, 46.810670311867092 ], [ -71.35078839420774, 46.808286780892757 ] ] ] } },
{ "type": "Feature", "properties": { "hex_id": 370617, "centroid_lon": -75.70458967786702, "centroid_lat": 45.458749251404463, "occurrences_today": 2, "datetimes_today": "2026-03-23 08:46:37, 2026-03-23 09:01:36", "cumulative_total": 62.0 }, "geometry": { "type": "Polygon", "coordinates": [ [ [ -75.704524963533871, 45.453552796777458 ], [ -75.710951718162377, 45.456111402845437 ], [ -75.711017028620773, 45.461307847922058 ], [ -75.704654409867246, 45.46394570121133 ], [ -75.698227041443431, 45.461386747903816 ], [ -75.698162905574378, 45.456190288611054 ], [ -75.704524963533871, 45.453552796777458 ] ] ] } },
{ "type": "Feature", "properties": { "hex_id": 663043, "centroid_lon": -72.644479190053914, "centroid_lat": 45.382060403600001, "occurrences_today": 4, "datetimes_today": "2026-03-23 04:01:24, 2026-03-23 04:16:36, 2026-03-23 04:31:47, 2026-03-23 05:01:35", "cumulative_total": 23.0 }, "geometry": { "type": "Polygon", "coordinates": [ [ [ -72.644694904706071, 45.376867883345497 ], [ -72.650967912534085, 45.379595622350749 ], [ -72.650752751631117, 45.384788163508368 ], [ -72.644263416610684, 45.387252918310537 ], [ -72.637989913834375, 45.384524803561554 ], [ -72.638206241007126, 45.379332309818089 ], [ -72.644694904706071, 45.376867883345497 ] ] ] } },
{ "type": "Feature", "properties": { "hex_id": 564150, "centroid_lon": -73.675799814924716, "centroid_lat": 45.52340351614874, "occurrences_today": 2, "datetimes_today": "2026-03-23 08:46:37, 2026-03-23 09:01:36", "cumulative_total": 44.0 }, "geometry": { "type": "Polygon", "coordinates": [ [ [ -73.675921705147644, 45.518208117043628 ], [ -73.682261275147852, 45.520879843311128 ], [ -73.682139957124775, 45.526075253253907 ], [ -73.67567789140611, 45.528598910252775 ], [ -73.669337782507284, 45.525926815803494 ], [ -73.669460278214558, 45.520731432601671 ], [ -73.675921705147644, 45.518208117043628 ] ] ] } },
{ "type": "Feature", "properties": { "hex_id": 562318, "centroid_lon": -73.695182478966814, "centroid_lat": 45.515831378467333, "occurrences_today": 1, "datetimes_today": "2026-03-23 09:01:36", "cumulative_total": 28.0 }, "geometry": { "type": "Polygon", "coordinates": [ [ [ -73.695302553667375, 45.51063593205437 ], [ -73.701642222540485, 45.51330658665119 ], [ -73.701522720072973, 45.518502043708189 ], [ -73.695062371469277, 45.521026819886572 ], [ -73.688722163165593, 45.518355797385659 ], [ -73.68884284288518, 45.513160366674988 ], [ -73.695302553667375, 45.51063593205437 ] ] ] } },
{ "type": "Feature", "properties": { "hex_id": 562929, "centroid_lon": -73.688601450482864, "centroid_lat": 45.523551223100164, "occurrences_today": 2, "datetimes_today": "2026-03-23 08:46:37, 2026-03-23 09:01:36", "cumulative_total": 41.0 }, "geometry": { "type": "Polygon", "coordinates": [ [ [ -73.688722163165593, 45.518355797385659 ], [ -73.695062371469277, 45.521026819886572 ], [ -73.694942231163736, 45.526222256312025 ], [ -73.688480704825906, 45.52874664381843 ], [ -73.682139957124775, 45.526075253253907 ], [ -73.682261275147852, 45.520879843311128 ], [ -73.688722163165593, 45.518355797385659 ] ] ] } },
{ "type": "Feature", "properties": { "hex_id": 583074, "centroid_lon": -73.478018150680384, "centroid_lat": 45.497553341310727, "occurrences_today": 5, "datetimes_today": "2026-03-23 08:01:33, 2026-03-23 08:16:31, 2026-03-23 08:31:22, 2026-03-23 08:46:37, 2026-03-23 09:01:36", "cumulative_total": 126.0 }, "geometry": { "type": "Polygon", "coordinates": [ [ [ -73.478158116208334, 45.492358364797752 ], [ -73.484485172585281, 45.49504092342039 ], [ -73.484345775795518, 45.500235912718949 ], [ -73.477878146934501, 45.502748312741709 ], [ -73.47155056004371, 45.500065384422328 ], [ -73.471691132514962, 45.49487042584137 ], [ -73.478158116208334, 45.492358364797752 ] ] ] } },
{ "type": "Feature", "properties": { "hex_id": 660599, "centroid_lon": -72.671283473055894, "centroid_lat": 45.351428456189744, "occurrences_today": 8, "datetimes_today": "2026-03-23 01:16:21, 2026-03-23 01:31:45, 2026-03-23 01:46:49, 2026-03-23 02:01:31, 2026-03-23 02:16:29, 2026-03-23 02:31:29, 2026-03-23 02:46:41, 2026-03-23 03:01:25", "cumulative_total": 25.0 }, "geometry": { "type": "Polygon", "coordinates": [ [ [ -72.671496506834771, 45.346235808472166 ], [ -72.677767534283248, 45.348962046066966 ], [ -72.677555053736882, 45.354154714415436 ], [ -72.671070381236603, 45.356621098382064 ], [ -72.664798858605693, 45.353894485669272 ], [ -72.665012503638124, 45.34870186417173 ], [ -72.671496506834771, 45.346235808472166 ] ] ] } },
{ "type": "Feature", "properties": { "hex_id": 660600, "centroid_lon": -72.670644023399319, "centroid_lat": 45.367006366189884, "occurrences_today": 8, "datetimes_today": "2026-03-23 01:16:21, 2026-03-23 01:31:45, 2026-03-23 01:46:49, 2026-03-23 02:01:31, 2026-03-23 02:16:29, 2026-03-23 02:31:29, 2026-03-23 02:46:41, 2026-03-23 03:01:25", "cumulative_total": 25.0 }, "geometry": { "type": "Polygon", "coordinates": [ [ [ -72.670857231357559, 45.361813735048862 ], [ -72.677129918949419, 45.364540034548654 ], [ -72.67691726466964, 45.369732686332888 ], [ -72.67043075734253, 45.372198991804837 ], [ -72.664157574180464, 45.369472316982971 ], [ -72.664371393896317, 45.36427971207516 ], [ -72.670857231357559, 45.361813735048862 ] ] ] } },
{ "type": "Feature", "properties": { "hex_id": 661210, "centroid_lon": -72.664585155364904, "centroid_lat": 45.359087101637172, "occurrences_today": 8, "datetimes_today": "2026-03-23 01:16:21, 2026-03-23 01:31:45, 2026-03-23 01:46:49, 2026-03-23 02:01:31, 2026-03-23 02:16:29, 2026-03-23 02:31:29, 2026-03-23 02:46:41, 2026-03-23 03:01:25", "cumulative_total": 25.0 }, "geometry": { "type": "Polygon", "coordinates": [ [ [ -72.664798858605693, 45.353894485669272 ], [ -72.671070381236603, 45.356621098382064 ], [ -72.670857231357559, 45.361813735048862 ], [ -72.664371393896317, 45.36427971207516 ], [ -72.658099376141195, 45.361552724087979 ], [ -72.65831369095207, 45.356360134412796 ], [ -72.664798858605693, 45.353894485669272 ] ] ] } },
{ "type": "Feature", "properties": { "hex_id": 661211, "centroid_lon": -72.663943696197919, "centroid_lat": 45.374664916360345, "occurrences_today": 8, "datetimes_today": "2026-03-23 01:16:21, 2026-03-23 01:31:45, 2026-03-23 01:46:49, 2026-03-23 02:01:31, 2026-03-23 02:16:29, 2026-03-23 02:31:29, 2026-03-23 02:46:41, 2026-03-23 03:01:25", "cumulative_total": 27.0 }, "geometry": { "type": "Polygon", "coordinates": [ [ [ -72.664157574180464, 45.369472316982971 ], [ -72.67043075734253, 45.372198991804837 ], [ -72.67021743316775, 45.377391611893493 ], [ -72.663729759929183, 45.37985751020701 ], [ -72.657456081255276, 45.377130459906589 ], [ -72.657670571312309, 45.371937886835141 ], [ -72.664157574180464, 45.369472316982971 ] ] ] } },
{ "type": "Feature", "properties": { "hex_id": 661820, "centroid_lon": -72.658527947386574, "centroid_lat": 45.351167539203601, "occurrences_today": 8, "datetimes_today": "2026-03-23 01:16:21, 2026-03-23 01:31:45, 2026-03-23 01:46:49, 2026-03-23 02:01:31, 2026-03-23 02:16:29, 2026-03-23 02:31:29, 2026-03-23 02:46:41, 2026-03-23 03:01:25", "cumulative_total": 25.0 }, "geometry": { "type": "Polygon", "coordinates": [ [ [ -72.65874214546416, 45.345974938460621 ], [ -72.665012503638124, 45.34870186417173 ], [ -72.664798858605693, 45.353894485669272 ], [ -72.65831369095207, 45.356360134412796 ], [ -72.65204283809959, 45.353632833475011 ], [ -72.652257647559765, 45.348440259084249 ], [ -72.65874214546416, 45.345974938460621 ] ] ] } },
{ "type": "Feature", "properties": { "hex_id": 662432, "centroid_lon": -72.651183014814322, "centroid_lat": 45.374403075653575, "occurrences_today": 8, "datetimes_today": "2026-03-23 01:16:21, 2026-03-23 01:31:45, 2026-03-23 01:46:49, 2026-03-23 02:01:31, 2026-03-23 02:16:29, 2026-03-23 02:31:29, 2026-03-23 02:46:41, 2026-03-23 03:01:25", "cumulative_total": 27.0 }, "geometry": { "type": "Polygon", "coordinates": [ [ [ -72.651398058491424, 45.369210523417145 ], [ -72.657670571312309, 45.371937886835141 ], [ -72.657456081255276, 45.377130459906589 ], [ -72.650967912534085, 45.379595622350749 ], [ -72.644694904706071, 45.376867883345497 ], [ -72.644910560586794, 45.371675357547275 ], [ -72.651398058491424, 45.369210523417145 ] ] ] } },
{ "type": "Feature", "properties": { "hex_id": 663041, "centroid_lon": -72.645772596787921, "centroid_lat": 45.350905198923009, "occurrences_today": 8, "datetimes_today": "2026-03-23 01:16:21, 2026-03-23 01:31:45, 2026-03-23 01:46:49, 2026-03-23 02:01:31, 2026-03-23 02:16:29, 2026-03-23 02:31:29, 2026-03-23 02:46:41, 2026-03-23 03:01:25", "cumulative_total": 33.0 }, "geometry": { "type": "Polygon", "coordinates": [ [ [ -72.645987959105796, 45.345712645410437 ], [ -72.652257647559765, 45.348440259084249 ], [ -72.65204283809959, 45.353632833475011 ], [ -72.645557175796668, 45.356097746893248 ], [ -72.63928699316817, 45.353369757884181 ], [ -72.639502966997512, 45.348177230856031 ], [ -72.645987959105796, 45.345712645410437 ] ] ] } },
{ "type": "Feature", "properties": { "hex_id": 663651, "centroid_lon": -72.639718882005099, "centroid_lat": 45.34298469828137, "occurrences_today": 8, "datetimes_today": "2026-03-23 01:16:21, 2026-03-23 01:31:45, 2026-03-23 01:46:49, 2026-03-23 02:01:31, 2026-03-23 02:16:29, 2026-03-23 02:31:29, 2026-03-23 02:46:41, 2026-03-23 03:01:25", "cumulative_total": 25.0 }, "geometry": { "type": "Polygon", "coordinates": [ [ [ -72.639934738210528, 45.337792160160518 ], [ -72.646203262769887, 45.340520086355816 ], [ -72.645987959105796, 45.345712645410437 ], [ -72.639502966997512, 45.348177230856031 ], [ -72.633233948708764, 45.345448929373291 ], [ -72.633450416238048, 45.340256417796255 ], [ -72.639934738210528, 45.337792160160518 ] ] ] } },
{ "type": "Feature", "properties": { "hex_id": 663653, "centroid_lon": -72.638422509240129, "centroid_lat": 45.374139810526479, "occurrences_today": 8, "datetimes_today": "2026-03-23 01:16:21, 2026-03-23 01:31:45, 2026-03-23 01:46:49, 2026-03-23 02:01:31, 2026-03-23 02:16:29, 2026-03-23 02:31:29, 2026-03-23 02:46:41, 2026-03-23 03:01:25", "cumulative_total": 27.0 }, "geometry": { "type": "Polygon", "coordinates": [ [ [ -72.638638718553068, 45.368947305686994 ], [ -72.644910560586794, 45.371675357547275 ], [ -72.644694904706071, 45.376867883345497 ], [ -72.638206241007126, 45.379332309818089 ], [ -72.631933904471126, 45.376603882261946 ], [ -72.632150726116635, 45.371411403993008 ], [ -72.638638718553068, 45.368947305686994 ] ] ] } },
{ "type": "Feature", "properties": { "hex_id": 664262, "centroid_lon": -72.633017422209349, "centroid_lat": 45.350641435399652, "occurrences_today": 8, "datetimes_today": "2026-03-23 01:16:21, 2026-03-23 01:31:45, 2026-03-23 01:46:49, 2026-03-23 02:01:31, 2026-03-23 02:16:29, 2026-03-23 02:31:29, 2026-03-23 02:46:41, 2026-03-23 03:01:25", "cumulative_total": 64.0 }, "geometry": { "type": "Polygon", "coordinates": [ [ [ -72.633233948708764, 45.345448929373291 ], [ -72.639502966997512, 45.348177230856031 ], [ -72.63928699316817, 45.353369757884181 ], [ -72.632800836720151, 45.355833935875076 ], [ -72.626531324760975, 45.353105258948617 ], [ -72.626748462900551, 45.347912779538866 ], [ -72.633233948708764, 45.345448929373291 ] ] ] } },
{ "type": "Feature", "properties": { "hex_id": 664263, "centroid_lon": -72.632367488693504, "centroid_lat": 45.366218920172038, "occurrences_today": 8, "datetimes_today": "2026-03-23 01:16:21, 2026-03-23 01:31:45, 2026-03-23 01:46:49, 2026-03-23 02:01:31, 2026-03-23 02:16:29, 2026-03-23 02:31:29, 2026-03-23 02:46:41, 2026-03-23 03:01:25", "cumulative_total": 27.0 }, "geometry": { "type": "Polygon", "coordinates": [ [ [ -72.632584192221429, 45.361026430799292 ], [ -72.638854868965595, 45.363754795299954 ], [ -72.638638718553068, 45.368947305686994 ], [ -72.632150726116635, 45.371411403993008 ], [ -72.625879555315862, 45.36868266384441 ], [ -72.626096870988405, 45.363490201101676 ], [ -72.632584192221429, 45.361026430799292 ] ] ] } },
{ "type": "Feature", "properties": { "hex_id": 664872, "centroid_lon": -72.626965541901981, "centroid_lat": 45.342720294574001, "occurrences_today": 8, "datetimes_today": "2026-03-23 01:16:21, 2026-03-23 01:31:45, 2026-03-23 01:46:49, 2026-03-23 02:01:31, 2026-03-23 02:16:29, 2026-03-23 02:31:29, 2026-03-23 02:46:41, 2026-03-23 03:01:25", "cumulative_total": 25.0 }, "geometry": { "type": "Polygon", "coordinates": [ [ [ -72.62718256178502, 45.33752780405429 ], [ -72.633450416238048, 45.340256417796255 ], [ -72.633233948708764, 45.345448929373291 ], [ -72.626748462900551, 45.347912779538866 ], [ -72.620480115222051, 45.34518379040108 ], [ -72.620697746557497, 45.339991326557389 ], [ -72.62718256178502, 45.33752780405429 ] ] ] } },
{ "type": "Feature", "properties": { "hex_id": 664873, "centroid_lon": -72.626314127463516, "centroid_lat": 45.358297732802981, "occurrences_today": 8, "datetimes_today": "2026-03-23 01:16:21, 2026-03-23 01:31:45, 2026-03-23 01:46:49, 2026-03-23 02:01:31, 2026-03-23 02:16:29, 2026-03-23 02:31:29, 2026-03-23 02:46:41, 2026-03-23 03:01:25", "cumulative_total": 66.0 }, "geometry": { "type": "Polygon", "coordinates": [ [ [ -72.626531324760975, 45.353105258948617 ], [ -72.632800836720151, 45.355833935875076 ], [ -72.632584192221429, 45.361026430799292 ], [ -72.626096870988405, 45.363490201101676 ], [ -72.619826865418005, 45.360761148575186 ], [ -72.620044674672116, 45.355568701410256 ], [ -72.626531324760975, 45.353105258948617 ] ] ] } },
{ "type": "Feature", "properties": { "hex_id": 664874, "centroid_lon": -72.625662180426147, "centroid_lat": 45.373875121030935, "occurrences_today": 8, "datetimes_today": "2026-03-23 01:16:21, 2026-03-23 01:31:45, 2026-03-23 01:46:49, 2026-03-23 02:01:31, 2026-03-23 02:16:29, 2026-03-23 02:31:29, 2026-03-23 02:46:41, 2026-03-23 03:01:25", "cumulative_total": 27.0 }, "geometry": { "type": "Polygon", "coordinates": [ [ [ -72.625879555315862, 45.36868266384441 ], [ -72.632150726116635, 45.371411403993008 ], [ -72.631933904471126, 45.376603882261946 ], [ -72.625444746299465, 45.379067572660944 ], [ -72.619173081501359, 45.376338456708005 ], [ -72.619391068852451, 45.371146026224345 ], [ -72.625879555315862, 45.36868266384441 ] ] ] } },
{ "type": "Feature", "properties": { "hex_id": 665482, "centroid_lon": -72.620915318626274, "centroid_lat": 45.334798857154688, "occurrences_today": 8, "datetimes_today": "2026-03-23 01:16:21, 2026-03-23 01:31:45, 2026-03-23 01:46:49, 2026-03-23 02:01:31, 2026-03-23 02:16:29, 2026-03-23 02:31:29, 2026-03-23 02:46:41, 2026-03-23 03:01:25", "cumulative_total": 31.0 }, "geometry": { "type": "Polygon", "coordinates": [ [ [ -72.621132831448207, 45.329606382193219 ], [ -72.627399522569348, 45.332335307980031 ], [ -72.62718256178502, 45.33752780405429 ], [ -72.620697746557497, 45.339991326557389 ], [ -72.614430562655514, 45.337262025422667 ], [ -72.614648686742115, 45.332069577196606 ], [ -72.621132831448207, 45.329606382193219 ] ] ] } },
{ "type": "Feature", "properties": { "hex_id": 665483, "centroid_lon": -72.620262424600199, "centroid_lat": 45.350376248685471, "occurrences_today": 8, "datetimes_today": "2026-03-23 01:16:21, 2026-03-23 01:31:45, 2026-03-23 01:46:49, 2026-03-23 02:01:31, 2026-03-23 02:16:29, 2026-03-23 02:31:29, 2026-03-23 02:46:41, 2026-03-23 03:01:25", "cumulative_total": 25.0 }, "geometry": { "type": "Polygon", "coordinates": [ [ [ -72.620480115222051, 45.34518379040108 ], [ -72.626748462900551, 45.347912779538866 ], [ -72.626531324760975, 45.353105258948617 ], [ -72.620044674672116, 45.355568701410256 ], [ -72.613775833827461, 45.352839336720407 ], [ -72.613994136218025, 45.34764690518486 ], [ -72.620480115222051, 45.34518379040108 ] ] ] } },
{ "type": "Feature", "properties": { "hex_id": 665484, "centroid_lon": -72.619608996818059, "centroid_lat": 45.365953590179984, "occurrences_today": 8, "datetimes_today": "2026-03-23 01:16:21, 2026-03-23 01:31:45, 2026-03-23 01:46:49, 2026-03-23 02:01:31, 2026-03-23 02:16:29, 2026-03-23 02:31:29, 2026-03-23 02:46:41, 2026-03-23 03:01:25", "cumulative_total": 27.0 }, "geometry": { "type": "Polygon", "coordinates": [ [ [ -72.619826865418005, 45.360761148575186 ], [ -72.626096870988405, 45.363490201101676 ], [ -72.625879555315862, 45.36868266384441 ], [ -72.619391068852451, 45.371146026224345 ], [ -72.613120569730242, 45.368416597941518 ], [ -72.613339050603429, 45.363224183099028 ], [ -72.619826865418005, 45.360761148575186 ] ] ] } },
{ "type": "Feature", "properties": { "hex_id": 666093, "centroid_lon": -72.614212379154097, "centroid_lat": 45.342454468085513, "occurrences_today": 8, "datetimes_today": "2026-03-23 01:16:21, 2026-03-23 01:31:45, 2026-03-23 01:46:49, 2026-03-23 02:01:31, 2026-03-23 02:16:29, 2026-03-23 02:31:29, 2026-03-23 02:46:41, 2026-03-23 03:01:25", "cumulative_total": 25.0 }, "geometry": { "type": "Polygon", "coordinates": [ [ [ -72.614430562655514, 45.337262025422667 ], [ -72.620697746557497, 45.339991326557389 ], [ -72.620480115222051, 45.34518379040108 ], [ -72.613994136218025, 45.34764690518486 ], [ -72.60772645959463, 45.344917228546038 ], [ -72.607945254676849, 45.339724812691401 ], [ -72.614430562655514, 45.337262025422667 ] ] ] } },
{ "type": "Feature", "properties": { "hex_id": 666094, "centroid_lon": -72.613557471962537, "centroid_lat": 45.358031762691894, "occurrences_today": 8, "datetimes_today": "2026-03-23 01:16:21, 2026-03-23 01:31:45, 2026-03-23 01:46:49, 2026-03-23 02:01:31, 2026-03-23 02:16:29, 2026-03-23 02:31:29, 2026-03-23 02:46:41, 2026-03-23 03:01:25", "cumulative_total": 27.0 }, "geometry": { "type": "Polygon", "coordinates": [ [ [ -72.613775833827461, 45.352839336720407 ], [ -72.620044674672116, 45.355568701410256 ], [ -72.619826865418005, 45.360761148575186 ], [ -72.613339050603429, 45.363224183099028 ], [ -72.607069716652106, 45.360494442700833 ], [ -72.607288690602161, 45.355302043551042 ], [ -72.613775833827461, 45.352839336720407 ] ] ] } },
{ "type": "Feature", "properties": { "hex_id": 666095, "centroid_lon": -72.612902029323067, "centroid_lat": 45.373609007219109, "occurrences_today": 8, "datetimes_today": "2026-03-23 01:16:21, 2026-03-23 01:31:45, 2026-03-23 01:46:49, 2026-03-23 02:01:31, 2026-03-23 02:16:29, 2026-03-23 02:31:29, 2026-03-23 02:46:41, 2026-03-23 03:01:25", "cumulative_total": 27.0 }, "geometry": { "type": "Polygon", "coordinates": [ [ [ -72.613120569730242, 45.368416597941518 ], [ -72.619391068852451, 45.371146026224345 ], [ -72.619173081501359, 45.376338456708005 ], [ -72.612683429362065, 45.378801410931509 ], [ -72.60641243674759, 45.37607160673597 ], [ -72.606631589744751, 45.370879224293574 ], [ -72.613120569730242, 45.368416597941518 ] ] ] } },
{ "type": "Feature", "properties": { "hex_id": 666704, "centroid_lon": -72.607507604909699, "centroid_lat": 45.350109638832699, "occurrences_today": 8, "datetimes_today": "2026-03-23 01:16:21, 2026-03-23 01:31:45, 2026-03-23 01:46:49, 2026-03-23 02:01:31, 2026-03-23 02:16:29, 2026-03-23 02:31:29, 2026-03-23 02:46:41, 2026-03-23 03:01:25", "cumulative_total": 25.0 }, "geometry": { "type": "Polygon", "coordinates": [ [ [ -72.60772645959463, 45.344917228546038 ], [ -72.613994136218025, 45.34764690518486 ], [ -72.613775833827461, 45.352839336720407 ], [ -72.607288690602161, 45.355302043551042 ], [ -72.601020521316968, 45.352571991251928 ], [ -72.601239987898964, 45.347379607846364 ], [ -72.60772645959463, 45.344917228546038 ] ] ] } },
{ "type": "Feature", "properties": { "hex_id": 666705, "centroid_lon": -72.60685068303961, "centroid_lat": 45.365686836281775, "occurrences_today": 8, "datetimes_today": "2026-03-23 01:16:21, 2026-03-23 01:31:45, 2026-03-23 01:46:49, 2026-03-23 02:01:31, 2026-03-23 02:16:29, 2026-03-23 02:31:29, 2026-03-23 02:46:41, 2026-03-23 03:01:25", "cumulative_total": 27.0 }, "geometry": { "type": "Polygon", "coordinates": [ [ [ -72.607069716652106, 45.360494442700833 ], [ -72.613339050603429, 45.363224183099028 ], [ -72.613120569730242, 45.368416597941518 ], [ -72.606631589744751, 45.370879224293574 ], [ -72.600361762746473, 45.36814910803075 ], [ -72.600581408760689, 45.362956741344412 ], [ -72.607069716652106, 45.360494442700833 ] ] ] } },
{ "type": "Feature", "properties": { "hex_id": 667314, "centroid_lon": -72.601459394710147, "centroid_lat": 45.342187218868268, "occurrences_today": 8, "datetimes_today": "2026-03-23 01:16:21, 2026-03-23 01:31:45, 2026-03-23 01:46:49, 2026-03-23 02:01:31, 2026-03-23 02:16:29, 2026-03-23 02:31:29, 2026-03-23 02:46:41, 2026-03-23 03:01:25", "cumulative_total": 25.0 }, "geometry": { "type": "Polygon", "coordinates": [ [ [ -72.601678741770471, 45.336994824317962 ], [ -72.607945254676849, 45.339724812691401 ], [ -72.60772645959463, 45.344917228546038 ], [ -72.601239987898964, 45.347379607846364 ], [ -72.594972982775317, 45.34464924386068 ], [ -72.595192941544667, 45.339456876250779 ], [ -72.601678741770471, 45.336994824317962 ] ] ] } },
{ "type": "Feature", "properties": { "hex_id": 667315, "centroid_lon": -72.600800994944194, "centroid_lat": 45.35776436908472, "occurrences_today": 8, "datetimes_today": "2026-03-23 01:16:21, 2026-03-23 01:31:45, 2026-03-23 01:46:49, 2026-03-23 02:01:31, 2026-03-23 02:16:29, 2026-03-23 02:31:29, 2026-03-23 02:46:41, 2026-03-23 03:01:25", "cumulative_total": 93.0 }, "geometry": { "type": "Polygon", "coordinates": [ [ [ -72.601020521316968, 45.352571991251928 ], [ -72.607288690602161, 45.355302043551042 ], [ -72.607069716652106, 45.360494442700833 ], [ -72.600581408760689, 45.362956741344412 ], [ -72.594312746873499, 45.360226313228758 ], [ -72.594532885459756, 45.35503396234995 ], [ -72.601020521316968, 45.352571991251928 ] ] ] } },
{ "type": "Feature", "properties": { "hex_id": 667316, "centroid_lon": -72.600142056881538, "centroid_lat": 45.373341469143455, "occurrences_today": 8, "datetimes_today": "2026-03-23 01:16:21, 2026-03-23 01:31:45, 2026-03-23 01:46:49, 2026-03-23 02:01:31, 2026-03-23 02:16:29, 2026-03-23 02:31:29, 2026-03-23 02:46:41, 2026-03-23 03:01:25", "cumulative_total": 27.0 }, "geometry": { "type": "Polygon", "coordinates": [ [ [ -72.600361762746473, 45.36814910803075 ], [ -72.606631589744751, 45.370879224293574 ], [ -72.60641243674759, 45.37607160673597 ], [ -72.599922291145916, 45.378533824682229 ], [ -72.593651971160568, 45.375803332398434 ], [ -72.593872289743942, 45.370610998253284 ], [ -72.600361762746473, 45.36814910803075 ] ] ] } },
{ "type": "Feature", "properties": { "hex_id": 667925, "centroid_lon": -72.594752964087021, "centroid_lat": 45.349841605893836, "occurrences_today": 8, "datetimes_today": "2026-03-23 01:16:21, 2026-03-23 01:31:45, 2026-03-23 01:46:49, 2026-03-23 02:01:31, 2026-03-23 02:16:29, 2026-03-23 02:31:29, 2026-03-23 02:46:41, 2026-03-23 03:01:25", "cumulative_total": 83.0 }, "geometry": { "type": "Polygon", "coordinates": [ [ [ -72.594972982775317, 45.34464924386068 ], [ -72.601239987898964, 45.347379607846364 ], [ -72.601020521316968, 45.352571991251928 ], [ -72.594532885459756, 45.35503396234995 ], [ -72.588265388178783, 45.35230322259585 ], [ -72.58848601889234, 45.347110887576008 ], [ -72.594972982775317, 45.34464924386068 ] ] ] } },
{ "type": "Feature", "properties": { "hex_id": 667926, "centroid_lon": -72.59409254830824, "centroid_lat": 45.365418658529968, "occurrences_today": 8, "datetimes_today": "2026-03-23 01:16:21, 2026-03-23 01:31:45, 2026-03-23 01:46:49, 2026-03-23 02:01:31, 2026-03-23 02:16:29, 2026-03-23 02:31:29, 2026-03-23 02:46:41, 2026-03-23 03:01:25", "cumulative_total": 93.0 }, "geometry": { "type": "Polygon", "coordinates": [ [ [ -72.594312746873499, 45.360226313228758 ], [ -72.600581408760689, 45.362956741344412 ], [ -72.600361762746473, 45.36814910803075 ], [ -72.593872289743942, 45.370610998253284 ], [ -72.587603135314779, 45.367880194164812 ], [ -72.587823946410083, 45.362687875890543 ], [ -72.594312746873499, 45.360226313228758 ] ] ] } },
{ "type": "Feature", "properties": { "hex_id": 668536, "centroid_lon": -72.588044697358043, "centroid_lat": 45.357495552034123, "occurrences_today": 8, "datetimes_today": "2026-03-23 01:16:21, 2026-03-23 01:31:45, 2026-03-23 01:46:49, 2026-03-23 02:01:31, 2026-03-23 02:16:29, 2026-03-23 02:31:29, 2026-03-23 02:46:41, 2026-03-23 03:01:25", "cumulative_total": 94.0 }, "geometry": { "type": "Polygon", "coordinates": [ [ [ -72.588265388178783, 45.35230322259585 ], [ -72.594532885459756, 45.35503396234995 ], [ -72.594312746873499, 45.360226313228758 ], [ -72.587823946410083, 45.362687875890543 ], [ -72.581555957031895, 45.359956760211801 ], [ -72.581777260194272, 45.354764457859794 ], [ -72.588265388178783, 45.35230322259585 ] ] ] } },
{ "type": "Feature", "properties": { "hex_id": 520209, "centroid_lon": -74.133114934059805, "centroid_lat": 45.761640898039445, "occurrences_today": 1, "datetimes_today": "2026-03-23 09:01:36", "cumulative_total": 64.0 }, "geometry": { "type": "Polygon", "coordinates": [ [ [ -74.133195398690631, 45.756444922283514 ], [ -74.139583841459853, 45.759091506662152 ], [ -74.139503962447748, 45.764287488748558 ], [ -74.133034447381945, 45.766836868938825 ], [ -74.126645441044786, 45.764189917709906 ], [ -74.126726513333921, 45.758993953206165 ], [ -74.133195398690631, 45.756444922283514 ] ] ] } },
{ "type": "Feature", "properties": { "hex_id": 843224, "centroid_lon": -70.664144250795971, "centroid_lat": 46.625799324260846, "occurrences_today": 3, "datetimes_today": "2026-03-23 08:31:22, 2026-03-23 08:46:37, 2026-03-23 09:01:36", "cumulative_total": 13.0 }, "geometry": { "type": "Polygon", "coordinates": [ [ [ -70.664558643325265, 46.620618432926626 ], [ -70.670863749852884, 46.623455950725408 ], [ -70.670449917852281, 46.628636882743187 ], [ -70.663729743779612, 46.63098020804464 ], [ -70.657424191230092, 46.628142281702971 ], [ -70.657839258735692, 46.622961438668618 ], [ -70.664558643325265, 46.620618432926626 ] ] ] } },
{ "type": "Feature", "properties": { "hex_id": 1169401, "centroid_lon": -66.797019768372863, "centroid_lat": 49.064947958154924, "occurrences_today": 3, "datetimes_today": "2026-03-23 08:31:22, 2026-03-23 08:46:37, 2026-03-23 09:01:36", "cumulative_total": 7.0 }, "geometry": { "type": "Polygon", "coordinates": [ [ [ -66.797871593252808, 49.059807589350271 ], [ -66.804220215034789, 49.062862346897511 ], [ -66.803368953457408, 49.06800279516014 ], [ -66.796167701454678, 49.070088311352947 ], [ -66.78981875845237, 49.067033084060114 ], [ -66.790671388585139, 49.061892810388279 ], [ -66.797871593252808, 49.059807589350271 ] ] ] } },
{ "type": "Feature", "properties": { "hex_id": 787682, "centroid_lon": -71.24254090919537, "centroid_lat": 46.85674252059529, "occurrences_today": 4, "datetimes_today": "2026-03-23 08:16:31, 2026-03-23 08:31:22, 2026-03-23 08:46:37, 2026-03-23 09:01:36", "cumulative_total": 80.0 }, "geometry": { "type": "Polygon", "coordinates": [ [ [ -71.242903015043012, 46.851558132595457 ], [ -71.249266801047142, 46.854365269581663 ], [ -71.248905272222146, 46.859549692870964 ], [ -71.242178702925116, 46.861926901728715 ], [ -71.235814440338359, 46.859119357654485 ], [ -71.236177223596457, 46.85393501187734 ], [ -71.242903015043012, 46.851558132595457 ] ] ] } },
{ "type": "Feature", "properties": { "hex_id": 583120, "centroid_lon": -73.458330651887223, "centroid_lat": 46.214411316101383, "occurrences_today": 1, "datetimes_today": "2026-03-23 09:01:36", "cumulative_total": 40.0 }, "geometry": { "type": "Polygon", "coordinates": [ [ [ -73.458476015349774, 46.209217041814782 ], [ -73.464883035006807, 46.211901391264277 ], [ -73.464738262017761, 46.217095678725627 ], [ -73.458185248378371, 46.219605585292975 ], [ -73.451777678300971, 46.216920856748985 ], [ -73.451923672269643, 46.211726600798265 ], [ -73.458476015349774, 46.209217041814782 ] ] ] } },
{ "type": "Feature", "properties": { "hex_id": 583731, "centroid_lon": -73.451631644111131, "centroid_lat": 46.222115107601702, "occurrences_today": 1, "datetimes_today": "2026-03-23 09:01:36", "cumulative_total": 37.0 }, "geometry": { "type": "Polygon", "coordinates": [ [ [ -73.451777678300971, 46.216920856748985 ], [ -73.458185248378371, 46.219605585292975 ], [ -73.45803980480953, 46.224799849389449 ], [ -73.451485569686398, 46.227309353356283 ], [ -73.4450774492298, 46.224624245554757 ], [ -73.445224114261777, 46.219430013110063 ], [ -73.451777678300971, 46.216920856748985 ] ] ] } },
{ "type": "Feature", "properties": { "hex_id": 584341, "centroid_lon": -73.445370738897665, "centroid_lat": 46.214235775564354, "occurrences_today": 1, "datetimes_today": "2026-03-23 09:01:36", "cumulative_total": 46.0 }, "geometry": { "type": "Polygon", "coordinates": [ [ [ -73.445517323151279, 46.209041532917688 ], [ -73.451923672269643, 46.211726600798265 ], [ -73.451777678300971, 46.216920856748985 ], [ -73.445224114261777, 46.219430013110063 ], [ -73.438817215247653, 46.216744566016025 ], [ -73.438964430154698, 46.211550341840478 ], [ -73.445517323151279, 46.209041532917688 ] ] ] } },
{ "type": "Feature", "properties": { "hex_id": 542781, "centroid_lon": -73.900297536163379, "centroid_lat": 45.502400030682814, "occurrences_today": 2, "datetimes_today": "2026-03-23 08:46:37, 2026-03-23 09:01:36", "cumulative_total": 15.0 }, "geometry": { "type": "Polygon", "coordinates": [ [ [ -73.900398690487251, 45.49720418105224 ], [ -73.906746776623436, 45.499863532020633 ], [ -73.906646196878341, 45.505059390258474 ], [ -73.900196354212795, 45.507595875390685 ], [ -73.893847721129191, 45.50493615862414 ], [ -73.893949477649286, 45.499740322588053 ], [ -73.900398690487251, 45.49720418105224 ] ] ] } },
{ "type": "Feature", "properties": { "hex_id": 518988, "centroid_lon": -74.145972891731418, "centroid_lat": 45.761737736881237, "occurrences_today": 1, "datetimes_today": "2026-03-23 09:01:36", "cumulative_total": 16.0 }, "geometry": { "type": "Polygon", "coordinates": [ [ [ -74.146052163237471, 45.75654174367461 ], [ -74.152441235225623, 45.759187613433419 ], [ -74.152362549512731, 45.764383612841797 ], [ -74.14589359850514, 45.766933725234537 ], [ -74.139503962447748, 45.764287488748558 ], [ -74.139583841459853, 45.759091506662152 ], [ -74.146052163237471, 45.75654174367461 ] ] ] } },
{ "type": "Feature", "properties": { "hex_id": 518989, "centroid_lon": -74.145734946862461, "centroid_lat": 45.777325687381129, "occurrences_today": 1, "datetimes_today": "2026-03-23 09:01:36", "cumulative_total": 16.0 }, "geometry": { "type": "Polygon", "coordinates": [ [ [ -74.14581428355126, 45.772129708734504 ], [ -74.152205113398253, 45.7747755971033 ], [ -74.15212636298206, 45.779971581956403 ], [ -74.145655588431381, 45.782521661174393 ], [ -74.139264194057731, 45.779875405878116 ], [ -74.139344138754083, 45.774679438356536 ], [ -74.14581428355126, 45.772129708734504 ] ] ] } },
{ "type": "Feature", "properties": { "hex_id": 519599, "centroid_lon": -74.139424061548283, "centroid_lat": 45.769483465980016, "occurrences_today": 1, "datetimes_today": "2026-03-23 09:01:36", "cumulative_total": 16.0 }, "geometry": { "type": "Polygon", "coordinates": [ [ [ -74.139503962447748, 45.764287488748558 ], [ -74.14589359850514, 45.766933725234537 ], [ -74.14581428355126, 45.772129708734504 ], [ -74.139344138754083, 45.774679438356536 ], [ -74.13295393864955, 45.772032834981644 ], [ -74.133034447381945, 45.766836868938825 ], [ -74.139503962447748, 45.764287488748558 ] ] ] } },
{ "type": "Feature", "properties": { "hex_id": 519600, "centroid_lon": -74.139184227451835, "centroid_lat": 45.78507136854472, "occurrences_today": 1, "datetimes_today": "2026-03-23 09:01:36", "cumulative_total": 16.0 }, "geometry": { "type": "Polygon", "coordinates": [ [ [ -74.139264194057731, 45.779875405878116 ], [ -74.145655588431381, 45.782521661174393 ], [ -74.145576208250674, 45.787717630114294 ], [ -74.139104238928979, 45.790267326356357 ], [ -74.132712280050796, 45.787620703970738 ], [ -74.13279285499145, 45.782424752497619 ], [ -74.139264194057731, 45.779875405878116 ] ] ] } },
{ "type": "Feature", "properties": { "hex_id": 520210, "centroid_lon": -74.132873407855215, "centroid_lat": 45.777228796167918, "occurrences_today": 1, "datetimes_today": "2026-03-23 09:01:36", "cumulative_total": 16.0 }, "geometry": { "type": "Polygon", "coordinates": [ [ [ -74.13295393864955, 45.772032834981644 ], [ -74.139344138754083, 45.774679438356536 ], [ -74.139264194057731, 45.779875405878116 ], [ -74.13279285499145, 45.782424752497619 ], [ -74.126402090862072, 45.779777782072053 ], [ -74.126483229816372, 45.774581832142871 ], [ -74.13295393864955, 45.772032834981644 ] ] ] } },
{ "type": "Feature", "properties": { "hex_id": 520820, "centroid_lon": -74.126564346541443, "centroid_lat": 45.769385877355482, "occurrences_today": 1, "datetimes_today": "2026-03-23 09:01:36", "cumulative_total": 66.0 }, "geometry": { "type": "Polygon", "coordinates": [ [ [ -74.126645441044786, 45.764189917709906 ], [ -74.133034447381945, 45.766836868938825 ], [ -74.13295393864955, 45.772032834981644 ], [ -74.126483229816372, 45.774581832142871 ], [ -74.12009365993373, 45.771934513901954 ], [ -74.120175362422259, 45.766738565577022 ], [ -74.126645441044786, 45.764189917709906 ] ] ] } },
{ "type": "Feature", "properties": { "hex_id": 520821, "centroid_lon": -74.126320929671024, "centroid_lat": 45.784973727143054, "occurrences_today": 1, "datetimes_today": "2026-03-23 09:01:36", "cumulative_total": 16.0 }, "geometry": { "type": "Polygon", "coordinates": [ [ [ -74.126402090862072, 45.779777782072053 ], [ -74.13279285499145, 45.782424752497619 ], [ -74.132712280050796, 45.787620703970738 ], [ -74.126239746235697, 45.790169667355826 ], [ -74.11984841810397, 45.787522329717781 ], [ -74.11993018778216, 45.782326395972348 ], [ -74.126402090862072, 45.779777782072053 ] ] ] } },
{ "type": "Feature", "properties": { "hex_id": 521431, "centroid_lon": -74.120011935056226, "centroid_lat": 45.777130457367079, "occurrences_today": 1, "datetimes_today": "2026-03-23 09:01:36", "cumulative_total": 16.0 }, "geometry": { "type": "Polygon", "coordinates": [ [ [ -74.12009365993373, 45.771934513901954 ], [ -74.126483229816372, 45.774581832142871 ], [ -74.126402090862072, 45.779777782072053 ], [ -74.11993018778216, 45.782326395972348 ], [ -74.113540054376642, 45.779678710557732 ], [ -74.113622387566352, 45.774482778481733 ], [ -74.12009365993373, 45.771934513901954 ] ] ] } },
{ "type": "Feature", "properties": { "hex_id": 522041, "centroid_lon": -74.113704698199754, "centroid_lat": 45.76928684154425, "occurrences_today": 1, "datetimes_today": "2026-03-23 09:01:36", "cumulative_total": 16.0 }, "geometry": { "type": "Polygon", "coordinates": [ [ [ -74.113786986284467, 45.764090899745298 ], [ -74.120175362422259, 45.766738565577022 ], [ -74.12009365993373, 45.771934513901954 ], [ -74.113622387566352, 45.774482778481733 ], [ -74.107233448384861, 45.771834745515051 ], [ -74.107316344606829, 45.766638815168747 ], [ -74.113786986284467, 45.764090899745298 ] ] ] } },
{ "type": "Feature", "properties": { "hex_id": 522652, "centroid_lon": -74.107150529446898, "centroid_lat": 45.777030670998222, "occurrences_today": 1, "datetimes_today": "2026-03-23 09:01:36", "cumulative_total": 16.0 }, "geometry": { "type": "Polygon", "coordinates": [ [ [ -74.107233448384861, 45.771834745515051 ], [ -74.113622387566352, 45.774482778481733 ], [ -74.113540054376642, 45.779678710557732 ], [ -74.107067587785252, 45.782226591618226 ], [ -74.100678085583013, 45.779578191354879 ], [ -74.100761612985238, 45.774382277392895 ], [ -74.107233448384861, 45.771834745515051 ] ] ] } },
{ "type": "Feature", "properties": { "hex_id": 844446, "centroid_lon": -70.649871741296693, "centroid_lat": 46.640846389572197, "occurrences_today": 3, "datetimes_today": "2026-03-23 08:31:22, 2026-03-23 08:46:37, 2026-03-23 09:01:36", "cumulative_total": 91.0 }, "geometry": { "type": "Polygon", "coordinates": [ [ [ -70.650287713698035, 46.63566561005009 ], [ -70.656593712151093, 46.638503945092573 ], [ -70.656178300498709, 46.64368476544584 ], [ -70.649455653951065, 46.64602716152401 ], [ -70.643149209713116, 46.64318841762276 ], [ -70.643565857768138, 46.638007686567995 ], [ -70.650287713698035, 46.63566561005009 ] ] ] } },
{ "type": "Feature", "properties": { "hex_id": 845057, "centroid_lon": -70.642732446524576, "centroid_lat": 46.648369141098307, "occurrences_today": 3, "datetimes_today": "2026-03-23 08:31:22, 2026-03-23 08:46:37, 2026-03-23 09:01:36", "cumulative_total": 91.0 }, "geometry": { "type": "Polygon", "coordinates": [ [ [ -70.643149209713116, 46.64318841762276 ], [ -70.649455653951065, 46.64602716152401 ], [ -70.649039451621533, 46.651207925904544 ], [ -70.642315568162815, 46.653549856993585 ], [ -70.636008678258904, 46.6507107040756 ], [ -70.63642611744001, 46.645530029151196 ], [ -70.643149209713116, 46.64318841762276 ] ] ] } },
{ "type": "Feature", "properties": { "hex_id": 845667, "centroid_lon": -70.636843441298282, "centroid_lat": 46.640349346638594, "occurrences_today": 3, "datetimes_today": "2026-03-23 08:31:22, 2026-03-23 08:46:37, 2026-03-23 09:01:36", "cumulative_total": 91.0 }, "geometry": { "type": "Polygon", "coordinates": [ [ [ -70.637260649873426, 46.635168656538809 ], [ -70.643565857768138, 46.638007686567995 ], [ -70.643149209713116, 46.64318841762276 ], [ -70.63642611744001, 46.645530029151196 ], [ -70.63012046432813, 46.64269059016889 ], [ -70.630538348666846, 46.637509948677163 ], [ -70.637260649873426, 46.635168656538809 ] ] ] } },
{ "type": "Feature", "properties": { "hex_id": 522040, "centroid_lon": -74.113951494838332, "centroid_lat": 45.753699001563028, "occurrences_today": 1, "datetimes_today": "2026-03-23 09:01:36", "cumulative_total": 15.0 }, "geometry": { "type": "Polygon", "coordinates": [ [ [ -74.114033715322691, 45.748503045179753 ], [ -74.120420335629547, 45.75115069144335 ], [ -74.120338700262607, 45.756346654347709 ], [ -74.11386925182812, 45.758894953084891 ], [ -74.107482068933493, 45.756246939886772 ], [ -74.107564897053493, 45.751050994951122 ], [ -74.114033715322691, 45.748503045179753 ] ] ] } },
{ "type": "Feature", "properties": { "hex_id": 991051, "centroid_lon": -68.94035494162361, "centroid_lat": 47.888222287835212, "occurrences_today": 18, "datetimes_today": "2026-03-23 00:01:23, 2026-03-23 00:16:34, 2026-03-23 00:31:32, 2026-03-23 01:01:26, 2026-03-23 01:16:21, 2026-03-23 01:31:45, 2026-03-23 01:46:49, 2026-03-23 02:01:31, 2026-03-23 02:16:29, 2026-03-23 02:31:29, 2026-03-23 02:46:41, 2026-03-23 03:01:25, 2026-03-23 03:16:23, 2026-03-23 03:31:49, 2026-03-23 04:01:24, 2026-03-23 04:16:36, 2026-03-23 04:31:47, 2026-03-23 05:01:35", "cumulative_total": 64.0 }, "geometry": { "type": "Polygon", "coordinates": [ [ [ -68.9409596647576, 47.883056716688742 ], [ -68.947308020933093, 47.885991579942569 ], [ -68.946703866942002, 47.891157209253535 ], [ -68.939750048921795, 47.893387848531269 ], [ -68.933401293201271, 47.890452546386967 ], [ -68.93400675498583, 47.885287043923007 ], [ -68.9409596647576, 47.883056716688742 ] ] ] } },
{ "type": "Feature", "properties": { "hex_id": 582509, "centroid_lon": -73.465027768124372, "centroid_lat": 46.206707098710879, "occurrences_today": 1, "datetimes_today": "2026-03-23 09:01:36", "cumulative_total": 30.0 }, "geometry": { "type": "Polygon", "coordinates": [ [ [ -73.465172461384071, 46.201512801065533 ], [ -73.471578930579781, 46.204196771583582 ], [ -73.471434827646078, 46.209391082334669 ], [ -73.464883035006807, 46.211901391264277 ], [ -73.458476015349774, 46.209217041814782 ], [ -73.458621338779722, 46.204022762433247 ], [ -73.465172461384071, 46.201512801065533 ] ] ] } },
{ "type": "Feature", "properties": { "hex_id": 583119, "centroid_lon": -73.458766622190737, "centroid_lat": 46.198828477956859, "occurrences_today": 1, "datetimes_today": "2026-03-23 09:01:36", "cumulative_total": 39.0 }, "geometry": { "type": "Polygon", "coordinates": [ [ [ -73.458911865596491, 46.193634188385715 ], [ -73.465317114799561, 46.196318498328338 ], [ -73.465172461384071, 46.201512801065533 ], [ -73.458621338779722, 46.204022762433247 ], [ -73.452215539598456, 46.201338073603118 ], [ -73.452361412986107, 46.196143802358876 ], [ -73.458911865596491, 46.193634188385715 ] ] ] } },
{ "type": "Feature", "properties": { "hex_id": 583730, "centroid_lon": -73.452069626030891, "centroid_lat": 46.206532339749593, "occurrences_today": 1, "datetimes_today": "2026-03-23 09:01:36", "cumulative_total": 39.0 }, "geometry": { "type": "Polygon", "coordinates": [ [ [ -73.452215539598456, 46.201338073603118 ], [ -73.458621338779722, 46.204022762433247 ], [ -73.458476015349774, 46.209217041814782 ], [ -73.451923672269643, 46.211726600798265 ], [ -73.445517323151279, 46.209041532917688 ], [ -73.44566386703643, 46.203847285170177 ], [ -73.452215539598456, 46.201338073603118 ] ] ] } },
{ "type": "Feature", "properties": { "hex_id": 584340, "centroid_lon": -73.445810370566903, "centroid_lat": 46.198653032321907, "occurrences_today": 1, "datetimes_today": "2026-03-23 09:01:36", "cumulative_total": 39.0 }, "geometry": { "type": "Polygon", "coordinates": [ [ [ -73.445956833756483, 46.193458774372971 ], [ -73.452361412986107, 46.196143802358876 ], [ -73.452215539598456, 46.201338073603118 ], [ -73.44566386703643, 46.203847285170177 ], [ -73.439258738352663, 46.201161878177842 ], [ -73.43940583167128, 46.195967638690952 ], [ -73.445956833756483, 46.193458774372971 ] ] ] } },
{ "type": "Feature", "properties": { "hex_id": 584951, "centroid_lon": -73.439111604518416, "centroid_lat": 46.206356112561046, "occurrences_today": 1, "datetimes_today": "2026-03-23 09:01:36", "cumulative_total": 39.0 }, "geometry": { "type": "Polygon", "coordinates": [ [ [ -73.439258738352663, 46.201161878177842 ], [ -73.44566386703643, 46.203847285170177 ], [ -73.445517323151279, 46.209041532917688 ], [ -73.438964430154698, 46.211550341840478 ], [ -73.432558752058227, 46.208864555678808 ], [ -73.432706516357172, 46.20367033982977 ], [ -73.439258738352663, 46.201161878177842 ] ] ] } },
{ "type": "Feature", "properties": { "hex_id": 788292, "centroid_lon": -71.236539906276505, "centroid_lat": 46.848750659226731, "occurrences_today": 4, "datetimes_today": "2026-03-23 08:16:31, 2026-03-23 08:31:22, 2026-03-23 08:46:37, 2026-03-23 09:01:36", "cumulative_total": 28.0 }, "geometry": { "type": "Polygon", "coordinates": [ [ [ -71.236902488413349, 46.843566299703419 ], [ -71.243265020502847, 46.846373737729934 ], [ -71.242903015043012, 46.851558132595457 ], [ -71.236177223596457, 46.85393501187734 ], [ -71.229814215390547, 46.851127166823098 ], [ -71.230177474712747, 46.845942849581469 ], [ -71.236902488413349, 46.843566299703419 ] ] ] } },
{ "type": "Feature", "properties": { "hex_id": 792557, "centroid_lon": -71.200059188702866, "centroid_lat": 46.715036908112396, "occurrences_today": 4, "datetimes_today": "2026-03-23 08:16:31, 2026-03-23 08:31:22, 2026-03-23 08:46:37, 2026-03-23 09:01:36", "cumulative_total": 32.0 }, "geometry": { "type": "Polygon", "coordinates": [ [ [ -71.20042357529654, 46.709852645559579 ], [ -71.206768750504182, 46.712661649951023 ], [ -71.20640493586157, 46.717845948108327 ], [ -71.19969470125092, 46.720221163759675 ], [ -71.193349054967868, 46.717411753866656 ], [ -71.193714114336061, 46.712227533890264 ], [ -71.20042357529654, 46.709852645559579 ] ] ] } },
{ "type": "Feature", "properties": { "hex_id": 522651, "centroid_lon": -74.107399218120491, "centroid_lat": 45.761442879959318, "occurrences_today": 1, "datetimes_today": "2026-03-23 09:01:36", "cumulative_total": 10.0 }, "geometry": { "type": "Polygon", "coordinates": [ [ [ -74.107482068933493, 45.756246939886772 ], [ -74.11386925182812, 45.758894953084891 ], [ -74.113786986284467, 45.764090899745298 ], [ -74.107316344606829, 45.766638815168747 ], [ -74.100928599147338, 45.763990434874479 ], [ -74.101012057922659, 45.758794506318068 ], [ -74.107482068933493, 45.756246939886772 ] ] ] } },
{ "type": "Feature", "properties": { "hex_id": 1078411, "centroid_lon": -67.865095858692158, "centroid_lat": 48.738584044692807, "occurrences_today": 1, "datetimes_today": "2026-03-23 09:01:36", "cumulative_total": 9.0 }, "geometry": { "type": "Polygon", "coordinates": [ [ [ -67.865828922411396, 48.733430449819146 ], [ -67.872209878773191, 48.736426983527153 ], [ -67.871477390201505, 48.741580647622399 ], [ -67.864362587221478, 48.743737626689381 ], [ -67.857981263501117, 48.74074063448289 ], [ -67.858715110044201, 48.735587121776618 ], [ -67.865828922411396, 48.733430449819146 ] ] ] } },
{ "type": "Feature", "properties": { "hex_id": 557484, "centroid_lon": -73.728715290897441, "centroid_lat": 46.295680925422154, "occurrences_today": 1, "datetimes_today": "2026-03-23 00:01:23", "cumulative_total": 1.0 }, "geometry": { "type": "Polygon", "coordinates": [ [ [ -73.728835504776043, 46.290486122552835 ], [ -73.735265426805498, 46.293155507591422 ], [ -73.735145809766792, 46.298350320949169 ], [ -73.728595043862569, 46.300875723308678 ], [ -73.722164558155157, 46.298205960670622 ], [ -73.722285402018557, 46.293011173338904 ], [ -73.728835504776043, 46.290486122552835 ] ] ] } },
{ "type": "Feature", "properties": { "hex_id": 793167, "centroid_lon": -71.194079072692247, "centroid_lat": 46.707043307001292, "occurrences_today": 4, "datetimes_today": "2026-03-23 08:16:31, 2026-03-23 08:31:22, 2026-03-23 08:46:37, 2026-03-23 09:01:36", "cumulative_total": 4.0 }, "geometry": { "type": "Polygon", "coordinates": [ [ [ -71.194443930071358, 46.701859073200488 ], [ -71.200787861066814, 46.704668376101964 ], [ -71.20042357529654, 46.709852645559579 ], [ -71.193714114336061, 46.712227533890264 ], [ -71.187369712726294, 46.70941782554744 ], [ -71.187735242656444, 46.704233634381644 ], [ -71.194443930071358, 46.701859073200488 ] ] ] } },
{ "type": "Feature", "properties": { "hex_id": 843835, "centroid_lon": -70.657009009048366, "centroid_lat": 46.633323117177959, "occurrences_today": 3, "datetimes_today": "2026-03-23 08:31:22, 2026-03-23 08:46:37, 2026-03-23 09:01:36", "cumulative_total": 3.0 }, "geometry": { "type": "Polygon", "coordinates": [ [ [ -70.657424191230092, 46.628142281702971 ], [ -70.663729743779612, 46.63098020804464 ], [ -70.663315122236767, 46.636161084276949 ], [ -70.656593712151093, 46.638503945092573 ], [ -70.650287713698035, 46.63566561005009 ], [ -70.650703571194668, 46.630484822958685 ], [ -70.657424191230092, 46.628142281702971 ] ] ] } },
{ "type": "Feature", "properties": { "hex_id": 844445, "centroid_lon": -70.651119313826143, "centroid_lat": 46.625304028298984, "occurrences_today": 3, "datetimes_today": "2026-03-23 08:31:22, 2026-03-23 08:46:37, 2026-03-23 09:01:36", "cumulative_total": 3.0 }, "geometry": { "type": "Polygon", "coordinates": [ [ [ -70.651534941632022, 46.620123226071996 ], [ -70.657839258735692, 46.622961438668618 ], [ -70.657424191230092, 46.628142281702971 ], [ -70.650703571194668, 46.630484822958685 ], [ -70.644398808636112, 46.62764620172473 ], [ -70.644815111528317, 46.622465447938261 ], [ -70.651534941632022, 46.620123226071996 ] ] ] } },
{ "type": "Feature", "properties": { "hex_id": 845056, "centroid_lon": -70.643982390729263, "centroid_lat": 46.63282694793498, "occurrences_today": 3, "datetimes_today": "2026-03-23 08:31:22, 2026-03-23 08:46:37, 2026-03-23 09:01:36", "cumulative_total": 3.0 }, "geometry": { "type": "Polygon", "coordinates": [ [ [ -70.644398808636112, 46.62764620172473 ], [ -70.650703571194668, 46.630484822958685 ], [ -70.650287713698035, 46.63566561005009 ], [ -70.643565857768138, 46.638007686567995 ], [ -70.637260649873426, 46.635168656538809 ], [ -70.63767774320516, 46.62998795885283 ], [ -70.644398808636112, 46.62764620172473 ] ] ] } },
{ "type": "Feature", "properties": { "hex_id": 845666, "centroid_lon": -70.638094721333132, "centroid_lat": 46.624807253581665, "occurrences_today": 3, "datetimes_today": "2026-03-23 08:31:22, 2026-03-23 08:46:37, 2026-03-23 09:01:36", "cumulative_total": 3.0 }, "geometry": { "type": "Polygon", "coordinates": [ [ [ -70.638511584297021, 46.619626540726337 ], [ -70.644815111528317, 46.622465447938261 ], [ -70.644398808636112, 46.62764620172473 ], [ -70.63767774320516, 46.62998795885283 ], [ -70.631373771086089, 46.627148642909233 ], [ -70.631791309246111, 46.621967978635062 ], [ -70.638511584297021, 46.619626540726337 ] ] ] } },
{ "type": "Feature", "properties": { "hex_id": 846277, "centroid_lon": -70.630956117572907, "centroid_lat": 46.632329299590275, "occurrences_today": 3, "datetimes_today": "2026-03-23 08:31:22, 2026-03-23 08:46:37, 2026-03-23 09:01:36", "cumulative_total": 3.0 }, "geometry": { "type": "Polygon", "coordinates": [ [ [ -70.631373771086089, 46.627148642909233 ], [ -70.63767774320516, 46.62998795885283 ], [ -70.637260649873426, 46.635168656538809 ], [ -70.630538348666846, 46.637509948677163 ], [ -70.624233931779074, 46.634670223844068 ], [ -70.624652260826863, 46.629489615827978 ], [ -70.631373771086089, 46.627148642909233 ] ] ] } },
{ "type": "Feature", "properties": { "hex_id": 846278, "centroid_lon": -70.629702464517038, "centroid_lat": 46.647871224064467, "occurrences_today": 3, "datetimes_today": "2026-03-23 08:31:22, 2026-03-23 08:46:37, 2026-03-23 09:01:36", "cumulative_total": 3.0 }, "geometry": { "type": "Polygon", "coordinates": [ [ [ -70.63012046432813, 46.64269059016889 ], [ -70.63642611744001, 46.645530029151196 ], [ -70.636008678258904, 46.6507107040756 ], [ -70.629284349193753, 46.653051850362829 ], [ -70.622978250983962, 46.650212002269463 ], [ -70.623396926897442, 46.645031417065816 ], [ -70.63012046432813, 46.64269059016889 ] ] ] } },
{ "type": "Feature", "properties": { "hex_id": 846888, "centroid_lon": -70.623815487149201, "centroid_lat": 46.639850824256996, "occurrences_today": 3, "datetimes_today": "2026-03-23 08:31:22, 2026-03-23 08:46:37, 2026-03-23 09:01:36", "cumulative_total": 3.0 }, "geometry": { "type": "Polygon", "coordinates": [ [ [ -70.624233931779074, 46.634670223844068 ], [ -70.630538348666846, 46.637509948677163 ], [ -70.63012046432813, 46.64269059016889 ], [ -70.623396926897442, 46.645031417065816 ], [ -70.61709206536031, 46.642191283185355 ], [ -70.617511185863407, 46.637010731521201 ], [ -70.624233931779074, 46.634670223844068 ] ] ] } },
{ "type": "Feature", "properties": { "hex_id": 820044, "centroid_lon": -70.889221086687783, "centroid_lat": 46.930321300227405, "occurrences_today": 2, "datetimes_today": "2026-03-23 08:46:37, 2026-03-23 09:01:36", "cumulative_total": 2.0 }, "geometry": { "type": "Polygon", "coordinates": [ [ [ -70.889618205369288, 46.925139180227184 ], [ -70.895970664162746, 46.927965658835475 ], [ -70.895574119021248, 46.933147817590658 ], [ -70.888823857810678, 46.935503412937095 ], [ -70.882470935691956, 46.932676523387954 ], [ -70.882868738070798, 46.92749444949996 ], [ -70.889618205369288, 46.925139180227184 ] ] ] } },
{ "type": "Feature", "properties": { "hex_id": 820654, "centroid_lon": -70.883266430100051, "centroid_lat": 46.922312368313769, "occurrences_today": 2, "datetimes_today": "2026-03-23 08:46:37, 2026-03-23 09:01:36", "cumulative_total": 2.0 }, "geometry": { "type": "Polygon", "coordinates": [ [ [ -70.883664011818041, 46.917130279830253 ], [ -70.890015213893435, 46.919957052937292 ], [ -70.889618205369288, 46.925139180227184 ], [ -70.882868738070798, 46.92749444949996 ], [ -70.876517073131993, 46.924667265514898 ], [ -70.876915338316792, 46.919485223201818 ], [ -70.883664011818041, 46.917130279830253 ] ] ] } },
{ "type": "Feature", "properties": { "hex_id": 521430, "centroid_lon": -74.120257042529346, "centroid_lat": 45.761542612392262, "occurrences_today": 1, "datetimes_today": "2026-03-23 09:01:36", "cumulative_total": 1.0 }, "geometry": { "type": "Polygon", "coordinates": [ [ [ -74.120338700262607, 45.756346654347709 ], [ -74.126726513333921, 45.758993953206165 ], [ -74.126645441044786, 45.764189917709906 ], [ -74.120175362422259, 45.766738565577022 ], [ -74.113786986284467, 45.764090899745298 ], [ -74.11386925182812, 45.758894953084891 ], [ -74.120338700262607, 45.756346654347709 ] ] ] } },
{ "type": "Feature", "properties": { "hex_id": 523261, "centroid_lon": -74.101095493837803, "centroid_lat": 45.753598572896891, "occurrences_today": 1, "datetimes_today": "2026-03-23 09:01:36", "cumulative_total": 1.0 }, "geometry": { "type": "Polygon", "coordinates": [ [ [ -74.101178906900486, 45.748402634610947 ], [ -74.107564897053493, 45.751050994951122 ], [ -74.107482068933493, 45.756246939886772 ], [ -74.101012057922659, 45.758794506318068 ], [ -74.094625505683297, 45.756145778920597 ], [ -74.094709526533393, 45.750949852214248 ], [ -74.101178906900486, 45.748402634610947 ] ] ] } },
{ "type": "Feature", "properties": { "hex_id": 525092, "centroid_lon": -74.081939415267328, "centroid_lat": 45.745651350166625, "occurrences_today": 1, "datetimes_today": "2026-03-23 09:01:36", "cumulative_total": 1.0 }, "geometry": { "type": "Polygon", "coordinates": [ [ [ -74.082024582155199, 45.740455432210496 ], [ -74.088408749459106, 45.743104853141674 ], [ -74.088324167012502, 45.748300777937828 ], [ -74.081854225048914, 45.750847263252901 ], [ -74.07546949663822, 45.748197475180703 ], [ -74.075555271290014, 45.743001568999588 ], [ -74.082024582155199, 45.740455432210496 ] ] ] } },
{ "type": "Feature", "properties": { "hex_id": 525703, "centroid_lon": -74.075383698488693, "centroid_lat": 45.753393376490259, "occurrences_today": 1, "datetimes_today": "2026-03-23 09:01:36", "cumulative_total": 1.0 }, "geometry": { "type": "Polygon", "coordinates": [ [ [ -74.07546949663822, 45.748197475180703 ], [ -74.081854225048914, 45.750847263252901 ], [ -74.081769011492071, 45.756043171469351 ], [ -74.075297876833503, 45.758589272928248 ], [ -74.068912587339767, 45.755939117553488 ], [ -74.068998993579697, 45.750743228087522 ], [ -74.07546949663822, 45.748197475180703 ] ] ] } },
{ "type": "Feature", "properties": { "hex_id": 526313, "centroid_lon": -74.069085376154675, "centroid_lat": 45.745547333748263, "occurrences_today": 1, "datetimes_today": "2026-03-23 09:01:36", "cumulative_total": 1.0 }, "geometry": { "type": "Polygon", "coordinates": [ [ [ -74.069171735072672, 45.740351434535725 ], [ -74.075555271290014, 45.743001568999588 ], [ -74.07546949663822, 45.748197475180703 ], [ -74.068998993579697, 45.750743228087522 ], [ -74.062614896757125, 45.748092726360142 ], [ -74.062701863590306, 45.742896839054588 ], [ -74.069171735072672, 45.740351434535725 ] ] ] } },
{ "type": "Feature", "properties": { "hex_id": 526924, "centroid_lon": -74.062527906099746, "centroid_lat": 45.753288608790662, "occurrences_today": 1, "datetimes_today": "2026-03-23 09:01:36", "cumulative_total": 1.0 }, "geometry": { "type": "Polygon", "coordinates": [ [ [ -74.062614896757125, 45.748092726360142 ], [ -74.068998993579697, 45.750743228087522 ], [ -74.068912587339767, 45.755939117553488 ], [ -74.062440891610095, 45.758484486346156 ], [ -74.056056234206352, 45.755833617193765 ], [ -74.056143833105395, 45.750637746738846 ], [ -74.062614896757125, 45.748092726360142 ] ] ] } }
]
}
