{
"type": "FeatureCollection",
"name": "daily_2026-05-08",
"crs": { "type": "name", "properties": { "name": "urn:ogc:def:crs:OGC:1.3:CRS84" } },
"features": [
{ "type": "Feature", "properties": { "hex_id": 573306, "centroid_lon": -73.580378760788392, "centroid_lat": 45.498871598860745, "occurrences_today": 1, "datetimes_today": "2026-05-08 00:01:49", "cumulative_total": 260.0 }, "geometry": { "type": "Polygon", "coordinates": [ [ [ -73.580509320943918, 45.493676384882136 ], [ -73.586841521870511, 45.496353331796726 ], [ -73.586711531884404, 45.501548557550834 ], [ -73.580248164980915, 45.504066807800697 ], [ -73.573915429542865, 45.501389492123373 ], [ -73.574046595507809, 45.496194295023372 ], [ -73.580509320943918, 45.493676384882136 ] ] ] } },
{ "type": "Feature", "properties": { "hex_id": 564755, "centroid_lon": -73.671415667851477, "centroid_lat": 45.437604620945017, "occurrences_today": 1, "datetimes_today": "2026-05-08 00:01:49", "cumulative_total": 138.0 }, "geometry": { "type": "Polygon", "coordinates": [ [ [ -73.671537596419313, 45.432409152693488 ], [ -73.67786742960952, 45.435081051271233 ], [ -73.677746070600705, 45.440276530384111 ], [ -73.671293706011895, 45.442800084194218 ], [ -73.664963336539998, 45.440127818478786 ], [ -73.665085867927473, 45.434932366155294 ], [ -73.671537596419313, 45.432409152693488 ] ] ] } },
{ "type": "Feature", "properties": { "hex_id": 578802, "centroid_lon": -73.522188255145124, "centroid_lat": 45.521519170002257, "occurrences_today": 1, "datetimes_today": "2026-05-08 00:01:49", "cumulative_total": 60.0 }, "geometry": { "type": "Polygon", "coordinates": [ [ [ -73.522324273143312, 45.516324110349629 ], [ -73.52865614726187, 45.519004270562377 ], [ -73.528520699323408, 45.52419934257091 ], [ -73.5220521999954, 45.526714224591814 ], [ -73.515719792974863, 45.52403369478786 ], [ -73.51585641817185, 45.518838652618726 ], [ -73.522324273143312, 45.516324110349629 ] ] ] } },
{ "type": "Feature", "properties": { "hex_id": 579413, "centroid_lon": -73.51558313045949, "centroid_lat": 45.529228731891131, "occurrences_today": 1, "datetimes_today": "2026-05-08 00:01:49", "cumulative_total": 84.0 }, "geometry": { "type": "Polygon", "coordinates": [ [ [ -73.515719792974863, 45.52403369478786 ], [ -73.5220521999954, 45.526714224591814 ], [ -73.521916107681704, 45.531909274118199 ], [ -73.515446430613196, 45.534423763928508 ], [ -73.509113490728168, 45.531742864374145 ], [ -73.509250760763592, 45.526547844824428 ], [ -73.515719792974863, 45.52403369478786 ] ] ] } },
{ "type": "Feature", "properties": { "hex_id": 703339, "centroid_lon": -72.221135935095091, "centroid_lat": 45.419311924639956, "occurrences_today": 1, "datetimes_today": "2026-05-08 00:01:49", "cumulative_total": 138.0 }, "geometry": { "type": "Polygon", "coordinates": [ [ [ -72.221390721428264, 45.414121160929596 ], [ -72.227646274775779, 45.416871764947132 ], [ -72.227392037231439, 45.422062553670877 ], [ -72.220881079314424, 45.42450268249388 ], [ -72.214625046637167, 45.421751698591422 ], [ -72.214880451183475, 45.416560965814753 ], [ -72.221390721428264, 45.414121160929596 ] ] ] } },
{ "type": "Feature", "properties": { "hex_id": 703949, "centroid_lon": -72.215135786135392, "centroid_lat": 45.411370227176747, "occurrences_today": 1, "datetimes_today": "2026-05-08 00:01:49", "cumulative_total": 153.0 }, "geometry": { "type": "Polygon", "coordinates": [ [ [ -72.215391051516207, 45.406179482677793 ], [ -72.221645438337177, 45.408930391363171 ], [ -72.221390721428264, 45.414121160929596 ], [ -72.214880451183475, 45.416560965814753 ], [ -72.208625585473328, 45.413809677295113 ], [ -72.208881468873926, 45.408618963788449 ], [ -72.215391051516207, 45.406179482677793 ] ] ] } },
{ "type": "Feature", "properties": { "hex_id": 586773, "centroid_lon": -73.423904252996635, "centroid_lat": 46.058052707814568, "occurrences_today": 1, "datetimes_today": "2026-05-08 00:01:49", "cumulative_total": 19.0 }, "geometry": { "type": "Polygon", "coordinates": [ [ [ -73.424052053577029, 46.052858375897962 ], [ -73.430439437535711, 46.055544474687601 ], [ -73.430292222058341, 46.060738820078285 ], [ -73.423756411780104, 46.063247034621142 ], [ -73.417368483361486, 46.06056055844666 ], [ -73.417516909667199, 46.055366245179911 ], [ -73.424052053577029, 46.052858375897962 ] ] ] } },
{ "type": "Feature", "properties": { "hex_id": 574527, "centroid_lon": -73.567583300074645, "centroid_lat": 45.498711831335612, "occurrences_today": 1, "datetimes_today": "2026-05-08 00:01:49", "cumulative_total": 63.0 }, "geometry": { "type": "Polygon", "coordinates": [ [ [ -73.567715036030648, 45.493516646137465 ], [ -73.574046595507809, 45.496194295023372 ], [ -73.573915429542865, 45.501389492123373 ], [ -73.567451528145881, 45.503907011489844 ], [ -73.561119434656476, 45.501228993724077 ], [ -73.561251776564234, 45.496033825536159 ], [ -73.567715036030648, 45.493516646137465 ] ] ] } },
{ "type": "Feature", "properties": { "hex_id": 495806, "centroid_lon": -74.387378153853774, "centroid_lat": 46.028306428614393, "occurrences_today": 1, "datetimes_today": "2026-05-08 00:01:49", "cumulative_total": 16.0 }, "geometry": { "type": "Polygon", "coordinates": [ [ [ -74.387435549878745, 46.02311039823271 ], [ -74.393866734993679, 46.025742856544738 ], [ -74.393809936321134, 46.030938890735719 ], [ -74.387320742049255, 46.033502454195329 ], [ -74.38088897536413, 46.030869628116307 ], [ -74.380946984515731, 46.025673606410521 ], [ -74.387435549878745, 46.02311039823271 ] ] ] } },
{ "type": "Feature", "properties": { "hex_id": 496417, "centroid_lon": -74.380830950263913, "centroid_lat": 46.036065645020223, "occurrences_today": 1, "datetimes_today": "2026-05-08 00:01:49", "cumulative_total": 16.0 }, "geometry": { "type": "Polygon", "coordinates": [ [ [ -74.38088897536413, 46.030869628116307 ], [ -74.387320742049255, 46.033502454195329 ], [ -74.387263314459787, 46.038698474975554 ], [ -74.380772909209654, 46.041261657122242 ], [ -74.374340560970538, 46.038628463112524 ], [ -74.374399199530131, 46.033432454952631 ], [ -74.38088897536413, 46.030869628116307 ] ] ] } },
{ "type": "Feature", "properties": { "hex_id": 497027, "centroid_lon": -74.374457821971987, "centroid_lat": 46.028236441989677, "occurrences_today": 1, "datetimes_today": "2026-05-08 00:01:49", "cumulative_total": 16.0 }, "geometry": { "type": "Polygon", "coordinates": [ [ [ -74.37451642830159, 46.023040424223652 ], [ -74.380946984515731, 46.025673606410521 ], [ -74.38088897536413, 46.030869628116307 ], [ -74.374399199530131, 46.033432454952631 ], [ -74.367968062252984, 46.030798904872412 ], [ -74.368027281867356, 46.025602895915064 ], [ -74.37451642830159, 46.023040424223652 ] ] ] } },
{ "type": "Feature", "properties": { "hex_id": 564153, "centroid_lon": -73.67470130327149, "centroid_lat": 45.570161883037002, "occurrences_today": 1, "datetimes_today": "2026-05-08 00:01:49", "cumulative_total": 66.0 }, "geometry": { "type": "Polygon", "coordinates": [ [ [ -73.674823493558151, 45.564966528944296 ], [ -73.681168218946823, 45.56763835283715 ], [ -73.68104660225822, 45.572833717789152 ], [ -73.674579079588369, 45.575357232127999 ], [ -73.668233814003699, 45.57268503945027 ], [ -73.668356611273666, 45.567489701283222 ], [ -73.674823493558151, 45.564966528944296 ] ] ] } },
{ "type": "Feature", "properties": { "hex_id": 573311, "centroid_lon": -73.578416073509587, "centroid_lat": 45.576799203854414, "occurrences_today": 1, "datetimes_today": "2026-05-08 00:01:49", "cumulative_total": 93.0 }, "geometry": { "type": "Polygon", "coordinates": [ [ [ -73.578547169703356, 45.57160406546447 ], [ -73.584887939412269, 45.574281189281244 ], [ -73.584757415710129, 45.579476339485261 ], [ -73.57828494148383, 45.581994337204463 ], [ -73.571943635121329, 45.579316843617853 ], [ -73.57207533962665, 45.57412172214655 ], [ -73.578547169703356, 45.57160406546447 ] ] ] } },
{ "type": "Feature", "properties": { "hex_id": 653354, "centroid_lon": -72.696040380120792, "centroid_lat": 46.6146817382078, "occurrences_today": 1, "datetimes_today": "2026-05-08 00:01:49", "cumulative_total": 122.0 }, "geometry": { "type": "Polygon", "coordinates": [ [ [ -72.696260642087864, 46.609490151719989 ], [ -72.702674881837424, 46.612217210877546 ], [ -72.702455211903072, 46.617408818266412 ], [ -72.69582005718388, 46.619873319160845 ], [ -72.68940528638197, 46.617145868640478 ], [ -72.689626201330569, 46.611954308655356 ], [ -72.696260642087864, 46.609490151719989 ] ] ] } },
{ "type": "Feature", "properties": { "hex_id": 653965, "centroid_lon": -72.689184310281092, "centroid_lat": 46.622337423086208, "occurrences_today": 1, "datetimes_today": "2026-05-08 00:01:49", "cumulative_total": 91.0 }, "geometry": { "type": "Polygon", "coordinates": [ [ [ -72.68940528638197, 46.617145868640478 ], [ -72.69582005718388, 46.619873319160845 ], [ -72.695599673256069, 46.62506489457887 ], [ -72.688963273006763, 46.627528971992312 ], [ -72.682547971215769, 46.624801129945403 ], [ -72.682769600642047, 46.619609602078484 ], [ -72.68940528638197, 46.617145868640478 ] ] ] } },
{ "type": "Feature", "properties": { "hex_id": 654575, "centroid_lon": -72.68299116873348, "centroid_lat": 46.614418068667533, "occurrences_today": 1, "datetimes_today": "2026-05-08 00:01:49", "cumulative_total": 97.0 }, "geometry": { "type": "Polygon", "coordinates": [ [ [ -72.683212675511285, 46.609226529712799 ], [ -72.689626201330569, 46.611954308655356 ], [ -72.68940528638197, 46.617145868640478 ], [ -72.682769600642047, 46.619609602078484 ], [ -72.676355544317772, 46.616881431659486 ], [ -72.676577704217266, 46.611689919345778 ], [ -72.683212675511285, 46.609226529712799 ] ] ] } },
{ "type": "Feature", "properties": { "hex_id": 543395, "centroid_lon": -73.89282862582921, "centroid_lat": 45.55689424811721, "occurrences_today": 1, "datetimes_today": "2026-05-08 00:01:49", "cumulative_total": 86.0 }, "geometry": { "type": "Polygon", "coordinates": [ [ [ -73.892930660689302, 45.551698461330453 ], [ -73.89928447192402, 45.554358256233826 ], [ -73.899183013195611, 45.559554051712546 ], [ -73.892726563083642, 45.562090029978812 ], [ -73.886372203607365, 45.559429868517789 ], [ -73.886474842475252, 45.554234095412795 ], [ -73.892930660689302, 45.551698461330453 ] ] ] } },
{ "type": "Feature", "properties": { "hex_id": 676524, "centroid_lon": -72.469107330850036, "centroid_lat": 46.157810943717188, "occurrences_today": 1, "datetimes_today": "2026-05-08 00:01:49", "cumulative_total": 49.0 }, "geometry": { "type": "Polygon", "coordinates": [ [ [ -72.469345448762652, 46.152619810119084 ], [ -72.475695479682244, 46.155358504112911 ], [ -72.47545793619112, 46.160549660651874 ], [ -72.468869147425835, 46.163002071627581 ], [ -72.462518607607535, 46.160262990305569 ], [ -72.462757365430875, 46.155071885401718 ], [ -72.469345448762652, 46.152619810119084 ] ] ] } },
{ "type": "Feature", "properties": { "hex_id": 565375, "centroid_lon": -73.661518841135248, "centroid_lat": 45.585598451309956, "occurrences_today": 1, "datetimes_today": "2026-05-08 00:01:49", "cumulative_total": 61.0 }, "geometry": { "type": "Polygon", "coordinates": [ [ [ -73.661642313015747, 45.58040313914924 ], [ -73.667988118762636, 45.583075700771616 ], [ -73.667865220768945, 45.588271023925778 ], [ -73.661395335501894, 45.590793758463782 ], [ -73.655048989626735, 45.588120827736994 ], [ -73.655173069135543, 45.582925531641308 ], [ -73.661642313015747, 45.58040313914924 ] ] ] } },
{ "type": "Feature", "properties": { "hex_id": 587383, "centroid_lon": -73.417665295177443, "centroid_lat": 46.050171926800139, "occurrences_today": 1, "datetimes_today": "2026-05-08 00:01:49", "cumulative_total": 107.0 }, "geometry": { "type": "Polygon", "coordinates": [ [ [ -73.417813639906115, 46.044977603307515 ], [ -73.424199813535083, 46.047664038871396 ], [ -73.424052053577029, 46.052858375897962 ], [ -73.417516909667199, 46.055366245179911 ], [ -73.411130192056149, 46.05267943227517 ], [ -73.411279162323112, 46.047485127495051 ], [ -73.417813639906115, 46.044977603307515 ] ] ] } },
{ "type": "Feature", "properties": { "hex_id": 639993, "centroid_lon": -72.79491667099164, "centroid_lat": 47.707702369248665, "occurrences_today": 1, "datetimes_today": "2026-05-08 00:01:49", "cumulative_total": 35.0 }, "geometry": { "type": "Polygon", "coordinates": [ [ [ -72.795135693588364, 47.702511424245223 ], [ -72.801686194257286, 47.705234737793603 ], [ -72.801467801224021, 47.710425703171651 ], [ -72.794697586841295, 47.712893308770312 ], [ -72.788146518173491, 47.710169589878724 ], [ -72.788366231865425, 47.704978670801374 ], [ -72.795135693588364, 47.702511424245223 ] ] ] } },
{ "type": "Feature", "properties": { "hex_id": 586162, "centroid_lon": -73.430586612550073, "centroid_lat": 46.050350124189904, "occurrences_today": 1, "datetimes_today": "2026-05-08 00:01:49", "cumulative_total": 28.0 }, "geometry": { "type": "Polygon", "coordinates": [ [ [ -73.430733747115212, 46.045155768585289 ], [ -73.437120586572547, 46.047841490152145 ], [ -73.43697403696487, 46.053035859162186 ], [ -73.430439437535711, 46.055544474687601 ], [ -73.424052053577029, 46.052858375897962 ], [ -73.424199813535083, 46.047664038871396 ], [ -73.430733747115212, 46.045155768585289 ] ] ] } },
{ "type": "Feature", "properties": { "hex_id": 660592, "centroid_lon": -72.675745023698838, "centroid_lat": 45.242381694229799, "occurrences_today": 1, "datetimes_today": "2026-05-08 00:01:49", "cumulative_total": 34.0 }, "geometry": { "type": "Polygon", "coordinates": [ [ [ -72.675956843090816, 45.237188930543731 ], [ -72.682216286896889, 45.239914735835754 ], [ -72.682005017628001, 45.245107520066831 ], [ -72.675533146671427, 45.247574452396229 ], [ -72.669273210387288, 45.244848273411499 ], [ -72.669485637518619, 45.239655535853714 ], [ -72.675956843090816, 45.237188930543731 ] ] ] } },
{ "type": "Feature", "properties": { "hex_id": 661203, "centroid_lon": -72.669060725453747, "centroid_lat": 45.250041005445269, "occurrences_today": 1, "datetimes_today": "2026-05-08 00:01:49", "cumulative_total": 34.0 }, "geometry": { "type": "Polygon", "coordinates": [ [ [ -72.669273210387288, 45.244848273411499 ], [ -72.675533146671427, 45.247574452396229 ], [ -72.675321211989356, 45.252767205042758 ], [ -72.66884818269871, 45.255233731954803 ], [ -72.662587753994217, 45.252507179121551 ], [ -72.662800846981455, 45.247314473288434 ], [ -72.669273210387288, 45.244848273411499 ] ] ] } },
{ "type": "Feature", "properties": { "hex_id": 661813, "centroid_lon": -72.663013881999674, "centroid_lat": 45.24212176192696, "occurrences_today": 1, "datetimes_today": "2026-05-08 00:01:49", "cumulative_total": 34.0 }, "geometry": { "type": "Polygon", "coordinates": [ [ [ -72.663226859068132, 45.236929045037414 ], [ -72.669485637518619, 45.239655535853714 ], [ -72.669273210387288, 45.244848273411499 ], [ -72.662800846981455, 45.247314473288434 ], [ -72.656541576553224, 45.244587608671075 ], [ -72.656755161489286, 45.239394918041477 ], [ -72.663226859068132, 45.236929045037414 ] ] ] } },
{ "type": "Feature", "properties": { "hex_id": 662424, "centroid_lon": -72.65632793350062, "centroid_lat": 45.249780293768211, "occurrences_today": 1, "datetimes_today": "2026-05-08 00:01:49", "cumulative_total": 34.0 }, "geometry": { "type": "Polygon", "coordinates": [ [ [ -72.656541576553224, 45.244587608671075 ], [ -72.662800846981455, 45.247314473288434 ], [ -72.662587753994217, 45.252507179121551 ], [ -72.656114232312092, 45.25497297333262 ], [ -72.649854469964097, 45.252245734758439 ], [ -72.650068721198622, 45.247053075993669 ], [ -72.656541576553224, 45.244587608671075 ] ] ] } }
]
}
