{
"type": "FeatureCollection",
"name": "daily_2026-06-25",
"crs": { "type": "name", "properties": { "name": "urn:ogc:def:crs:OGC:1.3:CRS84" } },
"features": [
{ "type": "Feature", "properties": { "hex_id": 605099, "centroid_lon": -73.224569305911345, "centroid_lat": 46.226607881393235, "occurrences_today": 1, "datetimes_today": "2026-06-25 00:01:15", "cumulative_total": 51.0 }, "geometry": { "type": "Polygon", "coordinates": [ [ [ -73.224736775316956, 46.221414232712519 ], [ -73.231133413161686, 46.224111537360052 ], [ -73.230966531290932, 46.229305201548343 ], [ -73.224401790367693, 46.231801524864423 ], [ -73.21800461113402, 46.229103838790635 ], [ -73.218172714196754, 46.223910210893088 ], [ -73.224736775316956, 46.221414232712519 ] ] ] } },
{ "type": "Feature", "properties": { "hex_id": 764599, "centroid_lon": -71.367657120591574, "centroid_lat": 48.668906005853074, "occurrences_today": 1, "datetimes_today": "2026-06-25 00:01:15", "cumulative_total": 14.0 }, "geometry": { "type": "Polygon", "coordinates": [ [ [ -71.368030117798781, 48.663722528280225 ], [ -71.374620735615537, 48.666528035780075 ], [ -71.374248377647177, 48.671711548683007 ], [ -71.367284017179102, 48.674089476598176 ], [ -71.360692866348074, 48.671283537400811 ], [ -71.361066608960726, 48.666100102057413 ], [ -71.368030117798781, 48.663722528280225 ] ] ] } },
{ "type": "Feature", "properties": { "hex_id": 765210, "centroid_lon": -71.360319017314836, "centroid_lat": 48.67646696590819, "occurrences_today": 1, "datetimes_today": "2026-06-25 00:01:15", "cumulative_total": 8.0 }, "geometry": { "type": "Polygon", "coordinates": [ [ [ -71.360692866348074, 48.671283537400811 ], [ -71.367284017179102, 48.674089476598176 ], [ -71.366910807522672, 48.679272940514807 ], [ -71.359945061822273, 48.681650387578856 ], [ -71.353353378093189, 48.67884401651088 ], [ -71.353727972923778, 48.673660630321116 ], [ -71.360692866348074, 48.671283537400811 ] ] ] } },
{ "type": "Feature", "properties": { "hex_id": 542167, "centroid_lon": -73.907751065209951, "centroid_lat": 45.447904679013945, "occurrences_today": 1, "datetimes_today": "2026-06-25 00:01:15", "cumulative_total": 171.0 }, "geometry": { "type": "Polygon", "coordinates": [ [ [ -73.907851343384408, 45.442708766651393 ], [ -73.914193719665718, 45.445367675203897 ], [ -73.914094014522178, 45.45056359608936 ], [ -73.907650759665927, 45.453100586456301 ], [ -73.90130783772787, 45.450441312863525 ], [ -73.901408716293645, 45.445245414008511 ], [ -73.907851343384408, 45.442708766651393 ] ] ] } },
{ "type": "Feature", "properties": { "hex_id": 542777, "centroid_lon": -73.901509567334415, "centroid_lat": 45.44004951023129, "occurrences_today": 1, "datetimes_today": "2026-06-25 00:01:15", "cumulative_total": 261.0 }, "geometry": { "type": "Polygon", "coordinates": [ [ [ -73.901610390859389, 45.43485360153192 ], [ -73.907951594198437, 45.437512849368666 ], [ -73.907851343384408, 45.442708766651393 ], [ -73.901408716293645, 45.445245414008511 ], [ -73.895066967764038, 45.442585801171198 ], [ -73.89516839150653, 45.43738990604173 ], [ -73.901610390859389, 45.43485360153192 ] ] ] } },
{ "type": "Feature", "properties": { "hex_id": 661205, "centroid_lon": -72.667784600927163, "centroid_lat": 45.281197281629204, "occurrences_today": 1, "datetimes_today": "2026-06-25 00:01:15", "cumulative_total": 43.0 }, "geometry": { "type": "Polygon", "coordinates": [ [ [ -72.667997433078597, 45.276004582744974 ], [ -72.674260673087034, 45.278730885467539 ], [ -72.674048392073558, 45.283923604989035 ], [ -72.667571710838558, 45.286389974987543 ], [ -72.661307977638955, 45.283663298009657 ], [ -72.661521418846235, 45.278470625352348 ], [ -72.667997433078597, 45.276004582744974 ] ] ] } },
{ "type": "Feature", "properties": { "hex_id": 780449, "centroid_lon": -71.21819089859892, "centroid_lat": 48.305602677807279, "occurrences_today": 1, "datetimes_today": "2026-06-25 00:01:15", "cumulative_total": 54.0 }, "geometry": { "type": "Polygon", "coordinates": [ [ [ -71.21857430105446, 48.300419748946055 ], [ -71.225110348593574, 48.303232544075861 ], [ -71.224727570106111, 48.308415509492363 ], [ -71.217807387596523, 48.310785599684543 ], [ -71.211270824655756, 48.307972376892728 ], [ -71.211654959587094, 48.302789491641292 ], [ -71.21857430105446, 48.300419748946055 ] ] ] } },
{ "type": "Feature", "properties": { "hex_id": 660594, "centroid_lon": -72.674472896330499, "centroid_lat": 45.273538160424515, "occurrences_today": 1, "datetimes_today": "2026-06-25 00:01:15", "cumulative_total": 14.0 }, "geometry": { "type": "Polygon", "coordinates": [ [ [ -72.674685061823254, 45.268345429860261 ], [ -72.680947808582701, 45.271071358483475 ], [ -72.68073619409931, 45.276264109617195 ], [ -72.674260673087034, 45.278730885467539 ], [ -72.667997433078597, 45.276004582744974 ], [ -72.668210207312185, 45.270811878335167 ], [ -72.674685061823254, 45.268345429860261 ] ] ] } },
{ "type": "Feature", "properties": { "hex_id": 636208, "centroid_lon": -72.909722413756242, "centroid_lat": 45.808164679720925, "occurrences_today": 1, "datetimes_today": "2026-06-25 00:01:15", "cumulative_total": 71.0 }, "geometry": { "type": "Polygon", "coordinates": [ [ [ -72.909916713596417, 45.802971613756249 ], [ -72.916250053272194, 45.805685650004783 ], [ -72.916056323607762, 45.810878734445545 ], [ -72.909528060677331, 45.813357740303019 ], [ -72.903194204073515, 45.81064332519712 ], [ -72.903389127310177, 45.805450283156127 ], [ -72.909916713596417, 45.802971613756249 ] ] ] } },
{ "type": "Feature", "properties": { "hex_id": 558662, "centroid_lon": -73.731128043440648, "centroid_lat": 45.625368484792794, "occurrences_today": 1, "datetimes_today": "2026-06-25 00:01:15", "cumulative_total": 285.0 }, "geometry": { "type": "Polygon", "coordinates": [ [ [ -73.731245257464948, 45.62017306509275 ], [ -73.737598897689097, 45.622841823907279 ], [ -73.737482259701636, 45.628037253919544 ], [ -73.731010797357783, 45.630563899512019 ], [ -73.724656613160732, 45.627894771742113 ], [ -73.724774435269651, 45.622699367399903 ], [ -73.731245257464948, 45.62017306509275 ] ] ] } },
{ "type": "Feature", "properties": { "hex_id": 556215, "centroid_lon": -73.758497741790478, "centroid_lat": 45.547717964862507, "occurrences_today": 1, "datetimes_today": "2026-06-25 00:01:15", "cumulative_total": 231.0 }, "geometry": { "type": "Polygon", "coordinates": [ [ [ -73.758612117927157, 45.5425224197799 ], [ -73.764958409874112, 45.545189614079511 ], [ -73.76484460778768, 45.550385169185816 ], [ -73.75838333440052, 45.552913504974484 ], [ -73.752036499661841, 45.550245942962391 ], [ -73.752151481091545, 45.545050412938728 ], [ -73.758612117927157, 45.5425224197799 ] ] ] } },
{ "type": "Feature", "properties": { "hex_id": 629521, "centroid_lon": -72.964219750522972, "centroid_lat": 46.253444402776928, "occurrences_today": 1, "datetimes_today": "2026-06-25 00:01:15", "cumulative_total": 55.0 }, "geometry": { "type": "Polygon", "coordinates": [ [ [ -72.964411947872833, 46.248251564847337 ], [ -72.970798403578939, 46.250963270777454 ], [ -72.970606790853523, 46.25615612680788 ], [ -72.964027500212325, 46.25863723535025 ], [ -72.957640512851654, 46.255925145258722 ], [ -72.957833347768627, 46.25073233085233 ], [ -72.964411947872833, 46.248251564847337 ] ] ] } },
{ "type": "Feature", "properties": { "hex_id": 556825, "centroid_lon": -73.752266431112233, "centroid_lat": 45.539854877942169, "occurrences_today": 1, "datetimes_today": "2026-06-25 00:01:15", "cumulative_total": 164.0 }, "geometry": { "type": "Polygon", "coordinates": [ [ [ -73.752381349734492, 45.534659337972791 ], [ -73.758726462821059, 45.537326869726741 ], [ -73.758612117927157, 45.5425224197799 ], [ -73.752151481091545, 45.545050412938728 ], [ -73.745805825680335, 45.542382513513175 ], [ -73.745921349418822, 45.537186988665013 ], [ -73.752381349734492, 45.534659337972791 ] ] ] } },
{ "type": "Feature", "properties": { "hex_id": 630132, "centroid_lon": -72.9574476247967, "centroid_lat": 46.261117954304851, "occurrences_today": 1, "datetimes_today": "2026-06-25 00:01:15", "cumulative_total": 88.0 }, "geometry": { "type": "Polygon", "coordinates": [ [ [ -72.957640512851654, 46.255925145258722 ], [ -72.964027500212325, 46.25863723535025 ], [ -72.963835196922716, 46.263830062567095 ], [ -72.957254683585575, 46.266310757990539 ], [ -72.95086716462481, 46.26359828357544 ], [ -72.951060690583091, 46.258405498126585 ], [ -72.957640512851654, 46.255925145258722 ] ] ] } },
{ "type": "Feature", "properties": { "hex_id": 630743, "centroid_lon": -72.950673585333078, "centroid_lat": 46.268791063659798, "occurrences_today": 1, "datetimes_today": "2026-06-25 00:01:15", "cumulative_total": 33.0 }, "geometry": { "type": "Polygon", "coordinates": [ [ [ -72.95086716462481, 46.26359828357544 ], [ -72.957254683585575, 46.266310757990539 ], [ -72.957061689200103, 46.271503556315544 ], [ -72.950479952689676, 46.273983838379543 ], [ -72.944091902183473, 46.271270979478629 ], [ -72.944286119714874, 46.266078223065648 ], [ -72.95086716462481, 46.26359828357544 ] ] ] } },
{ "type": "Feature", "properties": { "hex_id": 631353, "centroid_lon": -72.94448028373553, "centroid_lat": 46.260885461284161, "occurrences_today": 1, "datetimes_today": "2026-06-25 00:01:15", "cumulative_total": 94.0 }, "geometry": { "type": "Polygon", "coordinates": [ [ [ -72.944674394263714, 46.255692694134389 ], [ -72.951060690583091, 46.258405498126585 ], [ -72.95086716462481, 46.26359828357544 ], [ -72.944286119714874, 46.266078223065648 ], [ -72.937899292327202, 46.263365034635221 ], [ -72.938094040899443, 46.258172291218926 ], [ -72.944674394263714, 46.255692694134389 ] ] ] } },
{ "type": "Feature", "properties": { "hex_id": 631963, "centroid_lon": -72.938288735820265, "centroid_lat": 46.252979542430452, "occurrences_today": 1, "datetimes_today": "2026-06-25 00:01:15", "cumulative_total": 90.0 }, "geometry": { "type": "Polygon", "coordinates": [ [ [ -72.938483377108014, 46.247786788270034 ], [ -72.944868451317731, 46.250499921616509 ], [ -72.944674394263714, 46.255692694134389 ], [ -72.938094040899443, 46.258172291218926 ], [ -72.931708436098234, 46.25545877348182 ], [ -72.931903715234426, 46.250266043116888 ], [ -72.938483377108014, 46.247786788270034 ] ] ] } },
{ "type": "Feature", "properties": { "hex_id": 632572, "centroid_lon": -72.932684294044037, "centroid_lat": 46.229495067900856, "occurrences_today": 1, "datetimes_today": "2026-06-25 00:01:15", "cumulative_total": 82.0 }, "geometry": { "type": "Polygon", "coordinates": [ [ [ -72.932879304404551, 46.224302310658722 ], [ -72.939261406295074, 46.227015717912451 ], [ -72.939066979356241, 46.232208493558844 ], [ -72.932489229965142, 46.234687819767913 ], [ -72.926106598380514, 46.231974028380854 ], [ -72.926302245862729, 46.226781294984058 ], [ -72.932879304404551, 46.224302310658722 ] ] ] } },
{ "type": "Feature", "properties": { "hex_id": 632573, "centroid_lon": -72.932098940578726, "centroid_lat": 46.245073307376124, "occurrences_today": 1, "datetimes_today": "2026-06-25 00:01:15", "cumulative_total": 109.0 }, "geometry": { "type": "Polygon", "coordinates": [ [ [ -72.932294112149506, 46.239880566259728 ], [ -72.93867796478105, 46.242594028737813 ], [ -72.938483377108014, 46.247786788270034 ], [ -72.931903715234426, 46.250266043116888 ], [ -72.925519332487866, 46.247552196295821 ], [ -72.925715141711521, 46.242359479036928 ], [ -72.932294112149506, 46.239880566259728 ] ] ] } },
{ "type": "Feature", "properties": { "hex_id": 631962, "centroid_lon": -72.938872498857691, "centroid_lat": 46.237401263834016, "occurrences_today": 1, "datetimes_today": "2026-06-25 00:01:15", "cumulative_total": 43.0 }, "geometry": { "type": "Polygon", "coordinates": [ [ [ -72.939066979356241, 46.232208493558844 ], [ -72.945450301817687, 46.234921571855978 ], [ -72.945256405076449, 46.240114360477101 ], [ -72.93867796478105, 46.242594028737813 ], [ -72.932294112149506, 46.239880566259728 ], [ -72.932489229965142, 46.234687819767913 ], [ -72.939066979356241, 46.232208493558844 ] ] ] } },
{ "type": "Feature", "properties": { "hex_id": 534865, "centroid_lon": -73.977685489885019, "centroid_lat": 45.822714557028114, "occurrences_today": 1, "datetimes_today": "2026-06-25 00:01:15", "cumulative_total": 164.0 }, "geometry": { "type": "Polygon", "coordinates": [ [ [ -73.977780582371011, 45.817518869798107 ], [ -73.984168449865138, 45.820174113256307 ], [ -73.984073942803306, 45.82536980838222 ], [ -73.977590371325519, 45.827910239358957 ], [ -73.971201944485188, 45.825254626776569 ], [ -73.971297648460023, 45.820058952406896 ], [ -73.977780582371011, 45.817518869798107 ] ] ] } },
{ "type": "Feature", "properties": { "hex_id": 630131, "centroid_lon": -72.958026129565809, "centroid_lat": 46.245539511085838, "occurrences_today": 1, "datetimes_today": "2026-06-25 00:01:15", "cumulative_total": 23.0 }, "geometry": { "type": "Polygon", "coordinates": [ [ [ -72.958218858261333, 46.24034668595943 ], [ -72.964604092279956, 46.243058721561638 ], [ -72.964411947872833, 46.248251564847337 ], [ -72.957833347768627, 46.25073233085233 ], [ -72.951447582572328, 46.248019911136211 ], [ -72.951640948639749, 46.242827109595069 ], [ -72.958218858261333, 46.24034668595943 ] ] ] } },
{ "type": "Feature", "properties": { "hex_id": 630742, "centroid_lon": -72.951254163226196, "centroid_lat": 46.253212707313452, "occurrences_today": 1, "datetimes_today": "2026-06-25 00:01:15", "cumulative_total": 63.0 }, "geometry": { "type": "Polygon", "coordinates": [ [ [ -72.951447582572328, 46.248019911136211 ], [ -72.957833347768627, 46.25073233085233 ], [ -72.957640512851654, 46.255925145258722 ], [ -72.951060690583091, 46.258405498126585 ], [ -72.944674394263714, 46.255692694134389 ], [ -72.944868451317731, 46.250499921616509 ], [ -72.951447582572328, 46.248019911136211 ] ] ] } },
{ "type": "Feature", "properties": { "hex_id": 631352, "centroid_lon": -72.945062454915885, "centroid_lat": 46.24530714373067, "occurrences_today": 1, "datetimes_today": "2026-06-25 00:01:15", "cumulative_total": 44.0 }, "geometry": { "type": "Polygon", "coordinates": [ [ [ -72.945256405076449, 46.240114360477101 ], [ -72.951640948639749, 46.242827109595069 ], [ -72.951447582572328, 46.248019911136211 ], [ -72.944868451317731, 46.250499921616509 ], [ -72.938483377108014, 46.247786788270034 ], [ -72.93867796478105, 46.242594028737813 ], [ -72.945256405076449, 46.240114360477101 ] ] ] } },
{ "type": "Feature", "properties": { "hex_id": 630741, "centroid_lon": -72.951834261446635, "centroid_lat": 46.237634302690196, "occurrences_today": 1, "datetimes_today": "2026-06-25 00:01:15", "cumulative_total": 27.0 }, "geometry": { "type": "Polygon", "coordinates": [ [ [ -72.952027521011232, 46.232441490421806 ], [ -72.958411533873388, 46.235153855473328 ], [ -72.958218858261333, 46.24034668595943 ], [ -72.951640948639749, 46.242827109595069 ], [ -72.945256405076449, 46.240114360477101 ], [ -72.945450301817687, 46.234921571855978 ], [ -72.952027521011232, 46.232441490421806 ] ] ] } },
{ "type": "Feature", "properties": { "hex_id": 534255, "centroid_lon": -73.983979409827541, "centroid_lat": 45.830565498610831, "occurrences_today": 1, "datetimes_today": "2026-06-25 00:01:15", "cumulative_total": 94.0 }, "geometry": { "type": "Polygon", "coordinates": [ [ [ -73.984073942803306, 45.82536980838222 ], [ -73.990463007223624, 45.828024706369789 ], [ -73.990369060000063, 45.83322040443278 ], [ -73.983884850929087, 45.835761183942168 ], [ -73.977495226683644, 45.833105916790608 ], [ -73.977590371325519, 45.827910239358957 ], [ -73.984073942803306, 45.82536980838222 ] ] ] } },
{ "type": "Feature", "properties": { "hex_id": 643638, "centroid_lon": -72.76690766755199, "centroid_lat": 47.426615804704142, "occurrences_today": 1, "datetimes_today": "2026-06-25 00:01:15", "cumulative_total": 199.0 }, "geometry": { "type": "Polygon", "coordinates": [ [ [ -72.767127300186004, 47.421424702649865 ], [ -72.773641837074607, 47.424149148255474 ], [ -72.773422824041532, 47.429340270846645 ], [ -72.766687973440881, 47.43180690126043 ], [ -72.760172878439306, 47.429082053939339 ], [ -72.760393192129655, 47.423890977988897 ], [ -72.767127300186004, 47.421424702649865 ] ] ] } },
{ "type": "Feature", "properties": { "hex_id": 661815, "centroid_lon": -72.661734801968493, "centroid_lat": 45.273277947165063, "occurrences_today": 1, "datetimes_today": "2026-06-25 00:01:15", "cumulative_total": 10.0 }, "geometry": { "type": "Polygon", "coordinates": [ [ [ -72.66194812702507, 45.268085263448057 ], [ -72.668210207312185, 45.270811878335167 ], [ -72.667997433078597, 45.276004582744974 ], [ -72.661521418846235, 45.278470625352348 ], [ -72.65525884581146, 45.275743636257459 ], [ -72.655472779737352, 45.270550978826712 ], [ -72.66194812702507, 45.268085263448057 ] ] ] } },
{ "type": "Feature", "properties": { "hex_id": 631351, "centroid_lon": -72.945644145157871, "centroid_lat": 46.2297287778675, "occurrences_today": 1, "datetimes_today": "2026-06-25 00:01:15", "cumulative_total": 7.0 }, "geometry": { "type": "Polygon", "coordinates": [ [ [ -72.94583793511525, 46.224535978511824 ], [ -72.952220727351744, 46.227248672790047 ], [ -72.952027521011232, 46.232441490421806 ], [ -72.945450301817687, 46.234921571855978 ], [ -72.939066979356241, 46.232208493558844 ], [ -72.939261406295074, 46.227015717912451 ], [ -72.94583793511525, 46.224535978511824 ] ] ] } }
]
}
