{
"type": "FeatureCollection",
"name": "daily_2025-11-28",
"crs": { "type": "name", "properties": { "name": "urn:ogc:def:crs:OGC:1.3:CRS84" } },
"features": [
{ "type": "Feature", "properties": { "hex_id": 658, "count": 2, "date": "2025-11-28", "n_files": 22, "pct": 9.09 }, "geometry": { "type": "Polygon", "coordinates": [ [ [ -74.6691212, 45.9362146 ], [ -74.6689666, 45.9621961 ], [ -74.7011606, 45.9752758 ], [ -74.7334944, 45.9623648 ], [ -74.7336189, 45.9363831 ], [ -74.7014397, 45.9233125 ], [ -74.6691212, 45.9362146 ] ] ] } },
{ "type": "Feature", "properties": { "hex_id": 722, "count": 2, "date": "2025-11-28", "n_files": 22, "pct": 9.09 }, "geometry": { "type": "Polygon", "coordinates": [ [ [ -74.6371267, 45.8971442 ], [ -74.6369574, 45.923125899999988 ], [ -74.6691212, 45.9362146 ], [ -74.7014397, 45.9233125 ], [ -74.701579, 45.8973307 ], [ -74.6694298, 45.8842511 ], [ -74.6371267, 45.8971442 ] ] ] } },
{ "type": "Feature", "properties": { "hex_id": 786, "count": 1, "date": "2025-11-28", "n_files": 22, "pct": 4.55 }, "geometry": { "type": "Polygon", "coordinates": [ [ [ -74.6046242, 45.9360096 ], [ -74.6044394, 45.961991 ], [ -74.636618, 45.9750888 ], [ -74.6689666, 45.9621961 ], [ -74.6691212, 45.9362146 ], [ -74.6369574, 45.923125899999988 ], [ -74.6046242, 45.9360096 ] ] ] } },
{ "type": "Feature", "properties": { "hex_id": 914, "count": 1, "date": "2025-11-28", "n_files": 22, "pct": 4.55 }, "geometry": { "type": "Polygon", "coordinates": [ [ [ -74.5401279, 45.9357683 ], [ -74.539913, 45.9617494 ], [ -74.5720761, 45.9748653 ], [ -74.6044394, 45.961991 ], [ -74.6046242, 45.9360096 ], [ -74.5724758, 45.9229028 ], [ -74.5401279, 45.9357683 ] ] ] } },
{ "type": "Feature", "properties": { "hex_id": 979, "count": 1, "date": "2025-11-28", "n_files": 22, "pct": 4.55 }, "geometry": { "type": "Polygon", "coordinates": [ [ [ -74.507535, 45.9746055 ], [ -74.5073046, 46.0005863 ], [ -74.5394823, 46.0137114 ], [ -74.5718758, 46.0008464 ], [ -74.5720761, 45.9748653 ], [ -74.539913, 45.9617494 ], [ -74.507535, 45.9746055 ] ] ] } },
{ "type": "Feature", "properties": { "hex_id": 1042, "count": 1, "date": "2025-11-28", "n_files": 22, "pct": 4.55 }, "geometry": { "type": "Polygon", "coordinates": [ [ [ -74.4756325, 45.9354905 ], [ -74.475387500000011, 45.9614714 ], [ -74.507535, 45.9746055 ], [ -74.539913, 45.9617494 ], [ -74.5401279, 45.9357683 ], [ -74.507995, 45.9226434 ], [ -74.4756325, 45.9354905 ] ] ] } },
{ "type": "Feature", "properties": { "hex_id": 1107, "count": 1, "date": "2025-11-28", "n_files": 22, "pct": 4.55 }, "geometry": { "type": "Polygon", "coordinates": [ [ [ -74.4429949, 45.9743091 ], [ -74.4427342, 46.0002897 ], [ -74.4748964, 46.0134329 ], [ -74.5073046, 46.0005863 ], [ -74.507535, 45.9746055 ], [ -74.475387500000011, 45.9614714 ], [ -74.4429949, 45.9743091 ] ] ] } },
{ "type": "Feature", "properties": { "hex_id": 1230, "count": 2, "date": "2025-11-28", "n_files": 22, "pct": 9.09 }, "geometry": { "type": "Polygon", "coordinates": [ [ [ -74.382771, 45.5842577 ], [ -74.3824861, 45.6102397 ], [ -74.4144111, 45.6233996 ], [ -74.4466067, 45.6105684 ], [ -74.4468621, 45.584586 ], [ -74.4149513, 45.5714351 ], [ -74.382771, 45.5842577 ] ] ] } },
{ "type": "Feature", "properties": { "hex_id": 1293, "count": 2, "date": "2025-11-28", "n_files": 22, "pct": 9.09 }, "geometry": { "type": "Polygon", "coordinates": [ [ [ -74.3511748, 45.5451069 ], [ -74.3508757, 45.571089 ], [ -74.382771, 45.5842577 ], [ -74.4149513, 45.5714351 ], [ -74.4152209, 45.5454527 ], [ -74.3833397, 45.5322931 ], [ -74.3511748, 45.5451069 ] ] ] } },
{ "type": "Feature", "properties": { "hex_id": 1358, "count": 2, "date": "2025-11-28", "n_files": 22, "pct": 9.09 }, "geometry": { "type": "Polygon", "coordinates": [ [ [ -74.3186812, 45.5838934 ], [ -74.3183667, 45.6098751 ], [ -74.3502762, 45.6230529 ], [ -74.3824861, 45.6102397 ], [ -74.382771, 45.5842577 ], [ -74.3508757, 45.571089 ], [ -74.3186812, 45.5838934 ] ] ] } },
{ "type": "Feature", "properties": { "hex_id": 1544, "count": 3, "date": "2025-11-28", "n_files": 22, "pct": 13.64 }, "geometry": { "type": "Polygon", "coordinates": [ [ [ -74.2284001, 45.1545723 ], [ -74.2280493, 45.1805555 ], [ -74.259698, 45.1937577 ], [ -74.2916838, 45.1809679 ], [ -74.2920058, 45.1549843 ], [ -74.2603708, 45.141791 ], [ -74.2284001, 45.1545723 ] ] ] } },
{ "type": "Feature", "properties": { "hex_id": 2123, "count": 2, "date": "2025-11-28", "n_files": 22, "pct": 9.09 }, "geometry": { "type": "Polygon", "coordinates": [ [ [ -73.9385707, 45.3471354 ], [ -73.9380847, 45.3731156 ], [ -73.9697712, 45.3863981 ], [ -74.00193, 45.3736914 ], [ -74.0023867, 45.3477106 ], [ -73.9707139, 45.3344372 ], [ -73.9385707, 45.3471354 ] ] ] } },
{ "type": "Feature", "properties": { "hex_id": 2380, "count": 1, "date": "2025-11-28", "n_files": 22, "pct": 4.55 }, "geometry": { "type": "Polygon", "coordinates": [ [ [ -73.8093094, 45.4238147 ], [ -73.8087629, 45.4497934 ], [ -73.8404609, 45.4631118 ], [ -73.8726918, 45.4504423 ], [ -73.8732091, 45.4244631 ], [ -73.8415247, 45.4111538 ], [ -73.8093094, 45.4238147 ] ] ] } },
{ "type": "Feature", "properties": { "hex_id": 2444, "count": 1, "date": "2025-11-28", "n_files": 22, "pct": 4.55 }, "geometry": { "type": "Polygon", "coordinates": [ [ [ -73.7765183, 45.4624447 ], [ -73.7759559, 45.488423 ], [ -73.8076675, 45.5017505 ], [ -73.8399279, 45.4890906 ], [ -73.8404609, 45.4631118 ], [ -73.8087629, 45.4497934 ], [ -73.7765183, 45.4624447 ] ] ] } },
{ "type": "Feature", "properties": { "hex_id": 2519, "count": 6, "date": "2025-11-28", "n_files": 22, "pct": 27.27 }, "geometry": { "type": "Polygon", "coordinates": [ [ [ -73.7259856, 46.280342 ], [ -73.7253831, 46.3063159 ], [ -73.7575474, 46.3196603 ], [ -73.7903, 46.3070213 ], [ -73.7908719, 46.2810467 ], [ -73.7587218, 46.2677117 ], [ -73.7259856, 46.280342 ] ] ] } },
{ "type": "Feature", "properties": { "hex_id": 2582, "count": 6, "date": "2025-11-28", "n_files": 22, "pct": 27.27 }, "geometry": { "type": "Polygon", "coordinates": [ [ [ -73.6944687, 46.2410151 ], [ -73.6938521, 46.2669889 ], [ -73.7259856, 46.280342 ], [ -73.7587218, 46.2677117 ], [ -73.7593077, 46.2417372 ], [ -73.7271882, 46.2283936 ], [ -73.6944687, 46.2410151 ] ] ] } },
{ "type": "Feature", "properties": { "hex_id": 2705, "count": 1, "date": "2025-11-28", "n_files": 22, "pct": 4.55 }, "geometry": { "type": "Polygon", "coordinates": [ [ [ -73.6392339, 45.8506438 ], [ -73.6385999, 45.8766189 ], [ -73.6704961, 45.8899857 ], [ -73.7030125, 45.8773682 ], [ -73.7036165, 45.8513925 ], [ -73.6717341, 45.838035 ], [ -73.6392339, 45.8506438 ] ] ] } },
{ "type": "Feature", "properties": { "hex_id": 2764, "count": 5, "date": "2025-11-28", "n_files": 22, "pct": 22.73 }, "geometry": { "type": "Polygon", "coordinates": [ [ [ -73.6176243, 45.4216554 ], [ -73.6169898, 45.4476322 ], [ -73.6486402, 45.4610032 ], [ -73.6809117, 45.4483883 ], [ -73.6815169, 45.4224109 ], [ -73.6498799, 45.409049 ], [ -73.6176243, 45.4216554 ] ] ] } },
{ "type": "Feature", "properties": { "hex_id": 2770, "count": 1, "date": "2025-11-28", "n_files": 22, "pct": 4.55 }, "geometry": { "type": "Polygon", "coordinates": [ [ [ -73.6060698, 45.8892179 ], [ -73.6054195, 45.9151924 ], [ -73.6373294, 45.9285686 ], [ -73.6698758, 45.9159609 ], [ -73.6704961, 45.8899857 ], [ -73.6385999, 45.8766189 ], [ -73.6060698, 45.8892179 ] ] ] } },
{ "type": "Feature", "properties": { "hex_id": 2827, "count": 5, "date": "2025-11-28", "n_files": 22, "pct": 22.73 }, "geometry": { "type": "Polygon", "coordinates": [ [ [ -73.586651, 45.3822994 ], [ -73.5860032, 45.408276 ], [ -73.6176243, 45.4216554 ], [ -73.6498799, 45.409049 ], [ -73.6504985, 45.3830717 ], [ -73.6188907, 45.3697015 ], [ -73.586651, 45.3822994 ] ] ] } },
{ "type": "Feature", "properties": { "hex_id": 2830, "count": 8, "date": "2025-11-28", "n_files": 22, "pct": 36.36 }, "geometry": { "type": "Polygon", "coordinates": [ [ [ -73.5807888, 45.6160842 ], [ -73.580133, 45.6420597 ], [ -73.6118826, 45.6554417 ], [ -73.6442746, 45.642839 ], [ -73.6449009, 45.6168628 ], [ -73.6131647, 45.6034901 ], [ -73.5807888, 45.6160842 ] ] ] } },
{ "type": "Feature", "properties": { "hex_id": 2833, "count": 1, "date": "2025-11-28", "n_files": 22, "pct": 4.55 }, "geometry": { "type": "Polygon", "coordinates": [ [ [ -73.574854, 45.8498589 ], [ -73.57419, 45.8758332 ], [ -73.6060698, 45.8892179 ], [ -73.6385999, 45.8766189 ], [ -73.6392339, 45.8506438 ], [ -73.6073678, 45.8372685 ], [ -73.574854, 45.8498589 ] ] ] } },
{ "type": "Feature", "properties": { "hex_id": 2890, "count": 2, "date": "2025-11-28", "n_files": 22, "pct": 9.09 }, "geometry": { "type": "Polygon", "coordinates": [ [ [ -73.5576981, 45.2650052 ], [ -73.5570397, 45.290982 ], [ -73.5885892, 45.3043688 ], [ -73.6207838, 45.2917697 ], [ -73.6214131, 45.2657922 ], [ -73.5898769, 45.2524145 ], [ -73.5576981, 45.2650052 ] ] ] } },
{ "type": "Feature", "properties": { "hex_id": 2898, "count": 1, "date": "2025-11-28", "n_files": 22, "pct": 4.55 }, "geometry": { "type": "Polygon", "coordinates": [ [ [ -73.5416462, 45.8884137 ], [ -73.540965900000018, 45.9143875 ], [ -73.5728594, 45.9277815 ], [ -73.6054195, 45.9151924 ], [ -73.6060698, 45.8892179 ], [ -73.57419, 45.8758332 ], [ -73.5416462, 45.8884137 ] ] ] } },
{ "type": "Feature", "properties": { "hex_id": 2953, "count": 2, "date": "2025-11-28", "n_files": 22, "pct": 9.09 }, "geometry": { "type": "Polygon", "coordinates": [ [ [ -73.5268492, 45.2256335 ], [ -73.5261777, 45.2516101 ], [ -73.5576981, 45.2650052 ], [ -73.5898769, 45.2524145 ], [ -73.5905194, 45.2264372 ], [ -73.5590122, 45.2130512 ], [ -73.5268492, 45.2256335 ] ] ] } },
{ "type": "Feature", "properties": { "hex_id": 2954, "count": 2, "date": "2025-11-28", "n_files": 22, "pct": 9.09 }, "geometry": { "type": "Polygon", "coordinates": [ [ [ -73.5248319, 45.303563 ], [ -73.5241576, 45.3295393 ], [ -73.5557203, 45.3429352 ], [ -73.587944, 45.3303458 ], [ -73.5885892, 45.3043688 ], [ -73.5570397, 45.290982 ], [ -73.5248319, 45.303563 ] ] ] } },
{ "type": "Feature", "properties": { "hex_id": 3018, "count": 2, "date": "2025-11-28", "n_files": 22, "pct": 9.09 }, "geometry": { "type": "Polygon", "coordinates": [ [ [ -73.4939858, 45.2641827 ], [ -73.4932983, 45.2901588 ], [ -73.5248319, 45.303563 ], [ -73.5570397, 45.290982 ], [ -73.5576981, 45.2650052 ], [ -73.5261777, 45.2516101 ], [ -73.4939858, 45.2641827 ] ] ] } },
{ "type": "Feature", "properties": { "hex_id": 3081, "count": 2, "date": "2025-11-28", "n_files": 22, "pct": 9.09 }, "geometry": { "type": "Polygon", "coordinates": [ [ [ -73.4631818, 45.2247944 ], [ -73.4624813, 45.2507702 ], [ -73.4939858, 45.2641827 ], [ -73.5261777, 45.2516101 ], [ -73.5268492, 45.2256335 ], [ -73.4953578, 45.2122302 ], [ -73.4631818, 45.2247944 ] ] ] } },
{ "type": "Feature", "properties": { "hex_id": 3082, "count": 2, "date": "2025-11-28", "n_files": 22, "pct": 9.09 }, "geometry": { "type": "Polygon", "coordinates": [ [ [ -73.4610773, 45.3027216 ], [ -73.4603739, 45.3286971 ], [ -73.4919206, 45.3421105 ], [ -73.5241576, 45.3295393 ], [ -73.5248319, 45.303563 ], [ -73.4932983, 45.2901588 ], [ -73.4610773, 45.3027216 ] ] ] } },
{ "type": "Feature", "properties": { "hex_id": 3083, "count": 5, "date": "2025-11-28", "n_files": 22, "pct": 22.73 }, "geometry": { "type": "Polygon", "coordinates": [ [ [ -73.4589642, 45.3806477 ], [ -73.458258, 45.4066228 ], [ -73.489847, 45.420037199999989 ], [ -73.5221292, 45.4074672 ], [ -73.5228063, 45.3814914 ], [ -73.4912304, 45.3680862 ], [ -73.4589642, 45.3806477 ] ] ] } },
{ "type": "Feature", "properties": { "hex_id": 3087, "count": 3, "date": "2025-11-28", "n_files": 22, "pct": 13.64 }, "geometry": { "type": "Polygon", "coordinates": [ [ [ -73.4504249, 45.6923406 ], [ -73.4497069, 45.7183142 ], [ -73.4814672, 45.7317324 ], [ -73.5139321, 45.7191678 ], [ -73.5146203, 45.6931934 ], [ -73.4828734, 45.6797845 ], [ -73.4504249, 45.6923406 ] ] ] } },
{ "type": "Feature", "properties": { "hex_id": 3150, "count": 3, "date": "2025-11-28", "n_files": 22, "pct": 13.64 }, "geometry": { "type": "Polygon", "coordinates": [ [ [ -73.4216135, 45.5750197 ], [ -73.4208852, 45.6009935 ], [ -73.4525729, 45.6144191 ], [ -73.4849755, 45.6018616 ], [ -73.4856743, 45.5758871 ], [ -73.454, 45.5624708 ], [ -73.4216135, 45.5750197 ] ] ] } },
{ "type": "Feature", "properties": { "hex_id": 4058, "count": 2, "date": "2025-11-28", "n_files": 22, "pct": 9.09 }, "geometry": { "type": "Polygon", "coordinates": [ [ [ -72.9388014, 46.5026845 ], [ -72.9378191, 46.5286471 ], [ -72.9699127, 46.5422115 ], [ -73.0029751, 46.5298036 ], [ -73.0039264, 46.50384 ], [ -72.9718463, 46.4902853 ], [ -72.9388014, 46.5026845 ] ] ] } },
{ "type": "Feature", "properties": { "hex_id": 4122, "count": 2, "date": "2025-11-28", "n_files": 22, "pct": 9.09 }, "geometry": { "type": "Polygon", "coordinates": [ [ [ -72.9047433, 46.5410359 ], [ -72.9037434, 46.5669977 ], [ -72.9358505, 46.5805718 ], [ -72.9689439, 46.5681744 ], [ -72.9699127, 46.5422115 ], [ -72.9378191, 46.5286471 ], [ -72.9047433, 46.5410359 ] ] ] } },
{ "type": "Feature", "properties": { "hex_id": 4313, "count": 4, "date": "2025-11-28", "n_files": 22, "pct": 18.18 }, "geometry": { "type": "Polygon", "coordinates": [ [ [ -72.811688, 46.4223804 ], [ -72.810648, 46.4483412 ], [ -72.8426622, 46.4619401 ], [ -72.8757029, 46.4495686 ], [ -72.876712, 46.4236067 ], [ -72.8447112, 46.4100175 ], [ -72.811688, 46.4223804 ] ] ] } },
{ "type": "Feature", "properties": { "hex_id": 4377, "count": 4, "date": "2025-11-28", "n_files": 22, "pct": 18.18 }, "geometry": { "type": "Polygon", "coordinates": [ [ [ -72.777594, 46.4606937 ], [ -72.7765365, 46.4866537 ], [ -72.8085639, 46.5002624 ], [ -72.8416355, 46.4879013 ], [ -72.8426622, 46.4619401 ], [ -72.810648, 46.4483412 ], [ -72.777594, 46.4606937 ] ] ] } },
{ "type": "Feature", "properties": { "hex_id": 4758, "count": 1, "date": "2025-11-28", "n_files": 22, "pct": 4.55 }, "geometry": { "type": "Polygon", "coordinates": [ [ [ -72.5926969, 46.223118199999988 ], [ -72.5915609, 46.2490759 ], [ -72.6234039, 46.2627334 ], [ -72.65637, 46.2504235 ], [ -72.6574755, 46.2244646 ], [ -72.6256454, 46.2108168 ], [ -72.5926969, 46.223118199999988 ] ] ] } },
{ "type": "Feature", "properties": { "hex_id": 4822, "count": 1, "date": "2025-11-28", "n_files": 22, "pct": 4.55 }, "geometry": { "type": "Polygon", "coordinates": [ [ [ -72.5620333, 46.1834954 ], [ -72.5608844, 46.2094527 ], [ -72.5926969, 46.223118199999988 ], [ -72.6256454, 46.2108168 ], [ -72.6267639, 46.1848583 ], [ -72.5949642, 46.1712024 ], [ -72.5620333, 46.1834954 ] ] ] } },
{ "type": "Feature", "properties": { "hex_id": 4885, "count": 1, "date": "2025-11-28", "n_files": 22, "pct": 4.55 }, "geometry": { "type": "Polygon", "coordinates": [ [ [ -72.5314128, 46.1438649 ], [ -72.5302512, 46.1698218 ], [ -72.5620333, 46.1834954 ], [ -72.5949642, 46.1712024 ], [ -72.5960956, 46.1452443 ], [ -72.5643263, 46.1315804 ], [ -72.5314128, 46.1438649 ] ] ] } },
{ "type": "Feature", "properties": { "hex_id": 4886, "count": 1, "date": "2025-11-28", "n_files": 22, "pct": 4.55 }, "geometry": { "type": "Polygon", "coordinates": [ [ [ -72.527923, 46.221735099999989 ], [ -72.5267565, 46.2476916 ], [ -72.5585819, 46.2613668 ], [ -72.5915609, 46.2490759 ], [ -72.5926969, 46.223118199999988 ], [ -72.5608844, 46.2094527 ], [ -72.527923, 46.221735099999989 ] ] ] } },
{ "type": "Feature", "properties": { "hex_id": 4946, "count": 3, "date": "2025-11-28", "n_files": 22, "pct": 13.64 }, "geometry": { "type": "Polygon", "coordinates": [ [ [ -72.5113333, 45.8706124 ], [ -72.5101733, 45.8965701 ], [ -72.5417965, 45.9102466 ], [ -72.5745672, 45.8979558 ], [ -72.5756973, 45.8719969 ], [ -72.5440867, 45.8583299 ], [ -72.5113333, 45.8706124 ] ] ] } },
{ "type": "Feature", "properties": { "hex_id": 4949, "count": 1, "date": "2025-11-28", "n_files": 22, "pct": 4.55 }, "geometry": { "type": "Polygon", "coordinates": [ [ [ -72.5008355, 46.1042269 ], [ -72.4996611, 46.1301833 ], [ -72.5314128, 46.1438649 ], [ -72.5643263, 46.1315804 ], [ -72.5654704, 46.1056226 ], [ -72.5337314, 46.0919507 ], [ -72.5008355, 46.1042269 ] ] ] } },
{ "type": "Feature", "properties": { "hex_id": 4950, "count": 1, "date": "2025-11-28", "n_files": 22, "pct": 4.55 }, "geometry": { "type": "Polygon", "coordinates": [ [ [ -72.4973074, 46.1820958 ], [ -72.4961281, 46.2080519 ], [ -72.527923, 46.221735099999989 ], [ -72.5608844, 46.2094527 ], [ -72.5620333, 46.1834954 ], [ -72.5302512, 46.1698218 ], [ -72.4973074, 46.1820958 ] ] ] } },
{ "type": "Feature", "properties": { "hex_id": 4951, "count": 3, "date": "2025-11-28", "n_files": 22, "pct": 13.64 }, "geometry": { "type": "Polygon", "coordinates": [ [ [ -72.4937646, 46.2599635 ], [ -72.4925804, 46.2859191 ], [ -72.5244187, 46.2996041 ], [ -72.5574282, 46.2873237 ], [ -72.5585819, 46.2613668 ], [ -72.5267565, 46.2476916 ], [ -72.4937646, 46.2599635 ] ] ] } },
{ "type": "Feature", "properties": { "hex_id": 5013, "count": 1, "date": "2025-11-28", "n_files": 22, "pct": 4.55 }, "geometry": { "type": "Polygon", "coordinates": [ [ [ -72.4667349, 46.142449 ], [ -72.4655429, 46.168404599999988 ], [ -72.4973074, 46.1820958 ], [ -72.5302512, 46.1698218 ], [ -72.5314128, 46.1438649 ], [ -72.4996611, 46.1301833 ], [ -72.4667349, 46.142449 ] ] ] } },
{ "type": "Feature", "properties": { "hex_id": 5014, "count": 1, "date": "2025-11-28", "n_files": 22, "pct": 4.55 }, "geometry": { "type": "Polygon", "coordinates": [ [ [ -72.4631538, 46.2203154 ], [ -72.4619569, 46.2462706 ], [ -72.4937646, 46.2599635 ], [ -72.5267565, 46.2476916 ], [ -72.527923, 46.221735099999989 ], [ -72.4961281, 46.2080519 ], [ -72.4631538, 46.2203154 ] ] ] } },
{ "type": "Feature", "properties": { "hex_id": 5077, "count": 1, "date": "2025-11-28", "n_files": 22, "pct": 4.55 }, "geometry": { "type": "Polygon", "coordinates": [ [ [ -72.4362055, 46.1027946 ], [ -72.4350008, 46.1287498 ], [ -72.4667349, 46.142449 ], [ -72.4996611, 46.1301833 ], [ -72.5008355, 46.1042269 ], [ -72.4691141, 46.0905374 ], [ -72.4362055, 46.1027946 ] ] ] } },
{ "type": "Feature", "properties": { "hex_id": 5078, "count": 1, "date": "2025-11-28", "n_files": 22, "pct": 4.55 }, "geometry": { "type": "Polygon", "coordinates": [ [ [ -72.4325863, 46.1806597 ], [ -72.4313766, 46.2066144 ], [ -72.4631538, 46.2203154 ], [ -72.4961281, 46.2080519 ], [ -72.4973074, 46.1820958 ], [ -72.4655429, 46.168404599999988 ], [ -72.4325863, 46.1806597 ] ] ] } },
{ "type": "Feature", "properties": { "hex_id": 5079, "count": 1, "date": "2025-11-28", "n_files": 22, "pct": 4.55 }, "geometry": { "type": "Polygon", "coordinates": [ [ [ -72.4289522, 46.2585235 ], [ -72.4277374, 46.2844778 ], [ -72.4595579, 46.2981805 ], [ -72.4925804, 46.2859191 ], [ -72.4937646, 46.2599635 ], [ -72.4619569, 46.2462706 ], [ -72.4289522, 46.2585235 ] ] ] } },
{ "type": "Feature", "properties": { "hex_id": 5141, "count": 1, "date": "2025-11-28", "n_files": 22, "pct": 4.55 }, "geometry": { "type": "Polygon", "coordinates": [ [ [ -72.4020619, 46.1409965 ], [ -72.4008395, 46.1669508 ], [ -72.4325863, 46.1806597 ], [ -72.4655429, 46.168404599999988 ], [ -72.4667349, 46.142449 ], [ -72.4350008, 46.1287498 ], [ -72.4020619, 46.1409965 ] ] ] } },
{ "type": "Feature", "properties": { "hex_id": 5142, "count": 1, "date": "2025-11-28", "n_files": 22, "pct": 4.55 }, "geometry": { "type": "Polygon", "coordinates": [ [ [ -72.3983896, 46.218859 ], [ -72.3971622, 46.2448128 ], [ -72.4289522, 46.2585235 ], [ -72.4619569, 46.2462706 ], [ -72.4631538, 46.2203154 ], [ -72.4313766, 46.2066144 ], [ -72.3983896, 46.218859 ] ] ] } },
{ "type": "Feature", "properties": { "hex_id": 5143, "count": 1, "date": "2025-11-28", "n_files": 22, "pct": 4.55 }, "geometry": { "type": "Polygon", "coordinates": [ [ [ -72.3947022, 46.2967201 ], [ -72.3934697, 46.322673599999987 ], [ -72.425303, 46.336386 ], [ -72.458356, 46.3241352 ], [ -72.4595579, 46.2981805 ], [ -72.4277374, 46.2844778 ], [ -72.3947022, 46.2967201 ] ] ] } },
{ "type": "Feature", "properties": { "hex_id": 5205, "count": 1, "date": "2025-11-28", "n_files": 22, "pct": 4.55 }, "geometry": { "type": "Polygon", "coordinates": [ [ [ -72.3715804, 46.1013259 ], [ -72.3703454, 46.1272797 ], [ -72.4020619, 46.1409965 ], [ -72.4350008, 46.1287498 ], [ -72.4362055, 46.1027946 ], [ -72.4045017, 46.0890875 ], [ -72.3715804, 46.1013259 ] ] ] } },
{ "type": "Feature", "properties": { "hex_id": 5206, "count": 1, "date": "2025-11-28", "n_files": 22, "pct": 4.55 }, "geometry": { "type": "Polygon", "coordinates": [ [ [ -72.3678703, 46.179187 ], [ -72.3666301, 46.2051404 ], [ -72.3983896, 46.218859 ], [ -72.4313766, 46.2066144 ], [ -72.4325863, 46.1806597 ], [ -72.4008395, 46.1669508 ], [ -72.3678703, 46.179187 ] ] ] } },
{ "type": "Feature", "properties": { "hex_id": 5207, "count": 1, "date": "2025-11-28", "n_files": 22, "pct": 4.55 }, "geometry": { "type": "Polygon", "coordinates": [ [ [ -72.3641448, 46.2570468 ], [ -72.362899500000012, 46.2829997 ], [ -72.3947022, 46.2967201 ], [ -72.4277374, 46.2844778 ], [ -72.4289522, 46.2585235 ], [ -72.3971622, 46.2448128 ], [ -72.3641448, 46.2570468 ] ] ] } },
{ "type": "Feature", "properties": { "hex_id": 5269, "count": 1, "date": "2025-11-28", "n_files": 22, "pct": 4.55 }, "geometry": { "type": "Polygon", "coordinates": [ [ [ -72.3373939, 46.1395075 ], [ -72.3361412, 46.1654604 ], [ -72.3678703, 46.179187 ], [ -72.4008395, 46.1669508 ], [ -72.4020619, 46.1409965 ], [ -72.3703454, 46.1272797 ], [ -72.3373939, 46.1395075 ] ] ] } },
{ "type": "Feature", "properties": { "hex_id": 5270, "count": 1, "date": "2025-11-28", "n_files": 22, "pct": 4.55 }, "geometry": { "type": "Polygon", "coordinates": [ [ [ -72.3336305, 46.2173659 ], [ -72.3323726, 46.2433184 ], [ -72.3641448, 46.2570468 ], [ -72.3971622, 46.2448128 ], [ -72.3983896, 46.218859 ], [ -72.3666301, 46.2051404 ], [ -72.3336305, 46.2173659 ] ] ] } },
{ "type": "Feature", "properties": { "hex_id": 5327, "count": 5, "date": "2025-11-28", "n_files": 22, "pct": 22.73 }, "geometry": { "type": "Polygon", "coordinates": [ [ [ -72.3294415, 45.632651 ], [ -72.328207, 45.6586061 ], [ -72.3596517, 45.6723296 ], [ -72.3923186, 45.6600885 ], [ -72.3935236, 45.634132 ], [ -72.3620911, 45.6204181 ], [ -72.3294415, 45.632651 ] ] ] } },
{ "type": "Feature", "properties": { "hex_id": 5334, "count": 1, "date": "2025-11-28", "n_files": 22, "pct": 4.55 }, "geometry": { "type": "Polygon", "coordinates": [ [ [ -72.3031593, 46.1776776 ], [ -72.3018888, 46.2036297 ], [ -72.3336305, 46.2173659 ], [ -72.3666301, 46.2051404 ], [ -72.3678703, 46.179187 ], [ -72.3361412, 46.1654604 ], [ -72.3031593, 46.1776776 ] ] ] } },
{ "type": "Feature", "properties": { "hex_id": 5335, "count": 1, "date": "2025-11-28", "n_files": 22, "pct": 4.55 }, "geometry": { "type": "Polygon", "coordinates": [ [ [ -72.2993425, 46.2555333 ], [ -72.2980667, 46.281485 ], [ -72.3298516, 46.295223 ], [ -72.362899500000012, 46.2829997 ], [ -72.3641448, 46.2570468 ], [ -72.3323726, 46.2433184 ], [ -72.2993425, 46.2555333 ] ] ] } },
{ "type": "Feature", "properties": { "hex_id": 5390, "count": 5, "date": "2025-11-28", "n_files": 22, "pct": 22.73 }, "geometry": { "type": "Polygon", "coordinates": [ [ [ -72.299273, 45.5929651 ], [ -72.2980263, 45.6189197 ], [ -72.3294415, 45.632651 ], [ -72.3620911, 45.6204181 ], [ -72.3633083, 45.5944621 ], [ -72.3319054, 45.580740299999988 ], [ -72.299273, 45.5929651 ] ] ] } },
{ "type": "Feature", "properties": { "hex_id": 5398, "count": 1, "date": "2025-11-28", "n_files": 22, "pct": 4.55 }, "geometry": { "type": "Polygon", "coordinates": [ [ [ -72.2688766, 46.2158362 ], [ -72.2675882, 46.2417874 ], [ -72.2993425, 46.2555333 ], [ -72.3323726, 46.2433184 ], [ -72.3336305, 46.2173659 ], [ -72.3018888, 46.2036297 ], [ -72.2688766, 46.2158362 ] ] ] } },
{ "type": "Feature", "properties": { "hex_id": 5454, "count": 5, "date": "2025-11-28", "n_files": 22, "pct": 22.73 }, "geometry": { "type": "Polygon", "coordinates": [ [ [ -72.2691461, 45.5532719 ], [ -72.267887300000012, 45.5792261 ], [ -72.299273, 45.5929651 ], [ -72.3319054, 45.580740299999988 ], [ -72.3331348, 45.5547848 ], [ -72.3017613, 45.5410554 ], [ -72.2691461, 45.5532719 ] ] ] } },
{ "type": "Feature", "properties": { "hex_id": 5455, "count": 5, "date": "2025-11-28", "n_files": 22, "pct": 22.73 }, "geometry": { "type": "Polygon", "coordinates": [ [ [ -72.2653645, 45.631134 ], [ -72.2641005, 45.6570877 ], [ -72.2955279, 45.6708286 ], [ -72.328207, 45.6586061 ], [ -72.3294415, 45.632651 ], [ -72.2980263, 45.6189197 ], [ -72.2653645, 45.631134 ] ] ] } },
{ "type": "Feature", "properties": { "hex_id": 5518, "count": 5, "date": "2025-11-28", "n_files": 22, "pct": 22.73 }, "geometry": { "type": "Polygon", "coordinates": [ [ [ -72.2352428, 45.5914322 ], [ -72.233966700000011, 45.6173855 ], [ -72.2653645, 45.631134 ], [ -72.2980263, 45.6189197 ], [ -72.299273, 45.5929651 ], [ -72.267887300000012, 45.5792261 ], [ -72.2352428, 45.5914322 ] ] ] } },
{ "type": "Feature", "properties": { "hex_id": 5582, "count": 5, "date": "2025-11-28", "n_files": 22, "pct": 22.73 }, "geometry": { "type": "Polygon", "coordinates": [ [ [ -72.2051626, 45.5517233 ], [ -72.2038744, 45.577676 ], [ -72.2352428, 45.5914322 ], [ -72.267887300000012, 45.5792261 ], [ -72.2691461, 45.5532719 ], [ -72.2377899, 45.5395253 ], [ -72.2051626, 45.5517233 ] ] ] } },
{ "type": "Feature", "properties": { "hex_id": 5593, "count": 3, "date": "2025-11-28", "n_files": 22, "pct": 13.64 }, "geometry": { "type": "Polygon", "coordinates": [ [ [ -72.1617054, 46.408087 ], [ -72.1603575, 46.4340349 ], [ -72.1921928, 46.4478121 ], [ -72.2253635, 46.4356317 ], [ -72.2266807, 46.4096823 ], [ -72.1948579, 46.3959149 ], [ -72.1617054, 46.408087 ] ] ] } },
{ "type": "Feature", "properties": { "hex_id": 5657, "count": 3, "date": "2025-11-28", "n_files": 22, "pct": 13.64 }, "geometry": { "type": "Polygon", "coordinates": [ [ [ -72.1271742, 46.4461961 ], [ -72.1258081, 46.4721431 ], [ -72.1576561, 46.4859302 ], [ -72.1908576, 46.4737605 ], [ -72.1921928, 46.4478121 ], [ -72.1603575, 46.4340349 ], [ -72.1271742, 46.4461961 ] ] ] } },
{ "type": "Feature", "properties": { "hex_id": 5721, "count": 2, "date": "2025-11-28", "n_files": 22, "pct": 9.09 }, "geometry": { "type": "Polygon", "coordinates": [ [ [ -72.0967357, 46.4064547 ], [ -72.095357, 46.4324011 ], [ -72.1271742, 46.4461961 ], [ -72.1603575, 46.4340349 ], [ -72.1617054, 46.408087 ], [ -72.1299008, 46.3943018 ], [ -72.0967357, 46.4064547 ] ] ] } },
{ "type": "Feature", "properties": { "hex_id": 5784, "count": 2, "date": "2025-11-28", "n_files": 22, "pct": 9.09 }, "geometry": { "type": "Polygon", "coordinates": [ [ [ -72.0663404, 46.3667059 ], [ -72.0649493, 46.3926519 ], [ -72.0967357, 46.4064547 ], [ -72.1299008, 46.3943018 ], [ -72.1312612, 46.3683544 ], [ -72.0994873, 46.354561399999987 ], [ -72.0663404, 46.3667059 ] ] ] } },
{ "type": "Feature", "properties": { "hex_id": 5849, "count": 2, "date": "2025-11-28", "n_files": 22, "pct": 9.09 }, "geometry": { "type": "Polygon", "coordinates": [ [ [ -72.0317717, 46.4047856 ], [ -72.0303623, 46.4307305 ], [ -72.0621612, 46.4445432 ], [ -72.095357, 46.4324011 ], [ -72.0967357, 46.4064547 ], [ -72.0649493, 46.3926519 ], [ -72.0317717, 46.4047856 ] ] ] } },
{ "type": "Feature", "properties": { "hex_id": 6494, "count": 2, "date": "2025-11-28", "n_files": 22, "pct": 9.09 }, "geometry": { "type": "Polygon", "coordinates": [ [ [ -71.6833694, 46.7849243 ], [ -71.6817737, 46.8108588 ], [ -71.7136969, 46.8247712 ], [ -71.7472034, 46.812739 ], [ -71.7487677, 46.7868028 ], [ -71.7168569, 46.7729005 ], [ -71.6833694, 46.7849243 ] ] ] } },
{ "type": "Feature", "properties": { "hex_id": 6516, "count": 1, "date": "2025-11-28", "n_files": 22, "pct": 4.55 }, "geometry": { "type": "Polygon", "coordinates": [ [ [ -71.5731229, 48.4962562 ], [ -71.5713724, 48.52218 ], [ -71.6043022, 48.5361451 ], [ -71.6389691, 48.5241757 ], [ -71.6406852, 48.4982501 ], [ -71.6077688, 48.4842957 ], [ -71.5731229, 48.4962562 ] ] ] } },
{ "type": "Feature", "properties": { "hex_id": 6558, "count": 2, "date": "2025-11-28", "n_files": 22, "pct": 9.09 }, "geometry": { "type": "Polygon", "coordinates": [ [ [ -71.6482548, 46.8228715 ], [ -71.6466401, 46.8488049 ], [ -71.6785757, 46.8627274 ], [ -71.7121136, 46.8507063 ], [ -71.7136969, 46.8247712 ], [ -71.6817737, 46.8108588 ], [ -71.6482548, 46.8228715 ] ] ] } },
{ "type": "Feature", "properties": { "hex_id": 6580, "count": 1, "date": "2025-11-28", "n_files": 22, "pct": 4.55 }, "geometry": { "type": "Polygon", "coordinates": [ [ [ -71.5366921, 48.5341287 ], [ -71.5349207, 48.5600514 ], [ -71.567864, 48.5740272 ], [ -71.6025652, 48.5620696 ], [ -71.6043022, 48.5361451 ], [ -71.5713724, 48.52218 ], [ -71.5366921, 48.5341287 ] ] ] } },
{ "type": "Feature", "properties": { "hex_id": 7117, "count": 2, "date": "2025-11-28", "n_files": 22, "pct": 9.09 }, "geometry": { "type": "Polygon", "coordinates": [ [ [ -71.4427135, 45.452548 ], [ -71.4410799, 45.478482 ], [ -71.4721957, 45.4924409 ], [ -71.5049338, 45.4804561 ], [ -71.5065383, 45.4545203 ], [ -71.4754337, 45.4405711 ], [ -71.4427135, 45.452548 ] ] ] } },
{ "type": "Feature", "properties": { "hex_id": 7180, "count": 2, "date": "2025-11-28", "n_files": 22, "pct": 9.09 }, "geometry": { "type": "Polygon", "coordinates": [ [ [ -71.4132717, 45.4126485 ], [ -71.411626900000016, 45.4385818 ], [ -71.4427135, 45.452548 ], [ -71.4754337, 45.4405711 ], [ -71.4770495, 45.4146359 ], [ -71.4459741, 45.4006794 ], [ -71.4132717, 45.4126485 ] ] ] } },
{ "type": "Feature", "properties": { "hex_id": 7189, "count": 13, "date": "2025-11-28", "n_files": 22, "pct": 59.09 }, "geometry": { "type": "Polygon", "coordinates": [ [ [ -71.3680636, 46.1127915 ], [ -71.3663569, 46.1387204 ], [ -71.3978132, 46.1527089 ], [ -71.4309646, 46.1407585 ], [ -71.432641100000012, 46.1148278 ], [ -71.4011964, 46.1008492 ], [ -71.3680636, 46.1127915 ] ] ] } },
{ "type": "Feature", "properties": { "hex_id": 7198, "count": 8, "date": "2025-11-28", "n_files": 22, "pct": 36.36 }, "geometry": { "type": "Polygon", "coordinates": [ [ [ -71.3211478, 46.8128128 ], [ -71.3193763, 46.8387371 ], [ -71.3512159, 46.8527485 ], [ -71.3848148, 46.8408254 ], [ -71.386555, 46.8148992 ], [ -71.3547275, 46.8008979 ], [ -71.3211478, 46.8128128 ] ] ] } },
{ "type": "Feature", "properties": { "hex_id": 7245, "count": 2, "date": "2025-11-28", "n_files": 22, "pct": 9.09 }, "geometry": { "type": "Polygon", "coordinates": [ [ [ -71.3788954, 45.4505401 ], [ -71.3772327, 45.4764723 ], [ -71.4083305, 45.4904481 ], [ -71.4410799, 45.478482 ], [ -71.4427135, 45.452548 ], [ -71.411626900000016, 45.4385818 ], [ -71.3788954, 45.4505401 ] ] ] } },
{ "type": "Feature", "properties": { "hex_id": 7263, "count": 3, "date": "2025-11-28", "n_files": 22, "pct": 13.64 }, "geometry": { "type": "Polygon", "coordinates": [ [ [ -71.2857653, 46.8506406 ], [ -71.2839745, 46.8765638 ], [ -71.315826, 46.8905853 ], [ -71.3494564, 46.8786736 ], [ -71.3512159, 46.8527485 ], [ -71.3193763, 46.8387371 ], [ -71.2857653, 46.8506406 ] ] ] } },
{ "type": "Feature", "properties": { "hex_id": 7324, "count": 4, "date": "2025-11-28", "n_files": 22, "pct": 18.18 }, "geometry": { "type": "Polygon", "coordinates": [ [ [ -71.2665123, 46.6551509 ], [ -71.2647244, 46.6810743 ], [ -71.2964584, 46.6950982 ], [ -71.3299684, 46.6831885 ], [ -71.3317252, 46.6572631 ], [ -71.3000031, 46.6432493 ], [ -71.2665123, 46.6551509 ] ] ] } },
{ "type": "Feature", "properties": { "hex_id": 7542, "count": 5, "date": "2025-11-28", "n_files": 22, "pct": 22.73 }, "geometry": { "type": "Polygon", "coordinates": [ [ [ -71.0207128, 48.634326699999988 ], [ -71.0186707, 48.6602337 ], [ -71.0515258, 48.6743551 ], [ -71.08641, 48.6625586 ], [ -71.0884176, 48.6366495 ], [ -71.0555755, 48.622539 ], [ -71.0207128, 48.634326699999988 ] ] ] } },
{ "type": "Feature", "properties": { "hex_id": 7605, "count": 5, "date": "2025-11-28", "n_files": 22, "pct": 22.73 }, "geometry": { "type": "Polygon", "coordinates": [ [ [ -70.9899473, 48.5942912 ], [ -70.9878923, 48.6201974 ], [ -71.0207128, 48.634326699999988 ], [ -71.0555755, 48.622539 ], [ -71.057596, 48.5966307 ], [ -71.0247884, 48.5825122 ], [ -70.9899473, 48.5942912 ] ] ] } },
{ "type": "Feature", "properties": { "hex_id": 7606, "count": 5, "date": "2025-11-28", "n_files": 22, "pct": 22.73 }, "geometry": { "type": "Polygon", "coordinates": [ [ [ -70.9837736, 48.6720092 ], [ -70.9817098, 48.6979148 ], [ -71.0145778, 48.7120471 ], [ -71.0494966, 48.7002629 ], [ -71.0515258, 48.6743551 ], [ -71.0186707, 48.6602337 ], [ -70.9837736, 48.6720092 ] ] ] } },
{ "type": "Feature", "properties": { "hex_id": 7669, "count": 5, "date": "2025-11-28", "n_files": 22, "pct": 22.73 }, "geometry": { "type": "Polygon", "coordinates": [ [ [ -70.9592289, 48.5542485 ], [ -70.9571612, 48.5801539 ], [ -70.9899473, 48.5942912 ], [ -71.0247884, 48.5825122 ], [ -71.0268218, 48.5566047 ], [ -70.9940485, 48.5424782 ], [ -70.9592289, 48.5542485 ] ] ] } },
{ "type": "Feature", "properties": { "hex_id": 7670, "count": 5, "date": "2025-11-28", "n_files": 22, "pct": 22.73 }, "geometry": { "type": "Polygon", "coordinates": [ [ [ -70.9530168, 48.6319641 ], [ -70.9509401, 48.657869 ], [ -70.9837736, 48.6720092 ], [ -71.0186707, 48.6602337 ], [ -71.0207128, 48.634326699999988 ], [ -70.9878923, 48.6201974 ], [ -70.9530168, 48.6319641 ] ] ] } },
{ "type": "Feature", "properties": { "hex_id": 7733, "count": 5, "date": "2025-11-28", "n_files": 22, "pct": 22.73 }, "geometry": { "type": "Polygon", "coordinates": [ [ [ -70.9223073, 48.591912 ], [ -70.9202179, 48.617816 ], [ -70.9530168, 48.6319641 ], [ -70.9878923, 48.6201974 ], [ -70.9899473, 48.5942912 ], [ -70.9571612, 48.5801539 ], [ -70.9223073, 48.591912 ] ] ] } },
{ "type": "Feature", "properties": { "hex_id": 7734, "count": 5, "date": "2025-11-28", "n_files": 22, "pct": 22.73 }, "geometry": { "type": "Polygon", "coordinates": [ [ [ -70.9160301, 48.6696235 ], [ -70.9139318, 48.695527 ], [ -70.946778, 48.7096781 ], [ -70.9817098, 48.6979148 ], [ -70.9837736, 48.6720092 ], [ -70.9509401, 48.657869 ], [ -70.9160301, 48.6696235 ] ] ] } },
{ "type": "Feature", "properties": { "hex_id": 7797, "count": 2, "date": "2025-11-28", "n_files": 22, "pct": 9.09 }, "geometry": { "type": "Polygon", "coordinates": [ [ [ -70.8916449, 48.5518528 ], [ -70.8895428, 48.577756 ], [ -70.9223073, 48.591912 ], [ -70.9571612, 48.5801539 ], [ -70.9592289, 48.5542485 ], [ -70.9264772, 48.5401034 ], [ -70.8916449, 48.5518528 ] ] ] } },
{ "type": "Feature", "properties": { "hex_id": 7798, "count": 5, "date": "2025-11-28", "n_files": 22, "pct": 22.73 }, "geometry": { "type": "Polygon", "coordinates": [ [ [ -70.8853295, 48.6295619 ], [ -70.8832184, 48.6554645 ], [ -70.9160301, 48.6696235 ], [ -70.9509401, 48.657869 ], [ -70.9530168, 48.6319641 ], [ -70.9202179, 48.617816 ], [ -70.8853295, 48.6295619 ] ] ] } },
{ "type": "Feature", "properties": { "hex_id": 7860, "count": 2, "date": "2025-11-28", "n_files": 22, "pct": 9.09 }, "geometry": { "type": "Polygon", "coordinates": [ [ [ -70.8610296, 48.5117865 ], [ -70.8589148, 48.5376889 ], [ -70.8916449, 48.5518528 ], [ -70.9264772, 48.5401034 ], [ -70.9285577, 48.5141988 ], [ -70.8958402, 48.5000458 ], [ -70.8610296, 48.5117865 ] ] ] } },
{ "type": "Feature", "properties": { "hex_id": 7861, "count": 15, "date": "2025-11-28", "n_files": 22, "pct": 68.18 }, "geometry": { "type": "Polygon", "coordinates": [ [ [ -70.8546762, 48.5894932 ], [ -70.8525523, 48.615395 ], [ -70.8853295, 48.6295619 ], [ -70.9202179, 48.617816 ], [ -70.9223073, 48.591912 ], [ -70.8895428, 48.577756 ], [ -70.8546762, 48.5894932 ] ] ] } },
{ "type": "Feature", "properties": { "hex_id": 7862, "count": 5, "date": "2025-11-28", "n_files": 22, "pct": 22.73 }, "geometry": { "type": "Polygon", "coordinates": [ [ [ -70.8482956, 48.6671981 ], [ -70.8461627, 48.6930994 ], [ -70.8789872, 48.7072693 ], [ -70.9139318, 48.695527 ], [ -70.9160301, 48.6696235 ], [ -70.8832184, 48.6554645 ], [ -70.8482956, 48.6671981 ] ] ] } },
{ "type": "Feature", "properties": { "hex_id": 7925, "count": 2, "date": "2025-11-28", "n_files": 22, "pct": 9.09 }, "geometry": { "type": "Polygon", "coordinates": [ [ [ -70.8240698, 48.5494174 ], [ -70.8219334, 48.5753185 ], [ -70.8546762, 48.5894932 ], [ -70.8895428, 48.577756 ], [ -70.8916449, 48.5518528 ], [ -70.8589148, 48.5376889 ], [ -70.8240698, 48.5494174 ] ] ] } },
{ "type": "Feature", "properties": { "hex_id": 7926, "count": 15, "date": "2025-11-28", "n_files": 22, "pct": 68.18 }, "geometry": { "type": "Polygon", "coordinates": [ [ [ -70.8176513, 48.6271199 ], [ -70.8155057, 48.6530204 ], [ -70.8482956, 48.6671981 ], [ -70.8832184, 48.6554645 ], [ -70.8853295, 48.6295619 ], [ -70.8525523, 48.615395 ], [ -70.8176513, 48.6271199 ] ] ] } },
{ "type": "Feature", "properties": { "hex_id": 7927, "count": 5, "date": "2025-11-28", "n_files": 22, "pct": 22.73 }, "geometry": { "type": "Polygon", "coordinates": [ [ [ -70.8112054, 48.7048207 ], [ -70.8090506, 48.7307206 ], [ -70.8418878, 48.7449014 ], [ -70.876867, 48.7331714 ], [ -70.8789872, 48.7072693 ], [ -70.8461627, 48.6930994 ], [ -70.8112054, 48.7048207 ] ] ] } },
{ "type": "Feature", "properties": { "hex_id": 7989, "count": 15, "date": "2025-11-28", "n_files": 22, "pct": 68.18 }, "geometry": { "type": "Polygon", "coordinates": [ [ [ -70.7870541, 48.5870347 ], [ -70.7848959, 48.6129343 ], [ -70.8176513, 48.6271199 ], [ -70.8525523, 48.615395 ], [ -70.8546762, 48.5894932 ], [ -70.8219334, 48.5753185 ], [ -70.7870541, 48.5870347 ] ] ] } },
{ "type": "Feature", "properties": { "hex_id": 7990, "count": 5, "date": "2025-11-28", "n_files": 22, "pct": 22.73 }, "geometry": { "type": "Polygon", "coordinates": [ [ [ -70.7805702, 48.664733 ], [ -70.7784028, 48.6906321 ], [ -70.8112054, 48.7048207 ], [ -70.8461627, 48.6930994 ], [ -70.8482956, 48.6671981 ], [ -70.8155057, 48.6530204 ], [ -70.7805702, 48.664733 ] ] ] } },
{ "type": "Feature", "properties": { "hex_id": 8034, "count": 1, "date": "2025-11-28", "n_files": 22, "pct": 4.55 }, "geometry": { "type": "Polygon", "coordinates": [ [ [ -70.8753139, 47.0704023 ], [ -70.8733102, 47.0963117 ], [ -70.9051736, 47.110448 ], [ -70.9390291, 47.0986646 ], [ -70.9410011, 47.0727531 ], [ -70.9091494, 47.0586271 ], [ -70.8753139, 47.0704023 ] ] ] } },
{ "type": "Feature", "properties": { "hex_id": 8054, "count": 15, "date": "2025-11-28", "n_files": 22, "pct": 68.18 }, "geometry": { "type": "Polygon", "coordinates": [ [ [ -70.7499822, 48.6246383 ], [ -70.7478022, 48.6505365 ], [ -70.7805702, 48.664733 ], [ -70.8155057, 48.6530204 ], [ -70.8176513, 48.6271199 ], [ -70.7848959, 48.6129343 ], [ -70.7499822, 48.6246383 ] ] ] } },
{ "type": "Feature", "properties": { "hex_id": 8435, "count": 2, "date": "2025-11-28", "n_files": 22, "pct": 9.09 }, "geometry": { "type": "Polygon", "coordinates": [ [ [ -70.5674362, 48.3839255 ], [ -70.5651818, 48.4098185 ], [ -70.5977443, 48.4240613 ], [ -70.632549, 48.4124003 ], [ -70.6347694, 48.3865049 ], [ -70.6022191, 48.372273 ], [ -70.5674362, 48.3839255 ] ] ] } },
{ "type": "Feature", "properties": { "hex_id": 9178, "count": 5, "date": "2025-11-28", "n_files": 22, "pct": 22.73 }, "geometry": { "type": "Polygon", "coordinates": [ [ [ -70.3384998, 46.4261637 ], [ -70.3362862, 46.4520574 ], [ -70.3676315, 46.466326 ], [ -70.4011796, 46.4546908 ], [ -70.4033627, 46.4287948 ], [ -70.3720282, 46.4145364 ], [ -70.3384998, 46.4261637 ] ] ] } },
{ "type": "Feature", "properties": { "hex_id": 10857, "count": 3, "date": "2025-11-28", "n_files": 22, "pct": 13.64 }, "geometry": { "type": "Polygon", "coordinates": [ [ [ -69.375108, 47.5520923 ], [ -69.3723311, 47.5779416 ], [ -69.4040341, 47.5924906 ], [ -69.4385037, 47.5811794 ], [ -69.4412483, 47.5553272 ], [ -69.4095556, 47.540789 ], [ -69.375108, 47.5520923 ] ] ] } },
{ "type": "Feature", "properties": { "hex_id": 10920, "count": 3, "date": "2025-11-28", "n_files": 22, "pct": 13.64 }, "geometry": { "type": "Polygon", "coordinates": [ [ [ -69.3462244, 47.5116884 ], [ -69.3434372, 47.5375366 ], [ -69.375108, 47.5520923 ], [ -69.4095556, 47.540789 ], [ -69.4123106, 47.5149379 ], [ -69.3806502, 47.500393 ], [ -69.3462244, 47.5116884 ] ] ] } },
{ "type": "Feature", "properties": { "hex_id": 10921, "count": 3, "date": "2025-11-28", "n_files": 22, "pct": 13.64 }, "geometry": { "type": "Polygon", "coordinates": [ [ [ -69.3378512, 47.5892323 ], [ -69.335052300000015, 47.6150798 ], [ -69.3667656, 47.6296395 ], [ -69.4012675, 47.618341 ], [ -69.4040341, 47.5924906 ], [ -69.3723311, 47.5779416 ], [ -69.3378512, 47.5892323 ] ] ] } },
{ "type": "Feature", "properties": { "hex_id": 10985, "count": 3, "date": "2025-11-28", "n_files": 22, "pct": 13.64 }, "geometry": { "type": "Polygon", "coordinates": [ [ [ -69.3089793, 47.5488195 ], [ -69.3061702, 47.5746658 ], [ -69.3378512, 47.5892323 ], [ -69.3723311, 47.5779416 ], [ -69.375108, 47.5520923 ], [ -69.3434372, 47.5375366 ], [ -69.3089793, 47.5488195 ] ] ] } }
]
}
