{
"type": "FeatureCollection",
"name": "daily_2026-02-04",
"crs": { "type": "name", "properties": { "name": "urn:ogc:def:crs:OGC:1.3:CRS84" } },
"features": [
{ "type": "Feature", "properties": { "hex_id": 630092, "centroid_lon": -72.980219819572554, "centroid_lat": 45.637942648912869, "occurrences_today": 5, "datetimes_today": "2026-02-04 00:01:47, 2026-02-04 00:16:43, 2026-02-04 00:46:38, 2026-02-04 01:01:56, 2026-02-04 01:03:48", "cumulative_total": 14.0 }, "geometry": { "type": "Polygon", "coordinates": [ [ [ -72.980406458425335, 45.632749197972373 ], [ -72.986724413517479, 45.635459134828707 ], [ -72.986538340716763, 45.64065260349291 ], [ -72.980033129684657, 45.643136094515526 ], [ -72.973714659584161, 45.640425781626583 ], [ -72.973901915506957, 45.635232353812263 ], [ -72.980406458425335, 45.632749197972373 ] ] ] } },
{ "type": "Feature", "properties": { "hex_id": 630093, "centroid_lon": -72.979659596734749, "centroid_lat": 45.653522969706565, "occurrences_today": 5, "datetimes_today": "2026-02-04 00:01:47, 2026-02-04 00:16:43, 2026-02-04 00:46:38, 2026-02-04 01:01:56, 2026-02-04 01:03:48", "cumulative_total": 14.0 }, "geometry": { "type": "Polygon", "coordinates": [ [ [ -72.979846388744448, 45.64832953478016 ], [ -72.986166042451586, 45.651039524818536 ], [ -72.98597981695282, 45.656232977479576 ], [ -72.979472753638362, 45.658716399294555 ], [ -72.973152584515589, 45.656006033018627 ], [ -72.973339994105714, 45.650812621229953 ], [ -72.979846388744448, 45.64832953478016 ] ] ] } },
{ "type": "Feature", "properties": { "hex_id": 630703, "centroid_lon": -72.973527352456145, "centroid_lat": 45.645619204099205, "occurrences_today": 5, "datetimes_today": "2026-02-04 00:01:47, 2026-02-04 00:16:43, 2026-02-04 00:46:38, 2026-02-04 01:01:56, 2026-02-04 01:03:48", "cumulative_total": 14.0 }, "geometry": { "type": "Polygon", "coordinates": [ [ [ -72.973714659584161, 45.640425781626583 ], [ -72.980033129684657, 45.643136094515526 ], [ -72.979846388744448, 45.64832953478016 ], [ -72.973339994105714, 45.650812621229953 ], [ -72.96702100904848, 45.648101932149679 ], [ -72.967208933569466, 45.64290853287558 ], [ -72.973714659584161, 45.640425781626583 ] ] ] } },
{ "type": "Feature", "properties": { "hex_id": 630704, "centroid_lon": -72.972965123668516, "centroid_lat": 45.661199439465051, "occurrences_today": 5, "datetimes_today": "2026-02-04 00:01:47, 2026-02-04 00:16:43, 2026-02-04 00:46:38, 2026-02-04 01:01:56, 2026-02-04 01:03:48", "cumulative_total": 14.0 }, "geometry": { "type": "Polygon", "coordinates": [ [ [ -72.973152584515589, 45.656006033018627 ], [ -72.979472753638362, 45.658716399294555 ], [ -72.979285859438093, 45.663909823543918 ], [ -72.972777611547244, 45.666392840568996 ], [ -72.966456927060506, 45.663682097896753 ], [ -72.966645005811301, 45.658488714660457 ], [ -72.973152584515589, 45.656006033018627 ] ] ] } },
{ "type": "Feature", "properties": { "hex_id": 631313, "centroid_lon": -72.967396806715143, "centroid_lat": 45.637715128255941, "occurrences_today": 5, "datetimes_today": "2026-02-04 00:01:47, 2026-02-04 00:16:43, 2026-02-04 00:46:38, 2026-02-04 01:01:56, 2026-02-04 01:03:48", "cumulative_total": 14.0 }, "geometry": { "type": "Polygon", "coordinates": [ [ [ -72.967584628502777, 45.632521718290967 ], [ -72.973901915506957, 45.635232353812263 ], [ -72.973714659584161, 45.640425781626583 ], [ -72.967208933569466, 45.64290853287558 ], [ -72.960891132067147, 45.640197521209217 ], [ -72.961079571060353, 45.635004134503532 ], [ -72.967584628502777, 45.632521718290967 ] ] ] } },
{ "type": "Feature", "properties": { "hex_id": 631314, "centroid_lon": -72.966833033134847, "centroid_lat": 45.653295326078023, "occurrences_today": 5, "datetimes_today": "2026-02-04 00:01:47, 2026-02-04 00:16:43, 2026-02-04 00:46:38, 2026-02-04 01:01:56, 2026-02-04 01:03:48", "cumulative_total": 14.0 }, "geometry": { "type": "Polygon", "coordinates": [ [ [ -72.96702100904848, 45.648101932149679 ], [ -72.973339994105714, 45.650812621229953 ], [ -72.973152584515589, 45.656006033018627 ], [ -72.966645005811301, 45.658488714660457 ], [ -72.960325505849141, 45.655777649230131 ], [ -72.9605140994789, 45.650584278572701 ], [ -72.96702100904848, 45.648101932149679 ] ] ] } },
{ "type": "Feature", "properties": { "hex_id": 631924, "centroid_lon": -72.960702641545765, "centroid_lat": 45.645390902565659, "occurrences_today": 5, "datetimes_today": "2026-02-04 00:01:47, 2026-02-04 00:16:43, 2026-02-04 00:46:38, 2026-02-04 01:01:56, 2026-02-04 01:03:48", "cumulative_total": 14.0 }, "geometry": { "type": "Polygon", "coordinates": [ [ [ -72.960891132067147, 45.640197521209217 ], [ -72.967208933569466, 45.64290853287558 ], [ -72.96702100904848, 45.648101932149679 ], [ -72.9605140994789, 45.650584278572701 ], [ -72.954195783530366, 45.647872890602578 ], [ -72.954384891580261, 45.642679532577823 ], [ -72.960891132067147, 45.640197521209217 ] ] ] } },
{ "type": "Feature", "properties": { "hex_id": 664909, "centroid_lon": -72.602504297760575, "centroid_lat": 45.919052150106623, "occurrences_today": 5, "datetimes_today": "2026-02-04 00:01:47, 2026-02-04 00:16:43, 2026-02-04 00:46:38, 2026-02-04 01:01:56, 2026-02-04 01:03:48", "cumulative_total": 11.0 }, "geometry": { "type": "Polygon", "coordinates": [ [ [ -72.602728002381056, 45.913860277868103 ], [ -72.609058084182692, 45.916591254847354 ], [ -72.608834948673902, 45.921783148617031 ], [ -72.60228053177282, 45.924244016759523 ], [ -72.595949942237183, 45.921512656749364 ], [ -72.596174277315825, 45.916320811692763 ], [ -72.602728002381056, 45.913860277868103 ] ] ] } },
{ "type": "Feature", "properties": { "hex_id": 665520, "centroid_lon": -72.595725545616716, "centroid_lat": 45.926704496215706, "occurrences_today": 5, "datetimes_today": "2026-02-04 00:01:47, 2026-02-04 00:16:43, 2026-02-04 00:46:38, 2026-02-04 01:01:56, 2026-02-04 01:03:48", "cumulative_total": 11.0 }, "geometry": { "type": "Polygon", "coordinates": [ [ [ -72.595949942237183, 45.921512656749364 ], [ -72.60228053177282, 45.924244016759523 ], [ -72.602056704396986, 45.929435877826563 ], [ -72.595501087433561, 45.931896330091504 ], [ -72.589169990226424, 45.929164586891027 ], [ -72.589395017633336, 45.92397277468109 ], [ -72.595949942237183, 45.921512656749364 ] ] ] } },
{ "type": "Feature", "properties": { "hex_id": 666130, "centroid_lon": -72.589619983323828, "centroid_lat": 45.918780956876233, "occurrences_today": 5, "datetimes_today": "2026-02-04 00:01:47, 2026-02-04 00:16:43, 2026-02-04 00:46:38, 2026-02-04 01:01:56, 2026-02-04 01:03:48", "cumulative_total": 11.0 }, "geometry": { "type": "Polygon", "coordinates": [ [ [ -72.589844887318819, 45.913589133476734 ], [ -72.596174277315825, 45.916320811692763 ], [ -72.595949942237183, 45.921512656749364 ], [ -72.589395017633336, 45.92397277468109 ], [ -72.583065120425942, 45.921240713324018 ], [ -72.583290655011879, 45.916048917241433 ], [ -72.589844887318819, 45.913589133476734 ] ] ] } },
{ "type": "Feature", "properties": { "hex_id": 666740, "centroid_lon": -72.58351612774868, "centroid_lat": 45.910857115559814, "occurrences_today": 5, "datetimes_today": "2026-02-04 00:01:47, 2026-02-04 00:16:43, 2026-02-04 00:46:38, 2026-02-04 01:01:56, 2026-02-04 01:03:48", "cumulative_total": 11.0 }, "geometry": { "type": "Polygon", "coordinates": [ [ [ -72.583741538657307, 45.905665308279445 ], [ -72.590069729639197, 45.908397304482904 ], [ -72.589844887318819, 45.913589133476734 ], [ -72.583290655011879, 45.916048917241433 ], [ -72.576961957280389, 45.913316537946244 ], [ -72.577187998584492, 45.908124758043257 ], [ -72.583741538657307, 45.905665308279445 ] ] ] } },
{ "type": "Feature", "properties": { "hex_id": 667350, "centroid_lon": -72.577413977906915, "centroid_lat": 45.902932972537101, "occurrences_today": 5, "datetimes_today": "2026-02-04 00:01:47, 2026-02-04 00:16:43, 2026-02-04 00:46:38, 2026-02-04 01:01:56, 2026-02-04 01:03:48", "cumulative_total": 11.0 }, "geometry": { "type": "Polygon", "coordinates": [ [ [ -72.577639895268646, 45.897741181428067 ], [ -72.583966887758706, 45.900473495400611 ], [ -72.583741538657307, 45.905665308279445 ], [ -72.577187998584492, 45.908124758043257 ], [ -72.570860499805278, 45.905392061028294 ], [ -72.57108704736703, 45.900200297357081 ], [ -72.577639895268646, 45.897741181428067 ] ] ] } },
{ "type": "Feature", "properties": { "hex_id": 667351, "centroid_lon": -72.576735853973602, "centroid_lat": 45.918508312245798, "occurrences_today": 5, "datetimes_today": "2026-02-04 00:01:47, 2026-02-04 00:16:43, 2026-02-04 00:46:38, 2026-02-04 01:01:56, 2026-02-04 01:03:48", "cumulative_total": 11.0 }, "geometry": { "type": "Polygon", "coordinates": [ [ [ -72.576961957280389, 45.913316537946244 ], [ -72.583290655011879, 45.916048917241433 ], [ -72.583065120425942, 45.921240713324018 ], [ -72.576509688643114, 45.92370008094165 ], [ -72.570180484224991, 45.920967318395391 ], [ -72.570407218255312, 45.915775571547726 ], [ -72.576961957280389, 45.913316537946244 ] ] ] } },
{ "type": "Feature", "properties": { "hex_id": 667960, "centroid_lon": -72.571313532814713, "centroid_lat": 45.895008528078591, "occurrences_today": 5, "datetimes_today": "2026-02-04 00:01:47, 2026-02-04 00:16:43, 2026-02-04 00:46:38, 2026-02-04 01:01:56, 2026-02-04 01:03:48", "cumulative_total": 11.0 }, "geometry": { "type": "Polygon", "coordinates": [ [ [ -72.571539956169332, 45.889816753193081 ], [ -72.577865750690677, 45.89254938471646 ], [ -72.577639895268646, 45.897741181428067 ], [ -72.57108704736703, 45.900200297357081 ], [ -72.564760747016663, 45.897467282840644 ], [ -72.564987800375917, 45.892275535453358 ], [ -72.571539956169332, 45.889816753193081 ] ] ] } },
{ "type": "Feature", "properties": { "hex_id": 667961, "centroid_lon": -72.570633890108397, "centroid_lat": 45.910583819091947, "occurrences_today": 5, "datetimes_today": "2026-02-04 00:01:47, 2026-02-04 00:16:43, 2026-02-04 00:46:38, 2026-02-04 01:01:56, 2026-02-04 01:03:48", "cumulative_total": 11.0 }, "geometry": { "type": "Polygon", "coordinates": [ [ [ -72.570860499805278, 45.905392061028294 ], [ -72.577187998584492, 45.908124758043257 ], [ -72.576961957280389, 45.913316537946244 ], [ -72.570407218255312, 45.915775571547726 ], [ -72.564079213250025, 45.913042491331097 ], [ -72.564306453474828, 45.907850760779802 ], [ -72.570860499805278, 45.905392061028294 ] ] ] } },
{ "type": "Feature", "properties": { "hex_id": 668571, "centroid_lon": -72.564533631390006, "centroid_lat": 45.902659024616213, "occurrences_today": 5, "datetimes_today": "2026-02-04 00:01:47, 2026-02-04 00:16:43, 2026-02-04 00:46:38, 2026-02-04 01:01:56, 2026-02-04 01:03:48", "cumulative_total": 11.0 }, "geometry": { "type": "Polygon", "coordinates": [ [ [ -72.564760747016663, 45.897467282840644 ], [ -72.57108704736703, 45.900200297357081 ], [ -72.570860499805278, 45.905392061028294 ], [ -72.564306453474828, 45.907850760779802 ], [ -72.557979647358621, 45.905117363111074 ], [ -72.558207393317602, 45.899925648908258 ], [ -72.564760747016663, 45.897467282840644 ] ] ] } },
{ "type": "Feature", "properties": { "hex_id": 669181, "centroid_lon": -72.558435076834741, "centroid_lat": 45.894733929089, "occurrences_today": 5, "datetimes_today": "2026-02-04 00:01:47, 2026-02-04 00:16:43, 2026-02-04 00:46:38, 2026-02-04 01:01:56, 2026-02-04 01:03:48", "cumulative_total": 11.0 }, "geometry": { "type": "Polygon", "coordinates": [ [ [ -72.558662697931197, 45.889542203653612 ], [ -72.564987800375917, 45.892275535453358 ], [ -72.564760747016663, 45.897467282840644 ], [ -72.558207393317602, 45.899925648908258 ], [ -72.551881785566948, 45.897191934005662 ], [ -72.552110036800144, 45.892000236203408 ], [ -72.558662697931197, 45.889542203653612 ] ] ] } }
]
}
