{
"type": "FeatureCollection",
"name": "daily_2026-08-18",
"crs": { "type": "name", "properties": { "name": "urn:ogc:def:crs:OGC:1.3:CRS84" } },
"features": [
{ "type": "Feature", "properties": { "hex_id": 555603, "centroid_lon": -73.765413307453827, "centroid_lat": 45.524407343971717, "occurrences_today": 1, "datetimes_today": "2026-08-18 00:47:06", "cumulative_total": 255.0 }, "geometry": { "type": "Polygon", "coordinates": [ [ [ -73.765526954209406, 45.519211764024419 ], [ -73.771870982552301, 45.521878560914232 ], [ -73.771757909234779, 45.527074150811643 ], [ -73.765299629652944, 45.529602918950921 ], [ -73.758955058922524, 45.526935754708909 ], [ -73.759069310151034, 45.521740189744385 ], [ -73.765526954209406, 45.519211764024419 ] ] ] } },
{ "type": "Feature", "properties": { "hex_id": 539719, "centroid_lon": -73.935081096090357, "centroid_lat": 45.354618403869623, "occurrences_today": 1, "datetimes_today": "2026-08-18 00:47:06", "cumulative_total": 100.0 }, "geometry": { "type": "Polygon", "coordinates": [ [ [ -73.935178548083329, 45.349422359551504 ], [ -73.941511884212261, 45.352079710596747 ], [ -73.941415002805385, 45.357275763149339 ], [ -73.934983617528502, 45.359814443276186 ], [ -73.928649737386806, 45.357156728622968 ], [ -73.928747786525889, 45.351960697515082 ], [ -73.935178548083329, 45.349422359551504 ] ] ] } },
{ "type": "Feature", "properties": { "hex_id": 585514, "centroid_lon": -73.453282441973883, "centroid_lat": 45.466039886482541, "occurrences_today": 1, "datetimes_today": "2026-08-18 00:47:06", "cumulative_total": 189.0 }, "geometry": { "type": "Polygon", "coordinates": [ [ [ -73.453424525584893, 45.460844941357614 ], [ -73.459746884157894, 45.463528823283795 ], [ -73.459605368003835, 45.468723781429858 ], [ -73.453140319581721, 45.471234826514873 ], [ -73.446817432339415, 45.468550575062693 ], [ -73.44696012217554, 45.463355648115872 ], [ -73.453424525584893, 45.460844941357614 ] ] ] } },
{ "type": "Feature", "properties": { "hex_id": 586125, "centroid_lon": -73.44667470355563, "centroid_lat": 45.473745496913999, "occurrences_today": 1, "datetimes_today": "2026-08-18 00:47:06", "cumulative_total": 433.0 }, "geometry": { "type": "Polygon", "coordinates": [ [ [ -73.446817432339415, 45.468550575062693 ], [ -73.453140319581721, 45.471234826514873 ], [ -73.452998158395417, 45.476429761454455 ], [ -73.446531935811123, 45.478940413669676 ], [ -73.440208519938608, 45.476255792532804 ], [ -73.440351855267522, 45.471060888929813 ], [ -73.446817432339415, 45.468550575062693 ] ] ] } },
{ "type": "Feature", "properties": { "hex_id": 308986, "centroid_lon": -76.361474921815358, "centroid_lat": 45.912713538059144, "occurrences_today": 1, "datetimes_today": "2026-08-18 00:47:06", "cumulative_total": 375.0 }, "geometry": { "type": "Polygon", "coordinates": [ [ [ -76.361347888913855, 45.907518573808467 ], [ -76.367856386715189, 45.910039079114476 ], [ -76.36798403805436, 45.915234026983036 ], [ -76.361601989582866, 45.917908497292679 ], [ -76.35509283847199, 45.915387646168973 ], [ -76.354966389153958, 45.910192670618748 ], [ -76.361347888913855, 45.907518573808467 ] ] ] } },
{ "type": "Feature", "properties": { "hex_id": 309596, "centroid_lon": -76.354839974531231, "centroid_lat": 45.904997690053975, "occurrences_today": 1, "datetimes_today": "2026-08-18 00:47:06", "cumulative_total": 375.0 }, "geometry": { "type": "Polygon", "coordinates": [ [ [ -76.354713594592027, 45.899802704474723 ], [ -76.361220890866505, 45.902323604540719 ], [ -76.361347888913855, 45.907518573808467 ], [ -76.354966389153958, 45.910192670618748 ], [ -76.348458440081927, 45.907671424758099 ], [ -76.348332643579127, 45.902476427947249 ], [ -76.354713594592027, 45.899802704474723 ] ] ] } },
{ "type": "Feature", "properties": { "hex_id": 309597, "centroid_lon": -76.355219322497078, "centroid_lat": 45.920582616704579, "occurrences_today": 1, "datetimes_today": "2026-08-18 00:47:06", "cumulative_total": 375.0 }, "geometry": { "type": "Polygon", "coordinates": [ [ [ -76.35509283847199, 45.915387646168973 ], [ -76.361601989582866, 45.917908497292679 ], [ -76.361729092228188, 45.923103451509 ], [ -76.355345841241004, 45.925777582225486 ], [ -76.348836036785144, 45.923256385118542 ], [ -76.348710136673233, 45.91806140334382 ], [ -76.35509283847199, 45.915387646168973 ] ] ] } },
{ "type": "Feature", "properties": { "hex_id": 310207, "centroid_lon": -76.348584271109388, "centroid_lat": 45.912866416556973, "occurrences_today": 1, "datetimes_today": "2026-08-18 00:47:06", "cumulative_total": 375.0 }, "geometry": { "type": "Polygon", "coordinates": [ [ [ -76.348458440081927, 45.907671424758099 ], [ -76.354966389153958, 45.910192670618748 ], [ -76.35509283847199, 45.915387646168973 ], [ -76.348710136673233, 45.91806140334382 ], [ -76.342201534768421, 45.915539811523068 ], [ -76.34207628750687, 45.910344808553006 ], [ -76.348458440081927, 45.907671424758099 ] ] ] } },
{ "type": "Feature", "properties": { "hex_id": 310208, "centroid_lon": -76.348961971456873, "centroid_lat": 45.928451361881109, "occurrences_today": 1, "datetimes_today": "2026-08-18 00:47:06", "cumulative_total": 375.0 }, "geometry": { "type": "Polygon", "coordinates": [ [ [ -76.348836036785144, 45.923256385118542 ], [ -76.355345841241004, 45.925777582225486 ], [ -76.355472394715548, 45.930972542731645 ], [ -76.34908794070013, 45.93364633363143 ], [ -76.342577482864058, 45.931124790375726 ], [ -76.342452132435355, 45.925929802434503 ], [ -76.348836036785144, 45.923256385118542 ] ] ] } },
{ "type": "Feature", "properties": { "hex_id": 310817, "centroid_lon": -76.341951074611018, "centroid_lat": 45.905149800573469, "occurrences_today": 1, "datetimes_today": "2026-08-18 00:47:06", "cumulative_total": 375.0 }, "geometry": { "type": "Polygon", "coordinates": [ [ [ -76.341825896069238, 45.89995478758452 ], [ -76.348332643579127, 45.902476427947249 ], [ -76.348458440081927, 45.907671424758099 ], [ -76.34207628750687, 45.910344808553006 ], [ -76.335568887676047, 45.90782282225333 ], [ -76.335444292752896, 45.902627798161141 ], [ -76.341825896069238, 45.89995478758452 ] ] ] } },
{ "type": "Feature", "properties": { "hex_id": 310818, "centroid_lon": -76.342326816407365, "centroid_lat": 45.920734809483591, "occurrences_today": 1, "datetimes_today": "2026-08-18 00:47:06", "cumulative_total": 375.0 }, "geometry": { "type": "Polygon", "coordinates": [ [ [ -76.342201534768421, 45.915539811523068 ], [ -76.348710136673233, 45.91806140334382 ], [ -76.348836036785144, 45.923256385118542 ], [ -76.342452132435355, 45.925929802434503 ], [ -76.335942877662703, 45.923407864488141 ], [ -76.335818180119347, 45.918212855416918 ], [ -76.342201534768421, 45.915539811523068 ] ] ] } },
{ "type": "Feature", "properties": { "hex_id": 311428, "centroid_lon": -76.335693516794336, "centroid_lat": 45.913017841338622, "occurrences_today": 1, "datetimes_today": "2026-08-18 00:47:06", "cumulative_total": 375.0 }, "geometry": { "type": "Polygon", "coordinates": [ [ [ -76.335568887676047, 45.90782282225333 ], [ -76.34207628750687, 45.910344808553006 ], [ -76.342201534768421, 45.915539811523068 ], [ -76.335818180119347, 45.918212855416918 ], [ -76.329310127932743, 45.915690523014867 ], [ -76.329186082762604, 45.910495492886795 ], [ -76.335568887676047, 45.90782282225333 ] ] ] } },
{ "type": "Feature", "properties": { "hex_id": 311429, "centroid_lon": -76.336067609435986, "centroid_lat": 45.928602868552268, "occurrences_today": 1, "datetimes_today": "2026-08-18 00:47:06", "cumulative_total": 375.0 }, "geometry": { "type": "Polygon", "coordinates": [ [ [ -76.335942877662703, 45.923407864488141 ], [ -76.342452132435355, 45.925929802434503 ], [ -76.342577482864058, 45.931124790375726 ], [ -76.33619237545085, 45.933797867609208 ], [ -76.329682467775413, 45.931275583371722 ], [ -76.32955832042758, 45.926080568257397 ], [ -76.335942877662703, 45.923407864488141 ] ] ] } },
{ "type": "Feature", "properties": { "hex_id": 312038, "centroid_lon": -76.329062071628599, "centroid_lat": 45.905300457754279, "occurrences_today": 1, "datetimes_today": "2026-08-18 00:47:06", "cumulative_total": 375.0 }, "geometry": { "type": "Polygon", "coordinates": [ [ [ -76.328938094519188, 45.900105417617375 ], [ -76.335444292752896, 45.902627798161141 ], [ -76.335568887676047, 45.90782282225333 ], [ -76.329186082762604, 45.910495492886795 ], [ -76.322679232684791, 45.907972766263896 ], [ -76.322555839376079, 45.902777715152119 ], [ -76.328938094519188, 45.900105417617375 ] ] ] } },
{ "type": "Feature", "properties": { "hex_id": 312039, "centroid_lon": -76.329434207150541, "centroid_lat": 45.920885548138408, "occurrences_today": 1, "datetimes_today": "2026-08-18 00:47:06", "cumulative_total": 375.0 }, "geometry": { "type": "Polygon", "coordinates": [ [ [ -76.329310127932743, 45.915690523014867 ], [ -76.335818180119347, 45.918212855416918 ], [ -76.335942877662703, 45.923407864488141 ], [ -76.32955832042758, 45.926080568257397 ], [ -76.323049615850422, 45.923557889587464 ], [ -76.322926120910481, 45.918362853481646 ], [ -76.329310127932743, 45.915690523014867 ] ] ] } },
{ "type": "Feature", "properties": { "hex_id": 312649, "centroid_lon": -76.322802659859107, "centroid_lat": 45.913167812373764, "occurrences_today": 1, "datetimes_today": "2026-08-18 00:47:06", "cumulative_total": 468.0 }, "geometry": { "type": "Polygon", "coordinates": [ [ [ -76.322679232684791, 45.907972766263896 ], [ -76.329186082762604, 45.910495492886795 ], [ -76.329310127932743, 45.915690523014867 ], [ -76.322926120910481, 45.918362853481646 ], [ -76.316418618954032, 45.915839780614178 ], [ -76.316295775909964, 45.910644723589961 ], [ -76.322679232684791, 45.907972766263896 ] ] ] } },
{ "type": "Feature", "properties": { "hex_id": 313259, "centroid_lon": -76.316172966572424, "centroid_lat": 45.905449661566252, "occurrences_today": 1, "datetimes_today": "2026-08-18 00:47:06", "cumulative_total": 375.0 }, "geometry": { "type": "Polygon", "coordinates": [ [ [ -76.316050190929971, 45.900254594543149 ], [ -76.322555839376079, 45.902777715152119 ], [ -76.322679232684791, 45.907972766263896 ], [ -76.316295775909964, 45.910644723589961 ], [ -76.309789476096796, 45.908121256759756 ], [ -76.309667284436941, 45.902926178890176 ], [ -76.316050190929971, 45.900254594543149 ] ] ] } },
{ "type": "Feature", "properties": { "hex_id": 313870, "centroid_lon": -76.309911701292648, "centroid_lat": 45.91331632963238, "occurrences_today": 1, "datetimes_today": "2026-08-18 00:47:06", "cumulative_total": 375.0 }, "geometry": { "type": "Polygon", "coordinates": [ [ [ -76.309789476096796, 45.908121256759756 ], [ -76.316295775909964, 45.910644723589961 ], [ -76.316418618954032, 45.915839780614178 ], [ -76.310033960035923, 45.918511397507977 ], [ -76.303527008821447, 45.915987584291145 ], [ -76.303405367937771, 45.910792500632617 ], [ -76.309789476096796, 45.908121256759756 ] ] ] } },
{ "type": "Feature", "properties": { "hex_id": 314480, "centroid_lon": -76.303283760430972, "centroid_lat": 45.905597411979535, "occurrences_today": 1, "datetimes_today": "2026-08-18 00:47:06", "cumulative_total": 375.0 }, "geometry": { "type": "Polygon", "coordinates": [ [ [ -76.303162186289768, 45.900402318331977 ], [ -76.309667284436941, 45.902926178890176 ], [ -76.309789476096796, 45.908121256759756 ], [ -76.303405367937771, 45.910792500632617 ], [ -76.296899618900696, 45.90826829371121 ], [ -76.296778628923875, 45.903073189345605 ], [ -76.303162186289768, 45.900402318331977 ] ] ] } },
{ "type": "Feature", "properties": { "hex_id": 789464, "centroid_lon": -71.275871301093915, "centroid_lat": 46.086156044885463, "occurrences_today": 1, "datetimes_today": "2026-08-18 00:47:06", "cumulative_total": 31.0 }, "geometry": { "type": "Polygon", "coordinates": [ [ [ -71.276220677874207, 46.08097075863202 ], [ -71.282499356104452, 46.083773765795833 ], [ -71.282150533488746, 46.088959086510364 ], [ -71.275521828389074, 46.091341324358567 ], [ -71.269242691935105, 46.088537920754476 ], [ -71.269592718771946, 46.08335267580744 ], [ -71.276220677874207, 46.08097075863202 ] ] ] } },
{ "type": "Feature", "properties": { "hex_id": 790074, "centroid_lon": -71.269942649536233, "centroid_lat": 46.078167424073357, "occurrences_today": 1, "datetimes_today": "2026-08-18 00:47:06", "cumulative_total": 33.0 }, "geometry": { "type": "Polygon", "coordinates": [ [ [ -71.27029248426058, 46.072982165552972 ], [ -71.276569958762522, 46.075785465598941 ], [ -71.276220677874207, 46.08097075863202 ], [ -71.269592718771946, 46.08335267580744 ], [ -71.263314786490213, 46.080548979379351 ], [ -71.263665271057917, 46.075363762222914 ], [ -71.27029248426058, 46.072982165552972 ] ] ] } },
{ "type": "Feature", "properties": { "hex_id": 790684, "centroid_lon": -71.264015659437774, "centroid_lat": 46.070178538273453, "occurrences_today": 1, "datetimes_today": "2026-08-18 00:47:06", "cumulative_total": 4.0 }, "geometry": { "type": "Polygon", "coordinates": [ [ [ -71.264365951662498, 46.064993307531758 ], [ -71.270642222977628, 46.067796900246989 ], [ -71.27029248426058, 46.072982165552972 ], [ -71.263665271057917, 46.075363762222914 ], [ -71.257388542406602, 46.072559773183691 ], [ -71.257739484261492, 46.067374583863447 ], [ -71.264365951662498, 46.064993307531758 ] ] ] } },
{ "type": "Feature", "properties": { "hex_id": 790685, "centroid_lon": -71.262964205702019, "centroid_lat": 46.085734189742062, "occurrences_today": 1, "datetimes_today": "2026-08-18 00:47:06", "cumulative_total": 13.0 }, "geometry": { "type": "Polygon", "coordinates": [ [ [ -71.263314786490213, 46.080548979379351 ], [ -71.269592718771946, 46.08335267580744 ], [ -71.269242691935105, 46.088537920754476 ], [ -71.262613528660609, 46.090919393310358 ], [ -71.256335138697082, 46.088115300343425 ], [ -71.256686369657132, 46.082930131424412 ], [ -71.263314786490213, 46.080548979379351 ] ] ] } },
{ "type": "Feature", "properties": { "hex_id": 791295, "centroid_lon": -71.257037504216072, "centroid_lat": 46.077744955704262, "occurrences_today": 1, "datetimes_today": "2026-08-18 00:47:06", "cumulative_total": 33.0 }, "geometry": { "type": "Polygon", "coordinates": [ [ [ -71.257388542406602, 46.072559773183691 ], [ -71.263665271057917, 46.075363762222914 ], [ -71.263314786490213, 46.080548979379351 ], [ -71.256686369657132, 46.082930131424412 ], [ -71.250409183767744, 46.080125745904581 ], [ -71.250760871916782, 46.074940604885228 ], [ -71.257388542406602, 46.072559773183691 ] ] ] } },
{ "type": "Feature", "properties": { "hex_id": 703926, "centroid_lon": -72.232587146153847, "centroid_lat": 45.053195128197203, "occurrences_today": 1, "datetimes_today": "2026-08-18 00:47:06", "cumulative_total": 53.0 }, "geometry": { "type": "Polygon", "coordinates": [ [ [ -72.232837666675508, 45.048003980229282 ], [ -72.239054560863963, 45.050753170959567 ], [ -72.23880457879541, 45.055944343662084 ], [ -72.232336557639755, 45.058386270330914 ], [ -72.226119193001892, 45.055636704478964 ], [ -72.226370319946597, 45.050445587142924 ], [ -72.232837666675508, 45.048003980229282 ] ] ] } },
{ "type": "Feature", "properties": { "hex_id": 704536, "centroid_lon": -72.226621378755283, "centroid_lat": 45.045254463967908, "occurrences_today": 1, "datetimes_today": "2026-08-18 00:47:06", "cumulative_total": 56.0 }, "geometry": { "type": "Polygon", "coordinates": [ [ [ -72.22687236945049, 45.04006333495429 ], [ -72.233088119227233, 45.042812826427536 ], [ -72.232837666675508, 45.048003980229282 ], [ -72.226370319946597, 45.050445587142924 ], [ -72.220154100151078, 45.047695720597865 ], [ -72.220405697080736, 45.042504622274038 ], [ -72.22687236945049, 45.04006333495429 ] ] ] } },
{ "type": "Feature", "properties": { "hex_id": 704537, "centroid_lon": -72.225867997898618, "centroid_lat": 45.060827815975635, "occurrences_today": 1, "datetimes_today": "2026-08-18 00:47:06", "cumulative_total": 55.0 }, "geometry": { "type": "Polygon", "coordinates": [ [ [ -72.226119193001892, 45.055636704478964 ], [ -72.232336557639755, 45.058386270330914 ], [ -72.232085901110693, 45.063577406630031 ], [ -72.225616734614192, 45.066018921632548 ], [ -72.219398899594566, 45.063268980505235 ], [ -72.219650701430609, 45.058077899713858 ], [ -72.226119193001892, 45.055636704478964 ] ] ] } },
{ "type": "Feature", "properties": { "hex_id": 705147, "centroid_lon": -72.219902434941915, "centroid_lat": 45.05288681307794, "occurrences_today": 1, "datetimes_today": "2026-08-18 00:47:06", "cumulative_total": 67.0 }, "geometry": { "type": "Polygon", "coordinates": [ [ [ -72.220154100151078, 45.047695720597865 ], [ -72.226370319946597, 45.050445587142924 ], [ -72.226119193001892, 45.055636704478964 ], [ -72.219650701430609, 45.058077899713858 ], [ -72.213434011684086, 45.055327657943302 ], [ -72.213686283437255, 45.050136596226437 ], [ -72.220154100151078, 45.047695720597865 ] ] ] } },
{ "type": "Feature", "properties": { "hex_id": 705148, "centroid_lon": -72.219147029411104, "centroid_lat": 45.068460055451673, "occurrences_today": 1, "datetimes_today": "2026-08-18 00:47:06", "cumulative_total": 100.0 }, "geometry": { "type": "Polygon", "coordinates": [ [ [ -72.219398899594566, 45.063268980505235 ], [ -72.225616734614192, 45.066018921632548 ], [ -72.225365403126048, 45.071210021449311 ], [ -72.218895090857643, 45.073651124552775 ], [ -72.212676785524067, 45.070900807996324 ], [ -72.21292926275018, 45.065709763828643 ], [ -72.219398899594566, 45.063268980505235 ] ] ] } },
{ "type": "Feature", "properties": { "hex_id": 705758, "centroid_lon": -72.213181671462635, "centroid_lat": 45.060518713810843, "occurrences_today": 1, "datetimes_today": "2026-08-18 00:47:06", "cumulative_total": 53.0 }, "geometry": { "type": "Polygon", "coordinates": [ [ [ -72.213434011684086, 45.055327657943302 ], [ -72.219650701430609, 45.058077899713858 ], [ -72.219398899594566, 45.063268980505235 ], [ -72.21292926275018, 45.065709763828643 ], [ -72.206712103120566, 45.062959146678928 ], [ -72.206965050195734, 45.057768121648046 ], [ -72.213434011684086, 45.055327657943302 ] ] ] } },
{ "type": "Feature", "properties": { "hex_id": 774851, "centroid_lon": -71.390949452636789, "centroid_lat": 46.697841650755194, "occurrences_today": 1, "datetimes_today": "2026-08-18 00:47:06", "cumulative_total": 76.0 }, "geometry": { "type": "Polygon", "coordinates": [ [ [ -71.391295351294147, 46.692656252582275 ], [ -71.397649105345266, 46.695454877901561 ], [ -71.397303781165405, 46.700640309820692 ], [ -71.390603458239681, 46.703027042235441 ], [ -71.384249225467329, 46.700228013206655 ], [ -71.384595794308851, 46.695042655539119 ], [ -71.391295351294147, 46.692656252582275 ] ] ] } },
{ "type": "Feature", "properties": { "hex_id": 556827, "centroid_lon": -73.751576259641965, "centroid_lat": 45.571028013326888, "occurrences_today": 1, "datetimes_today": "2026-08-18 00:47:06", "cumulative_total": 117.0 }, "geometry": { "type": "Polygon", "coordinates": [ [ [ -73.751691366813219, 45.565832503195409 ], [ -73.758039924605995, 45.568500095486094 ], [ -73.757925392097903, 45.573695615714989 ], [ -73.751461121008887, 45.576223518485186 ], [ -73.745112020020059, 45.573555558121413 ], [ -73.745227733305711, 45.568360063125191 ], [ -73.751691366813219, 45.565832503195409 ] ] ] } },
{ "type": "Feature", "properties": { "hex_id": 459785, "centroid_lon": -74.768642515792877, "centroid_lat": 46.006330625557553, "occurrences_today": 1, "datetimes_today": "2026-08-18 00:47:06", "cumulative_total": 115.0 }, "geometry": { "type": "Polygon", "coordinates": [ [ [ -74.768664175229972, 46.001134320062491 ], [ -74.775110982447956, 46.003745362598742 ], [ -74.775089924690121, 46.008941668040812 ], [ -74.768620850402414, 46.011526926298906 ], [ -74.762173447459531, 46.008915520071653 ], [ -74.762195714527223, 46.003719219343097 ], [ -74.768664175229972, 46.001134320062491 ] ] ] } },
{ "type": "Feature", "properties": { "hex_id": 826771, "centroid_lon": -70.803154088347853, "centroid_lat": 47.106469164925166, "occurrences_today": 1, "datetimes_today": "2026-08-18 00:47:06", "cumulative_total": 96.0 }, "geometry": { "type": "Polygon", "coordinates": [ [ [ -70.80356200918186, 47.101287770866364 ], [ -70.809929928438507, 47.104119492205548 ], [ -70.809522585201677, 47.109300925980854 ], [ -70.80274605406035, 47.111650551571259 ], [ -70.796377670679789, 47.108818416177272 ], [ -70.796786282524891, 47.103637069314814 ], [ -70.80356200918186, 47.101287770866364 ] ] ] } },
{ "type": "Feature", "properties": { "hex_id": 308988, "centroid_lon": -76.362237851824389, "centroid_lat": 45.943883218200916, "occurrences_today": 1, "datetimes_today": "2026-08-18 00:47:06", "cumulative_total": 421.0 }, "geometry": { "type": "Polygon", "coordinates": [ [ [ -76.362110609549404, 45.938688284054066 ], [ -76.368622820539031, 45.941208691028294 ], [ -76.368750682277025, 45.946403608777395 ], [ -76.362365129036419, 45.949078147330219 ], [ -76.355852263640813, 45.946557394161012 ], [ -76.355725605903658, 45.941362448699479 ], [ -76.362110609549404, 45.938688284054066 ] ] ] } },
{ "type": "Feature", "properties": { "hex_id": 458565, "centroid_lon": -74.781497012527453, "centroid_lat": 46.021944943082978, "occurrences_today": 1, "datetimes_today": "2026-08-18 00:47:06", "cumulative_total": 64.0 }, "geometry": { "type": "Polygon", "coordinates": [ [ [ -74.781517479686627, 46.016748647264819 ], [ -74.787966706031895, 46.019358961805459 ], [ -74.78794684121695, 46.024555257440745 ], [ -74.781476539741533, 46.027141234148381 ], [ -74.775026716679733, 46.024530555847676 ], [ -74.775047791807964, 46.01933426466524 ], [ -74.781517479686627, 46.016748647264819 ] ] ] } },
{ "type": "Feature", "properties": { "hex_id": 459175, "centroid_lon": -74.775068861144106, "centroid_lat": 46.014137968729635, "occurrences_today": 1, "datetimes_today": "2026-08-18 00:47:06", "cumulative_total": 64.0 }, "geometry": { "type": "Polygon", "coordinates": [ [ [ -74.775089924690121, 46.008941668040812 ], [ -74.781537941220961, 46.011552346693897 ], [ -74.781517479686627, 46.016748647264819 ], [ -74.775047791807964, 46.01933426466524 ], [ -74.768599179056579, 46.016723222286601 ], [ -74.768620850402414, 46.011526926298906 ], [ -74.775089924690121, 46.008941668040812 ] ] ] } },
{ "type": "Feature", "properties": { "hex_id": 459786, "centroid_lon": -74.768577501753342, "centroid_lat": 46.021919513520672, "occurrences_today": 1, "datetimes_today": "2026-08-18 00:47:06", "cumulative_total": 64.0 }, "geometry": { "type": "Polygon", "coordinates": [ [ [ -74.768599179056579, 46.016723222286601 ], [ -74.775047791807964, 46.01933426466524 ], [ -74.775026716679733, 46.024530555847676 ], [ -74.768555818490682, 46.027115800001141 ], [ -74.762106609524736, 46.024504393732713 ], [ -74.76212889496037, 46.019308107266433 ], [ -74.768599179056579, 46.016723222286601 ] ] ] } },
{ "type": "Feature", "properties": { "hex_id": 833428, "centroid_lon": -70.801948647911956, "centroid_lat": 46.194428727492472, "occurrences_today": 1, "datetimes_today": "2026-08-18 00:47:06", "cumulative_total": 111.0 }, "geometry": { "type": "Polygon", "coordinates": [ [ [ -70.802343900347822, 46.189246513087795 ], [ -70.808608600267391, 46.192075159159302 ], [ -70.808213897728166, 46.197257412616445 ], [ -70.801553286868725, 46.199610934557846 ], [ -70.795288145678384, 46.196781886839958 ], [ -70.795684056581294, 46.191599718892007 ], [ -70.802343900347822, 46.189246513087795 ] ] ] } },
{ "type": "Feature", "properties": { "hex_id": 302879, "centroid_lon": -76.425128883476674, "centroid_lat": 45.880758329763154, "occurrences_today": 1, "datetimes_today": "2026-08-18 00:47:06", "cumulative_total": 470.0 }, "geometry": { "type": "Polygon", "coordinates": [ [ [ -76.424996060566883, 45.875563476921663 ], [ -76.431503582895203, 45.878080379966221 ], [ -76.431637023950856, 45.883275215774333 ], [ -76.425261742826095, 45.885953177561724 ], [ -76.418753565906101, 45.883435929788973 ], [ -76.418621324714891, 45.87824106502238 ], [ -76.424996060566883, 45.875563476921663 ] ] ] } },
{ "type": "Feature", "properties": { "hex_id": 303489, "centroid_lon": -76.418489119792724, "centroid_lat": 45.873046195215572, "occurrences_today": 1, "datetimes_today": "2026-08-18 00:47:06", "cumulative_total": 469.0 }, "geometry": { "type": "Polygon", "coordinates": [ [ [ -76.418356951127336, 45.867851320368672 ], [ -76.424863274084387, 45.870368619037357 ], [ -76.424996060566883, 45.875563476921663 ], [ -76.418621324714891, 45.87824106502238 ], [ -76.4121143476778, 45.875723421648068 ], [ -76.411982760585047, 45.870528534944 ], [ -76.418356951127336, 45.867851320368672 ] ] ] } },
{ "type": "Feature", "properties": { "hex_id": 303490, "centroid_lon": -76.418885843378689, "centroid_lat": 45.888630789515311, "occurrences_today": 1, "datetimes_today": "2026-08-18 00:47:06", "cumulative_total": 414.0 }, "geometry": { "type": "Polygon", "coordinates": [ [ [ -76.418753565906101, 45.883435929788973 ], [ -76.425261742826095, 45.885953177561724 ], [ -76.425394638627509, 45.891148020317324 ], [ -76.419018157144905, 45.893825644201279 ], [ -76.412509325596275, 45.891308051534956 ], [ -76.412377630171193, 45.886113179943614 ], [ -76.418753565906101, 45.883435929788973 ] ] ] } },
{ "type": "Feature", "properties": { "hex_id": 304099, "centroid_lon": -76.411851209578586, "centroid_lat": 45.865333643202511, "occurrences_today": 1, "datetimes_today": "2026-08-18 00:47:06", "cumulative_total": 369.0 }, "geometry": { "type": "Polygon", "coordinates": [ [ [ -76.411719694646223, 45.860138746423672 ], [ -76.418224818706463, 45.862656440481707 ], [ -76.418356951127336, 45.867851320368672 ], [ -76.411982760585047, 45.870528534944 ], [ -76.405476982956088, 45.868010496202984 ], [ -76.405346049450387, 45.86281558763492 ], [ -76.411719694646223, 45.860138746423672 ] ] ] } },
{ "type": "Feature", "properties": { "hex_id": 304100, "centroid_lon": -76.412245970869108, "centroid_lat": 45.88091830331463, "occurrences_today": 1, "datetimes_today": "2026-08-18 00:47:06", "cumulative_total": 457.0 }, "geometry": { "type": "Polygon", "coordinates": [ [ [ -76.4121143476778, 45.875723421648068 ], [ -76.418621324714891, 45.87824106502238 ], [ -76.418753565906101, 45.883435929788973 ], [ -76.412377630171193, 45.886113179943614 ], [ -76.405869999017298, 45.883595191698362 ], [ -76.40573895772738, 45.878400298234773 ], [ -76.4121143476778, 45.875723421648068 ] ] ] } },
{ "type": "Feature", "properties": { "hex_id": 304101, "centroid_lon": -76.412641057156634, "centroid_lat": 45.896502918088551, "occurrences_today": 1, "datetimes_today": "2026-08-18 00:47:06", "cumulative_total": 409.0 }, "geometry": { "type": "Polygon", "coordinates": [ [ [ -76.412509325596275, 45.891308051534956 ], [ -76.419018157144905, 45.893825644201279 ], [ -76.419150507217111, 45.899020493846834 ], [ -76.41277282486449, 45.901697779604376 ], [ -76.406263338650376, 45.899179841879068 ], [ -76.406132189466604, 45.89398496352058 ], [ -76.412509325596275, 45.891308051534956 ] ] ] } },
{ "type": "Feature", "properties": { "hex_id": 304709, "centroid_lon": -76.40521515184841, "centroid_lat": 45.857620674032226, "occurrences_today": 1, "datetimes_today": "2026-08-18 00:47:06", "cumulative_total": 369.0 }, "geometry": { "type": "Polygon", "coordinates": [ [ [ -76.405084290138007, 45.852425755394911 ], [ -76.411588215775737, 45.854943844607583 ], [ -76.411719694646223, 45.860138746423672 ], [ -76.405346049450387, 45.86281558763492 ], [ -76.398841470754903, 45.860297153761913 ], [ -76.398711190325173, 45.855102223403314 ], [ -76.405084290138007, 45.852425755394911 ] ] ] } },
{ "type": "Feature", "properties": { "hex_id": 304710, "centroid_lon": -76.405607952377693, "centroid_lat": 45.873205399736285, "occurrences_today": 1, "datetimes_today": "2026-08-18 00:47:06", "cumulative_total": 419.0 }, "geometry": { "type": "Polygon", "coordinates": [ [ [ -76.405476982956088, 45.868010496202984 ], [ -76.411982760585047, 45.870528534944 ], [ -76.4121143476778, 45.875723421648068 ], [ -76.40573895772738, 45.878400298234773 ], [ -76.399232526493122, 45.875881914645468 ], [ -76.399102138826763, 45.870686999383075 ], [ -76.405476982956088, 45.868010496202984 ] ] ] } },
{ "type": "Feature", "properties": { "hex_id": 304711, "centroid_lon": -76.406001076259642, "centroid_lat": 45.888790080127016, "occurrences_today": 1, "datetimes_today": "2026-08-18 00:47:06", "cumulative_total": 369.0 }, "geometry": { "type": "Polygon", "coordinates": [ [ [ -76.405869999017298, 45.883595191698362 ], [ -76.412377630171193, 45.886113179943614 ], [ -76.412509325596275, 45.891308051534956 ], [ -76.406132189466604, 45.89398496352058 ], [ -76.399623904159256, 45.89146663023903 ], [ -76.39949340914724, 45.886271730073517 ], [ -76.405869999017298, 45.883595191698362 ] ] ] } },
{ "type": "Feature", "properties": { "hex_id": 304712, "centroid_lon": -76.406394523823138, "centroid_lat": 45.904374715202366, "occurrences_today": 1, "datetimes_today": "2026-08-18 00:47:06", "cumulative_total": 369.0 }, "geometry": { "type": "Polygon", "coordinates": [ [ [ -76.406263338650376, 45.899179841879068 ], [ -76.41277282486449, 45.901697779604376 ], [ -76.412904628732122, 45.906892636082318 ], [ -76.406525744997111, 45.909569583490402 ], [ -76.400015604080821, 45.907051300540644 ], [ -76.39988500161391, 45.901856415472686 ], [ -76.406263338650376, 45.899179841879068 ] ] ] } },
{ "type": "Feature", "properties": { "hex_id": 305320, "centroid_lon": -76.398971786918068, "centroid_lat": 45.865492079088533, "occurrences_today": 1, "datetimes_today": "2026-08-18 00:47:06", "cumulative_total": 369.0 }, "geometry": { "type": "Polygon", "coordinates": [ [ [ -76.398841470754903, 45.860297153761913 ], [ -76.405346049450387, 45.86281558763492 ], [ -76.405476982956088, 45.868010496202984 ], [ -76.399102138826763, 45.870686999383075 ], [ -76.392596907037159, 45.868168220684524 ], [ -76.392467172483109, 45.862973283696725 ], [ -76.398841470754903, 45.860297153761913 ] ] ] } },
{ "type": "Feature", "properties": { "hex_id": 305321, "centroid_lon": -76.399362949929227, "centroid_lat": 45.881076824875642, "occurrences_today": 1, "datetimes_today": "2026-08-18 00:47:06", "cumulative_total": 370.0 }, "geometry": { "type": "Polygon", "coordinates": [ [ [ -76.399232526493122, 45.875881914645468 ], [ -76.40573895772738, 45.878400298234773 ], [ -76.405869999017298, 45.883595191698362 ], [ -76.39949340914724, 45.886271730073517 ], [ -76.39298632427122, 45.883753001470645 ], [ -76.392856482919143, 45.878558079571548 ], [ -76.399232526493122, 45.875881914645468 ] ] ] } },
{ "type": "Feature", "properties": { "hex_id": 305322, "centroid_lon": -76.399754434977439, "centroid_lat": 45.896661525372096, "occurrences_today": 1, "datetimes_today": "2026-08-18 00:47:06", "cumulative_total": 369.0 }, "geometry": { "type": "Polygon", "coordinates": [ [ [ -76.399623904159256, 45.89146663023903 ], [ -76.406132189466604, 45.89398496352058 ], [ -76.406263338650376, 45.899179841879068 ], [ -76.39988500161391, 45.901856415472686 ], [ -76.393376062116616, 45.899337736989423 ], [ -76.39324611385787, 45.894142830179646 ], [ -76.399623904159256, 45.89146663023903 ] ] ] } },
{ "type": "Feature", "properties": { "hex_id": 305323, "centroid_lon": -76.400146242390321, "centroid_lat": 45.912246180575984, "occurrences_today": 1, "datetimes_today": "2026-08-18 00:47:06", "cumulative_total": 368.0 }, "geometry": { "type": "Polygon", "coordinates": [ [ [ -76.400015604080821, 45.907051300540644 ], [ -76.406525744997111, 45.909569583490402 ], [ -76.406657002184531, 45.914764446743106 ], [ -76.400276916554574, 45.917441055578585 ], [ -76.393766120899556, 45.914922427238906 ], [ -76.393636065625358, 45.909727535519124 ], [ -76.400015604080821, 45.907051300540644 ] ] ] } },
{ "type": "Feature", "properties": { "hex_id": 305931, "centroid_lon": -76.392726677178487, "centroid_lat": 45.873363152642817, "occurrences_today": 1, "datetimes_today": "2026-08-18 00:47:06", "cumulative_total": 369.0 }, "geometry": { "type": "Polygon", "coordinates": [ [ [ -76.392596907037159, 45.868168220684524 ], [ -76.399102138826763, 45.870686999383075 ], [ -76.399232526493122, 45.875881914645468 ], [ -76.392856482919143, 45.878558079571548 ], [ -76.38635059799914, 45.87603895588218 ], [ -76.386221409795553, 45.870844012322884 ], [ -76.392596907037159, 45.868168220684524 ] ] ] } },
{ "type": "Feature", "properties": { "hex_id": 305932, "centroid_lon": -76.393116201246769, "centroid_lat": 45.888947918340065, "occurrences_today": 1, "datetimes_today": "2026-08-18 00:47:06", "cumulative_total": 388.0 }, "geometry": { "type": "Polygon", "coordinates": [ [ [ -76.39298632427122, 45.883753001470645 ], [ -76.39949340914724, 45.886271730073517 ], [ -76.399623904159256, 45.89146663023903 ], [ -76.39324611385787, 45.894142830179646 ], [ -76.386738375303793, 45.891623756397856 ], [ -76.386609080741238, 45.88642882791973 ], [ -76.39298632427122, 45.883753001470645 ] ] ] } },
{ "type": "Feature", "properties": { "hex_id": 305933, "centroid_lon": -76.393506046035085, "centroid_lat": 45.904532638769261, "occurrences_today": 1, "datetimes_today": "2026-08-18 00:47:06", "cumulative_total": 368.0 }, "geometry": { "type": "Polygon", "coordinates": [ [ [ -76.393376062116616, 45.899337736989423 ], [ -76.39988500161391, 45.901856415472686 ], [ -76.400015604080821, 45.907051300540644 ], [ -76.393636065625358, 45.909727535519124 ], [ -76.387126471901752, 45.907208511668713 ], [ -76.386997070872027, 45.902013598272411 ], [ -76.393376062116616, 45.899337736989423 ] ] ] } },
{ "type": "Feature", "properties": { "hex_id": 305934, "centroid_lon": -76.393896211869773, "centroid_lat": 45.92011731392855, "occurrences_today": 1, "datetimes_today": "2026-08-18 00:47:06", "cumulative_total": 407.0 }, "geometry": { "type": "Polygon", "coordinates": [ [ [ -76.393766120899556, 45.914922427238906 ], [ -76.400276916554574, 45.917441055578585 ], [ -76.400407626585746, 45.922635925548363 ], [ -76.394026338548116, 45.925312195587999 ], [ -76.387514888117948, 45.922793221692856 ], [ -76.387385380512669, 45.917598323379018 ], [ -76.393766120899556, 45.914922427238906 ] ] ] } },
{ "type": "Feature", "properties": { "hex_id": 306541, "centroid_lon": -76.386092257020934, "centroid_lat": 45.865649063736669, "occurrences_today": 1, "datetimes_today": "2026-08-18 00:47:06", "cumulative_total": 369.0 }, "geometry": { "type": "Polygon", "coordinates": [ [ [ -76.385963139663303, 45.860454110123598 ], [ -76.392467172483109, 45.862973283696725 ], [ -76.392596907037159, 45.868168220684524 ], [ -76.386221409795553, 45.870844012322884 ], [ -76.379716724356371, 45.868324493781763 ], [ -76.379588188790152, 45.863129528635596 ], [ -76.385963139663303, 45.860454110123598 ] ] ] } },
{ "type": "Feature", "properties": { "hex_id": 306542, "centroid_lon": -76.386479821643704, "centroid_lat": 45.8812338944145, "occurrences_today": 1, "datetimes_today": "2026-08-18 00:47:06", "cumulative_total": 368.0 }, "geometry": { "type": "Polygon", "coordinates": [ [ [ -76.38635059799914, 45.87603895588218 ], [ -76.392856482919143, 45.878558079571548 ], [ -76.39298632427122, 45.883753001470645 ], [ -76.386609080741238, 45.88642882791973 ], [ -76.380102542654711, 45.883909359074259 ], [ -76.379973901276699, 45.878714409001169 ], [ -76.38635059799914, 45.87603895588218 ] ] ] } },
{ "type": "Feature", "properties": { "hex_id": 306543, "centroid_lon": -76.386867705343377, "centroid_lat": 45.896818679848764, "occurrences_today": 1, "datetimes_today": "2026-08-18 00:47:06", "cumulative_total": 368.0 }, "geometry": { "type": "Polygon", "coordinates": [ [ [ -76.386738375303793, 45.891623756397856 ], [ -76.39324611385787, 45.894142830179646 ], [ -76.393376062116616, 45.899337736989423 ], [ -76.386997070872027, 45.902013598272411 ], [ -76.380488678603697, 45.899494179146302 ], [ -76.380359931306245, 45.8942992441469 ], [ -76.386738375303793, 45.891623756397856 ] ] ] } },
{ "type": "Feature", "properties": { "hex_id": 306544, "centroid_lon": -76.387255908444615, "centroid_lat": 45.912403420037599, "occurrences_today": 1, "datetimes_today": "2026-08-18 00:47:06", "cumulative_total": 407.0 }, "geometry": { "type": "Polygon", "coordinates": [ [ [ -76.387126471901752, 45.907208511668713 ], [ -76.393636065625358, 45.909727535519124 ], [ -76.393766120899556, 45.914922427238906 ], [ -76.387385380512669, 45.917598323379018 ], [ -76.380875132526526, 45.915078953996002 ], [ -76.380746279201858, 45.909884034070913 ], [ -76.387126471901752, 45.907208511668713 ] ] ] } },
{ "type": "Feature", "properties": { "hex_id": 306545, "centroid_lon": -76.387644431272506, "centroid_lat": 45.927988114979073, "occurrences_today": 1, "datetimes_today": "2026-08-18 00:47:06", "cumulative_total": 407.0 }, "geometry": { "type": "Polygon", "coordinates": [ [ [ -76.387514888117948, 45.922793221692856 ], [ -76.394026338548116, 45.925312195587999 ], [ -76.394156500946707, 45.930507072217139 ], [ -76.387774009988419, 45.933183003237588 ], [ -76.38126190474685, 45.930663683621425 ], [ -76.381132945287021, 45.925468778771318 ], [ -76.387514888117948, 45.922793221692856 ] ] ] } },
{ "type": "Feature", "properties": { "hex_id": 307152, "centroid_lon": -76.379845295181227, "centroid_lat": 45.873519453903633, "occurrences_today": 1, "datetimes_today": "2026-08-18 00:47:06", "cumulative_total": 368.0 }, "geometry": { "type": "Polygon", "coordinates": [ [ [ -76.379716724356371, 45.868324493781763 ], [ -76.386221409795553, 45.870844012322884 ], [ -76.38635059799914, 45.87603895588218 ], [ -76.379973901276699, 45.878714409001169 ], [ -76.373468563182229, 45.876194545326804 ], [ -76.373340574477425, 45.870999573732036 ], [ -76.379716724356371, 45.868324493781763 ] ] ] } },
{ "type": "Feature", "properties": { "hex_id": 307153, "centroid_lon": -76.380231219327257, "centroid_lat": 45.889104304122881, "occurrences_today": 1, "datetimes_today": "2026-08-18 00:47:06", "cumulative_total": 368.0 }, "geometry": { "type": "Polygon", "coordinates": [ [ [ -76.380102542654711, 45.883909359074259 ], [ -76.386609080741238, 45.88642882791973 ], [ -76.386738375303793, 45.891623756397856 ], [ -76.380359931306245, 45.8942992441469 ], [ -76.373852740017242, 45.891779429979984 ], [ -76.373724645940229, 45.886584473450846 ], [ -76.380102542654711, 45.883909359074259 ] ] ] } },
{ "type": "Feature", "properties": { "hex_id": 307154, "centroid_lon": -76.38061746123158, "centroid_lat": 45.904689109121001, "occurrences_today": 1, "datetimes_today": "2026-08-18 00:47:06", "cumulative_total": 368.0 }, "geometry": { "type": "Polygon", "coordinates": [ [ [ -76.380488678603697, 45.899494179146302 ], [ -76.386997070872027, 45.902013598272411 ], [ -76.387126471901752, 45.907208511668713 ], [ -76.380746279201858, 45.909884034070913 ], [ -76.374237233183294, 45.907364269435043 ], [ -76.374109033626851, 45.902169327972153 ], [ -76.380488678603697, 45.899494179146302 ] ] ] } },
{ "type": "Feature", "properties": { "hex_id": 307155, "centroid_lon": -76.381004021217578, "centroid_lat": 45.920273868896146, "occurrences_today": 1, "datetimes_today": "2026-08-18 00:47:06", "cumulative_total": 407.0 }, "geometry": { "type": "Polygon", "coordinates": [ [ [ -76.380875132526526, 45.915078953996002 ], [ -76.387385380512669, 45.917598323379018 ], [ -76.387514888117948, 45.922793221692856 ], [ -76.381132945287021, 45.925468778771318 ], [ -76.37462204300229, 45.92294906369014 ], [ -76.374493737859055, 45.917754137294111 ], [ -76.380875132526526, 45.915078953996002 ] ] ] } },
{ "type": "Feature", "properties": { "hex_id": 307156, "centroid_lon": -76.381390899609087, "centroid_lat": 45.935858583446418, "occurrences_today": 1, "datetimes_today": "2026-08-18 00:47:06", "cumulative_total": 407.0 }, "geometry": { "type": "Polygon", "coordinates": [ [ [ -76.38126190474685, 45.930663683621425 ], [ -76.387774009988419, 45.933183003237588 ], [ -76.387903624277769, 45.938377886468359 ], [ -76.381519929885727, 45.941053478246225 ], [ -76.375007169796618, 45.938533812743394 ], [ -76.374878758959099, 45.933338901414842 ], [ -76.38126190474685, 45.930663683621425 ] ] ] } },
{ "type": "Feature", "properties": { "hex_id": 307763, "centroid_lon": -76.373596586999199, "centroid_lat": 45.881389511899769, "occurrences_today": 1, "datetimes_today": "2026-08-18 00:47:06", "cumulative_total": 368.0 }, "geometry": { "type": "Polygon", "coordinates": [ [ [ -76.373468563182229, 45.876194545326804 ], [ -76.379973901276699, 45.878714409001169 ], [ -76.380102542654711, 45.883909359074259 ], [ -76.373724645940229, 45.886584473450846 ], [ -76.367218655154687, 45.884064264477942 ], [ -76.367091213786594, 45.878869286492368 ], [ -76.373468563182229, 45.876194545326804 ] ] ] } },
{ "type": "Feature", "properties": { "hex_id": 307764, "centroid_lon": -76.373980869242146, "centroid_lat": 45.896974381487098, "occurrences_today": 1, "datetimes_today": "2026-08-18 00:47:06", "cumulative_total": 368.0 }, "geometry": { "type": "Polygon", "coordinates": [ [ [ -76.373852740017242, 45.891779429979984 ], [ -76.380359931306245, 45.8942992441469 ], [ -76.380488678603697, 45.899494179146302 ], [ -76.374109033626851, 45.902169327972153 ], [ -76.367601189099517, 45.899649168318405 ], [ -76.367473642799283, 45.894454205391028 ], [ -76.373852740017242, 45.891779429979984 ] ] ] } },
{ "type": "Feature", "properties": { "hex_id": 307765, "centroid_lon": -76.374365467923369, "centroid_lat": 45.912559205875723, "occurrences_today": 1, "datetimes_today": "2026-08-18 00:47:06", "cumulative_total": 368.0 }, "geometry": { "type": "Polygon", "coordinates": [ [ [ -76.374237233183294, 45.907364269435043 ], [ -76.380746279201858, 45.909884034070913 ], [ -76.380875132526526, 45.915078953996002 ], [ -76.374493737859055, 45.917754137294111 ], [ -76.36798403805436, 45.915234026983036 ], [ -76.367856386715189, 45.910039079114476 ], [ -76.374237233183294, 45.907364269435043 ] ] ] } },
{ "type": "Feature", "properties": { "hex_id": 307766, "centroid_lon": -76.374750383364983, "centroid_lat": 45.928143985063748, "occurrences_today": 1, "datetimes_today": "2026-08-18 00:47:06", "cumulative_total": 407.0 }, "geometry": { "type": "Polygon", "coordinates": [ [ [ -76.37462204300229, 45.92294906369014 ], [ -76.381132945287021, 45.925468778771318 ], [ -76.38126190474685, 45.930663683621425 ], [ -76.374878758959099, 45.933338901414842 ], [ -76.368367202339812, 45.930818840469954 ], [ -76.368239445854783, 45.925623907660842 ], [ -76.37462204300229, 45.92294906369014 ] ] ] } },
{ "type": "Feature", "properties": { "hex_id": 307767, "centroid_lon": -76.375135615889477, "centroid_lat": 45.943728719049311, "occurrences_today": 1, "datetimes_today": "2026-08-18 00:47:06", "cumulative_total": 407.0 }, "geometry": { "type": "Polygon", "coordinates": [ [ [ -76.375007169796618, 45.938533812743394 ], [ -76.381519929885727, 45.941053478246225 ], [ -76.381648995588819, 45.946248368020754 ], [ -76.375264097249655, 45.948923620332522 ], [ -76.368750682277025, 45.946403608777395 ], [ -76.368622820539031, 45.941208691028294 ], [ -76.375007169796618, 45.938533812743394 ] ] ] } },
{ "type": "Feature", "properties": { "hex_id": 308373, "centroid_lon": -76.366963807372201, "centroid_lat": 45.873674303487519, "occurrences_today": 1, "datetimes_today": "2026-08-18 00:47:06", "cumulative_total": 368.0 }, "geometry": { "type": "Polygon", "coordinates": [ [ [ -76.366836435899643, 45.868479315463468 ], [ -76.373340574477425, 45.870999573732036 ], [ -76.373468563182229, 45.876194545326804 ], [ -76.367091213786594, 45.878869286492368 ], [ -76.36058642302882, 45.876348682948219 ], [ -76.360459633858483, 45.871153683579443 ], [ -76.366836435899643, 45.868479315463468 ] ] ] } },
{ "type": "Feature", "properties": { "hex_id": 308374, "centroid_lon": -76.367346131488304, "centroid_lat": 45.889259237444207, "occurrences_today": 1, "datetimes_today": "2026-08-18 00:47:06", "cumulative_total": 368.0 }, "geometry": { "type": "Polygon", "coordinates": [ [ [ -76.367218655154687, 45.884064264477942 ], [ -76.373724645940229, 45.886584473450846 ], [ -76.373852740017242, 45.891779429979984 ], [ -76.367473642799283, 45.894454205391028 ], [ -76.360966999287044, 45.891933650954265 ], [ -76.360840105731299, 45.886738666635701 ], [ -76.367218655154687, 45.884064264477942 ] ] ] } },
{ "type": "Feature", "properties": { "hex_id": 308375, "centroid_lon": -76.367728770400873, "centroid_lat": 45.904844126226237, "occurrences_today": 1, "datetimes_today": "2026-08-18 00:47:06", "cumulative_total": 368.0 }, "geometry": { "type": "Polygon", "coordinates": [ [ [ -76.367601189099517, 45.899649168318405 ], [ -76.374109033626851, 45.902169327972153 ], [ -76.374237233183294, 45.907364269435043 ], [ -76.367856386715189, 45.910039079114476 ], [ -76.361347888913855, 45.907518573808467 ], [ -76.361220890866505, 45.902323604540719 ], [ -76.367601189099517, 45.899649168318405 ] ] ] } },
{ "type": "Feature", "properties": { "hex_id": 308376, "centroid_lon": -76.36811172443025, "centroid_lat": 45.920428969831839, "occurrences_today": 1, "datetimes_today": "2026-08-18 00:47:06", "cumulative_total": 407.0 }, "geometry": { "type": "Polygon", "coordinates": [ [ [ -76.36798403805436, 45.915234026983036 ], [ -76.374493737859055, 45.917754137294111 ], [ -76.37462204300229, 45.92294906369014 ], [ -76.368239445854783, 45.925623907660842 ], [ -76.361729092228188, 45.923103451509 ], [ -76.361601989582866, 45.917908497292679 ], [ -76.36798403805436, 45.915234026983036 ] ] ] } },
{ "type": "Feature", "properties": { "hex_id": 308377, "centroid_lon": -76.368494993897258, "centroid_lat": 45.936013768259123, "occurrences_today": 1, "datetimes_today": "2026-08-18 00:47:06", "cumulative_total": 407.0 }, "geometry": { "type": "Polygon", "coordinates": [ [ [ -76.368367202339812, 45.930818840469954 ], [ -76.374878758959099, 45.933338901414842 ], [ -76.375007169796618, 45.938533812743394 ], [ -76.368622820539031, 45.941208691028294 ], [ -76.362110609549404, 45.938688284054066 ], [ -76.361983402199613, 45.933493344889762 ], [ -76.368367202339812, 45.930818840469954 ] ] ] } },
{ "type": "Feature", "properties": { "hex_id": 308378, "centroid_lon": -76.368878579123162, "centroid_lat": 45.951598521506334, "occurrences_today": 1, "datetimes_today": "2026-08-18 00:47:06", "cumulative_total": 407.0 }, "geometry": { "type": "Polygon", "coordinates": [ [ [ -76.368750682277025, 45.946403608777395 ], [ -76.375264097249655, 45.948923620332522 ], [ -76.375392613889133, 45.954118516592992 ], [ -76.369006511089353, 45.956793429215068 ], [ -76.362492441197347, 45.954273071441911 ], [ -76.362365129036419, 45.949078147330219 ], [ -76.368750682277025, 45.946403608777395 ] ] ] } },
{ "type": "Feature", "properties": { "hex_id": 308984, "centroid_lon": -76.360713246982485, "centroid_lat": 45.881543677300328, "occurrences_today": 1, "datetimes_today": "2026-08-18 00:47:06", "cumulative_total": 368.0 }, "geometry": { "type": "Polygon", "coordinates": [ [ [ -76.36058642302882, 45.876348682948219 ], [ -76.367091213786594, 45.878869286492368 ], [ -76.367218655154687, 45.884064264477942 ], [ -76.360840105731299, 45.886738666635701 ], [ -76.354334662758063, 45.884217717650692 ], [ -76.354208421435459, 45.879022712014162 ], [ -76.36058642302882, 45.876348682948219 ] ] ] } },
{ "type": "Feature", "properties": { "hex_id": 308985, "centroid_lon": -76.3610939276615, "centroid_lat": 45.897128630255956, "occurrences_today": 1, "datetimes_today": "2026-08-18 00:47:06", "cumulative_total": 368.0 }, "geometry": { "type": "Polygon", "coordinates": [ [ [ -76.360966999287044, 45.891933650954265 ], [ -76.367473642799283, 45.894454205391028 ], [ -76.367601189099517, 45.899649168318405 ], [ -76.361220890866505, 45.902323604540719 ], [ -76.354713594592027, 45.899802704474723 ], [ -76.354587249324609, 45.89460771388103 ], [ -76.360966999287044, 45.891933650954265 ] ] ] } },
{ "type": "Feature", "properties": { "hex_id": 308987, "centroid_lon": -76.361856229763163, "centroid_lat": 45.928298400708066, "occurrences_today": 1, "datetimes_today": "2026-08-18 00:47:06", "cumulative_total": 407.0 }, "geometry": { "type": "Polygon", "coordinates": [ [ [ -76.361729092228188, 45.923103451509 ], [ -76.368239445854783, 45.925623907660842 ], [ -76.368367202339812, 45.930818840469954 ], [ -76.361983402199613, 45.933493344889762 ], [ -76.355472394715548, 45.930972542731645 ], [ -76.355345841241004, 45.925777582225486 ], [ -76.361729092228188, 45.923103451509 ] ] ] } },
{ "type": "Feature", "properties": { "hex_id": 309595, "centroid_lon": -76.354460938717196, "centroid_lat": 45.889412718273043, "occurrences_today": 1, "datetimes_today": "2026-08-18 00:47:06", "cumulative_total": 368.0 }, "geometry": { "type": "Polygon", "coordinates": [ [ [ -76.354334662758063, 45.884217717650692 ], [ -76.360840105731299, 45.886738666635701 ], [ -76.360966999287044, 45.891933650954265 ], [ -76.354587249324609, 45.89460771388103 ], [ -76.34808115410064, 45.892086419289868 ], [ -76.347955461101577, 45.886891407443471 ], [ -76.354334662758063, 45.884217717650692 ] ] ] } },
{ "type": "Feature", "properties": { "hex_id": 309598, "centroid_lon": -76.355598982932506, "centroid_lat": 45.936167498223, "occurrences_today": 1, "datetimes_today": "2026-08-18 00:47:06", "cumulative_total": 407.0 }, "geometry": { "type": "Polygon", "coordinates": [ [ [ -76.355472394715548, 45.930972542731645 ], [ -76.361983402199613, 45.933493344889762 ], [ -76.362110609549404, 45.938688284054066 ], [ -76.355725605903658, 45.941362448699479 ], [ -76.349213944526653, 45.938841300369468 ], [ -76.34908794070013, 45.93364633363143 ], [ -76.355472394715548, 45.930972542731645 ] ] ] } },
{ "type": "Feature", "properties": { "hex_id": 309599, "centroid_lon": -76.355978956155766, "centroid_lat": 45.951752334607541, "occurrences_today": 1, "datetimes_today": "2026-08-18 00:47:06", "cumulative_total": 407.0 }, "geometry": { "type": "Polygon", "coordinates": [ [ [ -76.355852263640813, 45.946557394161012 ], [ -76.362365129036419, 45.949078147330219 ], [ -76.362492441197347, 45.954273071441911 ], [ -76.356105683460342, 45.956947270038988 ], [ -76.349592163623242, 45.954426170509123 ], [ -76.349466055976464, 45.949231218808379 ], [ -76.355852263640813, 45.946557394161012 ] ] ] } },
{ "type": "Feature", "properties": { "hex_id": 310205, "centroid_lon": -76.347829802580392, "centroid_lat": 45.881696390585361, "occurrences_today": 1, "datetimes_today": "2026-08-18 00:47:06", "cumulative_total": 368.0 }, "geometry": { "type": "Polygon", "coordinates": [ [ [ -76.347704178525376, 45.876501368715608 ], [ -76.354208421435459, 45.879022712014162 ], [ -76.354334662758063, 45.884217717650692 ], [ -76.347955461101577, 45.886891407443471 ], [ -76.341450566451869, 45.884369718561828 ], [ -76.341325525209953, 45.879174685535894 ], [ -76.347704178525376, 45.876501368715608 ] ] ] } },
{ "type": "Feature", "properties": { "hex_id": 310206, "centroid_lon": -76.348206881589249, "centroid_lat": 45.897281426124458, "occurrences_today": 1, "datetimes_today": "2026-08-18 00:47:06", "cumulative_total": 368.0 }, "geometry": { "type": "Polygon", "coordinates": [ [ [ -76.34808115410064, 45.892086419289868 ], [ -76.354587249324609, 45.89460771388103 ], [ -76.354713594592027, 45.899802704474723 ], [ -76.348332643579127, 45.902476427947249 ], [ -76.341825896069238, 45.89995478758452 ], [ -76.34170075186988, 45.894759769586216 ], [ -76.34808115410064, 45.892086419289868 ] ] ] } },
{ "type": "Feature", "properties": { "hex_id": 310209, "centroid_lon": -76.34933998294818, "centroid_lat": 45.944036262095139, "occurrences_today": 1, "datetimes_today": "2026-08-18 00:47:06", "cumulative_total": 407.0 }, "geometry": { "type": "Polygon", "coordinates": [ [ [ -76.349213944526653, 45.938841300369468 ], [ -76.355725605903658, 45.941362448699479 ], [ -76.355852263640813, 45.946557394161012 ], [ -76.349466055976464, 45.949231218808379 ], [ -76.342953740671206, 45.946709724140831 ], [ -76.342828286970303, 45.941514751228965 ], [ -76.349213944526653, 45.938841300369468 ] ] ] } },
{ "type": "Feature", "properties": { "hex_id": 310210, "centroid_lon": -76.349718305900282, "centroid_lat": 45.959621117197308, "occurrences_today": 1, "datetimes_today": "2026-08-18 00:47:06", "cumulative_total": 407.0 }, "geometry": { "type": "Polygon", "coordinates": [ [ [ -76.349592163623242, 45.954426170509123 ], [ -76.356105683460342, 45.956947270038988 ], [ -76.356232445566334, 45.962142200455297 ], [ -76.34984448281935, 45.964816058872877 ], [ -76.343330308505386, 45.962294612816621 ], [ -76.343204751427052, 45.957099654934723 ], [ -76.349592163623242, 45.954426170509123 ] ] ] } },
{ "type": "Feature", "properties": { "hex_id": 310816, "centroid_lon": -76.341575642001317, "centroid_lat": 45.889564746578657, "occurrences_today": 1, "datetimes_today": "2026-08-18 00:47:06", "cumulative_total": 368.0 }, "geometry": { "type": "Polygon", "coordinates": [ [ [ -76.341450566451869, 45.884369718561828 ], [ -76.347955461101577, 45.886891407443471 ], [ -76.34808115410064, 45.892086419289868 ], [ -76.34170075186988, 45.894759769586216 ], [ -76.335195205445601, 45.892237734956204 ], [ -76.335070713038277, 45.88704269584359 ], [ -76.341450566451869, 45.884369718561828 ] ] ] } },
{ "type": "Feature", "properties": { "hex_id": 310819, "centroid_lon": -76.342702867705142, "centroid_lat": 45.936319773307254, "occurrences_today": 1, "datetimes_today": "2026-08-18 00:47:06", "cumulative_total": 368.0 }, "geometry": { "type": "Polygon", "coordinates": [ [ [ -76.342577482864058, 45.931124790375726 ], [ -76.34908794070013, 45.93364633363143 ], [ -76.349213944526653, 45.938841300369468 ], [ -76.342828286970303, 45.941514751228965 ], [ -76.336317175718875, 45.938992861658903 ], [ -76.33619237545085, 45.933797867609208 ], [ -76.342577482864058, 45.931124790375726 ] ] ] } },
{ "type": "Feature", "properties": { "hex_id": 310820, "centroid_lon": -76.343079228819562, "centroid_lat": 45.951904692042767, "occurrences_today": 1, "datetimes_today": "2026-08-18 00:47:06", "cumulative_total": 407.0 }, "geometry": { "type": "Polygon", "coordinates": [ [ [ -76.342953740671206, 45.946709724140831 ], [ -76.349466055976464, 45.949231218808379 ], [ -76.349592163623242, 45.954426170509123 ], [ -76.343204751427052, 45.957099654934723 ], [ -76.336691782158368, 45.954577813763962 ], [ -76.33656687906101, 45.949382834736348 ], [ -76.342953740671206, 45.946709724140831 ] ] ] } },
{ "type": "Feature", "properties": { "hex_id": 311427, "centroid_lon": -76.335319732013275, "centroid_lat": 45.897432769062064, "occurrences_today": 1, "datetimes_today": "2026-08-18 00:47:06", "cumulative_total": 368.0 }, "geometry": { "type": "Polygon", "coordinates": [ [ [ -76.335195205445601, 45.892237734956204 ], [ -76.34170075186988, 45.894759769586216 ], [ -76.341825896069238, 45.89995478758452 ], [ -76.335444292752896, 45.902627798161141 ], [ -76.328938094519188, 45.900105417617375 ], [ -76.328814151422833, 45.89491037247614 ], [ -76.335195205445601, 45.892237734956204 ] ] ] } },
{ "type": "Feature", "properties": { "hex_id": 311430, "centroid_lon": -76.336442010251716, "centroid_lat": 45.944187850701319, "occurrences_today": 1, "datetimes_today": "2026-08-18 00:47:06", "cumulative_total": 368.0 }, "geometry": { "type": "Polygon", "coordinates": [ [ [ -76.336317175718875, 45.938992861658903 ], [ -76.342828286970303, 45.941514751228965 ], [ -76.342953740671206, 45.946709724140831 ], [ -76.33656687906101, 45.949382834736348 ], [ -76.330055114359254, 45.9468605986863 ], [ -76.329930864729675, 45.941665598586241 ], [ -76.336317175718875, 45.938992861658903 ] ] ] } },
{ "type": "Feature", "properties": { "hex_id": 312037, "centroid_lon": -76.32869024232798, "centroid_lat": 45.889715322330673, "occurrences_today": 1, "datetimes_today": "2026-08-18 00:47:06", "cumulative_total": 368.0 }, "geometry": { "type": "Polygon", "coordinates": [ [ [ -76.328566367223146, 45.88452026718096 ], [ -76.335070713038277, 45.88704269584359 ], [ -76.335195205445601, 45.892237734956204 ], [ -76.328814151422833, 45.89491037247614 ], [ -76.322309154309465, 45.892387597923012 ], [ -76.322185862528613, 45.887192531805823 ], [ -76.328566367223146, 45.88452026718096 ] ] ] } },
{ "type": "Feature", "properties": { "hex_id": 312040, "centroid_lon": -76.32980664920558, "centroid_lat": 45.936470593481353, "occurrences_today": 1, "datetimes_today": "2026-08-18 00:47:06", "cumulative_total": 368.0 }, "geometry": { "type": "Polygon", "coordinates": [ [ [ -76.329682467775413, 45.931275583371722 ], [ -76.33619237545085, 45.933797867609208 ], [ -76.336317175718875, 45.938992861658903 ], [ -76.329930864729675, 45.941665598586241 ], [ -76.323420304116681, 45.939142967892039 ], [ -76.323296707442012, 45.933947946792721 ], [ -76.329682467775413, 45.931275583371722 ] ] ] } },
{ "type": "Feature", "properties": { "hex_id": 312648, "centroid_lon": -76.322432479921446, "centroid_lat": 45.897582659038449, "occurrences_today": 1, "datetimes_today": "2026-08-18 00:47:06", "cumulative_total": 368.0 }, "geometry": { "type": "Polygon", "coordinates": [ [ [ -76.322309154309465, 45.892387597923012 ], [ -76.328814151422833, 45.89491037247614 ], [ -76.328938094519188, 45.900105417617375 ], [ -76.322555839376079, 45.902777715152119 ], [ -76.316050190929971, 45.900254594543149 ], [ -76.315927448971195, 45.895059522520683 ], [ -76.322309154309465, 45.892387597923012 ] ] ] } },
{ "type": "Feature", "properties": { "hex_id": 312650, "centroid_lon": -76.323173144690443, "centroid_lat": 45.928752920691174, "occurrences_today": 1, "datetimes_today": "2026-08-18 00:47:06", "cumulative_total": 368.0 }, "geometry": { "type": "Polygon", "coordinates": [ [ [ -76.323049615850422, 45.923557889587464 ], [ -76.32955832042758, 45.926080568257397 ], [ -76.329682467775413, 45.931275583371722 ], [ -76.323296707442012, 45.933947946792721 ], [ -76.316787350439725, 45.931424921689398 ], [ -76.316664406207451, 45.926229879663971 ], [ -76.323049615850422, 45.923557889587464 ] ] ] } },
{ "type": "Feature", "properties": { "hex_id": 313260, "centroid_lon": -76.316541495716052, "centroid_lat": 45.921034832638867, "occurrences_today": 1, "datetimes_today": "2026-08-18 00:47:06", "cumulative_total": 368.0 }, "geometry": { "type": "Polygon", "coordinates": [ [ [ -76.316418618954032, 45.915839780614178 ], [ -76.322926120910481, 45.918362853481646 ], [ -76.323049615850422, 45.923557889587464 ], [ -76.316664406207451, 45.926229879663971 ], [ -76.310156252337961, 45.923706460386455 ], [ -76.310033960035923, 45.918511397507977 ], [ -76.316418618954032, 45.915839780614178 ] ] ] } },
{ "type": "Feature", "properties": { "hex_id": 313869, "centroid_lon": -76.309545126301771, "centroid_lat": 45.897731096023662, "occurrences_today": 1, "datetimes_today": "2026-08-18 00:47:06", "cumulative_total": 368.0 }, "geometry": { "type": "Polygon", "coordinates": [ [ [ -76.309423001679875, 45.892536008160313 ], [ -76.315927448971195, 45.895059522520683 ], [ -76.316050190929971, 45.900254594543149 ], [ -76.309667284436941, 45.902926178890176 ], [ -76.303162186289768, 45.900402318331977 ], [ -76.303040645502833, 45.895207219689993 ], [ -76.309423001679875, 45.892536008160313 ] ] ] } },
{ "type": "Feature", "properties": { "hex_id": 315091, "centroid_lon": -76.297020642084007, "centroid_lat": 45.913463393084754, "occurrences_today": 1, "datetimes_today": "2026-08-18 00:47:06", "cumulative_total": 368.0 }, "geometry": { "type": "Polygon", "coordinates": [ [ [ -76.296899618900696, 45.90826829371121 ], [ -76.303405367937771, 45.910792500632617 ], [ -76.303527008821447, 45.915987584291145 ], [ -76.297141698485007, 45.918658487466175 ], [ -76.290635298524208, 45.916133934016152 ], [ -76.290514859834857, 45.910938823985184 ], [ -76.296899618900696, 45.90826829371121 ] ] ] } }
]
}
