{
"type": "FeatureCollection",
"name": "daily_2026-04-23",
"crs": { "type": "name", "properties": { "name": "urn:ogc:def:crs:OGC:1.3:CRS84" } },
"features": [
{ "type": "Feature", "properties": { "hex_id": 611765, "centroid_lon": -73.178633861821439, "centroid_lat": 45.454194283910702, "occurrences_today": 6, "datetimes_today": "2026-04-23 02:31:32, 2026-04-23 02:46:31, 2026-04-23 03:01:22, 2026-04-23 03:16:38, 2026-04-23 03:31:54, 2026-04-23 03:46:27", "cumulative_total": 47.0 }, "geometry": { "type": "Polygon", "coordinates": [ [ [ -73.178801098160037, 45.449000061181948 ], [ -73.185108643163474, 45.451698932024442 ], [ -73.184941970160907, 45.456893170470764 ], [ -73.178466579849257, 45.459388501414089 ], [ -73.17215851715099, 45.45668925867934 ], [ -73.172326362443897, 45.451495056957789 ], [ -73.178801098160037, 45.449000061181948 ] ] ] } },
{ "type": "Feature", "properties": { "hex_id": 611766, "centroid_lon": -73.178131878943091, "centroid_lat": 45.469776920744053, "occurrences_today": 6, "datetimes_today": "2026-04-23 02:31:32, 2026-04-23 02:46:31, 2026-04-23 03:01:22, 2026-04-23 03:16:38, 2026-04-23 03:31:54, 2026-04-23 03:46:27", "cumulative_total": 47.0 }, "geometry": { "type": "Polygon", "coordinates": [ [ [ -73.178299252228243, 45.464582713691925 ], [ -73.184608487696124, 45.467281631696864 ], [ -73.184441678203427, 45.472475854476343 ], [ -73.177964459978497, 45.474971122570352 ], [ -73.171654706405278, 45.472271832470454 ], [ -73.171822689147021, 45.467077646435818 ], [ -73.178299252228243, 45.464582713691925 ] ] ] } },
{ "type": "Feature", "properties": { "hex_id": 612376, "centroid_lon": -73.171990626057138, "centroid_lat": 45.461883455172057, "occurrences_today": 6, "datetimes_today": "2026-04-23 02:31:32, 2026-04-23 02:46:31, 2026-04-23 03:01:22, 2026-04-23 03:16:38, 2026-04-23 03:31:54, 2026-04-23 03:46:27", "cumulative_total": 47.0 }, "geometry": { "type": "Polygon", "coordinates": [ [ [ -73.17215851715099, 45.45668925867934 ], [ -73.178466579849257, 45.459388501414089 ], [ -73.178299252228243, 45.464582713691925 ], [ -73.171822689147021, 45.467077646435818 ], [ -73.165514108799854, 45.464378031650675 ], [ -73.165682609167462, 45.459183856236322 ], [ -73.17215851715099, 45.45668925867934 ] ] ] } },
{ "type": "Feature", "properties": { "hex_id": 602599, "centroid_lon": -73.278536004143433, "centroid_lat": 45.323222134143258, "occurrences_today": 2, "datetimes_today": "2026-04-23 07:46:37, 2026-04-23 08:01:33", "cumulative_total": 32.0 }, "geometry": { "type": "Polygon", "coordinates": [ [ [ -73.278693350554221, 45.318027511283887 ], [ -73.284991441814597, 45.320720778590122 ], [ -73.284834656231354, 45.32591541614805 ], [ -73.278378614862348, 45.328416751829607 ], [ -73.272080005651873, 45.325723115200461 ], [ -73.272237955746192, 45.320528512276681 ], [ -73.278693350554221, 45.318027511283887 ] ] ] } },
{ "type": "Feature", "properties": { "hex_id": 567199, "centroid_lon": -73.645105222858675, "centroid_lat": 45.468476743721929, "occurrences_today": 1, "datetimes_today": "2026-04-23 08:01:33", "cumulative_total": 299.0 }, "geometry": { "type": "Polygon", "coordinates": [ [ [ -73.6452296994336, 45.463281359633463 ], [ -73.651561677548742, 45.465954727716088 ], [ -73.65143777110525, 45.471150122933118 ], [ -73.644980712304474, 45.473672122797765 ], [ -73.638648198042844, 45.470998386941233 ], [ -73.63877327871711, 45.465803019058377 ], [ -73.6452296994336, 45.463281359633463 ] ] ] } },
{ "type": "Feature", "properties": { "hex_id": 496968, "centroid_lon": -74.384585140574487, "centroid_lat": 45.108466476348255, "occurrences_today": 7, "datetimes_today": "2026-04-23 03:16:38, 2026-04-23 03:31:54, 2026-04-23 03:46:27, 2026-04-23 04:01:57, 2026-04-23 04:31:46, 2026-04-23 04:46:29, 2026-04-23 05:01:29", "cumulative_total": 17.0 }, "geometry": { "type": "Polygon", "coordinates": [ [ [ -74.384640979035183, 45.103269608330315 ], [ -74.390968361498579, 45.105902111406266 ], [ -74.390913092100675, 45.11109898316171 ], [ -74.384529286932406, 45.113663339562663 ], [ -74.378201350590118, 45.111030480258322 ], [ -74.37825777328996, 45.105833620845146 ], [ -74.384640979035183, 45.103269608330315 ] ] ] } },
{ "type": "Feature", "properties": { "hex_id": 498189, "centroid_lon": -74.371873998643693, "centroid_lat": 45.108397272298149, "occurrences_today": 7, "datetimes_today": "2026-04-23 03:16:38, 2026-04-23 03:31:54, 2026-04-23 03:46:27, 2026-04-23 04:01:57, 2026-04-23 04:31:46, 2026-04-23 04:46:29, 2026-04-23 05:01:29", "cumulative_total": 17.0 }, "geometry": { "type": "Polygon", "coordinates": [ [ [ -74.371930990242021, 45.103200416748791 ], [ -74.37825777328996, 45.105833620845146 ], [ -74.378201350590118, 45.111030480258322 ], [ -74.371816991550546, 45.113594123041736 ], [ -74.365489655101541, 45.110960562594634 ], [ -74.36554723108803, 45.105763715778579 ], [ -74.371930990242021, 45.103200416748791 ] ] ] } },
{ "type": "Feature", "properties": { "hex_id": 574524, "centroid_lon": -73.568767630105185, "centroid_lat": 45.451954982982571, "occurrences_today": 3, "datetimes_today": "2026-04-23 07:31:40, 2026-04-23 07:46:37, 2026-04-23 08:01:33", "cumulative_total": 101.0 }, "geometry": { "type": "Polygon", "coordinates": [ [ [ -73.5688990428484, 45.446759752393298 ], [ -73.575225479345391, 45.449437294278752 ], [ -73.575094635205986, 45.454632536746644 ], [ -73.568636181497567, 45.457150208528731 ], [ -73.562309212267181, 45.454472298366447 ], [ -73.562441229466572, 45.449277084763267 ], [ -73.5688990428484, 45.446759752393298 ] ] ] } },
{ "type": "Feature", "properties": { "hex_id": 360860, "centroid_lon": -75.809360091906839, "centroid_lat": 45.629548551511569, "occurrences_today": 9, "datetimes_today": "2026-04-23 00:01:30, 2026-04-23 00:16:36, 2026-04-23 00:31:35, 2026-04-23 00:46:39, 2026-04-23 01:01:41, 2026-04-23 01:16:46, 2026-04-23 01:31:40, 2026-04-23 01:46:41, 2026-04-23 02:01:30", "cumulative_total": 101.0 }, "geometry": { "type": "Polygon", "coordinates": [ [ [ -75.809285311506784, 45.624352378662152 ], [ -75.81573633354634, 45.626904846765967 ], [ -75.815811716707145, 45.632101008972455 ], [ -75.809434892763676, 45.634744719518217 ], [ -75.80298324750315, 45.632191903172 ], [ -75.802909049413941, 45.626995724587289 ], [ -75.809285311506784, 45.624352378662152 ] ] ] } },
{ "type": "Feature", "properties": { "hex_id": 362081, "centroid_lon": -75.796532184715488, "centroid_lat": 45.629638717392211, "occurrences_today": 9, "datetimes_today": "2026-04-23 00:01:30, 2026-04-23 00:16:36, 2026-04-23 00:31:35, 2026-04-23 00:46:39, 2026-04-23 01:01:41, 2026-04-23 01:16:46, 2026-04-23 01:31:40, 2026-04-23 01:46:41, 2026-04-23 02:01:30", "cumulative_total": 101.0 }, "geometry": { "type": "Polygon", "coordinates": [ [ [ -75.796458589235314, 45.624442528295809 ], [ -75.802909049413941, 45.626995724587289 ], [ -75.80298324750315, 45.632191903172 ], [ -75.796605800328393, 45.634834901648844 ], [ -75.790154717404619, 45.632281356978488 ], [ -75.790081704407527, 45.627085162275037 ], [ -75.796458589235314, 45.624442528295809 ] ] ] } },
{ "type": "Feature", "properties": { "hex_id": 565978, "centroid_lon": -73.657894259614451, "centroid_lat": 45.468627750309764, "occurrences_today": 1, "datetimes_today": "2026-04-23 08:01:33", "cumulative_total": 330.0 }, "geometry": { "type": "Polygon", "coordinates": [ [ [ -73.658017562101691, 45.463432339018475 ], [ -73.664350177820751, 45.466105005022527 ], [ -73.664227445642041, 45.471300427315981 ], [ -73.657770923468206, 45.47382315659339 ], [ -73.65143777110525, 45.471150122933118 ], [ -73.651561677548742, 45.465954727716088 ], [ -73.658017562101691, 45.463432339018475 ] ] ] } },
{ "type": "Feature", "properties": { "hex_id": 567811, "centroid_lon": -73.63814753378027, "centroid_lat": 45.491779808320061, "occurrences_today": 4, "datetimes_today": "2026-04-23 07:15:25, 2026-04-23 07:31:40, 2026-04-23 07:46:37, 2026-04-23 08:01:33", "cumulative_total": 179.0 }, "geometry": { "type": "Polygon", "coordinates": [ [ [ -73.638272751103656, 45.486584460498399 ], [ -73.644606976652412, 45.489258229948611 ], [ -73.644482330067206, 45.494453588973101 ], [ -73.63802228226595, 45.496975151126236 ], [ -73.631687520175689, 45.494301013542234 ], [ -73.63181334241672, 45.489105682003341 ], [ -73.638272751103656, 45.486584460498399 ] ] ] } },
{ "type": "Feature", "properties": { "hex_id": 573917, "centroid_lon": -73.573784227759532, "centroid_lat": 45.506584684182052, "occurrences_today": 3, "datetimes_today": "2026-04-23 06:31:33, 2026-04-23 06:46:33, 2026-04-23 07:01:31", "cumulative_total": 330.0 }, "geometry": { "type": "Polygon", "coordinates": [ [ [ -73.573915429542865, 45.501389492123373 ], [ -73.580248164980915, 45.504066807800697 ], [ -73.580117533509494, 45.509262011701921 ], [ -73.573652990145789, 45.511779871199337 ], [ -73.567319720232248, 45.509102186600096 ], [ -73.567451528145881, 45.503907011489844 ], [ -73.573915429542865, 45.501389492123373 ] ] ] } },
{ "type": "Feature", "properties": { "hex_id": 559266, "centroid_lon": -73.727006946835758, "centroid_lat": 45.5239857381723, "occurrences_today": 3, "datetimes_today": "2026-04-23 07:31:40, 2026-04-23 07:46:37, 2026-04-23 08:01:33", "cumulative_total": 110.0 }, "geometry": { "type": "Polygon", "coordinates": [ [ [ -73.727124126699962, 45.518790234179157 ], [ -73.733466247120404, 45.521459144519056 ], [ -73.733349640164533, 45.526654658842851 ], [ -73.72688973496173, 45.529181237183487 ], [ -73.720547073648163, 45.526511959135199 ], [ -73.720664858419767, 45.521316470519224 ], [ -73.727124126699962, 45.518790234179157 ] ] ] } },
{ "type": "Feature", "properties": { "hex_id": 584904, "centroid_lon": -73.459463813222143, "centroid_lat": 45.473918734486077, "occurrences_today": 8, "datetimes_today": "2026-04-23 03:16:38, 2026-04-23 03:31:54, 2026-04-23 03:46:27, 2026-04-23 04:01:57, 2026-04-23 04:31:46, 2026-04-23 04:46:29, 2026-04-23 05:01:29, 2026-04-23 05:16:45", "cumulative_total": 83.0 }, "geometry": { "type": "Polygon", "coordinates": [ [ [ -73.459605368003835, 45.468723781429858 ], [ -73.465928900278342, 45.471407332859087 ], [ -73.465787913273672, 45.476602298877602 ], [ -73.459322219799901, 45.479113682452365 ], [ -73.452998158395417, 45.476429761454455 ], [ -73.453140319581721, 45.471234826514873 ], [ -73.459605368003835, 45.468723781429858 ] ] ] } },
{ "type": "Feature", "properties": { "hex_id": 235113, "centroid_lon": -77.139632068116853, "centroid_lat": 45.861815070913835, "occurrences_today": 11, "datetimes_today": "2026-04-23 00:01:30, 2026-04-23 00:16:36, 2026-04-23 00:31:35, 2026-04-23 00:46:39, 2026-04-23 01:01:41, 2026-04-23 01:16:46, 2026-04-23 01:31:40, 2026-04-23 01:46:41, 2026-04-23 02:01:30, 2026-04-23 02:31:32, 2026-04-23 02:46:31", "cumulative_total": 138.0 }, "geometry": { "type": "Polygon", "coordinates": [ [ [ -77.13943281034787, 45.856622219343912 ], [ -77.145968851515306, 45.859097895356896 ], [ -77.146168734992884, 45.86429072246726 ], [ -77.139831380517592, 45.86700791706987 ], [ -77.133294659000555, 45.864531904502869 ], [ -77.133095972326899, 45.859339033952402 ], [ -77.13943281034787, 45.856622219343912 ] ] ] } },
{ "type": "Feature", "properties": { "hex_id": 235723, "centroid_lon": -77.132897340112052, "centroid_lat": 45.85414615799214, "occurrences_today": 11, "datetimes_today": "2026-04-23 00:01:30, 2026-04-23 00:16:36, 2026-04-23 00:31:35, 2026-04-23 00:46:39, 2026-04-23 01:01:41, 2026-04-23 01:16:46, 2026-04-23 01:31:40, 2026-04-23 01:46:41, 2026-04-23 02:01:30, 2026-04-23 02:31:32, 2026-04-23 02:46:31", "cumulative_total": 134.0 }, "geometry": { "type": "Polygon", "coordinates": [ [ [ -77.132698762337583, 45.848953276622311 ], [ -77.139233607192182, 45.8514293623603 ], [ -77.13943281034787, 45.856622219343912 ], [ -77.133095972326899, 45.859339033952402 ], [ -77.126560447641467, 45.856862611677734 ], [ -77.12636244082627, 45.851669711396362 ], [ -77.132698762337583, 45.848953276622311 ] ] ] } },
{ "type": "Feature", "properties": { "hex_id": 573915, "centroid_lon": -73.574570901423954, "centroid_lat": 45.47541345621201, "occurrences_today": 1, "datetimes_today": "2026-04-23 00:01:30", "cumulative_total": 88.0 }, "geometry": { "type": "Polygon", "coordinates": [ [ [ -73.574701888477065, 45.47021823390677 ], [ -73.581031205285313, 45.472895478582913 ], [ -73.580900787618177, 45.478090712715264 ], [ -73.574439878612466, 45.480608673476389 ], [ -73.568110028182602, 45.477931060280547 ], [ -73.56824162036807, 45.472735854907697 ], [ -73.574701888477065, 45.47021823390677 ] ] ] } },
{ "type": "Feature", "properties": { "hex_id": 574526, "centroid_lon": -73.567978400072576, "centroid_lat": 45.483126260609851, "occurrences_today": 1, "datetimes_today": "2026-04-23 00:01:30", "cumulative_total": 107.0 }, "geometry": { "type": "Polygon", "coordinates": [ [ [ -73.568110028182602, 45.477931060280547 ], [ -73.574439878612466, 45.480608673476389 ], [ -73.574308820030609, 45.485803885699788 ], [ -73.567846736025942, 45.488321455895523 ], [ -73.561516352010528, 45.485643474020932 ], [ -73.561648585573295, 45.480448290693793 ], [ -73.568110028182602, 45.477931060280547 ] ] ] } },
{ "type": "Feature", "properties": { "hex_id": 575136, "centroid_lon": -73.561780783045265, "centroid_lat": 45.475253102320423, "occurrences_today": 1, "datetimes_today": "2026-04-23 00:01:30", "cumulative_total": 122.0 }, "geometry": { "type": "Polygon", "coordinates": [ [ [ -73.561912944438561, 45.470057908900927 ], [ -73.56824162036807, 45.472735854907697 ], [ -73.568110028182602, 45.477931060280547 ], [ -73.561648585573295, 45.480448290693793 ], [ -73.5553193765207, 45.477769976050325 ], [ -73.55545214318839, 45.472574799694726 ], [ -73.561912944438561, 45.470057908900927 ] ] ] } },
{ "type": "Feature", "properties": { "hex_id": 575747, "centroid_lon": -73.555186573608097, "centroid_lat": 45.482965147357099, "occurrences_today": 1, "datetimes_today": "2026-04-23 00:01:30", "cumulative_total": 146.0 }, "geometry": { "type": "Polygon", "coordinates": [ [ [ -73.5553193765207, 45.477769976050325 ], [ -73.561648585573295, 45.480448290693793 ], [ -73.561516352010528, 45.485643474020932 ], [ -73.555053734438417, 45.488160313614948 ], [ -73.548723992299131, 45.485481630175762 ], [ -73.548857400806483, 45.480286476002711 ], [ -73.5553193765207, 45.477769976050325 ] ] ] } },
{ "type": "Feature", "properties": { "hex_id": 548884, "centroid_lon": -73.836950939536777, "centroid_lat": 45.470591522483389, "occurrences_today": 1, "datetimes_today": "2026-04-23 08:01:33", "cumulative_total": 219.0 }, "geometry": { "type": "Polygon", "coordinates": [ [ [ -73.837057801389378, 45.46539575741847 ], [ -73.84339929482168, 45.468058579297598 ], [ -73.843293005740662, 45.473254353592175 ], [ -73.836844048510457, 45.475787282605104 ], [ -73.830502011485208, 45.473124094729002 ], [ -73.830609475273349, 45.467928343901399 ], [ -73.837057801389378, 45.46539575741847 ] ] ] } },
{ "type": "Feature", "properties": { "hex_id": 578197, "centroid_lon": -73.526348492240032, "centroid_lat": 45.607319806430944, "occurrences_today": 1, "datetimes_today": "2026-04-23 08:01:33", "cumulative_total": 62.0 }, "geometry": { "type": "Polygon", "coordinates": [ [ [ -73.526484533626203, 45.602124815399776 ], [ -73.532826156984257, 45.604804827785372 ], [ -73.532690688302154, 45.609999831153267 ], [ -73.526212413657291, 45.612514792400226 ], [ -73.519870254797993, 45.609834409371629 ], [ -73.520006906072283, 45.60463943580379 ], [ -73.526484533626203, 45.602124815399776 ] ] ] } },
{ "type": "Feature", "properties": { "hex_id": 578807, "centroid_lon": -73.520143519994775, "centroid_lat": 45.599444457171415, "occurrences_today": 1, "datetimes_today": "2026-04-23 08:01:33", "cumulative_total": 119.0 }, "geometry": { "type": "Polygon", "coordinates": [ [ [ -73.520280096578034, 45.594249473474562 ], [ -73.526620537828308, 45.596929819306851 ], [ -73.526484533626203, 45.602124815399776 ], [ -73.520006906072283, 45.60463943580379 ], [ -73.513665929786356, 45.601958719371005 ], [ -73.51380311607744, 45.59676375319939 ], [ -73.520280096578034, 45.594249473474562 ] ] ] } },
{ "type": "Feature", "properties": { "hex_id": 389612, "centroid_lon": -75.516329196398914, "centroid_lat": 46.543195849179007, "occurrences_today": 6, "datetimes_today": "2026-04-23 00:01:30, 2026-04-23 00:16:36, 2026-04-23 00:31:35, 2026-04-23 00:46:39, 2026-04-23 01:01:41, 2026-04-23 01:16:46", "cumulative_total": 20.0 }, "geometry": { "type": "Polygon", "coordinates": [ [ [ -75.516279945011149, 46.53800020265875 ], [ -75.522825349679053, 46.540568408695663 ], [ -75.522875229930108, 46.545764047481555 ], [ -75.516378461417403, 46.548391490918149 ], [ -75.50983241425314, 46.545822922050206 ], [ -75.509783778102658, 46.540627272643768 ], [ -75.516279945011149, 46.53800020265875 ] ] ] } },
{ "type": "Feature", "properties": { "hex_id": 390833, "centroid_lon": -75.503286982498295, "centroid_lat": 46.543253974981376, "occurrences_today": 6, "datetimes_today": "2026-04-23 00:01:30, 2026-04-23 00:16:36, 2026-04-23 00:31:35, 2026-04-23 00:46:39, 2026-04-23 01:01:41, 2026-04-23 01:16:46", "cumulative_total": 29.0 }, "geometry": { "type": "Polygon", "coordinates": [ [ [ -75.503238975045988, 46.538058317975675 ], [ -75.509783778102658, 46.540627272643768 ], [ -75.50983241425314, 46.545822922050206 ], [ -75.503335003237069, 46.548449627207923 ], [ -75.496789558193441, 46.545880309570229 ], [ -75.496742166157432, 46.540684649811482 ], [ -75.503238975045988, 46.538058317975675 ] ] ] } },
{ "type": "Feature", "properties": { "hex_id": 560469, "centroid_lon": -73.720550339407524, "centroid_lat": 45.243279379435194, "occurrences_today": 9, "datetimes_today": "2026-04-23 04:31:46, 2026-04-23 04:46:29, 2026-04-23 05:01:29, 2026-04-23 05:16:45, 2026-04-23 05:31:23, 2026-04-23 05:46:26, 2026-04-23 05:58:17, 2026-04-23 06:16:28, 2026-04-23 06:31:33", "cumulative_total": 19.0 }, "geometry": { "type": "Polygon", "coordinates": [ [ [ -73.720666967000412, 45.238083632097776 ], [ -73.726977752276014, 45.240752685369813 ], [ -73.726861689102051, 45.245948443040113 ], [ -73.72043368006203, 45.248475121789646 ], [ -73.714122362125423, 45.245805704284507 ], [ -73.714239585879241, 45.240609972326865 ], [ -73.720666967000412, 45.238083632097776 ] ] ] } },
{ "type": "Feature", "properties": { "hex_id": 465292, "centroid_lon": -74.709499616290415, "centroid_lat": 46.201055318302757, "occurrences_today": 18, "datetimes_today": "2026-04-23 03:31:54, 2026-04-23 03:46:27, 2026-04-23 04:01:57, 2026-04-23 04:31:46, 2026-04-23 04:46:29, 2026-04-23 05:01:29, 2026-04-23 05:16:45, 2026-04-23 05:31:23, 2026-04-23 05:46:26, 2026-04-23 05:58:17, 2026-04-23 06:16:28, 2026-04-23 06:31:33, 2026-04-23 06:46:33, 2026-04-23 07:01:31, 2026-04-23 07:15:25, 2026-04-23 07:31:40, 2026-04-23 07:46:37, 2026-04-23 08:01:33", "cumulative_total": 437.0 }, "geometry": { "type": "Polygon", "coordinates": [ [ [ -74.709526997883827, 46.195859215087644 ], [ -74.715993687774045, 46.198473549977336 ], [ -74.715966913320187, 46.203669653750403 ], [ -74.709472227152276, 46.206251416761035 ], [ -74.703004937668524, 46.203636715101212 ], [ -74.703032933943632, 46.198440617267117 ], [ -74.709526997883827, 46.195859215087644 ] ] ] } },
{ "type": "Feature", "properties": { "hex_id": 737524, "centroid_lon": -71.866345733381678, "centroid_lat": 45.363348217266108, "occurrences_today": 4, "datetimes_today": "2026-04-23 07:15:25, 2026-04-23 07:31:40, 2026-04-23 07:46:37, 2026-04-23 08:01:33", "cumulative_total": 122.0 }, "geometry": { "type": "Polygon", "coordinates": [ [ [ -71.866632459256138, 45.358159064761281 ], [ -71.872863709565792, 45.360928518709073 ], [ -71.872577525710128, 45.366117699605894 ], [ -71.86605892943102, 45.368537363616504 ], [ -71.8598272151918, 45.365767527510243 ], [ -71.860114561135205, 45.360578409615435 ], [ -71.866632459256138, 45.358159064761281 ] ] ] } },
{ "type": "Feature", "properties": { "hex_id": 625859, "centroid_lon": -73.002551556780475, "centroid_lat": 46.269709524984201, "occurrences_today": 2, "datetimes_today": "2026-04-23 07:46:37, 2026-04-23 08:01:33", "cumulative_total": 25.0 }, "geometry": { "type": "Polygon", "coordinates": [ [ [ -73.002740243726876, 46.264516579384214 ], [ -73.009130524205389, 46.267226196182101 ], [ -73.008942422946234, 46.272419159508921 ], [ -73.00236281782847, 46.274902465250534 ], [ -72.995972003677224, 46.272192464426503 ], [ -72.996161328298655, 46.266999541953126 ], [ -73.002740243726876, 46.264516579384214 ] ] ] } },
{ "type": "Feature", "properties": { "hex_id": 879825, "centroid_lon": -70.312360178905337, "centroid_lat": 46.159772537819798, "occurrences_today": 31, "datetimes_today": "2026-04-23 00:01:30, 2026-04-23 00:16:36, 2026-04-23 00:31:35, 2026-04-23 00:46:39, 2026-04-23 01:01:41, 2026-04-23 01:16:46, 2026-04-23 01:31:40, 2026-04-23 01:46:41, 2026-04-23 02:01:30, 2026-04-23 02:31:32, 2026-04-23 02:46:31, 2026-04-23 03:01:22, 2026-04-23 03:16:38, 2026-04-23 03:31:54, 2026-04-23 03:46:27, 2026-04-23 04:01:57, 2026-04-23 04:31:46, 2026-04-23 04:46:29, 2026-04-23 05:01:29, 2026-04-23 05:16:45, 2026-04-23 05:31:23, 2026-04-23 05:46:26, 2026-04-23 05:58:17, 2026-04-23 06:16:28, 2026-04-23 06:31:33, 2026-04-23 06:46:33, 2026-04-23 07:01:31, 2026-04-23 07:15:25, 2026-04-23 07:31:40, 2026-04-23 07:46:37, 2026-04-23 08:01:33", "cumulative_total": 72.0 }, "geometry": { "type": "Polygon", "coordinates": [ [ [ -70.312800896778114, 46.154593736422491 ], [ -70.319034519636986, 46.157448189483326 ], [ -70.318594342765422, 46.162627034530018 ], [ -70.311919340066197, 46.164951331242378 ], [ -70.305685297193023, 46.162096473250529 ], [ -70.30612667699225, 46.156917723541873 ], [ -70.312800896778114, 46.154593736422491 ] ] ] } },
{ "type": "Feature", "properties": { "hex_id": 794498, "centroid_lon": -71.054460706271584, "centroid_lat": 48.416996078023246, "occurrences_today": 4, "datetimes_today": "2026-04-23 07:15:25, 2026-04-23 07:31:40, 2026-04-23 07:46:37, 2026-04-23 08:01:33", "cumulative_total": 26.0 }, "geometry": { "type": "Polygon", "coordinates": [ [ [ -71.054862248599335, 48.411814251256388 ], [ -71.061402609622576, 48.414636465988309 ], [ -71.061001692224778, 48.419818331021133 ], [ -71.05405905009188, 48.422177897598225 ], [ -71.047518178011231, 48.419355252230268 ], [ -71.04792045907972, 48.414173470991962 ], [ -71.054862248599335, 48.411814251256388 ] ] ] } },
{ "type": "Feature", "properties": { "hex_id": 546451, "centroid_lon": -73.85969926736918, "centroid_lat": 45.611134197377773, "occurrences_today": 3, "datetimes_today": "2026-04-23 00:01:30, 2026-04-23 00:16:36, 2026-04-23 00:31:35", "cumulative_total": 121.0 }, "geometry": { "type": "Polygon", "coordinates": [ [ [ -73.859804553825654, 45.605938519153966 ], [ -73.866162837056066, 45.608600175530285 ], [ -73.866058127937151, 45.613795862786063 ], [ -73.859593952120008, 45.616329870665574 ], [ -73.853235120349567, 45.613667846730195 ], [ -73.853341012926606, 45.608472182539124 ], [ -73.859804553825654, 45.605938519153966 ] ] ] } },
{ "type": "Feature", "properties": { "hex_id": 707052, "centroid_lon": -72.143283936209528, "centroid_lat": 46.196895343739179, "occurrences_today": 31, "datetimes_today": "2026-04-23 00:01:30, 2026-04-23 00:16:36, 2026-04-23 00:31:35, 2026-04-23 00:46:39, 2026-04-23 01:01:41, 2026-04-23 01:16:46, 2026-04-23 01:31:40, 2026-04-23 01:46:41, 2026-04-23 02:01:30, 2026-04-23 02:31:32, 2026-04-23 02:46:31, 2026-04-23 03:01:22, 2026-04-23 03:16:38, 2026-04-23 03:31:54, 2026-04-23 03:46:27, 2026-04-23 04:01:57, 2026-04-23 04:31:46, 2026-04-23 04:46:29, 2026-04-23 05:01:29, 2026-04-23 05:16:45, 2026-04-23 05:31:23, 2026-04-23 05:46:26, 2026-04-23 05:58:17, 2026-04-23 06:16:28, 2026-04-23 06:31:33, 2026-04-23 06:46:33, 2026-04-23 07:01:31, 2026-04-23 07:15:25, 2026-04-23 07:31:40, 2026-04-23 07:46:37, 2026-04-23 08:01:33", "cumulative_total": 226.0 }, "geometry": { "type": "Polygon", "coordinates": [ [ [ -72.143553051817136, 46.191705636543475 ], [ -72.149890438352287, 46.194462157165582 ], [ -72.149621893501873, 46.199651890506033 ], [ -72.143014746545063, 46.202085044987591 ], [ -72.136676863322194, 46.199328133690486 ], [ -72.136946623718586, 46.194138458652468 ], [ -72.143553051817136, 46.191705636543475 ] ] ] } },
{ "type": "Feature", "properties": { "hex_id": 689968, "centroid_lon": -72.316932002611779, "centroid_lat": 46.356996264730512, "occurrences_today": 12, "datetimes_today": "2026-04-23 04:31:46, 2026-04-23 04:46:29, 2026-04-23 05:01:29, 2026-04-23 05:16:45, 2026-04-23 05:31:23, 2026-04-23 05:46:26, 2026-04-23 05:58:17, 2026-04-23 07:01:31, 2026-04-23 07:15:25, 2026-04-23 07:31:40, 2026-04-23 07:46:37, 2026-04-23 08:01:33", "cumulative_total": 46.0 }, "geometry": { "type": "Polygon", "coordinates": [ [ [ -72.31718618759777, 46.351805941298423 ], [ -72.323550864839419, 46.354553340665966 ], [ -72.323297258133849, 46.359743688623169 ], [ -72.316677747523073, 46.362186582352408 ], [ -72.31031256211574, 46.35943879169416 ], [ -72.310567395460808, 46.354248498663466 ], [ -72.31718618759777, 46.351805941298423 ] ] ] } },
{ "type": "Feature", "properties": { "hex_id": 504318, "centroid_lon": -74.303755303016331, "centroid_lat": 45.482186206928468, "occurrences_today": 7, "datetimes_today": "2026-04-23 00:01:30, 2026-04-23 00:16:36, 2026-04-23 00:31:35, 2026-04-23 00:46:39, 2026-04-23 01:01:41, 2026-04-23 01:16:46, 2026-04-23 01:31:40", "cumulative_total": 81.0 }, "geometry": { "type": "Polygon", "coordinates": [ [ [ -74.303819303181257, 45.476989764448078 ], [ -74.310184380020857, 45.47962679845908 ], [ -74.310120959142751, 45.484823245524744 ], [ -74.303691285374342, 45.487382644590433 ], [ -74.297325646727884, 45.484745248910819 ], [ -74.297390243650852, 45.479548815898667 ], [ -74.303819303181257, 45.476989764448078 ] ] ] } },
{ "type": "Feature", "properties": { "hex_id": 608745, "centroid_lon": -73.194353993252918, "centroid_lat": 45.961120102975372, "occurrences_today": 9, "datetimes_today": "2026-04-23 00:01:30, 2026-04-23 03:01:22, 2026-04-23 03:16:38, 2026-04-23 03:31:54, 2026-04-23 03:46:27, 2026-04-23 04:01:57, 2026-04-23 04:31:46, 2026-04-23 04:46:29, 2026-04-23 05:01:29", "cumulative_total": 113.0 }, "geometry": { "type": "Polygon", "coordinates": [ [ [ -73.194522742280753, 45.955926297795877 ], [ -73.200887615217695, 45.958624944151737 ], [ -73.200719445064024, 45.963818765053816 ], [ -73.194185197891414, 45.966313902931887 ], [ -73.18781979242182, 45.963614878324748 ], [ -73.187989166641771, 45.958421094156243 ], [ -73.194522742280753, 45.955926297795877 ] ] ] } },
{ "type": "Feature", "properties": { "hex_id": 608134, "centroid_lon": -73.201055739210602, "centroid_lat": 45.953431118030146, "occurrences_today": 9, "datetimes_today": "2026-04-23 00:01:30, 2026-04-23 03:01:22, 2026-04-23 03:16:38, 2026-04-23 03:31:54, 2026-04-23 03:46:27, 2026-04-23 04:01:57, 2026-04-23 04:31:46, 2026-04-23 04:46:29, 2026-04-23 05:01:29", "cumulative_total": 26.0 }, "geometry": { "type": "Polygon", "coordinates": [ [ [ -73.201223817058406, 45.948237286689199 ], [ -73.2075881574156, 45.950935554954803 ], [ -73.207420658300478, 45.956129401949561 ], [ -73.200887615217695, 45.958624944151737 ], [ -73.194522742280753, 45.955926297795877 ], [ -73.194691444990667, 45.95073248739353 ], [ -73.201223817058406, 45.948237286689199 ] ] ] } },
{ "type": "Feature", "properties": { "hex_id": 609355, "centroid_lon": -73.188158494370896, "centroid_lat": 45.95322730476142, "occurrences_today": 9, "datetimes_today": "2026-04-23 00:01:30, 2026-04-23 03:01:22, 2026-04-23 03:16:38, 2026-04-23 03:31:54, 2026-04-23 03:46:27, 2026-04-23 04:01:57, 2026-04-23 04:31:46, 2026-04-23 04:46:29, 2026-04-23 05:01:29", "cumulative_total": 26.0 }, "geometry": { "type": "Polygon", "coordinates": [ [ [ -73.188327775624984, 45.948033510140441 ], [ -73.194691444990667, 45.95073248739353 ], [ -73.194522742280753, 45.955926297795877 ], [ -73.187989166641771, 45.958421094156243 ], [ -73.181624965214837, 45.955721738697264 ], [ -73.181794871472363, 45.95052796514922 ], [ -73.188327775624984, 45.948033510140441 ] ] ] } },
{ "type": "Feature", "properties": { "hex_id": 609356, "centroid_lon": -73.18765037169527, "centroid_lat": 45.968808657266798, "occurrences_today": 9, "datetimes_today": "2026-04-23 00:01:30, 2026-04-23 03:01:22, 2026-04-23 03:16:38, 2026-04-23 03:31:54, 2026-04-23 03:46:27, 2026-04-23 04:01:57, 2026-04-23 04:31:46, 2026-04-23 04:46:29, 2026-04-23 05:01:29", "cumulative_total": 26.0 }, "geometry": { "type": "Polygon", "coordinates": [ [ [ -73.18781979242182, 45.963614878324748 ], [ -73.194185197891414, 45.966313902931887 ], [ -73.194016356180498, 45.971507697665295 ], [ -73.187480904446303, 45.974002430982232 ], [ -73.181114966491378, 45.971303027962826 ], [ -73.18128501274019, 45.966109270104212 ], [ -73.18781979242182, 45.963614878324748 ] ] ] } },
{ "type": "Feature", "properties": { "hex_id": 609966, "centroid_lon": -73.181455012309385, "centroid_lat": 45.960915507015649, "occurrences_today": 9, "datetimes_today": "2026-04-23 00:01:30, 2026-04-23 03:01:22, 2026-04-23 03:16:38, 2026-04-23 03:31:54, 2026-04-23 03:46:27, 2026-04-23 04:01:57, 2026-04-23 04:31:46, 2026-04-23 04:46:29, 2026-04-23 05:01:29", "cumulative_total": 26.0 }, "geometry": { "type": "Polygon", "coordinates": [ [ [ -73.181624965214837, 45.955721738697264 ], [ -73.187989166641771, 45.958421094156243 ], [ -73.18781979242182, 45.963614878324748 ], [ -73.18128501274019, 45.966109270104212 ], [ -73.174920279299428, 45.963409536278363 ], [ -73.175090857538308, 45.958215789105353 ], [ -73.181624965214837, 45.955721738697264 ] ] ] } },
{ "type": "Feature", "properties": { "hex_id": 609967, "centroid_lon": -73.180944873547105, "centroid_lat": 45.976496780591347, "occurrences_today": 9, "datetimes_today": "2026-04-23 00:01:30, 2026-04-23 03:01:22, 2026-04-23 03:16:38, 2026-04-23 03:31:54, 2026-04-23 03:46:27, 2026-04-23 04:01:57, 2026-04-23 04:31:46, 2026-04-23 04:46:29, 2026-04-23 05:01:29", "cumulative_total": 26.0 }, "geometry": { "type": "Polygon", "coordinates": [ [ [ -73.181114966491378, 45.971303027962826 ], [ -73.187480904446303, 45.974002430982232 ], [ -73.187311390659147, 45.979196199470941 ], [ -73.180774733891511, 45.981690527989628 ], [ -73.174408263498719, 45.978990746396903 ], [ -73.174578982295543, 45.97379701492428 ], [ -73.181114966491378, 45.971303027962826 ] ] ] } },
{ "type": "Feature", "properties": { "hex_id": 533037, "centroid_lon": -73.996011508985362, "centroid_lat": 45.877440427227782, "occurrences_today": 17, "datetimes_today": "2026-04-23 00:01:30, 2026-04-23 00:16:36, 2026-04-23 00:31:35, 2026-04-23 00:46:39, 2026-04-23 01:01:41, 2026-04-23 01:16:46, 2026-04-23 01:31:40, 2026-04-23 01:46:41, 2026-04-23 02:01:30, 2026-04-23 02:31:32, 2026-04-23 02:46:31, 2026-04-23 03:01:22, 2026-04-23 03:16:38, 2026-04-23 03:31:54, 2026-04-23 03:46:27, 2026-04-23 04:01:57, 2026-04-23 04:31:46", "cumulative_total": 67.0 }, "geometry": { "type": "Polygon", "coordinates": [ [ [ -73.996105075356681, 45.872244760542749 ], [ -74.00250005599861, 45.874899013211348 ], [ -74.002407076996633, 45.880094687618801 ], [ -73.99591791694138, 45.882636089019094 ], [ -73.98952237460712, 45.879981466703491 ], [ -73.989616554011718, 45.874785812700033 ], [ -73.996105075356681, 45.872244760542749 ] ] ] } },
{ "type": "Feature", "properties": { "hex_id": 532427, "centroid_lon": -74.00231407248225, "centroid_lat": 45.885290357134416, "occurrences_today": 17, "datetimes_today": "2026-04-23 00:01:30, 2026-04-23 00:16:36, 2026-04-23 00:31:35, 2026-04-23 00:46:39, 2026-04-23 01:01:41, 2026-04-23 01:16:46, 2026-04-23 01:31:40, 2026-04-23 01:46:41, 2026-04-23 02:01:30, 2026-04-23 02:31:32, 2026-04-23 02:46:31, 2026-04-23 03:01:22, 2026-04-23 03:16:38, 2026-04-23 03:31:54, 2026-04-23 03:46:27, 2026-04-23 04:01:57, 2026-04-23 04:31:46", "cumulative_total": 56.0 }, "geometry": { "type": "Polygon", "coordinates": [ [ [ -74.002407076996633, 45.880094687618801 ], [ -74.008803258054186, 45.882748593773563 ], [ -74.008710841238383, 45.887944270949902 ], [ -74.002221042446834, 45.890486021758164 ], [ -73.995824299216068, 45.887831745916657 ], [ -73.99591791694138, 45.882636089019094 ], [ -74.002407076996633, 45.880094687618801 ] ] ] } },
{ "type": "Feature", "properties": { "hex_id": 601378, "centroid_lon": -73.291290136614407, "centroid_lat": 45.323413705997048, "occurrences_today": 2, "datetimes_today": "2026-04-23 07:46:37, 2026-04-23 08:01:33", "cumulative_total": 6.0 }, "geometry": { "type": "Polygon", "coordinates": [ [ [ -73.291446318651111, 45.318219048634738 ], [ -73.297745055997268, 45.320911621470337 ], [ -73.297589434967861, 45.32610629340622 ], [ -73.291133912024264, 45.328608358192575 ], [ -73.284834656231354, 45.32591541614805 ], [ -73.284991441814597, 45.320720778590122 ], [ -73.291446318651111, 45.318219048634738 ] ] ] } },
{ "type": "Feature", "properties": { "hex_id": 442861, "centroid_lon": -74.94687336350637, "centroid_lat": 48.656072700469437, "occurrences_today": 2, "datetimes_today": "2026-04-23 07:46:37, 2026-04-23 08:01:33", "cumulative_total": 22.0 }, "geometry": { "type": "Polygon", "coordinates": [ [ [ -74.946878820141194, 48.650878767262761 ], [ -74.953665086484889, 48.653478665350562 ], [ -74.953660326503851, 48.658672596735613 ], [ -74.946867905315031, 48.661266628968399 ], [ -74.940080943874349, 48.658666333684657 ], [ -74.940087098718905, 48.653472403436766 ], [ -74.946878820141194, 48.650878767262761 ] ] ] } },
{ "type": "Feature", "properties": { "hex_id": 533648, "centroid_lon": -73.989428169360906, "centroid_lat": 45.885177115811345, "occurrences_today": 17, "datetimes_today": "2026-04-23 00:01:30, 2026-04-23 00:16:36, 2026-04-23 00:31:35, 2026-04-23 00:46:39, 2026-04-23 01:01:41, 2026-04-23 01:16:46, 2026-04-23 01:31:40, 2026-04-23 01:46:41, 2026-04-23 02:01:30, 2026-04-23 02:31:32, 2026-04-23 02:46:31, 2026-04-23 03:01:22, 2026-04-23 03:16:38, 2026-04-23 03:31:54, 2026-04-23 03:46:27, 2026-04-23 04:01:57, 2026-04-23 04:31:46", "cumulative_total": 28.0 }, "geometry": { "type": "Polygon", "coordinates": [ [ [ -73.98952237460712, 45.879981466703491 ], [ -73.99591791694138, 45.882636089019094 ], [ -73.995824299216068, 45.887831745916657 ], [ -73.989333938264309, 45.890372760023531 ], [ -73.982937834263922, 45.887717767898806 ], [ -73.983032652872652, 45.882522131541783 ], [ -73.98952237460712, 45.879981466703491 ] ] ] } }
]
}
