{
"type": "FeatureCollection",
"name": "daily_2026-01-28",
"crs": { "type": "name", "properties": { "name": "urn:ogc:def:crs:OGC:1.3:CRS84" } },
"features": [
{ "type": "Feature", "properties": { "hex_id": 779742, "centroid_lon": -71.331345151533398, "centroid_lat": 46.805066242518869, "occurrences_today": 2, "datetimes_today": "2026-01-28 08:56:59, 2026-01-28 09:01:59", "cumulative_total": 18.0 }, "geometry": { "type": "Polygon", "coordinates": [ [ [ -71.331698073722677, 46.799881285340206 ], [ -71.3380608393811, 46.802683454074078 ], [ -71.337708494038765, 46.807868445646804 ], [ -71.330992131526642, 46.810251192933478 ], [ -71.32462888685572, 46.807448618542857 ], [ -71.324982483675527, 46.802263702589023 ], [ -71.331698073722677, 46.799881285340206 ] ] ] } },
{ "type": "Feature", "properties": { "hex_id": 544608, "centroid_lon": -73.882487840480138, "centroid_lat": 45.432069654746797, "occurrences_today": 14, "datetimes_today": "2026-01-28 00:01:47, 2026-01-28 00:16:48, 2026-01-28 00:31:36, 2026-01-28 00:45:44, 2026-01-28 00:46:58, 2026-01-28 01:01:43, 2026-01-28 01:16:42, 2026-01-28 01:31:59, 2026-01-28 01:46:50, 2026-01-28 01:55:29, 2026-01-28 02:01:50, 2026-01-28 02:16:51, 2026-01-28 02:31:56, 2026-01-28 02:38:59", "cumulative_total": 114.0 }, "geometry": { "type": "Polygon", "coordinates": [ [ [ -73.882590381150791, 45.426873772171788 ], [ -73.888929784344825, 45.429534062835351 ], [ -73.888827815891531, 45.43472995418086 ], [ -73.882385271827928, 45.437265532393624 ], [ -73.876045324402753, 45.434604876649693 ], [ -73.876148465262958, 45.429409007837727 ], [ -73.882590381150791, 45.426873772171788 ] ] ] } },
{ "type": "Feature", "properties": { "hex_id": 545219, "centroid_lon": -73.87594215539643, "centroid_lat": 45.439800740531361, "occurrences_today": 2, "datetimes_today": "2026-01-28 08:56:59, 2026-01-28 09:01:59", "cumulative_total": 38.0 }, "geometry": { "type": "Polygon", "coordinates": [ [ [ -73.876045324402753, 45.434604876649693 ], [ -73.882385271827928, 45.437265532393624 ], [ -73.882282675184783, 45.442461405112205 ], [ -73.875838958234525, 45.444996599482728 ], [ -73.869498466606458, 45.442335578499005 ], [ -73.869602236122105, 45.437139728448948 ], [ -73.876045324402753, 45.434604876649693 ] ] ] } },
{ "type": "Feature", "properties": { "hex_id": 545829, "centroid_lon": -73.869705977327015, "centroid_lat": 45.431943873466508, "occurrences_today": 2, "datetimes_today": "2026-01-28 08:56:59, 2026-01-28 09:01:59", "cumulative_total": 38.0 }, "geometry": { "type": "Polygon", "coordinates": [ [ [ -73.869809690230639, 45.426748013551759 ], [ -73.876148465262958, 45.429409007837727 ], [ -73.876045324402753, 45.434604876649693 ], [ -73.869602236122105, 45.437139728448948 ], [ -73.863262917352372, 45.434478368963127 ], [ -73.863367230591223, 45.42928252294228 ], [ -73.869809690230639, 45.426748013551759 ] ] ] } },
{ "type": "Feature", "properties": { "hex_id": 546440, "centroid_lon": -73.863158575647631, "centroid_lat": 45.43967421004956, "occurrences_today": 2, "datetimes_today": "2026-01-28 08:56:59, 2026-01-28 09:01:59", "cumulative_total": 3.0 }, "geometry": { "type": "Polygon", "coordinates": [ [ [ -73.863262917352372, 45.434478368963127 ], [ -73.869602236122105, 45.437139728448948 ], [ -73.869498466606458, 45.442335578499005 ], [ -73.863054205467463, 45.444870046201515 ], [ -73.856714342988852, 45.442208321356482 ], [ -73.85681928534855, 45.437012494232555 ], [ -73.863262917352372, 45.434478368963127 ] ] ] } },
{ "type": "Feature", "properties": { "hex_id": 778521, "centroid_lon": -71.344424279531523, "centroid_lat": 46.805485285960174, "occurrences_today": 2, "datetimes_today": "2026-01-28 08:56:59, 2026-01-28 09:01:59", "cumulative_total": 9.0 }, "geometry": { "type": "Polygon", "coordinates": [ [ [ -71.344775950364976, 46.800300253303561 ], [ -71.351139487971153, 46.80310171396868 ], [ -71.35078839420774, 46.808286780892757 ], [ -71.344072511225448, 46.810670311867092 ], [ -71.337708494038765, 46.807868445646804 ], [ -71.3380608393811, 46.802683454074078 ], [ -71.344775950364976, 46.800300253303561 ] ] ] } },
{ "type": "Feature", "properties": { "hex_id": 500028, "centroid_lon": -74.351481913668749, "centroid_lat": 45.225218360639886, "occurrences_today": 6, "datetimes_today": "2026-01-28 00:01:47, 2026-01-28 00:16:48, 2026-01-28 00:31:36, 2026-01-28 00:45:44, 2026-01-28 00:46:58, 2026-01-28 01:01:43", "cumulative_total": 28.0 }, "geometry": { "type": "Polygon", "coordinates": [ [ [ -74.35154099544458, 45.220021632481327 ], [ -74.357879710523207, 45.222655979335158 ], [ -74.357821200878689, 45.227852711573107 ], [ -74.351422815807936, 45.230415083988973 ], [ -74.34508354468565, 45.227780379138345 ], [ -74.345143214672419, 45.222583659932603 ], [ -74.35154099544458, 45.220021632481327 ] ] ] } },
{ "type": "Feature", "properties": { "hex_id": 500638, "centroid_lon": -74.345202868418994, "centroid_lat": 45.217386935916238, "occurrences_today": 6, "datetimes_today": "2026-01-28 00:01:47, 2026-01-28 00:16:48, 2026-01-28 00:31:36, 2026-01-28 00:45:44, 2026-01-28 00:46:58, 2026-01-28 01:01:43", "cumulative_total": 28.0 }, "geometry": { "type": "Polygon", "coordinates": [ [ [ -74.345262505930833, 45.212190207089229 ], [ -74.3516000611408, 45.214824899513317 ], [ -74.35154099544458, 45.220021632481327 ], [ -74.345143214672419, 45.222583659932603 ], [ -74.338805103884297, 45.219948609548126 ], [ -74.338865329441091, 45.214751889736704 ], [ -74.345262505930833, 45.212190207089229 ] ] ] } },
{ "type": "Feature", "properties": { "hex_id": 500639, "centroid_lon": -74.345023858453331, "centroid_lat": 45.232977093533428, "occurrences_today": 19, "datetimes_today": "2026-01-28 00:01:47, 2026-01-28 00:16:48, 2026-01-28 00:31:36, 2026-01-28 00:45:44, 2026-01-28 00:46:58, 2026-01-28 01:01:43, 2026-01-28 01:46:50, 2026-01-28 01:55:29, 2026-01-28 02:01:50, 2026-01-28 02:16:51, 2026-01-28 02:31:56, 2026-01-28 02:38:59, 2026-01-28 02:46:39, 2026-01-28 03:02:07, 2026-01-28 03:17:10, 2026-01-28 03:32:13, 2026-01-28 03:47:09, 2026-01-28 03:50:51, 2026-01-28 04:01:41", "cumulative_total": 41.0 }, "geometry": { "type": "Polygon", "coordinates": [ [ [ -74.34508354468565, 45.227780379138345 ], [ -74.351422815807936, 45.230415083988973 ], [ -74.351363701856826, 45.235611802528588 ], [ -74.344964155970018, 45.238173803117853 ], [ -74.338624328820217, 45.235538740111387 ], [ -74.338684603579324, 45.230342034735479 ], [ -74.34508354468565, 45.227780379138345 ] ] ] } },
{ "type": "Feature", "properties": { "hex_id": 500640, "centroid_lon": -74.344844702228741, "centroid_lat": 45.248567207854684, "occurrences_today": 20, "datetimes_today": "2026-01-28 00:01:47, 2026-01-28 00:16:48, 2026-01-28 00:31:36, 2026-01-28 00:45:44, 2026-01-28 00:46:58, 2026-01-28 01:01:43, 2026-01-28 01:46:50, 2026-01-28 01:55:29, 2026-01-28 02:01:50, 2026-01-28 02:16:51, 2026-01-28 02:31:56, 2026-01-28 02:38:59, 2026-01-28 02:46:39, 2026-01-28 03:02:07, 2026-01-28 03:17:10, 2026-01-28 03:32:13, 2026-01-28 03:47:09, 2026-01-28 03:50:51, 2026-01-28 04:01:41, 2026-01-28 04:17:25", "cumulative_total": 42.0 }, "geometry": { "type": "Polygon", "coordinates": [ [ [ -74.344904437230284, 45.243370507891605 ], [ -74.351245425662128, 45.246005225179381 ], [ -74.351186263407826, 45.251201929290538 ], [ -74.344784950959934, 45.253763903007091 ], [ -74.338443406050814, 45.2511288273679 ], [ -74.338503730061433, 45.245932136427605 ], [ -74.344904437230284, 45.243370507891605 ] ] ] } },
{ "type": "Feature", "properties": { "hex_id": 501249, "centroid_lon": -74.338744861932184, "centroid_lat": 45.225145324547718, "occurrences_today": 6, "datetimes_today": "2026-01-28 00:01:47, 2026-01-28 00:16:48, 2026-01-28 00:31:36, 2026-01-28 00:45:44, 2026-01-28 00:46:58, 2026-01-28 01:01:43", "cumulative_total": 28.0 }, "geometry": { "type": "Polygon", "coordinates": [ [ [ -74.338805103884297, 45.219948609548126 ], [ -74.345143214672419, 45.222583659932603 ], [ -74.34508354468565, 45.227780379138345 ], [ -74.338684603579324, 45.230342034735479 ], [ -74.332345937229363, 45.227706626231615 ], [ -74.332406767542111, 45.222509920313975 ], [ -74.338805103884297, 45.219948609548126 ] ] ] } },
{ "type": "Feature", "properties": { "hex_id": 501250, "centroid_lon": -74.338564037649405, "centroid_lat": 45.240735440675415, "occurrences_today": 19, "datetimes_today": "2026-01-28 00:01:47, 2026-01-28 00:16:48, 2026-01-28 00:31:36, 2026-01-28 00:45:44, 2026-01-28 00:46:58, 2026-01-28 01:01:43, 2026-01-28 01:46:50, 2026-01-28 01:55:29, 2026-01-28 02:01:50, 2026-01-28 02:16:51, 2026-01-28 02:31:56, 2026-01-28 02:38:59, 2026-01-28 02:46:39, 2026-01-28 03:02:07, 2026-01-28 03:17:10, 2026-01-28 03:32:13, 2026-01-28 03:47:09, 2026-01-28 03:50:51, 2026-01-28 04:01:41", "cumulative_total": 41.0 }, "geometry": { "type": "Polygon", "coordinates": [ [ [ -74.338624328820217, 45.235538740111387 ], [ -74.344964155970018, 45.238173803117853 ], [ -74.344904437230284, 45.243370507891605 ], [ -74.338503730061433, 45.245932136427605 ], [ -74.332163346900472, 45.243296715106183 ], [ -74.332224226914065, 45.238100023627737 ], [ -74.338624328820217, 45.235538740111387 ] ] ] } },
{ "type": "Feature", "properties": { "hex_id": 501860, "centroid_lon": -74.332285090355185, "centroid_lat": 45.23290332733621, "occurrences_today": 6, "datetimes_today": "2026-01-28 00:01:47, 2026-01-28 00:16:48, 2026-01-28 00:31:36, 2026-01-28 00:45:44, 2026-01-28 00:46:58, 2026-01-28 01:01:43", "cumulative_total": 28.0 }, "geometry": { "type": "Polygon", "coordinates": [ [ [ -74.332345937229363, 45.227706626231615 ], [ -74.338684603579324, 45.230342034735479 ], [ -74.338624328820217, 45.235538740111387 ], [ -74.332224226914065, 45.238100023627737 ], [ -74.325885005018733, 45.235464256845496 ], [ -74.325946440569396, 45.23026756488926 ], [ -74.332345937229363, 45.227706626231615 ] ] ] } },
{ "type": "Feature", "properties": { "hex_id": 502470, "centroid_lon": -74.326007859397947, "centroid_lat": 45.225070868118749, "occurrences_today": 6, "datetimes_today": "2026-01-28 00:01:47, 2026-01-28 00:16:48, 2026-01-28 00:31:36, 2026-01-28 00:45:44, 2026-01-28 00:46:58, 2026-01-28 01:01:43", "cumulative_total": 28.0 }, "geometry": { "type": "Polygon", "coordinates": [ [ [ -74.326069261509915, 45.219874166533984 ], [ -74.332406767542111, 45.222509920313975 ], [ -74.332345937229363, 45.227706626231615 ], [ -74.325946440569396, 45.23026756488926 ], [ -74.319608379457335, 45.227631452867428 ], [ -74.319670370079521, 45.222434760493762 ], [ -74.326069261509915, 45.219874166533984 ] ] ] } },
{ "type": "Feature", "properties": { "hex_id": 503081, "centroid_lon": -74.319546371957856, "centroid_lat": 45.232828140425582, "occurrences_today": 6, "datetimes_today": "2026-01-28 00:01:47, 2026-01-28 00:16:48, 2026-01-28 00:31:36, 2026-01-28 00:45:44, 2026-01-28 00:46:58, 2026-01-28 01:01:43", "cumulative_total": 14.0 }, "geometry": { "type": "Polygon", "coordinates": [ [ [ -74.319608379457335, 45.227631452867428 ], [ -74.325946440569396, 45.23026756488926 ], [ -74.325885005018733, 45.235464256845496 ], [ -74.319484347575511, 45.238024823168232 ], [ -74.313145731400354, 45.235388352745574 ], [ -74.313208327725874, 45.230191674464969 ], [ -74.319608379457335, 45.227631452867428 ] ] ] } },
{ "type": "Feature", "properties": { "hex_id": 503691, "centroid_lon": -74.313270907013376, "centroid_lat": 45.224994991367623, "occurrences_today": 6, "datetimes_today": "2026-01-28 00:01:47, 2026-01-28 00:16:48, 2026-01-28 00:31:36, 2026-01-28 00:45:44, 2026-01-28 00:46:58, 2026-01-28 01:01:43", "cumulative_total": 27.0 }, "geometry": { "type": "Polygon", "coordinates": [ [ [ -74.313333469268528, 45.219798303453544 ], [ -74.319670370079521, 45.222434760493762 ], [ -74.319608379457335, 45.227631452867428 ], [ -74.313208327725874, 45.230191674464969 ], [ -74.306870872317106, 45.227554859060554 ], [ -74.306934023231889, 45.222358180486737 ], [ -74.313333469268528, 45.219798303453544 ] ] ] } },
{ "type": "Feature", "properties": { "hex_id": 504301, "centroid_lon": -74.306997156959284, "centroid_lat": 45.217161497094985, "occurrences_today": 6, "datetimes_today": "2026-01-28 00:01:47, 2026-01-28 00:16:48, 2026-01-28 00:31:36, 2026-01-28 00:45:44, 2026-01-28 00:46:58, 2026-01-28 01:01:43", "cumulative_total": 27.0 }, "geometry": { "type": "Polygon", "coordinates": [ [ [ -74.30706027350503, 45.211964808885234 ], [ -74.313396014497002, 45.214601610722745 ], [ -74.313333469268528, 45.219798303453544 ], [ -74.306934023231889, 45.222358180486737 ], [ -74.300597728107164, 45.219721020321721 ], [ -74.300661433146104, 45.214524341514945 ], [ -74.30706027350503, 45.211964808885234 ] ] ] } },
{ "type": "Feature", "properties": { "hex_id": 504912, "centroid_lon": -74.300534005725851, "centroid_lat": 45.224917694309248, "occurrences_today": 6, "datetimes_today": "2026-01-28 00:01:47, 2026-01-28 00:16:48, 2026-01-28 00:31:36, 2026-01-28 00:45:44, 2026-01-28 00:46:58, 2026-01-28 01:01:43", "cumulative_total": 14.0 }, "geometry": { "type": "Polygon", "coordinates": [ [ [ -74.300597728107164, 45.219721020321721 ], [ -74.306934023231889, 45.222358180486737 ], [ -74.306870872317106, 45.227554859060554 ], [ -74.30047026599641, 45.230114363477519 ], [ -74.294133416756182, 45.227476844826029 ], [ -74.294197727946369, 45.222280180307983 ], [ -74.300597728107164, 45.219721020321721 ] ] ] } },
{ "type": "Feature", "properties": { "hex_id": 499418, "centroid_lon": -74.357762675304457, "centroid_lat": 45.233049439002727, "occurrences_today": 19, "datetimes_today": "2026-01-28 00:01:47, 2026-01-28 00:16:48, 2026-01-28 00:31:36, 2026-01-28 00:45:44, 2026-01-28 00:46:58, 2026-01-28 01:01:43, 2026-01-28 01:46:50, 2026-01-28 01:55:29, 2026-01-28 02:01:50, 2026-01-28 02:16:51, 2026-01-28 02:31:56, 2026-01-28 02:38:59, 2026-01-28 02:46:39, 2026-01-28 03:02:07, 2026-01-28 03:17:10, 2026-01-28 03:32:13, 2026-01-28 03:47:09, 2026-01-28 03:50:51, 2026-01-28 04:01:41", "cumulative_total": 38.0 }, "geometry": { "type": "Polygon", "coordinates": [ [ [ -74.357821200878689, 45.227852711573107 ], [ -74.364161076307553, 45.230486712635383 ], [ -74.364103123180485, 45.235683444082746 ], [ -74.357704133795181, 45.238246161624069 ], [ -74.351363701856826, 45.235611802528588 ], [ -74.351422815807936, 45.230415083988973 ], [ -74.357821200878689, 45.227852711573107 ] ] ] } },
{ "type": "Feature", "properties": { "hex_id": 499419, "centroid_lon": -74.357587002950311, "centroid_lat": 45.248639592441805, "occurrences_today": 20, "datetimes_today": "2026-01-28 00:01:47, 2026-01-28 00:16:48, 2026-01-28 00:31:36, 2026-01-28 00:45:44, 2026-01-28 00:46:58, 2026-01-28 01:01:43, 2026-01-28 01:46:50, 2026-01-28 01:55:29, 2026-01-28 02:01:50, 2026-01-28 02:16:51, 2026-01-28 02:31:56, 2026-01-28 02:38:59, 2026-01-28 02:46:39, 2026-01-28 03:02:07, 2026-01-28 03:17:10, 2026-01-28 03:32:13, 2026-01-28 03:47:09, 2026-01-28 03:50:51, 2026-01-28 04:01:41, 2026-01-28 04:17:25", "cumulative_total": 39.0 }, "geometry": { "type": "Polygon", "coordinates": [ [ [ -74.357645576345575, 45.243442879437083 ], [ -74.363987169582074, 45.24607689255604 ], [ -74.363929169100217, 45.251273609581951 ], [ -74.357528413604086, 45.253836300638177 ], [ -74.351186263407826, 45.251201929290538 ], [ -74.351245425662128, 45.246005225179381 ], [ -74.357645576345575, 45.243442879437083 ] ] ] } },
{ "type": "Feature", "properties": { "hex_id": 500029, "centroid_lon": -74.351304571810005, "centroid_lat": 45.240808516258717, "occurrences_today": 20, "datetimes_today": "2026-01-28 00:01:47, 2026-01-28 00:16:48, 2026-01-28 00:31:36, 2026-01-28 00:45:44, 2026-01-28 00:46:58, 2026-01-28 01:01:43, 2026-01-28 01:46:50, 2026-01-28 01:55:29, 2026-01-28 02:01:50, 2026-01-28 02:16:51, 2026-01-28 02:31:56, 2026-01-28 02:38:59, 2026-01-28 02:46:39, 2026-01-28 03:02:07, 2026-01-28 03:17:10, 2026-01-28 03:32:13, 2026-01-28 03:47:09, 2026-01-28 03:50:51, 2026-01-28 04:01:41, 2026-01-28 04:17:25", "cumulative_total": 39.0 }, "geometry": { "type": "Polygon", "coordinates": [ [ [ -74.351363701856826, 45.235611802528588 ], [ -74.357704133795181, 45.238246161624069 ], [ -74.357645576345575, 45.243442879437083 ], [ -74.351245425662128, 45.246005225179381 ], [ -74.344904437230284, 45.243370507891605 ], [ -74.344964155970018, 45.238173803117853 ], [ -74.351363701856826, 45.235611802528588 ] ] ] } },
{ "type": "Feature", "properties": { "hex_id": 501859, "centroid_lon": -74.332467581298957, "centroid_lat": 45.217313209583295, "occurrences_today": 6, "datetimes_today": "2026-01-28 00:01:47, 2026-01-28 00:16:48, 2026-01-28 00:31:36, 2026-01-28 00:45:44, 2026-01-28 00:46:58, 2026-01-28 01:01:43", "cumulative_total": 25.0 }, "geometry": { "type": "Polygon", "coordinates": [ [ [ -74.332528378505401, 45.212116494039591 ], [ -74.338865329441091, 45.214751889736704 ], [ -74.338805103884297, 45.219948609548126 ], [ -74.332406767542111, 45.222509920313975 ], [ -74.326069261509915, 45.219874166533984 ], [ -74.326130646910897, 45.214677460134972 ], [ -74.332528378505401, 45.212116494039591 ] ] ] } },
{ "type": "Feature", "properties": { "hex_id": 503080, "centroid_lon": -74.319732343830083, "centroid_lat": 45.21723806330462, "occurrences_today": 6, "datetimes_today": "2026-01-28 00:01:47, 2026-01-28 00:16:48, 2026-01-28 00:31:36, 2026-01-28 00:45:44, 2026-01-28 00:46:58, 2026-01-28 01:01:43", "cumulative_total": 25.0 }, "geometry": { "type": "Polygon", "coordinates": [ [ [ -74.319794300714591, 45.212041361299988 ], [ -74.326130646910897, 45.214677460134972 ], [ -74.326069261509915, 45.219874166533984 ], [ -74.319670370079521, 45.222434760493762 ], [ -74.313333469268528, 45.219798303453544 ], [ -74.313396014497002, 45.214601610722745 ], [ -74.319794300714591, 45.212041361299988 ] ] ] } },
{ "type": "Feature", "properties": { "hex_id": 567808, "centroid_lon": -73.639273260191885, "centroid_lat": 45.4450214973767, "occurrences_today": 8, "datetimes_today": "2026-01-28 07:31:38, 2026-01-28 07:47:09, 2026-01-28 08:02:00, 2026-01-28 08:14:15, 2026-01-28 08:16:44, 2026-01-28 08:32:06, 2026-01-28 08:56:59, 2026-01-28 09:01:59", "cumulative_total": 11.0 }, "geometry": { "type": "Polygon", "coordinates": [ [ [ -73.639398170312177, 45.439826104419105 ], [ -73.645727266168464, 45.442499773154623 ], [ -73.645602925396716, 45.447695177292914 ], [ -73.639148315983675, 45.450216885319499 ], [ -73.632818684872476, 45.447542849052091 ], [ -73.632944198417832, 45.442347472354356 ], [ -73.639398170312177, 45.439826104419105 ] ] ] } },
{ "type": "Feature", "properties": { "hex_id": 543387, "centroid_lon": -73.895269787577931, "centroid_lat": 45.432194005988094, "occurrences_today": 14, "datetimes_today": "2026-01-28 00:01:47, 2026-01-28 00:16:48, 2026-01-28 00:31:36, 2026-01-28 00:45:44, 2026-01-28 00:46:58, 2026-01-28 01:01:43, 2026-01-28 01:16:42, 2026-01-28 01:31:59, 2026-01-28 01:46:50, 2026-01-28 01:55:29, 2026-01-28 02:01:50, 2026-01-28 02:16:51, 2026-01-28 02:31:56, 2026-01-28 02:38:59", "cumulative_total": 44.0 }, "geometry": { "type": "Polygon", "coordinates": [ [ [ -73.89537115598749, 45.426998101010341 ], [ -73.901711186877804, 45.429657687910421 ], [ -73.901610390859389, 45.43485360153192 ], [ -73.89516839150653, 45.43738990604173 ], [ -73.888827815891531, 45.43472995418086 ], [ -73.888929784344825, 45.429534062835351 ], [ -73.89537115598749, 45.426998101010341 ] ] ] } },
{ "type": "Feature", "properties": { "hex_id": 543997, "centroid_lon": -73.889031724981081, "centroid_lat": 45.424338166563722, "occurrences_today": 14, "datetimes_today": "2026-01-28 00:01:47, 2026-01-28 00:16:48, 2026-01-28 00:31:36, 2026-01-28 00:45:44, 2026-01-28 00:46:58, 2026-01-28 01:01:43, 2026-01-28 01:16:42, 2026-01-28 01:31:59, 2026-01-28 01:46:50, 2026-01-28 01:55:29, 2026-01-28 02:01:50, 2026-01-28 02:16:51, 2026-01-28 02:31:56, 2026-01-28 02:38:59", "cumulative_total": 44.0 }, "geometry": { "type": "Polygon", "coordinates": [ [ [ -73.889133637809593, 45.41914226536602 ], [ -73.895472496744489, 45.42180219110854 ], [ -73.89537115598749, 45.426998101010341 ], [ -73.888929784344825, 45.429534062835351 ], [ -73.882590381150791, 45.426873772171788 ], [ -73.882692893849239, 45.42167788466864 ], [ -73.889133637809593, 45.41914226536602 ] ] ] } },
{ "type": "Feature", "properties": { "hex_id": 492705, "centroid_lon": -74.427435481636337, "centroid_lat": 45.272397749156774, "occurrences_today": 6, "datetimes_today": "2026-01-28 00:01:47, 2026-01-28 00:16:48, 2026-01-28 00:31:36, 2026-01-28 00:45:44, 2026-01-28 00:46:58, 2026-01-28 01:01:43", "cumulative_total": 22.0 }, "geometry": { "type": "Polygon", "coordinates": [ [ [ -74.427487729908577, 45.267200990583568 ], [ -74.43383522466705, 45.26983114332505 ], [ -74.433783550920822, 45.275027905225848 ], [ -74.427383219131457, 45.277594502933773 ], [ -74.421035164081999, 45.274963992347537 ], [ -74.421088001108131, 45.269767241962214 ], [ -74.427487729908577, 45.267200990583568 ] ] ] } },
{ "type": "Feature", "properties": { "hex_id": 493315, "centroid_lon": -74.421140823745631, "centroid_lat": 45.264570486779661, "occurrences_today": 6, "datetimes_today": "2026-01-28 00:01:47, 2026-01-28 00:16:48, 2026-01-28 00:31:36, 2026-01-28 00:45:44, 2026-01-28 00:46:58, 2026-01-28 01:01:43", "cumulative_total": 22.0 }, "geometry": { "type": "Polygon", "coordinates": [ [ [ -74.421193631999273, 45.259373726799851 ], [ -74.42753996395291, 45.262004227214177 ], [ -74.427487729908577, 45.267200990583568 ], [ -74.421088001108131, 45.269767241962214 ], [ -74.41474110933143, 45.2671363837391 ], [ -74.41479450617345, 45.26193963201019 ], [ -74.421193631999273, 45.259373726799851 ] ] ] } },
{ "type": "Feature", "properties": { "hex_id": 493316, "centroid_lon": -74.420982312662403, "centroid_lat": 45.280160737935617, "occurrences_today": 6, "datetimes_today": "2026-01-28 00:01:47, 2026-01-28 00:16:48, 2026-01-28 00:31:36, 2026-01-28 00:45:44, 2026-01-28 00:46:58, 2026-01-28 01:01:43", "cumulative_total": 22.0 }, "geometry": { "type": "Polygon", "coordinates": [ [ [ -74.421035164081999, 45.274963992347537 ], [ -74.427383219131457, 45.277594502933773 ], [ -74.427330942389176, 45.282791251914574 ], [ -74.420929446844582, 45.285357478726439 ], [ -74.414580831518478, 45.282726610136017 ], [ -74.414634272008797, 45.27752987280202 ], [ -74.421035164081999, 45.274963992347537 ] ] ] } },
{ "type": "Feature", "properties": { "hex_id": 493925, "centroid_lon": -74.414847888475734, "centroid_lat": 45.256742875482978, "occurrences_today": 6, "datetimes_today": "2026-01-28 00:01:47, 2026-01-28 00:16:48, 2026-01-28 00:31:36, 2026-01-28 00:45:44, 2026-01-28 00:46:58, 2026-01-28 01:01:43", "cumulative_total": 22.0 }, "geometry": { "type": "Polygon", "coordinates": [ [ [ -74.414901256243112, 45.251546114157492 ], [ -74.421246425873889, 45.254176962022797 ], [ -74.421193631999273, 45.259373726799851 ], [ -74.41479450617345, 45.26193963201019 ], [ -74.408448777187218, 45.259308426372094 ], [ -74.408502733377418, 45.254111673360477 ], [ -74.414901256243112, 45.251546114157492 ] ] ] } },
{ "type": "Feature", "properties": { "hex_id": 493926, "centroid_lon": -74.414687697944842, "centroid_lat": 45.272333130669722, "occurrences_today": 6, "datetimes_today": "2026-01-28 00:01:47, 2026-01-28 00:16:48, 2026-01-28 00:31:36, 2026-01-28 00:45:44, 2026-01-28 00:46:58, 2026-01-28 01:01:43", "cumulative_total": 22.0 }, "geometry": { "type": "Polygon", "coordinates": [ [ [ -74.41474110933143, 45.2671363837391 ], [ -74.421088001108131, 45.269767241962214 ], [ -74.421035164081999, 45.274963992347537 ], [ -74.414634272008797, 45.27752987280202 ], [ -74.408286820423513, 45.274898656610752 ], [ -74.408340820715154, 45.269701917997239 ], [ -74.41474110933143, 45.2671363837391 ] ] ] } },
{ "type": "Feature", "properties": { "hex_id": 494535, "centroid_lon": -74.408556674876948, "centroid_lat": 45.248914915549499, "occurrences_today": 6, "datetimes_today": "2026-01-28 00:01:47, 2026-01-28 00:16:48, 2026-01-28 00:31:36, 2026-01-28 00:45:44, 2026-01-28 00:46:58, 2026-01-28 01:01:43", "cumulative_total": 22.0 }, "geometry": { "type": "Polygon", "coordinates": [ [ [ -74.408610601690711, 45.243718152939159 ], [ -74.414954609480461, 45.246349348033689 ], [ -74.414901256243112, 45.251546114157492 ], [ -74.408502733377418, 45.254111673360477 ], [ -74.402158166699479, 45.251480120529209 ], [ -74.40221268177055, 45.246283366295707 ], [ -74.408610601690711, 45.243718152939159 ] ] ] } },
{ "type": "Feature", "properties": { "hex_id": 494536, "centroid_lon": -74.408394806301416, "centroid_lat": 45.26450517458435, "occurrences_today": 6, "datetimes_today": "2026-01-28 00:01:47, 2026-01-28 00:16:48, 2026-01-28 00:31:36, 2026-01-28 00:45:44, 2026-01-28 00:46:58, 2026-01-28 01:01:43", "cumulative_total": 22.0 }, "geometry": { "type": "Polygon", "coordinates": [ [ [ -74.408448777187218, 45.259308426372094 ], [ -74.41479450617345, 45.26193963201019 ], [ -74.41474110933143, 45.2671363837391 ], [ -74.408340820715154, 45.269701917997239 ], [ -74.401994532388059, 45.267070354427048 ], [ -74.402049092013186, 45.261873614594876 ], [ -74.408448777187218, 45.259308426372094 ] ] ] } },
{ "type": "Feature", "properties": { "hex_id": 494537, "centroid_lon": -74.408232805421576, "centroid_lat": 45.28009539042489, "occurrences_today": 6, "datetimes_today": "2026-01-28 00:01:47, 2026-01-28 00:16:48, 2026-01-28 00:31:36, 2026-01-28 00:45:44, 2026-01-28 00:46:58, 2026-01-28 01:01:43", "cumulative_total": 22.0 }, "geometry": { "type": "Polygon", "coordinates": [ [ [ -74.408286820423513, 45.274898656610752 ], [ -74.414634272008797, 45.27752987280202 ], [ -74.414580831518478, 45.282726610136017 ], [ -74.408178775704457, 45.285292119439639 ], [ -74.401830764325197, 45.282660545120798 ], [ -74.401885368549031, 45.277463819690006 ], [ -74.408286820423513, 45.274898656610752 ] ] ] } },
{ "type": "Feature", "properties": { "hex_id": 495146, "centroid_lon": -74.402103636782016, "centroid_lat": 45.256676869962256, "occurrences_today": 6, "datetimes_today": "2026-01-28 00:01:47, 2026-01-28 00:16:48, 2026-01-28 00:31:36, 2026-01-28 00:45:44, 2026-01-28 00:46:58, 2026-01-28 01:01:43", "cumulative_total": 22.0 }, "geometry": { "type": "Polygon", "coordinates": [ [ [ -74.402158166699479, 45.251480120529209 ], [ -74.408502733377418, 45.254111673360477 ], [ -74.408448777187218, 45.259308426372094 ], [ -74.402049092013186, 45.261873614594876 ], [ -74.395703966461852, 45.259241703867602 ], [ -74.395759084952971, 45.254044962877586 ], [ -74.402158166699479, 45.251480120529209 ] ] ] } },
{ "type": "Feature", "properties": { "hex_id": 495147, "centroid_lon": -74.401939957901661, "centroid_lat": 45.272267089458758, "occurrences_today": 6, "datetimes_today": "2026-01-28 00:01:47, 2026-01-28 00:16:48, 2026-01-28 00:31:36, 2026-01-28 00:45:44, 2026-01-28 00:46:58, 2026-01-28 01:01:43", "cumulative_total": 22.0 }, "geometry": { "type": "Polygon", "coordinates": [ [ [ -74.401994532388059, 45.267070354427048 ], [ -74.408340820715154, 45.269701917997239 ], [ -74.408286820423513, 45.274898656610752 ], [ -74.401885368549031, 45.277463819690006 ], [ -74.395538520895869, 45.274831898028346 ], [ -74.395593684438296, 45.269635171442978 ], [ -74.401994532388059, 45.267070354427048 ] ] ] } },
{ "type": "Feature", "properties": { "hex_id": 495756, "centroid_lon": -74.395814188437001, "centroid_lat": 45.248848217086049, "occurrences_today": 6, "datetimes_today": "2026-01-28 00:01:47, 2026-01-28 00:16:48, 2026-01-28 00:31:36, 2026-01-28 00:45:44, 2026-01-28 00:46:58, 2026-01-28 01:01:43", "cumulative_total": 22.0 }, "geometry": { "type": "Polygon", "coordinates": [ [ [ -74.395869276918958, 45.24365146649297 ], [ -74.40221268177055, 45.246283366295707 ], [ -74.402158166699479, 45.251480120529209 ], [ -74.395759084952971, 45.254044962877586 ], [ -74.389415121695095, 45.25141270521496 ], [ -74.389470798585009, 45.246215963127881 ], [ -74.395869276918958, 45.24365146649297 ] ] ] } },
{ "type": "Feature", "properties": { "hex_id": 495757, "centroid_lon": -74.395648832958628, "centroid_lat": 45.264438440056061, "occurrences_today": 6, "datetimes_today": "2026-01-28 00:01:47, 2026-01-28 00:16:48, 2026-01-28 00:31:36, 2026-01-28 00:45:44, 2026-01-28 00:46:58, 2026-01-28 01:01:43", "cumulative_total": 22.0 }, "geometry": { "type": "Polygon", "coordinates": [ [ [ -74.395703966461852, 45.259241703867602 ], [ -74.402049092013186, 45.261873614594876 ], [ -74.401994532388059, 45.267070354427048 ], [ -74.395593684438296, 45.269635171442978 ], [ -74.389248000028473, 45.26700290266038 ], [ -74.389303722421872, 45.261806174981224 ], [ -74.395703966461852, 45.259241703867602 ] ] ] } },
{ "type": "Feature", "properties": { "hex_id": 496366, "centroid_lon": -74.389526460317228, "centroid_lat": 45.241019216238165, "occurrences_today": 6, "datetimes_today": "2026-01-28 00:01:47, 2026-01-28 00:16:48, 2026-01-28 00:31:36, 2026-01-28 00:45:44, 2026-01-28 00:46:58, 2026-01-28 01:01:43", "cumulative_total": 22.0 }, "geometry": { "type": "Polygon", "coordinates": [ [ [ -74.389582106896782, 45.235822464545848 ], [ -74.395924350403831, 45.238454711098392 ], [ -74.395869276918958, 45.24365146649297 ], [ -74.389470798585009, 45.246215963127881 ], [ -74.383127997138459, 45.243583358751586 ], [ -74.383184231960314, 45.238386615628144 ], [ -74.389582106896782, 45.235822464545848 ] ] ] } },
{ "type": "Feature", "properties": { "hex_id": 496367, "centroid_lon": -74.389359429642397, "centroid_lat": 45.256609442499403, "occurrences_today": 6, "datetimes_today": "2026-01-28 00:01:47, 2026-01-28 00:16:48, 2026-01-28 00:31:36, 2026-01-28 00:45:44, 2026-01-28 00:46:58, 2026-01-28 01:01:43", "cumulative_total": 22.0 }, "geometry": { "type": "Polygon", "coordinates": [ [ [ -74.389415121695095, 45.25141270521496 ], [ -74.395759084952971, 45.254044962877586 ], [ -74.395703966461852, 45.259241703867602 ], [ -74.389303722421872, 45.261806174981224 ], [ -74.382959200772774, 45.259173559299462 ], [ -74.383015481549805, 45.253976830587256 ], [ -74.389415121695095, 45.25141270521496 ] ] ] } },
{ "type": "Feature", "properties": { "hex_id": 496976, "centroid_lon": -74.383240451474009, "centroid_lat": 45.233189867700958, "occurrences_today": 6, "datetimes_today": "2026-01-28 00:01:47, 2026-01-28 00:16:48, 2026-01-28 00:31:36, 2026-01-28 00:45:44, 2026-01-28 00:46:58, 2026-01-28 01:01:43", "cumulative_total": 22.0 }, "geometry": { "type": "Polygon", "coordinates": [ [ [ -74.383296655684603, 45.227993114970062 ], [ -74.38963773832873, 45.230625708050887 ], [ -74.389582106896782, 45.235822464545848 ], [ -74.383184231960314, 45.238386615628144 ], [ -74.376842591843172, 45.235753664759777 ], [ -74.376899384130411, 45.230556920660618 ], [ -74.383296655684603, 45.227993114970062 ] ] ] } },
{ "type": "Feature", "properties": { "hex_id": 496977, "centroid_lon": -74.383071747003328, "centroid_lat": 45.248780097071297, "occurrences_today": 6, "datetimes_today": "2026-01-28 00:01:47, 2026-01-28 00:16:48, 2026-01-28 00:31:36, 2026-01-28 00:45:44, 2026-01-28 00:46:58, 2026-01-28 01:01:43", "cumulative_total": 22.0 }, "geometry": { "type": "Polygon", "coordinates": [ [ [ -74.383127997138459, 45.243583358751586 ], [ -74.389470798585009, 45.246215963127881 ], [ -74.389415121695095, 45.25141270521496 ], [ -74.383015481549805, 45.253976830587256 ], [ -74.376672122178974, 45.25134386822802 ], [ -74.376728960872612, 45.246147138543485 ], [ -74.383127997138459, 45.243583358751586 ] ] ] } },
{ "type": "Feature", "properties": { "hex_id": 496978, "centroid_lon": -74.382902904667148, "centroid_lat": 45.264370283207903, "occurrences_today": 6, "datetimes_today": "2026-01-28 00:01:47, 2026-01-28 00:16:48, 2026-01-28 00:31:36, 2026-01-28 00:45:44, 2026-01-28 00:46:58, 2026-01-28 01:01:43", "cumulative_total": 22.0 }, "geometry": { "type": "Polygon", "coordinates": [ [ [ -74.382959200772774, 45.259173559299462 ], [ -74.389303722421872, 45.261806174981224 ], [ -74.389248000028473, 45.26700290266038 ], [ -74.382846593227796, 45.26956700231257 ], [ -74.376501513202726, 45.266934028452397 ], [ -74.376558398349204, 45.261737313182493 ], [ -74.382959200772774, 45.259173559299462 ] ] ] } },
{ "type": "Feature", "properties": { "hex_id": 497586, "centroid_lon": -74.376956160959153, "centroid_lat": 45.225360171756627, "occurrences_today": 6, "datetimes_today": "2026-01-28 00:01:47, 2026-01-28 00:16:48, 2026-01-28 00:31:36, 2026-01-28 00:45:44, 2026-01-28 00:46:58, 2026-01-28 01:01:43", "cumulative_total": 22.0 }, "geometry": { "type": "Polygon", "coordinates": [ [ [ -74.377012922334544, 45.220163418047775 ], [ -74.383352844597226, 45.222796357435421 ], [ -74.383296655684603, 45.227993114970062 ], [ -74.376899384130411, 45.230556920660618 ], [ -74.370558904860872, 45.22792362352164 ], [ -74.370616254147237, 45.222726878507402 ], [ -74.377012922334544, 45.220163418047775 ] ] ] } },
{ "type": "Feature", "properties": { "hex_id": 497587, "centroid_lon": -74.376785784092291, "centroid_lat": 45.240950404054047, "occurrences_today": 6, "datetimes_today": "2026-01-28 00:01:47, 2026-01-28 00:16:48, 2026-01-28 00:31:36, 2026-01-28 00:45:44, 2026-01-28 00:46:58, 2026-01-28 01:01:43", "cumulative_total": 22.0 }, "geometry": { "type": "Polygon", "coordinates": [ [ [ -74.376842591843172, 45.235753664759777 ], [ -74.383184231960314, 45.238386615628144 ], [ -74.383127997138459, 45.243583358751586 ], [ -74.376728960872612, 45.246147138543485 ], [ -74.370386763297816, 45.243513829728393 ], [ -74.370444159441362, 45.238317099132146 ], [ -74.376842591843172, 45.235753664759777 ] ] ] } },
{ "type": "Feature", "properties": { "hex_id": 497588, "centroid_lon": -74.376615268006219, "centroid_lat": 45.256540593107701, "occurrences_today": 6, "datetimes_today": "2026-01-28 00:01:47, 2026-01-28 00:16:48, 2026-01-28 00:31:36, 2026-01-28 00:45:44, 2026-01-28 00:46:58, 2026-01-28 01:01:43", "cumulative_total": 22.0 }, "geometry": { "type": "Polygon", "coordinates": [ [ [ -74.376672122178974, 45.25134386822802 ], [ -74.383015481549805, 45.253976830587256 ], [ -74.382959200772774, 45.259173559299462 ], [ -74.376558398349204, 45.261737313182493 ], [ -74.37021448106951, 45.259103992681105 ], [ -74.370271924117105, 45.253907276502886 ], [ -74.376672122178974, 45.25134386822802 ] ] ] } },
{ "type": "Feature", "properties": { "hex_id": 498197, "centroid_lon": -74.370501539960628, "centroid_lat": 45.233120363729903, "occurrences_today": 6, "datetimes_today": "2026-01-28 00:01:47, 2026-01-28 00:16:48, 2026-01-28 00:31:36, 2026-01-28 00:45:44, 2026-01-28 00:46:58, 2026-01-28 01:01:43", "cumulative_total": 22.0 }, "geometry": { "type": "Polygon", "coordinates": [ [ [ -74.370558904860872, 45.22792362352164 ], [ -74.376899384130411, 45.230556920660618 ], [ -74.376842591843172, 45.235753664759777 ], [ -74.370444159441362, 45.238317099132146 ], [ -74.364103123180485, 45.235683444082746 ], [ -74.364161076307553, 45.230486712635383 ], [ -74.370558904860872, 45.22792362352164 ] ] ] } },
{ "type": "Feature", "properties": { "hex_id": 498198, "centroid_lon": -74.370329351524802, "centroid_lat": 45.248710555518649, "occurrences_today": 6, "datetimes_today": "2026-01-28 00:01:47, 2026-01-28 00:16:48, 2026-01-28 00:31:36, 2026-01-28 00:45:44, 2026-01-28 00:46:58, 2026-01-28 01:01:43", "cumulative_total": 22.0 }, "geometry": { "type": "Polygon", "coordinates": [ [ [ -74.370386763297816, 45.243513829728393 ], [ -74.376728960872612, 45.246147138543485 ], [ -74.376672122178974, 45.25134386822802 ], [ -74.370271924117105, 45.253907276502886 ], [ -74.363929169100217, 45.251273609581951 ], [ -74.363987169582074, 45.24607689255604 ], [ -74.370386763297816, 45.243513829728393 ] ] ] } },
{ "type": "Feature", "properties": { "hex_id": 498807, "centroid_lon": -74.364219013660218, "centroid_lat": 45.225289976380878, "occurrences_today": 6, "datetimes_today": "2026-01-28 00:01:47, 2026-01-28 00:16:48, 2026-01-28 00:31:36, 2026-01-28 00:45:44, 2026-01-28 00:46:58, 2026-01-28 01:01:43", "cumulative_total": 22.0 }, "geometry": { "type": "Polygon", "coordinates": [ [ [ -74.364276935243694, 45.22009323531924 ], [ -74.370616254147237, 45.222726878507402 ], [ -74.370558904860872, 45.22792362352164 ], [ -74.364161076307553, 45.230486712635383 ], [ -74.357821200878689, 45.227852711573107 ], [ -74.357879710523207, 45.222655979335158 ], [ -74.364276935243694, 45.22009323531924 ] ] ] } },
{ "type": "Feature", "properties": { "hex_id": 498808, "centroid_lon": -74.364045154273754, "centroid_lat": 45.24088017072296, "occurrences_today": 6, "datetimes_today": "2026-01-28 00:01:47, 2026-01-28 00:16:48, 2026-01-28 00:31:36, 2026-01-28 00:45:44, 2026-01-28 00:46:58, 2026-01-28 01:01:43", "cumulative_total": 22.0 }, "geometry": { "type": "Polygon", "coordinates": [ [ [ -74.364103123180485, 45.235683444082746 ], [ -74.370444159441362, 45.238317099132146 ], [ -74.370386763297816, 45.243513829728393 ], [ -74.363987169582074, 45.24607689255604 ], [ -74.357645576345575, 45.243442879437083 ], [ -74.357704133795181, 45.238246161624069 ], [ -74.364103123180485, 45.235683444082746 ] ] ] } },
{ "type": "Feature", "properties": { "hex_id": 498809, "centroid_lon": -74.363871152822881, "centroid_lat": 45.256470321800684, "occurrences_today": 6, "datetimes_today": "2026-01-28 00:01:47, 2026-01-28 00:16:48, 2026-01-28 00:31:36, 2026-01-28 00:45:44, 2026-01-28 00:46:58, 2026-01-28 01:01:43", "cumulative_total": 22.0 }, "geometry": { "type": "Polygon", "coordinates": [ [ [ -74.363929169100217, 45.251273609581951 ], [ -74.370271924117105, 45.253907276502886 ], [ -74.37021448106951, 45.259103992681105 ], [ -74.363813120744837, 45.261667029212255 ], [ -74.357469808301587, 45.259033004026229 ], [ -74.357528413604086, 45.253836300638177 ], [ -74.363929169100217, 45.251273609581951 ] ] ] } },
{ "type": "Feature", "properties": { "hex_id": 499417, "centroid_lon": -74.357938204243325, "centroid_lat": 45.217459242288939, "occurrences_today": 6, "datetimes_today": "2026-01-28 00:01:47, 2026-01-28 00:16:48, 2026-01-28 00:31:36, 2026-01-28 00:45:44, 2026-01-28 00:46:58, 2026-01-28 01:01:43", "cumulative_total": 22.0 }, "geometry": { "type": "Polygon", "coordinates": [ [ [ -74.35799668204433, 45.212262500434441 ], [ -74.364334841063297, 45.214896489450481 ], [ -74.364276935243694, 45.22009323531924 ], [ -74.357879710523207, 45.222655979335158 ], [ -74.35154099544458, 45.220021632481327 ], [ -74.3516000611408, 45.214824899513317 ], [ -74.35799668204433, 45.212262500434441 ] ] ] } },
{ "type": "Feature", "properties": { "hex_id": 500027, "centroid_lon": -74.351659110762768, "centroid_lat": 45.209628161735885, "occurrences_today": 6, "datetimes_today": "2026-01-28 00:01:47, 2026-01-28 00:16:48, 2026-01-28 00:31:36, 2026-01-28 00:45:44, 2026-01-28 00:46:58, 2026-01-28 01:01:43", "cumulative_total": 22.0 }, "geometry": { "type": "Polygon", "coordinates": [ [ [ -74.351718144315839, 45.204431419149003 ], [ -74.358055143931523, 45.207065753771687 ], [ -74.35799668204433, 45.212262500434441 ], [ -74.3516000611408, 45.214824899513317 ], [ -74.345262505930833, 45.212190207089229 ], [ -74.345322127213308, 45.206993473451604 ], [ -74.351718144315839, 45.204431419149003 ] ] ] } },
{ "type": "Feature", "properties": { "hex_id": 500637, "centroid_lon": -74.345381732271861, "centroid_lat": 45.201796735003377, "occurrences_today": 6, "datetimes_today": "2026-01-28 00:01:47, 2026-01-28 00:16:48, 2026-01-28 00:31:36, 2026-01-28 00:45:44, 2026-01-28 00:46:58, 2026-01-28 01:01:43", "cumulative_total": 22.0 }, "geometry": { "type": "Polygon", "coordinates": [ [ [ -74.345441321111849, 45.196599991744556 ], [ -74.351777161805344, 45.199234671752727 ], [ -74.351718144315839, 45.204431419149003 ], [ -74.345322127213308, 45.206993473451604 ], [ -74.338985731390579, 45.204358435678422 ], [ -74.339045907794201, 45.199161701431585 ], [ -74.345441321111849, 45.196599991744556 ] ] ] } },
{ "type": "Feature", "properties": { "hex_id": 501248, "centroid_lon": -74.338925538608038, "centroid_lat": 45.209555165113464, "occurrences_today": 6, "datetimes_today": "2026-01-28 00:01:47, 2026-01-28 00:16:48, 2026-01-28 00:31:36, 2026-01-28 00:45:44, 2026-01-28 00:46:58, 2026-01-28 01:01:43", "cumulative_total": 22.0 }, "geometry": { "type": "Polygon", "coordinates": [ [ [ -74.338985731390579, 45.204358435678422 ], [ -74.345322127213308, 45.206993473451604 ], [ -74.345262505930833, 45.212190207089229 ], [ -74.338865329441091, 45.214751889736704 ], [ -74.332528378505401, 45.212116494039591 ], [ -74.332589159166957, 45.206919773682849 ], [ -74.338985731390579, 45.204358435678422 ] ] ] } },
{ "type": "Feature", "properties": { "hex_id": 501858, "centroid_lon": -74.332649923289139, "centroid_lat": 45.201723048513117, "occurrences_today": 6, "datetimes_today": "2026-01-28 00:01:47, 2026-01-28 00:16:48, 2026-01-28 00:31:36, 2026-01-28 00:45:44, 2026-01-28 00:46:58, 2026-01-28 01:01:43", "cumulative_total": 22.0 }, "geometry": { "type": "Polygon", "coordinates": [ [ [ -74.332710670877461, 45.196526318530395 ], [ -74.339045907794201, 45.199161701431585 ], [ -74.338985731390579, 45.204358435678422 ], [ -74.332589159166957, 45.206919773682849 ], [ -74.326253367602135, 45.204284032894215 ], [ -74.326314702903517, 45.199087312052534 ], [ -74.332710670877461, 45.196526318530395 ] ] ] } },
{ "type": "Feature", "properties": { "hex_id": 502469, "centroid_lon": -74.326192015606452, "centroid_lat": 45.209480748921713, "occurrences_today": 6, "datetimes_today": "2026-01-28 00:01:47, 2026-01-28 00:16:48, 2026-01-28 00:31:36, 2026-01-28 00:45:44, 2026-01-28 00:46:58, 2026-01-28 01:01:43", "cumulative_total": 22.0 }, "geometry": { "type": "Polygon", "coordinates": [ [ [ -74.326253367602135, 45.204284032894215 ], [ -74.332589159166957, 45.206919773682849 ], [ -74.332528378505401, 45.212116494039591 ], [ -74.326130646910897, 45.214677460134972 ], [ -74.319794300714591, 45.212041361299988 ], [ -74.319856240738716, 45.206844654479909 ], [ -74.326253367602135, 45.204284032894215 ] ] ] } },
{ "type": "Feature", "properties": { "hex_id": 503079, "centroid_lon": -74.319918163908028, "centroid_lat": 45.201647942844382, "occurrences_today": 6, "datetimes_today": "2026-01-28 00:01:47, 2026-01-28 00:16:48, 2026-01-28 00:31:36, 2026-01-28 00:45:44, 2026-01-28 00:46:58, 2026-01-28 01:01:43", "cumulative_total": 22.0 }, "geometry": { "type": "Polygon", "coordinates": [ [ [ -74.319980070228155, 45.196451226393414 ], [ -74.326314702903517, 45.199087312052534 ], [ -74.326253367602135, 45.204284032894215 ], [ -74.319856240738716, 45.206844654479909 ], [ -74.313521053896594, 45.204208210811032 ], [ -74.313583548079066, 45.199011503630153 ], [ -74.319980070228155, 45.196451226393414 ] ] ] } },
{ "type": "Feature", "properties": { "hex_id": 503690, "centroid_lon": -74.313458542704467, "centroid_lat": 45.209404913175234, "occurrences_today": 6, "datetimes_today": "2026-01-28 00:01:47, 2026-01-28 00:16:48, 2026-01-28 00:31:36, 2026-01-28 00:45:44, 2026-01-28 00:46:58, 2026-01-28 01:01:43", "cumulative_total": 22.0 }, "geometry": { "type": "Polygon", "coordinates": [ [ [ -74.313521053896594, 45.204208210811032 ], [ -74.319856240738716, 45.206844654479909 ], [ -74.319794300714591, 45.212041361299988 ], [ -74.313396014497002, 45.214601610722745 ], [ -74.30706027350503, 45.211964808885234 ], [ -74.307123372874855, 45.206768115857543 ], [ -74.313521053896594, 45.204208210811032 ] ] ] } },
{ "type": "Feature", "properties": { "hex_id": 613601, "centroid_lon": -73.157173770974666, "centroid_lat": 45.52400758210517, "occurrences_today": 3, "datetimes_today": "2026-01-28 00:01:47, 2026-01-28 00:16:48, 2026-01-28 00:31:36", "cumulative_total": 9.0 }, "geometry": { "type": "Polygon", "coordinates": [ [ [ -73.157343389283994, 45.518813485440113 ], [ -73.163657566435035, 45.521513615835218 ], [ -73.163488513243792, 45.526707728450319 ], [ -73.157004106343521, 45.529201673532683 ], [ -73.150689410403984, 45.526501170161708 ], [ -73.150859640137682, 45.521307094748678 ], [ -73.157343389283994, 45.518813485440113 ] ] ] } },
{ "type": "Feature", "properties": { "hex_id": 613602, "centroid_lon": -73.156664638053556, "centroid_lat": 45.539589840674218, "occurrences_today": 3, "datetimes_today": "2026-01-28 00:01:47, 2026-01-28 00:16:48, 2026-01-28 00:31:36", "cumulative_total": 9.0 }, "geometry": { "type": "Polygon", "coordinates": [ [ [ -73.156834395375, 45.5343957597224 ], [ -73.163150268338313, 45.537095937977519 ], [ -73.162981076593113, 45.542290034889277 ], [ -73.156494834363642, 45.544783916387942 ], [ -73.150178442200357, 45.542083364953683 ], [ -73.150348811450925, 45.536889305264374 ], [ -73.156834395375, 45.5343957597224 ] ] ] } },
{ "type": "Feature", "properties": { "hex_id": 614212, "centroid_lon": -73.150519134180271, "centroid_lat": 45.531695240333647, "occurrences_today": 3, "datetimes_today": "2026-01-28 00:01:47, 2026-01-28 00:16:48, 2026-01-28 00:31:36", "cumulative_total": 9.0 }, "geometry": { "type": "Polygon", "coordinates": [ [ [ -73.150689410403984, 45.526501170161708 ], [ -73.157004106343521, 45.529201673532683 ], [ -73.156834395375, 45.5343957597224 ], [ -73.150348811450925, 45.536889305264374 ], [ -73.144033596769631, 45.534188428759116 ], [ -73.144204484738566, 45.528994379910628 ], [ -73.150689410403984, 45.526501170161708 ] ] ] } },
{ "type": "Feature", "properties": { "hex_id": 502468, "centroid_lon": -74.32637602151614, "centroid_lat": 45.19389058639662, "occurrences_today": 6, "datetimes_today": "2026-01-28 00:01:47, 2026-01-28 00:16:48, 2026-01-28 00:31:36, 2026-01-28 00:45:44, 2026-01-28 00:46:58, 2026-01-28 01:01:43", "cumulative_total": 9.0 }, "geometry": { "type": "Polygon", "coordinates": [ [ [ -74.326437323445575, 45.188693855926516 ], [ -74.332771401937421, 45.191329583734692 ], [ -74.332710670877461, 45.196526318530395 ], [ -74.326314702903517, 45.199087312052534 ], [ -74.319980070228155, 45.196451226393414 ], [ -74.32004195970471, 45.191254505127013 ], [ -74.326437323445575, 45.188693855926516 ] ] ] } },
{ "type": "Feature", "properties": { "hex_id": 504911, "centroid_lon": -74.300725120848497, "centroid_lat": 45.209327657888963, "occurrences_today": 6, "datetimes_today": "2026-01-28 00:01:47, 2026-01-28 00:16:48, 2026-01-28 00:31:36, 2026-01-28 00:45:44, 2026-01-28 00:46:58, 2026-01-28 01:01:43", "cumulative_total": 9.0 }, "geometry": { "type": "Polygon", "coordinates": [ [ [ -74.300788791220086, 45.204130969443746 ], [ -74.307123372874855, 45.206768115857543 ], [ -74.30706027350503, 45.211964808885234 ], [ -74.300661433146104, 45.214524341514945 ], [ -74.294326297823261, 45.211886836810343 ], [ -74.294390556521634, 45.206690157830771 ], [ -74.300788791220086, 45.204130969443746 ] ] ] } },
{ "type": "Feature", "properties": { "hex_id": 567807, "centroid_lon": -73.639647888334594, "centroid_lat": 45.429435303459861, "occurrences_today": 6, "datetimes_today": "2026-01-28 07:31:38, 2026-01-28 07:47:09, 2026-01-28 08:02:00, 2026-01-28 08:14:15, 2026-01-28 08:16:44, 2026-01-28 08:32:06", "cumulative_total": 6.0 }, "geometry": { "type": "Polygon", "coordinates": [ [ [ -73.639772696259527, 45.424239895458356 ], [ -73.646100084994842, 45.426913530666496 ], [ -73.645975845956158, 45.432108949841343 ], [ -73.639523046355933, 45.434630706446804 ], [ -73.633195122793779, 45.431956703907211 ], [ -73.633320533647279, 45.426761312157936 ], [ -73.639772696259527, 45.424239895458356 ] ] ] } },
{ "type": "Feature", "properties": { "hex_id": 568418, "centroid_lon": -73.63306967772111, "centroid_lat": 45.437152090639373, "occurrences_today": 8, "datetimes_today": "2026-01-28 07:31:38, 2026-01-28 07:47:09, 2026-01-28 08:02:00, 2026-01-28 08:14:15, 2026-01-28 08:16:44, 2026-01-28 08:32:06, 2026-01-28 08:56:59, 2026-01-28 09:01:59", "cumulative_total": 8.0 }, "geometry": { "type": "Polygon", "coordinates": [ [ [ -73.633195122793779, 45.431956703907211 ], [ -73.639523046355933, 45.434630706446804 ], [ -73.639398170312177, 45.439826104419105 ], [ -73.632944198417832, 45.442347472354356 ], [ -73.626615740063116, 45.43967310232437 ], [ -73.626741788383825, 45.434477731913866 ], [ -73.633195122793779, 45.431956703907211 ] ] ] } },
{ "type": "Feature", "properties": { "hex_id": 569028, "centroid_lon": -73.626867802319879, "centroid_lat": 45.429282356483697, "occurrences_today": 6, "datetimes_today": "2026-01-28 07:31:38, 2026-01-28 07:47:09, 2026-01-28 08:02:00, 2026-01-28 08:14:15, 2026-01-28 08:16:44, 2026-01-28 08:32:06", "cumulative_total": 6.0 }, "geometry": { "type": "Polygon", "coordinates": [ [ [ -73.626993781882803, 45.424086976033955 ], [ -73.633320533647279, 45.426761312157936 ], [ -73.633195122793779, 45.431956703907211 ], [ -73.626741788383825, 45.434477731913866 ], [ -73.620414502288838, 45.431803028341051 ], [ -73.620541084922792, 45.426607664274734 ], [ -73.626993781882803, 45.424086976033955 ] ] ] } },
{ "type": "Feature", "properties": { "hex_id": 569029, "centroid_lon": -73.626489657346241, "centroid_lat": 45.44486846771516, "occurrences_today": 8, "datetimes_today": "2026-01-28 07:31:38, 2026-01-28 07:47:09, 2026-01-28 08:02:00, 2026-01-28 08:14:15, 2026-01-28 08:16:44, 2026-01-28 08:32:06, 2026-01-28 08:56:59, 2026-01-28 09:01:59", "cumulative_total": 8.0 }, "geometry": { "type": "Polygon", "coordinates": [ [ [ -73.626615740063116, 45.43967310232437 ], [ -73.632944198417832, 45.442347472354356 ], [ -73.632818684872476, 45.447542849052091 ], [ -73.626363540221661, 45.450063828086137 ], [ -73.620034547108872, 45.447389090406816 ], [ -73.620161233393461, 45.442193741407166 ], [ -73.626615740063116, 45.43967310232437 ] ] ] } },
{ "type": "Feature", "properties": { "hex_id": 569639, "centroid_lon": -73.620287885116241, "centroid_lat": 45.436998387385216, "occurrences_today": 8, "datetimes_today": "2026-01-28 07:31:38, 2026-01-28 07:47:09, 2026-01-28 08:02:00, 2026-01-28 08:14:15, 2026-01-28 08:16:44, 2026-01-28 08:32:06, 2026-01-28 08:56:59, 2026-01-28 09:01:59", "cumulative_total": 8.0 }, "geometry": { "type": "Polygon", "coordinates": [ [ [ -73.620414502288838, 45.431803028341051 ], [ -73.626741788383825, 45.434477731913866 ], [ -73.626615740063116, 45.43967310232437 ], [ -73.620161233393461, 45.442193741407166 ], [ -73.613833413002567, 45.439518670226605 ], [ -73.613960633565682, 45.434323327635333 ], [ -73.620414502288838, 45.431803028341051 ] ] ] } },
{ "type": "Feature", "properties": { "hex_id": 570250, "centroid_lon": -73.613706157723655, "centroid_lat": 45.444714007793081, "occurrences_today": 8, "datetimes_today": "2026-01-28 07:31:38, 2026-01-28 07:47:09, 2026-01-28 08:02:00, 2026-01-28 08:14:15, 2026-01-28 08:16:44, 2026-01-28 08:32:06, 2026-01-28 08:56:59, 2026-01-28 09:01:59", "cumulative_total": 8.0 }, "geometry": { "type": "Polygon", "coordinates": [ [ [ -73.613833413002567, 45.439518670226605 ], [ -73.620161233393461, 45.442193741407166 ], [ -73.620034547108872, 45.447389090406816 ], [ -73.613578867717308, 45.449909340334685 ], [ -73.607250513065338, 45.447233901387484 ], [ -73.607378372054399, 45.442038580343414 ], [ -73.613833413002567, 45.439518670226605 ] ] ] } },
{ "type": "Feature", "properties": { "hex_id": 517135, "centroid_lon": -74.170214366693529, "centroid_lat": 45.426727134851483, "occurrences_today": 3, "datetimes_today": "2026-01-28 08:46:58, 2026-01-28 08:56:59, 2026-01-28 09:01:59", "cumulative_total": 3.0 }, "geometry": { "type": "Polygon", "coordinates": [ [ [ -74.170290494135187, 45.42153080324772 ], [ -74.176643043731957, 45.424175216503471 ], [ -74.176567492145807, 45.429371554017237 ], [ -74.170138218477575, 45.431923461607504 ], [ -74.163785113803087, 45.429278686087173 ], [ -74.1638618378676, 45.424082365305573 ], [ -74.170290494135187, 45.42153080324772 ] ] ] } },
{ "type": "Feature", "properties": { "hex_id": 518356, "centroid_lon": -74.157432605911353, "centroid_lat": 45.426633560221589, "occurrences_today": 3, "datetimes_today": "2026-01-28 08:46:58, 2026-01-28 08:56:59, 2026-01-28 09:01:59", "cumulative_total": 3.0 }, "geometry": { "type": "Polygon", "coordinates": [ [ [ -74.157509905661016, 45.421437245477293 ], [ -74.1638618378676, 45.424082365305573 ], [ -74.163785113803087, 45.429278686087173 ], [ -74.157355285067567, 45.431829870115088 ], [ -74.151002798273495, 45.429184387900321 ], [ -74.151080694795354, 45.423988084108544 ], [ -74.157509905661016, 45.421437245477293 ] ] ] } },
{ "type": "Feature", "properties": { "hex_id": 548954, "centroid_lon": -73.813848126020375, "centroid_lat": 46.561592599799454, "occurrences_today": 3, "datetimes_today": "2026-01-28 08:46:58, 2026-01-28 08:56:59, 2026-01-28 09:01:59", "cumulative_total": 3.0 }, "geometry": { "type": "Polygon", "coordinates": [ [ [ -73.813961336306008, 46.556397873749496 ], [ -73.820426601630928, 46.559062681410325 ], [ -73.820313997911256, 46.564257417151531 ], [ -73.813734884400745, 46.566787320898108 ], [ -73.807269043849232, 46.564122132975285 ], [ -73.807382892024023, 46.558927421634912 ], [ -73.813961336306008, 46.556397873749496 ] ] ] } },
{ "type": "Feature", "properties": { "hex_id": 548955, "centroid_lon": -73.813508307116265, "centroid_lat": 46.577176748241364, "occurrences_today": 3, "datetimes_today": "2026-01-28 08:46:58, 2026-01-28 08:56:59, 2026-01-28 09:01:59", "cumulative_total": 3.0 }, "geometry": { "type": "Polygon", "coordinates": [ [ [ -73.813621611436304, 46.571982037045416 ], [ -73.820088696959374, 46.574646873786861 ], [ -73.819975999705605, 46.57984159468095 ], [ -73.813394971429759, 46.582371454485951 ], [ -73.806927310212274, 46.579706237274493 ], [ -73.807041252954235, 46.574511540795108 ], [ -73.813621611436304, 46.571982037045416 ] ] ] } },
{ "type": "Feature", "properties": { "hex_id": 549564, "centroid_lon": -73.807496708698167, "centroid_lat": 46.553732705340913, "occurrences_today": 3, "datetimes_today": "2026-01-28 08:46:58, 2026-01-28 08:56:59, 2026-01-28 09:01:59", "cumulative_total": 3.0 }, "geometry": { "type": "Polygon", "coordinates": [ [ [ -73.807610493882549, 46.548537984093322 ], [ -73.814074515268487, 46.55120314274825 ], [ -73.813961336306008, 46.556397873749496 ], [ -73.807382892024023, 46.558927421634912 ], [ -73.800918295911373, 46.556261882760154 ], [ -73.801032718796563, 46.551067176286821 ], [ -73.807610493882549, 46.548537984093322 ] ] ] } },
{ "type": "Feature", "properties": { "hex_id": 549565, "centroid_lon": -73.807155164162936, "centroid_lat": 46.569316839362038, "occurrences_today": 3, "datetimes_today": "2026-01-28 08:46:58, 2026-01-28 08:56:59, 2026-01-28 09:01:59", "cumulative_total": 3.0 }, "geometry": { "type": "Polygon", "coordinates": [ [ [ -73.807269043849232, 46.564122132975285 ], [ -73.813734884400745, 46.566787320898108 ], [ -73.813621611436304, 46.571982037045416 ], [ -73.807041252954235, 46.574511540795108 ], [ -73.800574837208686, 46.571845972444457 ], [ -73.800689355128355, 46.566651280839011 ], [ -73.807269043849232, 46.564122132975285 ] ] ] } },
{ "type": "Feature", "properties": { "hex_id": 550175, "centroid_lon": -73.800803841358956, "centroid_lat": 46.561456584277551, "occurrences_today": 3, "datetimes_today": "2026-01-28 08:46:58, 2026-01-28 08:56:59, 2026-01-28 09:01:59", "cumulative_total": 3.0 }, "geometry": { "type": "Polygon", "coordinates": [ [ [ -73.800918295911373, 46.556261882760154 ], [ -73.807382892024023, 46.558927421634912 ], [ -73.807269043849232, 46.564122132975285 ], [ -73.800689355128355, 46.566651280839011 ], [ -73.79422418432172, 46.563985361578617 ], [ -73.794339276919004, 46.558790674907186 ], [ -73.800918295911373, 46.556261882760154 ] ] ] } },
{ "type": "Feature", "properties": { "hex_id": 550176, "centroid_lon": -73.800460287588962, "centroid_lat": 46.57704065909391, "occurrences_today": 3, "datetimes_today": "2026-01-28 08:46:58, 2026-01-28 08:56:59, 2026-01-28 09:01:59", "cumulative_total": 3.0 }, "geometry": { "type": "Polygon", "coordinates": [ [ [ -73.800574837208686, 46.571845972444457 ], [ -73.807041252954235, 46.574511540795108 ], [ -73.806927310212274, 46.579706237274493 ], [ -73.80034570625827, 46.582235340787314 ], [ -73.793878715351426, 46.579569391842945 ], [ -73.793993903548923, 46.574374720046528 ], [ -73.800574837208686, 46.571845972444457 ] ] ] } },
{ "type": "Feature", "properties": { "hex_id": 349296, "centroid_lon": -75.940521190535605, "centroid_lat": 46.181966837089696, "occurrences_today": 2, "datetimes_today": "2026-01-28 08:56:59, 2026-01-28 09:01:59", "cumulative_total": 2.0 }, "geometry": { "type": "Polygon", "coordinates": [ [ [ -75.940432602736621, 46.17677135064141 ], [ -75.946954227861994, 46.179315618695313 ], [ -75.947043437852287, 46.184511093063925 ], [ -75.940609802735139, 46.187162318663042 ], [ -75.934087531013716, 46.184617696881411 ], [ -75.933999541013833, 46.179422203294529 ], [ -75.940432602736621, 46.17677135064141 ] ] ] } },
{ "type": "Feature", "properties": { "hex_id": 349906, "centroid_lon": -75.933911575242448, "centroid_lat": 46.174226704834474, "occurrences_today": 2, "datetimes_today": "2026-01-28 08:56:59, 2026-01-28 09:01:59", "cumulative_total": 2.0 }, "geometry": { "type": "Polygon", "coordinates": [ [ [ -75.933823633691276, 46.169031201501284 ], [ -75.940344039329887, 46.171575859318153 ], [ -75.940432602736621, 46.17677135064141 ], [ -75.933999541013833, 46.179422203294529 ], [ -75.927478489295325, 46.176877191776285 ], [ -75.927391145387787, 46.171681681372412 ], [ -75.933823633691276, 46.169031201501284 ] ] ] } },
{ "type": "Feature", "properties": { "hex_id": 349907, "centroid_lon": -75.934175545250355, "centroid_lat": 46.189813185595128, "occurrences_today": 2, "datetimes_today": "2026-01-28 08:56:59, 2026-01-28 09:01:59", "cumulative_total": 2.0 }, "geometry": { "type": "Polygon", "coordinates": [ [ [ -75.934087531013716, 46.184617696881411 ], [ -75.940609802735139, 46.187162318663042 ], [ -75.940698439343564, 46.192357795361424 ], [ -75.934263583732033, 46.195008669435673 ], [ -75.927740665389635, 46.192463693759599 ], [ -75.927653249288028, 46.187268197969878 ], [ -75.934087531013716, 46.184617696881411 ] ] ] } },
{ "type": "Feature", "properties": { "hex_id": 350516, "centroid_lon": -75.927303825528497, "centroid_lat": 46.166486166097158, "occurrences_today": 2, "datetimes_today": "2026-01-28 08:56:59, 2026-01-28 09:01:59", "cumulative_total": 2.0 }, "geometry": { "type": "Polygon", "coordinates": [ [ [ -75.927216529709241, 46.161290645950551 ], [ -75.933735716352032, 46.163835693294928 ], [ -75.933823633691276, 46.169031201501284 ], [ -75.927391145387787, 46.171681681372412 ], [ -75.920871313180854, 46.169136280353058 ], [ -75.920784614849765, 46.163940753203661 ], [ -75.927216529709241, 46.161290645950551 ] ] ] } },
{ "type": "Feature", "properties": { "hex_id": 350517, "centroid_lon": -75.927565857259324, "centroid_lat": 46.182072697308776, "occurrences_today": 2, "datetimes_today": "2026-01-28 08:56:59, 2026-01-28 09:01:59", "cumulative_total": 2.0 }, "geometry": { "type": "Polygon", "coordinates": [ [ [ -75.927478489295325, 46.176877191776285 ], [ -75.933999541013833, 46.179422203294529 ], [ -75.934087531013716, 46.184617696881411 ], [ -75.927653249288028, 46.187268197969878 ], [ -75.921131551464839, 46.184722832583603 ], [ -75.921044781480234, 46.179527320043043 ], [ -75.927478489295325, 46.176877191776285 ] ] ] } },
{ "type": "Feature", "properties": { "hex_id": 350518, "centroid_lon": -75.927828105572388, "centroid_lat": 46.197659184677903, "occurrences_today": 2, "datetimes_today": "2026-01-28 08:56:59, 2026-01-28 09:01:59", "cumulative_total": 2.0 }, "geometry": { "type": "Polygon", "coordinates": [ [ [ -75.927740665389635, 46.192463693759599 ], [ -75.934263583732033, 46.195008669435673 ], [ -75.934351646467064, 46.200204148403039 ], [ -75.927915569844515, 46.202854670724825 ], [ -75.921392004856358, 46.200309340987538 ], [ -75.921305163144723, 46.19511384305585 ], [ -75.927740665389635, 46.192463693759599 ] ] ] } },
{ "type": "Feature", "properties": { "hex_id": 351127, "centroid_lon": -75.920958035388281, "centroid_lat": 46.17433180263285, "occurrences_today": 2, "datetimes_today": "2026-01-28 08:56:59, 2026-01-28 09:01:59", "cumulative_total": 2.0 }, "geometry": { "type": "Polygon", "coordinates": [ [ [ -75.920871313180854, 46.169136280353058 ], [ -75.927391145387787, 46.171681681372412 ], [ -75.927478489295325, 46.176877191776285 ], [ -75.921044781480234, 46.179527320043043 ], [ -75.914524303684615, 46.176981565182111 ], [ -75.914438179300916, 46.171786035962121 ], [ -75.920871313180854, 46.169136280353058 ] ] ] } },
{ "type": "Feature", "properties": { "hex_id": 351128, "centroid_lon": -75.921218345350283, "centroid_lat": 46.189918340254543, "occurrences_today": 2, "datetimes_today": "2026-01-28 08:56:59, 2026-01-28 09:01:59", "cumulative_total": 2.0 }, "geometry": { "type": "Polygon", "coordinates": [ [ [ -75.921131551464839, 46.184722832583603 ], [ -75.927653249288028, 46.187268197969878 ], [ -75.927740665389635, 46.192463693759599 ], [ -75.921305163144723, 46.19511384305585 ], [ -75.914782819192297, 46.192568123634828 ], [ -75.914696623622177, 46.187372609018446 ], [ -75.921131551464839, 46.184722832583603 ] ] ] } },
{ "type": "Feature", "properties": { "hex_id": 351738, "centroid_lon": -75.914610451788988, "centroid_lat": 46.182177089534207, "occurrences_today": 2, "datetimes_today": "2026-01-28 08:56:59, 2026-01-28 09:01:59", "cumulative_total": 2.0 }, "geometry": { "type": "Polygon", "coordinates": [ [ [ -75.914524303684615, 46.176981565182111 ], [ -75.921044781480234, 46.179527320043043 ], [ -75.921131551464839, 46.184722832583603 ], [ -75.914696623622177, 46.187372609018446 ], [ -75.90817550021346, 46.184826500149278 ], [ -75.908089950268618, 46.179630968919646 ], [ -75.914524303684615, 46.176981565182111 ] ] ] } },
{ "type": "Feature", "properties": { "hex_id": 351739, "centroid_lon": -75.914869038507433, "centroid_lat": 46.19776363338331, "occurrences_today": 2, "datetimes_today": "2026-01-28 08:56:59, 2026-01-28 09:01:59", "cumulative_total": 2.0 }, "geometry": { "type": "Polygon", "coordinates": [ [ [ -75.914782819192297, 46.192568123634828 ], [ -75.921305163144723, 46.19511384305585 ], [ -75.921392004856358, 46.200309340987538 ], [ -75.914955281575729, 46.202959138263928 ], [ -75.90843229146958, 46.200413064641424 ], [ -75.908346670805898, 46.195217548010163 ], [ -75.914782819192297, 46.192568123634828 ] ] ] } },
{ "type": "Feature", "properties": { "hex_id": 352349, "centroid_lon": -75.90826107372321, "centroid_lat": 46.1900220265128, "occurrences_today": 2, "datetimes_today": "2026-01-28 08:56:59, 2026-01-28 09:01:59", "cumulative_total": 2.0 }, "geometry": { "type": "Polygon", "coordinates": [ [ [ -75.90817550021346, 46.184826500149278 ], [ -75.914696623622177, 46.187372609018446 ], [ -75.914782819192297, 46.192568123634828 ], [ -75.908346670805898, 46.195217548010163 ], [ -75.901824901759852, 46.192671084966058 ], [ -75.901739926745591, 46.187475551787713 ], [ -75.90817550021346, 46.184826500149278 ] ] ] } },
{ "type": "Feature", "properties": { "hex_id": 779131, "centroid_lon": -71.338413087095276, "centroid_lat": 46.797498455744837, "occurrences_today": 2, "datetimes_today": "2026-01-28 08:56:59, 2026-01-28 09:01:59", "cumulative_total": 2.0 }, "geometry": { "type": "Polygon", "coordinates": [ [ [ -71.338765237215114, 46.792313450659798 ], [ -71.34512752375953, 46.795115213897994 ], [ -71.344775950364976, 46.800300253303561 ], [ -71.3380608393811, 46.802683454074078 ], [ -71.331698073722677, 46.799881285340206 ], [ -71.332050898128315, 46.794696321398206 ], [ -71.338765237215114, 46.792313450659798 ] ] ] } },
{ "type": "Feature", "properties": { "hex_id": 780352, "centroid_lon": -71.325335982522375, "centroid_lat": 46.797078779864293, "occurrences_today": 2, "datetimes_today": "2026-01-28 08:56:59, 2026-01-28 09:01:59", "cumulative_total": 2.0 }, "geometry": { "type": "Polygon", "coordinates": [ [ [ -71.32568938343023, 46.79189385036937 ], [ -71.332050898128315, 46.794696321398206 ], [ -71.331698073722677, 46.799881285340206 ], [ -71.324982483675527, 46.802263702589023 ], [ -71.318620490431201, 46.799460825963017 ], [ -71.318974565746359, 46.794275937752047 ], [ -71.32568938343023, 46.79189385036937 ] ] ] } },
{ "type": "Feature", "properties": { "hex_id": 1368998, "centroid_lon": -64.707778685273269, "centroid_lat": 48.326027351297171, "occurrences_today": 2, "datetimes_today": "2026-01-28 08:56:59, 2026-01-28 09:01:59", "cumulative_total": 2.0 }, "geometry": { "type": "Polygon", "coordinates": [ [ [ -64.708818035036941, 48.320916795966767 ], [ -64.714934931847452, 48.324072171620969 ], [ -64.713896078226014, 48.329182823336765 ], [ -64.706739045274119, 48.331137885249099 ], [ -64.700621942608066, 48.32798204109789 ], [ -64.701662078647047, 48.322871603594606 ], [ -64.708818035036941, 48.320916795966767 ] ] ] } },
{ "type": "Feature", "properties": { "hex_id": 1369608, "centroid_lon": -64.702701924331464, "centroid_lat": 48.317761144695055, "occurrences_today": 2, "datetimes_today": "2026-01-28 08:56:59, 2026-01-28 09:01:59", "cumulative_total": 2.0 }, "geometry": { "type": "Polygon", "coordinates": [ [ [ -64.703741479763835, 48.312650664405439 ], [ -64.709857094667527, 48.31580621926409 ], [ -64.708818035036941, 48.320916795966767 ], [ -64.701662078647047, 48.322871603594606 ], [ -64.69554625824486, 48.31971558034261 ], [ -64.69658659962866, 48.314605217919336 ], [ -64.703741479763835, 48.312650664405439 ] ] ] } },
{ "type": "Feature", "properties": { "hex_id": 1370219, "centroid_lon": -64.694505626387581, "centroid_lat": 48.324825921351774, "occurrences_today": 2, "datetimes_today": "2026-01-28 08:56:59, 2026-01-28 09:01:59", "cumulative_total": 2.0 }, "geometry": { "type": "Polygon", "coordinates": [ [ [ -64.69554625824486, 48.31971558034261 ], [ -64.701662078647047, 48.322871603594606 ], [ -64.700621942608066, 48.32798204109789 ], [ -64.693464703954305, 48.329936240940604 ], [ -64.68734867836109, 48.326779749155776 ], [ -64.688390096510147, 48.321669526124296 ], [ -64.69554625824486, 48.31971558034261 ] ] ] } },
{ "type": "Feature", "properties": { "hex_id": 1370829, "centroid_lon": -64.689431223964291, "centroid_lat": 48.316559281654655, "occurrences_today": 2, "datetimes_today": "2026-01-28 08:56:59, 2026-01-28 09:01:59", "cumulative_total": 2.0 }, "geometry": { "type": "Polygon", "coordinates": [ [ [ -64.690472060826082, 48.311449015753098 ], [ -64.69658659962866, 48.314605217919336 ], [ -64.69554625824486, 48.31971558034261 ], [ -64.688390096510147, 48.321669526124296 ], [ -64.682275352873205, 48.318512855528944 ], [ -64.683316975702823, 48.313402707644222 ], [ -64.690472060826082, 48.311449015753098 ] ] ] } }
]
}
