{
"type": "FeatureCollection",
"name": "daily_2026-01-15",
"crs": { "type": "name", "properties": { "name": "urn:ogc:def:crs:OGC:1.3:CRS84" } },
"features": [
{ "type": "Feature", "properties": { "hex_id": 776079, "centroid_lon": -71.370583411746779, "centroid_lat": 46.806318897456372, "occurrences_today": 8, "datetimes_today": "2026-01-15 00:01:57, 2026-01-15 00:16:47, 2026-01-15 00:32:04, 2026-01-15 00:41:55, 2026-01-15 00:47:01, 2026-01-15 01:01:38, 2026-01-15 01:16:37, 2026-01-15 01:31:58", "cumulative_total": 28.0 }, "geometry": { "type": "Polygon", "coordinates": [ [ [ -71.370932579565121, 46.801133714646518 ], [ -71.377297659666695, 46.803933758644824 ], [ -71.376949069364116, 46.809118975468863 ], [ -71.370234147145652, 46.811504073545152 ], [ -71.363868586327854, 46.808703624195189 ], [ -71.36421842841122, 46.803518482187329 ], [ -71.370932579565121, 46.801133714646518 ] ] ] } },
{ "type": "Feature", "properties": { "hex_id": 773596, "centroid_lon": -71.438672615748487, "centroid_lat": 46.169300709937204, "occurrences_today": 3, "datetimes_today": "2026-01-15 06:16:49, 2026-01-15 06:31:49, 2026-01-15 06:33:37", "cumulative_total": 8.0 }, "geometry": { "type": "Polygon", "coordinates": [ [ [ -71.439007709650198, 46.164114559914275 ], [ -71.445304414246749, 46.166909084508639 ], [ -71.444969879510026, 46.172095267483385 ], [ -71.438337429729756, 46.174486853348796 ], [ -71.43204025810094, 46.171691932533157 ], [ -71.432376003253268, 46.166505822138639 ], [ -71.439007709650198, 46.164114559914275 ] ] ] } },
{ "type": "Feature", "properties": { "hex_id": 774206, "centroid_lon": -71.432711656138835, "centroid_lat": 46.16131970512631, "occurrences_today": 3, "datetimes_today": "2026-01-15 06:16:49, 2026-01-15 06:31:49, 2026-01-15 06:33:37", "cumulative_total": 8.0 }, "geometry": { "type": "Polygon", "coordinates": [ [ [ -71.433047216789049, 46.156133581496874 ], [ -71.439342711466253, 46.158928403280626 ], [ -71.439007709650198, 46.164114559914275 ], [ -71.432376003253268, 46.166505822138639 ], [ -71.426080041992947, 46.163710604190932 ], [ -71.426416253681253, 46.158524520248037 ], [ -71.433047216789049, 46.156133581496874 ] ] ] } },
{ "type": "Feature", "properties": { "hex_id": 775427, "centroid_lon": -71.419784731936076, "centroid_lat": 46.160915056197332, "occurrences_today": 3, "datetimes_today": "2026-01-15 06:16:49, 2026-01-15 06:31:49, 2026-01-15 06:33:37", "cumulative_total": 8.0 }, "geometry": { "type": "Polygon", "coordinates": [ [ [ -71.420121502246047, 46.155729005382604 ], [ -71.426416253681253, 46.158524520248037 ], [ -71.426080041992947, 46.163710604190932 ], [ -71.41944786906005, 46.16610110038139 ], [ -71.413152651585008, 46.163305189251751 ], [ -71.413490073051179, 46.158119178261089 ], [ -71.420121502246047, 46.155729005382604 ] ] ] } },
{ "type": "Feature", "properties": { "hex_id": 776037, "centroid_lon": -71.413827401801726, "centroid_lat": 46.152933160633268, "occurrences_today": 3, "datetimes_today": "2026-01-15 06:16:49, 2026-01-15 06:31:49, 2026-01-15 06:33:37", "cumulative_total": 8.0 }, "geometry": { "type": "Polygon", "coordinates": [ [ [ -71.414164637868225, 46.14774713636897 ], [ -71.420458180021484, 46.150542947937836 ], [ -71.420121502246047, 46.155729005382604 ], [ -71.413490073051179, 46.158119178261089 ], [ -71.407196065306678, 46.1553229704854 ], [ -71.407533952316754, 46.150136986103227 ], [ -71.414164637868225, 46.14774713636897 ] ] ] } },
{ "type": "Feature", "properties": { "hex_id": 776647, "centroid_lon": -71.407871746493342, "centroid_lat": 46.144950995078098, "occurrences_today": 3, "datetimes_today": "2026-01-15 06:16:49, 2026-01-15 06:31:49, 2026-01-15 06:33:37", "cumulative_total": 8.0 }, "geometry": { "type": "Polygon", "coordinates": [ [ [ -71.408209447868032, 46.13976499741068 ], [ -71.41450178128224, 46.142561105468829 ], [ -71.414164637868225, 46.14774713636897 ], [ -71.407533952316754, 46.150136986103227 ], [ -71.401241153759557, 46.147340481895689 ], [ -71.401579505865243, 46.142154524168426 ], [ -71.408209447868032, 46.13976499741068 ] ] ] } },
{ "type": "Feature", "properties": { "hex_id": 777258, "centroid_lon": -71.400902708671012, "centroid_lat": 46.152526432973502, "occurrences_today": 3, "datetimes_today": "2026-01-15 06:16:49, 2026-01-15 06:31:49, 2026-01-15 06:33:37", "cumulative_total": 8.0 }, "geometry": { "type": "Polygon", "coordinates": [ [ [ -71.401241153759557, 46.147340481895689 ], [ -71.407533952316754, 46.150136986103227 ], [ -71.407196065306678, 46.1553229704854 ], [ -71.400564170567918, 46.157712377401204 ], [ -71.394270906962603, 46.154915476886778 ], [ -71.394610003112504, 46.149729565828615 ], [ -71.401241153759557, 46.147340481895689 ] ] ] } },
{ "type": "Feature", "properties": { "hex_id": 777868, "centroid_lon": -71.3949490060985, "centroid_lat": 46.144543648113846, "occurrences_today": 3, "datetimes_today": "2026-01-15 06:16:49, 2026-01-15 06:31:49, 2026-01-15 06:33:37", "cumulative_total": 8.0 }, "geometry": { "type": "Polygon", "coordinates": [ [ [ -71.395287915952309, 46.139357723743153 ], [ -71.401579505865243, 46.142154524168426 ], [ -71.401241153759557, 46.147340481895689 ], [ -71.394610003112504, 46.149729565828615 ], [ -71.388317948599479, 46.146932369153951 ], [ -71.388657509301908, 46.141746484860896 ], [ -71.395287915952309, 46.139357723743153 ] ] ] } },
{ "type": "Feature", "properties": { "hex_id": 724748, "centroid_lon": -71.962900733800936, "centroid_lat": 46.05973024891432, "occurrences_today": 3, "datetimes_today": "2026-01-15 01:31:58, 2026-01-15 01:46:45, 2026-01-15 01:51:54", "cumulative_total": 7.0 }, "geometry": { "type": "Polygon", "coordinates": [ [ [ -71.963185461730333, 46.054541259004239 ], [ -71.96949795350605, 46.057307241056769 ], [ -71.969213789468938, 46.062496258794667 ], [ -71.962615927667571, 46.064919232726091 ], [ -71.956302950216838, 46.062152860267922 ], [ -71.9565883202159, 46.056963904349196 ], [ -71.963185461730333, 46.054541259004239 ] ] ] } },
{ "type": "Feature", "properties": { "hex_id": 725358, "centroid_lon": -71.956873611859336, "centroid_lat": 46.051774942326645, "occurrences_today": 3, "datetimes_today": "2026-01-15 01:31:58, 2026-01-15 01:46:45, 2026-01-15 01:51:54", "cumulative_total": 7.0 }, "geometry": { "type": "Polygon", "coordinates": [ [ [ -71.957158825173806, 46.046585974200724 ], [ -71.963470111482323, 46.049352262996294 ], [ -71.963185461730333, 46.054541259004239 ], [ -71.9565883202159, 46.056963904349196 ], [ -71.950276548687214, 46.05419722520169 ], [ -71.950562403866499, 46.049008291126377 ], [ -71.957158825173806, 46.046585974200724 ] ] ] } },
{ "type": "Feature", "properties": { "hex_id": 831636, "centroid_lon": -70.773938258956406, "centroid_lat": 46.809195830897465, "occurrences_today": 11, "datetimes_today": "2026-01-15 00:01:57, 2026-01-15 00:16:47, 2026-01-15 00:32:04, 2026-01-15 00:41:55, 2026-01-15 00:47:01, 2026-01-15 01:01:38, 2026-01-15 01:16:37, 2026-01-15 01:31:58, 2026-01-15 01:46:45, 2026-01-15 01:51:54, 2026-01-15 02:02:13", "cumulative_total": 29.0 }, "geometry": { "type": "Polygon", "coordinates": [ [ [ -70.774344771528632, 46.804014361839663 ], [ -70.780676855256587, 46.80684663737955 ], [ -70.7802709105936, 46.81202814620989 ], [ -70.773531633782838, 46.814377292529784 ], [ -70.767199094766497, 46.811544606800311 ], [ -70.767606287810324, 46.80636318500688 ], [ -70.774344771528632, 46.804014361839663 ] ] ] } },
{ "type": "Feature", "properties": { "hex_id": 832246, "centroid_lon": -70.768013368100782, "centroid_lat": 46.801181755780192, "occurrences_today": 11, "datetimes_today": "2026-01-15 00:01:57, 2026-01-15 00:16:47, 2026-01-15 00:32:04, 2026-01-15 00:41:55, 2026-01-15 00:47:01, 2026-01-15 01:01:38, 2026-01-15 01:16:37, 2026-01-15 01:31:58, 2026-01-15 01:46:45, 2026-01-15 01:51:54, 2026-01-15 02:02:13", "cumulative_total": 29.0 }, "geometry": { "type": "Polygon", "coordinates": [ [ [ -70.768420335676822, 46.796000319121148 ], [ -70.774751171538455, 46.798832885357328 ], [ -70.774344771528632, 46.804014361839663 ], [ -70.767606287810324, 46.80636318500688 ], [ -70.761274997116359, 46.803530208644339 ], [ -70.761682644934041, 46.7983488193073 ], [ -70.768420335676822, 46.796000319121148 ] ] ] } },
{ "type": "Feature", "properties": { "hex_id": 832247, "centroid_lon": -70.76679178893022, "centroid_lat": 46.816726021159482, "occurrences_today": 11, "datetimes_today": "2026-01-15 00:01:57, 2026-01-15 00:16:47, 2026-01-15 00:32:04, 2026-01-15 00:41:55, 2026-01-15 00:47:01, 2026-01-15 01:01:38, 2026-01-15 01:16:37, 2026-01-15 01:31:58, 2026-01-15 01:46:45, 2026-01-15 01:51:54, 2026-01-15 02:02:13", "cumulative_total": 29.0 }, "geometry": { "type": "Polygon", "coordinates": [ [ [ -70.767199094766497, 46.811544606800311 ], [ -70.773531633782838, 46.814377292529784 ], [ -70.77312489596892, 46.819558746735702 ], [ -70.7663843702625, 46.821907428083499 ], [ -70.760051376074799, 46.819074332005059 ], [ -70.760459362725825, 46.813892964994174 ], [ -70.767199094766497, 46.811544606800311 ] ] ] } },
{ "type": "Feature", "properties": { "hex_id": 832857, "centroid_lon": -70.760867236393324, "centroid_lat": 46.808711590540284, "occurrences_today": 11, "datetimes_today": "2026-01-15 00:01:57, 2026-01-15 00:16:47, 2026-01-15 00:32:04, 2026-01-15 00:41:55, 2026-01-15 00:47:01, 2026-01-15 01:01:38, 2026-01-15 01:16:37, 2026-01-15 01:31:58, 2026-01-15 01:46:45, 2026-01-15 01:51:54, 2026-01-15 02:02:13", "cumulative_total": 29.0 }, "geometry": { "type": "Polygon", "coordinates": [ [ [ -70.761274997116359, 46.803530208644339 ], [ -70.767606287810324, 46.80636318500688 ], [ -70.767199094766497, 46.811544606800311 ], [ -70.760459362725825, 46.813892964994174 ], [ -70.754127617316641, 46.811059578345969 ], [ -70.754536058624254, 46.805878243855929 ], [ -70.761274997116359, 46.803530208644339 ] ] ] } },
{ "type": "Feature", "properties": { "hex_id": 832858, "centroid_lon": -70.759643276401121, "centroid_lat": 46.824255691571985, "occurrences_today": 34, "datetimes_today": "2026-01-15 00:01:57, 2026-01-15 00:16:47, 2026-01-15 00:32:04, 2026-01-15 00:41:55, 2026-01-15 00:47:01, 2026-01-15 01:01:38, 2026-01-15 01:16:37, 2026-01-15 01:31:58, 2026-01-15 01:46:45, 2026-01-15 01:51:54, 2026-01-15 02:02:13, 2026-01-15 02:16:53, 2026-01-15 02:31:44, 2026-01-15 02:37:11, 2026-01-15 02:47:09, 2026-01-15 03:02:14, 2026-01-15 03:17:00, 2026-01-15 03:32:05, 2026-01-15 03:46:45, 2026-01-15 03:48:11, 2026-01-15 04:01:49, 2026-01-15 04:16:54, 2026-01-15 04:31:45, 2026-01-15 04:41:49, 2026-01-15 04:46:37, 2026-01-15 05:02:09, 2026-01-15 05:16:45, 2026-01-15 05:32:19, 2026-01-15 05:43:24, 2026-01-15 05:46:50, 2026-01-15 06:02:02, 2026-01-15 06:16:49, 2026-01-15 06:31:49, 2026-01-15 06:33:37", "cumulative_total": 52.0 }, "geometry": { "type": "Polygon", "coordinates": [ [ [ -70.760051376074799, 46.819074332005059 ], [ -70.7663843702625, 46.821907428083499 ], [ -70.765976838724214, 46.82708882757138 ], [ -70.759235063665656, 46.829437043694007 ], [ -70.752901614423905, 46.826603537107253 ], [ -70.753310395255639, 46.821422224972579 ], [ -70.760051376074799, 46.819074332005059 ] ] ] } },
{ "type": "Feature", "properties": { "hex_id": 833468, "centroid_lon": -70.753719062873486, "centroid_lat": 46.816240905385165, "occurrences_today": 34, "datetimes_today": "2026-01-15 00:01:57, 2026-01-15 00:16:47, 2026-01-15 00:32:04, 2026-01-15 00:41:55, 2026-01-15 00:47:01, 2026-01-15 01:01:38, 2026-01-15 01:16:37, 2026-01-15 01:31:58, 2026-01-15 01:46:45, 2026-01-15 01:51:54, 2026-01-15 02:02:13, 2026-01-15 02:16:53, 2026-01-15 02:31:44, 2026-01-15 02:37:11, 2026-01-15 02:47:09, 2026-01-15 03:02:14, 2026-01-15 03:17:00, 2026-01-15 03:32:05, 2026-01-15 03:46:45, 2026-01-15 03:48:11, 2026-01-15 04:01:49, 2026-01-15 04:16:54, 2026-01-15 04:31:45, 2026-01-15 04:41:49, 2026-01-15 04:46:37, 2026-01-15 05:02:09, 2026-01-15 05:16:45, 2026-01-15 05:32:19, 2026-01-15 05:43:24, 2026-01-15 05:46:50, 2026-01-15 06:02:02, 2026-01-15 06:16:49, 2026-01-15 06:31:49, 2026-01-15 06:33:37", "cumulative_total": 52.0 }, "geometry": { "type": "Polygon", "coordinates": [ [ [ -70.754127617316641, 46.811059578345969 ], [ -70.760459362725825, 46.813892964994174 ], [ -70.760051376074799, 46.819074332005059 ], [ -70.753310395255639, 46.821422224972579 ], [ -70.746978195248616, 46.818588427879384 ], [ -70.747387430619426, 46.81340714833005 ], [ -70.754127617316641, 46.811059578345969 ] ] ] } },
{ "type": "Feature", "properties": { "hex_id": 833469, "centroid_lon": -70.752492720339077, "centroid_lat": 46.831784841788199, "occurrences_today": 34, "datetimes_today": "2026-01-15 00:01:57, 2026-01-15 00:16:47, 2026-01-15 00:32:04, 2026-01-15 00:41:55, 2026-01-15 00:47:01, 2026-01-15 01:01:38, 2026-01-15 01:16:37, 2026-01-15 01:31:58, 2026-01-15 01:46:45, 2026-01-15 01:51:54, 2026-01-15 02:02:13, 2026-01-15 02:16:53, 2026-01-15 02:31:44, 2026-01-15 02:37:11, 2026-01-15 02:47:09, 2026-01-15 03:02:14, 2026-01-15 03:17:00, 2026-01-15 03:32:05, 2026-01-15 03:46:45, 2026-01-15 03:48:11, 2026-01-15 04:01:49, 2026-01-15 04:16:54, 2026-01-15 04:31:45, 2026-01-15 04:41:49, 2026-01-15 04:46:37, 2026-01-15 05:02:09, 2026-01-15 05:16:45, 2026-01-15 05:32:19, 2026-01-15 05:43:24, 2026-01-15 05:46:50, 2026-01-15 06:02:02, 2026-01-15 06:16:49, 2026-01-15 06:31:49, 2026-01-15 06:33:37", "cumulative_total": 52.0 }, "geometry": { "type": "Polygon", "coordinates": [ [ [ -70.752901614423905, 46.826603537107253 ], [ -70.759235063665656, 46.829437043694007 ], [ -70.758826737829253, 46.83461838837016 ], [ -70.752083712961962, 46.836966139014493 ], [ -70.7457498087837, 46.834132221760008 ], [ -70.746159384370017, 46.828950964595329 ], [ -70.752901614423905, 46.826603537107253 ] ] ] } },
{ "type": "Feature", "properties": { "hex_id": 834079, "centroid_lon": -70.746568846511892, "centroid_lat": 46.823769699968132, "occurrences_today": 34, "datetimes_today": "2026-01-15 00:01:57, 2026-01-15 00:16:47, 2026-01-15 00:32:04, 2026-01-15 00:41:55, 2026-01-15 00:47:01, 2026-01-15 01:01:38, 2026-01-15 01:16:37, 2026-01-15 01:31:58, 2026-01-15 01:46:45, 2026-01-15 01:51:54, 2026-01-15 02:02:13, 2026-01-15 02:16:53, 2026-01-15 02:31:44, 2026-01-15 02:37:11, 2026-01-15 02:47:09, 2026-01-15 03:02:14, 2026-01-15 03:17:00, 2026-01-15 03:32:05, 2026-01-15 03:46:45, 2026-01-15 03:48:11, 2026-01-15 04:01:49, 2026-01-15 04:16:54, 2026-01-15 04:31:45, 2026-01-15 04:41:49, 2026-01-15 04:46:37, 2026-01-15 05:02:09, 2026-01-15 05:16:45, 2026-01-15 05:32:19, 2026-01-15 05:43:24, 2026-01-15 05:46:50, 2026-01-15 06:02:02, 2026-01-15 06:16:49, 2026-01-15 06:31:49, 2026-01-15 06:33:37", "cumulative_total": 52.0 }, "geometry": { "type": "Polygon", "coordinates": [ [ [ -70.746978195248616, 46.818588427879384 ], [ -70.753310395255639, 46.821422224972579 ], [ -70.752901614423905, 46.826603537107253 ], [ -70.746159384370017, 46.828950964595329 ], [ -70.739826729882793, 46.826116756897811 ], [ -70.740236759890408, 46.820935532382933 ], [ -70.746978195248616, 46.818588427879384 ] ] ] } },
{ "type": "Feature", "properties": { "hex_id": 834080, "centroid_lon": -70.745340119713674, "centroid_lat": 46.839313471461175, "occurrences_today": 34, "datetimes_today": "2026-01-15 00:01:57, 2026-01-15 00:16:47, 2026-01-15 00:32:04, 2026-01-15 00:41:55, 2026-01-15 00:47:01, 2026-01-15 01:01:38, 2026-01-15 01:16:37, 2026-01-15 01:31:58, 2026-01-15 01:46:45, 2026-01-15 01:51:54, 2026-01-15 02:02:13, 2026-01-15 02:16:53, 2026-01-15 02:31:44, 2026-01-15 02:37:11, 2026-01-15 02:47:09, 2026-01-15 03:02:14, 2026-01-15 03:17:00, 2026-01-15 03:32:05, 2026-01-15 03:46:45, 2026-01-15 03:48:11, 2026-01-15 04:01:49, 2026-01-15 04:16:54, 2026-01-15 04:31:45, 2026-01-15 04:41:49, 2026-01-15 04:46:37, 2026-01-15 05:02:09, 2026-01-15 05:16:45, 2026-01-15 05:32:19, 2026-01-15 05:43:24, 2026-01-15 05:46:50, 2026-01-15 06:02:02, 2026-01-15 06:16:49, 2026-01-15 06:31:49, 2026-01-15 06:33:37", "cumulative_total": 52.0 }, "geometry": { "type": "Polygon", "coordinates": [ [ [ -70.7457498087837, 46.834132221760008 ], [ -70.752083712961962, 46.836966139014493 ], [ -70.751674592253295, 46.842147428785168 ], [ -70.744930317120605, 46.844494713697941 ], [ -70.738595958123668, 46.841660385616279 ], [ -70.739006329038773, 46.836479183515458 ], [ -70.7457498087837, 46.834132221760008 ] ] ] } },
{ "type": "Feature", "properties": { "hex_id": 834689, "centroid_lon": -70.740646676340845, "centroid_lat": 46.815754300398638, "occurrences_today": 34, "datetimes_today": "2026-01-15 00:01:57, 2026-01-15 00:16:47, 2026-01-15 00:32:04, 2026-01-15 00:41:55, 2026-01-15 00:47:01, 2026-01-15 01:01:38, 2026-01-15 01:16:37, 2026-01-15 01:31:58, 2026-01-15 01:46:45, 2026-01-15 01:51:54, 2026-01-15 02:02:13, 2026-01-15 02:16:53, 2026-01-15 02:31:44, 2026-01-15 02:37:11, 2026-01-15 02:47:09, 2026-01-15 03:02:14, 2026-01-15 03:17:00, 2026-01-15 03:32:05, 2026-01-15 03:46:45, 2026-01-15 03:48:11, 2026-01-15 04:01:49, 2026-01-15 04:16:54, 2026-01-15 04:31:45, 2026-01-15 04:41:49, 2026-01-15 04:46:37, 2026-01-15 05:02:09, 2026-01-15 05:16:45, 2026-01-15 05:32:19, 2026-01-15 05:43:24, 2026-01-15 05:46:50, 2026-01-15 06:02:02, 2026-01-15 06:16:49, 2026-01-15 06:31:49, 2026-01-15 06:33:37", "cumulative_total": 52.0 }, "geometry": { "type": "Polygon", "coordinates": [ [ [ -70.741056479273382, 46.810573060945913 ], [ -70.747387430619426, 46.81340714833005 ], [ -70.746978195248616, 46.818588427879384 ], [ -70.740236759890408, 46.820935532382933 ], [ -70.733905354520161, 46.818101034457911 ], [ -70.734315838493046, 46.81291984263661 ], [ -70.741056479273382, 46.810573060945913 ] ] ] } },
{ "type": "Feature", "properties": { "hex_id": 834690, "centroid_lon": -70.739416586278708, "centroid_lat": 46.831297973942291, "occurrences_today": 34, "datetimes_today": "2026-01-15 00:01:57, 2026-01-15 00:16:47, 2026-01-15 00:32:04, 2026-01-15 00:41:55, 2026-01-15 00:47:01, 2026-01-15 01:01:38, 2026-01-15 01:16:37, 2026-01-15 01:31:58, 2026-01-15 01:46:45, 2026-01-15 01:51:54, 2026-01-15 02:02:13, 2026-01-15 02:16:53, 2026-01-15 02:31:44, 2026-01-15 02:37:11, 2026-01-15 02:47:09, 2026-01-15 03:02:14, 2026-01-15 03:17:00, 2026-01-15 03:32:05, 2026-01-15 03:46:45, 2026-01-15 03:48:11, 2026-01-15 04:01:49, 2026-01-15 04:16:54, 2026-01-15 04:31:45, 2026-01-15 04:41:49, 2026-01-15 04:46:37, 2026-01-15 05:02:09, 2026-01-15 05:16:45, 2026-01-15 05:32:19, 2026-01-15 05:43:24, 2026-01-15 05:46:50, 2026-01-15 06:02:02, 2026-01-15 06:16:49, 2026-01-15 06:31:49, 2026-01-15 06:33:37", "cumulative_total": 52.0 }, "geometry": { "type": "Polygon", "coordinates": [ [ [ -70.739826729882793, 46.826116756897811 ], [ -70.746159384370017, 46.828950964595329 ], [ -70.7457498087837, 46.834132221760008 ], [ -70.739006329038773, 46.836479183515458 ], [ -70.732673220189298, 46.833644565054257 ], [ -70.733084045407651, 46.828463395667711 ], [ -70.739826729882793, 46.826116756897811 ] ] ] } },
{ "type": "Feature", "properties": { "hex_id": 834691, "centroid_lon": -70.738185473493999, "centroid_lat": 46.846841580243868, "occurrences_today": 32, "datetimes_today": "2026-01-15 00:01:57, 2026-01-15 00:16:47, 2026-01-15 00:32:04, 2026-01-15 00:41:55, 2026-01-15 00:47:01, 2026-01-15 01:01:38, 2026-01-15 01:16:37, 2026-01-15 01:31:58, 2026-01-15 01:46:45, 2026-01-15 01:51:54, 2026-01-15 02:02:13, 2026-01-15 02:16:53, 2026-01-15 02:31:44, 2026-01-15 02:37:11, 2026-01-15 02:47:09, 2026-01-15 03:02:14, 2026-01-15 03:17:00, 2026-01-15 03:32:05, 2026-01-15 03:46:45, 2026-01-15 03:48:11, 2026-01-15 04:01:49, 2026-01-15 04:16:54, 2026-01-15 04:31:45, 2026-01-15 04:41:49, 2026-01-15 04:46:37, 2026-01-15 05:02:09, 2026-01-15 05:16:45, 2026-01-15 05:32:19, 2026-01-15 05:43:24, 2026-01-15 05:46:50, 2026-01-15 06:02:02, 2026-01-15 06:16:49", "cumulative_total": 50.0 }, "geometry": { "type": "Polygon", "coordinates": [ [ [ -70.738595958123668, 46.841660385616279 ], [ -70.744930317120605, 46.844494713697941 ], [ -70.7445204009652, 46.849675948469297 ], [ -70.737774875110375, 46.852022767397202 ], [ -70.731440061412826, 46.849188028328932 ], [ -70.731851228231321, 46.84400688138583 ], [ -70.738595958123668, 46.841660385616279 ] ] ] } },
{ "type": "Feature", "properties": { "hex_id": 835300, "centroid_lon": -70.733494756838155, "centroid_lat": 46.823282218801936, "occurrences_today": 32, "datetimes_today": "2026-01-15 00:01:57, 2026-01-15 00:16:47, 2026-01-15 00:32:04, 2026-01-15 00:41:55, 2026-01-15 00:47:01, 2026-01-15 01:01:38, 2026-01-15 01:16:37, 2026-01-15 01:31:58, 2026-01-15 01:46:45, 2026-01-15 01:51:54, 2026-01-15 02:02:13, 2026-01-15 02:16:53, 2026-01-15 02:31:44, 2026-01-15 02:37:11, 2026-01-15 02:47:09, 2026-01-15 03:02:14, 2026-01-15 03:17:00, 2026-01-15 03:32:05, 2026-01-15 03:46:45, 2026-01-15 03:48:11, 2026-01-15 04:01:49, 2026-01-15 04:16:54, 2026-01-15 04:31:45, 2026-01-15 04:41:49, 2026-01-15 04:46:37, 2026-01-15 05:02:09, 2026-01-15 05:16:45, 2026-01-15 05:32:19, 2026-01-15 05:43:24, 2026-01-15 05:46:50, 2026-01-15 06:02:02, 2026-01-15 06:16:49", "cumulative_total": 50.0 }, "geometry": { "type": "Polygon", "coordinates": [ [ [ -70.733905354520161, 46.818101034457911 ], [ -70.740236759890408, 46.820935532382933 ], [ -70.739826729882793, 46.826116756897811 ], [ -70.733084045407651, 46.828463395667711 ], [ -70.726752186131165, 46.825628487042515 ], [ -70.727163465196682, 46.820447350413978 ], [ -70.733905354520161, 46.818101034457911 ] ] ] } },
{ "type": "Feature", "properties": { "hex_id": 835301, "centroid_lon": -70.732262281143662, "centroid_lat": 46.838825726960614, "occurrences_today": 34, "datetimes_today": "2026-01-15 00:01:57, 2026-01-15 00:16:47, 2026-01-15 00:32:04, 2026-01-15 00:41:55, 2026-01-15 00:47:01, 2026-01-15 01:01:38, 2026-01-15 01:16:37, 2026-01-15 01:31:58, 2026-01-15 01:46:45, 2026-01-15 01:51:54, 2026-01-15 02:02:13, 2026-01-15 02:16:53, 2026-01-15 02:31:44, 2026-01-15 02:37:11, 2026-01-15 02:47:09, 2026-01-15 03:02:14, 2026-01-15 03:17:00, 2026-01-15 03:32:05, 2026-01-15 03:46:45, 2026-01-15 03:48:11, 2026-01-15 04:01:49, 2026-01-15 04:16:54, 2026-01-15 04:31:45, 2026-01-15 04:41:49, 2026-01-15 04:46:37, 2026-01-15 05:02:09, 2026-01-15 05:16:45, 2026-01-15 05:32:19, 2026-01-15 05:43:24, 2026-01-15 05:46:50, 2026-01-15 06:02:02, 2026-01-15 06:16:49, 2026-01-15 06:31:49, 2026-01-15 06:33:37", "cumulative_total": 52.0 }, "geometry": { "type": "Polygon", "coordinates": [ [ [ -70.732673220189298, 46.833644565054257 ], [ -70.739006329038773, 46.836479183515458 ], [ -70.738595958123668, 46.841660385616279 ], [ -70.731851228231321, 46.84400688138583 ], [ -70.725517665137701, 46.841171852001601 ], [ -70.725929286141152, 46.835990737837292 ], [ -70.732673220189298, 46.833644565054257 ] ] ] } },
{ "type": "Feature", "properties": { "hex_id": 835911, "centroid_lon": -70.726340793125814, "centroid_lat": 46.830809616183927, "occurrences_today": 34, "datetimes_today": "2026-01-15 00:01:57, 2026-01-15 00:16:47, 2026-01-15 00:32:04, 2026-01-15 00:41:55, 2026-01-15 00:47:01, 2026-01-15 01:01:38, 2026-01-15 01:16:37, 2026-01-15 01:31:58, 2026-01-15 01:46:45, 2026-01-15 01:51:54, 2026-01-15 02:02:13, 2026-01-15 02:16:53, 2026-01-15 02:31:44, 2026-01-15 02:37:11, 2026-01-15 02:47:09, 2026-01-15 03:02:14, 2026-01-15 03:17:00, 2026-01-15 03:32:05, 2026-01-15 03:46:45, 2026-01-15 03:48:11, 2026-01-15 04:01:49, 2026-01-15 04:16:54, 2026-01-15 04:31:45, 2026-01-15 04:41:49, 2026-01-15 04:46:37, 2026-01-15 05:02:09, 2026-01-15 05:16:45, 2026-01-15 05:32:19, 2026-01-15 05:43:24, 2026-01-15 05:46:50, 2026-01-15 06:02:02, 2026-01-15 06:16:49, 2026-01-15 06:31:49, 2026-01-15 06:33:37", "cumulative_total": 52.0 }, "geometry": { "type": "Polygon", "coordinates": [ [ [ -70.726752186131165, 46.825628487042515 ], [ -70.733084045407651, 46.828463395667711 ], [ -70.732673220189298, 46.833644565054257 ], [ -70.725929286141152, 46.835990737837292 ], [ -70.71959697307669, 46.833155418352604 ], [ -70.720009047808887, 46.827974337010772 ], [ -70.726752186131165, 46.825628487042515 ] ] ] } },
{ "type": "Feature", "properties": { "hex_id": 835912, "centroid_lon": -70.725105930076012, "centroid_lat": 46.846352958675908, "occurrences_today": 34, "datetimes_today": "2026-01-15 00:01:57, 2026-01-15 00:16:47, 2026-01-15 00:32:04, 2026-01-15 00:41:55, 2026-01-15 00:47:01, 2026-01-15 01:01:38, 2026-01-15 01:16:37, 2026-01-15 01:31:58, 2026-01-15 01:46:45, 2026-01-15 01:51:54, 2026-01-15 02:02:13, 2026-01-15 02:16:53, 2026-01-15 02:31:44, 2026-01-15 02:37:11, 2026-01-15 02:47:09, 2026-01-15 03:02:14, 2026-01-15 03:17:00, 2026-01-15 03:32:05, 2026-01-15 03:46:45, 2026-01-15 03:48:11, 2026-01-15 04:01:49, 2026-01-15 04:16:54, 2026-01-15 04:31:45, 2026-01-15 04:41:49, 2026-01-15 04:46:37, 2026-01-15 05:02:09, 2026-01-15 05:16:45, 2026-01-15 05:32:19, 2026-01-15 05:43:24, 2026-01-15 05:46:50, 2026-01-15 06:02:02, 2026-01-15 06:16:49, 2026-01-15 06:31:49, 2026-01-15 06:33:37", "cumulative_total": 52.0 }, "geometry": { "type": "Polygon", "coordinates": [ [ [ -70.725517665137701, 46.841171852001601 ], [ -70.731851228231321, 46.84400688138583 ], [ -70.731440061412826, 46.849188028328932 ], [ -70.724694080916535, 46.851534057859219 ], [ -70.718360063697261, 46.848698617392515 ], [ -70.718772481060427, 46.843517558544441 ], [ -70.725517665137701, 46.841171852001601 ] ] ] } },
{ "type": "Feature", "properties": { "hex_id": 836522, "centroid_lon": -70.719184784173734, "centroid_lat": 46.83833649219747, "occurrences_today": 34, "datetimes_today": "2026-01-15 00:01:57, 2026-01-15 00:16:47, 2026-01-15 00:32:04, 2026-01-15 00:41:55, 2026-01-15 00:47:01, 2026-01-15 01:01:38, 2026-01-15 01:16:37, 2026-01-15 01:31:58, 2026-01-15 01:46:45, 2026-01-15 01:51:54, 2026-01-15 02:02:13, 2026-01-15 02:16:53, 2026-01-15 02:31:44, 2026-01-15 02:37:11, 2026-01-15 02:47:09, 2026-01-15 03:02:14, 2026-01-15 03:17:00, 2026-01-15 03:32:05, 2026-01-15 03:46:45, 2026-01-15 03:48:11, 2026-01-15 04:01:49, 2026-01-15 04:16:54, 2026-01-15 04:31:45, 2026-01-15 04:41:49, 2026-01-15 04:46:37, 2026-01-15 05:02:09, 2026-01-15 05:16:45, 2026-01-15 05:32:19, 2026-01-15 05:43:24, 2026-01-15 05:46:50, 2026-01-15 06:02:02, 2026-01-15 06:16:49, 2026-01-15 06:31:49, 2026-01-15 06:33:37", "cumulative_total": 52.0 }, "geometry": { "type": "Polygon", "coordinates": [ [ [ -70.71959697307669, 46.833155418352604 ], [ -70.725929286141152, 46.835990737837292 ], [ -70.725517665137701, 46.841171852001601 ], [ -70.718772481060427, 46.843517558544441 ], [ -70.712439714326536, 46.840681828040921 ], [ -70.712852585299814, 46.835500802079821 ], [ -70.71959697307669, 46.833155418352604 ] ] ] } },
{ "type": "Feature", "properties": { "hex_id": 836523, "centroid_lon": -70.717947532044633, "centroid_lat": 46.853879668740738, "occurrences_today": 34, "datetimes_today": "2026-01-15 00:01:57, 2026-01-15 00:16:47, 2026-01-15 00:32:04, 2026-01-15 00:41:55, 2026-01-15 00:47:01, 2026-01-15 01:01:38, 2026-01-15 01:16:37, 2026-01-15 01:31:58, 2026-01-15 01:46:45, 2026-01-15 01:51:54, 2026-01-15 02:02:13, 2026-01-15 02:16:53, 2026-01-15 02:31:44, 2026-01-15 02:37:11, 2026-01-15 02:47:09, 2026-01-15 03:02:14, 2026-01-15 03:17:00, 2026-01-15 03:32:05, 2026-01-15 03:46:45, 2026-01-15 03:48:11, 2026-01-15 04:01:49, 2026-01-15 04:16:54, 2026-01-15 04:31:45, 2026-01-15 04:41:49, 2026-01-15 04:46:37, 2026-01-15 05:02:09, 2026-01-15 05:16:45, 2026-01-15 05:32:19, 2026-01-15 05:43:24, 2026-01-15 05:46:50, 2026-01-15 06:02:02, 2026-01-15 06:16:49, 2026-01-15 06:31:49, 2026-01-15 06:33:37", "cumulative_total": 52.0 }, "geometry": { "type": "Polygon", "coordinates": [ [ [ -70.718360063697261, 46.848698617392515 ], [ -70.724694080916535, 46.851534057859219 ], [ -70.724282117619751, 46.856715149550581 ], [ -70.717534886062936, 46.859060712588118 ], [ -70.711200414836668, 46.85622486087955 ], [ -70.711613629134604, 46.851043857441773 ], [ -70.718360063697261, 46.848698617392515 ] ] ] } },
{ "type": "Feature", "properties": { "hex_id": 837133, "centroid_lon": -70.712026728951344, "centroid_lat": 46.845862846495251, "occurrences_today": 34, "datetimes_today": "2026-01-15 00:01:57, 2026-01-15 00:16:47, 2026-01-15 00:32:04, 2026-01-15 00:41:55, 2026-01-15 00:47:01, 2026-01-15 01:01:38, 2026-01-15 01:16:37, 2026-01-15 01:31:58, 2026-01-15 01:46:45, 2026-01-15 01:51:54, 2026-01-15 02:02:13, 2026-01-15 02:16:53, 2026-01-15 02:31:44, 2026-01-15 02:37:11, 2026-01-15 02:47:09, 2026-01-15 03:02:14, 2026-01-15 03:17:00, 2026-01-15 03:32:05, 2026-01-15 03:46:45, 2026-01-15 03:48:11, 2026-01-15 04:01:49, 2026-01-15 04:16:54, 2026-01-15 04:31:45, 2026-01-15 04:41:49, 2026-01-15 04:46:37, 2026-01-15 05:02:09, 2026-01-15 05:16:45, 2026-01-15 05:32:19, 2026-01-15 05:43:24, 2026-01-15 05:46:50, 2026-01-15 06:02:02, 2026-01-15 06:16:49, 2026-01-15 06:31:49, 2026-01-15 06:33:37", "cumulative_total": 52.0 }, "geometry": { "type": "Polygon", "coordinates": [ [ [ -70.712439714326536, 46.840681828040921 ], [ -70.718772481060427, 46.843517558544441 ], [ -70.718360063697261, 46.848698617392515 ], [ -70.711613629134604, 46.851043857441773 ], [ -70.705280408850044, 46.848207715760097 ], [ -70.705694076639148, 46.843026745273747 ], [ -70.712439714326536, 46.840681828040921 ] ] ] } },
{ "type": "Feature", "properties": { "hex_id": 774857, "centroid_lon": -71.38470687319392, "centroid_lat": 46.791177672767624, "occurrences_today": 8, "datetimes_today": "2026-01-15 00:01:57, 2026-01-15 00:16:47, 2026-01-15 00:32:04, 2026-01-15 00:41:55, 2026-01-15 00:47:01, 2026-01-15 01:01:38, 2026-01-15 01:16:37, 2026-01-15 01:31:58", "cumulative_total": 25.0 }, "geometry": { "type": "Polygon", "coordinates": [ [ [ -71.385054500240713, 46.785992395165998 ], [ -71.391418618608682, 46.78879162894458 ], [ -71.391071568833098, 46.793976940413437 ], [ -71.384359149809498, 46.79636294366442 ], [ -71.377994550524619, 46.793563304856555 ], [ -71.378342851146883, 46.788378067893682 ], [ -71.385054500240713, 46.785992395165998 ] ] ] } },
{ "type": "Feature", "properties": { "hex_id": 775468, "centroid_lon": -71.377646153375707, "centroid_lat": 46.798748535107165, "occurrences_today": 8, "datetimes_today": "2026-01-15 00:01:57, 2026-01-15 00:16:47, 2026-01-15 00:32:04, 2026-01-15 00:41:55, 2026-01-15 00:47:01, 2026-01-15 01:01:38, 2026-01-15 01:16:37, 2026-01-15 01:31:58", "cumulative_total": 25.0 }, "geometry": { "type": "Polygon", "coordinates": [ [ [ -71.377994550524619, 46.793563304856555 ], [ -71.384359149809498, 46.79636294366442 ], [ -71.384011330054093, 46.801548207855717 ], [ -71.377297659666695, 46.803933758644824 ], [ -71.370932579565121, 46.801133714646518 ], [ -71.371281650634202, 46.795948525116259 ], [ -71.377994550524619, 46.793563304856555 ] ] ] } },
{ "type": "Feature", "properties": { "hex_id": 724137, "centroid_lon": -71.969782039517412, "centroid_lat": 46.052118217226521, "occurrences_today": 3, "datetimes_today": "2026-01-15 01:31:58, 2026-01-15 01:46:45, 2026-01-15 01:51:54", "cumulative_total": 4.0 }, "geometry": { "type": "Polygon", "coordinates": [ [ [ -71.970066047529556, 46.046929187304372 ], [ -71.976378053550633, 46.049694779109828 ], [ -71.976094609305648, 46.054883836789053 ], [ -71.96949795350605, 46.057307241056769 ], [ -71.963185461730333, 46.054541259004239 ], [ -71.963470111482323, 46.049352262996294 ], [ -71.970066047529556, 46.046929187304372 ] ] ] } },
{ "type": "Feature", "properties": { "hex_id": 776689, "centroid_lon": -71.364568173556123, "centroid_lat": 46.798333333451602, "occurrences_today": 8, "datetimes_today": "2026-01-15 00:01:57, 2026-01-15 00:16:47, 2026-01-15 00:32:04, 2026-01-15 00:41:55, 2026-01-15 00:47:01, 2026-01-15 01:01:38, 2026-01-15 01:16:37, 2026-01-15 01:31:58", "cumulative_total": 23.0 }, "geometry": { "type": "Polygon", "coordinates": [ [ [ -71.364917821796141, 46.793148177988691 ], [ -71.371281650634202, 46.795948525116259 ], [ -71.370932579565121, 46.801133714646518 ], [ -71.36421842841122, 46.803518482187329 ], [ -71.357854119323918, 46.800717729767449 ], [ -71.358204441606176, 46.795532615165783 ], [ -71.364917821796141, 46.793148177988691 ] ] ] } },
{ "type": "Feature", "properties": { "hex_id": 675239, "centroid_lon": -72.52636218294731, "centroid_lat": 45.161285564481091, "occurrences_today": 12, "datetimes_today": "2026-01-15 00:16:47, 2026-01-15 00:32:04, 2026-01-15 00:41:55, 2026-01-15 00:47:01, 2026-01-15 01:01:38, 2026-01-15 01:16:37, 2026-01-15 01:31:58, 2026-01-15 01:46:45, 2026-01-15 01:51:54, 2026-01-15 02:02:13, 2026-01-15 02:16:53, 2026-01-15 02:31:44", "cumulative_total": 12.0 }, "geometry": { "type": "Polygon", "coordinates": [ [ [ -72.526586971937988, 45.156093294845519 ], [ -72.532830201670549, 45.158826986499108 ], [ -72.53260595836575, 45.16401927809148 ], [ -72.526137332856905, 45.166477828497214 ], [ -72.519893618548309, 45.163743762875718 ], [ -72.520119014304314, 45.158551520879818 ], [ -72.526586971937988, 45.156093294845519 ] ] ] } },
{ "type": "Feature", "properties": { "hex_id": 675240, "centroid_lon": -72.525687449295759, "centroid_lat": 45.176862339669853, "occurrences_today": 12, "datetimes_today": "2026-01-15 00:16:47, 2026-01-15 00:32:04, 2026-01-15 00:41:55, 2026-01-15 00:47:01, 2026-01-15 01:01:38, 2026-01-15 01:16:37, 2026-01-15 01:31:58, 2026-01-15 01:46:45, 2026-01-15 01:51:54, 2026-01-15 02:02:13, 2026-01-15 02:16:53, 2026-01-15 02:31:44", "cumulative_total": 12.0 }, "geometry": { "type": "Polygon", "coordinates": [ [ [ -72.525912421646495, 45.171670086893577 ], [ -72.532157288875055, 45.174403844430472 ], [ -72.531932862648631, 45.179596119176487 ], [ -72.525462415784389, 45.182054586825785 ], [ -72.519217063602312, 45.179320455117704 ], [ -72.519442643217687, 45.174128229994977 ], [ -72.525912421646495, 45.171670086893577 ] ] ] } },
{ "type": "Feature", "properties": { "hex_id": 675849, "centroid_lon": -72.520344348814547, "centroid_lat": 45.153359273260158, "occurrences_today": 12, "datetimes_today": "2026-01-15 00:16:47, 2026-01-15 00:32:04, 2026-01-15 00:41:55, 2026-01-15 00:47:01, 2026-01-15 01:01:38, 2026-01-15 01:16:37, 2026-01-15 01:31:58, 2026-01-15 01:46:45, 2026-01-15 01:51:54, 2026-01-15 02:02:13, 2026-01-15 02:16:53, 2026-01-15 02:31:44", "cumulative_total": 12.0 }, "geometry": { "type": "Polygon", "coordinates": [ [ [ -72.520569622099387, 45.148167020017041 ], [ -72.526811699849247, 45.150901019590805 ], [ -72.526586971937988, 45.156093294845519 ], [ -72.520119014304314, 45.158551520879818 ], [ -72.513876452416469, 45.155817147386337 ], [ -72.514102332279947, 45.150624921841676 ], [ -72.520569622099387, 45.148167020017041 ] ] ] } },
{ "type": "Feature", "properties": { "hex_id": 675850, "centroid_lon": -72.519668161526212, "centroid_lat": 45.168935999247545, "occurrences_today": 12, "datetimes_today": "2026-01-15 00:16:47, 2026-01-15 00:32:04, 2026-01-15 00:41:55, 2026-01-15 00:47:01, 2026-01-15 01:01:38, 2026-01-15 01:16:37, 2026-01-15 01:31:58, 2026-01-15 01:46:45, 2026-01-15 01:51:54, 2026-01-15 02:02:13, 2026-01-15 02:16:53, 2026-01-15 02:31:44", "cumulative_total": 12.0 }, "geometry": { "type": "Polygon", "coordinates": [ [ [ -72.519893618548309, 45.163743762875718 ], [ -72.526137332856905, 45.166477828497214 ], [ -72.525912421646495, 45.171670086893577 ], [ -72.519442643217687, 45.174128229994977 ], [ -72.513198444394035, 45.171393790250534 ], [ -72.513424508493898, 45.166201581591082 ], [ -72.519893618548309, 45.163743762875718 ] ] ] } },
{ "type": "Feature", "properties": { "hex_id": 675851, "centroid_lon": -72.518991422659766, "centroid_lat": 45.184512674615455, "occurrences_today": 12, "datetimes_today": "2026-01-15 00:16:47, 2026-01-15 00:32:04, 2026-01-15 00:41:55, 2026-01-15 00:47:01, 2026-01-15 01:01:38, 2026-01-15 01:16:37, 2026-01-15 01:31:58, 2026-01-15 01:46:45, 2026-01-15 01:51:54, 2026-01-15 02:02:13, 2026-01-15 02:16:53, 2026-01-15 02:31:44", "cumulative_total": 12.0 }, "geometry": { "type": "Polygon", "coordinates": [ [ [ -72.519217063602312, 45.179320455117704 ], [ -72.525462415784389, 45.182054586825785 ], [ -72.52523732109205, 45.187246828361033 ], [ -72.518765720369643, 45.189704888487903 ], [ -72.512519883295127, 45.186970382453538 ], [ -72.512746131815078, 45.181778190682067 ], [ -72.519217063602312, 45.179320455117704 ] ] ] } },
{ "type": "Feature", "properties": { "hex_id": 676459, "centroid_lon": -72.514328150772087, "centroid_lat": 45.145432690669253, "occurrences_today": 12, "datetimes_today": "2026-01-15 00:16:47, 2026-01-15 00:32:04, 2026-01-15 00:41:55, 2026-01-15 00:47:01, 2026-01-15 01:01:38, 2026-01-15 01:16:37, 2026-01-15 01:31:58, 2026-01-15 01:46:45, 2026-01-15 01:51:54, 2026-01-15 02:02:13, 2026-01-15 02:16:53, 2026-01-15 02:31:44", "cumulative_total": 12.0 }, "geometry": { "type": "Polygon", "coordinates": [ [ [ -72.514553907913253, 45.140240453869332 ], [ -72.520794834179128, 45.142974761150754 ], [ -72.520569622099387, 45.148167020017041 ], [ -72.514102332279947, 45.150624921841676 ], [ -72.507860922313796, 45.14789024068876 ], [ -72.508087285847012, 45.142698031646056 ], [ -72.514553907913253, 45.140240453869332 ] ] ] } },
{ "type": "Feature", "properties": { "hex_id": 676460, "centroid_lon": -72.513650511161245, "centroid_lat": 45.161009367302917, "occurrences_today": 12, "datetimes_today": "2026-01-15 00:16:47, 2026-01-15 00:32:04, 2026-01-15 00:41:55, 2026-01-15 00:47:01, 2026-01-15 01:01:38, 2026-01-15 01:16:37, 2026-01-15 01:31:58, 2026-01-15 01:46:45, 2026-01-15 01:51:54, 2026-01-15 02:02:13, 2026-01-15 02:16:53, 2026-01-15 02:31:44", "cumulative_total": 12.0 }, "geometry": { "type": "Polygon", "coordinates": [ [ [ -72.513876452416469, 45.155817147386337 ], [ -72.520119014304314, 45.158551520879818 ], [ -72.519893618548309, 45.163743762875718 ], [ -72.513424508493898, 45.166201581591082 ], [ -72.507181462529161, 45.163466834022934 ], [ -72.50740801067532, 45.158274641877505 ], [ -72.513876452416469, 45.155817147386337 ] ] ] } },
{ "type": "Feature", "properties": { "hex_id": 676461, "centroid_lon": -72.512972318841236, "centroid_lat": 45.176585993280959, "occurrences_today": 12, "datetimes_today": "2026-01-15 00:16:47, 2026-01-15 00:32:04, 2026-01-15 00:41:55, 2026-01-15 00:47:01, 2026-01-15 01:01:38, 2026-01-15 01:16:37, 2026-01-15 01:31:58, 2026-01-15 01:46:45, 2026-01-15 01:51:54, 2026-01-15 02:02:13, 2026-01-15 02:16:53, 2026-01-15 02:31:44", "cumulative_total": 12.0 }, "geometry": { "type": "Polygon", "coordinates": [ [ [ -72.513198444394035, 45.171393790250534 ], [ -72.519442643217687, 45.174128229994977 ], [ -72.519217063602312, 45.179320455117704 ], [ -72.512746131815078, 45.181778190682067 ], [ -72.506501448537577, 45.179043376659656 ], [ -72.506728181480739, 45.173851201414323 ], [ -72.513198444394035, 45.171393790250534 ] ] ] } },
{ "type": "Feature", "properties": { "hex_id": 676462, "centroid_lon": -72.512293573260948, "centroid_lat": 45.192162568595066, "occurrences_today": 12, "datetimes_today": "2026-01-15 00:16:47, 2026-01-15 00:32:04, 2026-01-15 00:41:55, 2026-01-15 00:47:01, 2026-01-15 01:01:38, 2026-01-15 01:16:37, 2026-01-15 01:31:58, 2026-01-15 01:46:45, 2026-01-15 01:51:54, 2026-01-15 02:02:13, 2026-01-15 02:16:53, 2026-01-15 02:31:44", "cumulative_total": 12.0 }, "geometry": { "type": "Polygon", "coordinates": [ [ [ -72.512519883295127, 45.186970382453538 ], [ -72.518765720369643, 45.189704888487903 ], [ -72.518539956711535, 45.194897096734735 ], [ -72.512067201692091, 45.197354749106317 ], [ -72.505820879786413, 45.194619868590564 ], [ -72.506047797710892, 45.189427710248097 ], [ -72.512519883295127, 45.186970382453538 ] ] ] } },
{ "type": "Feature", "properties": { "hex_id": 676463, "centroid_lon": -72.511614273868474, "centroid_lat": 45.207739093236853, "occurrences_today": 12, "datetimes_today": "2026-01-15 00:16:47, 2026-01-15 00:32:04, 2026-01-15 00:41:55, 2026-01-15 00:47:01, 2026-01-15 01:01:38, 2026-01-15 01:16:37, 2026-01-15 01:31:58, 2026-01-15 01:46:45, 2026-01-15 01:51:54, 2026-01-15 02:02:13, 2026-01-15 02:16:53, 2026-01-15 02:31:44", "cumulative_total": 12.0 }, "geometry": { "type": "Polygon", "coordinates": [ [ [ -72.511840768568092, 45.202546923987036 ], [ -72.51808824520981, 45.205281496350317 ], [ -72.517862297325351, 45.210473687718462 ], [ -72.511387717572788, 45.212931256855491 ], [ -72.505139755722254, 45.210196309807245 ], [ -72.505366858812621, 45.205004168370451 ], [ -72.511840768568092, 45.202546923987036 ] ] ] } },
{ "type": "Feature", "properties": { "hex_id": 677070, "centroid_lon": -72.507634497263396, "centroid_lat": 45.15308244409934, "occurrences_today": 12, "datetimes_today": "2026-01-15 00:16:47, 2026-01-15 00:32:04, 2026-01-15 00:41:55, 2026-01-15 00:47:01, 2026-01-15 01:01:38, 2026-01-15 01:16:37, 2026-01-15 01:31:58, 2026-01-15 01:46:45, 2026-01-15 01:51:54, 2026-01-15 02:02:13, 2026-01-15 02:16:53, 2026-01-15 02:31:44", "cumulative_total": 12.0 }, "geometry": { "type": "Polygon", "coordinates": [ [ [ -72.507860922313796, 45.14789024068876 ], [ -72.514102332279947, 45.150624921841676 ], [ -72.513876452416469, 45.155817147386337 ], [ -72.50740801067532, 45.158274641877505 ], [ -72.501166117070113, 45.155539586698204 ], [ -72.501393148824675, 45.150347411117508 ], [ -72.507860922313796, 45.14789024068876 ] ] ] } },
{ "type": "Feature", "properties": { "hex_id": 677071, "centroid_lon": -72.506954852804441, "centroid_lat": 45.168659020535308, "occurrences_today": 12, "datetimes_today": "2026-01-15 00:16:47, 2026-01-15 00:32:04, 2026-01-15 00:41:55, 2026-01-15 00:47:01, 2026-01-15 01:01:38, 2026-01-15 01:16:37, 2026-01-15 01:31:58, 2026-01-15 01:46:45, 2026-01-15 01:51:54, 2026-01-15 02:02:13, 2026-01-15 02:16:53, 2026-01-15 02:31:44", "cumulative_total": 12.0 }, "geometry": { "type": "Polygon", "coordinates": [ [ [ -72.507181462529161, 45.163466834022934 ], [ -72.513424508493898, 45.166201581591082 ], [ -72.513198444394035, 45.171393790250534 ], [ -72.506728181480739, 45.173851201414323 ], [ -72.500484651500386, 45.17111607961651 ], [ -72.500711868428453, 45.165923920948011 ], [ -72.507181462529161, 45.163466834022934 ] ] ] } },
{ "type": "Feature", "properties": { "hex_id": 677072, "centroid_lon": -72.506274653954449, "centroid_lat": 45.184235546271026, "occurrences_today": 12, "datetimes_today": "2026-01-15 00:16:47, 2026-01-15 00:32:04, 2026-01-15 00:41:55, 2026-01-15 00:47:01, 2026-01-15 01:01:38, 2026-01-15 01:16:37, 2026-01-15 01:31:58, 2026-01-15 01:46:45, 2026-01-15 01:51:54, 2026-01-15 02:02:13, 2026-01-15 02:16:53, 2026-01-15 02:31:44", "cumulative_total": 12.0 }, "geometry": { "type": "Polygon", "coordinates": [ [ [ -72.506501448537577, 45.179043376659656 ], [ -72.512746131815078, 45.181778190682067 ], [ -72.512519883295127, 45.186970382453538 ], [ -72.506047797710892, 45.189427710248097 ], [ -72.499802630040904, 45.186692521792637 ], [ -72.500030032327118, 45.181500380039118 ], [ -72.506501448537577, 45.179043376659656 ] ] ] } },
{ "type": "Feature", "properties": { "hex_id": 677073, "centroid_lon": -72.505593900160477, "centroid_lat": 45.199812021298129, "occurrences_today": 12, "datetimes_today": "2026-01-15 00:16:47, 2026-01-15 00:32:04, 2026-01-15 00:41:55, 2026-01-15 00:47:01, 2026-01-15 01:01:38, 2026-01-15 01:16:37, 2026-01-15 01:31:58, 2026-01-15 01:46:45, 2026-01-15 01:51:54, 2026-01-15 02:02:13, 2026-01-15 02:16:53, 2026-01-15 02:31:44", "cumulative_total": 12.0 }, "geometry": { "type": "Polygon", "coordinates": [ [ [ -72.505820879786413, 45.194619868590564 ], [ -72.512067201692091, 45.197354749106317 ], [ -72.511840768568092, 45.202546923987036 ], [ -72.505366858812621, 45.205004168370451 ], [ -72.499120052137215, 45.202268913218127 ], [ -72.499347639966501, 45.197076788382446 ], [ -72.505820879786413, 45.194619868590564 ] ] ] } },
{ "type": "Feature", "properties": { "hex_id": 677680, "centroid_lon": -72.50162011889573, "centroid_lat": 45.145155229900062, "occurrences_today": 12, "datetimes_today": "2026-01-15 00:16:47, 2026-01-15 00:32:04, 2026-01-15 00:41:55, 2026-01-15 00:47:01, 2026-01-15 01:01:38, 2026-01-15 01:16:37, 2026-01-15 01:31:58, 2026-01-15 01:46:45, 2026-01-15 01:51:54, 2026-01-15 02:02:13, 2026-01-15 02:16:53, 2026-01-15 02:31:44", "cumulative_total": 12.0 }, "geometry": { "type": "Polygon", "coordinates": [ [ [ -72.501847027303739, 45.139963043046151 ], [ -72.508087285847012, 45.142698031646056 ], [ -72.507860922313796, 45.14789024068876 ], [ -72.501393148824675, 45.150347411117508 ], [ -72.495152407079871, 45.147612048539521 ], [ -72.49537992200527, 45.142419889574235 ], [ -72.501847027303739, 45.139963043046151 ] ] ] } },
{ "type": "Feature", "properties": { "hex_id": 677681, "centroid_lon": -72.500939023611522, "centroid_lat": 45.160731756641809, "occurrences_today": 12, "datetimes_today": "2026-01-15 00:16:47, 2026-01-15 00:32:04, 2026-01-15 00:41:55, 2026-01-15 00:47:01, 2026-01-15 01:01:38, 2026-01-15 01:16:37, 2026-01-15 01:31:58, 2026-01-15 01:46:45, 2026-01-15 01:51:54, 2026-01-15 02:02:13, 2026-01-15 02:16:53, 2026-01-15 02:31:44", "cumulative_total": 12.0 }, "geometry": { "type": "Polygon", "coordinates": [ [ [ -72.501166117070113, 45.155539586698204 ], [ -72.50740801067532, 45.158274641877505 ], [ -72.507181462529161, 45.163466834022934 ], [ -72.500711868428453, 45.165923920948011 ], [ -72.494469491245596, 45.163188491587398 ], [ -72.49469719172059, 45.157996349546416 ], [ -72.501166117070113, 45.155539586698204 ] ] ] } },
{ "type": "Feature", "properties": { "hex_id": 677682, "centroid_lon": -72.500257372806772, "centroid_lat": 45.176308232646981, "occurrences_today": 12, "datetimes_today": "2026-01-15 00:16:47, 2026-01-15 00:32:04, 2026-01-15 00:41:55, 2026-01-15 00:47:01, 2026-01-15 01:01:38, 2026-01-15 01:16:37, 2026-01-15 01:31:58, 2026-01-15 01:46:45, 2026-01-15 01:51:54, 2026-01-15 02:02:13, 2026-01-15 02:16:53, 2026-01-15 02:31:44", "cumulative_total": 12.0 }, "geometry": { "type": "Polygon", "coordinates": [ [ [ -72.500484651500386, 45.17111607961651 ], [ -72.506728181480739, 45.173851201414323 ], [ -72.506501448537577, 45.179043376659656 ], [ -72.500030032327118, 45.181500380039118 ], [ -72.49378601839264, 45.178764883856651 ], [ -72.494013904602184, 45.173572758742836 ], [ -72.500484651500386, 45.17111607961651 ] ] ] } },
{ "type": "Feature", "properties": { "hex_id": 677683, "centroid_lon": -72.499575165927538, "centroid_lat": 45.191884657907174, "occurrences_today": 12, "datetimes_today": "2026-01-15 00:16:47, 2026-01-15 00:32:04, 2026-01-15 00:41:55, 2026-01-15 00:47:01, 2026-01-15 01:01:38, 2026-01-15 01:16:37, 2026-01-15 01:31:58, 2026-01-15 01:46:45, 2026-01-15 01:51:54, 2026-01-15 02:02:13, 2026-01-15 02:16:53, 2026-01-15 02:31:44", "cumulative_total": 12.0 }, "geometry": { "type": "Polygon", "coordinates": [ [ [ -72.499802630040904, 45.186692521792637 ], [ -72.506047797710892, 45.189427710248097 ], [ -72.505820879786413, 45.194619868590564 ], [ -72.499347639966501, 45.197076788382446 ], [ -72.493101987965588, 45.194341225338832 ], [ -72.493330060094934, 45.189149117154969 ], [ -72.499802630040904, 45.186692521792637 ] ] ] } },
{ "type": "Feature", "properties": { "hex_id": 677684, "centroid_lon": -72.498892402419116, "centroid_lat": 45.207461032413924, "occurrences_today": 12, "datetimes_today": "2026-01-15 00:16:47, 2026-01-15 00:32:04, 2026-01-15 00:41:55, 2026-01-15 00:47:01, 2026-01-15 01:01:38, 2026-01-15 01:16:37, 2026-01-15 01:31:58, 2026-01-15 01:46:45, 2026-01-15 01:51:54, 2026-01-15 02:02:13, 2026-01-15 02:16:53, 2026-01-15 02:31:44", "cumulative_total": 12.0 }, "geometry": { "type": "Polygon", "coordinates": [ [ [ -72.499120052137215, 45.202268913218127 ], [ -72.505366858812621, 45.205004168370451 ], [ -72.505139755722254, 45.210196309807245 ], [ -72.498664690791628, 45.21265314596949 ], [ -72.492417399408197, 45.209917516025442 ], [ -72.492645657642839, 45.204725424774381 ], [ -72.499120052137215, 45.202268913218127 ] ] ] } },
{ "type": "Feature", "properties": { "hex_id": 678291, "centroid_lon": -72.494924830325161, "centroid_lat": 45.152804201863688, "occurrences_today": 12, "datetimes_today": "2026-01-15 00:16:47, 2026-01-15 00:32:04, 2026-01-15 00:41:55, 2026-01-15 00:47:01, 2026-01-15 01:01:38, 2026-01-15 01:16:37, 2026-01-15 01:31:58, 2026-01-15 01:46:45, 2026-01-15 01:51:54, 2026-01-15 02:02:13, 2026-01-15 02:16:53, 2026-01-15 02:31:44", "cumulative_total": 12.0 }, "geometry": { "type": "Polygon", "coordinates": [ [ [ -72.495152407079871, 45.147612048539521 ], [ -72.501393148824675, 45.150347411117508 ], [ -72.501166117070113, 45.155539586698204 ], [ -72.49469719172059, 45.157996349546416 ], [ -72.488455966835772, 45.15526061283547 ], [ -72.488684150419957, 45.150068487472659 ], [ -72.495152407079871, 45.147612048539521 ] ] ] } },
{ "type": "Feature", "properties": { "hex_id": 678292, "centroid_lon": -72.494241728879658, "centroid_lat": 45.168380627986309, "occurrences_today": 12, "datetimes_today": "2026-01-15 00:16:47, 2026-01-15 00:32:04, 2026-01-15 00:41:55, 2026-01-15 00:47:01, 2026-01-15 01:01:38, 2026-01-15 01:16:37, 2026-01-15 01:31:58, 2026-01-15 01:46:45, 2026-01-15 01:51:54, 2026-01-15 02:02:13, 2026-01-15 02:16:53, 2026-01-15 02:31:44", "cumulative_total": 12.0 }, "geometry": { "type": "Polygon", "coordinates": [ [ [ -72.494469491245596, 45.163188491587398 ], [ -72.500711868428453, 45.165923920948011 ], [ -72.500484651500386, 45.17111607961651 ], [ -72.494013904602184, 45.173572758742836 ], [ -72.48777104390328, 45.170836955045935 ], [ -72.487999413598033, 45.165644846622428 ], [ -72.494469491245596, 45.163188491587398 ] ] ] } },
{ "type": "Feature", "properties": { "hex_id": 678293, "centroid_lon": -72.493558070230421, "centroid_lat": 45.183957003327471, "occurrences_today": 12, "datetimes_today": "2026-01-15 00:16:47, 2026-01-15 00:32:04, 2026-01-15 00:41:55, 2026-01-15 00:47:01, 2026-01-15 01:01:38, 2026-01-15 01:16:37, 2026-01-15 01:31:58, 2026-01-15 01:46:45, 2026-01-15 01:51:54, 2026-01-15 02:02:13, 2026-01-15 02:16:53, 2026-01-15 02:31:44", "cumulative_total": 12.0 }, "geometry": { "type": "Polygon", "coordinates": [ [ [ -72.49378601839264, 45.178764883856651 ], [ -72.500030032327118, 45.181500380039118 ], [ -72.499802630040904, 45.186692521792637 ], [ -72.493330060094934, 45.189149117154969 ], [ -72.487085562268021, 45.186413246432778 ], [ -72.487314118258908, 45.181221154951423 ], [ -72.49378601839264, 45.178764883856651 ] ] ] } },
{ "type": "Feature", "properties": { "hex_id": 678294, "centroid_lon": -72.492873853821763, "centroid_lat": 45.19953332787874, "occurrences_today": 12, "datetimes_today": "2026-01-15 00:16:47, 2026-01-15 00:32:04, 2026-01-15 00:41:55, 2026-01-15 00:47:01, 2026-01-15 01:01:38, 2026-01-15 01:16:37, 2026-01-15 01:31:58, 2026-01-15 01:46:45, 2026-01-15 01:51:54, 2026-01-15 02:02:13, 2026-01-15 02:16:53, 2026-01-15 02:31:44", "cumulative_total": 12.0 }, "geometry": { "type": "Polygon", "coordinates": [ [ [ -72.493101987965588, 45.194341225338832 ], [ -72.499347639966501, 45.197076788382446 ], [ -72.499120052137215, 45.202268913218127 ], [ -72.492645657642839, 45.204725424774381 ], [ -72.486399521372789, 45.2019894869875 ], [ -72.486628263845631, 45.196797412451133 ], [ -72.493101987965588, 45.194341225338832 ] ] ] } },
{ "type": "Feature", "properties": { "hex_id": 678901, "centroid_lon": -72.488912272008491, "centroid_lat": 45.14487635646406, "occurrences_today": 12, "datetimes_today": "2026-01-15 00:16:47, 2026-01-15 00:32:04, 2026-01-15 00:41:55, 2026-01-15 00:47:01, 2026-01-15 01:01:38, 2026-01-15 01:16:37, 2026-01-15 01:31:58, 2026-01-15 01:46:45, 2026-01-15 01:51:54, 2026-01-15 02:02:13, 2026-01-15 02:16:53, 2026-01-15 02:31:44", "cumulative_total": 12.0 }, "geometry": { "type": "Polygon", "coordinates": [ [ [ -72.48914033162194, 45.139684219809958 ], [ -72.49537992200527, 45.142419889574235 ], [ -72.495152407079871, 45.147612048539521 ], [ -72.488684150419957, 45.150068487472659 ], [ -72.482444077333923, 45.14733244362381 ], [ -72.482672743589944, 45.142140334989755 ], [ -72.48914033162194, 45.139684219809958 ] ] ] } },
{ "type": "Feature", "properties": { "hex_id": 678902, "centroid_lon": -72.488227721235319, "centroid_lat": 45.16045273255218, "occurrences_today": 12, "datetimes_today": "2026-01-15 00:16:47, 2026-01-15 00:32:04, 2026-01-15 00:41:55, 2026-01-15 00:47:01, 2026-01-15 01:01:38, 2026-01-15 01:16:37, 2026-01-15 01:31:58, 2026-01-15 01:46:45, 2026-01-15 01:51:54, 2026-01-15 02:02:13, 2026-01-15 02:16:53, 2026-01-15 02:31:44", "cumulative_total": 12.0 }, "geometry": { "type": "Polygon", "coordinates": [ [ [ -72.488455966835772, 45.15526061283547 ], [ -72.49469719172059, 45.157996349546416 ], [ -72.494469491245596, 45.163188491587398 ], [ -72.487999413598033, 45.165644846622428 ], [ -72.481757705634905, 45.162908735623652 ], [ -72.481986558377059, 45.157716643941072 ], [ -72.488455966835772, 45.15526061283547 ] ] ] } },
{ "type": "Feature", "properties": { "hex_id": 678903, "centroid_lon": -72.48754261213044, "centroid_lat": 45.176029057822362, "occurrences_today": 12, "datetimes_today": "2026-01-15 00:16:47, 2026-01-15 00:32:04, 2026-01-15 00:41:55, 2026-01-15 00:47:01, 2026-01-15 01:01:38, 2026-01-15 01:16:37, 2026-01-15 01:31:58, 2026-01-15 01:46:45, 2026-01-15 01:51:54, 2026-01-15 02:02:13, 2026-01-15 02:16:53, 2026-01-15 02:31:44", "cumulative_total": 12.0 }, "geometry": { "type": "Polygon", "coordinates": [ [ [ -72.48777104390328, 45.170836955045935 ], [ -72.494013904602184, 45.173572758742836 ], [ -72.49378601839264, 45.178764883856651 ], [ -72.487314118258908, 45.181221154951423 ], [ -72.481070774105731, 45.178484976763272 ], [ -72.481299813519911, 45.173292902035072 ], [ -72.48777104390328, 45.170836955045935 ] ] ] } },
{ "type": "Feature", "properties": { "hex_id": 678904, "centroid_lon": -72.486856944137159, "centroid_lat": 45.191605332266121, "occurrences_today": 12, "datetimes_today": "2026-01-15 00:16:47, 2026-01-15 00:32:04, 2026-01-15 00:41:55, 2026-01-15 00:47:01, 2026-01-15 01:01:38, 2026-01-15 01:16:37, 2026-01-15 01:31:58, 2026-01-15 01:46:45, 2026-01-15 01:51:54, 2026-01-15 02:02:13, 2026-01-15 02:16:53, 2026-01-15 02:31:44", "cumulative_total": 12.0 }, "geometry": { "type": "Polygon", "coordinates": [ [ [ -72.487085562268021, 45.186413246432778 ], [ -72.493330060094934, 45.189149117154969 ], [ -72.493101987965588, 45.194341225338832 ], [ -72.486628263845631, 45.196797412451133 ], [ -72.480383282188171, 45.194061167034178 ], [ -72.480612508460553, 45.188869109263145 ], [ -72.487085562268021, 45.186413246432778 ] ] ] } },
{ "type": "Feature", "properties": { "hex_id": 679512, "centroid_lon": -72.482215348936521, "centroid_lat": 45.152524546607694, "occurrences_today": 12, "datetimes_today": "2026-01-15 00:16:47, 2026-01-15 00:32:04, 2026-01-15 00:41:55, 2026-01-15 00:47:01, 2026-01-15 01:01:38, 2026-01-15 01:16:37, 2026-01-15 01:31:58, 2026-01-15 01:46:45, 2026-01-15 01:51:54, 2026-01-15 02:02:13, 2026-01-15 02:16:53, 2026-01-15 02:31:44", "cumulative_total": 12.0 }, "geometry": { "type": "Polygon", "coordinates": [ [ [ -72.482444077333923, 45.14733244362381 ], [ -72.488684150419957, 45.150068487472659 ], [ -72.488455966835772, 45.15526061283547 ], [ -72.481986558377059, 45.157716643941072 ], [ -72.475746002650155, 45.154980225852839 ], [ -72.475975338002215, 45.149788150961761 ], [ -72.482444077333923, 45.14733244362381 ] ] ] } },
{ "type": "Feature", "properties": { "hex_id": 679513, "centroid_lon": -72.48152879068941, "centroid_lat": 45.168100821655088, "occurrences_today": 12, "datetimes_today": "2026-01-15 00:16:47, 2026-01-15 00:32:04, 2026-01-15 00:41:55, 2026-01-15 00:47:01, 2026-01-15 01:01:38, 2026-01-15 01:16:37, 2026-01-15 01:31:58, 2026-01-15 01:46:45, 2026-01-15 01:51:54, 2026-01-15 02:02:13, 2026-01-15 02:16:53, 2026-01-15 02:31:44", "cumulative_total": 12.0 }, "geometry": { "type": "Polygon", "coordinates": [ [ [ -72.481757705634905, 45.162908735623652 ], [ -72.487999413598033, 45.165644846622428 ], [ -72.48777104390328, 45.170836955045935 ], [ -72.481299813519911, 45.173292902035072 ], [ -72.47505762254039, 45.170556416593513 ], [ -72.475287144939955, 45.165364358669024 ], [ -72.481757705634905, 45.162908735623652 ] ] ] } },
{ "type": "Feature", "properties": { "hex_id": 679514, "centroid_lon": -72.48084167242618, "centroid_lat": 45.183677045839417, "occurrences_today": 12, "datetimes_today": "2026-01-15 00:16:47, 2026-01-15 00:32:04, 2026-01-15 00:41:55, 2026-01-15 00:47:01, 2026-01-15 01:01:38, 2026-01-15 01:16:37, 2026-01-15 01:31:58, 2026-01-15 01:46:45, 2026-01-15 01:51:54, 2026-01-15 02:02:13, 2026-01-15 02:16:53, 2026-01-15 02:31:44", "cumulative_total": 12.0 }, "geometry": { "type": "Polygon", "coordinates": [ [ [ -72.481070774105731, 45.178484976763272 ], [ -72.487314118258908, 45.181221154951423 ], [ -72.487085562268021, 45.186413246432778 ], [ -72.480612508460553, 45.188869109263145 ], [ -72.47436868091512, 45.186132556428753 ], [ -72.474598390548721, 45.180940515473687 ], [ -72.481070774105731, 45.178484976763272 ] ] ] } },
{ "type": "Feature", "properties": { "hex_id": 680123, "centroid_lon": -72.475516604969641, "centroid_lat": 45.160172295088685, "occurrences_today": 12, "datetimes_today": "2026-01-15 00:16:47, 2026-01-15 00:32:04, 2026-01-15 00:41:55, 2026-01-15 00:47:01, 2026-01-15 01:01:38, 2026-01-15 01:16:37, 2026-01-15 01:31:58, 2026-01-15 01:46:45, 2026-01-15 01:51:54, 2026-01-15 02:02:13, 2026-01-15 02:16:53, 2026-01-15 02:31:44", "cumulative_total": 12.0 }, "geometry": { "type": "Polygon", "coordinates": [ [ [ -72.475746002650155, 45.154980225852839 ], [ -72.481986558377059, 45.157716643941072 ], [ -72.481757705634905, 45.162908735623652 ], [ -72.475287144939955, 45.165364358669024 ], [ -72.469046106634224, 45.162627566186501 ], [ -72.469276111581578, 45.157435525116277 ], [ -72.475746002650155, 45.154980225852839 ] ] ] } },
{ "type": "Feature", "properties": { "hex_id": 680124, "centroid_lon": -72.474828037750228, "centroid_lat": 45.175748468861833, "occurrences_today": 12, "datetimes_today": "2026-01-15 00:16:47, 2026-01-15 00:32:04, 2026-01-15 00:41:55, 2026-01-15 00:47:01, 2026-01-15 01:01:38, 2026-01-15 01:16:37, 2026-01-15 01:31:58, 2026-01-15 01:46:45, 2026-01-15 01:51:54, 2026-01-15 02:02:13, 2026-01-15 02:16:53, 2026-01-15 02:31:44", "cumulative_total": 12.0 }, "geometry": { "type": "Polygon", "coordinates": [ [ [ -72.47505762254039, 45.170556416593513 ], [ -72.481299813519911, 45.173292902035072 ], [ -72.481070774105731, 45.178484976763272 ], [ -72.474598390548721, 45.180940515473687 ], [ -72.468355716614909, 45.178203655434416 ], [ -72.468585909171665, 45.173011631345886 ], [ -72.47505762254039, 45.170556416593513 ] ] ] } },
{ "type": "Feature", "properties": { "hex_id": 680125, "centroid_lon": -72.474138908828706, "centroid_lat": 45.191324591726705, "occurrences_today": 12, "datetimes_today": "2026-01-15 00:16:47, 2026-01-15 00:32:04, 2026-01-15 00:41:55, 2026-01-15 00:47:01, 2026-01-15 01:01:38, 2026-01-15 01:16:37, 2026-01-15 01:31:58, 2026-01-15 01:46:45, 2026-01-15 01:51:54, 2026-01-15 02:02:13, 2026-01-15 02:16:53, 2026-01-15 02:31:44", "cumulative_total": 12.0 }, "geometry": { "type": "Polygon", "coordinates": [ [ [ -72.47436868091512, 45.186132556428753 ], [ -72.480612508460553, 45.188869109263145 ], [ -72.480383282188171, 45.194061167034178 ], [ -72.47390907426869, 45.196516621367202 ], [ -72.467664763393188, 45.193779693731514 ], [ -72.467895143746475, 45.188587686627542 ], [ -72.47436868091512, 45.186132556428753 ] ] ] } },
{ "type": "Feature", "properties": { "hex_id": 680733, "centroid_lon": -72.469506054033971, "centroid_lat": 45.152243478386133, "occurrences_today": 12, "datetimes_today": "2026-01-15 00:16:47, 2026-01-15 00:32:04, 2026-01-15 00:41:55, 2026-01-15 00:47:01, 2026-01-15 01:01:38, 2026-01-15 01:16:37, 2026-01-15 01:31:58, 2026-01-15 01:46:45, 2026-01-15 01:51:54, 2026-01-15 02:02:13, 2026-01-15 02:16:53, 2026-01-15 02:31:44", "cumulative_total": 12.0 }, "geometry": { "type": "Polygon", "coordinates": [ [ [ -72.469735934012192, 45.147051425996395 ], [ -72.475975338002215, 45.149788150961761 ], [ -72.475746002650155, 45.154980225852839 ], [ -72.469276111581578, 45.157435525116277 ], [ -72.463036225449954, 45.154698425805179 ], [ -72.463266712507775, 45.149506401639727 ], [ -72.469735934012192, 45.147051425996395 ] ] ] } },
{ "type": "Feature", "properties": { "hex_id": 680734, "centroid_lon": -72.468816039171188, "centroid_lat": 45.167819601596484, "occurrences_today": 12, "datetimes_today": "2026-01-15 00:16:47, 2026-01-15 00:32:04, 2026-01-15 00:41:55, 2026-01-15 00:47:01, 2026-01-15 01:01:38, 2026-01-15 01:16:37, 2026-01-15 01:31:58, 2026-01-15 01:46:45, 2026-01-15 01:51:54, 2026-01-15 02:02:13, 2026-01-15 02:16:53, 2026-01-15 02:31:44", "cumulative_total": 12.0 }, "geometry": { "type": "Polygon", "coordinates": [ [ [ -72.469046106634224, 45.162627566186501 ], [ -72.475287144939955, 45.165364358669024 ], [ -72.47505762254039, 45.170556416593513 ], [ -72.468585909171665, 45.173011631345886 ], [ -72.462344388349322, 45.170274464314211 ], [ -72.46257506339154, 45.165082457142738 ], [ -72.469046106634224, 45.162627566186501 ] ] ] } },
{ "type": "Feature", "properties": { "hex_id": 680735, "centroid_lon": -72.468125461480113, "centroid_lat": 45.183395673861746, "occurrences_today": 12, "datetimes_today": "2026-01-15 00:16:47, 2026-01-15 00:32:04, 2026-01-15 00:41:55, 2026-01-15 00:47:01, 2026-01-15 01:01:38, 2026-01-15 01:16:37, 2026-01-15 01:31:58, 2026-01-15 01:46:45, 2026-01-15 01:51:54, 2026-01-15 02:02:13, 2026-01-15 02:16:53, 2026-01-15 02:31:44", "cumulative_total": 12.0 }, "geometry": { "type": "Polygon", "coordinates": [ [ [ -72.468355716614909, 45.178203655434416 ], [ -72.474598390548721, 45.180940515473687 ], [ -72.47436868091512, 45.186132556428753 ], [ -72.467895143746475, 45.188587686627542 ], [ -72.4616519869207, 45.185850451835577 ], [ -72.461882850134742, 45.180658461660947 ], [ -72.468355716614909, 45.178203655434416 ] ] ] } },
{ "type": "Feature", "properties": { "hex_id": 681344, "centroid_lon": -72.462805675751483, "centroid_lat": 45.159890444306285, "occurrences_today": 12, "datetimes_today": "2026-01-15 00:16:47, 2026-01-15 00:32:04, 2026-01-15 00:41:55, 2026-01-15 00:47:01, 2026-01-15 01:01:38, 2026-01-15 01:16:37, 2026-01-15 01:31:58, 2026-01-15 01:46:45, 2026-01-15 01:51:54, 2026-01-15 02:02:13, 2026-01-15 02:16:53, 2026-01-15 02:31:44", "cumulative_total": 12.0 }, "geometry": { "type": "Polygon", "coordinates": [ [ [ -72.463036225449954, 45.154698425805179 ], [ -72.469276111581578, 45.157435525116277 ], [ -72.469046106634224, 45.162627566186501 ], [ -72.46257506339154, 45.165082457142738 ], [ -72.456334695180644, 45.16234498333106 ], [ -72.456565852270913, 45.157152993127106 ], [ -72.463036225449954, 45.154698425805179 ] ] ] } },
{ "type": "Feature", "properties": { "hex_id": 681345, "centroid_lon": -72.462113650603996, "centroid_lat": 45.175466465820378, "occurrences_today": 12, "datetimes_today": "2026-01-15 00:16:47, 2026-01-15 00:32:04, 2026-01-15 00:41:55, 2026-01-15 00:47:01, 2026-01-15 01:01:38, 2026-01-15 01:16:37, 2026-01-15 01:31:58, 2026-01-15 01:46:45, 2026-01-15 01:51:54, 2026-01-15 02:02:13, 2026-01-15 02:16:53, 2026-01-15 02:31:44", "cumulative_total": 12.0 }, "geometry": { "type": "Polygon", "coordinates": [ [ [ -72.462344388349322, 45.170274464314211 ], [ -72.468585909171665, 45.173011631345886 ], [ -72.468355716614909, 45.178203655434416 ], [ -72.461882850134742, 45.180658461660947 ], [ -72.455640846858188, 45.177920919925207 ], [ -72.455872192495164, 45.17272894673043 ], [ -72.462344388349322, 45.170274464314211 ] ] ] } },
{ "type": "Feature", "properties": { "hex_id": 681955, "centroid_lon": -72.456103475262353, "centroid_lat": 45.167536967865608, "occurrences_today": 12, "datetimes_today": "2026-01-15 00:16:47, 2026-01-15 00:32:04, 2026-01-15 00:41:55, 2026-01-15 00:47:01, 2026-01-15 01:01:38, 2026-01-15 01:16:37, 2026-01-15 01:31:58, 2026-01-15 01:46:45, 2026-01-15 01:51:54, 2026-01-15 02:02:13, 2026-01-15 02:16:53, 2026-01-15 02:31:44", "cumulative_total": 12.0 }, "geometry": { "type": "Polygon", "coordinates": [ [ [ -72.456334695180644, 45.16234498333106 ], [ -72.46257506339154, 45.165082457142738 ], [ -72.462344388349322, 45.170274464314211 ], [ -72.455872192495164, 45.17272894673043 ], [ -72.449631342267537, 45.169991098263303 ], [ -72.449863169889937, 45.164799142098836 ], [ -72.456334695180644, 45.16234498333106 ] ] ] } },
{ "type": "Feature", "properties": { "hex_id": 682565, "centroid_lon": -72.450094934517693, "centroid_lat": 45.159607180260188, "occurrences_today": 12, "datetimes_today": "2026-01-15 00:16:47, 2026-01-15 00:32:04, 2026-01-15 00:41:55, 2026-01-15 00:47:01, 2026-01-15 01:01:38, 2026-01-15 01:16:37, 2026-01-15 01:31:58, 2026-01-15 01:46:45, 2026-01-15 01:51:54, 2026-01-15 02:02:13, 2026-01-15 02:16:53, 2026-01-15 02:31:44", "cumulative_total": 12.0 }, "geometry": { "type": "Polygon", "coordinates": [ [ [ -72.45032663617171, 45.154415212747736 ], [ -72.456565852270913, 45.157152993127106 ], [ -72.456334695180644, 45.16234498333106 ], [ -72.449863169889937, 45.164799142098836 ], [ -72.443623472211144, 45.162060987112667 ], [ -72.443855781381757, 45.156869048028902 ], [ -72.45032663617171, 45.154415212747736 ] ] ] } },
{ "type": "Feature", "properties": { "hex_id": 683176, "centroid_lon": -72.443391099900225, "centroid_lat": 45.167252920517839, "occurrences_today": 12, "datetimes_today": "2026-01-15 00:16:47, 2026-01-15 00:32:04, 2026-01-15 00:41:55, 2026-01-15 00:47:01, 2026-01-15 01:01:38, 2026-01-15 01:16:37, 2026-01-15 01:31:58, 2026-01-15 01:46:45, 2026-01-15 01:51:54, 2026-01-15 02:02:13, 2026-01-15 02:16:53, 2026-01-15 02:31:44", "cumulative_total": 12.0 }, "geometry": { "type": "Polygon", "coordinates": [ [ [ -72.443623472211144, 45.162060987112667 ], [ -72.449863169889937, 45.164799142098836 ], [ -72.449631342267537, 45.169991098263303 ], [ -72.443158664427997, 45.172444848244083 ], [ -72.436918485232468, 45.169706318496324 ], [ -72.437151465372253, 45.164514413592805 ], [ -72.443623472211144, 45.162060987112667 ] ] ] } },
{ "type": "Feature", "properties": { "hex_id": 735687, "centroid_lon": -71.890162904009202, "centroid_lat": 45.278248474185027, "occurrences_today": 13, "datetimes_today": "2026-01-15 03:02:14, 2026-01-15 03:17:00, 2026-01-15 03:32:05, 2026-01-15 03:46:45, 2026-01-15 03:48:11, 2026-01-15 04:01:49, 2026-01-15 04:16:54, 2026-01-15 04:31:45, 2026-01-15 04:41:49, 2026-01-15 04:46:37, 2026-01-15 05:02:09, 2026-01-15 05:16:45, 2026-01-15 05:32:19", "cumulative_total": 13.0 }, "geometry": { "type": "Polygon", "coordinates": [ [ [ -71.890446610171523, 45.273059126276671 ], [ -71.896669979519515, 45.275827096877578 ], [ -71.896386813290292, 45.281016472906096 ], [ -71.889879120668965, 45.283437815964085 ], [ -71.883655288578609, 45.280669464494721 ], [ -71.883939611826264, 45.275480150899249 ], [ -71.890446610171523, 45.273059126276671 ] ] ] } },
{ "type": "Feature", "properties": { "hex_id": 736296, "centroid_lon": -71.885076131856508, "centroid_lat": 45.25472283517545, "occurrences_today": 13, "datetimes_today": "2026-01-15 03:02:14, 2026-01-15 03:17:00, 2026-01-15 03:32:05, 2026-01-15 03:46:45, 2026-01-15 03:48:11, 2026-01-15 04:01:49, 2026-01-15 04:16:54, 2026-01-15 04:31:45, 2026-01-15 04:41:49, 2026-01-15 04:46:37, 2026-01-15 05:02:09, 2026-01-15 05:16:45, 2026-01-15 05:32:19", "cumulative_total": 13.0 }, "geometry": { "type": "Polygon", "coordinates": [ [ [ -71.885360068752561, 45.249533490911475 ], [ -71.891580663555317, 45.252301673360172 ], [ -71.891297265847868, 45.257491045780775 ], [ -71.884792117741569, 45.259912173306709 ], [ -71.878571060981955, 45.257143610248363 ], [ -71.87885561425982, 45.251954300337111 ], [ -71.885360068752561, 45.249533490911475 ] ] ] } },
{ "type": "Feature", "properties": { "hex_id": 736297, "centroid_lon": -71.884223857752133, "centroid_lat": 45.270290831169106, "occurrences_today": 13, "datetimes_today": "2026-01-15 03:02:14, 2026-01-15 03:17:00, 2026-01-15 03:32:05, 2026-01-15 03:46:45, 2026-01-15 03:48:11, 2026-01-15 04:01:49, 2026-01-15 04:16:54, 2026-01-15 04:31:45, 2026-01-15 04:41:49, 2026-01-15 04:46:37, 2026-01-15 05:02:09, 2026-01-15 05:16:45, 2026-01-15 05:32:19", "cumulative_total": 13.0 }, "geometry": { "type": "Polygon", "coordinates": [ [ [ -71.884508026382008, 45.265101505304756 ], [ -71.890730239181622, 45.267869772239536 ], [ -71.890446610171523, 45.273059126276671 ], [ -71.883939611826264, 45.275480150899249 ], [ -71.877716936715785, 45.272711503148464 ], [ -71.878001722235695, 45.26752221165453 ], [ -71.884508026382008, 45.265101505304756 ] ] ] } },
{ "type": "Feature", "properties": { "hex_id": 736906, "centroid_lon": -71.879140090175184, "centroid_lat": 45.246764984287758, "occurrences_today": 13, "datetimes_today": "2026-01-15 03:02:14, 2026-01-15 03:17:00, 2026-01-15 03:32:05, 2026-01-15 03:46:45, 2026-01-15 03:48:11, 2026-01-15 04:01:49, 2026-01-15 04:16:54, 2026-01-15 04:31:45, 2026-01-15 04:41:49, 2026-01-15 04:46:37, 2026-01-15 05:02:09, 2026-01-15 05:16:45, 2026-01-15 05:32:19", "cumulative_total": 13.0 }, "geometry": { "type": "Polygon", "coordinates": [ [ [ -71.879424488753756, 45.241575662100772 ], [ -71.885643928455423, 45.244344140515267 ], [ -71.885360068752561, 45.249533490911475 ], [ -71.87885561425982, 45.251954300337111 ], [ -71.872635713032068, 45.249185441365356 ], [ -71.87292072779745, 45.243996153588569 ], [ -71.879424488753756, 45.241575662100772 ] ] ] } },
{ "type": "Feature", "properties": { "hex_id": 736907, "centroid_lon": -71.878286430315811, "centroid_lat": 45.262332914020995, "occurrences_today": 13, "datetimes_today": "2026-01-15 03:02:14, 2026-01-15 03:17:00, 2026-01-15 03:32:05, 2026-01-15 03:46:45, 2026-01-15 03:48:11, 2026-01-15 04:01:49, 2026-01-15 04:16:54, 2026-01-15 04:31:45, 2026-01-15 04:41:49, 2026-01-15 04:46:37, 2026-01-15 05:02:09, 2026-01-15 05:16:45, 2026-01-15 05:32:19", "cumulative_total": 13.0 }, "geometry": { "type": "Polygon", "coordinates": [ [ [ -71.878571060981955, 45.257143610248363 ], [ -71.884792117741569, 45.259912173306709 ], [ -71.884508026382008, 45.265101505304756 ], [ -71.878001722235695, 45.26752221165453 ], [ -71.871780203596401, 45.264753267832603 ], [ -71.872065450957336, 45.259563998487863 ], [ -71.878571060981955, 45.257143610248363 ] ] ] } },
{ "type": "Feature", "properties": { "hex_id": 736908, "centroid_lon": -71.877432073730319, "centroid_lat": 45.277900788502315, "occurrences_today": 13, "datetimes_today": "2026-01-15 03:02:14, 2026-01-15 03:17:00, 2026-01-15 03:32:05, 2026-01-15 03:46:45, 2026-01-15 03:48:11, 2026-01-15 04:01:49, 2026-01-15 04:16:54, 2026-01-15 04:31:45, 2026-01-15 04:41:49, 2026-01-15 04:46:37, 2026-01-15 05:02:09, 2026-01-15 05:16:45, 2026-01-15 05:32:19", "cumulative_total": 13.0 }, "geometry": { "type": "Polygon", "coordinates": [ [ [ -71.877716936715785, 45.272711503148464 ], [ -71.883939611826264, 45.275480150899249 ], [ -71.883655288578609, 45.280669464494721 ], [ -71.877147133253516, 45.283090067715577 ], [ -71.870923995909436, 45.280321038994771 ], [ -71.871209476098272, 45.275131788086554 ], [ -71.877716936715785, 45.272711503148464 ] ] ] } },
{ "type": "Feature", "properties": { "hex_id": 737516, "centroid_lon": -71.873205665082523, "centroid_lat": 45.238806859668756, "occurrences_today": 13, "datetimes_today": "2026-01-15 03:02:14, 2026-01-15 03:17:00, 2026-01-15 03:32:05, 2026-01-15 03:46:45, 2026-01-15 03:48:11, 2026-01-15 04:01:49, 2026-01-15 04:16:54, 2026-01-15 04:31:45, 2026-01-15 04:41:49, 2026-01-15 04:46:37, 2026-01-15 05:02:09, 2026-01-15 05:16:45, 2026-01-15 05:32:19", "cumulative_total": 13.0 }, "geometry": { "type": "Polygon", "coordinates": [ [ [ -71.87349052491308, 45.233617559606401 ], [ -71.879708810021256, 45.236386333776643 ], [ -71.879424488753756, 45.241575662100772 ], [ -71.87292072779745, 45.243996153588569 ], [ -71.866701981593636, 45.241226998913518 ], [ -71.866987457415973, 45.236037733318803 ], [ -71.87349052491308, 45.233617559606401 ] ] ] } },
{ "type": "Feature", "properties": { "hex_id": 737517, "centroid_lon": -71.872350620760642, "centroid_lat": 45.254374722998627, "occurrences_today": 13, "datetimes_today": "2026-01-15 03:02:14, 2026-01-15 03:17:00, 2026-01-15 03:32:05, 2026-01-15 03:46:45, 2026-01-15 03:48:11, 2026-01-15 04:01:49, 2026-01-15 04:16:54, 2026-01-15 04:31:45, 2026-01-15 04:41:49, 2026-01-15 04:46:37, 2026-01-15 05:02:09, 2026-01-15 05:16:45, 2026-01-15 05:32:19", "cumulative_total": 13.0 }, "geometry": { "type": "Polygon", "coordinates": [ [ [ -71.872635713032068, 45.249185441365356 ], [ -71.87885561425982, 45.251954300337111 ], [ -71.878571060981955, 45.257143610248363 ], [ -71.872065450957336, 45.259563998487863 ], [ -71.865845088280793, 45.256794758805007 ], [ -71.866130797051866, 45.251605511657111 ], [ -71.872635713032068, 45.249185441365356 ] ] ] } },
{ "type": "Feature", "properties": { "hex_id": 737518, "centroid_lon": -71.871494878651987, "centroid_lat": 45.269942531032335, "occurrences_today": 13, "datetimes_today": "2026-01-15 03:02:14, 2026-01-15 03:17:00, 2026-01-15 03:32:05, 2026-01-15 03:46:45, 2026-01-15 03:48:11, 2026-01-15 04:01:49, 2026-01-15 04:16:54, 2026-01-15 04:31:45, 2026-01-15 04:41:49, 2026-01-15 04:46:37, 2026-01-15 05:02:09, 2026-01-15 05:16:45, 2026-01-15 05:32:19", "cumulative_total": 13.0 }, "geometry": { "type": "Polygon", "coordinates": [ [ [ -71.871780203596401, 45.264753267832603 ], [ -71.878001722235695, 45.26752221165453 ], [ -71.877716936715785, 45.272711503148464 ], [ -71.871209476098272, 45.275131788086554 ], [ -71.864987495656678, 45.272362463347108 ], [ -71.865273437609062, 45.267173234650507 ], [ -71.871780203596401, 45.264753267832603 ] ] ] } },
{ "type": "Feature", "properties": { "hex_id": 738126, "centroid_lon": -71.867272855640394, "centroid_lat": 45.230848461576137, "occurrences_today": 13, "datetimes_today": "2026-01-15 03:02:14, 2026-01-15 03:17:00, 2026-01-15 03:32:05, 2026-01-15 03:46:45, 2026-01-15 03:48:11, 2026-01-15 04:01:49, 2026-01-15 04:16:54, 2026-01-15 04:31:45, 2026-01-15 04:41:49, 2026-01-15 04:46:37, 2026-01-15 05:02:09, 2026-01-15 05:16:45, 2026-01-15 05:32:19", "cumulative_total": 13.0 }, "geometry": { "type": "Polygon", "coordinates": [ [ [ -71.86755817629269, 45.225659183686034 ], [ -71.87377530731483, 45.228428253402015 ], [ -71.87349052491308, 45.233617559606401 ], [ -71.866987457415973, 45.236037733318803 ], [ -71.860769865728358, 45.233268283150451 ], [ -71.861055802177489, 45.228079039785392 ], [ -71.86755817629269, 45.225659183686034 ] ] ] } },
{ "type": "Feature", "properties": { "hex_id": 738127, "centroid_lon": -71.866416428147531, "centroid_lat": 45.246416258359787, "occurrences_today": 13, "datetimes_today": "2026-01-15 03:02:14, 2026-01-15 03:17:00, 2026-01-15 03:32:05, 2026-01-15 03:46:45, 2026-01-15 03:48:11, 2026-01-15 04:01:49, 2026-01-15 04:16:54, 2026-01-15 04:31:45, 2026-01-15 04:41:49, 2026-01-15 04:46:37, 2026-01-15 05:02:09, 2026-01-15 05:16:45, 2026-01-15 05:32:19", "cumulative_total": 13.0 }, "geometry": { "type": "Polygon", "coordinates": [ [ [ -71.866701981593636, 45.241226998913518 ], [ -71.87292072779745, 45.243996153588569 ], [ -71.872635713032068, 45.249185441365356 ], [ -71.866130797051866, 45.251605511657111 ], [ -71.859911589829778, 45.248835976323427 ], [ -71.860197759580359, 45.243646751419973 ], [ -71.866701981593636, 45.241226998913518 ] ] ] } },
{ "type": "Feature", "properties": { "hex_id": 738128, "centroid_lon": -71.865559301808474, "centroid_lat": 45.261983999802979, "occurrences_today": 13, "datetimes_today": "2026-01-15 03:02:14, 2026-01-15 03:17:00, 2026-01-15 03:32:05, 2026-01-15 03:46:45, 2026-01-15 03:48:11, 2026-01-15 04:01:49, 2026-01-15 04:16:54, 2026-01-15 04:31:45, 2026-01-15 04:41:49, 2026-01-15 04:46:37, 2026-01-15 05:02:09, 2026-01-15 05:16:45, 2026-01-15 05:32:19", "cumulative_total": 13.0 }, "geometry": { "type": "Polygon", "coordinates": [ [ [ -71.865845088280793, 45.256794758805007 ], [ -71.872065450957336, 45.259563998487863 ], [ -71.871780203596401, 45.264753267832603 ], [ -71.865273437609062, 45.267173234650507 ], [ -71.85905261356119, 45.264403614102662 ], [ -71.859339016846093, 45.259214407665283 ], [ -71.865845088280793, 45.256794758805007 ] ] ] } },
{ "type": "Feature", "properties": { "hex_id": 738737, "centroid_lon": -71.860483851537921, "centroid_lat": 45.238457520362147, "occurrences_today": 13, "datetimes_today": "2026-01-15 03:02:14, 2026-01-15 03:17:00, 2026-01-15 03:32:05, 2026-01-15 03:46:45, 2026-01-15 03:48:11, 2026-01-15 04:01:49, 2026-01-15 04:16:54, 2026-01-15 04:31:45, 2026-01-15 04:41:49, 2026-01-15 04:46:37, 2026-01-15 05:02:09, 2026-01-15 05:16:45, 2026-01-15 05:32:19", "cumulative_total": 13.0 }, "geometry": { "type": "Polygon", "coordinates": [ [ [ -71.860769865728358, 45.233268283150451 ], [ -71.866987457415973, 45.236037733318803 ], [ -71.866701981593636, 45.241226998913518 ], [ -71.860197759580359, 45.243646751419973 ], [ -71.853979707304717, 45.240876920645512 ], [ -71.8542663376045, 45.235687718034043 ], [ -71.860769865728358, 45.233268283150451 ] ] ] } },
{ "type": "Feature", "properties": { "hex_id": 738738, "centroid_lon": -71.859625342260316, "centroid_lat": 45.254025195072039, "occurrences_today": 13, "datetimes_today": "2026-01-15 03:02:14, 2026-01-15 03:17:00, 2026-01-15 03:32:05, 2026-01-15 03:46:45, 2026-01-15 03:48:11, 2026-01-15 04:01:49, 2026-01-15 04:16:54, 2026-01-15 04:31:45, 2026-01-15 04:41:49, 2026-01-15 04:46:37, 2026-01-15 05:02:09, 2026-01-15 05:16:45, 2026-01-15 05:32:19", "cumulative_total": 13.0 }, "geometry": { "type": "Polygon", "coordinates": [ [ [ -71.859911589829778, 45.248835976323427 ], [ -71.866130797051866, 45.251605511657111 ], [ -71.865845088280793, 45.256794758805007 ], [ -71.859339016846093, 45.259214407665283 ], [ -71.85311934868335, 45.256444491519176 ], [ -71.85340621287007, 45.25125530738859 ], [ -71.859911589829778, 45.248835976323427 ] ] ] } },
{ "type": "Feature", "properties": { "hex_id": 738739, "centroid_lon": -71.858766132379671, "centroid_lat": 45.269592814383692, "occurrences_today": 13, "datetimes_today": "2026-01-15 03:02:14, 2026-01-15 03:17:00, 2026-01-15 03:32:05, 2026-01-15 03:46:45, 2026-01-15 03:48:11, 2026-01-15 04:01:49, 2026-01-15 04:16:54, 2026-01-15 04:31:45, 2026-01-15 04:41:49, 2026-01-15 04:46:37, 2026-01-15 05:02:09, 2026-01-15 05:16:45, 2026-01-15 05:32:19", "cumulative_total": 13.0 }, "geometry": { "type": "Polygon", "coordinates": [ [ [ -71.85905261356119, 45.264403614102662 ], [ -71.865273437609062, 45.267173234650507 ], [ -71.864987495656678, 45.272362463347108 ], [ -71.858479573275659, 45.274782008507842 ], [ -71.852258287934134, 45.272012006941132 ], [ -71.852545386241346, 45.266822841295948 ], [ -71.85905261356119, 45.264403614102662 ] ] ] } },
{ "type": "Feature", "properties": { "hex_id": 739347, "centroid_lon": -71.854552889993812, "centroid_lat": 45.230498509263263, "occurrences_today": 13, "datetimes_today": "2026-01-15 03:02:14, 2026-01-15 03:17:00, 2026-01-15 03:32:05, 2026-01-15 03:46:45, 2026-01-15 03:48:11, 2026-01-15 04:01:49, 2026-01-15 04:16:54, 2026-01-15 04:31:45, 2026-01-15 04:41:49, 2026-01-15 04:46:37, 2026-01-15 05:02:09, 2026-01-15 05:16:45, 2026-01-15 05:32:19", "cumulative_total": 13.0 }, "geometry": { "type": "Polygon", "coordinates": [ [ [ -71.854839364498531, 45.225309294333691 ], [ -71.861055802177489, 45.228079039785392 ], [ -71.860769865728358, 45.233268283150451 ], [ -71.8542663376045, 45.235687718034043 ], [ -71.848049439767479, 45.232917592028755 ], [ -71.848336530186472, 45.227728411756772 ], [ -71.854839364498531, 45.225309294333691 ] ] ] } },
{ "type": "Feature", "properties": { "hex_id": 739348, "centroid_lon": -71.853692999068542, "centroid_lat": 45.246066117097207, "occurrences_today": 13, "datetimes_today": "2026-01-15 03:02:14, 2026-01-15 03:17:00, 2026-01-15 03:32:05, 2026-01-15 03:46:45, 2026-01-15 03:48:11, 2026-01-15 04:01:49, 2026-01-15 04:16:54, 2026-01-15 04:31:45, 2026-01-15 04:41:49, 2026-01-15 04:46:37, 2026-01-15 05:02:09, 2026-01-15 05:16:45, 2026-01-15 05:32:19", "cumulative_total": 13.0 }, "geometry": { "type": "Polygon", "coordinates": [ [ [ -71.853979707304717, 45.240876920645512 ], [ -71.860197759580359, 45.243646751419973 ], [ -71.859911589829778, 45.248835976323427 ], [ -71.85340621287007, 45.25125530738859 ], [ -71.84718770008412, 45.248485095854271 ], [ -71.847475024742266, 45.243295934078013 ], [ -71.853979707304717, 45.240876920645512 ] ] ] } },
{ "type": "Feature", "properties": { "hex_id": 739349, "centroid_lon": -71.85283240648242, "centroid_lat": 45.261633669488468, "occurrences_today": 13, "datetimes_today": "2026-01-15 03:02:14, 2026-01-15 03:17:00, 2026-01-15 03:32:05, 2026-01-15 03:46:45, 2026-01-15 03:48:11, 2026-01-15 04:01:49, 2026-01-15 04:16:54, 2026-01-15 04:31:45, 2026-01-15 04:41:49, 2026-01-15 04:46:37, 2026-01-15 05:02:09, 2026-01-15 05:16:45, 2026-01-15 05:32:19", "cumulative_total": 13.0 }, "geometry": { "type": "Polygon", "coordinates": [ [ [ -71.85311934868335, 45.256444491519176 ], [ -71.859339016846093, 45.259214407665283 ], [ -71.85905261356119, 45.264403614102662 ], [ -71.852545386241346, 45.266822841295948 ], [ -71.846325257215724, 45.264052544183571 ], [ -71.846612816346862, 45.258863400907558 ], [ -71.85311934868335, 45.256444491519176 ] ] ] } },
{ "type": "Feature", "properties": { "hex_id": 739958, "centroid_lon": -71.847762271294727, "centroid_lat": 45.238106766136013, "occurrences_today": 13, "datetimes_today": "2026-01-15 03:02:14, 2026-01-15 03:17:00, 2026-01-15 03:32:05, 2026-01-15 03:46:45, 2026-01-15 03:48:11, 2026-01-15 04:01:49, 2026-01-15 04:16:54, 2026-01-15 04:31:45, 2026-01-15 04:41:49, 2026-01-15 04:46:37, 2026-01-15 05:02:09, 2026-01-15 05:16:45, 2026-01-15 05:32:19", "cumulative_total": 13.0 }, "geometry": { "type": "Polygon", "coordinates": [ [ [ -71.848049439767479, 45.232917592028755 ], [ -71.8542663376045, 45.235687718034043 ], [ -71.853979707304717, 45.240876920645512 ], [ -71.847475024742266, 45.243295934078013 ], [ -71.841257666824973, 45.240525427365455 ], [ -71.841545451524425, 45.235336287990997 ], [ -71.848049439767479, 45.232917592028755 ] ] ] } },
{ "type": "Feature", "properties": { "hex_id": 739959, "centroid_lon": -71.846900297294326, "centroid_lat": 45.25367425146429, "occurrences_today": 13, "datetimes_today": "2026-01-15 03:02:14, 2026-01-15 03:17:00, 2026-01-15 03:32:05, 2026-01-15 03:46:45, 2026-01-15 03:48:11, 2026-01-15 04:01:49, 2026-01-15 04:16:54, 2026-01-15 04:31:45, 2026-01-15 04:41:49, 2026-01-15 04:46:37, 2026-01-15 05:02:09, 2026-01-15 05:16:45, 2026-01-15 05:32:19", "cumulative_total": 13.0 }, "geometry": { "type": "Polygon", "coordinates": [ [ [ -71.84718770008412, 45.248485095854271 ], [ -71.85340621287007, 45.25125530738859 ], [ -71.85311934868335, 45.256444491519176 ], [ -71.846612816346862, 45.258863400907558 ], [ -71.840393843128481, 45.256092808459591 ], [ -71.840681862653028, 45.250903687600257 ], [ -71.84718770008412, 45.248485095854271 ] ] ] } },
{ "type": "Feature", "properties": { "hex_id": 772986, "centroid_lon": -71.444635252806066, "centroid_lat": 46.177281443853218, "occurrences_today": 3, "datetimes_today": "2026-01-15 06:16:49, 2026-01-15 06:31:49, 2026-01-15 06:33:37", "cumulative_total": 3.0 }, "geometry": { "type": "Polygon", "coordinates": [ [ [ -71.444969879510026, 46.172095267483385 ], [ -71.451267794569205, 46.174889494673941 ], [ -71.450933727361232, 46.180075703943182 ], [ -71.444300534103562, 46.182467613617469 ], [ -71.438002151562614, 46.179672990148369 ], [ -71.438337429729756, 46.174486853348796 ], [ -71.444969879510026, 46.172095267483385 ] ] ] } },
{ "type": "Feature", "properties": { "hex_id": 774207, "centroid_lon": -71.431704420650405, "centroid_lat": 46.176878036309255, "occurrences_today": 3, "datetimes_today": "2026-01-15 06:16:49, 2026-01-15 06:31:49, 2026-01-15 06:33:37", "cumulative_total": 3.0 }, "geometry": { "type": "Polygon", "coordinates": [ [ [ -71.43204025810094, 46.171691932533157 ], [ -71.438337429729756, 46.174486853348796 ], [ -71.438002151562614, 46.179672990148369 ], [ -71.431368490870227, 46.182064133466227 ], [ -71.425070852303392, 46.179268816271623 ], [ -71.4254073413355, 46.174082752203397 ], [ -71.43204025810094, 46.171691932533157 ] ] ] } },
{ "type": "Feature", "properties": { "hex_id": 774817, "centroid_lon": -71.425743737888183, "centroid_lat": 46.168896681509608, "occurrences_today": 3, "datetimes_today": "2026-01-15 06:16:49, 2026-01-15 06:31:49, 2026-01-15 06:33:37", "cumulative_total": 3.0 }, "geometry": { "type": "Polygon", "coordinates": [ [ [ -71.426080041992947, 46.163710604190932 ], [ -71.432376003253268, 46.166505822138639 ], [ -71.43204025810094, 46.171691932533157 ], [ -71.4254073413355, 46.174082752203397 ], [ -71.419110913586437, 46.17128713793408 ], [ -71.41944786906005, 46.16610110038139 ], [ -71.426080041992947, 46.163710604190932 ] ] ] } },
{ "type": "Feature", "properties": { "hex_id": 775428, "centroid_lon": -71.418773865483672, "centroid_lat": 46.176473168854784, "occurrences_today": 3, "datetimes_today": "2026-01-15 06:16:49, 2026-01-15 06:31:49, 2026-01-15 06:33:37", "cumulative_total": 3.0 }, "geometry": { "type": "Polygon", "coordinates": [ [ [ -71.419110913586437, 46.17128713793408 ], [ -71.4254073413355, 46.174082752203397 ], [ -71.425070852303392, 46.179268816271623 ], [ -71.418436724720223, 46.181659193142799 ], [ -71.412139830576962, 46.178863182394188 ], [ -71.412477530379505, 46.173677191318959 ], [ -71.419110913586437, 46.17128713793408 ] ] ] } },
{ "type": "Feature", "properties": { "hex_id": 776038, "centroid_lon": -71.412815137371652, "centroid_lat": 46.168491193604588, "occurrences_today": 3, "datetimes_today": "2026-01-15 06:16:49, 2026-01-15 06:31:49, 2026-01-15 06:33:37", "cumulative_total": 3.0 }, "geometry": { "type": "Polygon", "coordinates": [ [ [ -71.413152651585008, 46.163305189251751 ], [ -71.41944786906005, 46.16610110038139 ], [ -71.419110913586437, 46.17128713793408 ], [ -71.412477530379505, 46.173677191318959 ], [ -71.406181846959313, 46.170880883767474 ], [ -71.406520012659584, 46.165694919318184 ], [ -71.413152651585008, 46.163305189251751 ] ] ] } },
{ "type": "Feature", "properties": { "hex_id": 776648, "centroid_lon": -71.406858085431509, "centroid_lat": 46.160508948223921, "occurrences_today": 3, "datetimes_today": "2026-01-15 06:16:49, 2026-01-15 06:31:49, 2026-01-15 06:33:37", "cumulative_total": 3.0 }, "geometry": { "type": "Polygon", "coordinates": [ [ [ -71.407196065306678, 46.1553229704854 ], [ -71.413490073051179, 46.158119178261089 ], [ -71.413152651585008, 46.163305189251751 ], [ -71.406520012659584, 46.165694919318184 ], [ -71.400225539418642, 46.162898315178126 ], [ -71.400564170567918, 46.157712377401204 ], [ -71.407196065306678, 46.1553229704854 ] ] ] } },
{ "type": "Feature", "properties": { "hex_id": 777259, "centroid_lon": -71.399886815191451, "centroid_lat": 46.168084246303614, "occurrences_today": 3, "datetimes_today": "2026-01-15 06:16:49, 2026-01-15 06:31:49, 2026-01-15 06:33:37", "cumulative_total": 3.0 }, "geometry": { "type": "Polygon", "coordinates": [ [ [ -71.400225539418642, 46.162898315178126 ], [ -71.406520012659584, 46.165694919318184 ], [ -71.406181846959313, 46.170880883767474 ], [ -71.399547997854683, 46.173270170776981 ], [ -71.39325305921227, 46.17047317011496 ], [ -71.393592435044241, 46.165287279030615 ], [ -71.400225539418642, 46.162898315178126 ] ] ] } },
{ "type": "Feature", "properties": { "hex_id": 777869, "centroid_lon": -71.393931717617093, "centroid_lat": 46.16010138128766, "occurrences_today": 3, "datetimes_today": "2026-01-15 06:16:49, 2026-01-15 06:31:49, 2026-01-15 06:33:37", "cumulative_total": 3.0 }, "geometry": { "type": "Polygon", "coordinates": [ [ [ -71.394270906962603, 46.154915476886778 ], [ -71.400564170567918, 46.157712377401204 ], [ -71.400225539418642, 46.162898315178126 ], [ -71.393592435044241, 46.165287279030615 ], [ -71.387298706485922, 46.162489982051802 ], [ -71.387638547223261, 46.15730411775008 ], [ -71.394270906962603, 46.154915476886778 ] ] ] } },
{ "type": "Feature", "properties": { "hex_id": 778479, "centroid_lon": -71.387978294583846, "centroid_lat": 46.1521182467839, "occurrences_today": 3, "datetimes_today": "2026-01-15 06:16:49, 2026-01-15 06:31:49, 2026-01-15 06:33:37", "cumulative_total": 3.0 }, "geometry": { "type": "Polygon", "coordinates": [ [ [ -71.388317948599479, 46.146932369153951 ], [ -71.394610003112504, 46.149729565828615 ], [ -71.394270906962603, 46.154915476886778 ], [ -71.387638547223261, 46.15730411775008 ], [ -71.381346028205371, 46.154506524668591 ], [ -71.381686333399898, 46.149320687195818 ], [ -71.388317948599479, 46.146932369153951 ] ] ] } },
{ "type": "Feature", "properties": { "hex_id": 779089, "centroid_lon": -71.382026545100189, "centroid_lat": 46.144134843052733, "occurrences_today": 3, "datetimes_today": "2026-01-15 06:16:49, 2026-01-15 06:31:49, 2026-01-15 06:33:37", "cumulative_total": 3.0 }, "geometry": { "type": "Polygon", "coordinates": [ [ [ -71.382366663338047, 46.138948992240039 ], [ -71.388657509301908, 46.141746484860896 ], [ -71.388317948599479, 46.146932369153951 ], [ -71.381686333399898, 46.149320687195818 ], [ -71.375395023378957, 46.146522798225703 ], [ -71.375735792582873, 46.141336987628144 ], [ -71.382366663338047, 46.138948992240039 ] ] ] } },
{ "type": "Feature", "properties": { "hex_id": 779090, "centroid_lon": -71.381005629484733, "centroid_lat": 46.159692355470398, "occurrences_today": 3, "datetimes_today": "2026-01-15 06:16:49, 2026-01-15 06:31:49, 2026-01-15 06:33:37", "cumulative_total": 3.0 }, "geometry": { "type": "Polygon", "coordinates": [ [ [ -71.381346028205371, 46.154506524668591 ], [ -71.387638547223261, 46.15730411775008 ], [ -71.387298706485922, 46.162489982051802 ], [ -71.380665137206179, 46.164878179600592 ], [ -71.374372153778864, 46.162080189954793 ], [ -71.374713204008842, 46.156894399389714 ], [ -71.381346028205371, 46.154506524668591 ] ] ] } },
{ "type": "Feature", "properties": { "hex_id": 779700, "centroid_lon": -71.375054160531576, "centroid_lat": 46.151708602146442, "occurrences_today": 3, "datetimes_today": "2026-01-15 06:16:49, 2026-01-15 06:31:49, 2026-01-15 06:33:37", "cumulative_total": 3.0 }, "geometry": { "type": "Polygon", "coordinates": [ [ [ -71.375395023378957, 46.146522798225703 ], [ -71.381686333399898, 46.149320687195818 ], [ -71.381346028205371, 46.154506524668591 ], [ -71.374713204008842, 46.156894399389714 ], [ -71.368421430026359, 46.154096113912949 ], [ -71.368762944170044, 46.14891035028689 ], [ -71.375395023378957, 46.146522798225703 ] ] ] } },
{ "type": "Feature", "properties": { "hex_id": 780310, "centroid_lon": -71.369104364489161, "centroid_lat": 46.143724579976812, "occurrences_today": 3, "datetimes_today": "2026-01-15 06:16:49, 2026-01-15 06:31:49, 2026-01-15 06:33:37", "cumulative_total": 3.0 }, "geometry": { "type": "Polygon", "coordinates": [ [ [ -71.369445691015656, 46.138538802983398 ], [ -71.375735792582873, 46.141336987628144 ], [ -71.375395023378957, 46.146522798225703 ], [ -71.368762944170044, 46.14891035028689 ], [ -71.362472379088828, 46.146111769193155 ], [ -71.362814356698621, 46.140926032552358 ], [ -71.369445691015656, 46.138538802983398 ] ] ] } },
{ "type": "Feature", "properties": { "hex_id": 781531, "centroid_lon": -71.356182465255998, "centroid_lat": 46.143312858968464, "occurrences_today": 3, "datetimes_today": "2026-01-15 06:16:49, 2026-01-15 06:31:49, 2026-01-15 06:33:37", "cumulative_total": 3.0 }, "geometry": { "type": "Polygon", "coordinates": [ [ [ -71.356524999975377, 46.138127156055532 ], [ -71.362814356698621, 46.140926032552358 ], [ -71.362472379088828, 46.146111769193155 ], [ -71.355839836413821, 46.148498555184275 ], [ -71.349550016719789, 46.14569928213885 ], [ -71.349893202639521, 46.140513619716032 ], [ -71.356524999975377, 46.138127156055532 ] ] ] } },
{ "type": "Feature", "properties": { "hex_id": 832248, "centroid_lon": -70.765569194276338, "centroid_lat": 46.832270219622153, "occurrences_today": 2, "datetimes_today": "2026-01-15 06:31:49, 2026-01-15 06:33:37", "cumulative_total": 2.0 }, "geometry": { "type": "Polygon", "coordinates": [ [ [ -70.765976838724214, 46.82708882757138 ], [ -70.772311082264068, 46.829921632864469 ], [ -70.771904006295088, 46.835103064785436 ], [ -70.765161436879737, 46.837451604234921 ], [ -70.758826737829253, 46.83461838837016 ], [ -70.759235063665656, 46.829437043694007 ], [ -70.765976838724214, 46.82708882757138 ] ] ] } }
]
}
