{
"type": "FeatureCollection",
"name": "daily_2025-11-24",
"crs": { "type": "name", "properties": { "name": "urn:ogc:def:crs:OGC:1.3:CRS84" } },
"features": [
{ "type": "Feature", "properties": { "hex_id": 661, "count": 4, "date": "2025-11-24", "n_files": 22, "pct": 18.18 }, "geometry": { "type": "Polygon", "coordinates": [ [ [ -74.6677219, 46.1700443 ], [ -74.6675653, 46.1960247 ], [ -74.699895, 46.2091046 ], [ -74.7323663, 46.1961948 ], [ -74.7324923, 46.1702142 ], [ -74.7001776, 46.1571435 ], [ -74.6677219, 46.1700443 ] ] ] } },
{ "type": "Feature", "properties": { "hex_id": 725, "count": 4, "date": "2025-11-24", "n_files": 22, "pct": 18.18 }, "geometry": { "type": "Polygon", "coordinates": [ [ [ -74.6355942, 46.1309747 ], [ -74.6354227, 46.1569553 ], [ -74.6677219, 46.1700443 ], [ -74.7001776, 46.1571435 ], [ -74.7003186, 46.1311627 ], [ -74.6680343, 46.1180829 ], [ -74.6355942, 46.1309747 ] ] ] } },
{ "type": "Feature", "properties": { "hex_id": 2381, "count": 2, "date": "2025-11-24", "n_files": 22, "pct": 9.09 }, "geometry": { "type": "Polygon", "coordinates": [ [ [ -73.8076675, 45.5017505 ], [ -73.8071187, 45.5277288 ], [ -73.8388597, 45.5410479 ], [ -73.8711359, 45.5283795 ], [ -73.8716552, 45.5024006 ], [ -73.8399279, 45.4890906 ], [ -73.8076675, 45.5017505 ] ] ] } },
{ "type": "Feature", "properties": { "hex_id": 2574, "count": 7, "date": "2025-11-24", "n_files": 22, "pct": 31.82 }, "geometry": { "type": "Polygon", "coordinates": [ [ [ -73.7090155, 45.6176055 ], [ -73.708418900000012, 45.6435823 ], [ -73.7402007, 45.656929 ], [ -73.7725656, 45.6442896 ], [ -73.7731325, 45.6183122 ], [ -73.7413643, 45.6049747 ], [ -73.7090155, 45.6176055 ] ] ] } },
{ "type": "Feature", "properties": { "hex_id": 2893, "count": 2, "date": "2025-11-24", "n_files": 22, "pct": 9.09 }, "geometry": { "type": "Polygon", "coordinates": [ [ [ -73.5517402, 45.4987919 ], [ -73.5510737, 45.5247676 ], [ -73.5827509, 45.5381571 ], [ -73.6150812, 45.5255617 ], [ -73.6157183, 45.4995853 ], [ -73.5840545, 45.486205 ], [ -73.5517402, 45.4987919 ] ] ] } },
{ "type": "Feature", "properties": { "hex_id": 2954, "count": 4, "date": "2025-11-24", "n_files": 22, "pct": 18.18 }, "geometry": { "type": "Polygon", "coordinates": [ [ [ -73.5248319, 45.303563 ], [ -73.5241576, 45.3295393 ], [ -73.5557203, 45.3429352 ], [ -73.587944, 45.3303458 ], [ -73.5885892, 45.3043688 ], [ -73.5570397, 45.290982 ], [ -73.5248319, 45.303563 ] ] ] } },
{ "type": "Feature", "properties": { "hex_id": 2957, "count": 2, "date": "2025-11-24", "n_files": 22, "pct": 9.09 }, "geometry": { "type": "Polygon", "coordinates": [ [ [ -73.5187301, 45.5373447 ], [ -73.5180475, 45.5633198 ], [ -73.549738, 45.5767185 ], [ -73.5820977, 45.5641329 ], [ -73.5827509, 45.5381571 ], [ -73.5510737, 45.5247676 ], [ -73.5187301, 45.5373447 ] ] ] } },
{ "type": "Feature", "properties": { "hex_id": 3146, "count": 3, "date": "2025-11-24", "n_files": 22, "pct": 13.64 }, "geometry": { "type": "Polygon", "coordinates": [ [ [ -73.4302762, 45.2633247 ], [ -73.4295597, 45.2893 ], [ -73.4610773, 45.3027216 ], [ -73.4932983, 45.2901588 ], [ -73.4939858, 45.2641827 ], [ -73.4624813, 45.2507702 ], [ -73.4302762, 45.2633247 ] ] ] } },
{ "type": "Feature", "properties": { "hex_id": 3790, "count": 2, "date": "2025-11-24", "n_files": 22, "pct": 9.09 }, "geometry": { "type": "Polygon", "coordinates": [ [ [ -73.1013567, 45.5701444 ], [ -73.1004808, 45.5961138 ], [ -73.1320864, 45.609627 ], [ -73.164555, 45.5971616 ], [ -73.1654014, 45.5711913 ], [ -73.1338087, 45.5576873 ], [ -73.1013567, 45.5701444 ] ] ] } },
{ "type": "Feature", "properties": { "hex_id": 3854, "count": 1, "date": "2025-11-24", "n_files": 22, "pct": 4.55 }, "geometry": { "type": "Polygon", "coordinates": [ [ [ -73.067999300000011, 45.6085608 ], [ -73.0671068, 45.6345295 ], [ -73.0987254, 45.6480521 ], [ -73.1312235, 45.6355967 ], [ -73.1320864, 45.609627 ], [ -73.1004808, 45.5961138 ], [ -73.067999300000011, 45.6085608 ] ] ] } },
{ "type": "Feature", "properties": { "hex_id": 3918, "count": 2, "date": "2025-11-24", "n_files": 22, "pct": 9.09 }, "geometry": { "type": "Polygon", "coordinates": [ [ [ -73.0373156, 45.5690617 ], [ -73.0364102, 45.595030099999988 ], [ -73.067999300000011, 45.6085608 ], [ -73.1004808, 45.5961138 ], [ -73.1013567, 45.5701444 ], [ -73.0697805, 45.556623 ], [ -73.0373156, 45.5690617 ] ] ] } },
{ "type": "Feature", "properties": { "hex_id": 4361, "count": 1, "date": "2025-11-24", "n_files": 22, "pct": 4.55 }, "geometry": { "type": "Polygon", "coordinates": [ [ [ -72.8266839, 45.2144525 ], [ -72.8256937, 45.2404191 ], [ -72.8570361, 45.2540044 ], [ -72.8893562, 45.2416138 ], [ -72.8903175, 45.2156462 ], [ -72.8589875, 45.2020702 ], [ -72.8266839, 45.2144525 ] ] ] } },
{ "type": "Feature", "properties": { "hex_id": 4426, "count": 1, "date": "2025-11-24", "n_files": 22, "pct": 4.55 }, "geometry": { "type": "Polygon", "coordinates": [ [ [ -72.7933611, 45.2527913 ], [ -72.7923544, 45.2787571 ], [ -72.8237092, 45.2923518 ], [ -72.8560584, 45.2799713 ], [ -72.8570361, 45.2540044 ], [ -72.8256937, 45.2404191 ], [ -72.7933611, 45.2527913 ] ] ] } },
{ "type": "Feature", "properties": { "hex_id": 4489, "count": 1, "date": "2025-11-24", "n_files": 22, "pct": 4.55 }, "geometry": { "type": "Polygon", "coordinates": [ [ [ -72.7630544, 45.2132234 ], [ -72.7620352, 45.2391888 ], [ -72.7933611, 45.2527913 ], [ -72.8256937, 45.2404191 ], [ -72.8266839, 45.2144525 ], [ -72.7953704, 45.2008593 ], [ -72.7630544, 45.2132234 ] ] ] } },
{ "type": "Feature", "properties": { "hex_id": 4755, "count": 1, "date": "2025-11-24", "n_files": 22, "pct": 4.55 }, "geometry": { "type": "Polygon", "coordinates": [ [ [ -72.602851, 45.9894926 ], [ -72.6017289, 46.0154515 ], [ -72.6334424, 46.0291042 ], [ -72.6662651, 46.0167883 ], [ -72.667357, 45.9908281 ], [ -72.6356563, 45.9771851 ], [ -72.602851, 45.9894926 ] ] ] } },
{ "type": "Feature", "properties": { "hex_id": 4819, "count": 1, "date": "2025-11-24", "n_files": 22, "pct": 4.55 }, "geometry": { "type": "Polygon", "coordinates": [ [ [ -72.5723024, 45.9498734 ], [ -72.5711676, 45.9758319 ], [ -72.602851, 45.9894926 ], [ -72.6356563, 45.9771851 ], [ -72.636761, 45.9512253 ], [ -72.6050904, 45.9375742 ], [ -72.5723024, 45.9498734 ] ] ] } },
{ "type": "Feature", "properties": { "hex_id": 4944, "count": 1, "date": "2025-11-24", "n_files": 22, "pct": 4.55 }, "geometry": { "type": "Polygon", "coordinates": [ [ [ -72.5182602, 45.714863 ], [ -72.5171097, 45.7408216 ], [ -72.5486481, 45.7544948 ], [ -72.5813247, 45.7421999 ], [ -72.5824455, 45.71624 ], [ -72.5509195, 45.7025764 ], [ -72.5182602, 45.714863 ] ] ] } },
{ "type": "Feature", "properties": { "hex_id": 5067, "count": 5, "date": "2025-11-24", "n_files": 22, "pct": 22.73 }, "geometry": { "type": "Polygon", "coordinates": [ [ [ -72.4715907, 45.3240733 ], [ -72.4704344, 45.3500328 ], [ -72.501747, 45.3637149 ], [ -72.5342037, 45.3514281 ], [ -72.5353309, 45.3254674 ], [ -72.5040305, 45.3117947 ], [ -72.4715907, 45.3240733 ] ] ] } },
{ "type": "Feature", "properties": { "hex_id": 5072, "count": 1, "date": "2025-11-24", "n_files": 22, "pct": 4.55 }, "geometry": { "type": "Polygon", "coordinates": [ [ [ -72.4540796, 45.71345 ], [ -72.4528994, 45.7394073 ], [ -72.4844206, 45.7530979 ], [ -72.5171097, 45.7408216 ], [ -72.5182602, 45.714863 ], [ -72.4867514, 45.701182 ], [ -72.4540796, 45.71345 ] ] ] } },
{ "type": "Feature", "properties": { "hex_id": 5342, "count": 3, "date": "2025-11-24", "n_files": 22, "pct": 13.64 }, "geometry": { "type": "Polygon", "coordinates": [ [ [ -72.2721777, 46.8004867 ], [ -72.2708643, 46.8264352 ], [ -72.302956, 46.8401863 ], [ -72.3363479, 46.8279789 ], [ -72.3376299, 46.802029 ], [ -72.3055513, 46.7882878 ], [ -72.2721777, 46.8004867 ] ] ] } },
{ "type": "Feature", "properties": { "hex_id": 5406, "count": 3, "date": "2025-11-24", "n_files": 22, "pct": 13.64 }, "geometry": { "type": "Polygon", "coordinates": [ [ [ -72.2374594, 46.8386232 ], [ -72.2361275, 46.8645708 ], [ -72.2682322, 46.8783319 ], [ -72.301655600000018, 46.8661354 ], [ -72.302956, 46.8401863 ], [ -72.2708643, 46.8264352 ], [ -72.2374594, 46.8386232 ] ] ] } },
{ "type": "Feature", "properties": { "hex_id": 5453, "count": 5, "date": "2025-11-24", "n_files": 22, "pct": 22.73 }, "geometry": { "type": "Polygon", "coordinates": [ [ [ -72.2729123, 45.4754086 ], [ -72.2716587, 45.5013632 ], [ -72.3030028, 45.5151003 ], [ -72.3355886, 45.5028733 ], [ -72.336813, 45.4769174 ], [ -72.3054809, 45.4631897 ], [ -72.2729123, 45.4754086 ] ] ] } },
{ "type": "Feature", "properties": { "hex_id": 5512, "count": 5, "date": "2025-11-24", "n_files": 22, "pct": 22.73 }, "geometry": { "type": "Polygon", "coordinates": [ [ [ -72.2579184, 45.1242487 ], [ -72.2566731, 45.1502045 ], [ -72.2878241, 45.163942 ], [ -72.3202085, 45.1517141 ], [ -72.321425, 45.1257569 ], [ -72.2902858, 45.1120288 ], [ -72.2579184, 45.1242487 ] ] ] } },
{ "type": "Feature", "properties": { "hex_id": 5516, "count": 5, "date": "2025-11-24", "n_files": 22, "pct": 22.73 }, "geometry": { "type": "Polygon", "coordinates": [ [ [ -72.2428632, 45.4357096 ], [ -72.2415974, 45.4616638 ], [ -72.2729123, 45.4754086 ], [ -72.3054809, 45.4631897 ], [ -72.3067174, 45.4372342 ], [ -72.2754146, 45.4234989 ], [ -72.2428632, 45.4357096 ] ] ] } },
{ "type": "Feature", "properties": { "hex_id": 6517, "count": 2, "date": "2025-11-24", "n_files": 22, "pct": 9.09 }, "geometry": { "type": "Polygon", "coordinates": [ [ [ -71.567864, 48.5740272 ], [ -71.566106, 48.5999505 ], [ -71.5990838, 48.6139181 ], [ -71.633806, 48.6019516 ], [ -71.6355295, 48.5760265 ], [ -71.6025652, 48.5620696 ], [ -71.567864, 48.5740272 ] ] ] } },
{ "type": "Feature", "properties": { "hex_id": 6610, "count": 4, "date": "2025-11-24", "n_files": 22, "pct": 18.18 }, "geometry": { "type": "Polygon", "coordinates": [ [ [ -71.6750792, 45.849321 ], [ -71.6735309, 45.8752596 ], [ -71.7049238, 45.8891619 ], [ -71.7378532, 45.8771159 ], [ -71.7393717, 45.8511757 ], [ -71.7079905, 45.8372831 ], [ -71.6750792, 45.849321 ] ] ] } },
{ "type": "Feature", "properties": { "hex_id": 6673, "count": 4, "date": "2025-11-24", "n_files": 22, "pct": 18.18 }, "geometry": { "type": "Polygon", "coordinates": [ [ [ -71.6452761, 45.8094732 ], [ -71.6437161, 45.8354112 ], [ -71.6750792, 45.849321 ], [ -71.7079905, 45.8372831 ], [ -71.7095208, 45.8113435 ], [ -71.6781694, 45.7974434 ], [ -71.6452761, 45.8094732 ] ] ] } },
{ "type": "Feature", "properties": { "hex_id": 6674, "count": 4, "date": "2025-11-24", "n_files": 22, "pct": 18.18 }, "geometry": { "type": "Polygon", "coordinates": [ [ [ -71.6405897, 45.8872866 ], [ -71.6390233, 45.9132241 ], [ -71.6704279, 45.9271362 ], [ -71.7033872, 45.9151011 ], [ -71.7049238, 45.8891619 ], [ -71.6735309, 45.8752596 ], [ -71.6405897, 45.8872866 ] ] ] } },
{ "type": "Feature", "properties": { "hex_id": 6738, "count": 4, "date": "2025-11-24", "n_files": 22, "pct": 18.18 }, "geometry": { "type": "Polygon", "coordinates": [ [ [ -71.610793, 45.8474302 ], [ -71.6092149, 45.873367 ], [ -71.6405897, 45.8872866 ], [ -71.6735309, 45.8752596 ], [ -71.6750792, 45.849321 ], [ -71.6437161, 45.8354112 ], [ -71.610793, 45.8474302 ] ] ] } },
{ "type": "Feature", "properties": { "hex_id": 7263, "count": 2, "date": "2025-11-24", "n_files": 22, "pct": 9.09 }, "geometry": { "type": "Polygon", "coordinates": [ [ [ -71.2857653, 46.8506406 ], [ -71.2839745, 46.8765638 ], [ -71.315826, 46.8905853 ], [ -71.3494564, 46.8786736 ], [ -71.3512159, 46.8527485 ], [ -71.3193763, 46.8387371 ], [ -71.2857653, 46.8506406 ] ] ] } },
{ "type": "Feature", "properties": { "hex_id": 7539, "count": 7, "date": "2025-11-24", "n_files": 22, "pct": 31.82 }, "geometry": { "type": "Polygon", "coordinates": [ [ [ -71.0389619, 48.4011557 ], [ -71.0369457, 48.4270643 ], [ -71.0696592, 48.441177 ], [ -71.104376, 48.4293704 ], [ -71.1063581, 48.4034597 ], [ -71.0736574, 48.3893577 ], [ -71.0389619, 48.4011557 ] ] ] } },
{ "type": "Feature", "properties": { "hex_id": 7567, "count": 2, "date": "2025-11-24", "n_files": 22, "pct": 9.09 }, "geometry": { "type": "Polygon", "coordinates": [ [ [ -71.2063055, 45.639817199999989 ], [ -71.204552, 45.6657435 ], [ -71.2357057, 45.679768 ], [ -71.2686017, 45.6678565 ], [ -71.2703257, 45.6419283 ], [ -71.2391832, 45.6279135 ], [ -71.2063055, 45.639817199999989 ] ] ] } },
{ "type": "Feature", "properties": { "hex_id": 7632, "count": 2, "date": "2025-11-24", "n_files": 22, "pct": 9.09 }, "geometry": { "type": "Polygon", "coordinates": [ [ [ -71.1716449, 45.6776362 ], [ -71.1698731, 45.7035613 ], [ -71.201038, 45.7175956 ], [ -71.2339635, 45.705695 ], [ -71.2357057, 45.679768 ], [ -71.204552, 45.6657435 ], [ -71.1716449, 45.6776362 ] ] ] } },
{ "type": "Feature", "properties": { "hex_id": 7769, "count": 1, "date": "2025-11-24", "n_files": 22, "pct": 4.55 }, "geometry": { "type": "Polygon", "coordinates": [ [ [ -71.058082, 46.3753316 ], [ -71.0562128, 46.40125 ], [ -71.0877309, 46.4153257 ], [ -71.1211067, 46.4034729 ], [ -71.1229453, 46.3775525 ], [ -71.0914386, 46.3634869 ], [ -71.058082, 46.3753316 ] ] ] } },
{ "type": "Feature", "properties": { "hex_id": 7862, "count": 1, "date": "2025-11-24", "n_files": 22, "pct": 4.55 }, "geometry": { "type": "Polygon", "coordinates": [ [ [ -70.8482956, 48.6671981 ], [ -70.8461627, 48.6930994 ], [ -70.8789872, 48.7072693 ], [ -70.9139318, 48.695527 ], [ -70.9160301, 48.6696235 ], [ -70.8832184, 48.6554645 ], [ -70.8482956, 48.6671981 ] ] ] } },
{ "type": "Feature", "properties": { "hex_id": 7927, "count": 1, "date": "2025-11-24", "n_files": 22, "pct": 4.55 }, "geometry": { "type": "Polygon", "coordinates": [ [ [ -70.8112054, 48.7048207 ], [ -70.8090506, 48.7307206 ], [ -70.8418878, 48.7449014 ], [ -70.876867, 48.7331714 ], [ -70.8789872, 48.7072693 ], [ -70.8461627, 48.6930994 ], [ -70.8112054, 48.7048207 ] ] ] } },
{ "type": "Feature", "properties": { "hex_id": 7990, "count": 1, "date": "2025-11-24", "n_files": 22, "pct": 4.55 }, "geometry": { "type": "Polygon", "coordinates": [ [ [ -70.7805702, 48.664733 ], [ -70.7784028, 48.6906321 ], [ -70.8112054, 48.7048207 ], [ -70.8461627, 48.6930994 ], [ -70.8482956, 48.6671981 ], [ -70.8155057, 48.6530204 ], [ -70.7805702, 48.664733 ] ] ] } },
{ "type": "Feature", "properties": { "hex_id": 9171, "count": 3, "date": "2025-11-24", "n_files": 22, "pct": 13.64 }, "geometry": { "type": "Polygon", "coordinates": [ [ [ -70.38429, 45.8823514 ], [ -70.3821393, 45.9082492 ], [ -70.4131996, 45.9224952 ], [ -70.4464001, 45.9108334 ], [ -70.4485212, 45.8849333 ], [ -70.4174714, 45.8706973 ], [ -70.38429, 45.8823514 ] ] ] } },
{ "type": "Feature", "properties": { "hex_id": 9235, "count": 3, "date": "2025-11-24", "n_files": 22, "pct": 13.64 }, "geometry": { "type": "Polygon", "coordinates": [ [ [ -70.348928300000011, 45.9198918 ], [ -70.3467583, 45.9457881 ], [ -70.377829, 45.9600442 ], [ -70.4110593, 45.9483939 ], [ -70.4131996, 45.9224952 ], [ -70.3821393, 45.9082492 ], [ -70.348928300000011, 45.9198918 ] ] ] } },
{ "type": "Feature", "properties": { "hex_id": 9299, "count": 3, "date": "2025-11-24", "n_files": 22, "pct": 13.64 }, "geometry": { "type": "Polygon", "coordinates": [ [ [ -70.3200677, 45.8797335 ], [ -70.3178873, 45.905628899999989 ], [ -70.348928300000011, 45.9198918 ], [ -70.3821393, 45.9082492 ], [ -70.38429, 45.8823514 ], [ -70.3532594, 45.8680985 ], [ -70.3200677, 45.8797335 ] ] ] } }
]
}
