{
"type": "FeatureCollection",
"name": "daily_2025-11-18",
"crs": { "type": "name", "properties": { "name": "urn:ogc:def:crs:OGC:1.3:CRS84" } },
"features": [
{ "type": "Feature", "properties": { "hex_id": 663, "count": 4, "date": "2025-11-18", "n_files": 40, "pct": 10.0 }, "geometry": { "type": "Polygon", "coordinates": [ [ [ -74.6667793, 46.3259254 ], [ -74.6666214, 46.351905099999989 ], [ -74.6990425, 46.3649851 ], [ -74.7316064, 46.3520761 ], [ -74.7317334, 46.3260962 ], [ -74.6993274, 46.3130254 ], [ -74.6667793, 46.3259254 ] ] ] } },
{ "type": "Feature", "properties": { "hex_id": 728, "count": 4, "date": "2025-11-18", "n_files": 40, "pct": 10.0 }, "geometry": { "type": "Polygon", "coordinates": [ [ [ -74.6340425, 46.3647956 ], [ -74.6338689, 46.3907751 ], [ -74.666305, 46.4038643 ], [ -74.6988997, 46.3909648 ], [ -74.6990425, 46.3649851 ], [ -74.6666214, 46.351905099999989 ], [ -74.6340425, 46.3647956 ] ] ] } },
{ "type": "Feature", "properties": { "hex_id": 980, "count": 2, "date": "2025-11-18", "n_files": 40, "pct": 5.0 }, "geometry": { "type": "Polygon", "coordinates": [ [ [ -74.5068427, 46.0525477 ], [ -74.5066113, 46.0785281 ], [ -74.538834, 46.0916534 ], [ -74.5712734, 46.078789 ], [ -74.5714745, 46.0528082 ], [ -74.5392665, 46.0396922 ], [ -74.5068427, 46.0525477 ] ] ] } },
{ "type": "Feature", "properties": { "hex_id": 1040, "count": 17, "date": "2025-11-18", "n_files": 40, "pct": 42.5 }, "geometry": { "type": "Polygon", "coordinates": [ [ [ -74.477095800000015, 45.7796026 ], [ -74.4768527, 45.8055842 ], [ -74.5089111, 45.8187178 ], [ -74.541198, 45.8058607 ], [ -74.5414112, 45.7798789 ], [ -74.5093673, 45.7667543 ], [ -74.477095800000015, 45.7796026 ] ] ] } },
{ "type": "Feature", "properties": { "hex_id": 1041, "count": 17, "date": "2025-11-18", "n_files": 40, "pct": 42.5 }, "geometry": { "type": "Polygon", "coordinates": [ [ [ -74.4763656, 45.8575471 ], [ -74.4761216, 45.8835284 ], [ -74.5082245, 45.8966622 ], [ -74.5405568, 45.8838056 ], [ -74.5407709, 45.8578241 ], [ -74.5086825, 45.8446994 ], [ -74.4763656, 45.8575471 ] ] ] } },
{ "type": "Feature", "properties": { "hex_id": 1043, "count": 2, "date": "2025-11-18", "n_files": 40, "pct": 5.0 }, "geometry": { "type": "Polygon", "coordinates": [ [ [ -74.4748964, 46.0134329 ], [ -74.4746503, 46.0394134 ], [ -74.5068427, 46.0525477 ], [ -74.5392665, 46.0396922 ], [ -74.5394823, 46.0137114 ], [ -74.5073046, 46.0005863 ], [ -74.4748964, 46.0134329 ] ] ] } },
{ "type": "Feature", "properties": { "hex_id": 1105, "count": 17, "date": "2025-11-18", "n_files": 40, "pct": 42.5 }, "geometry": { "type": "Polygon", "coordinates": [ [ [ -74.4445513, 45.8184231 ], [ -74.4442928, 45.8444044 ], [ -74.4763656, 45.8575471 ], [ -74.5086825, 45.8446994 ], [ -74.5089111, 45.8187178 ], [ -74.4768527, 45.8055842 ], [ -74.4445513, 45.8184231 ] ] ] } },
{ "type": "Feature", "properties": { "hex_id": 1106, "count": 17, "date": "2025-11-18", "n_files": 40, "pct": 42.5 }, "geometry": { "type": "Polygon", "coordinates": [ [ [ -74.4437747, 45.8963666 ], [ -74.4435151, 45.9223476 ], [ -74.4756325, 45.9354905 ], [ -74.507995, 45.9226434 ], [ -74.5082245, 45.8966622 ], [ -74.4761216, 45.8835284 ], [ -74.4437747, 45.8963666 ] ] ] } },
{ "type": "Feature", "properties": { "hex_id": 1168, "count": 17, "date": "2025-11-18", "n_files": 40, "pct": 42.5 }, "geometry": { "type": "Polygon", "coordinates": [ [ [ -74.4127813, 45.7792902 ], [ -74.4125084, 45.8052715 ], [ -74.4445513, 45.8184231 ], [ -74.4768527, 45.8055842 ], [ -74.477095800000015, 45.7796026 ], [ -74.4450673, 45.766460099999989 ], [ -74.4127813, 45.7792902 ] ] ] } },
{ "type": "Feature", "properties": { "hex_id": 1169, "count": 17, "date": "2025-11-18", "n_files": 40, "pct": 42.5 }, "geometry": { "type": "Polygon", "coordinates": [ [ [ -74.4119614, 45.8572338 ], [ -74.4116874, 45.8832148 ], [ -74.4437747, 45.8963666 ], [ -74.4761216, 45.8835284 ], [ -74.4763656, 45.8575471 ], [ -74.4442928, 45.8444044 ], [ -74.4119614, 45.8572338 ] ] ] } },
{ "type": "Feature", "properties": { "hex_id": 1233, "count": 17, "date": "2025-11-18", "n_files": 40, "pct": 42.5 }, "geometry": { "type": "Polygon", "coordinates": [ [ [ -74.3801926, 45.8180921 ], [ -74.3799041, 45.8440731 ], [ -74.4119614, 45.8572338 ], [ -74.4442928, 45.8444044 ], [ -74.4445513, 45.8184231 ], [ -74.4125084, 45.8052715 ], [ -74.3801926, 45.8180921 ] ] ] } },
{ "type": "Feature", "properties": { "hex_id": 1234, "count": 17, "date": "2025-11-18", "n_files": 40, "pct": 42.5 }, "geometry": { "type": "Polygon", "coordinates": [ [ [ -74.379326, 45.8960348 ], [ -74.37903630000001, 45.9220154 ], [ -74.4111381, 45.9351764 ], [ -74.4435151, 45.9223476 ], [ -74.4437747, 45.8963666 ], [ -74.4116874, 45.8832148 ], [ -74.379326, 45.8960348 ] ] ] } },
{ "type": "Feature", "properties": { "hex_id": 1297, "count": 17, "date": "2025-11-18", "n_files": 40, "pct": 42.5 }, "geometry": { "type": "Polygon", "coordinates": [ [ [ -74.3475583, 45.8568842 ], [ -74.3472543, 45.8828649 ], [ -74.379326, 45.8960348 ], [ -74.4116874, 45.8832148 ], [ -74.4119614, 45.8572338 ], [ -74.3799041, 45.8440731 ], [ -74.3475583, 45.8568842 ] ] ] } },
{ "type": "Feature", "properties": { "hex_id": 1362, "count": 17, "date": "2025-11-18", "n_files": 40, "pct": 42.5 }, "geometry": { "type": "Polygon", "coordinates": [ [ [ -74.3148785, 45.8956665 ], [ -74.3145588, 45.9216468 ], [ -74.3466449, 45.9348259 ], [ -74.37903630000001, 45.9220154 ], [ -74.379326, 45.8960348 ], [ -74.3472543, 45.8828649 ], [ -74.3148785, 45.8956665 ] ] ] } },
{ "type": "Feature", "properties": { "hex_id": 1425, "count": 17, "date": "2025-11-18", "n_files": 40, "pct": 42.5 }, "geometry": { "type": "Polygon", "coordinates": [ [ [ -74.2831565, 45.8564984 ], [ -74.2828224, 45.8824787 ], [ -74.3148785, 45.8956665 ], [ -74.3472543, 45.8828649 ], [ -74.3475583, 45.8568842 ], [ -74.3155166, 45.8437055 ], [ -74.2831565, 45.8564984 ] ] ] } },
{ "type": "Feature", "properties": { "hex_id": 1490, "count": 17, "date": "2025-11-18", "n_files": 40, "pct": 42.5 }, "geometry": { "type": "Polygon", "coordinates": [ [ [ -74.2504323, 45.895262 ], [ -74.2500825, 45.9212419 ], [ -74.2821529, 45.9344389 ], [ -74.3145588, 45.9216468 ], [ -74.3148785, 45.8956665 ], [ -74.2828224, 45.8824787 ], [ -74.2504323, 45.895262 ] ] ] } },
{ "type": "Feature", "properties": { "hex_id": 1619, "count": 1, "date": "2025-11-18", "n_files": 40, "pct": 2.5 }, "geometry": { "type": "Polygon", "coordinates": [ [ [ -74.1848464, 45.9727593 ], [ -74.184465, 45.9987385 ], [ -74.2165641, 46.011954 ], [ -74.2490302, 45.999181 ], [ -74.2493815, 45.9732014 ], [ -74.2172967, 45.959995199999987 ], [ -74.1848464, 45.9727593 ] ] ] } },
{ "type": "Feature", "properties": { "hex_id": 1682, "count": 1, "date": "2025-11-18", "n_files": 40, "pct": 2.5 }, "geometry": { "type": "Polygon", "coordinates": [ [ [ -74.1531732, 45.9335559 ], [ -74.1527775, 45.9595351 ], [ -74.1848464, 45.9727593 ], [ -74.2172967, 45.959995199999987 ], [ -74.2176623, 45.9340156 ], [ -74.1856077, 45.9208006 ], [ -74.1531732, 45.9335559 ] ] ] } },
{ "type": "Feature", "properties": { "hex_id": 1683, "count": 1, "date": "2025-11-18", "n_files": 40, "pct": 2.5 }, "geometry": { "type": "Polygon", "coordinates": [ [ [ -74.1519844, 46.011493 ], [ -74.1515871, 46.0374718 ], [ -74.1837005, 46.0506965 ], [ -74.216197, 46.0379332 ], [ -74.2165641, 46.011954 ], [ -74.184465, 45.9987385 ], [ -74.1519844, 46.011493 ] ] ] } },
{ "type": "Feature", "properties": { "hex_id": 1746, "count": 4, "date": "2025-11-18", "n_files": 40, "pct": 10.0 }, "geometry": { "type": "Polygon", "coordinates": [ [ [ -74.1215443, 45.8943438 ], [ -74.1211344, 45.9203229 ], [ -74.1531732, 45.9335559 ], [ -74.1856077, 45.9208006 ], [ -74.1859875, 45.894821 ], [ -74.153963, 45.881597199999987 ], [ -74.1215443, 45.8943438 ] ] ] } },
{ "type": "Feature", "properties": { "hex_id": 1747, "count": 1, "date": "2025-11-18", "n_files": 40, "pct": 2.5 }, "geometry": { "type": "Polygon", "coordinates": [ [ [ -74.1203129, 45.9722808 ], [ -74.1199013, 45.998259499999989 ], [ -74.1519844, 46.011493 ], [ -74.184465, 45.9987385 ], [ -74.1848464, 45.9727593 ], [ -74.1527775, 45.9595351 ], [ -74.1203129, 45.9722808 ] ] ] } },
{ "type": "Feature", "properties": { "hex_id": 1809, "count": 4, "date": "2025-11-18", "n_files": 40, "pct": 10.0 }, "geometry": { "type": "Polygon", "coordinates": [ [ [ -74.0899597, 45.855123 ], [ -74.0895356, 45.881102 ], [ -74.1215443, 45.8943438 ], [ -74.153963, 45.881597199999987 ], [ -74.154357, 45.8556177 ], [ -74.1223625, 45.8423852 ], [ -74.0899597, 45.855123 ] ] ] } },
{ "type": "Feature", "properties": { "hex_id": 1810, "count": 1, "date": "2025-11-18", "n_files": 40, "pct": 2.5 }, "geometry": { "type": "Polygon", "coordinates": [ [ [ -74.0886857, 45.9330598 ], [ -74.0882599, 45.9590385 ], [ -74.1203129, 45.9722808 ], [ -74.1527775, 45.9595351 ], [ -74.1531732, 45.9335559 ], [ -74.1211344, 45.9203229 ], [ -74.0886857, 45.9330598 ] ] ] } },
{ "type": "Feature", "properties": { "hex_id": 1811, "count": 1, "date": "2025-11-18", "n_files": 40, "pct": 2.5 }, "geometry": { "type": "Polygon", "coordinates": [ [ [ -74.0874065, 46.0109956 ], [ -74.0869789, 46.0369739 ], [ -74.1190763, 46.0502167 ], [ -74.1515871, 46.0374718 ], [ -74.1519844, 46.011493 ], [ -74.1199013, 45.998259499999989 ], [ -74.0874065, 46.0109956 ] ] ] } },
{ "type": "Feature", "properties": { "hex_id": 2260, "count": 3, "date": "2025-11-18", "n_files": 40, "pct": 7.5 }, "geometry": { "type": "Polygon", "coordinates": [ [ [ -73.8605978, 46.047932 ], [ -73.8600633, 46.0739083 ], [ -73.8921265, 46.0872144 ], [ -73.9247102, 46.0745349 ], [ -73.92521450000001, 46.048558 ], [ -73.8931653, 46.0352612 ], [ -73.8605978, 46.047932 ] ] ] } },
{ "type": "Feature", "properties": { "hex_id": 2316, "count": 16, "date": "2025-11-18", "n_files": 40, "pct": 40.0 }, "geometry": { "type": "Polygon", "coordinates": [ [ [ -73.8404609, 45.4631118 ], [ -73.8399279, 45.4890906 ], [ -73.8716552, 45.5024006 ], [ -73.903902, 45.4897225 ], [ -73.9044056, 45.4637431 ], [ -73.8726918, 45.4504423 ], [ -73.8404609, 45.4631118 ] ] ] } },
{ "type": "Feature", "properties": { "hex_id": 2324, "count": 3, "date": "2025-11-18", "n_files": 40, "pct": 7.5 }, "geometry": { "type": "Polygon", "coordinates": [ [ [ -73.8274655, 46.0865693 ], [ -73.8269147, 46.1125452 ], [ -73.858992, 46.1258606 ], [ -73.8916061, 46.1131909 ], [ -73.8921265, 46.0872144 ], [ -73.8600633, 46.0739083 ], [ -73.8274655, 46.0865693 ] ] ] } },
{ "type": "Feature", "properties": { "hex_id": 2380, "count": 17, "date": "2025-11-18", "n_files": 40, "pct": 42.5 }, "geometry": { "type": "Polygon", "coordinates": [ [ [ -73.8093094, 45.4238147 ], [ -73.8087629, 45.4497934 ], [ -73.8404609, 45.4631118 ], [ -73.8726918, 45.4504423 ], [ -73.8732091, 45.4244631 ], [ -73.8415247, 45.4111538 ], [ -73.8093094, 45.4238147 ] ] ] } },
{ "type": "Feature", "properties": { "hex_id": 2381, "count": 3, "date": "2025-11-18", "n_files": 40, "pct": 7.5 }, "geometry": { "type": "Polygon", "coordinates": [ [ [ -73.8076675, 45.5017505 ], [ -73.8071187, 45.5277288 ], [ -73.8388597, 45.5410479 ], [ -73.8711359, 45.5283795 ], [ -73.8716552, 45.5024006 ], [ -73.8399279, 45.4890906 ], [ -73.8076675, 45.5017505 ] ] ] } },
{ "type": "Feature", "properties": { "hex_id": 2444, "count": 3, "date": "2025-11-18", "n_files": 40, "pct": 7.5 }, "geometry": { "type": "Polygon", "coordinates": [ [ [ -73.7765183, 45.4624447 ], [ -73.7759559, 45.488423 ], [ -73.8076675, 45.5017505 ], [ -73.8399279, 45.4890906 ], [ -73.8404609, 45.4631118 ], [ -73.8087629, 45.4497934 ], [ -73.7765183, 45.4624447 ] ] ] } },
{ "type": "Feature", "properties": { "hex_id": 2511, "count": 18, "date": "2025-11-18", "n_files": 40, "pct": 45.0 }, "geometry": { "type": "Polygon", "coordinates": [ [ [ -73.7402007, 45.656929 ], [ -73.7396177, 45.682906 ], [ -73.7714292, 45.6962442 ], [ -73.8038101, 45.6835962 ], [ -73.8043634, 45.6576186 ], [ -73.7725656, 45.6442896 ], [ -73.7402007, 45.656929 ] ] ] } },
{ "type": "Feature", "properties": { "hex_id": 2765, "count": 1, "date": "2025-11-18", "n_files": 40, "pct": 2.5 }, "geometry": { "type": "Polygon", "coordinates": [ [ [ -73.6157183, 45.4995853 ], [ -73.6150812, 45.5255617 ], [ -73.6467744, 45.5389336 ], [ -73.6790912, 45.5263199 ], [ -73.6796989, 45.5003429 ], [ -73.6480191, 45.4869801 ], [ -73.6157183, 45.4995853 ] ] ] } },
{ "type": "Feature", "properties": { "hex_id": 2766, "count": 13, "date": "2025-11-18", "n_files": 40, "pct": 32.5 }, "geometry": { "type": "Polygon", "coordinates": [ [ [ -73.6138044, 45.5775141 ], [ -73.6131647, 45.6034901 ], [ -73.6449009, 45.6168628 ], [ -73.6772632, 45.6042504 ], [ -73.6778734, 45.5782737 ], [ -73.6461507, 45.5649101 ], [ -73.6138044, 45.5775141 ] ] ] } },
{ "type": "Feature", "properties": { "hex_id": 2829, "count": 14, "date": "2025-11-18", "n_files": 40, "pct": 35.0 }, "geometry": { "type": "Polygon", "coordinates": [ [ [ -73.5827509, 45.5381571 ], [ -73.5820977, 45.5641329 ], [ -73.6138044, 45.5775141 ], [ -73.6461507, 45.5649101 ], [ -73.6467744, 45.5389336 ], [ -73.6150812, 45.5255617 ], [ -73.5827509, 45.5381571 ] ] ] } },
{ "type": "Feature", "properties": { "hex_id": 2832, "count": 12, "date": "2025-11-18", "n_files": 40, "pct": 30.0 }, "geometry": { "type": "Polygon", "coordinates": [ [ [ -73.5768404, 45.7719351 ], [ -73.5761791, 45.7979098 ], [ -73.6080154, 45.8112936 ], [ -73.6404993, 45.7986934 ], [ -73.6411307, 45.772718 ], [ -73.609308, 45.7593435 ], [ -73.5768404, 45.7719351 ] ] ] } },
{ "type": "Feature", "properties": { "hex_id": 2894, "count": 13, "date": "2025-11-18", "n_files": 40, "pct": 32.5 }, "geometry": { "type": "Polygon", "coordinates": [ [ [ -73.549738, 45.5767185 ], [ -73.5490687, 45.6026938 ], [ -73.5807888, 45.6160842 ], [ -73.6131647, 45.6034901 ], [ -73.6138044, 45.5775141 ], [ -73.5820977, 45.5641329 ], [ -73.549738, 45.5767185 ] ] ] } },
{ "type": "Feature", "properties": { "hex_id": 2897, "count": 12, "date": "2025-11-18", "n_files": 40, "pct": 30.0 }, "geometry": { "type": "Polygon", "coordinates": [ [ [ -73.5436817, 45.8104916 ], [ -73.5430041, 45.8364658 ], [ -73.574854, 45.8498589 ], [ -73.6073678, 45.8372685 ], [ -73.6080154, 45.8112936 ], [ -73.5761791, 45.7979098 ], [ -73.5436817, 45.8104916 ] ] ] } },
{ "type": "Feature", "properties": { "hex_id": 2960, "count": 12, "date": "2025-11-18", "n_files": 40, "pct": 30.0 }, "geometry": { "type": "Polygon", "coordinates": [ [ [ -73.5125528, 45.7711161 ], [ -73.5118617, 45.7970901 ], [ -73.5436817, 45.8104916 ], [ -73.5761791, 45.7979098 ], [ -73.5768404, 45.7719351 ], [ -73.545034, 45.7585429 ], [ -73.5125528, 45.7711161 ] ] ] } },
{ "type": "Feature", "properties": { "hex_id": 3091, "count": 14, "date": "2025-11-18", "n_files": 40, "pct": 35.0 }, "geometry": { "type": "Polygon", "coordinates": [ [ [ -73.4417441, 46.0040152 ], [ -73.4410143, 46.0299872 ], [ -73.4729486, 46.0434094 ], [ -73.5055992, 46.0308501 ], [ -73.5062989, 46.0048773 ], [ -73.4743782, 45.9914645 ], [ -73.4417441, 46.0040152 ] ] ] } },
{ "type": "Feature", "properties": { "hex_id": 3156, "count": 14, "date": "2025-11-18", "n_files": 40, "pct": 35.0 }, "geometry": { "type": "Polygon", "coordinates": [ [ [ -73.40835, 46.0425278 ], [ -73.4076035, 46.0684993 ], [ -73.4395515, 46.0819309 ], [ -73.4722324, 46.0693816 ], [ -73.4729486, 46.0434094 ], [ -73.4410143, 46.0299872 ], [ -73.40835, 46.0425278 ] ] ] } },
{ "type": "Feature", "properties": { "hex_id": 3216, "count": 13, "date": "2025-11-18", "n_files": 40, "pct": 32.5 }, "geometry": { "type": "Polygon", "coordinates": [ [ [ -73.3839863, 45.7693696 ], [ -73.3832355, 45.795342 ], [ -73.4150227, 45.808779 ], [ -73.4475471, 45.7962342 ], [ -73.4482681, 45.770261 ], [ -73.4164943, 45.7568334 ], [ -73.3839863, 45.7693696 ] ] ] } },
{ "type": "Feature", "properties": { "hex_id": 3406, "count": 6, "date": "2025-11-18", "n_files": 40, "pct": 15.0 }, "geometry": { "type": "Polygon", "coordinates": [ [ [ -73.293501, 45.5731773 ], [ -73.2927136, 45.5991494 ], [ -73.3243686, 45.6126101 ], [ -73.3567979, 45.600089399999987 ], [ -73.3575557, 45.5741165 ], [ -73.3259138, 45.5606651 ], [ -73.293501, 45.5731773 ] ] ] } },
{ "type": "Feature", "properties": { "hex_id": 3465, "count": 5, "date": "2025-11-18", "n_files": 40, "pct": 12.5 }, "geometry": { "type": "Polygon", "coordinates": [ [ [ -73.272197, 45.2220641 ], [ -73.2714095, 45.248037499999988 ], [ -73.302866, 45.261502 ], [ -73.3350971, 45.2489839 ], [ -73.3358556, 45.2230097 ], [ -73.304412, 45.2095543 ], [ -73.272197, 45.2220641 ] ] ] } },
{ "type": "Feature", "properties": { "hex_id": 3529, "count": 8, "date": "2025-11-18", "n_files": 40, "pct": 20.0 }, "geometry": { "type": "Polygon", "coordinates": [ [ [ -73.2415699, 45.1826183 ], [ -73.2407696, 45.2085915 ], [ -73.272197, 45.2220641 ], [ -73.304412, 45.2095543 ], [ -73.3051834, 45.1835803 ], [ -73.2737688, 45.1701169 ], [ -73.2415699, 45.1826183 ] ] ] } },
{ "type": "Feature", "properties": { "hex_id": 3533, "count": 2, "date": "2025-11-18", "n_files": 40, "pct": 5.0 }, "geometry": { "type": "Polygon", "coordinates": [ [ [ -73.2318934, 45.4942878 ], [ -73.2310799, 45.5202594 ], [ -73.262676, 45.5337365 ], [ -73.2950725, 45.5212327 ], [ -73.2958566, 45.4952602 ], [ -73.2642736, 45.4817924 ], [ -73.2318934, 45.4942878 ] ] ] } },
{ "type": "Feature", "properties": { "hex_id": 3593, "count": 8, "date": "2025-11-18", "n_files": 40, "pct": 20.0 }, "geometry": { "type": "Polygon", "coordinates": [ [ [ -73.208541700000012, 45.2210831 ], [ -73.2077253, 45.2470556 ], [ -73.2391656, 45.2605374 ], [ -73.2714095, 45.248037499999988 ], [ -73.272197, 45.2220641 ], [ -73.2407696, 45.2085915 ], [ -73.208541700000012, 45.2210831 ] ] ] } },
{ "type": "Feature", "properties": { "hex_id": 3596, "count": 2, "date": "2025-11-18", "n_files": 40, "pct": 5.0 }, "geometry": { "type": "Polygon", "coordinates": [ [ [ -73.2011533, 45.4548312 ], [ -73.2003268, 45.4808025 ], [ -73.2318934, 45.4942878 ], [ -73.2642736, 45.4817924 ], [ -73.2650709, 45.4558202 ], [ -73.2335172, 45.4423442 ], [ -73.2011533, 45.4548312 ] ] ] } },
{ "type": "Feature", "properties": { "hex_id": 3597, "count": 2, "date": "2025-11-18", "n_files": 40, "pct": 5.0 }, "geometry": { "type": "Polygon", "coordinates": [ [ [ -73.1986703, 45.5327448 ], [ -73.1978404, 45.5587158 ], [ -73.2294495, 45.5722022 ], [ -73.2618755, 45.5597084 ], [ -73.262676, 45.5337365 ], [ -73.2310799, 45.5202594 ], [ -73.1986703, 45.5327448 ] ] ] } },
{ "type": "Feature", "properties": { "hex_id": 3610, "count": 6, "date": "2025-11-18", "n_files": 40, "pct": 15.0 }, "geometry": { "type": "Polygon", "coordinates": [ [ [ -73.1654446, 46.5455156 ], [ -73.1645689, 46.5714815 ], [ -73.1967459, 46.5849833 ], [ -73.2297847, 46.5725096 ], [ -73.2306293, 46.5465428 ], [ -73.1984661, 46.5330506 ], [ -73.1654446, 46.5455156 ] ] ] } },
{ "type": "Feature", "properties": { "hex_id": 3611, "count": 6, "date": "2025-11-18", "n_files": 40, "pct": 15.0 }, "geometry": { "type": "Polygon", "coordinates": [ [ [ -73.162814, 46.6234128 ], [ -73.1619348, 46.6493783 ], [ -73.1941567, 46.6628813 ], [ -73.227244, 46.6504092 ], [ -73.2280921, 46.6244428 ], [ -73.195884, 46.6109494 ], [ -73.162814, 46.6234128 ] ] ] } },
{ "type": "Feature", "properties": { "hex_id": 3660, "count": 5, "date": "2025-11-18", "n_files": 40, "pct": 12.5 }, "geometry": { "type": "Polygon", "coordinates": [ [ [ -73.1704555, 45.4153667 ], [ -73.169616, 45.4413377 ], [ -73.2011533, 45.4548312 ], [ -73.2335172, 45.4423442 ], [ -73.2343274, 45.4163722 ], [ -73.202803, 45.402888 ], [ -73.1704555, 45.4153667 ] ] ] } },
{ "type": "Feature", "properties": { "hex_id": 3661, "count": 2, "date": "2025-11-18", "n_files": 40, "pct": 5.0 }, "geometry": { "type": "Polygon", "coordinates": [ [ [ -73.1679336, 45.4932795 ], [ -73.1670907, 45.5192502 ], [ -73.1986703, 45.5327448 ], [ -73.2310799, 45.5202594 ], [ -73.2318934, 45.4942878 ], [ -73.2003268, 45.4808025 ], [ -73.1679336, 45.4932795 ] ] ] } },
{ "type": "Feature", "properties": { "hex_id": 3674, "count": 6, "date": "2025-11-18", "n_files": 40, "pct": 15.0 }, "geometry": { "type": "Polygon", "coordinates": [ [ [ -73.134188, 46.5060398 ], [ -73.1332987, 46.5320054 ], [ -73.1654446, 46.5455156 ], [ -73.1984661, 46.5330506 ], [ -73.1993244, 46.5070841 ], [ -73.1671922, 46.4935835 ], [ -73.134188, 46.5060398 ] ] ] } },
{ "type": "Feature", "properties": { "hex_id": 3675, "count": 6, "date": "2025-11-18", "n_files": 40, "pct": 15.0 }, "geometry": { "type": "Polygon", "coordinates": [ [ [ -73.1315163, 46.5839362 ], [ -73.1306233, 46.6099014 ], [ -73.162814, 46.6234128 ], [ -73.195884, 46.6109494 ], [ -73.1967459, 46.5849833 ], [ -73.1645689, 46.5714815 ], [ -73.1315163, 46.5839362 ] ] ] } },
{ "type": "Feature", "properties": { "hex_id": 3727, "count": 2, "date": "2025-11-18", "n_files": 40, "pct": 5.0 }, "geometry": { "type": "Polygon", "coordinates": [ [ [ -73.1294941, 45.6875356 ], [ -73.1286277, 45.7135048 ], [ -73.1603056, 45.7270111 ], [ -73.1928369, 45.7145388 ], [ -73.1936737, 45.6885687 ], [ -73.1620088, 45.6750717 ], [ -73.1294941, 45.6875356 ] ] ] } },
{ "type": "Feature", "properties": { "hex_id": 3731, "count": 3, "date": "2025-11-18", "n_files": 40, "pct": 7.5 }, "geometry": { "type": "Polygon", "coordinates": [ [ [ -73.1190179, 45.9991579 ], [ -73.1181371, 46.0251256 ], [ -73.1499877, 46.0386368 ], [ -73.1827058, 46.0261708 ], [ -73.1835564, 46.0002022 ], [ -73.1517191, 45.9867005 ], [ -73.1190179, 45.9991579 ] ] ] } },
{ "type": "Feature", "properties": { "hex_id": 3737, "count": 6, "date": "2025-11-18", "n_files": 40, "pct": 15.0 }, "geometry": { "type": "Polygon", "coordinates": [ [ [ -73.102976, 46.4665559 ], [ -73.1020731, 46.4925212 ], [ -73.134188, 46.5060398 ], [ -73.1671922, 46.4935835 ], [ -73.1680642, 46.4676173 ], [ -73.1359629, 46.4541082 ], [ -73.102976, 46.4665559 ] ] ] } },
{ "type": "Feature", "properties": { "hex_id": 3738, "count": 6, "date": "2025-11-18", "n_files": 40, "pct": 15.0 }, "geometry": { "type": "Polygon", "coordinates": [ [ [ -73.1002635, 46.5444514 ], [ -73.0993568, 46.5704163 ], [ -73.1315163, 46.5839362 ], [ -73.1645689, 46.5714815 ], [ -73.1654446, 46.5455156 ], [ -73.1332987, 46.5320054 ], [ -73.1002635, 46.5444514 ] ] ] } },
{ "type": "Feature", "properties": { "hex_id": 3791, "count": 2, "date": "2025-11-18", "n_files": 40, "pct": 5.0 }, "geometry": { "type": "Polygon", "coordinates": [ [ [ -73.0987254, 45.6480521 ], [ -73.0978459, 45.6740211 ], [ -73.1294941, 45.6875356 ], [ -73.1620088, 45.6750717 ], [ -73.1628587, 45.6491018 ], [ -73.1312235, 45.6355967 ], [ -73.0987254, 45.6480521 ] ] ] } },
{ "type": "Feature", "properties": { "hex_id": 3796, "count": 2, "date": "2025-11-18", "n_files": 40, "pct": 5.0 }, "geometry": { "type": "Polygon", "coordinates": [ [ [ -73.0854057, 46.0375728 ], [ -73.0845079, 46.0635398 ], [ -73.11637180000001, 46.0770605 ], [ -73.1491201, 46.0646047 ], [ -73.1499877, 46.0386368 ], [ -73.1181371, 46.0251256 ], [ -73.0854057, 46.0375728 ] ] ] } },
{ "type": "Feature", "properties": { "hex_id": 3802, "count": 6, "date": "2025-11-18", "n_files": 40, "pct": 15.0 }, "geometry": { "type": "Polygon", "coordinates": [ [ [ -73.0690553, 46.5049584 ], [ -73.068135, 46.5309231 ], [ -73.1002635, 46.5444514 ], [ -73.1332987, 46.5320054 ], [ -73.134188, 46.5060398 ], [ -73.1020731, 46.4925212 ], [ -73.0690553, 46.5049584 ] ] ] } },
{ "type": "Feature", "properties": { "hex_id": 3803, "count": 6, "date": "2025-11-18", "n_files": 40, "pct": 15.0 }, "geometry": { "type": "Polygon", "coordinates": [ [ [ -73.0662905, 46.5828519 ], [ -73.0653664, 46.6088161 ], [ -73.0975396, 46.6223457 ], [ -73.1306233, 46.6099014 ], [ -73.1315163, 46.5839362 ], [ -73.0993568, 46.5704163 ], [ -73.0662905, 46.5828519 ] ] ] } },
{ "type": "Feature", "properties": { "hex_id": 3859, "count": 3, "date": "2025-11-18", "n_files": 40, "pct": 7.5 }, "geometry": { "type": "Polygon", "coordinates": [ [ [ -73.054483, 45.9980772 ], [ -73.053572, 46.0240439 ], [ -73.0854057, 46.0375728 ], [ -73.1181371, 46.0251256 ], [ -73.1190179, 45.9991579 ], [ -73.0871975, 45.9856384 ], [ -73.054483, 45.9980772 ] ] ] } },
{ "type": "Feature", "properties": { "hex_id": 3865, "count": 6, "date": "2025-11-18", "n_files": 40, "pct": 15.0 }, "geometry": { "type": "Polygon", "coordinates": [ [ [ -73.0378916, 46.4654574 ], [ -73.0369578, 46.4914218 ], [ -73.0690553, 46.5049584 ], [ -73.1020731, 46.4925212 ], [ -73.102976, 46.4665559 ], [ -73.0708921, 46.4530288 ], [ -73.0378916, 46.4654574 ] ] ] } },
{ "type": "Feature", "properties": { "hex_id": 3866, "count": 6, "date": "2025-11-18", "n_files": 40, "pct": 15.0 }, "geometry": { "type": "Polygon", "coordinates": [ [ [ -73.0350861, 46.54335 ], [ -73.0341484, 46.5693139 ], [ -73.0662905, 46.5828519 ], [ -73.0993568, 46.5704163 ], [ -73.1002635, 46.5444514 ], [ -73.068135, 46.5309231 ], [ -73.0350861, 46.54335 ] ] ] } },
{ "type": "Feature", "properties": { "hex_id": 3930, "count": 6, "date": "2025-11-18", "n_files": 40, "pct": 15.0 }, "geometry": { "type": "Polygon", "coordinates": [ [ [ -73.0039264, 46.50384 ], [ -73.0029751, 46.5298036 ], [ -73.0350861, 46.54335 ], [ -73.068135, 46.5309231 ], [ -73.0690553, 46.5049584 ], [ -73.0369578, 46.4914218 ], [ -73.0039264, 46.50384 ] ] ] } },
{ "type": "Feature", "properties": { "hex_id": 4501, "count": 4, "date": "2025-11-18", "n_files": 40, "pct": 10.0 }, "geometry": { "type": "Polygon", "coordinates": [ [ [ -72.7254749, 46.1478932 ], [ -72.7244043, 46.173853799999989 ], [ -72.756238900000014, 46.1874742 ], [ -72.789131, 46.1751245 ], [ -72.7901712, 46.1491629 ], [ -72.7583496, 46.135552 ], [ -72.7254749, 46.1478932 ] ] ] } },
{ "type": "Feature", "properties": { "hex_id": 4505, "count": 4, "date": "2025-11-18", "n_files": 40, "pct": 10.0 }, "geometry": { "type": "Polygon", "coordinates": [ [ [ -72.7125302, 46.4594103 ], [ -72.7114418, 46.4853691 ], [ -72.7434515, 46.4989957 ], [ -72.7765365, 46.4866537 ], [ -72.777594, 46.4606937 ], [ -72.7455975, 46.4470769 ], [ -72.7125302, 46.4594103 ] ] ] } },
{ "type": "Feature", "properties": { "hex_id": 4506, "count": 15, "date": "2025-11-18", "n_files": 40, "pct": 37.5 }, "geometry": { "type": "Polygon", "coordinates": [ [ [ -72.7092604, 46.5372864 ], [ -72.7081675, 46.5632449 ], [ -72.7402214, 46.576873 ], [ -72.7733551, 46.5645329 ], [ -72.774417, 46.5385733 ], [ -72.7423763, 46.524955 ], [ -72.7092604, 46.5372864 ] ] ] } },
{ "type": "Feature", "properties": { "hex_id": 4565, "count": 4, "date": "2025-11-18", "n_files": 40, "pct": 10.0 }, "geometry": { "type": "Polygon", "coordinates": [ [ [ -72.6947542, 46.1083046 ], [ -72.6936707, 46.1342647 ], [ -72.7254749, 46.1478932 ], [ -72.7583496, 46.135552 ], [ -72.7594028, 46.1095907 ], [ -72.7276116, 46.0959718 ], [ -72.6947542, 46.1083046 ] ] ] } },
{ "type": "Feature", "properties": { "hex_id": 4569, "count": 4, "date": "2025-11-18", "n_files": 40, "pct": 10.0 }, "geometry": { "type": "Polygon", "coordinates": [ [ [ -72.6816529, 46.4198171 ], [ -72.6805514, 46.4457755 ], [ -72.7125302, 46.4594103 ], [ -72.7455975, 46.4470769 ], [ -72.7466682, 46.4211172 ], [ -72.7147025, 46.4074922 ], [ -72.6816529, 46.4198171 ] ] ] } },
{ "type": "Feature", "properties": { "hex_id": 4570, "count": 4, "date": "2025-11-18", "n_files": 40, "pct": 10.0 }, "geometry": { "type": "Polygon", "coordinates": [ [ [ -72.6783436, 46.497692099999988 ], [ -72.6772375, 46.5236501 ], [ -72.7092604, 46.5372864 ], [ -72.7423763, 46.524955 ], [ -72.7434515, 46.4989957 ], [ -72.7114418, 46.4853691 ], [ -72.6783436, 46.497692099999988 ] ] ] } },
{ "type": "Feature", "properties": { "hex_id": 4633, "count": 4, "date": "2025-11-18", "n_files": 40, "pct": 10.0 }, "geometry": { "type": "Polygon", "coordinates": [ [ [ -72.6474709, 46.4580899 ], [ -72.6463516, 46.4840476 ], [ -72.6783436, 46.497692099999988 ], [ -72.7114418, 46.4853691 ], [ -72.7125302, 46.4594103 ], [ -72.6805514, 46.4457755 ], [ -72.6474709, 46.4580899 ] ] ] } },
{ "type": "Feature", "properties": { "hex_id": 4697, "count": 4, "date": "2025-11-18", "n_files": 40, "pct": 10.0 }, "geometry": { "type": "Polygon", "coordinates": [ [ [ -72.6166422, 46.41848 ], [ -72.6155098, 46.4444372 ], [ -72.6474709, 46.4580899 ], [ -72.6805514, 46.4457755 ], [ -72.6816529, 46.4198171 ], [ -72.6497049, 46.4061741 ], [ -72.6166422, 46.41848 ] ] ] } },
{ "type": "Feature", "properties": { "hex_id": 4698, "count": 4, "date": "2025-11-18", "n_files": 40, "pct": 10.0 }, "geometry": { "type": "Polygon", "coordinates": [ [ [ -72.6132403, 46.4963514 ], [ -72.6121032, 46.5223082 ], [ -72.6441083, 46.5359625 ], [ -72.6772375, 46.5236501 ], [ -72.6783436, 46.497692099999988 ], [ -72.6463516, 46.4840476 ], [ -72.6132403, 46.4963514 ] ] ] } },
{ "type": "Feature", "properties": { "hex_id": 4758, "count": 10, "date": "2025-11-18", "n_files": 40, "pct": 25.0 }, "geometry": { "type": "Polygon", "coordinates": [ [ [ -72.5926969, 46.223118199999988 ], [ -72.5915609, 46.2490759 ], [ -72.6234039, 46.2627334 ], [ -72.65637, 46.2504235 ], [ -72.6574755, 46.2244646 ], [ -72.6256454, 46.2108168 ], [ -72.5926969, 46.223118199999988 ] ] ] } },
{ "type": "Feature", "properties": { "hex_id": 4759, "count": 11, "date": "2025-11-18", "n_files": 40, "pct": 27.5 }, "geometry": { "type": "Polygon", "coordinates": [ [ [ -72.5892842, 46.3009909 ], [ -72.5881435, 46.3269482 ], [ -72.6200301, 46.3406073 ], [ -72.6530444, 46.3282995 ], [ -72.6541545, 46.302341 ], [ -72.6222809, 46.2886915 ], [ -72.5892842, 46.3009909 ] ] ] } },
{ "type": "Feature", "properties": { "hex_id": 4761, "count": 4, "date": "2025-11-18", "n_files": 40, "pct": 10.0 }, "geometry": { "type": "Polygon", "coordinates": [ [ [ -72.5824163, 46.4567325 ], [ -72.5812661, 46.482689 ], [ -72.6132403, 46.4963514 ], [ -72.6463516, 46.4840476 ], [ -72.6474709, 46.4580899 ], [ -72.6155098, 46.4444372 ], [ -72.5824163, 46.4567325 ] ] ] } },
{ "type": "Feature", "properties": { "hex_id": 4809, "count": 12, "date": "2025-11-18", "n_files": 40, "pct": 30.0 }, "geometry": { "type": "Polygon", "coordinates": [ [ [ -72.6056333, 45.1710516 ], [ -72.6045441, 45.1970143 ], [ -72.6358079, 45.2106589 ], [ -72.6681486, 45.1983314 ], [ -72.669209, 45.1723675 ], [ -72.6379574, 45.1587322 ], [ -72.6056333, 45.1710516 ] ] ] } },
{ "type": "Feature", "properties": { "hex_id": 4872, "count": 12, "date": "2025-11-18", "n_files": 40, "pct": 30.0 }, "geometry": { "type": "Polygon", "coordinates": [ [ [ -72.5754998, 45.1314369 ], [ -72.5743984, 45.1573993 ], [ -72.6056333, 45.1710516 ], [ -72.6379574, 45.1587322 ], [ -72.63903, 45.1327687 ], [ -72.6078073, 45.1191257 ], [ -72.5754998, 45.1314369 ] ] ] } },
{ "type": "Feature", "properties": { "hex_id": 4873, "count": 12, "date": "2025-11-18", "n_files": 40, "pct": 30.0 }, "geometry": { "type": "Polygon", "coordinates": [ [ [ -72.5721912, 45.209323499999989 ], [ -72.5710853, 45.235285499999989 ], [ -72.6023613, 45.2489394 ], [ -72.6347309, 45.236622 ], [ -72.6358079, 45.2106589 ], [ -72.6045441, 45.1970143 ], [ -72.5721912, 45.209323499999989 ] ] ] } },
{ "type": "Feature", "properties": { "hex_id": 4886, "count": 10, "date": "2025-11-18", "n_files": 40, "pct": 25.0 }, "geometry": { "type": "Polygon", "coordinates": [ [ [ -72.527923, 46.221735099999989 ], [ -72.5267565, 46.2476916 ], [ -72.5585819, 46.2613668 ], [ -72.5915609, 46.2490759 ], [ -72.5926969, 46.223118199999988 ], [ -72.5608844, 46.2094527 ], [ -72.527923, 46.221735099999989 ] ] ] } },
{ "type": "Feature", "properties": { "hex_id": 4936, "count": 36, "date": "2025-11-18", "n_files": 40, "pct": 90.0 }, "geometry": { "type": "Polygon", "coordinates": [ [ [ -72.5454072, 45.0918149 ], [ -72.5442937, 45.1177769 ], [ -72.5754998, 45.1314369 ], [ -72.6078073, 45.1191257 ], [ -72.6088921, 45.0931625 ], [ -72.5776981, 45.0795118 ], [ -72.5454072, 45.0918149 ] ] ] } },
{ "type": "Feature", "properties": { "hex_id": 4937, "count": 12, "date": "2025-11-18", "n_files": 40, "pct": 30.0 }, "geometry": { "type": "Polygon", "coordinates": [ [ [ -72.5420621, 45.1697003 ], [ -72.5409441, 45.1956619 ], [ -72.5721912, 45.209323499999989 ], [ -72.6045441, 45.1970143 ], [ -72.6056333, 45.1710516 ], [ -72.5743984, 45.1573993 ], [ -72.5420621, 45.1697003 ] ] ] } },
{ "type": "Feature", "properties": { "hex_id": 4999, "count": 36, "date": "2025-11-18", "n_files": 40, "pct": 90.0 }, "geometry": { "type": "Polygon", "coordinates": [ [ [ -72.5153554, 45.0521856 ], [ -72.5142298, 45.0781472 ], [ -72.5454072, 45.0918149 ], [ -72.5776981, 45.0795118 ], [ -72.578795, 45.053549 ], [ -72.5476297, 45.0398906 ], [ -72.5153554, 45.0521856 ] ] ] } },
{ "type": "Feature", "properties": { "hex_id": 5074, "count": 15, "date": "2025-11-18", "n_files": 40, "pct": 37.5 }, "geometry": { "type": "Polygon", "coordinates": [ [ [ -72.446974, 45.8691917 ], [ -72.4457841, 45.8951481 ], [ -72.47739, 45.9088421 ], [ -72.5101733, 45.8965701 ], [ -72.5113333, 45.8706124 ], [ -72.47974, 45.856928 ], [ -72.446974, 45.8691917 ] ] ] } },
{ "type": "Feature", "properties": { "hex_id": 5320, "count": 12, "date": "2025-11-18", "n_files": 40, "pct": 30.0 }, "geometry": { "type": "Polygon", "coordinates": [ [ [ -72.3549802, 45.0875606 ], [ -72.3537806, 45.1135187 ], [ -72.3849365, 45.1272298 ], [ -72.4172802, 45.1149734 ], [ -72.4184512, 45.089014 ], [ -72.3873072, 45.0753123 ], [ -72.3549802, 45.0875606 ] ] ] } },
{ "type": "Feature", "properties": { "hex_id": 5383, "count": 12, "date": "2025-11-18", "n_files": 40, "pct": 30.0 }, "geometry": { "type": "Polygon", "coordinates": [ [ [ -72.3250645, 45.0478843 ], [ -72.323853, 45.073842 ], [ -72.3549802, 45.0875606 ], [ -72.3873072, 45.0753123 ], [ -72.38849, 45.0493533 ], [ -72.3573747, 45.035644 ], [ -72.3250645, 45.0478843 ] ] ] } },
{ "type": "Feature", "properties": { "hex_id": 5400, "count": 5, "date": "2025-11-18", "n_files": 40, "pct": 12.5 }, "geometry": { "type": "Polygon", "coordinates": [ [ [ -72.2611196, 46.3715409 ], [ -72.2598205, 46.3974911 ], [ -72.2916614, 46.4112409 ], [ -72.3247886, 46.3990305 ], [ -72.3260569, 46.3730789 ], [ -72.2942288, 46.3593389 ], [ -72.2611196, 46.3715409 ] ] ] } },
{ "type": "Feature", "properties": { "hex_id": 5448, "count": 12, "date": "2025-11-18", "n_files": 40, "pct": 30.0 }, "geometry": { "type": "Polygon", "coordinates": [ [ [ -72.2915142, 45.0860721 ], [ -72.2902858, 45.1120288 ], [ -72.321425, 45.1257569 ], [ -72.3537806, 45.1135187 ], [ -72.3549802, 45.0875606 ], [ -72.323853, 45.073842 ], [ -72.2915142, 45.0860721 ] ] ] } },
{ "type": "Feature", "properties": { "hex_id": 5512, "count": 18, "date": "2025-11-18", "n_files": 40, "pct": 45.0 }, "geometry": { "type": "Polygon", "coordinates": [ [ [ -72.2579184, 45.1242487 ], [ -72.2566731, 45.1502045 ], [ -72.2878241, 45.163942 ], [ -72.3202085, 45.1517141 ], [ -72.321425, 45.1257569 ], [ -72.2902858, 45.1120288 ], [ -72.2579184, 45.1242487 ] ] ] } },
{ "type": "Feature", "properties": { "hex_id": 5516, "count": 4, "date": "2025-11-18", "n_files": 40, "pct": 10.0 }, "geometry": { "type": "Polygon", "coordinates": [ [ [ -72.2428632, 45.4357096 ], [ -72.2415974, 45.4616638 ], [ -72.2729123, 45.4754086 ], [ -72.3054809, 45.4631897 ], [ -72.3067174, 45.4372342 ], [ -72.2754146, 45.4234989 ], [ -72.2428632, 45.4357096 ] ] ] } },
{ "type": "Feature", "properties": { "hex_id": 5552, "count": 7, "date": "2025-11-18", "n_files": 40, "pct": 17.5 }, "geometry": { "type": "Polygon", "coordinates": [ [ [ -72.0955562, 48.2379023 ], [ -72.0940857, 48.2638404 ], [ -72.1270018, 48.2776557 ], [ -72.1613745, 48.2655225 ], [ -72.162811, 48.2395829 ], [ -72.1299088, 48.225778 ], [ -72.0955562, 48.2379023 ] ] ] } },
{ "type": "Feature", "properties": { "hex_id": 5581, "count": 4, "date": "2025-11-18", "n_files": 40, "pct": 10.0 }, "geometry": { "type": "Polygon", "coordinates": [ [ [ -72.2090168, 45.473864 ], [ -72.2077338, 45.4998173 ], [ -72.2390608, 45.5135716 ], [ -72.2716587, 45.5013632 ], [ -72.2729123, 45.4754086 ], [ -72.2415974, 45.4616638 ], [ -72.2090168, 45.473864 ] ] ] } },
{ "type": "Feature", "properties": { "hex_id": 5711, "count": 13, "date": "2025-11-18", "n_files": 40, "pct": 32.5 }, "geometry": { "type": "Polygon", "coordinates": [ [ [ -72.1372261, 45.6279924 ], [ -72.1359031, 45.6539433 ], [ -72.1672957, 45.6677186 ], [ -72.1999992, 45.6555335 ], [ -72.2012927, 45.6295811 ], [ -72.1699122, 45.6158154 ], [ -72.1372261, 45.6279924 ] ] ] } },
{ "type": "Feature", "properties": { "hex_id": 5848, "count": 13, "date": "2025-11-18", "n_files": 40, "pct": 32.5 }, "geometry": { "type": "Polygon", "coordinates": [ [ [ -72.0359883, 46.3269499 ], [ -72.0345847, 46.3528953 ], [ -72.0663404, 46.3667059 ], [ -72.0994873, 46.354561399999987 ], [ -72.1008603, 46.3286145 ], [ -72.069117, 46.3148137 ], [ -72.0359883, 46.3269499 ] ] ] } },
{ "type": "Feature", "properties": { "hex_id": 5976, "count": 13, "date": "2025-11-18", "n_files": 40, "pct": 32.5 }, "geometry": { "type": "Polygon", "coordinates": [ [ [ -71.971122, 46.3252485 ], [ -71.9696878, 46.3511924 ], [ -72.0014254, 46.3650207 ], [ -72.0345847, 46.3528953 ], [ -72.0359883, 46.3269499 ], [ -72.0042631, 46.3131314 ], [ -71.971122, 46.3252485 ] ] ] } },
{ "type": "Feature", "properties": { "hex_id": 6172, "count": 3, "date": "2025-11-18", "n_files": 40, "pct": 7.5 }, "geometry": { "type": "Polygon", "coordinates": [ [ [ -71.8536795, 46.6728246 ], [ -71.8521716, 46.6987639 ], [ -71.8840764, 46.7126284 ], [ -71.9174766, 46.7005435 ], [ -71.918953300000013, 46.6746025 ], [ -71.8870611, 46.660748 ], [ -71.8536795, 46.6728246 ] ] ] } },
{ "type": "Feature", "properties": { "hex_id": 6300, "count": 3, "date": "2025-11-18", "n_files": 40, "pct": 7.5 }, "geometry": { "type": "Polygon", "coordinates": [ [ [ -71.788412, 46.671009399999988 ], [ -71.7868729, 46.6969472 ], [ -71.8187589, 46.7108294 ], [ -71.8521716, 46.6987639 ], [ -71.8536795, 46.6728246 ], [ -71.8218059, 46.6589523 ], [ -71.788412, 46.671009399999988 ] ] ] } },
{ "type": "Feature", "properties": { "hex_id": 6999, "count": 1, "date": "2025-11-18", "n_files": 40, "pct": 2.5 }, "geometry": { "type": "Polygon", "coordinates": [ [ [ -71.4574381, 46.2325233 ], [ -71.4557664, 46.2584542 ], [ -71.4873136, 46.2724204 ], [ -71.520520800000014, 46.2604457 ], [ -71.5221621, 46.234513 ], [ -71.4906267, 46.2205568 ], [ -71.4574381, 46.2325233 ] ] ] } },
{ "type": "Feature", "properties": { "hex_id": 7062, "count": 1, "date": "2025-11-18", "n_files": 40, "pct": 2.5 }, "geometry": { "type": "Polygon", "coordinates": [ [ [ -71.4276047, 46.1926195 ], [ -71.4259212, 46.2185497 ], [ -71.4574381, 46.2325233 ], [ -71.4906267, 46.2205568 ], [ -71.4922798, 46.1946248 ], [ -71.4607746, 46.1806611 ], [ -71.4276047, 46.1926195 ] ] ] } },
{ "type": "Feature", "properties": { "hex_id": 7199, "count": 6, "date": "2025-11-18", "n_files": 40, "pct": 15.0 }, "geometry": { "type": "Polygon", "coordinates": [ [ [ -71.315826, 46.8905853 ], [ -71.3140472, 46.9165092 ], [ -71.3459302, 46.9305231 ], [ -71.3795799, 46.9186031 ], [ -71.3813273, 46.8926774 ], [ -71.3494564, 46.8786736 ], [ -71.315826, 46.8905853 ] ] ] } },
{ "type": "Feature", "properties": { "hex_id": 7211, "count": 7, "date": "2025-11-18", "n_files": 40, "pct": 17.5 }, "geometry": { "type": "Polygon", "coordinates": [ [ [ -71.250200100000015, 47.8237361 ], [ -71.2483295, 47.8496538 ], [ -71.2807479, 47.8636994 ], [ -71.3150242, 47.851816799999987 ], [ -71.3168617, 47.8258972 ], [ -71.2844559, 47.8118621 ], [ -71.250200100000015, 47.8237361 ] ] ] } },
{ "type": "Feature", "properties": { "hex_id": 7263, "count": 6, "date": "2025-11-18", "n_files": 40, "pct": 15.0 }, "geometry": { "type": "Polygon", "coordinates": [ [ [ -71.2857653, 46.8506406 ], [ -71.2839745, 46.8765638 ], [ -71.315826, 46.8905853 ], [ -71.3494564, 46.8786736 ], [ -71.3512159, 46.8527485 ], [ -71.3193763, 46.8387371 ], [ -71.2857653, 46.8506406 ] ] ] } },
{ "type": "Feature", "properties": { "hex_id": 7275, "count": 7, "date": "2025-11-18", "n_files": 40, "pct": 17.5 }, "geometry": { "type": "Polygon", "coordinates": [ [ [ -71.2196978, 47.7837657 ], [ -71.2178147, 47.8096827 ], [ -71.250200100000015, 47.8237361 ], [ -71.2844559, 47.8118621 ], [ -71.2863061, 47.7859432 ], [ -71.2539333, 47.7719002 ], [ -71.2196978, 47.7837657 ] ] ] } },
{ "type": "Feature", "properties": { "hex_id": 7276, "count": 7, "date": "2025-11-18", "n_files": 40, "pct": 17.5 }, "geometry": { "type": "Polygon", "coordinates": [ [ [ -71.2140406, 47.8615161 ], [ -71.2121495, 47.8874325 ], [ -71.2445805, 47.9014886 ], [ -71.27889, 47.8896178 ], [ -71.2807479, 47.8636994 ], [ -71.2483295, 47.8496538 ], [ -71.2140406, 47.8615161 ] ] ] } },
{ "type": "Feature", "properties": { "hex_id": 7338, "count": 7, "date": "2025-11-18", "n_files": 40, "pct": 17.5 }, "geometry": { "type": "Polygon", "coordinates": [ [ [ -71.189241100000018, 47.7437883 ], [ -71.1873455, 47.7697045 ], [ -71.2196978, 47.7837657 ], [ -71.2539333, 47.7719002 ], [ -71.255796, 47.745982 ], [ -71.2234561, 47.7319313 ], [ -71.189241100000018, 47.7437883 ] ] ] } },
{ "type": "Feature", "properties": { "hex_id": 7339, "count": 7, "date": "2025-11-18", "n_files": 40, "pct": 17.5 }, "geometry": { "type": "Polygon", "coordinates": [ [ [ -71.1835463, 47.8215364 ], [ -71.1816427, 47.8474521 ], [ -71.2140406, 47.8615161 ], [ -71.2483295, 47.8496538 ], [ -71.250200100000015, 47.8237361 ], [ -71.2178147, 47.8096827 ], [ -71.1835463, 47.8215364 ] ] ] } },
{ "type": "Feature", "properties": { "hex_id": 7403, "count": 7, "date": "2025-11-18", "n_files": 40, "pct": 17.5 }, "geometry": { "type": "Polygon", "coordinates": [ [ [ -71.1530976, 47.7815497 ], [ -71.1511815, 47.8074647 ], [ -71.1835463, 47.8215364 ], [ -71.2178147, 47.8096827 ], [ -71.2196978, 47.7837657 ], [ -71.1873455, 47.7697045 ], [ -71.1530976, 47.7815497 ] ] ] } },
{ "type": "Feature", "properties": { "hex_id": 7898, "count": 14, "date": "2025-11-18", "n_files": 40, "pct": 35.0 }, "geometry": { "type": "Polygon", "coordinates": [ [ [ -70.9875193, 46.4508226 ], [ -70.9856117, 46.4767384 ], [ -71.0171527, 46.4908342 ], [ -71.0505898, 46.4790042 ], [ -71.0524667, 46.453086299999988 ], [ -71.0209372, 46.4390005 ], [ -70.9875193, 46.4508226 ] ] ] } },
{ "type": "Feature", "properties": { "hex_id": 7961, "count": 1, "date": "2025-11-18", "n_files": 40, "pct": 2.5 }, "geometry": { "type": "Polygon", "coordinates": [ [ [ -70.957928, 46.410804399999989 ], [ -70.956009, 46.4367194 ], [ -70.9875193, 46.4508226 ], [ -71.0209372, 46.4390005 ], [ -71.0228255, 46.4130834 ], [ -70.9913266, 46.3989904 ], [ -70.957928, 46.410804399999989 ] ] ] } },
{ "type": "Feature", "properties": { "hex_id": 7962, "count": 1, "date": "2025-11-18", "n_files": 40, "pct": 2.5 }, "geometry": { "type": "Polygon", "coordinates": [ [ [ -70.9521632, 46.488549 ], [ -70.9502363, 46.5144636 ], [ -70.9817886, 46.5285695 ], [ -71.0152565, 46.5167508 ], [ -71.0171527, 46.4908342 ], [ -70.9856117, 46.4767384 ], [ -70.9521632, 46.488549 ] ] ] } },
{ "type": "Feature", "properties": { "hex_id": 7982, "count": 3, "date": "2025-11-18", "n_files": 40, "pct": 7.5 }, "geometry": { "type": "Polygon", "coordinates": [ [ [ -70.8316774, 48.0430993 ], [ -70.8295824, 48.0690028 ], [ -70.8620131, 48.0831671 ], [ -70.8965266, 48.0714172 ], [ -70.8985882, 48.045511499999989 ], [ -70.8661698, 48.0313578 ], [ -70.8316774, 48.0430993 ] ] ] } },
{ "type": "Feature", "properties": { "hex_id": 8026, "count": 1, "date": "2025-11-18", "n_files": 40, "pct": 2.5 }, "geometry": { "type": "Polygon", "coordinates": [ [ [ -70.9225798, 46.448522 ], [ -70.9206415, 46.4744358 ], [ -70.9521632, 46.488549 ], [ -70.9856117, 46.4767384 ], [ -70.9875193, 46.4508226 ], [ -70.956009, 46.4367194 ], [ -70.9225798, 46.448522 ] ] ] } },
{ "type": "Feature", "properties": { "hex_id": 8046, "count": 3, "date": "2025-11-18", "n_files": 40, "pct": 7.5 }, "geometry": { "type": "Polygon", "coordinates": [ [ [ -70.8013873, 48.0030246 ], [ -70.7992801, 48.0289273 ], [ -70.8316774, 48.0430993 ], [ -70.8661698, 48.0313578 ], [ -70.8682437, 48.0054529 ], [ -70.8358586, 47.9912916 ], [ -70.8013873, 48.0030246 ] ] ] } },
{ "type": "Feature", "properties": { "hex_id": 8047, "count": 3, "date": "2025-11-18", "n_files": 40, "pct": 7.5 }, "geometry": { "type": "Polygon", "coordinates": [ [ [ -70.7950566, 48.0807322 ], [ -70.7929405, 48.1066344 ], [ -70.8253835, 48.1208094 ], [ -70.8599304, 48.1090715 ], [ -70.8620131, 48.0831671 ], [ -70.8295824, 48.0690028 ], [ -70.7950566, 48.0807322 ] ] ] } },
{ "type": "Feature", "properties": { "hex_id": 8089, "count": 1, "date": "2025-11-18", "n_files": 40, "pct": 2.5 }, "geometry": { "type": "Polygon", "coordinates": [ [ [ -70.8930384, 46.4084886 ], [ -70.8910888, 46.4344016 ], [ -70.9225798, 46.448522 ], [ -70.956009, 46.4367194 ], [ -70.957928, 46.410804399999989 ], [ -70.9264483, 46.396694 ], [ -70.8930384, 46.4084886 ] ] ] } },
{ "type": "Feature", "properties": { "hex_id": 8090, "count": 1, "date": "2025-11-18", "n_files": 40, "pct": 2.5 }, "geometry": { "type": "Polygon", "coordinates": [ [ [ -70.8871817, 46.486227 ], [ -70.885224, 46.5121394 ], [ -70.916757, 46.5262628 ], [ -70.9502363, 46.5144636 ], [ -70.9521632, 46.488549 ], [ -70.9206415, 46.4744358 ], [ -70.8871817, 46.486227 ] ] ] } },
{ "type": "Feature", "properties": { "hex_id": 8109, "count": 3, "date": "2025-11-18", "n_files": 40, "pct": 7.5 }, "geometry": { "type": "Polygon", "coordinates": [ [ [ -70.7711427, 47.9629431 ], [ -70.7690233, 47.988845 ], [ -70.8013873, 48.0030246 ], [ -70.8358586, 47.9912916 ], [ -70.8379448, 47.9653875 ], [ -70.805593, 47.9512185 ], [ -70.7711427, 47.9629431 ] ] ] } },
{ "type": "Feature", "properties": { "hex_id": 8110, "count": 3, "date": "2025-11-18", "n_files": 40, "pct": 7.5 }, "geometry": { "type": "Polygon", "coordinates": [ [ [ -70.7647755, 48.0406482 ], [ -70.7626471, 48.0665496 ], [ -70.7950566, 48.0807322 ], [ -70.8295824, 48.0690028 ], [ -70.8316774, 48.0430993 ], [ -70.7992801, 48.0289273 ], [ -70.7647755, 48.0406482 ] ] ] } },
{ "type": "Feature", "properties": { "hex_id": 8154, "count": 1, "date": "2025-11-18", "n_files": 40, "pct": 2.5 }, "geometry": { "type": "Polygon", "coordinates": [ [ [ -70.8576483, 46.4461847 ], [ -70.8556794, 46.4720964 ], [ -70.8871817, 46.486227 ], [ -70.9206415, 46.4744358 ], [ -70.9225798, 46.448522 ], [ -70.8910888, 46.4344016 ], [ -70.8576483, 46.4461847 ] ] ] } },
{ "type": "Feature", "properties": { "hex_id": 8155, "count": 1, "date": "2025-11-18", "n_files": 40, "pct": 2.5 }, "geometry": { "type": "Polygon", "coordinates": [ [ [ -70.8517334, 46.5239192 ], [ -70.84975630000001, 46.5498303 ], [ -70.8813006, 46.5639638 ], [ -70.9148107, 46.552176 ], [ -70.916757, 46.5262628 ], [ -70.885224, 46.5121394 ], [ -70.8517334, 46.5239192 ] ] ] } },
{ "type": "Feature", "properties": { "hex_id": 8174, "count": 3, "date": "2025-11-18", "n_files": 40, "pct": 7.5 }, "geometry": { "type": "Polygon", "coordinates": [ [ [ -70.7345399, 48.0005574 ], [ -70.7323993, 48.0264579 ], [ -70.7647755, 48.0406482 ], [ -70.7992801, 48.0289273 ], [ -70.8013873, 48.0030246 ], [ -70.7690233, 47.988845 ], [ -70.7345399, 48.0005574 ] ] ] } },
{ "type": "Feature", "properties": { "hex_id": 8218, "count": 1, "date": "2025-11-18", "n_files": 40, "pct": 2.5 }, "geometry": { "type": "Polygon", "coordinates": [ [ [ -70.8222082, 46.4838681 ], [ -70.8202199, 46.5097784 ], [ -70.8517334, 46.5239192 ], [ -70.885224, 46.5121394 ], [ -70.8871817, 46.486227 ], [ -70.8556794, 46.4720964 ], [ -70.8222082, 46.4838681 ] ] ] } },
{ "type": "Feature", "properties": { "hex_id": 8283, "count": 1, "date": "2025-11-18", "n_files": 40, "pct": 2.5 }, "geometry": { "type": "Polygon", "coordinates": [ [ [ -70.786718, 46.5215387 ], [ -70.7847102, 46.5474476 ], [ -70.816235, 46.5615985 ], [ -70.84975630000001, 46.5498303 ], [ -70.8517334, 46.5239192 ], [ -70.8202199, 46.5097784 ], [ -70.786718, 46.5215387 ] ] ] } },
{ "type": "Feature", "properties": { "hex_id": 8286, "count": 3, "date": "2025-11-18", "n_files": 40, "pct": 7.5 }, "geometry": { "type": "Polygon", "coordinates": [ [ [ -70.7685472, 46.7547127 ], [ -70.7665142, 46.78062 ], [ -70.7981659, 46.7947798 ], [ -70.8318392, 46.783022 ], [ -70.833841, 46.7571126 ], [ -70.8022007, 46.742963 ], [ -70.7685472, 46.7547127 ] ] ] } },
{ "type": "Feature", "properties": { "hex_id": 8349, "count": 3, "date": "2025-11-18", "n_files": 40, "pct": 7.5 }, "geometry": { "type": "Polygon", "coordinates": [ [ [ -70.738971, 46.7146392 ], [ -70.7369267, 46.7405457 ], [ -70.7685472, 46.7547127 ], [ -70.8022007, 46.742963 ], [ -70.8042139, 46.7170544 ], [ -70.7726047, 46.7028976 ], [ -70.738971, 46.7146392 ] ] ] } },
{ "type": "Feature", "properties": { "hex_id": 8414, "count": 3, "date": "2025-11-18", "n_files": 40, "pct": 7.5 }, "geometry": { "type": "Polygon", "coordinates": [ [ [ -70.7032618, 46.7522757 ], [ -70.7011977, 46.7781808 ], [ -70.7328296, 46.7923581 ], [ -70.7665142, 46.78062 ], [ -70.7685472, 46.7547127 ], [ -70.7369267, 46.7405457 ], [ -70.7032618, 46.7522757 ] ] ] } },
{ "type": "Feature", "properties": { "hex_id": 8597, "count": 1, "date": "2025-11-18", "n_files": 40, "pct": 2.5 }, "geometry": { "type": "Polygon", "coordinates": [ [ [ -70.6582024, 46.0879917 ], [ -70.6561645, 46.113898299999988 ], [ -70.6874127, 46.1280758 ], [ -70.7206879, 46.1163367 ], [ -70.7226958, 46.0904279 ], [ -70.6914585, 46.0762605 ], [ -70.6582024, 46.0879917 ] ] ] } },
{ "type": "Feature", "properties": { "hex_id": 8662, "count": 1, "date": "2025-11-18", "n_files": 40, "pct": 2.5 }, "geometry": { "type": "Polygon", "coordinates": [ [ [ -70.6228784, 46.1256182 ], [ -70.6208212, 46.151523399999988 ], [ -70.6520803, 46.1657109 ], [ -70.6853856, 46.1539832 ], [ -70.6874127, 46.1280758 ], [ -70.6561645, 46.113898299999988 ], [ -70.6228784, 46.1256182 ] ] ] } },
{ "type": "Feature", "properties": { "hex_id": 9049, "count": 13, "date": "2025-11-18", "n_files": 40, "pct": 32.5 }, "geometry": { "type": "Polygon", "coordinates": [ [ [ -70.4098939, 46.3511056 ], [ -70.4077199, 46.3770022 ], [ -70.4390437, 46.3912505 ], [ -70.4725308, 46.379592 ], [ -70.4746744, 46.353693 ], [ -70.4433614, 46.3394549 ], [ -70.4098939, 46.3511056 ] ] ] } },
{ "type": "Feature", "properties": { "hex_id": 9113, "count": 13, "date": "2025-11-18", "n_files": 40, "pct": 32.5 }, "geometry": { "type": "Polygon", "coordinates": [ [ [ -70.374222, 46.3886412 ], [ -70.3720282, 46.4145364 ], [ -70.4033627, 46.4287948 ], [ -70.4368803, 46.4171479 ], [ -70.4390437, 46.3912505 ], [ -70.4077199, 46.3770022 ], [ -70.374222, 46.3886412 ] ] ] } },
{ "type": "Feature", "properties": { "hex_id": 10675, "count": 10, "date": "2025-11-18", "n_files": 40, "pct": 25.0 }, "geometry": { "type": "Polygon", "coordinates": [ [ [ -69.3865095, 48.3712065 ], [ -69.3836575, 48.3970527 ], [ -69.4158517, 48.4116174 ], [ -69.450887, 48.400325 ], [ -69.4537053, 48.3744759 ], [ -69.421522, 48.3599222 ], [ -69.3865095, 48.3712065 ] ] ] } },
{ "type": "Feature", "properties": { "hex_id": 10739, "count": 10, "date": "2025-11-18", "n_files": 40, "pct": 25.0 }, "geometry": { "type": "Polygon", "coordinates": [ [ [ -69.357211800000016, 48.3307898 ], [ -69.3543491, 48.3566348 ], [ -69.3865095, 48.3712065 ], [ -69.421522, 48.3599222 ], [ -69.4243511, 48.3340743 ], [ -69.3922014, 48.3195136 ], [ -69.357211800000016, 48.3307898 ] ] ] } },
{ "type": "Feature", "properties": { "hex_id": 10740, "count": 10, "date": "2025-11-18", "n_files": 40, "pct": 25.0 }, "geometry": { "type": "Polygon", "coordinates": [ [ [ -69.3486114, 48.408324 ], [ -69.3457365, 48.4341683 ], [ -69.3779414, 48.4487442 ], [ -69.4130105, 48.4374647 ], [ -69.4158517, 48.4116174 ], [ -69.3836575, 48.3970527 ], [ -69.3486114, 48.408324 ] ] ] } },
{ "type": "Feature", "properties": { "hex_id": 10803, "count": 10, "date": "2025-11-18", "n_files": 40, "pct": 25.0 }, "geometry": { "type": "Polygon", "coordinates": [ [ [ -69.3193258, 48.3678981 ], [ -69.3164402, 48.3937412 ], [ -69.3486114, 48.408324 ], [ -69.3836575, 48.3970527 ], [ -69.3865095, 48.3712065 ], [ -69.3543491, 48.3566348 ], [ -69.3193258, 48.3678981 ] ] ] } },
{ "type": "Feature", "properties": { "hex_id": 10868, "count": 10, "date": "2025-11-18", "n_files": 40, "pct": 25.0 }, "geometry": { "type": "Polygon", "coordinates": [ [ [ -69.2813833, 48.4049915 ], [ -69.2784746, 48.4308328 ], [ -69.3106566, 48.4454267 ], [ -69.3457365, 48.4341683 ], [ -69.3486114, 48.408324 ], [ -69.3164402, 48.3937412 ], [ -69.2813833, 48.4049915 ] ] ] } },
{ "type": "Feature", "properties": { "hex_id": 11184, "count": 5, "date": "2025-11-18", "n_files": 40, "pct": 12.5 }, "geometry": { "type": "Polygon", "coordinates": [ [ [ -69.1445395, 48.1252212 ], [ -69.1415905, 48.1510574 ], [ -69.1735609, 48.1656816 ], [ -69.2084698, 48.1544584 ], [ -69.2113856, 48.1286191 ], [ -69.1794256, 48.114006 ], [ -69.1445395, 48.1252212 ] ] ] } },
{ "type": "Feature", "properties": { "hex_id": 11248, "count": 5, "date": "2025-11-18", "n_files": 40, "pct": 12.5 }, "geometry": { "type": "Polygon", "coordinates": [ [ [ -69.1155616, 48.0847552 ], [ -69.1126023, 48.1105902 ], [ -69.1445395, 48.1252212 ], [ -69.1794256, 48.114006 ], [ -69.1823518, 48.0881678 ], [ -69.1504249, 48.0735479 ], [ -69.1155616, 48.0847552 ] ] ] } },
{ "type": "Feature", "properties": { "hex_id": 11249, "count": 5, "date": "2025-11-18", "n_files": 40, "pct": 12.5 }, "geometry": { "type": "Polygon", "coordinates": [ [ [ -69.1066712, 48.1622597 ], [ -69.1036994, 48.188094 ], [ -69.1356801, 48.2027292 ], [ -69.1706223, 48.191519 ], [ -69.1735609, 48.1656816 ], [ -69.1415905, 48.1510574 ], [ -69.1066712, 48.1622597 ] ] ] } },
{ "type": "Feature", "properties": { "hex_id": 11312, "count": 5, "date": "2025-11-18", "n_files": 40, "pct": 12.5 }, "geometry": { "type": "Polygon", "coordinates": [ [ [ -69.0777058, 48.1217846 ], [ -69.0747237, 48.1476177 ], [ -69.1066712, 48.1622597 ], [ -69.1415905, 48.1510574 ], [ -69.1445395, 48.1252212 ], [ -69.1126023, 48.1105902 ], [ -69.0777058, 48.1217846 ] ] ] } },
{ "type": "Feature", "properties": { "hex_id": 11313, "count": 5, "date": "2025-11-18", "n_files": 40, "pct": 12.5 }, "geometry": { "type": "Polygon", "coordinates": [ [ [ -69.0687468, 48.1992833 ], [ -69.0657521, 48.2251156 ], [ -69.0977432, 48.2397619 ], [ -69.1327187, 48.2285647 ], [ -69.1356801, 48.2027292 ], [ -69.1036994, 48.188094 ], [ -69.0687468, 48.1992833 ] ] ] } },
{ "type": "Feature", "properties": { "hex_id": 11377, "count": 17, "date": "2025-11-18", "n_files": 40, "pct": 42.5 }, "geometry": { "type": "Polygon", "coordinates": [ [ [ -69.0397941, 48.158799 ], [ -69.036789, 48.1846302 ], [ -69.0687468, 48.1992833 ], [ -69.1036994, 48.188094 ], [ -69.1066712, 48.1622597 ], [ -69.0747237, 48.1476177 ], [ -69.0397941, 48.158799 ] ] ] } },
{ "type": "Feature", "properties": { "hex_id": 11440, "count": 17, "date": "2025-11-18", "n_files": 40, "pct": 42.5 }, "geometry": { "type": "Polygon", "coordinates": [ [ [ -69.0108848, 48.1183093 ], [ -69.007869500000012, 48.1441393 ], [ -69.0397941, 48.158799 ], [ -69.0747237, 48.1476177 ], [ -69.0777058, 48.1217846 ], [ -69.0457915, 48.1071359 ], [ -69.0108848, 48.1183093 ] ] ] } },
{ "type": "Feature", "properties": { "hex_id": 11441, "count": 5, "date": "2025-11-18", "n_files": 40, "pct": 12.5 }, "geometry": { "type": "Polygon", "coordinates": [ [ [ -69.0018261, 48.1957986 ], [ -68.9987981, 48.2216278 ], [ -69.0307662, 48.2362919 ], [ -69.0657521, 48.2251156 ], [ -69.0687468, 48.1992833 ], [ -69.036789, 48.1846302 ], [ -69.0018261, 48.1957986 ] ] ] } },
{ "type": "Feature", "properties": { "hex_id": 11505, "count": 17, "date": "2025-11-18", "n_files": 40, "pct": 42.5 }, "geometry": { "type": "Polygon", "coordinates": [ [ [ -68.9729296, 48.1552997 ], [ -68.9698913, 48.1811278 ], [ -69.0018261, 48.1957986 ], [ -69.036789, 48.1846302 ], [ -69.0397941, 48.158799 ], [ -69.007869500000012, 48.1441393 ], [ -68.9729296, 48.1552997 ] ] ] } },
{ "type": "Feature", "properties": { "hex_id": 11506, "count": 5, "date": "2025-11-18", "n_files": 40, "pct": 12.5 }, "geometry": { "type": "Polygon", "coordinates": [ [ [ -68.963802, 48.2327831 ], [ -68.9607508, 48.2586103 ], [ -68.992729200000014, 48.2732855 ], [ -69.0277484, 48.2621223 ], [ -69.0307662, 48.2362919 ], [ -68.9987981, 48.2216278 ], [ -68.963802, 48.2327831 ] ] ] } },
{ "type": "Feature", "properties": { "hex_id": 11568, "count": 5, "date": "2025-11-18", "n_files": 40, "pct": 12.5 }, "geometry": { "type": "Polygon", "coordinates": [ [ [ -68.9440764, 48.1147953 ], [ -68.941028, 48.1406222 ], [ -68.9729296, 48.1552997 ], [ -69.007869500000012, 48.1441393 ], [ -69.0108848, 48.1183093 ], [ -68.9789933, 48.1036428 ], [ -68.9440764, 48.1147953 ] ] ] } },
{ "type": "Feature", "properties": { "hex_id": 11569, "count": 5, "date": "2025-11-18", "n_files": 40, "pct": 12.5 }, "geometry": { "type": "Polygon", "coordinates": [ [ [ -68.9349183, 48.192275099999989 ], [ -68.9318569, 48.2181012 ], [ -68.963802, 48.2327831 ], [ -68.9987981, 48.2216278 ], [ -69.0018261, 48.1957986 ], [ -68.9698913, 48.1811278 ], [ -68.9349183, 48.192275099999989 ] ] ] } },
{ "type": "Feature", "properties": { "hex_id": 11633, "count": 5, "date": "2025-11-18", "n_files": 40, "pct": 12.5 }, "geometry": { "type": "Polygon", "coordinates": [ [ [ -68.9060779, 48.1517617 ], [ -68.9030065, 48.1775865 ], [ -68.9349183, 48.192275099999989 ], [ -68.9698913, 48.1811278 ], [ -68.9729296, 48.1552997 ], [ -68.941028, 48.1406222 ], [ -68.9060779, 48.1517617 ] ] ] } },
{ "type": "Feature", "properties": { "hex_id": 11634, "count": 5, "date": "2025-11-18", "n_files": 40, "pct": 12.5 }, "geometry": { "type": "Polygon", "coordinates": [ [ [ -68.8968506, 48.2292355 ], [ -68.8937661, 48.2550595 ], [ -68.9257213, 48.269752499999989 ], [ -68.9607508, 48.2586103 ], [ -68.963802, 48.2327831 ], [ -68.9318569, 48.2181012 ], [ -68.8968506, 48.2292355 ] ] ] } },
{ "type": "Feature", "properties": { "hex_id": 11697, "count": 5, "date": "2025-11-18", "n_files": 40, "pct": 12.5 }, "geometry": { "type": "Polygon", "coordinates": [ [ [ -68.8680233, 48.1887129 ], [ -68.8649287, 48.2145358 ], [ -68.8968506, 48.2292355 ], [ -68.9318569, 48.2181012 ], [ -68.9349183, 48.192275099999989 ], [ -68.9030065, 48.1775865 ], [ -68.8680233, 48.1887129 ] ] ] } },
{ "type": "Feature", "properties": { "hex_id": 14902, "count": 7, "date": "2025-11-18", "n_files": 40, "pct": 17.5 }, "geometry": { "type": "Polygon", "coordinates": [ [ [ -67.140904, 48.4730604 ], [ -67.136903, 48.4987865 ], [ -67.1684338, 48.51395 ], [ -67.2039574, 48.503376 ], [ -67.2079252, 48.4776458 ], [ -67.1764026, 48.4624938 ], [ -67.140904, 48.4730604 ] ] ] } },
{ "type": "Feature", "properties": { "hex_id": 15030, "count": 7, "date": "2025-11-18", "n_files": 40, "pct": 17.5 }, "geometry": { "type": "Polygon", "coordinates": [ [ [ -67.0738998, 48.4684363 ], [ -67.0698655, 48.4941582 ], [ -67.1013712, 48.509339 ], [ -67.136903, 48.4987865 ], [ -67.140904, 48.4730604 ], [ -67.1094065, 48.4578911 ], [ -67.0738998, 48.4684363 ] ] ] } }
]
}
