{
"type": "FeatureCollection",
"name": "daily_2026-08-17",
"crs": { "type": "name", "properties": { "name": "urn:ogc:def:crs:OGC:1.3:CRS84" } },
"features": [
{ "type": "Feature", "properties": { "hex_id": 546447, "centroid_lon": -73.860960807296706, "centroid_lat": 45.548785732927826, "occurrences_today": 4, "datetimes_today": "2026-08-17 04:02:08, 2026-08-17 04:17:35, 2026-08-17 04:46:44, 2026-08-17 05:01:49", "cumulative_total": 88.0 }, "geometry": { "type": "Polygon", "coordinates": [ [ [ -73.861065748995202, 45.543589995475365 ], [ -73.867417116393852, 45.546251543630568 ], [ -73.867312750154227, 45.551447290090046 ], [ -73.860855836921488, 45.553981465444842 ], [ -73.85450392274555, 45.551319550532114 ], [ -73.854609468570004, 45.546123827086745 ], [ -73.861065748995202, 45.543589995475365 ] ] ] } },
{ "type": "Feature", "properties": { "hex_id": 590400, "centroid_lon": -73.40125248161192, "centroid_lat": 45.496504478151095, "occurrences_today": 5, "datetimes_today": "2026-08-17 04:02:08, 2026-08-17 04:17:35, 2026-08-17 04:46:44, 2026-08-17 05:01:49, 2026-08-17 05:32:03", "cumulative_total": 288.0 }, "geometry": { "type": "Polygon", "coordinates": [ [ [ -73.401399499563382, 45.491309690568251 ], [ -73.407722678130853, 45.49399645185354 ], [ -73.407576227837765, 45.499191252978349 ], [ -73.401105423518814, 45.501699260617507 ], [ -73.394781717441319, 45.499012128939611 ], [ -73.394929343179356, 45.493817360079575 ], [ -73.401399499563382, 45.491309690568251 ] ] ] } },
{ "type": "Feature", "properties": { "hex_id": 792666, "centroid_lon": -71.075284541432055, "centroid_lat": 48.409915928836661, "occurrences_today": 3, "datetimes_today": "2026-08-17 04:46:44, 2026-08-17 05:01:49, 2026-08-17 05:32:03", "cumulative_total": 135.0 }, "geometry": { "type": "Polygon", "coordinates": [ [ [ -71.075683868565832, 48.404733965961626 ], [ -71.082224569808503, 48.407555003920869 ], [ -71.081825867727702, 48.412737004849703 ], [ -71.074885101083709, 48.41509788454637 ], [ -71.068343888023094, 48.412276416225978 ], [ -71.068743953383461, 48.40709449864076 ], [ -71.075683868565832, 48.404733965961626 ] ] ] } },
{ "type": "Feature", "properties": { "hex_id": 544608, "centroid_lon": -73.882487840480138, "centroid_lat": 45.432069654746797, "occurrences_today": 5, "datetimes_today": "2026-08-17 04:02:08, 2026-08-17 04:17:35, 2026-08-17 04:46:44, 2026-08-17 05:01:49, 2026-08-17 05:32:03", "cumulative_total": 326.0 }, "geometry": { "type": "Polygon", "coordinates": [ [ [ -73.882590381150791, 45.426873772171788 ], [ -73.888929784344825, 45.429534062835351 ], [ -73.888827815891531, 45.43472995418086 ], [ -73.882385271827928, 45.437265532393624 ], [ -73.876045324402753, 45.434604876649693 ], [ -73.876148465262958, 45.429409007837727 ], [ -73.882590381150791, 45.426873772171788 ] ] ] } },
{ "type": "Feature", "properties": { "hex_id": 583682, "centroid_lon": -73.472674066122721, "centroid_lat": 45.458505573408402, "occurrences_today": 9, "datetimes_today": "2026-08-17 02:47:11, 2026-08-17 03:01:52, 2026-08-17 03:16:53, 2026-08-17 03:31:44, 2026-08-17 04:02:08, 2026-08-17 04:17:35, 2026-08-17 04:46:44, 2026-08-17 05:01:49, 2026-08-17 05:32:03", "cumulative_total": 281.0 }, "geometry": { "type": "Polygon", "coordinates": [ [ [ -73.472814331979293, 45.453310574152617 ], [ -73.479136805877772, 45.455993386920689 ], [ -73.478997107516818, 45.461188399004527 ], [ -73.472533761984266, 45.463700567580204 ], [ -73.466210758878475, 45.461017385560943 ], [ -73.466351630499702, 45.455822404281527 ], [ -73.472814331979293, 45.453310574152617 ] ] ] } },
{ "type": "Feature", "properties": { "hex_id": 584292, "centroid_lon": -73.466492463685569, "centroid_lat": 45.450627417915371, "occurrences_today": 9, "datetimes_today": "2026-08-17 02:47:11, 2026-08-17 03:01:52, 2026-08-17 03:16:53, 2026-08-17 03:31:44, 2026-08-17 04:02:08, 2026-08-17 04:17:35, 2026-08-17 04:46:44, 2026-08-17 05:01:49, 2026-08-17 05:32:03", "cumulative_total": 279.0 }, "geometry": { "type": "Polygon", "coordinates": [ [ [ -73.466633258448923, 45.445432426462553 ], [ -73.472954559566787, 45.44811556981292 ], [ -73.472814331979293, 45.453310574152617 ], [ -73.466351630499702, 45.455822404281527 ], [ -73.460029800634928, 45.453138891722588 ], [ -73.460171200983766, 45.447943918307637 ], [ -73.466633258448923, 45.445432426462553 ] ] ] } },
{ "type": "Feature", "properties": { "hex_id": 1118750, "centroid_lon": -67.310616973768973, "centroid_lat": 49.420363350845591, "occurrences_today": 3, "datetimes_today": "2026-08-17 04:46:44, 2026-08-17 05:01:49, 2026-08-17 05:32:03", "cumulative_total": 67.0 }, "geometry": { "type": "Polygon", "coordinates": [ [ [ -67.311425860711154, 49.415216855538695 ], [ -67.317853288794723, 49.41824691747847 ], [ -67.317044987636777, 49.423393488098412 ], [ -67.309807855384292, 49.425509831748393 ], [ -67.303380073001492, 49.422479297482134 ], [ -67.304189777085313, 49.417332891962289 ], [ -67.311425860711154, 49.415216855538695 ] ] ] } },
{ "type": "Feature", "properties": { "hex_id": 1119971, "centroid_lon": -67.296953107955517, "centroid_lat": 49.419448441649529, "occurrences_today": 3, "datetimes_today": "2026-08-17 04:46:44, 2026-08-17 05:01:49, 2026-08-17 05:32:03", "cumulative_total": 51.0 }, "geometry": { "type": "Polygon", "coordinates": [ [ [ -67.297763397500688, 49.414302111567338 ], [ -67.304189777085313, 49.417332891962289 ], [ -67.303380073001492, 49.422479297482134 ], [ -67.296142586577488, 49.424594757293583 ], [ -67.289715853407003, 49.421563504505933 ], [ -67.290526960161131, 49.416417264369436 ], [ -67.297763397500688, 49.414302111567338 ] ] ] } },
{ "type": "Feature", "properties": { "hex_id": 561087, "centroid_lon": -73.711535345961963, "centroid_lat": 45.360110545942653, "occurrences_today": 3, "datetimes_today": "2026-08-17 00:00:18, 2026-08-17 00:16:50, 2026-08-17 00:31:48", "cumulative_total": 131.0 }, "geometry": { "type": "Polygon", "coordinates": [ [ [ -73.711653274328313, 45.354914923678358 ], [ -73.717976480166215, 45.357584560047997 ], [ -73.717859119576843, 45.362780192759779 ], [ -73.711417385444648, 45.365306163220069 ], [ -73.705093643986132, 45.362636161065474 ], [ -73.705212172269697, 45.357440554299735 ], [ -73.711653274328313, 45.354914923678358 ] ] ] } },
{ "type": "Feature", "properties": { "hex_id": 577585, "centroid_lon": -73.533367661548894, "centroid_lat": 45.584024763723683, "occurrences_today": 11, "datetimes_today": "2026-08-17 02:16:46, 2026-08-17 02:32:11, 2026-08-17 02:47:11, 2026-08-17 03:01:52, 2026-08-17 03:16:53, 2026-08-17 03:31:44, 2026-08-17 04:02:08, 2026-08-17 04:17:35, 2026-08-17 04:46:44, 2026-08-17 05:01:49, 2026-08-17 05:32:03", "cumulative_total": 180.0 }, "geometry": { "type": "Polygon", "coordinates": [ [ [ -73.533502945211325, 45.578829735061191 ], [ -73.539842316277756, 45.581509340171266 ], [ -73.539707604711225, 45.586704381095146 ], [ -73.533232340907418, 45.58921978732743 ], [ -73.526892434730371, 45.586539811936028 ], [ -73.527028327455298, 45.581344800658343 ], [ -73.533502945211325, 45.578829735061191 ] ] ] } },
{ "type": "Feature", "properties": { "hex_id": 556831, "centroid_lon": -73.750192516536629, "centroid_lat": 45.633373746978698, "occurrences_today": 5, "datetimes_today": "2026-08-17 00:00:18, 2026-08-17 00:16:50, 2026-08-17 00:31:48, 2026-08-17 01:01:55, 2026-08-17 01:17:04", "cumulative_total": 239.0 }, "geometry": { "type": "Polygon", "coordinates": [ [ [ -73.750308001948895, 45.62817829652942 ], [ -73.75666346600589, 45.630846010139102 ], [ -73.756548557132021, 45.636041470713089 ], [ -73.75007699953531, 45.63856919245405 ], [ -73.743720990534328, 45.635901109967001 ], [ -73.743837084063401, 45.630705674681181 ], [ -73.750308001948895, 45.62817829652942 ] ] ] } },
{ "type": "Feature", "properties": { "hex_id": 780960, "centroid_lon": -71.321450348211727, "centroid_lat": 46.757981530556933, "occurrences_today": 4, "datetimes_today": "2026-08-17 04:17:35, 2026-08-17 04:46:44, 2026-08-17 05:01:49, 2026-08-17 05:32:03", "cumulative_total": 171.0 }, "geometry": { "type": "Polygon", "coordinates": [ [ [ -71.321803639722191, 46.75279658814916 ], [ -71.328160450339226, 46.755599154398148 ], [ -71.327807734055909, 46.760784131264849 ], [ -71.321096958844322, 46.763166466192558 ], [ -71.314739670874033, 46.760363494846906 ], [ -71.315093635434721, 46.755178593736794 ], [ -71.321803639722191, 46.75279658814916 ] ] ] } },
{ "type": "Feature", "properties": { "hex_id": 781571, "centroid_lon": -71.314385608267571, "centroid_lat": 46.765548389177312, "occurrences_today": 4, "datetimes_today": "2026-08-17 04:17:35, 2026-08-17 04:46:44, 2026-08-17 05:01:49, 2026-08-17 05:32:03", "cumulative_total": 367.0 }, "geometry": { "type": "Polygon", "coordinates": [ [ [ -71.314739670874033, 46.760363494846906 ], [ -71.321096958844322, 46.763166466192558 ], [ -71.320743471586084, 46.768351395055355 ], [ -71.314031447581414, 46.77073327672732 ], [ -71.307673682359564, 46.767929900124194 ], [ -71.30802841836001, 46.762745047173176 ], [ -71.314739670874033, 46.760363494846906 ] ] ] } },
{ "type": "Feature", "properties": { "hex_id": 782181, "centroid_lon": -71.308383056125834, "centroid_lat": 46.757560187434883, "occurrences_today": 4, "datetimes_today": "2026-08-17 04:17:35, 2026-08-17 04:46:44, 2026-08-17 05:01:49, 2026-08-17 05:32:03", "cumulative_total": 256.0 }, "geometry": { "type": "Polygon", "coordinates": [ [ [ -71.308737595691014, 46.752375320910033 ], [ -71.315093635434721, 46.755178593736794 ], [ -71.314739670874033, 46.760363494846906 ], [ -71.30802841836001, 46.762745047173176 ], [ -71.301671901829451, 46.759941369148542 ], [ -71.302027114565774, 46.754756544062076 ], [ -71.308737595691014, 46.752375320910033 ] ] ] } },
{ "type": "Feature", "properties": { "hex_id": 792055, "centroid_lon": -71.082623158887131, "centroid_lat": 48.402372995835535, "occurrences_today": 3, "datetimes_today": "2026-08-17 04:46:44, 2026-08-17 05:01:49, 2026-08-17 05:32:03", "cumulative_total": 101.0 }, "geometry": { "type": "Polygon", "coordinates": [ [ [ -71.083021635004371, 48.397190980594516 ], [ -71.089561824306458, 48.400011588362958 ], [ -71.089163973111567, 48.405193641579082 ], [ -71.082224569808503, 48.407555003920869 ], [ -71.075683868565832, 48.404733965961626 ], [ -71.076083082525983, 48.399551995922096 ], [ -71.083021635004371, 48.397190980594516 ] ] ] } },
{ "type": "Feature", "properties": { "hex_id": 630679, "centroid_lon": -72.986883604390783, "centroid_lat": 45.271679144296208, "occurrences_today": 13, "datetimes_today": "2026-08-17 01:47:02, 2026-08-17 01:57:15, 2026-08-17 02:16:46, 2026-08-17 02:32:11, 2026-08-17 02:47:11, 2026-08-17 03:01:52, 2026-08-17 03:16:53, 2026-08-17 03:31:44, 2026-08-17 04:02:08, 2026-08-17 04:17:35, 2026-08-17 04:46:44, 2026-08-17 05:01:49, 2026-08-17 05:32:03", "cumulative_total": 137.0 }, "geometry": { "type": "Polygon", "coordinates": [ [ [ -72.987067268299896, 45.26648533771916 ], [ -72.993345371602302, 45.269194379094891 ], [ -72.993162262999078, 45.274388203204559 ], [ -72.986699890479713, 45.276872945545406 ], [ -72.980421281881718, 45.274163532863014 ], [ -72.980605551082007, 45.268969749210228 ], [ -72.987067268299896, 45.26648533771916 ] ] ] } },
{ "type": "Feature", "properties": { "hex_id": 631290, "centroid_lon": -72.98023696251343, "centroid_lat": 45.279357311184192, "occurrences_today": 13, "datetimes_today": "2026-08-17 01:47:02, 2026-08-17 01:57:15, 2026-08-17 02:16:46, 2026-08-17 02:32:11, 2026-08-17 02:47:11, 2026-08-17 03:01:52, 2026-08-17 03:16:53, 2026-08-17 03:31:44, 2026-08-17 04:02:08, 2026-08-17 04:17:35, 2026-08-17 04:46:44, 2026-08-17 05:01:49, 2026-08-17 05:32:03", "cumulative_total": 263.0 }, "geometry": { "type": "Polygon", "coordinates": [ [ [ -72.980421281881718, 45.274163532863014 ], [ -72.986699890479713, 45.276872945545406 ], [ -72.986516126550043, 45.282066741466593 ], [ -72.980052592960405, 45.284551084173593 ], [ -72.9737734791169, 45.281841300027864 ], [ -72.973958404091803, 45.276647544702307 ], [ -72.980421281881718, 45.274163532863014 ] ] ] } },
{ "type": "Feature", "properties": { "hex_id": 655130, "centroid_lon": -72.712620006338526, "centroid_lat": 45.749822161285806, "occurrences_today": 7, "datetimes_today": "2026-08-17 02:32:11, 2026-08-17 02:47:11, 2026-08-17 03:01:52, 2026-08-17 03:16:53, 2026-08-17 03:31:44, 2026-08-17 04:02:08, 2026-08-17 04:17:35", "cumulative_total": 36.0 }, "geometry": { "type": "Polygon", "coordinates": [ [ [ -72.712832186421892, 45.74462972587262 ], [ -72.719149040205821, 45.747354412399005 ], [ -72.718937425727475, 45.75254686819742 ], [ -72.712407768166671, 45.755014591192186 ], [ -72.706090406876015, 45.752289524802819 ], [ -72.706303210633266, 45.747097115346506 ], [ -72.712832186421892, 45.74462972587262 ] ] ] } },
{ "type": "Feature", "properties": { "hex_id": 543396, "centroid_lon": -73.89252235389867, "centroid_lat": 45.572481578926343, "occurrences_today": 2, "datetimes_today": "2026-08-17 05:01:49, 2026-08-17 05:32:03", "cumulative_total": 364.0 }, "geometry": { "type": "Polygon", "coordinates": [ [ [ -73.892624472443259, 45.567285806915208 ], [ -73.898980012542594, 45.569945627900474 ], [ -73.898878470599342, 45.575141408609618 ], [ -73.892420207440495, 45.577677346012187 ], [ -73.886064118658098, 45.575017158269155 ], [ -73.886166841708231, 45.569821399946008 ], [ -73.892624472443259, 45.567285806915208 ] ] ] } },
{ "type": "Feature", "properties": { "hex_id": 545231, "centroid_lon": -73.87220924596437, "centroid_lat": 45.626848556319572, "occurrences_today": 1, "datetimes_today": "2026-08-17 00:16:50", "cumulative_total": 109.0 }, "geometry": { "type": "Polygon", "coordinates": [ [ [ -73.872313434546484, 45.621652869958332 ], [ -73.878674085221817, 45.624313845118081 ], [ -73.878570474624397, 45.629509540389975 ], [ -73.872105028884235, 45.632044237748872 ], [ -73.865743828727034, 45.629382894949558 ], [ -73.865848623782256, 45.624187222495728 ], [ -73.872313434546484, 45.621652869958332 ] ] ] } },
{ "type": "Feature", "properties": { "hex_id": 556214, "centroid_lon": -73.758840776482685, "centroid_lat": 45.53213131470303, "occurrences_today": 10, "datetimes_today": "2026-08-17 00:31:48, 2026-08-17 01:01:55, 2026-08-17 01:17:04, 2026-08-17 01:32:25, 2026-08-17 01:47:02, 2026-08-17 01:57:15, 2026-08-17 02:16:46, 2026-08-17 02:32:11, 2026-08-17 02:47:11, 2026-08-17 03:01:52", "cumulative_total": 296.0 }, "geometry": { "type": "Polygon", "coordinates": [ [ [ -73.758955058922524, 45.526935754708909 ], [ -73.765299629652944, 45.529602918950921 ], [ -73.765185920796313, 45.534798488962004 ], [ -73.758726462821059, 45.537326869726741 ], [ -73.752381349734492, 45.534659337972791 ], [ -73.752496236968824, 45.529463793030629 ], [ -73.758955058922524, 45.526935754708909 ] ] ] } },
{ "type": "Feature", "properties": { "hex_id": 548875, "centroid_lon": -73.839826001517153, "centroid_lat": 45.330304130830989, "occurrences_today": 2, "datetimes_today": "2026-08-17 05:01:49, 2026-08-17 05:32:03", "cumulative_total": 83.0 }, "geometry": { "type": "Polygon", "coordinates": [ [ [ -73.839932079360167, 45.325108232318961 ], [ -73.846258166504967, 45.327770805790998 ], [ -73.84615265725769, 45.332966713476097 ], [ -73.839719894762794, 45.335500024401242 ], [ -73.833393267938405, 45.332837086725036 ], [ -73.833499943278852, 45.327641202392002 ], [ -73.839932079360167, 45.325108232318961 ] ] ] } },
{ "type": "Feature", "properties": { "hex_id": 555604, "centroid_lon": -73.765072180873517, "centroid_lat": 45.539994054004872, "occurrences_today": 10, "datetimes_today": "2026-08-17 00:31:48, 2026-08-17 01:01:55, 2026-08-17 01:17:04, 2026-08-17 01:32:25, 2026-08-17 01:47:02, 2026-08-17 01:57:15, 2026-08-17 02:16:46, 2026-08-17 02:32:11, 2026-08-17 02:47:11, 2026-08-17 03:01:52", "cumulative_total": 376.0 }, "geometry": { "type": "Polygon", "coordinates": [ [ [ -73.765185920796313, 45.534798488962004 ], [ -73.771531669920151, 45.537465315708886 ], [ -73.771418503902296, 45.542660890708611 ], [ -73.764958409874112, 45.545189614079511 ], [ -73.758612117927157, 45.5425224197799 ], [ -73.758726462821059, 45.537326869726741 ], [ -73.765185920796313, 45.534798488962004 ] ] ] } },
{ "type": "Feature", "properties": { "hex_id": 810366, "centroid_lon": -70.885489568904305, "centroid_lat": 48.333131936329892, "occurrences_today": 7, "datetimes_today": "2026-08-17 00:00:18, 2026-08-17 00:16:50, 2026-08-17 00:31:48, 2026-08-17 01:01:55, 2026-08-17 01:17:04, 2026-08-17 01:32:25, 2026-08-17 01:47:02", "cumulative_total": 201.0 }, "geometry": { "type": "Polygon", "coordinates": [ [ [ -70.885907048443144, 48.327951111616805 ], [ -70.892426982415543, 48.330782413269027 ], [ -70.892010121949411, 48.335963277854496 ], [ -70.885071971169324, 48.338312753640857 ], [ -70.878551536341689, 48.335481021189189 ], [ -70.87896975310673, 48.330300243821 ], [ -70.885907048443144, 48.327951111616805 ] ] ] } },
{ "type": "Feature", "properties": { "hex_id": 544617, "centroid_lon": -73.879708634542567, "centroid_lat": 45.572356621265016, "occurrences_today": 2, "datetimes_today": "2026-08-17 05:01:49, 2026-08-17 05:32:03", "cumulative_total": 154.0 }, "geometry": { "type": "Polygon", "coordinates": [ [ [ -73.879811934018619, 45.567160871767229 ], [ -73.886166841708231, 45.569821399946008 ], [ -73.886064118658098, 45.575017158269155 ], [ -73.879605306830285, 45.577552365833391 ], [ -73.873249850955716, 45.57489147077672 ], [ -73.873353755084437, 45.569695735098406 ], [ -73.879811934018619, 45.567160871767229 ] ] ] } },
{ "type": "Feature", "properties": { "hex_id": 674102, "centroid_lon": -72.480724330100188, "centroid_lat": 46.469845102131302, "occurrences_today": 8, "datetimes_today": "2026-08-17 02:32:11, 2026-08-17 02:47:11, 2026-08-17 03:01:52, 2026-08-17 03:16:53, 2026-08-17 03:31:44, 2026-08-17 04:02:08, 2026-08-17 04:17:35, 2026-08-17 04:46:44", "cumulative_total": 26.0 }, "geometry": { "type": "Polygon", "coordinates": [ [ [ -72.480963949780772, 46.464654206446319 ], [ -72.48735015651944, 46.467392858221814 ], [ -72.487111121086542, 46.472583776873897 ], [ -72.480484644228184, 46.475035992129612 ], [ -72.47409791944466, 46.472296949002356 ], [ -72.474338189541569, 46.467106082037567 ], [ -72.480963949780772, 46.464654206446319 ] ] ] } },
{ "type": "Feature", "properties": { "hex_id": 674712, "centroid_lon": -72.474578393288411, "centroid_lat": 46.461915209381374, "occurrences_today": 8, "datetimes_today": "2026-08-17 02:32:11, 2026-08-17 02:47:11, 2026-08-17 03:01:52, 2026-08-17 03:16:53, 2026-08-17 03:31:44, 2026-08-17 04:02:08, 2026-08-17 04:17:35, 2026-08-17 04:46:44", "cumulative_total": 26.0 }, "geometry": { "type": "Polygon", "coordinates": [ [ [ -72.474818530708006, 46.456724331034074 ], [ -72.48120350329269, 46.459463305074948 ], [ -72.480963949780772, 46.464654206446319 ], [ -72.474338189541569, 46.467106082037567 ], [ -72.46795269938788, 46.464366716696091 ], [ -72.468193487019619, 46.459175867130362 ], [ -72.474818530708006, 46.456724331034074 ] ] ] } },
{ "type": "Feature", "properties": { "hex_id": 799872, "centroid_lon": -71.133950112277546, "centroid_lat": 46.541336509306312, "occurrences_today": 4, "datetimes_today": "2026-08-17 00:00:18, 2026-08-17 00:16:50, 2026-08-17 00:31:48, 2026-08-17 01:01:55", "cumulative_total": 33.0 }, "geometry": { "type": "Polygon", "coordinates": [ [ [ -71.134318588057738, 46.536152490178637 ], [ -71.140640370374015, 46.538964519785452 ], [ -71.140272460171118, 46.544148575036608 ], [ -71.133581534749567, 46.54652052146438 ], [ -71.127259288621289, 46.543708088177034 ], [ -71.127628431691576, 46.538524112208393 ], [ -71.134318588057738, 46.536152490178637 ] ] ] } },
{ "type": "Feature", "properties": { "hex_id": 550096, "centroid_lon": -73.82706723877024, "centroid_lat": 45.330173803290755, "occurrences_today": 2, "datetimes_today": "2026-08-17 05:01:49, 2026-08-17 05:32:03", "cumulative_total": 26.0 }, "geometry": { "type": "Polygon", "coordinates": [ [ [ -73.827174482533124, 45.324977928256985 ], [ -73.833499943278852, 45.327641202392002 ], [ -73.833393267938405, 45.332837086725036 ], [ -73.826959965778443, 45.335369673378487 ], [ -73.820633965844067, 45.332706034920605 ], [ -73.820741807248552, 45.327510174196263 ], [ -73.827174482533124, 45.324977928256985 ] ] ] } },
{ "type": "Feature", "properties": { "hex_id": 810976, "centroid_lon": -70.879387851506451, "centroid_lat": 48.325119459042369, "occurrences_today": 7, "datetimes_today": "2026-08-17 00:00:18, 2026-08-17 00:16:50, 2026-08-17 00:31:48, 2026-08-17 01:01:55, 2026-08-17 01:17:04, 2026-08-17 01:32:25, 2026-08-17 01:47:02", "cumulative_total": 169.0 }, "geometry": { "type": "Polygon", "coordinates": [ [ [ -70.879805831583511, 48.319938666854242 ], [ -70.886324409828433, 48.3227702795025 ], [ -70.885907048443144, 48.327951111616805 ], [ -70.87896975310673, 48.330300243821 ], [ -70.872450674514042, 48.327468200440158 ], [ -70.872869391562858, 48.322287455658071 ], [ -70.879805831583511, 48.319938666854242 ] ] ] } },
{ "type": "Feature", "properties": { "hex_id": 655740, "centroid_lon": -72.70651595614946, "centroid_lat": 45.741904700379237, "occurrences_today": 7, "datetimes_today": "2026-08-17 02:32:11, 2026-08-17 02:47:11, 2026-08-17 03:01:52, 2026-08-17 03:16:53, 2026-08-17 03:31:44, 2026-08-17 04:02:08, 2026-08-17 04:17:35", "cumulative_total": 19.0 }, "geometry": { "type": "Polygon", "coordinates": [ [ [ -72.706728643444237, 45.736712279901276 ], [ -72.713044308436366, 45.739437284952885 ], [ -72.712832186421892, 45.74462972587262 ], [ -72.706303210633266, 45.747097115346506 ], [ -72.699987038592113, 45.744371730480069 ], [ -72.700200349368941, 45.739179336019369 ], [ -72.706728643444237, 45.736712279901276 ] ] ] } },
{ "type": "Feature", "properties": { "hex_id": 475660, "centroid_lon": -74.600513564673989, "centroid_lat": 46.03704463063675, "occurrences_today": 19, "datetimes_today": "2026-08-17 00:00:18, 2026-08-17 00:16:50, 2026-08-17 00:31:48, 2026-08-17 01:01:55, 2026-08-17 01:17:04, 2026-08-17 01:32:25, 2026-08-17 01:47:02, 2026-08-17 01:57:15, 2026-08-17 02:16:46, 2026-08-17 02:32:11, 2026-08-17 02:47:11, 2026-08-17 03:01:52, 2026-08-17 03:16:53, 2026-08-17 03:31:44, 2026-08-17 04:02:08, 2026-08-17 04:17:35, 2026-08-17 04:46:44, 2026-08-17 05:01:49, 2026-08-17 05:32:03", "cumulative_total": 298.0 }, "geometry": { "type": "Polygon", "coordinates": [ [ [ -74.60055100403531, 46.031848437258354 ], [ -74.606993395376122, 46.034468934222652 ], [ -74.606956556468319, 46.039665129255148 ], [ -74.600476115018225, 46.042240819246075 ], [ -74.594033133520114, 46.039619956515885 ], [ -74.594071183625914, 46.034423769626507 ], [ -74.60055100403531, 46.031848437258354 ] ] ] } },
{ "type": "Feature", "properties": { "hex_id": 476270, "centroid_lon": -74.594109223272525, "centroid_lat": 46.029227577967298, "occurrences_today": 19, "datetimes_today": "2026-08-17 00:00:18, 2026-08-17 00:16:50, 2026-08-17 00:31:48, 2026-08-17 01:01:55, 2026-08-17 01:17:04, 2026-08-17 01:32:25, 2026-08-17 01:47:02, 2026-08-17 01:57:15, 2026-08-17 02:16:46, 2026-08-17 02:32:11, 2026-08-17 02:47:11, 2026-08-17 03:01:52, 2026-08-17 03:16:53, 2026-08-17 03:31:44, 2026-08-17 04:02:08, 2026-08-17 04:17:35, 2026-08-17 04:46:44, 2026-08-17 05:01:49, 2026-08-17 05:32:03", "cumulative_total": 294.0 }, "geometry": { "type": "Polygon", "coordinates": [ [ [ -74.594147252463543, 46.024031381538244 ], [ -74.600588433105656, 46.026652239110888 ], [ -74.60055100403531, 46.031848437258354 ], [ -74.594071183625914, 46.034423769626507 ], [ -74.587629413320499, 46.031802546323767 ], [ -74.587668053084229, 46.026606356448816 ], [ -74.594147252463543, 46.024031381538244 ] ] ] } },
{ "type": "Feature", "properties": { "hex_id": 656350, "centroid_lon": -72.700413601771871, "centroid_lat": 45.733986936043827, "occurrences_today": 7, "datetimes_today": "2026-08-17 02:32:11, 2026-08-17 02:47:11, 2026-08-17 03:01:52, 2026-08-17 03:16:53, 2026-08-17 03:31:44, 2026-08-17 04:02:08, 2026-08-17 04:17:35", "cumulative_total": 7.0 }, "geometry": { "type": "Polygon", "coordinates": [ [ [ -72.700626795820583, 45.728794530553714 ], [ -72.706941272537208, 45.731519853912872 ], [ -72.706728643444237, 45.736712279901276 ], [ -72.700200349368941, 45.739179336019369 ], [ -72.693885366060641, 45.736453632893564 ], [ -72.694099183399615, 45.731261253481073 ], [ -72.700626795820583, 45.728794530553714 ] ] ] } },
{ "type": "Feature", "properties": { "hex_id": 656351, "centroid_lon": -72.69977366942166, "centroid_lat": 45.749564119425671, "occurrences_today": 7, "datetimes_today": "2026-08-17 02:32:11, 2026-08-17 02:47:11, 2026-08-17 03:01:52, 2026-08-17 03:16:53, 2026-08-17 03:31:44, 2026-08-17 04:02:08, 2026-08-17 04:17:35", "cumulative_total": 7.0 }, "geometry": { "type": "Polygon", "coordinates": [ [ [ -72.699987038592113, 45.744371730480069 ], [ -72.706303210633266, 45.747097115346506 ], [ -72.706090406876015, 45.752289524802819 ], [ -72.699560241837915, 45.754756502855926 ], [ -72.693243562806728, 45.752030738015996 ], [ -72.693457555783937, 45.746838375161282 ], [ -72.699987038592113, 45.744371730480069 ] ] ] } },
{ "type": "Feature", "properties": { "hex_id": 656961, "centroid_lon": -72.693671490195328, "centroid_lat": 45.741646006787064, "occurrences_today": 7, "datetimes_today": "2026-08-17 02:32:11, 2026-08-17 02:47:11, 2026-08-17 03:01:52, 2026-08-17 03:16:53, 2026-08-17 03:31:44, 2026-08-17 04:02:08, 2026-08-17 04:17:35", "cumulative_total": 7.0 }, "geometry": { "type": "Polygon", "coordinates": [ [ [ -72.693885366060641, 45.736453632893564 ], [ -72.700200349368941, 45.739179336019369 ], [ -72.699987038592113, 45.744371730480069 ], [ -72.693457555783937, 45.746838375161282 ], [ -72.687142065943121, 45.744112292110238 ], [ -72.687356565423215, 45.738919944368 ], [ -72.693885366060641, 45.736453632893564 ] ] ] } },
{ "type": "Feature", "properties": { "hex_id": 657571, "centroid_lon": -72.687571006204848, "centroid_lat": 45.733727591102337, "occurrences_today": 7, "datetimes_today": "2026-08-17 02:32:11, 2026-08-17 02:47:11, 2026-08-17 03:01:52, 2026-08-17 03:16:53, 2026-08-17 03:31:44, 2026-08-17 04:02:08, 2026-08-17 04:17:35", "cumulative_total": 7.0 }, "geometry": { "type": "Polygon", "coordinates": [ [ [ -72.687785388307773, 45.728535232313511 ], [ -72.694099183399615, 45.731261253481073 ], [ -72.693885366060641, 45.736453632893564 ], [ -72.687356565423215, 45.738919944368 ], [ -72.681042264256021, 45.736193543323459 ], [ -72.681257269781796, 45.731001210746221 ], [ -72.687785388307773, 45.728535232313511 ] ] ] } }
]
}
