{
"type": "FeatureCollection",
"name": "daily_2025-12-01",
"crs": { "type": "name", "properties": { "name": "urn:ogc:def:crs:OGC:1.3:CRS84" } },
"features": [
{ "type": "Feature", "properties": { "hex_id": 215, "count": 4, "date": "2025-12-01", "n_files": 22, "pct": 18.18 }, "geometry": { "type": "Polygon", "coordinates": [ [ [ -74.894196, 46.2873914 ], [ -74.8941459, 46.3133718 ], [ -74.9265986, 46.3263873 ], [ -74.959086, 46.3134134 ], [ -74.9591054, 46.2874331 ], [ -74.926668, 46.2744266 ], [ -74.894196, 46.2873914 ] ] ] } },
{ "type": "Feature", "properties": { "hex_id": 343, "count": 4, "date": "2025-12-01", "n_files": 22, "pct": 18.18 }, "geometry": { "type": "Polygon", "coordinates": [ [ [ -74.8292868, 46.2873129 ], [ -74.8292061, 46.3132932 ], [ -74.8616432, 46.3263272 ], [ -74.8941459, 46.3133718 ], [ -74.894196, 46.2873914 ], [ -74.861774, 46.2743666 ], [ -74.8292868, 46.2873129 ] ] ] } },
{ "type": "Feature", "properties": { "hex_id": 656, "count": 2, "date": "2025-12-01", "n_files": 22, "pct": 9.09 }, "geometry": { "type": "Polygon", "coordinates": [ [ [ -74.6700446, 45.7803227 ], [ -74.6698912, 45.806305 ], [ -74.7019956, 45.8193846 ], [ -74.7342388, 45.8064728 ], [ -74.7343623, 45.7804904 ], [ -74.7022725, 45.7674199 ], [ -74.6700446, 45.7803227 ] ] ] } },
{ "type": "Feature", "properties": { "hex_id": 720, "count": 2, "date": "2025-12-01", "n_files": 22, "pct": 9.09 }, "geometry": { "type": "Polygon", "coordinates": [ [ [ -74.638138, 45.7412518 ], [ -74.63797, 45.7672342 ], [ -74.6700446, 45.7803227 ], [ -74.7022725, 45.7674199 ], [ -74.7024106, 45.7414373 ], [ -74.6703507, 45.7283578 ], [ -74.638138, 45.7412518 ] ] ] } },
{ "type": "Feature", "properties": { "hex_id": 786, "count": 1, "date": "2025-12-01", "n_files": 22, "pct": 4.55 }, "geometry": { "type": "Polygon", "coordinates": [ [ [ -74.6046242, 45.9360096 ], [ -74.6044394, 45.961991 ], [ -74.636618, 45.9750888 ], [ -74.6689666, 45.9621961 ], [ -74.6691212, 45.9362146 ], [ -74.6369574, 45.923125899999988 ], [ -74.6046242, 45.9360096 ] ] ] } },
{ "type": "Feature", "properties": { "hex_id": 789, "count": 7, "date": "2025-12-01", "n_files": 22, "pct": 31.82 }, "geometry": { "type": "Polygon", "coordinates": [ [ [ -74.6029521, 46.1698377 ], [ -74.602765, 46.195818 ], [ -74.635079100000013, 46.2089161 ], [ -74.6675653, 46.1960247 ], [ -74.6677219, 46.1700443 ], [ -74.6354227, 46.1569553 ], [ -74.6029521, 46.1698377 ] ] ] } },
{ "type": "Feature", "properties": { "hex_id": 850, "count": 2, "date": "2025-12-01", "n_files": 22, "pct": 9.09 }, "geometry": { "type": "Polygon", "coordinates": [ [ [ -74.5726752, 45.8969214 ], [ -74.5724758, 45.9229028 ], [ -74.6046242, 45.9360096 ], [ -74.6369574, 45.923125899999988 ], [ -74.6371267, 45.8971442 ], [ -74.604993, 45.8840465 ], [ -74.5726752, 45.8969214 ] ] ] } },
{ "type": "Feature", "properties": { "hex_id": 853, "count": 7, "date": "2025-12-01", "n_files": 22, "pct": 31.82 }, "geometry": { "type": "Polygon", "coordinates": [ [ [ -74.5708704, 46.1307501 ], [ -74.5706685, 46.1567304 ], [ -74.6029521, 46.1698377 ], [ -74.6354227, 46.1569553 ], [ -74.6355942, 46.1309747 ], [ -74.6033254, 46.1178767 ], [ -74.5708704, 46.1307501 ] ] ] } },
{ "type": "Feature", "properties": { "hex_id": 854, "count": 1, "date": "2025-12-01", "n_files": 22, "pct": 4.55 }, "geometry": { "type": "Polygon", "coordinates": [ [ [ -74.570263900000015, 46.2086908 ], [ -74.5700611, 46.2346708 ], [ -74.6023901, 46.2477782 ], [ -74.6349069, 46.234896299999988 ], [ -74.635079100000013, 46.2089161 ], [ -74.602765, 46.195818 ], [ -74.570263900000015, 46.2086908 ] ] ] } },
{ "type": "Feature", "properties": { "hex_id": 913, "count": 2, "date": "2025-12-01", "n_files": 22, "pct": 9.09 }, "geometry": { "type": "Polygon", "coordinates": [ [ [ -74.5407709, 45.8578241 ], [ -74.5405568, 45.8838056 ], [ -74.5726752, 45.8969214 ], [ -74.604993, 45.8840465 ], [ -74.605177, 45.8580648 ], [ -74.5730732, 45.8449581 ], [ -74.5407709, 45.8578241 ] ] ] } },
{ "type": "Feature", "properties": { "hex_id": 914, "count": 2, "date": "2025-12-01", "n_files": 22, "pct": 9.09 }, "geometry": { "type": "Polygon", "coordinates": [ [ [ -74.5401279, 45.9357683 ], [ -74.539913, 45.9617494 ], [ -74.5720761, 45.9748653 ], [ -74.6044394, 45.961991 ], [ -74.6046242, 45.9360096 ], [ -74.5724758, 45.9229028 ], [ -74.5401279, 45.9357683 ] ] ] } },
{ "type": "Feature", "properties": { "hex_id": 917, "count": 5, "date": "2025-12-01", "n_files": 22, "pct": 22.73 }, "geometry": { "type": "Polygon", "coordinates": [ [ [ -74.538183, 46.1695943 ], [ -74.5379655, 46.1955744 ], [ -74.570263900000015, 46.2086908 ], [ -74.602765, 46.195818 ], [ -74.6029521, 46.1698377 ], [ -74.5706685, 46.1567304 ], [ -74.538183, 46.1695943 ] ] ] } },
{ "type": "Feature", "properties": { "hex_id": 1167, "count": 2, "date": "2025-12-01", "n_files": 22, "pct": 9.09 }, "geometry": { "type": "Polygon", "coordinates": [ [ [ -74.4135979, 45.7013454 ], [ -74.4133261, 45.7273271 ], [ -74.4453247, 45.740478499999988 ], [ -74.4775808, 45.727639 ], [ -74.4778229, 45.701657 ], [ -74.4458386, 45.6885148 ], [ -74.4135979, 45.7013454 ] ] ] } },
{ "type": "Feature", "properties": { "hex_id": 1168, "count": 4, "date": "2025-12-01", "n_files": 22, "pct": 18.18 }, "geometry": { "type": "Polygon", "coordinates": [ [ [ -74.4127813, 45.7792902 ], [ -74.4125084, 45.8052715 ], [ -74.4445513, 45.8184231 ], [ -74.4768527, 45.8055842 ], [ -74.477095800000015, 45.7796026 ], [ -74.4450673, 45.766460099999989 ], [ -74.4127813, 45.7792902 ] ] ] } },
{ "type": "Feature", "properties": { "hex_id": 1232, "count": 4, "date": "2025-12-01", "n_files": 22, "pct": 18.18 }, "geometry": { "type": "Polygon", "coordinates": [ [ [ -74.3810556, 45.7401484 ], [ -74.3807683, 45.7661297 ], [ -74.4127813, 45.7792902 ], [ -74.4450673, 45.766460099999989 ], [ -74.4453247, 45.740478499999988 ], [ -74.4133261, 45.7273271 ], [ -74.3810556, 45.7401484 ] ] ] } },
{ "type": "Feature", "properties": { "hex_id": 1295, "count": 4, "date": "2025-12-01", "n_files": 22, "pct": 18.18 }, "geometry": { "type": "Polygon", "coordinates": [ [ [ -74.349374, 45.7009977 ], [ -74.3490724, 45.7269791 ], [ -74.3810556, 45.7401484 ], [ -74.4133261, 45.7273271 ], [ -74.4135979, 45.7013454 ], [ -74.381629, 45.6881853 ], [ -74.349374, 45.7009977 ] ] ] } },
{ "type": "Feature", "properties": { "hex_id": 1296, "count": 4, "date": "2025-12-01", "n_files": 22, "pct": 18.18 }, "geometry": { "type": "Polygon", "coordinates": [ [ [ -74.348468, 45.7789415 ], [ -74.3481652, 45.8049226 ], [ -74.3801926, 45.8180921 ], [ -74.4125084, 45.8052715 ], [ -74.4127813, 45.7792902 ], [ -74.3807683, 45.7661297 ], [ -74.348468, 45.7789415 ] ] ] } },
{ "type": "Feature", "properties": { "hex_id": 1360, "count": 4, "date": "2025-12-01", "n_files": 22, "pct": 18.18 }, "geometry": { "type": "Polygon", "coordinates": [ [ [ -74.3167876, 45.7397821 ], [ -74.3164705, 45.7657632 ], [ -74.348468, 45.7789415 ], [ -74.3807683, 45.7661297 ], [ -74.3810556, 45.7401484 ], [ -74.3490724, 45.7269791 ], [ -74.3167876, 45.7397821 ] ] ] } },
{ "type": "Feature", "properties": { "hex_id": 1423, "count": 4, "date": "2025-12-01", "n_files": 22, "pct": 18.18 }, "geometry": { "type": "Polygon", "coordinates": [ [ [ -74.28515130000001, 45.7006139 ], [ -74.28482, 45.726595 ], [ -74.3167876, 45.7397821 ], [ -74.3490724, 45.7269791 ], [ -74.349374, 45.7009977 ], [ -74.3174205, 45.6878197 ], [ -74.28515130000001, 45.7006139 ] ] ] } },
{ "type": "Feature", "properties": { "hex_id": 1488, "count": 4, "date": "2025-12-01", "n_files": 22, "pct": 18.18 }, "geometry": { "type": "Polygon", "coordinates": [ [ [ -74.252521, 45.7393797 ], [ -74.2521741, 45.7653604 ], [ -74.2841559, 45.7785567 ], [ -74.3164705, 45.7657632 ], [ -74.3167876, 45.7397821 ], [ -74.28482, 45.726595 ], [ -74.252521, 45.7393797 ] ] ] } },
{ "type": "Feature", "properties": { "hex_id": 1494, "count": 2, "date": "2025-12-01", "n_files": 22, "pct": 9.09 }, "geometry": { "type": "Polygon", "coordinates": [ [ [ -74.2462029, 46.2070134 ], [ -74.2458473, 46.2329919 ], [ -74.2780969, 46.2461904 ], [ -74.3106876, 46.2334012 ], [ -74.3110127, 46.2074223 ], [ -74.2787776, 46.194233 ], [ -74.2462029, 46.2070134 ] ] ] } },
{ "type": "Feature", "properties": { "hex_id": 1557, "count": 2, "date": "2025-12-01", "n_files": 22, "pct": 9.09 }, "geometry": { "type": "Polygon", "coordinates": [ [ [ -74.2143539, 46.1678274 ], [ -74.2139838, 46.1938059 ], [ -74.2462029, 46.2070134 ], [ -74.2787776, 46.194233 ], [ -74.2791172, 46.1682542 ], [ -74.2469126, 46.155056 ], [ -74.2143539, 46.1678274 ] ] ] } },
{ "type": "Feature", "properties": { "hex_id": 1875, "count": 4, "date": "2025-12-01", "n_files": 22, "pct": 18.18 }, "geometry": { "type": "Polygon", "coordinates": [ [ [ -74.0557811, 45.9717658 ], [ -74.0553393, 45.9977441 ], [ -74.0874065, 46.0109956 ], [ -74.1199013, 45.998259499999989 ], [ -74.1203129, 45.9722808 ], [ -74.0882599, 45.9590385 ], [ -74.0557811, 45.9717658 ] ] ] } },
{ "type": "Feature", "properties": { "hex_id": 1938, "count": 4, "date": "2025-12-01", "n_files": 22, "pct": 18.18 }, "geometry": { "type": "Polygon", "coordinates": [ [ [ -74.0242, 45.9325273 ], [ -74.023744, 45.9585056 ], [ -74.0557811, 45.9717658 ], [ -74.0882599, 45.9590385 ], [ -74.0886857, 45.9330598 ], [ -74.0566628, 45.9198088 ], [ -74.0242, 45.9325273 ] ] ] } },
{ "type": "Feature", "properties": { "hex_id": 2002, "count": 7, "date": "2025-12-01", "n_files": 22, "pct": 31.82 }, "geometry": { "type": "Polygon", "coordinates": [ [ [ -73.9926631, 45.8932803 ], [ -73.9921931, 45.9192584 ], [ -74.0242, 45.9325273 ], [ -74.0566628, 45.9198088 ], [ -74.0571028, 45.8938302 ], [ -74.02511, 45.8805705 ], [ -73.9926631, 45.8932803 ] ] ] } },
{ "type": "Feature", "properties": { "hex_id": 2003, "count": 4, "date": "2025-12-01", "n_files": 22, "pct": 18.18 }, "geometry": { "type": "Polygon", "coordinates": [ [ [ -73.9912511, 45.9712144 ], [ -73.9907791, 45.9971922 ], [ -74.0228303, 46.0104617 ], [ -74.0553393, 45.9977441 ], [ -74.0557811, 45.9717658 ], [ -74.023744, 45.9585056 ], [ -73.9912511, 45.9712144 ] ] ] } },
{ "type": "Feature", "properties": { "hex_id": 2066, "count": 4, "date": "2025-12-01", "n_files": 22, "pct": 18.18 }, "geometry": { "type": "Polygon", "coordinates": [ [ [ -73.9597161, 45.9319585 ], [ -73.9592301, 45.9579362 ], [ -73.9912511, 45.9712144 ], [ -74.023744, 45.9585056 ], [ -74.0242, 45.9325273 ], [ -73.9921931, 45.9192584 ], [ -73.9597161, 45.9319585 ] ] ] } },
{ "type": "Feature", "properties": { "hex_id": 2132, "count": 4, "date": "2025-12-01", "n_files": 22, "pct": 18.18 }, "geometry": { "type": "Polygon", "coordinates": [ [ [ -73.92521450000001, 46.048558 ], [ -73.9247102, 46.0745349 ], [ -73.9567897, 46.0878229 ], [ -73.9893592, 46.0751248 ], [ -73.9898332, 46.0491474 ], [ -73.9577679, 46.0358686 ], [ -73.92521450000001, 46.048558 ] ] ] } },
{ "type": "Feature", "properties": { "hex_id": 2260, "count": 4, "date": "2025-12-01", "n_files": 22, "pct": 18.18 }, "geometry": { "type": "Polygon", "coordinates": [ [ [ -73.8605978, 46.047932 ], [ -73.8600633, 46.0739083 ], [ -73.8921265, 46.0872144 ], [ -73.9247102, 46.0745349 ], [ -73.92521450000001, 46.048558 ], [ -73.8931653, 46.0352612 ], [ -73.8605978, 46.047932 ] ] ] } },
{ "type": "Feature", "properties": { "hex_id": 2317, "count": 5, "date": "2025-12-01", "n_files": 22, "pct": 22.73 }, "geometry": { "type": "Polygon", "coordinates": [ [ [ -73.8388597, 45.5410479 ], [ -73.8383245, 45.5670263 ], [ -73.870095, 45.5803369 ], [ -73.902387, 45.567659899999988 ], [ -73.9028927, 45.5416809 ], [ -73.8711359, 45.5283795 ], [ -73.8388597, 45.5410479 ] ] ] } },
{ "type": "Feature", "properties": { "hex_id": 2378, "count": 1, "date": "2025-12-01", "n_files": 22, "pct": 4.55 }, "geometry": { "type": "Polygon", "coordinates": [ [ [ -73.8125732, 45.2679399 ], [ -73.8120311, 45.2939193 ], [ -73.8436436, 45.3072363 ], [ -73.8757848, 45.2945647 ], [ -73.8762978, 45.2685847 ], [ -73.8446987, 45.2552768 ], [ -73.8125732, 45.2679399 ] ] ] } },
{ "type": "Feature", "properties": { "hex_id": 2380, "count": 1, "date": "2025-12-01", "n_files": 22, "pct": 4.55 }, "geometry": { "type": "Polygon", "coordinates": [ [ [ -73.8093094, 45.4238147 ], [ -73.8087629, 45.4497934 ], [ -73.8404609, 45.4631118 ], [ -73.8726918, 45.4504423 ], [ -73.8732091, 45.4244631 ], [ -73.8415247, 45.4111538 ], [ -73.8093094, 45.4238147 ] ] ] } },
{ "type": "Feature", "properties": { "hex_id": 2441, "count": 1, "date": "2025-12-01", "n_files": 22, "pct": 4.55 }, "geometry": { "type": "Polygon", "coordinates": [ [ [ -73.7815453, 45.2286352 ], [ -73.7809898, 45.2546145 ], [ -73.8125732, 45.2679399 ], [ -73.8446987, 45.2552768 ], [ -73.8452252, 45.2292969 ], [ -73.8136552, 45.2159806 ], [ -73.7815453, 45.2286352 ] ] ] } },
{ "type": "Feature", "properties": { "hex_id": 2442, "count": 1, "date": "2025-12-01", "n_files": 22, "pct": 4.55 }, "geometry": { "type": "Polygon", "coordinates": [ [ [ -73.7798765, 45.3065728 ], [ -73.7793187, 45.3325518 ], [ -73.810944600000013, 45.3458779 ], [ -73.843115, 45.3332159 ], [ -73.8436436, 45.3072363 ], [ -73.8120311, 45.2939193 ], [ -73.7798765, 45.3065728 ] ] ] } },
{ "type": "Feature", "properties": { "hex_id": 2444, "count": 12, "date": "2025-12-01", "n_files": 22, "pct": 54.55 }, "geometry": { "type": "Polygon", "coordinates": [ [ [ -73.7765183, 45.4624447 ], [ -73.7759559, 45.488423 ], [ -73.8076675, 45.5017505 ], [ -73.8399279, 45.4890906 ], [ -73.8404609, 45.4631118 ], [ -73.8087629, 45.4497934 ], [ -73.7765183, 45.4624447 ] ] ] } },
{ "type": "Feature", "properties": { "hex_id": 2449, "count": 1, "date": "2025-12-01", "n_files": 22, "pct": 4.55 }, "geometry": { "type": "Polygon", "coordinates": [ [ [ -73.7680015, 45.852105 ], [ -73.7674275, 45.8780813 ], [ -73.7993561, 45.8914125 ], [ -73.8318449, 45.8787581 ], [ -73.8323889, 45.8527811 ], [ -73.8004742, 45.8394592 ], [ -73.7680015, 45.852105 ] ] ] } },
{ "type": "Feature", "properties": { "hex_id": 2505, "count": 1, "date": "2025-12-01", "n_files": 22, "pct": 4.55 }, "geometry": { "type": "Polygon", "coordinates": [ [ [ -73.7505597, 45.1893223 ], [ -73.7499909, 45.2153015 ], [ -73.7815453, 45.2286352 ], [ -73.8136552, 45.2159806 ], [ -73.8141951, 45.1900008 ], [ -73.782654, 45.1766762 ], [ -73.7505597, 45.1893223 ] ] ] } },
{ "type": "Feature", "properties": { "hex_id": 2506, "count": 1, "date": "2025-12-01", "n_files": 22, "pct": 4.55 }, "geometry": { "type": "Polygon", "coordinates": [ [ [ -73.7488508, 45.2672595 ], [ -73.7482796, 45.2932384 ], [ -73.7798765, 45.3065728 ], [ -73.8120311, 45.2939193 ], [ -73.8125732, 45.2679399 ], [ -73.7809898, 45.2546145 ], [ -73.7488508, 45.2672595 ] ] ] } },
{ "type": "Feature", "properties": { "hex_id": 2507, "count": 1, "date": "2025-12-01", "n_files": 22, "pct": 4.55 }, "geometry": { "type": "Polygon", "coordinates": [ [ [ -73.7471349, 45.3451957 ], [ -73.7465614, 45.3711741 ], [ -73.7782008, 45.3845093 ], [ -73.8104003, 45.371857 ], [ -73.810944600000013, 45.3458779 ], [ -73.7793187, 45.3325518 ], [ -73.7471349, 45.3451957 ] ] ] } },
{ "type": "Feature", "properties": { "hex_id": 2508, "count": 1, "date": "2025-12-01", "n_files": 22, "pct": 4.55 }, "geometry": { "type": "Polygon", "coordinates": [ [ [ -73.745412, 45.4231307 ], [ -73.7448361, 45.4491088 ], [ -73.7765183, 45.4624447 ], [ -73.8087629, 45.4497934 ], [ -73.8093094, 45.4238147 ], [ -73.7776408, 45.4104879 ], [ -73.745412, 45.4231307 ] ] ] } },
{ "type": "Feature", "properties": { "hex_id": 2513, "count": 1, "date": "2025-12-01", "n_files": 22, "pct": 4.55 }, "geometry": { "type": "Polygon", "coordinates": [ [ [ -73.7366907, 45.812789 ], [ -73.7361029, 45.8387652 ], [ -73.7680015, 45.852105 ], [ -73.8004742, 45.8394592 ], [ -73.8010321, 45.8134823 ], [ -73.7691472, 45.8001519 ], [ -73.7366907, 45.812789 ] ] ] } },
{ "type": "Feature", "properties": { "hex_id": 2514, "count": 1, "date": "2025-12-01", "n_files": 22, "pct": 4.55 }, "geometry": { "type": "Polygon", "coordinates": [ [ [ -73.7349249, 45.8907173 ], [ -73.7343346, 45.9166931 ], [ -73.7662771, 45.9300336 ], [ -73.7987959, 45.917389 ], [ -73.7993561, 45.8914125 ], [ -73.7674275, 45.8780813 ], [ -73.7349249, 45.8907173 ] ] ] } },
{ "type": "Feature", "properties": { "hex_id": 2568, "count": 1, "date": "2025-12-01", "n_files": 22, "pct": 4.55 }, "geometry": { "type": "Polygon", "coordinates": [ [ [ -73.7196164, 45.1500012 ], [ -73.7190342, 45.1759802 ], [ -73.7505597, 45.1893223 ], [ -73.782654, 45.1766762 ], [ -73.7832073, 45.1506965 ], [ -73.7516951, 45.1373635 ], [ -73.7196164, 45.1500012 ] ] ] } },
{ "type": "Feature", "properties": { "hex_id": 2569, "count": 1, "date": "2025-12-01", "n_files": 22, "pct": 4.55 }, "geometry": { "type": "Polygon", "coordinates": [ [ [ -73.7178676, 45.227938 ], [ -73.717283, 45.2539167 ], [ -73.7488508, 45.2672595 ], [ -73.7809898, 45.2546145 ], [ -73.7815453, 45.2286352 ], [ -73.7499909, 45.2153015 ], [ -73.7178676, 45.227938 ] ] ] } },
{ "type": "Feature", "properties": { "hex_id": 2570, "count": 1, "date": "2025-12-01", "n_files": 22, "pct": 4.55 }, "geometry": { "type": "Polygon", "coordinates": [ [ [ -73.7161116, 45.3058738 ], [ -73.7155247, 45.3318521 ], [ -73.7471349, 45.3451957 ], [ -73.7793187, 45.3325518 ], [ -73.7798765, 45.3065728 ], [ -73.7482796, 45.2932384 ], [ -73.7161116, 45.3058738 ] ] ] } },
{ "type": "Feature", "properties": { "hex_id": 2571, "count": 1, "date": "2025-12-01", "n_files": 22, "pct": 4.55 }, "geometry": { "type": "Polygon", "coordinates": [ [ [ -73.7143484, 45.3838084 ], [ -73.7137591, 45.4097863 ], [ -73.745412, 45.4231307 ], [ -73.7776408, 45.4104879 ], [ -73.7782008, 45.3845093 ], [ -73.7465614, 45.3711741 ], [ -73.7143484, 45.3838084 ] ] ] } },
{ "type": "Feature", "properties": { "hex_id": 2577, "count": 1, "date": "2025-12-01", "n_files": 22, "pct": 4.55 }, "geometry": { "type": "Polygon", "coordinates": [ [ [ -73.7036165, 45.8513925 ], [ -73.7030125, 45.8773682 ], [ -73.7349249, 45.8907173 ], [ -73.7674275, 45.8780813 ], [ -73.7680015, 45.852105 ], [ -73.7361029, 45.8387652 ], [ -73.7036165, 45.8513925 ] ] ] } },
{ "type": "Feature", "properties": { "hex_id": 2633, "count": 1, "date": "2025-12-01", "n_files": 22, "pct": 4.55 }, "geometry": { "type": "Polygon", "coordinates": [ [ [ -73.6869266, 45.1886083 ], [ -73.6863288, 45.2145869 ], [ -73.7178676, 45.227938 ], [ -73.7499909, 45.2153015 ], [ -73.7505597, 45.1893223 ], [ -73.7190342, 45.1759802 ], [ -73.6869266, 45.1886083 ] ] ] } },
{ "type": "Feature", "properties": { "hex_id": 2634, "count": 1, "date": "2025-12-01", "n_files": 22, "pct": 4.55 }, "geometry": { "type": "Polygon", "coordinates": [ [ [ -73.6851308, 45.2665436 ], [ -73.6845305, 45.292521799999989 ], [ -73.7161116, 45.3058738 ], [ -73.7482796, 45.2932384 ], [ -73.7488508, 45.2672595 ], [ -73.717283, 45.2539167 ], [ -73.6851308, 45.2665436 ] ] ] } },
{ "type": "Feature", "properties": { "hex_id": 2635, "count": 1, "date": "2025-12-01", "n_files": 22, "pct": 4.55 }, "geometry": { "type": "Polygon", "coordinates": [ [ [ -73.6833275, 45.3444778 ], [ -73.6827248, 45.3704556 ], [ -73.7143484, 45.3838084 ], [ -73.7465614, 45.3711741 ], [ -73.7471349, 45.3451957 ], [ -73.7155247, 45.3318521 ], [ -73.6833275, 45.3444778 ] ] ] } },
{ "type": "Feature", "properties": { "hex_id": 2696, "count": 3, "date": "2025-12-01", "n_files": 22, "pct": 13.64 }, "geometry": { "type": "Polygon", "coordinates": [ [ [ -73.6560279, 45.1492704 ], [ -73.6554168, 45.1752489 ], [ -73.6869266, 45.1886083 ], [ -73.7190342, 45.1759802 ], [ -73.7196164, 45.1500012 ], [ -73.6881198, 45.1366508 ], [ -73.6560279, 45.1492704 ] ] ] } },
{ "type": "Feature", "properties": { "hex_id": 2697, "count": 1, "date": "2025-12-01", "n_files": 22, "pct": 4.55 }, "geometry": { "type": "Polygon", "coordinates": [ [ [ -73.6541923, 45.2272053 ], [ -73.6535787, 45.2531834 ], [ -73.6851308, 45.2665436 ], [ -73.717283, 45.2539167 ], [ -73.7178676, 45.227938 ], [ -73.6863288, 45.2145869 ], [ -73.6541923, 45.2272053 ] ] ] } },
{ "type": "Feature", "properties": { "hex_id": 2698, "count": 1, "date": "2025-12-01", "n_files": 22, "pct": 4.55 }, "geometry": { "type": "Polygon", "coordinates": [ [ [ -73.6523491, 45.3051391 ], [ -73.6517331, 45.3311168 ], [ -73.6833275, 45.3444778 ], [ -73.7155247, 45.3318521 ], [ -73.7161116, 45.3058738 ], [ -73.6845305, 45.292521799999989 ], [ -73.6523491, 45.3051391 ] ] ] } },
{ "type": "Feature", "properties": { "hex_id": 2699, "count": 1, "date": "2025-12-01", "n_files": 22, "pct": 4.55 }, "geometry": { "type": "Polygon", "coordinates": [ [ [ -73.6504985, 45.3830717 ], [ -73.6498799, 45.409049 ], [ -73.6815169, 45.4224109 ], [ -73.7137591, 45.4097863 ], [ -73.7143484, 45.3838084 ], [ -73.6827248, 45.3704556 ], [ -73.6504985, 45.3830717 ] ] ] } },
{ "type": "Feature", "properties": { "hex_id": 2703, "count": 2, "date": "2025-12-01", "n_files": 22, "pct": 9.09 }, "geometry": { "type": "Polygon", "coordinates": [ [ [ -73.6430196, 45.694791 ], [ -73.6423908, 45.7207668 ], [ -73.6741999, 45.734132 ], [ -73.7066241, 45.7215121 ], [ -73.7072232, 45.6955356 ], [ -73.6754277, 45.6821797 ], [ -73.6430196, 45.694791 ] ] ] } },
{ "type": "Feature", "properties": { "hex_id": 2705, "count": 1, "date": "2025-12-01", "n_files": 22, "pct": 4.55 }, "geometry": { "type": "Polygon", "coordinates": [ [ [ -73.6392339, 45.8506438 ], [ -73.6385999, 45.8766189 ], [ -73.6704961, 45.8899857 ], [ -73.7030125, 45.8773682 ], [ -73.7036165, 45.8513925 ], [ -73.6717341, 45.838035 ], [ -73.6392339, 45.8506438 ] ] ] } },
{ "type": "Feature", "properties": { "hex_id": 2761, "count": 3, "date": "2025-12-01", "n_files": 22, "pct": 13.64 }, "geometry": { "type": "Polygon", "coordinates": [ [ [ -73.623296, 45.1878589 ], [ -73.6226692, 45.2138368 ], [ -73.6541923, 45.2272053 ], [ -73.6863288, 45.2145869 ], [ -73.6869266, 45.1886083 ], [ -73.6554168, 45.1752489 ], [ -73.623296, 45.1878589 ] ] ] } },
{ "type": "Feature", "properties": { "hex_id": 2762, "count": 1, "date": "2025-12-01", "n_files": 22, "pct": 4.55 }, "geometry": { "type": "Polygon", "coordinates": [ [ [ -73.6214131, 45.2657922 ], [ -73.6207838, 45.2917697 ], [ -73.6523491, 45.3051391 ], [ -73.6845305, 45.292521799999989 ], [ -73.6851308, 45.2665436 ], [ -73.6535787, 45.2531834 ], [ -73.6214131, 45.2657922 ] ] ] } },
{ "type": "Feature", "properties": { "hex_id": 2763, "count": 1, "date": "2025-12-01", "n_files": 22, "pct": 4.55 }, "geometry": { "type": "Polygon", "coordinates": [ [ [ -73.6195226, 45.3437244 ], [ -73.6188907, 45.3697015 ], [ -73.6504985, 45.3830717 ], [ -73.6827248, 45.3704556 ], [ -73.6833275, 45.3444778 ], [ -73.6517331, 45.3311168 ], [ -73.6195226, 45.3437244 ] ] ] } },
{ "type": "Feature", "properties": { "hex_id": 2773, "count": 2, "date": "2025-12-01", "n_files": 22, "pct": 9.09 }, "geometry": { "type": "Polygon", "coordinates": [ [ [ -73.6001848, 46.1229838 ], [ -73.5995264, 46.1489572 ], [ -73.6315684, 46.162336 ], [ -73.6642549, 46.149732 ], [ -73.6648828, 46.1237579 ], [ -73.6328548, 46.1103886 ], [ -73.6001848, 46.1229838 ] ] ] } },
{ "type": "Feature", "properties": { "hex_id": 2826, "count": 1, "date": "2025-12-01", "n_files": 22, "pct": 4.55 }, "geometry": { "type": "Polygon", "coordinates": [ [ [ -73.5885892, 45.3043688 ], [ -73.587944, 45.3303458 ], [ -73.6195226, 45.3437244 ], [ -73.6517331, 45.3311168 ], [ -73.6523491, 45.3051391 ], [ -73.6207838, 45.2917697 ], [ -73.5885892, 45.3043688 ] ] ] } },
{ "type": "Feature", "properties": { "hex_id": 2837, "count": 2, "date": "2025-12-01", "n_files": 22, "pct": 9.09 }, "geometry": { "type": "Polygon", "coordinates": [ [ [ -73.566826, 46.1615425 ], [ -73.566151, 46.1875153 ], [ -73.5982069, 46.2009035 ], [ -73.6309238, 46.1883095 ], [ -73.6315684, 46.162336 ], [ -73.5995264, 46.1489572 ], [ -73.566826, 46.1615425 ] ] ] } },
{ "type": "Feature", "properties": { "hex_id": 2901, "count": 2, "date": "2025-12-01", "n_files": 22, "pct": 9.09 }, "geometry": { "type": "Polygon", "coordinates": [ [ [ -73.5354895, 46.1221731 ], [ -73.5348007, 46.1481457 ], [ -73.566826, 46.1615425 ], [ -73.5995264, 46.1489572 ], [ -73.6001848, 46.1229838 ], [ -73.5681732, 46.1095965 ], [ -73.5354895, 46.1221731 ] ] ] } },
{ "type": "Feature", "properties": { "hex_id": 3088, "count": 6, "date": "2025-12-01", "n_files": 22, "pct": 27.27 }, "geometry": { "type": "Polygon", "coordinates": [ [ [ -73.4482681, 45.770261 ], [ -73.4475471, 45.7962342 ], [ -73.4793507, 45.8096534 ], [ -73.5118617, 45.7970901 ], [ -73.5125528, 45.7711161 ], [ -73.4807627, 45.7577062 ], [ -73.4482681, 45.770261 ] ] ] } },
{ "type": "Feature", "properties": { "hex_id": 3152, "count": 6, "date": "2025-12-01", "n_files": 22, "pct": 27.27 }, "geometry": { "type": "Polygon", "coordinates": [ [ [ -73.4172286, 45.7308604 ], [ -73.4164943, 45.7568334 ], [ -73.4482681, 45.770261 ], [ -73.4807627, 45.7577062 ], [ -73.4814672, 45.7317324 ], [ -73.4497069, 45.7183142 ], [ -73.4172286, 45.7308604 ] ] ] } },
{ "type": "Feature", "properties": { "hex_id": 3287, "count": 7, "date": "2025-12-01", "n_files": 22, "pct": 31.82 }, "geometry": { "type": "Polygon", "coordinates": [ [ [ -73.336725, 46.2753409 ], [ -73.3359385, 46.3013103 ], [ -73.3680022, 46.314763 ], [ -73.4008386, 46.3022367 ], [ -73.4015944, 46.2762664 ], [ -73.3695444, 46.2628232 ], [ -73.336725, 46.2753409 ] ] ] } },
{ "type": "Feature", "properties": { "hex_id": 3340, "count": 4, "date": "2025-12-01", "n_files": 22, "pct": 18.18 }, "geometry": { "type": "Polygon", "coordinates": [ [ [ -73.3289916, 45.4567734 ], [ -73.328223800000018, 45.4827465 ], [ -73.359823, 45.4961969 ], [ -73.392177, 45.4836648 ], [ -73.3929156, 45.4576909 ], [ -73.3613294, 45.4442498 ], [ -73.3289916, 45.4567734 ] ] ] } },
{ "type": "Feature", "properties": { "hex_id": 3405, "count": 8, "date": "2025-12-01", "n_files": 22, "pct": 36.36 }, "geometry": { "type": "Polygon", "coordinates": [ [ [ -73.2958566, 45.4952602 ], [ -73.2950725, 45.5212327 ], [ -73.3266849, 45.5346923 ], [ -73.3590683, 45.5221702 ], [ -73.359823, 45.4961969 ], [ -73.328223800000018, 45.4827465 ], [ -73.2958566, 45.4952602 ] ] ] } },
{ "type": "Feature", "properties": { "hex_id": 3468, "count": 8, "date": "2025-12-01", "n_files": 22, "pct": 36.36 }, "geometry": { "type": "Polygon", "coordinates": [ [ [ -73.2650709, 45.4558202 ], [ -73.2642736, 45.4817924 ], [ -73.2958566, 45.4952602 ], [ -73.328223800000018, 45.4827465 ], [ -73.3289916, 45.4567734 ], [ -73.2974217, 45.4433149 ], [ -73.2650709, 45.4558202 ] ] ] } },
{ "type": "Feature", "properties": { "hex_id": 3533, "count": 8, "date": "2025-12-01", "n_files": 22, "pct": 36.36 }, "geometry": { "type": "Polygon", "coordinates": [ [ [ -73.2318934, 45.4942878 ], [ -73.2310799, 45.5202594 ], [ -73.262676, 45.5337365 ], [ -73.2950725, 45.5212327 ], [ -73.2958566, 45.4952602 ], [ -73.2642736, 45.4817924 ], [ -73.2318934, 45.4942878 ] ] ] } },
{ "type": "Feature", "properties": { "hex_id": 3593, "count": 2, "date": "2025-12-01", "n_files": 22, "pct": 9.09 }, "geometry": { "type": "Polygon", "coordinates": [ [ [ -73.208541700000012, 45.2210831 ], [ -73.2077253, 45.2470556 ], [ -73.2391656, 45.2605374 ], [ -73.2714095, 45.248037499999988 ], [ -73.272197, 45.2220641 ], [ -73.2407696, 45.2085915 ], [ -73.208541700000012, 45.2210831 ] ] ] } },
{ "type": "Feature", "properties": { "hex_id": 3975, "count": 3, "date": "2025-12-01", "n_files": 22, "pct": 13.64 }, "geometry": { "type": "Polygon", "coordinates": [ [ [ -73.0229907, 45.0621064 ], [ -73.022094600000017, 45.0880769 ], [ -73.0534033, 45.101608 ], [ -73.0855954, 45.0891594 ], [ -73.0864627, 45.0631879 ], [ -73.0551666, 45.049666 ], [ -73.0229907, 45.0621064 ] ] ] } },
{ "type": "Feature", "properties": { "hex_id": 4040, "count": 3, "date": "2025-12-01", "n_files": 22, "pct": 13.64 }, "geometry": { "type": "Polygon", "coordinates": [ [ [ -72.98989, 45.1005073 ], [ -72.9889777, 45.1264771 ], [ -73.0202989, 45.1400174 ], [ -73.0525198, 45.1275788 ], [ -73.0534033, 45.101608 ], [ -73.022094600000017, 45.0880769 ], [ -72.98989, 45.1005073 ] ] ] } },
{ "type": "Feature", "properties": { "hex_id": 4103, "count": 3, "date": "2025-12-01", "n_files": 22, "pct": 13.64 }, "geometry": { "type": "Polygon", "coordinates": [ [ [ -72.9595223, 45.0609896 ], [ -72.9585975, 45.0869591 ], [ -72.98989, 45.1005073 ], [ -73.022094600000017, 45.0880769 ], [ -73.0229907, 45.0621064 ], [ -72.9917107, 45.0485674 ], [ -72.9595223, 45.0609896 ] ] ] } },
{ "type": "Feature", "properties": { "hex_id": 4104, "count": 3, "date": "2025-12-01", "n_files": 22, "pct": 13.64 }, "geometry": { "type": "Polygon", "coordinates": [ [ [ -72.9567443, 45.1388977 ], [ -72.9558158, 45.1648667 ], [ -72.9871495, 45.1784163 ], [ -73.0193993, 45.1659875 ], [ -73.0202989, 45.1400174 ], [ -72.9889777, 45.1264771 ], [ -72.9567443, 45.1388977 ] ] ] } },
{ "type": "Feature", "properties": { "hex_id": 4168, "count": 3, "date": "2025-12-01", "n_files": 22, "pct": 13.64 }, "geometry": { "type": "Polygon", "coordinates": [ [ [ -72.9263804, 45.0993714 ], [ -72.9254393, 45.125340199999989 ], [ -72.9567443, 45.1388977 ], [ -72.9889777, 45.1264771 ], [ -72.98989, 45.1005073 ], [ -72.9585975, 45.0869591 ], [ -72.9263804, 45.0993714 ] ] ] } },
{ "type": "Feature", "properties": { "hex_id": 4569, "count": 1, "date": "2025-12-01", "n_files": 22, "pct": 4.55 }, "geometry": { "type": "Polygon", "coordinates": [ [ [ -72.6816529, 46.4198171 ], [ -72.6805514, 46.4457755 ], [ -72.7125302, 46.4594103 ], [ -72.7455975, 46.4470769 ], [ -72.7466682, 46.4211172 ], [ -72.7147025, 46.4074922 ], [ -72.6816529, 46.4198171 ] ] ] } },
{ "type": "Feature", "properties": { "hex_id": 4632, "count": 1, "date": "2025-12-01", "n_files": 22, "pct": 4.55 }, "geometry": { "type": "Polygon", "coordinates": [ [ [ -72.6508196, 46.3802161 ], [ -72.6497049, 46.4061741 ], [ -72.6816529, 46.4198171 ], [ -72.7147025, 46.4074922 ], [ -72.7157865, 46.3815329 ], [ -72.6838516, 46.3678997 ], [ -72.6508196, 46.3802161 ] ] ] } },
{ "type": "Feature", "properties": { "hex_id": 4681, "count": 2, "date": "2025-12-01", "n_files": 22, "pct": 9.09 }, "geometry": { "type": "Polygon", "coordinates": [ [ [ -72.669209, 45.1723675 ], [ -72.6681486, 45.1983314 ], [ -72.699429, 45.2119589 ], [ -72.7317574, 45.1996131 ], [ -72.7327889, 45.173648 ], [ -72.7015208, 45.1600298 ], [ -72.669209, 45.1723675 ] ] ] } },
{ "type": "Feature", "properties": { "hex_id": 4701, "count": 6, "date": "2025-12-01", "n_files": 22, "pct": 27.27 }, "geometry": { "type": "Polygon", "coordinates": [ [ [ -72.6029495, 46.729958 ], [ -72.6017981, 46.7559136 ], [ -72.6339365, 46.7695727 ], [ -72.6672129, 46.7572664 ], [ -72.6683329, 46.7313096 ], [ -72.6362078, 46.7176603 ], [ -72.6029495, 46.729958 ] ] ] } },
{ "type": "Feature", "properties": { "hex_id": 4744, "count": 2, "date": "2025-12-01", "n_files": 22, "pct": 9.09 }, "geometry": { "type": "Polygon", "coordinates": [ [ [ -72.63903, 45.1327687 ], [ -72.6379574, 45.1587322 ], [ -72.669209, 45.1723675 ], [ -72.7015208, 45.1600298 ], [ -72.7025646, 45.1340651 ], [ -72.6713253, 45.1204392 ], [ -72.63903, 45.1327687 ] ] ] } },
{ "type": "Feature", "properties": { "hex_id": 4745, "count": 5, "date": "2025-12-01", "n_files": 22, "pct": 22.73 }, "geometry": { "type": "Polygon", "coordinates": [ [ [ -72.6358079, 45.2106589 ], [ -72.6347309, 45.236622 ], [ -72.6660236, 45.2502588 ], [ -72.6983809, 45.2379232 ], [ -72.699429, 45.2119589 ], [ -72.6681486, 45.1983314 ], [ -72.6358079, 45.2106589 ] ] ] } },
{ "type": "Feature", "properties": { "hex_id": 4809, "count": 5, "date": "2025-12-01", "n_files": 22, "pct": 22.73 }, "geometry": { "type": "Polygon", "coordinates": [ [ [ -72.6056333, 45.1710516 ], [ -72.6045441, 45.1970143 ], [ -72.6358079, 45.2106589 ], [ -72.6681486, 45.1983314 ], [ -72.669209, 45.1723675 ], [ -72.6379574, 45.1587322 ], [ -72.6056333, 45.1710516 ] ] ] } },
{ "type": "Feature", "properties": { "hex_id": 4872, "count": 2, "date": "2025-12-01", "n_files": 22, "pct": 9.09 }, "geometry": { "type": "Polygon", "coordinates": [ [ [ -72.5754998, 45.1314369 ], [ -72.5743984, 45.1573993 ], [ -72.6056333, 45.1710516 ], [ -72.6379574, 45.1587322 ], [ -72.63903, 45.1327687 ], [ -72.6078073, 45.1191257 ], [ -72.5754998, 45.1314369 ] ] ] } },
{ "type": "Feature", "properties": { "hex_id": 4873, "count": 5, "date": "2025-12-01", "n_files": 22, "pct": 22.73 }, "geometry": { "type": "Polygon", "coordinates": [ [ [ -72.5721912, 45.209323499999989 ], [ -72.5710853, 45.235285499999989 ], [ -72.6023613, 45.2489394 ], [ -72.6347309, 45.236622 ], [ -72.6358079, 45.2106589 ], [ -72.6045441, 45.1970143 ], [ -72.5721912, 45.209323499999989 ] ] ] } },
{ "type": "Feature", "properties": { "hex_id": 5079, "count": 1, "date": "2025-12-01", "n_files": 22, "pct": 4.55 }, "geometry": { "type": "Polygon", "coordinates": [ [ [ -72.4289522, 46.2585235 ], [ -72.4277374, 46.2844778 ], [ -72.4595579, 46.2981805 ], [ -72.4925804, 46.2859191 ], [ -72.4937646, 46.2599635 ], [ -72.4619569, 46.2462706 ], [ -72.4289522, 46.2585235 ] ] ] } },
{ "type": "Feature", "properties": { "hex_id": 5257, "count": 6, "date": "2025-12-01", "n_files": 22, "pct": 27.27 }, "geometry": { "type": "Polygon", "coordinates": [ [ [ -72.3813685, 45.2051051 ], [ -72.380176, 45.2310632 ], [ -72.4114016, 45.2447684 ], [ -72.4438077, 45.2325061 ], [ -72.4449714, 45.2065466 ], [ -72.4137578, 45.1928508 ], [ -72.3813685, 45.2051051 ] ] ] } },
{ "type": "Feature", "properties": { "hex_id": 5322, "count": 6, "date": "2025-12-01", "n_files": 22, "pct": 27.27 }, "geometry": { "type": "Polygon", "coordinates": [ [ [ -72.3477578, 45.2433072 ], [ -72.3465483, 45.2692645 ], [ -72.377786, 45.2829791 ], [ -72.410221, 45.270727 ], [ -72.4114016, 45.2447684 ], [ -72.380176, 45.2310632 ], [ -72.3477578, 45.2433072 ] ] ] } },
{ "type": "Feature", "properties": { "hex_id": 5384, "count": 3, "date": "2025-12-01", "n_files": 22, "pct": 13.64 }, "geometry": { "type": "Polygon", "coordinates": [ [ [ -72.321425, 45.1257569 ], [ -72.3202085, 45.1517141 ], [ -72.3513764, 45.1654346 ], [ -72.3837488, 45.1531884 ], [ -72.3849365, 45.1272298 ], [ -72.3537806, 45.1135187 ], [ -72.321425, 45.1257569 ] ] ] } },
{ "type": "Feature", "properties": { "hex_id": 5449, "count": 3, "date": "2025-12-01", "n_files": 22, "pct": 13.64 }, "geometry": { "type": "Polygon", "coordinates": [ [ [ -72.2878241, 45.163942 ], [ -72.2865908, 45.1898983 ], [ -72.3177706, 45.2036282 ], [ -72.3501718, 45.1913923 ], [ -72.3513764, 45.1654346 ], [ -72.3202085, 45.1517141 ], [ -72.2878241, 45.163942 ] ] ] } },
{ "type": "Feature", "properties": { "hex_id": 6419, "count": 2, "date": "2025-12-01", "n_files": 22, "pct": 9.09 }, "geometry": { "type": "Polygon", "coordinates": [ [ [ -71.764738, 45.968823 ], [ -71.7632251, 45.9947634 ], [ -71.7947078, 46.0086432 ], [ -71.8276914, 45.996572799999988 ], [ -71.8291743, 45.9706309 ], [ -71.7977035, 45.9567608 ], [ -71.764738, 45.968823 ] ] ] } },
{ "type": "Feature", "properties": { "hex_id": 6452, "count": 2, "date": "2025-12-01", "n_files": 22, "pct": 9.09 }, "geometry": { "type": "Polygon", "coordinates": [ [ [ -71.6043022, 48.5361451 ], [ -71.6025652, 48.5620696 ], [ -71.6355295, 48.5760265 ], [ -71.6702172, 48.5640481 ], [ -71.6719198, 48.5381219 ], [ -71.6389691, 48.5241757 ], [ -71.6043022, 48.5361451 ] ] ] } },
{ "type": "Feature", "properties": { "hex_id": 6459, "count": 9, "date": "2025-12-01", "n_files": 22, "pct": 40.91 }, "geometry": { "type": "Polygon", "coordinates": [ [ [ -71.5673003, 49.0805245 ], [ -71.5655105, 49.1064455 ], [ -71.5988157, 49.1204198 ], [ -71.6338969, 49.1084621 ], [ -71.6356513, 49.0825393 ], [ -71.60236, 49.0685759 ], [ -71.5673003, 49.0805245 ] ] ] } },
{ "type": "Feature", "properties": { "hex_id": 6484, "count": 2, "date": "2025-12-01", "n_files": 22, "pct": 9.09 }, "geometry": { "type": "Polygon", "coordinates": [ [ [ -71.7302295, 46.0068147 ], [ -71.7286985, 46.032754 ], [ -71.7601931, 46.0466436 ], [ -71.7932068, 46.0345841 ], [ -71.7947078, 46.0086432 ], [ -71.7632251, 45.9947634 ], [ -71.7302295, 46.0068147 ] ] ] } },
{ "type": "Feature", "properties": { "hex_id": 6524, "count": 9, "date": "2025-12-01", "n_files": 22, "pct": 40.91 }, "geometry": { "type": "Polygon", "coordinates": [ [ [ -71.5304154, 49.118382 ], [ -71.5286039, 49.1443019 ], [ -71.5619231, 49.158287 ], [ -71.5970398, 49.1463415 ], [ -71.5988157, 49.1204198 ], [ -71.5655105, 49.1064455 ], [ -71.5304154, 49.118382 ] ] ] } },
{ "type": "Feature", "properties": { "hex_id": 6547, "count": 2, "date": "2025-12-01", "n_files": 22, "pct": 9.09 }, "geometry": { "type": "Polygon", "coordinates": [ [ [ -71.7003078, 45.9669789 ], [ -71.6987649, 45.9929176 ], [ -71.7302295, 46.0068147 ], [ -71.7632251, 45.9947634 ], [ -71.764738, 45.968823 ], [ -71.7332852, 45.9549357 ], [ -71.7003078, 45.9669789 ] ] ] } },
{ "type": "Feature", "properties": { "hex_id": 6587, "count": 9, "date": "2025-12-01", "n_files": 22, "pct": 40.91 }, "geometry": { "type": "Polygon", "coordinates": [ [ [ -71.4989571, 49.0784693 ], [ -71.4971318, 49.1043885 ], [ -71.5304154, 49.118382 ], [ -71.5655105, 49.1064455 ], [ -71.5673003, 49.0805245 ], [ -71.5340305, 49.0665419 ], [ -71.4989571, 49.0784693 ] ] ] } },
{ "type": "Feature", "properties": { "hex_id": 6588, "count": 9, "date": "2025-12-01", "n_files": 22, "pct": 40.91 }, "geometry": { "type": "Polygon", "coordinates": [ [ [ -71.4934733, 49.1562263 ], [ -71.4916401, 49.1821449 ], [ -71.5249732, 49.196141 ], [ -71.5601255, 49.1842076 ], [ -71.5619231, 49.158287 ], [ -71.5286039, 49.1443019 ], [ -71.4934733, 49.1562263 ] ] ] } },
{ "type": "Feature", "properties": { "hex_id": 6612, "count": 2, "date": "2025-12-01", "n_files": 22, "pct": 9.09 }, "geometry": { "type": "Polygon", "coordinates": [ [ [ -71.6657575, 46.00495 ], [ -71.6641964, 46.0308876 ], [ -71.6956728, 46.0447945 ], [ -71.7286985, 46.032754 ], [ -71.7302295, 46.0068147 ], [ -71.6987649, 45.9929176 ], [ -71.6657575, 46.00495 ] ] ] } },
{ "type": "Feature", "properties": { "hex_id": 6652, "count": 9, "date": "2025-12-01", "n_files": 22, "pct": 40.91 }, "geometry": { "type": "Polygon", "coordinates": [ [ [ -71.4620228, 49.1163038 ], [ -71.4601758, 49.1422218 ], [ -71.4934733, 49.1562263 ], [ -71.5286039, 49.1443019 ], [ -71.5304154, 49.118382 ], [ -71.4971318, 49.1043885 ], [ -71.4620228, 49.1163038 ] ] ] } },
{ "type": "Feature", "properties": { "hex_id": 6902, "count": 3, "date": "2025-12-01", "n_files": 22, "pct": 13.64 }, "geometry": { "type": "Polygon", "coordinates": [ [ [ -71.3593209, 48.6455436 ], [ -71.3574516, 48.6714608 ], [ -71.390414, 48.6854878 ], [ -71.4252323, 48.6735868 ], [ -71.427067, 48.6476677 ], [ -71.394118, 48.6336515 ], [ -71.3593209, 48.6455436 ] ] ] } },
{ "type": "Feature", "properties": { "hex_id": 7134, "count": 1, "date": "2025-12-01", "n_files": 22, "pct": 4.55 }, "geometry": { "type": "Polygon", "coordinates": [ [ [ -71.3564796, 46.7749724 ], [ -71.3547275, 46.8008979 ], [ -71.386555, 46.8148992 ], [ -71.4201226, 46.8029647 ], [ -71.4218435, 46.7770373 ], [ -71.390028, 46.7630462 ], [ -71.3564796, 46.7749724 ] ] ] } },
{ "type": "Feature", "properties": { "hex_id": 7137, "count": 6, "date": "2025-12-01", "n_files": 22, "pct": 27.27 }, "geometry": { "type": "Polygon", "coordinates": [ [ [ -71.3406224, 47.0082962 ], [ -71.3388482, 47.0342203 ], [ -71.3708065, 47.0482292 ], [ -71.4045268, 47.0363039 ], [ -71.4062693, 47.010378 ], [ -71.3743232, 46.9963793 ], [ -71.3406224, 47.0082962 ] ] ] } },
{ "type": "Feature", "properties": { "hex_id": 7197, "count": 8, "date": "2025-12-01", "n_files": 22, "pct": 36.36 }, "geometry": { "type": "Polygon", "coordinates": [ [ [ -71.3264475, 46.7350387 ], [ -71.3246833, 46.7609636 ], [ -71.3564796, 46.7749724 ], [ -71.390028, 46.7630462 ], [ -71.3917609, 46.7371195 ], [ -71.3599766, 46.7231208 ], [ -71.3264475, 46.7350387 ] ] ] } },
{ "type": "Feature", "properties": { "hex_id": 7262, "count": 1, "date": "2025-12-01", "n_files": 22, "pct": 4.55 }, "geometry": { "type": "Polygon", "coordinates": [ [ [ -71.291123, 46.7728702 ], [ -71.2893396, 46.7987938 ], [ -71.3211478, 46.8128128 ], [ -71.3547275, 46.8008979 ], [ -71.3564796, 46.7749724 ], [ -71.3246833, 46.7609636 ], [ -71.291123, 46.7728702 ] ] ] } },
{ "type": "Feature", "properties": { "hex_id": 7926, "count": 3, "date": "2025-12-01", "n_files": 22, "pct": 13.64 }, "geometry": { "type": "Polygon", "coordinates": [ [ [ -70.8176513, 48.6271199 ], [ -70.8155057, 48.6530204 ], [ -70.8482956, 48.6671981 ], [ -70.8832184, 48.6554645 ], [ -70.8853295, 48.6295619 ], [ -70.8525523, 48.615395 ], [ -70.8176513, 48.6271199 ] ] ] } },
{ "type": "Feature", "properties": { "hex_id": 8054, "count": 3, "date": "2025-12-01", "n_files": 22, "pct": 13.64 }, "geometry": { "type": "Polygon", "coordinates": [ [ [ -70.7499822, 48.6246383 ], [ -70.7478022, 48.6505365 ], [ -70.7805702, 48.664733 ], [ -70.8155057, 48.6530204 ], [ -70.8176513, 48.6271199 ], [ -70.7848959, 48.6129343 ], [ -70.7499822, 48.6246383 ] ] ] } },
{ "type": "Feature", "properties": { "hex_id": 12157, "count": 2, "date": "2025-12-01", "n_files": 22, "pct": 9.09 }, "geometry": { "type": "Polygon", "coordinates": [ [ [ -68.5205583, 49.0662695 ], [ -68.5171868, 49.0920711 ], [ -68.5495334, 49.1068866 ], [ -68.5852415, 49.0958891 ], [ -68.5885783, 49.070084 ], [ -68.5562418, 49.05528 ], [ -68.5205583, 49.0662695 ] ] ] } },
{ "type": "Feature", "properties": { "hex_id": 12221, "count": 2, "date": "2025-12-01", "n_files": 22, "pct": 9.09 }, "geometry": { "type": "Polygon", "coordinates": [ [ [ -68.4814685, 49.1030469 ], [ -68.4780722, 49.1288464 ], [ -68.5104291, 49.1436734 ], [ -68.5461721, 49.1326895 ], [ -68.5495334, 49.1068866 ], [ -68.5171868, 49.0920711 ], [ -68.4814685, 49.1030469 ] ] ] } },
{ "type": "Feature", "properties": { "hex_id": 13496, "count": 3, "date": "2025-12-01", "n_files": 22, "pct": 13.64 }, "geometry": { "type": "Polygon", "coordinates": [ [ [ -67.8571577, 48.6759791 ], [ -67.8534933, 48.7017467 ], [ -67.8853827, 48.716728499999988 ], [ -67.9209274, 48.7059313 ], [ -67.9245579, 48.6801599 ], [ -67.8926777, 48.6651895 ], [ -67.8571577, 48.6759791 ] ] ] } },
{ "type": "Feature", "properties": { "hex_id": 13624, "count": 3, "date": "2025-12-01", "n_files": 22, "pct": 13.64 }, "geometry": { "type": "Polygon", "coordinates": [ [ [ -67.7897731, 48.6717592 ], [ -67.7860749, 48.697523 ], [ -67.8179395, 48.7125225 ], [ -67.8534933, 48.7017467 ], [ -67.8571577, 48.6759791 ], [ -67.8253022, 48.6609911 ], [ -67.7897731, 48.6717592 ] ] ] } }
]
}
