{
"type": "FeatureCollection",
"name": "daily_2026-05-04",
"crs": { "type": "name", "properties": { "name": "urn:ogc:def:crs:OGC:1.3:CRS84" } },
"features": [
{ "type": "Feature", "properties": { "hex_id": 636189, "centroid_lon": -72.920713087225153, "centroid_lat": 45.512151335413073, "occurrences_today": 6, "datetimes_today": "2026-05-04 00:01:28, 2026-05-04 00:31:32, 2026-05-04 00:46:47, 2026-05-04 01:01:27, 2026-05-04 01:16:37, 2026-05-04 01:36:27", "cumulative_total": 69.0 }, "geometry": { "type": "Polygon", "coordinates": [ [ [ -72.920904381938087, 45.506957962978724 ], [ -72.927205474907097, 45.509670952324235 ], [ -72.927014741661679, 45.514864343020484 ], [ -72.920521740285551, 45.517344702476514 ], [ -72.91422013808446, 45.514631338174496 ], [ -72.914412046474041, 45.509437989437302 ], [ -72.920904381938087, 45.506957962978724 ] ] ] } },
{ "type": "Feature", "properties": { "hex_id": 586737, "centroid_lon": -73.439634787218154, "centroid_lat": 45.497035355958289, "occurrences_today": 7, "datetimes_today": "2026-05-04 00:01:28, 2026-05-04 00:31:32, 2026-05-04 00:46:47, 2026-05-04 01:01:27, 2026-05-04 01:16:37, 2026-05-04 01:36:27, 2026-05-04 01:46:30", "cumulative_total": 136.0 }, "geometry": { "type": "Polygon", "coordinates": [ [ [ -73.439778279135226, 45.491840472750113 ], [ -73.446103398682595, 45.494525133361861 ], [ -73.445960474964494, 45.499720029733957 ], [ -73.439491256121215, 45.502230234067483 ], [ -73.433165607561293, 45.499545203410555 ], [ -73.433309706844071, 45.494350338529706 ], [ -73.439778279135226, 45.491840472750113 ] ] ] } },
{ "type": "Feature", "properties": { "hex_id": 514676, "centroid_lon": -74.199515471678083, "centroid_lat": 45.16188922878289, "occurrences_today": 2, "datetimes_today": "2026-05-04 00:01:28, 2026-05-04 00:31:32", "cumulative_total": 16.0 }, "geometry": { "type": "Polygon", "coordinates": [ [ [ -74.199588236444995, 45.156692617327195 ], [ -74.205912839839499, 45.159335330525707 ], [ -74.205840643351337, 45.164531947562999 ], [ -74.19944268711636, 45.167085835397806 ], [ -74.193117535241228, 45.164442763522594 ], [ -74.193190888075108, 45.159246162553067 ], [ -74.199588236444995, 45.156692617327195 ] ] ] } },
{ "type": "Feature", "properties": { "hex_id": 753611, "centroid_lon": -71.488581038650082, "centroid_lat": 48.688245716585634, "occurrences_today": 2, "datetimes_today": "2026-05-04 01:36:27, 2026-05-04 01:46:30", "cumulative_total": 27.0 }, "geometry": { "type": "Polygon", "coordinates": [ [ [ -71.4889418793137, 48.683061572749288 ], [ -71.49554206248574, 48.685860359737994 ], [ -71.495181863871579, 48.691044537702993 ], [ -71.488220095198344, 48.693429853731992 ], [ -71.481619372783697, 48.690630635792488 ], [ -71.481980958247419, 48.685446532846548 ], [ -71.4889418793137, 48.683061572749288 ] ] ] } },
{ "type": "Feature", "properties": { "hex_id": 1640017, "centroid_lon": -61.951137247277011, "centroid_lat": 47.370176600004896, "occurrences_today": 2, "datetimes_today": "2026-05-04 00:01:28, 2026-05-04 00:31:32", "cumulative_total": 18.0 }, "geometry": { "type": "Polygon", "coordinates": [ [ [ -61.952407447030168, 47.365115819117449 ], [ -61.958223593145199, 47.368393377355993 ], [ -61.956953804308348, 47.373454274587004 ], [ -61.949866701190345, 47.375237350432784 ], [ -61.944050490551142, 47.371959329177535 ], [ -61.945321447436854, 47.36689869514953 ], [ -61.952407447030168, 47.365115819117449 ] ] ] } },
{ "type": "Feature", "properties": { "hex_id": 505538, "centroid_lon": -74.291156079750976, "centroid_lat": 45.466518201471985, "occurrences_today": 1, "datetimes_today": "2026-05-04 00:01:28", "cumulative_total": 47.0 }, "geometry": { "type": "Polygon", "coordinates": [ [ [ -74.291221202432951, 45.461321758709929 ], [ -74.297583928635675, 45.463959487944003 ], [ -74.297519384598843, 45.469155935415273 ], [ -74.291090939288807, 45.471714639413065 ], [ -74.28472765222412, 45.469076548584596 ], [ -74.284793371325463, 45.463880115417226 ], [ -74.291221202432951, 45.461321758709929 ] ] ] } },
{ "type": "Feature", "properties": { "hex_id": 504927, "centroid_lon": -74.297648455055622, "centroid_lat": 45.458763035653064, "occurrences_today": 1, "datetimes_today": "2026-05-04 00:01:28", "cumulative_total": 22.0 }, "geometry": { "type": "Polygon", "coordinates": [ [ [ -74.297712963864583, 45.453566578542443 ], [ -74.304075129187567, 45.456203946342377 ], [ -74.304011198872288, 45.461400408096416 ], [ -74.297583928635675, 45.463959487944003 ], [ -74.291221202432951, 45.461321758709929 ], [ -74.29128630734067, 45.456125311126868 ], [ -74.297712963864583, 45.453566578542443 ] ] ] } },
{ "type": "Feature", "properties": { "hex_id": 984924, "centroid_lon": -69.045993919592561, "centroid_lat": 47.550734737642472, "occurrences_today": 2, "datetimes_today": "2026-05-04 01:36:27, 2026-05-04 01:46:30", "cumulative_total": 7.0 }, "geometry": { "type": "Polygon", "coordinates": [ [ [ -69.046581160215382, 47.545567858664093 ], [ -69.052896729027253, 47.548495430405652 ], [ -69.052310049045246, 47.553662366191794 ], [ -69.045406515071576, 47.555901606427497 ], [ -69.039090549545861, 47.55297360137849 ], [ -69.039678514650049, 47.547806789468083 ], [ -69.046581160215382, 47.545567858664093 ] ] ] } },
{ "type": "Feature", "properties": { "hex_id": 985534, "centroid_lon": -69.040266315708379, "centroid_lat": 47.542639967353281, "occurrences_today": 2, "datetimes_today": "2026-05-04 01:36:27, 2026-05-04 01:46:30", "cumulative_total": 4.0 }, "geometry": { "type": "Polygon", "coordinates": [ [ [ -69.040853952778519, 47.537473135036052 ], [ -69.047168236997635, 47.540400969494328 ], [ -69.046581160215382, 47.545567858664093 ], [ -69.039678514650049, 47.547806789468083 ], [ -69.033363834160085, 47.544878521778735 ], [ -69.033952195448663, 47.539711756583301 ], [ -69.040853952778519, 47.537473135036052 ] ] ] } },
{ "type": "Feature", "properties": { "hex_id": 986145, "centroid_lon": -69.03277530867804, "centroid_lat": 47.550045276758702, "occurrences_today": 2, "datetimes_today": "2026-05-04 01:36:27, 2026-05-04 01:46:30", "cumulative_total": 7.0 }, "geometry": { "type": "Polygon", "coordinates": [ [ [ -69.033363834160085, 47.544878521778735 ], [ -69.039678514650049, 47.547806789468083 ], [ -69.039090549545861, 47.55297360137849 ], [ -69.032186618944806, 47.555212021521243 ], [ -69.025871542357024, 47.55228332044355 ], [ -69.026460792410376, 47.547116632678296 ], [ -69.033363834160085, 47.544878521778735 ] ] ] } },
{ "type": "Feature", "properties": { "hex_id": 986756, "centroid_lon": -69.025282127847106, "centroid_lat": 47.557449997978296, "occurrences_today": 2, "datetimes_today": "2026-05-04 01:36:27, 2026-05-04 01:46:30", "cumulative_total": 7.0 }, "geometry": { "type": "Polygon", "coordinates": [ [ [ -69.025871542357024, 47.55228332044355 ], [ -69.032186618944806, 47.555212021521243 ], [ -69.031597764902628, 47.560378756064331 ], [ -69.024692548822784, 47.56261666528053 ], [ -69.018377076310585, 47.559687530657214 ], [ -69.018967215744823, 47.554520920430193 ], [ -69.025871542357024, 47.55228332044355 ] ] ] } },
{ "type": "Feature", "properties": { "hex_id": 987366, "centroid_lon": -69.019557190517048, "centroid_lat": 47.549354299959575, "occurrences_today": 2, "datetimes_today": "2026-05-04 01:36:27, 2026-05-04 01:46:30", "cumulative_total": 4.0 }, "geometry": { "type": "Polygon", "coordinates": [ [ [ -69.020147000685142, 47.5441876692474 ], [ -69.026460792410376, 47.547116632678296 ], [ -69.025871542357024, 47.55228332044355 ], [ -69.018967215744823, 47.554520920430193 ], [ -69.012653028537883, 47.551591523530192 ], [ -69.013243563366999, 47.546424960179479 ], [ -69.020147000685142, 47.5441876692474 ] ] ] } },
{ "type": "Feature", "properties": { "hex_id": 987367, "centroid_lon": -69.017786772156441, "centroid_lat": 47.564854130638636, "occurrences_today": 2, "datetimes_today": "2026-05-04 01:36:27, 2026-05-04 01:46:30", "cumulative_total": 7.0 }, "geometry": { "type": "Polygon", "coordinates": [ [ [ -69.018377076310585, 47.559687530657214 ], [ -69.024692548822784, 47.56261666528053 ], [ -69.024102805226207, 47.567783322348227 ], [ -69.017196303224466, 47.570020720372447 ], [ -69.010880434961521, 47.567091152046231 ], [ -69.011471464393111, 47.561924619465593 ], [ -69.018377076310585, 47.559687530657214 ] ] ] } },
{ "type": "Feature", "properties": { "hex_id": 987977, "centroid_lon": -69.012062328899233, "centroid_lat": 47.556758076626238, "occurrences_today": 2, "datetimes_today": "2026-05-04 01:36:27, 2026-05-04 01:46:30", "cumulative_total": 7.0 }, "geometry": { "type": "Polygon", "coordinates": [ [ [ -69.012653028537883, 47.551591523530192 ], [ -69.018967215744823, 47.554520920430193 ], [ -69.018377076310585, 47.559687530657214 ], [ -69.011471464393111, 47.561924619465593 ], [ -69.005156881878207, 47.55899478893928 ], [ -69.005748306530805, 47.553828303297756 ], [ -69.012653028537883, 47.551591523530192 ] ] ] } },
{ "type": "Feature", "properties": { "hex_id": 987978, "centroid_lon": -69.010289240546456, "centroid_lat": 47.572257674366178, "occurrences_today": 2, "datetimes_today": "2026-05-04 01:36:27, 2026-05-04 01:46:30", "cumulative_total": 7.0 }, "geometry": { "type": "Polygon", "coordinates": [ [ [ -69.010880434961521, 47.567091152046231 ], [ -69.017196303224466, 47.570020720372447 ], [ -69.016605669456709, 47.575187299856658 ], [ -69.00969788108992, 47.577424186423407 ], [ -69.003381617250184, 47.574494184236976 ], [ -69.003973537295963, 47.569327729410901 ], [ -69.010880434961521, 47.567091152046231 ] ] ] } },
{ "type": "Feature", "properties": { "hex_id": 988588, "centroid_lon": -69.00456529215262, "centroid_lat": 47.564161264310997, "occurrences_today": 2, "datetimes_today": "2026-05-04 01:36:27, 2026-05-04 01:46:30", "cumulative_total": 7.0 }, "geometry": { "type": "Polygon", "coordinates": [ [ [ -69.005156881878207, 47.55899478893928 ], [ -69.011471464393111, 47.561924619465593 ], [ -69.010880434961521, 47.567091152046231 ], [ -69.003973537295963, 47.569327729410901 ], [ -68.997658559647164, 47.566397465101048 ], [ -68.998250874739753, 47.561231057276942 ], [ -69.005156881878207, 47.55899478893928 ] ] ] } },
{ "type": "Feature", "properties": { "hex_id": 988589, "centroid_lon": -69.002789531957148, "centroid_lat": 47.579660628787209, "occurrences_today": 2, "datetimes_today": "2026-05-04 01:36:27, 2026-05-04 01:46:30", "cumulative_total": 7.0 }, "geometry": { "type": "Polygon", "coordinates": [ [ [ -69.003381617250184, 47.574494184236976 ], [ -69.00969788108992, 47.577424186423407 ], [ -69.00910635653382, 47.582590688215902 ], [ -69.002197281358761, 47.584827063059571 ], [ -68.995880622116545, 47.581896626855603 ], [ -68.996473433393717, 47.5767302498924 ], [ -69.003381617250184, 47.574494184236976 ] ] ] } },
{ "type": "Feature", "properties": { "hex_id": 989198, "centroid_lon": -68.998843024553764, "centroid_lat": 47.556064639169904, "occurrences_today": 2, "datetimes_today": "2026-05-04 01:36:27, 2026-05-04 01:46:30", "cumulative_total": 7.0 }, "geometry": { "type": "Polygon", "coordinates": [ [ [ -68.999435009147319, 47.550898210781959 ], [ -69.005748306530805, 47.553828303297756 ], [ -69.005156881878207, 47.55899478893928 ], [ -68.998250874739753, 47.561231057276942 ], [ -68.991937182664842, 47.558300531054265 ], [ -68.992529892361716, 47.553134170267633 ], [ -68.999435009147319, 47.550898210781959 ] ] ] } },
{ "type": "Feature", "properties": { "hex_id": 989199, "centroid_lon": -68.997066079217873, "centroid_lat": 47.571563862640197, "occurrences_today": 2, "datetimes_today": "2026-05-04 01:36:27, 2026-05-04 01:46:30", "cumulative_total": 7.0 }, "geometry": { "type": "Polygon", "coordinates": [ [ [ -68.997658559647164, 47.566397465101048 ], [ -69.003973537295963, 47.569327729410901 ], [ -69.003381617250184, 47.574494184236976 ], [ -68.996473433393717, 47.5767302498924 ], [ -68.990158060785348, 47.573799551641763 ], [ -68.990751266934836, 47.568633221743347 ], [ -68.997658559647164, 47.566397465101048 ] ] ] } },
{ "type": "Feature", "properties": { "hex_id": 989809, "centroid_lon": -68.991344307541937, "centroid_lat": 47.563466881546859, "occurrences_today": 2, "datetimes_today": "2026-05-04 01:36:27, 2026-05-04 01:46:30", "cumulative_total": 7.0 }, "geometry": { "type": "Polygon", "coordinates": [ [ [ -68.991937182664842, 47.558300531054265 ], [ -68.998250874739753, 47.561231057276942 ], [ -68.997658559647164, 47.566397465101048 ], [ -68.990751266934836, 47.568633221743347 ], [ -68.984437180342894, 47.565702261656632 ], [ -68.985030780922116, 47.560535978858518 ], [ -68.991937182664842, 47.558300531054265 ] ] ] } },
{ "type": "Feature", "properties": { "hex_id": 989810, "centroid_lon": -68.989564689035248, "centroid_lat": 47.578965871240037, "occurrences_today": 2, "datetimes_today": "2026-05-04 01:36:27, 2026-05-04 01:46:30", "cumulative_total": 7.0 }, "geometry": { "type": "Polygon", "coordinates": [ [ [ -68.990158060785348, 47.573799551641763 ], [ -68.996473433393717, 47.5767302498924 ], [ -68.995880622116545, 47.581896626855603 ], [ -68.988971151626274, 47.584132180536145 ], [ -68.98265538423297, 47.581201048187445 ], [ -68.983249482056621, 47.576034796323135 ], [ -68.990158060785348, 47.573799551641763 ] ] ] } },
{ "type": "Feature", "properties": { "hex_id": 990420, "centroid_lon": -68.983843414073803, "centroid_lat": 47.570868534145518, "occurrences_today": 2, "datetimes_today": "2026-05-04 01:36:27, 2026-05-04 01:46:30", "cumulative_total": 7.0 }, "geometry": { "type": "Polygon", "coordinates": [ [ [ -68.984437180342894, 47.565702261656632 ], [ -68.990751266934836, 47.568633221743347 ], [ -68.990158060785348, 47.573799551641763 ], [ -68.983249482056621, 47.576034796323135 ], [ -68.976935001122342, 47.573103402215203 ], [ -68.977529493200848, 47.567937197513956 ], [ -68.984437180342894, 47.565702261656632 ] ] ] } },
{ "type": "Feature", "properties": { "hex_id": 990421, "centroid_lon": -68.982061120544586, "centroid_lat": 47.586367289736408, "occurrences_today": 2, "datetimes_today": "2026-05-04 01:36:27, 2026-05-04 01:46:30", "cumulative_total": 7.0 }, "geometry": { "type": "Polygon", "coordinates": [ [ [ -68.98265538423297, 47.581201048187445 ], [ -68.988971151626274, 47.584132180536145 ], [ -68.988377448500131, 47.589298479528061 ], [ -68.981466690933075, 47.591533520967999 ], [ -68.975150528929831, 47.588601954363988 ], [ -68.975745519045233, 47.583435780642255 ], [ -68.98265538423297, 47.581201048187445 ] ] ] } },
{ "type": "Feature", "properties": { "hex_id": 991031, "centroid_lon": -68.976340343089916, "centroid_lat": 47.578269596591987, "occurrences_today": 2, "datetimes_today": "2026-05-04 01:36:27, 2026-05-04 01:46:30", "cumulative_total": 7.0 }, "geometry": { "type": "Polygon", "coordinates": [ [ [ -68.976935001122342, 47.573103402215203 ], [ -68.983249482056621, 47.576034796323135 ], [ -68.98265538423297, 47.581201048187445 ], [ -68.975745519045233, 47.583435780642255 ], [ -68.969430643943667, 47.580503952355883 ], [ -68.970026028138761, 47.575337825860004 ], [ -68.976935001122342, 47.573103402215203 ] ] ] } },
{ "type": "Feature", "properties": { "hex_id": 991032, "centroid_lon": -68.97455537268533, "centroid_lat": 47.593768117755133, "occurrences_today": 2, "datetimes_today": "2026-05-04 01:36:27, 2026-05-04 01:46:30", "cumulative_total": 7.0 }, "geometry": { "type": "Polygon", "coordinates": [ [ [ -68.975150528929831, 47.588601954363988 ], [ -68.981466690933075, 47.591533520967999 ], [ -68.980872095340061, 47.596699741880158 ], [ -68.973960050253211, 47.59893427081365 ], [ -68.967643493815302, 47.596002269797054 ], [ -68.96823937684043, 47.590836174326455 ], [ -68.975150528929831, 47.588601954363988 ] ] ] } },
{ "type": "Feature", "properties": { "hex_id": 991641, "centroid_lon": -68.970621246174105, "centroid_lat": 47.570171689026452, "occurrences_today": 2, "datetimes_today": "2026-05-04 01:36:27, 2026-05-04 01:46:30", "cumulative_total": 7.0 }, "geometry": { "type": "Polygon", "coordinates": [ [ [ -68.971216298108146, 47.565005541857275 ], [ -68.977529493200848, 47.567937197513956 ], [ -68.976935001122342, 47.573103402215203 ], [ -68.970026028138761, 47.575337825860004 ], [ -68.963712439321029, 47.5724057361018 ], [ -68.964308217153516, 47.567239656867159 ], [ -68.971216298108146, 47.565005541857275 ] ] ] } },
{ "type": "Feature", "properties": { "hex_id": 991642, "centroid_lon": -68.968835093530387, "centroid_lat": 47.585670068512052, "occurrences_today": 2, "datetimes_today": "2026-05-04 01:36:27, 2026-05-04 01:46:30", "cumulative_total": 7.0 }, "geometry": { "type": "Polygon", "coordinates": [ [ [ -68.969430643943667, 47.580503952355883 ], [ -68.975745519045233, 47.583435780642255 ], [ -68.975150528929831, 47.588601954363988 ], [ -68.96823937684043, 47.590836174326455 ], [ -68.961924107746896, 47.587903911704451 ], [ -68.962520384676239, 47.582737863522496 ], [ -68.969430643943667, 47.580503952355883 ] ] ] } },
{ "type": "Feature", "properties": { "hex_id": 992252, "centroid_lon": -68.963116495181438, "centroid_lat": 47.577571804987599, "occurrences_today": 2, "datetimes_today": "2026-05-04 01:36:27, 2026-05-04 01:46:30", "cumulative_total": 7.0 }, "geometry": { "type": "Polygon", "coordinates": [ [ [ -68.963712439321029, 47.5724057361018 ], [ -68.970026028138761, 47.575337825860004 ], [ -68.969430643943667, 47.580503952355883 ], [ -68.962520384676239, 47.582737863522496 ], [ -68.956206402308894, 47.579805339505626 ], [ -68.956803072700083, 47.574639338647657 ], [ -68.963712439321029, 47.5724057361018 ] ] ] } }
]
}
