{
"type": "FeatureCollection",
"name": "daily_2026-08-23",
"crs": { "type": "name", "properties": { "name": "urn:ogc:def:crs:OGC:1.3:CRS84" } },
"features": [
{ "type": "Feature", "properties": { "hex_id": 596507, "centroid_lon": -73.336366153287031, "centroid_lat": 45.526758664713704, "occurrences_today": 1, "datetimes_today": "2026-08-23 00:01:41", "cumulative_total": 295.0 }, "geometry": { "type": "Polygon", "coordinates": [ [ [ -73.336519297825973, 45.521564072542766 ], [ -73.342842635044136, 45.524254417090944 ], [ -73.342690058179898, 45.529449023451328 ], [ -73.33621296691976, 45.531953251737512 ], [ -73.329889103862229, 45.529262535815221 ], [ -73.330042857890177, 45.524067963045376 ], [ -73.336519297825973, 45.521564072542766 ] ] ] } },
{ "type": "Feature", "properties": { "hex_id": 597728, "centroid_lon": -73.323565850454244, "centroid_lat": 45.526571476999841, "occurrences_today": 1, "datetimes_today": "2026-08-23 00:01:41", "cumulative_total": 326.0 }, "geometry": { "type": "Polygon", "coordinates": [ [ [ -73.323720171975268, 45.521376918545386 ], [ -73.330042857890177, 45.524067963045376 ], [ -73.329889103862229, 45.529262535815221 ], [ -73.323411486783812, 45.531766030301014 ], [ -73.317088275532328, 45.529074614311789 ], [ -73.317243206681695, 45.523880075390508 ], [ -73.323720171975268, 45.521376918545386 ] ] ] } },
{ "type": "Feature", "properties": { "hex_id": 387720, "centroid_lon": -75.526841631017149, "centroid_lat": 45.600020579089609, "occurrences_today": 1, "datetimes_today": "2026-08-23 00:01:41", "cumulative_total": 44.0 }, "geometry": { "type": "Polygon", "coordinates": [ [ [ -75.526793002906444, 45.594824080022782 ], [ -75.533227956765344, 45.597392586667979 ], [ -75.533277183274919, 45.602589077979999 ], [ -75.526890272426456, 45.605217073368145 ], [ -75.520454706867838, 45.602648215885978 ], [ -75.520406663861863, 45.597451713917451 ], [ -75.526793002906444, 45.594824080022782 ] ] ] } },
{ "type": "Feature", "properties": { "hex_id": 570866, "centroid_lon": -73.605200015809771, "centroid_lat": 45.530358354300915, "occurrences_today": 1, "datetimes_today": "2026-08-23 00:01:41", "cumulative_total": 440.0 }, "geometry": { "type": "Polygon", "coordinates": [ [ [ -73.605328434495206, 45.52516311370622 ], [ -73.61166534240472, 45.527838725418242 ], [ -73.611537495173224, 45.533033977550765 ], [ -73.605071562043435, 45.535553589866872 ], [ -73.598734117766739, 45.532877609224492 ], [ -73.598863142975233, 45.527682385260917 ], [ -73.605328434495206, 45.52516311370622 ] ] ] } },
{ "type": "Feature", "properties": { "hex_id": 355351, "centroid_lon": -75.863620173587933, "centroid_lat": 45.403090293995092, "occurrences_today": 1, "datetimes_today": "2026-08-23 00:01:41", "cumulative_total": 203.0 }, "geometry": { "type": "Polygon", "coordinates": [ [ [ -75.863541007515664, 45.397893986215443 ], [ -75.869968461657734, 45.400443663089597 ], [ -75.870048224016699, 45.405639959705525 ], [ -75.863699361257432, 45.408286596918749 ], [ -75.857271289227825, 45.405736575158073 ], [ -75.857192697852255, 45.400540261135063 ], [ -75.863541007515664, 45.397893986215443 ] ] ] } },
{ "type": "Feature", "properties": { "hex_id": 612404, "centroid_lon": -73.157722678811325, "centroid_lat": 45.898177277878077, "occurrences_today": 1, "datetimes_today": "2026-08-23 00:01:41", "cumulative_total": 84.0 }, "geometry": { "type": "Polygon", "coordinates": [ [ [ -73.157894472693073, 45.892983521155827 ], [ -73.164250402222507, 45.89568410136944 ], [ -73.164079184768269, 45.900877874156166 ], [ -73.157550837797913, 45.903371029358517 ], [ -73.151194378980591, 45.900670071372296 ], [ -73.151366796405554, 45.89547633602163 ], [ -73.157894472693073, 45.892983521155827 ] ] ] } },
{ "type": "Feature", "properties": { "hex_id": 613015, "centroid_lon": -73.151021914251615, "centroid_lat": 45.905863801477622, "occurrences_today": 1, "datetimes_today": "2026-08-23 00:01:41", "cumulative_total": 68.0 }, "geometry": { "type": "Polygon", "coordinates": [ [ [ -73.151194378980591, 45.900670071372296 ], [ -73.157550837797913, 45.903371029358517 ], [ -73.157378949636865, 45.908564775596986 ], [ -73.150849402202581, 45.911057526337409 ], [ -73.14449241414539, 45.908356190418026 ], [ -73.144665502746321, 45.903162481756695 ], [ -73.151194378980591, 45.900670071372296 ] ] ] } },
{ "type": "Feature", "properties": { "hex_id": 793168, "centroid_lon": -71.192983894552825, "centroid_lat": 46.72259596692971, "occurrences_today": 1, "datetimes_today": "2026-08-23 00:01:41", "cumulative_total": 98.0 }, "geometry": { "type": "Polygon", "coordinates": [ [ [ -71.193349054967868, 46.717411753866656 ], [ -71.19969470125092, 46.720221163759675 ], [ -71.199330112905884, 46.72540541250067 ], [ -71.192618633055957, 46.727780173078671 ], [ -71.186272515802159, 46.724970357523915 ], [ -71.186638349334103, 46.719786187119325 ], [ -71.193349054967868, 46.717411753866656 ] ] ] } },
{ "type": "Feature", "properties": { "hex_id": 785241, "centroid_lon": -71.267642529801833, "centroid_lat": 46.873153711944717, "occurrences_today": 1, "datetimes_today": "2026-08-23 00:01:41", "cumulative_total": 116.0 }, "geometry": { "type": "Polygon", "coordinates": [ [ [ -71.268002426217393, 46.867969189984102 ], [ -71.27436949930312, 46.870775015430418 ], [ -71.274010180827162, 46.875959572448252 ], [ -71.267282533551423, 46.878338227066173 ], [ -71.260914982378267, 46.875531994512329 ], [ -71.261275556533661, 46.870347514514933 ], [ -71.268002426217393, 46.867969189984102 ] ] ] } },
{ "type": "Feature", "properties": { "hex_id": 812197, "centroid_lon": -70.865932333083521, "centroid_lat": 48.324635806299739, "occurrences_today": 1, "datetimes_today": "2026-08-23 00:01:41", "cumulative_total": 51.0 }, "geometry": { "type": "Polygon", "coordinates": [ [ [ -70.866351668569664, 48.319455101576231 ], [ -70.872869391562858, 48.322287455658071 ], [ -70.872450674514042, 48.327468200440158 ], [ -70.865512878893924, 48.32981650359617 ], [ -70.858994656188273, 48.32698371867955 ], [ -70.859414728772407, 48.321803061512036 ], [ -70.866351668569664, 48.319455101576231 ] ] ] } },
{ "type": "Feature", "properties": { "hex_id": 810976, "centroid_lon": -70.879387851506451, "centroid_lat": 48.325119459042369, "occurrences_today": 1, "datetimes_today": "2026-08-23 00:01:41", "cumulative_total": 170.0 }, "geometry": { "type": "Polygon", "coordinates": [ [ [ -70.879805831583511, 48.319938666854242 ], [ -70.886324409828433, 48.3227702795025 ], [ -70.885907048443144, 48.327951111616805 ], [ -70.87896975310673, 48.330300243821 ], [ -70.872450674514042, 48.327468200440158 ], [ -70.872869391562858, 48.322287455658071 ], [ -70.879805831583511, 48.319938666854242 ] ] ] } }
]
}
