{
"type": "FeatureCollection",
"name": "daily_2026-02-02",
"crs": { "type": "name", "properties": { "name": "urn:ogc:def:crs:OGC:1.3:CRS84" } },
"features": [
{ "type": "Feature", "properties": { "hex_id": 768029, "centroid_lon": -71.566471993100265, "centroid_lat": 45.042889513142008, "occurrences_today": 4, "datetimes_today": "2026-02-02 00:01:23, 2026-02-02 00:16:23, 2026-02-02 00:31:33, 2026-02-02 00:40:48", "cumulative_total": 50.0 }, "geometry": { "type": "Polygon", "coordinates": [ [ [ -71.56678263740352, 45.037701629014549 ], [ -71.572964341132078, 45.040486132230818 ], [ -71.572654225405344, 45.045674047429706 ], [ -71.566161264549891, 45.048077390851688 ], [ -71.559979116505843, 45.045292507111022 ], [ -71.5602903736049, 45.040104660535533 ], [ -71.56678263740352, 45.037701629014549 ] ] ] } },
{ "type": "Feature", "properties": { "hex_id": 768030, "centroid_lon": -71.565539554596285, "centroid_lat": 45.05845312701539, "occurrences_today": 4, "datetimes_today": "2026-02-02 00:01:23, 2026-02-02 00:16:23, 2026-02-02 00:31:33, 2026-02-02 00:40:48", "cumulative_total": 50.0 }, "geometry": { "type": "Polygon", "coordinates": [ [ [ -71.565850451724515, 45.053265262143022 ], [ -71.572033741603008, 45.056049858591095 ], [ -71.571723373471741, 45.061237754552408 ], [ -71.565228573137304, 45.06364098546819 ], [ -71.559044838606539, 45.060856008289818 ], [ -71.559356349034601, 45.055668180988754 ], [ -71.565850451724515, 45.053265262143022 ] ] ] } },
{ "type": "Feature", "properties": { "hex_id": 768638, "centroid_lon": -71.561534558408283, "centroid_lat": 45.019353210003523, "occurrences_today": 4, "datetimes_today": "2026-02-02 00:01:23, 2026-02-02 00:16:23, 2026-02-02 00:31:33, 2026-02-02 00:40:48", "cumulative_total": 50.0 }, "geometry": { "type": "Polygon", "coordinates": [ [ [ -71.561845393850291, 45.014165331316022 ], [ -71.568024372702141, 45.016950028339096 ], [ -71.567714065109001, 45.022137938131614 ], [ -71.561223638690592, 45.024541082269842 ], [ -71.555044216279455, 45.021756004981953 ], [ -71.555355663818162, 45.016568163883342 ], [ -71.561845393850291, 45.014165331316022 ] ] ] } },
{ "type": "Feature", "properties": { "hex_id": 768639, "centroid_lon": -71.560601546316775, "centroid_lat": 45.03491680753644, "occurrences_today": 4, "datetimes_today": "2026-02-02 00:01:23, 2026-02-02 00:16:23, 2026-02-02 00:31:33, 2026-02-02 00:40:48", "cumulative_total": 50.0 }, "geometry": { "type": "Polygon", "coordinates": [ [ [ -71.560912634669378, 45.029728948114347 ], [ -71.567093197487509, 45.032513738469945 ], [ -71.56678263740352, 45.037701629014549 ], [ -71.5602903736049, 45.040104660535533 ], [ -71.554109366891367, 45.037319489709397 ], [ -71.554421067843975, 45.032131667895577 ], [ -71.560912634669378, 45.029728948114347 ] ] ] } },
{ "type": "Feature", "properties": { "hex_id": 768640, "centroid_lon": -71.559667774991723, "centroid_lat": 45.050480347262294, "occurrences_today": 4, "datetimes_today": "2026-02-02 00:01:23, 2026-02-02 00:16:23, 2026-02-02 00:31:33, 2026-02-02 00:40:48", "cumulative_total": 50.0 }, "geometry": { "type": "Polygon", "coordinates": [ [ [ -71.559979116505843, 45.045292507111022 ], [ -71.566161264549891, 45.048077390851688 ], [ -71.565850451724515, 45.053265262143022 ], [ -71.559356349034601, 45.055668180988754 ], [ -71.553173756758767, 45.052882916571718 ], [ -71.553485711376737, 45.047695114048075 ], [ -71.559979116505843, 45.045292507111022 ] ] ] } },
{ "type": "Feature", "properties": { "hex_id": 769248, "centroid_lon": -71.555667026941393, "centroid_lat": 45.011380316357709, "occurrences_today": 4, "datetimes_today": "2026-02-02 00:01:23, 2026-02-02 00:16:23, 2026-02-02 00:31:33, 2026-02-02 00:40:48", "cumulative_total": 50.0 }, "geometry": { "type": "Polygon", "coordinates": [ [ [ -71.555978305677016, 45.006192462405629 ], [ -71.562156145044497, 45.008977446207901 ], [ -71.561845393850291, 45.014165331316022 ], [ -71.555355663818162, 45.016568163883342 ], [ -71.549177381310798, 45.013782799870135 ], [ -71.549489271947579, 45.008594983563228 ], [ -71.555978305677016, 45.006192462405629 ] ] ] } },
{ "type": "Feature", "properties": { "hex_id": 769249, "centroid_lon": -71.554732684297363, "centroid_lat": 45.026943839652887, "occurrences_today": 4, "datetimes_today": "2026-02-02 00:01:23, 2026-02-02 00:16:23, 2026-02-02 00:31:33, 2026-02-02 00:40:48", "cumulative_total": 50.0 }, "geometry": { "type": "Polygon", "coordinates": [ [ [ -71.555044216279455, 45.021756004981953 ], [ -71.561223638690592, 45.024541082269842 ], [ -71.560912634669378, 45.029728948114347 ], [ -71.554421067843975, 45.032131667895577 ], [ -71.548241201957225, 45.029346210191079 ], [ -71.548553346343567, 45.024158413184679 ], [ -71.555044216279455, 45.021756004981953 ] ] ] } },
{ "type": "Feature", "properties": { "hex_id": 769250, "centroid_lon": -71.553797581411601, "centroid_lat": 45.042507305093771, "occurrences_today": 4, "datetimes_today": "2026-02-02 00:01:23, 2026-02-02 00:16:23, 2026-02-02 00:31:33, 2026-02-02 00:40:48", "cumulative_total": 50.0 }, "geometry": { "type": "Polygon", "coordinates": [ [ [ -71.554109366891367, 45.037319489709397 ], [ -71.5602903736049, 45.040104660535533 ], [ -71.559979116505843, 45.045292507111022 ], [ -71.553485711376737, 45.047695114048075 ], [ -71.547304260851575, 45.044909562599571 ], [ -71.547616659239225, 45.039721784899129 ], [ -71.554109366891367, 45.037319489709397 ] ] ] } },
{ "type": "Feature", "properties": { "hex_id": 769251, "centroid_lon": -71.552861717529751, "centroid_lat": 45.058070712664104, "occurrences_today": 4, "datetimes_today": "2026-02-02 00:01:23, 2026-02-02 00:16:23, 2026-02-02 00:31:33, 2026-02-02 00:40:48", "cumulative_total": 50.0 }, "geometry": { "type": "Polygon", "coordinates": [ [ [ -71.553173756758767, 45.052882916571718 ], [ -71.559356349034601, 45.055668180988754 ], [ -71.559044838606539, 45.060856008289818 ], [ -71.552549593661695, 45.063258502324601 ], [ -71.54636655723796, 45.060472857079255 ], [ -71.546679209878974, 45.055285098690234 ], [ -71.553173756758767, 45.052882916571718 ] ] ] } },
{ "type": "Feature", "properties": { "hex_id": 769859, "centroid_lon": -71.548865406118793, "centroid_lat": 45.018970609744152, "occurrences_today": 4, "datetimes_today": "2026-02-02 00:01:23, 2026-02-02 00:16:23, 2026-02-02 00:31:33, 2026-02-02 00:40:48", "cumulative_total": 50.0 }, "geometry": { "type": "Polygon", "coordinates": [ [ [ -71.549177381310798, 45.013782799870135 ], [ -71.555355663818162, 45.016568163883342 ], [ -71.555044216279455, 45.021756004981953 ], [ -71.548553346343567, 45.024158413184679 ], [ -71.542374620780052, 45.021372668808795 ], [ -71.542687208180624, 45.01618489665556 ], [ -71.549177381310798, 45.013782799870135 ] ] ] } },
{ "type": "Feature", "properties": { "hex_id": 769860, "centroid_lon": -71.547928972931771, "centroid_lat": 45.034534000762761, "occurrences_today": 4, "datetimes_today": "2026-02-02 00:01:23, 2026-02-02 00:16:23, 2026-02-02 00:31:33, 2026-02-02 00:40:48", "cumulative_total": 50.0 }, "geometry": { "type": "Polygon", "coordinates": [ [ [ -71.548241201957225, 45.029346210191079 ], [ -71.554421067843975, 45.032131667895577 ], [ -71.554109366891367, 45.037319489709397 ], [ -71.547616659239225, 45.039721784899129 ], [ -71.541436349960705, 45.036935946626208 ], [ -71.541749191698116, 45.031748193794726 ], [ -71.548241201957225, 45.029346210191079 ] ] ] } },
{ "type": "Feature", "properties": { "hex_id": 769861, "centroid_lon": -71.546991777740828, "centroid_lat": 45.050097333863469, "occurrences_today": 4, "datetimes_today": "2026-02-02 00:01:23, 2026-02-02 00:16:23, 2026-02-02 00:31:33, 2026-02-02 00:40:48", "cumulative_total": 50.0 }, "geometry": { "type": "Polygon", "coordinates": [ [ [ -71.547304260851575, 45.044909562599571 ], [ -71.553485711376737, 45.047695114048075 ], [ -71.553173756758767, 45.052882916571718 ], [ -71.546679209878974, 45.055285098690234 ], [ -71.540497315626183, 45.05249916646742 ], [ -71.540810411952791, 45.047311432963163 ], [ -71.547304260851575, 45.044909562599571 ] ] ] } },
{ "type": "Feature", "properties": { "hex_id": 770470, "centroid_lon": -71.542061948628557, "centroid_lat": 45.026560434522054, "occurrences_today": 4, "datetimes_today": "2026-02-02 00:01:23, 2026-02-02 00:16:23, 2026-02-02 00:31:33, 2026-02-02 00:40:48", "cumulative_total": 50.0 }, "geometry": { "type": "Polygon", "coordinates": [ [ [ -71.542374620780052, 45.021372668808795 ], [ -71.548553346343567, 45.024158413184679 ], [ -71.548241201957225, 45.029346210191079 ], [ -71.541749191698116, 45.031748193794726 ], [ -71.535570023162393, 45.028962068904434 ], [ -71.535883307829963, 45.023774340987622 ], [ -71.542374620780052, 45.021372668808795 ] ] ] } },
{ "type": "Feature", "properties": { "hex_id": 770471, "centroid_lon": -71.541123423388285, "centroid_lat": 45.042123693015888, "occurrences_today": 4, "datetimes_today": "2026-02-02 00:01:23, 2026-02-02 00:16:23, 2026-02-02 00:31:33, 2026-02-02 00:40:48", "cumulative_total": 50.0 }, "geometry": { "type": "Polygon", "coordinates": [ [ [ -71.541436349960705, 45.036935946626208 ], [ -71.547616659239225, 45.039721784899129 ], [ -71.547304260851575, 45.044909562599571 ], [ -71.540810411952791, 45.047311432963163 ], [ -71.534629659366587, 45.044525213970012 ], [ -71.534943198958786, 45.03933750539624 ], [ -71.541436349960705, 45.036935946626208 ] ] ] } },
{ "type": "Feature", "properties": { "hex_id": 770472, "centroid_lon": -71.540184134380368, "centroid_lat": 45.057686893528064, "occurrences_today": 4, "datetimes_today": "2026-02-02 00:01:23, 2026-02-02 00:16:23, 2026-02-02 00:31:33, 2026-02-02 00:40:48", "cumulative_total": 49.0 }, "geometry": { "type": "Polygon", "coordinates": [ [ [ -71.540497315626183, 45.05249916646742 ], [ -71.546679209878974, 45.055285098690234 ], [ -71.54636655723796, 45.060472857079255 ], [ -71.539870868187251, 45.062874614144476 ], [ -71.533688530290988, 45.060088300995481 ], [ -71.534002325060825, 45.054900611770236 ], [ -71.540497315626183, 45.05249916646742 ] ] ] } },
{ "type": "Feature", "properties": { "hex_id": 771081, "centroid_lon": -71.535256653548032, "centroid_lat": 45.034149790374165, "occurrences_today": 4, "datetimes_today": "2026-02-02 00:01:23, 2026-02-02 00:16:23, 2026-02-02 00:31:33, 2026-02-02 00:40:48", "cumulative_total": 50.0 }, "geometry": { "type": "Polygon", "coordinates": [ [ [ -71.535570023162393, 45.028962068904434 ], [ -71.541749191698116, 45.031748193794726 ], [ -71.541436349960705, 45.036935946626208 ], [ -71.534943198958786, 45.03933750539624 ], [ -71.528763587535039, 45.03655099983974 ], [ -71.52907756997314, 45.031363316242157 ], [ -71.535570023162393, 45.028962068904434 ] ] ] } },
{ "type": "Feature", "properties": { "hex_id": 771082, "centroid_lon": -71.534316034743313, "centroid_lat": 45.049712916094897, "occurrences_today": 4, "datetimes_today": "2026-02-02 00:01:23, 2026-02-02 00:16:23, 2026-02-02 00:31:33, 2026-02-02 00:40:48", "cumulative_total": 50.0 }, "geometry": { "type": "Polygon", "coordinates": [ [ [ -71.534629659366587, 45.044525213970012 ], [ -71.540810411952791, 45.047311432963163 ], [ -71.540497315626183, 45.05249916646742 ], [ -71.534002325060825, 45.054900611770236 ], [ -71.527821129251208, 45.052114011904976 ], [ -71.528135367202239, 45.046926347671764 ], [ -71.534629659366587, 45.044525213970012 ] ] ] } },
{ "type": "Feature", "properties": { "hex_id": 771692, "centroid_lon": -71.528449519954137, "centroid_lat": 45.041738676983158, "occurrences_today": 4, "datetimes_today": "2026-02-02 00:01:23, 2026-02-02 00:16:23, 2026-02-02 00:31:33, 2026-02-02 00:40:48", "cumulative_total": 49.0 }, "geometry": { "type": "Polygon", "coordinates": [ [ [ -71.528763587535039, 45.03655099983974 ], [ -71.534943198958786, 45.03933750539624 ], [ -71.534629659366587, 45.044525213970012 ], [ -71.528135367202239, 45.046926347671764 ], [ -71.521955312974825, 45.04413946129732 ], [ -71.52226999368726, 45.038951822101801 ], [ -71.528763587535039, 45.03655099983974 ] ] ] } },
{ "type": "Feature", "properties": { "hex_id": 771693, "centroid_lon": -71.527506806072864, "centroid_lat": 45.057301669682175, "occurrences_today": 4, "datetimes_today": "2026-02-02 00:01:23, 2026-02-02 00:16:23, 2026-02-02 00:31:33, 2026-02-02 00:40:48", "cumulative_total": 49.0 }, "geometry": { "type": "Polygon", "coordinates": [ [ [ -71.527821129251208, 45.052114011904976 ], [ -71.534002325060825, 45.054900611770236 ], [ -71.533688530290988, 45.060088300995481 ], [ -71.527192397638999, 45.062489321002715 ], [ -71.521010758690466, 45.059702340113496 ], [ -71.521325695504657, 45.054514720303771 ], [ -71.527821129251208, 45.052114011904976 ] ] ] } },
{ "type": "Feature", "properties": { "hex_id": 772303, "centroid_lon": -71.521640546923365, "centroid_lat": 45.049327094031518, "occurrences_today": 4, "datetimes_today": "2026-02-02 00:01:23, 2026-02-02 00:16:23, 2026-02-02 00:31:33, 2026-02-02 00:40:48", "cumulative_total": 49.0 }, "geometry": { "type": "Polygon", "coordinates": [ [ [ -71.521955312974825, 45.04413946129732 ], [ -71.528135367202239, 45.046926347671764 ], [ -71.527821129251208, 45.052114011904976 ], [ -71.521325695504657, 45.054514720303771 ], [ -71.515145198558173, 45.051727452959497 ], [ -71.515460578049087, 45.046539858248998 ], [ -71.521955312974825, 45.04413946129732 ] ] ] } },
{ "type": "Feature", "properties": { "hex_id": 772914, "centroid_lon": -71.514829733531869, "centroid_lat": 45.056915041201542, "occurrences_today": 4, "datetimes_today": "2026-02-02 00:01:23, 2026-02-02 00:16:23, 2026-02-02 00:31:33, 2026-02-02 00:40:48", "cumulative_total": 49.0 }, "geometry": { "type": "Polygon", "coordinates": [ [ [ -71.515145198558173, 45.051727452959497 ], [ -71.521325695504657, 45.054514720303771 ], [ -71.521010758690466, 45.059702340113496 ], [ -71.514514182941895, 45.0621026229745 ], [ -71.508333243361136, 45.059314974508609 ], [ -71.508649322134943, 45.054127424366101 ], [ -71.515145198558173, 45.051727452959497 ] ] ] } },
{ "type": "Feature", "properties": { "hex_id": 510451, "centroid_lon": -74.233843728353605, "centroid_lat": 45.918256091551008, "occurrences_today": 4, "datetimes_today": "2026-02-02 00:01:23, 2026-02-02 00:16:23, 2026-02-02 00:31:33, 2026-02-02 00:40:48", "cumulative_total": 20.0 }, "geometry": { "type": "Polygon", "coordinates": [ [ [ -74.233915233226327, 45.913060128453957 ], [ -74.240326376514702, 45.915701151580492 ], [ -74.240255463480878, 45.920897120020236 ], [ -74.233772203850208, 45.923452049815872 ], [ -74.22736048835695, 45.920810658823086 ], [ -74.227432604692581, 45.915614705966441 ], [ -74.233915233226327, 45.913060128453957 ] ] ] } },
{ "type": "Feature", "properties": { "hex_id": 511061, "centroid_lon": -74.227504701235773, "centroid_lat": 45.910418748276186, "occurrences_today": 4, "datetimes_today": "2026-02-02 00:01:23, 2026-02-02 00:16:23, 2026-02-02 00:31:33, 2026-02-02 00:40:48", "cumulative_total": 10.0 }, "geometry": { "type": "Polygon", "coordinates": [ [ [ -74.227576777993249, 45.905222785752301 ], [ -74.233986718475023, 45.907864160524724 ], [ -74.233915233226327, 45.913060128453957 ], [ -74.227432604692581, 45.915614705966441 ], [ -74.221022092491097, 45.912972963365952 ], [ -74.221094780536362, 45.907777011146557 ], [ -74.227576777993249, 45.905222785752301 ] ] ] } },
{ "type": "Feature", "properties": { "hex_id": 511672, "centroid_lon": -74.220949384491703, "centroid_lat": 45.918168910750254, "occurrences_today": 4, "datetimes_today": "2026-02-02 00:01:23, 2026-02-02 00:16:23, 2026-02-02 00:31:33, 2026-02-02 00:40:48", "cumulative_total": 10.0 }, "geometry": { "type": "Polygon", "coordinates": [ [ [ -74.221022092491097, 45.912972963365952 ], [ -74.227432604692581, 45.915614705966441 ], [ -74.22736048835695, 45.920810658823086 ], [ -74.220876656531431, 45.923364853299468 ], [ -74.214465572630473, 45.920722742708179 ], [ -74.214538892247745, 45.915526805696842 ], [ -74.221022092491097, 45.912972963365952 ] ] ] } },
{ "type": "Feature", "properties": { "hex_id": 512282, "centroid_lon": -74.214612191742432, "centroid_lat": 45.91033086384892, "occurrences_today": 4, "datetimes_today": "2026-02-02 00:01:23, 2026-02-02 00:16:23, 2026-02-02 00:31:33, 2026-02-02 00:40:48", "cumulative_total": 10.0 }, "geometry": { "type": "Polygon", "coordinates": [ [ [ -74.214685471121342, 45.905134917164453 ], [ -74.221094780536362, 45.907777011146557 ], [ -74.221022092491097, 45.912972963365952 ], [ -74.214538892247745, 45.915526805696842 ], [ -74.208129011618254, 45.912884343762215 ], [ -74.208202902439766, 45.907688407514755 ], [ -74.214685471121342, 45.905134917164453 ] ] ] } },
{ "type": "Feature", "properties": { "hex_id": 512283, "centroid_lon": -74.214392232883782, "centroid_lat": 45.925918674882944, "occurrences_today": 4, "datetimes_today": "2026-02-02 00:01:23, 2026-02-02 00:16:23, 2026-02-02 00:31:33, 2026-02-02 00:40:48", "cumulative_total": 34.0 }, "geometry": { "type": "Polygon", "coordinates": [ [ [ -74.214465572630473, 45.920722742708179 ], [ -74.220876656531431, 45.923364853299468 ], [ -74.220803908603472, 45.928560791013574 ], [ -74.214318873000821, 45.931114602221157 ], [ -74.207907217420825, 45.928472123476283 ], [ -74.207981169115669, 45.923276201742993 ], [ -74.214465572630473, 45.920722742708179 ] ] ] } },
{ "type": "Feature", "properties": { "hex_id": 512893, "centroid_lon": -74.208055100512524, "centroid_lat": 45.918080275171626, "occurrences_today": 4, "datetimes_today": "2026-02-02 00:01:23, 2026-02-02 00:16:23, 2026-02-02 00:31:33, 2026-02-02 00:40:48", "cumulative_total": 34.0 }, "geometry": { "type": "Polygon", "coordinates": [ [ [ -74.208129011618254, 45.912884343762215 ], [ -74.214538892247745, 45.915526805696842 ], [ -74.214465572630473, 45.920722742708179 ], [ -74.207981169115669, 45.923276201742993 ], [ -74.201570717292256, 45.92063337169315 ], [ -74.201645240170691, 45.915437450789263 ], [ -74.208129011618254, 45.912884343762215 ] ] ] } },
{ "type": "Feature", "properties": { "hex_id": 512894, "centroid_lon": -74.207833245421085, "centroid_lat": 45.933668040371536, "occurrences_today": 4, "datetimes_today": "2026-02-02 00:01:23, 2026-02-02 00:16:23, 2026-02-02 00:31:33, 2026-02-02 00:40:48", "cumulative_total": 34.0 }, "geometry": { "type": "Polygon", "coordinates": [ [ [ -74.207907217420825, 45.928472123476283 ], [ -74.214318873000821, 45.931114602221157 ], [ -74.214245492974783, 45.936310524722785 ], [ -74.207759253109572, 45.938863952428726 ], [ -74.201347025871101, 45.93622110536748 ], [ -74.20142161014941, 45.931025198982262 ], [ -74.207907217420825, 45.928472123476283 ] ] ] } },
{ "type": "Feature", "properties": { "hex_id": 513503, "centroid_lon": -74.201719742596381, "centroid_lat": 45.910241525045819, "occurrences_today": 4, "datetimes_today": "2026-02-02 00:01:23, 2026-02-02 00:16:23, 2026-02-02 00:31:33, 2026-02-02 00:40:48", "cumulative_total": 34.0 }, "geometry": { "type": "Polygon", "coordinates": [ [ [ -74.201794224576261, 45.905045594462848 ], [ -74.208202902439766, 45.907688407514755 ], [ -74.208129011618254, 45.912884343762215 ], [ -74.201645240170691, 45.915437450789263 ], [ -74.195235991598082, 45.912794269660488 ], [ -74.19531108517522, 45.907598349647067 ], [ -74.201794224576261, 45.905045594462848 ] ] ] } },
{ "type": "Feature", "properties": { "hex_id": 513504, "centroid_lon": -74.201496173954155, "centroid_lat": 45.925829287757473, "occurrences_today": 4, "datetimes_today": "2026-02-02 00:01:23, 2026-02-02 00:16:23, 2026-02-02 00:31:33, 2026-02-02 00:40:48", "cumulative_total": 34.0 }, "geometry": { "type": "Polygon", "coordinates": [ [ [ -74.201570717292256, 45.92063337169315 ], [ -74.207981169115669, 45.923276201742993 ], [ -74.207907217420825, 45.928472123476283 ], [ -74.20142161014941, 45.931025198982262 ], [ -74.195010587152836, 45.928382000654437 ], [ -74.195085742593889, 45.923186095164183 ], [ -74.201570717292256, 45.92063337169315 ] ] ] } },
{ "type": "Feature", "properties": { "hex_id": 514114, "centroid_lon": -74.19516087740665, "centroid_lat": 45.917990184832867, "occurrences_today": 4, "datetimes_today": "2026-02-02 00:01:23, 2026-02-02 00:16:23, 2026-02-02 00:31:33, 2026-02-02 00:40:48", "cumulative_total": 34.0 }, "geometry": { "type": "Polygon", "coordinates": [ [ [ -74.195235991598082, 45.912794269660488 ], [ -74.201645240170691, 45.915437450789263 ], [ -74.201570717292256, 45.92063337169315 ], [ -74.195085742593889, 45.923186095164183 ], [ -74.188675923333093, 45.920542545795882 ], [ -74.188751649451845, 45.915346641261614 ], [ -74.195235991598082, 45.912794269660488 ] ] ] } },
{ "type": "Feature", "properties": { "hex_id": 513502, "centroid_lon": -74.201943127226357, "centroid_lat": 45.894653718778265, "occurrences_today": 4, "datetimes_today": "2026-02-02 00:01:23, 2026-02-02 00:16:23, 2026-02-02 00:31:33, 2026-02-02 00:40:48", "cumulative_total": 6.0 }, "geometry": { "type": "Polygon", "coordinates": [ [ [ -74.20201754791043, 45.889457773676632 ], [ -74.208424453267725, 45.89210056974408 ], [ -74.20835062325763, 45.897296520505691 ], [ -74.20186868611728, 45.899849659040306 ], [ -74.19546121051448, 45.897206495097038 ], [ -74.195536242290601, 45.892010560560436 ], [ -74.20201754791043, 45.889457773676632 ] ] ] } },
{ "type": "Feature", "properties": { "hex_id": 509230, "centroid_lon": -74.246738131107548, "centroid_lat": 45.918341817556417, "occurrences_today": 4, "datetimes_today": "2026-02-02 00:01:23, 2026-02-02 00:16:23, 2026-02-02 00:31:33, 2026-02-02 00:40:48", "cumulative_total": 15.0 }, "geometry": { "type": "Polygon", "coordinates": [ [ [ -74.246808432833618, 45.913145839008777 ], [ -74.25322020672364, 45.915786142521668 ], [ -74.253150497011418, 45.920982126282347 ], [ -74.246667810081021, 45.92353779127474 ], [ -74.240255463480878, 45.920897120020236 ], [ -74.240326376514702, 45.915701151580492 ], [ -74.246808432833618, 45.913145839008777 ] ] ] } },
{ "type": "Feature", "properties": { "hex_id": 509841, "centroid_lon": -74.240184530978169, "centroid_lat": 45.926093083629233, "occurrences_today": 4, "datetimes_today": "2026-02-02 00:01:23, 2026-02-02 00:16:23, 2026-02-02 00:31:33, 2026-02-02 00:40:48", "cumulative_total": 15.0 }, "geometry": { "type": "Polygon", "coordinates": [ [ [ -74.240255463480878, 45.920897120020236 ], [ -74.246667810081021, 45.92353779127474 ], [ -74.246597469747485, 45.92873376016373 ], [ -74.240113578999981, 45.931289042407492 ], [ -74.233700659709456, 45.928648003248554 ], [ -74.233772203850208, 45.923452049815872 ], [ -74.240255463480878, 45.920897120020236 ] ] ] } },
{ "type": "Feature", "properties": { "hex_id": 511062, "centroid_lon": -74.227288352222175, "centroid_lat": 45.926006606846066, "occurrences_today": 4, "datetimes_today": "2026-02-02 00:01:23, 2026-02-02 00:16:23, 2026-02-02 00:31:33, 2026-02-02 00:40:48", "cumulative_total": 15.0 }, "geometry": { "type": "Polygon", "coordinates": [ [ [ -74.22736048835695, 45.920810658823086 ], [ -74.233772203850208, 45.923452049815872 ], [ -74.233700659709456, 45.928648003248554 ], [ -74.227216196281518, 45.931202550035451 ], [ -74.220803908603472, 45.928560791013574 ], [ -74.220876656531431, 45.923364853299468 ], [ -74.22736048835695, 45.920810658823086 ] ] ] } },
{ "type": "Feature", "properties": { "hex_id": 511673, "centroid_lon": -74.220731140701034, "centroid_lat": 45.933756723892607, "occurrences_today": 4, "datetimes_today": "2026-02-02 00:01:23, 2026-02-02 00:16:23, 2026-02-02 00:31:33, 2026-02-02 00:40:48", "cumulative_total": 15.0 }, "geometry": { "type": "Polygon", "coordinates": [ [ [ -74.220803908603472, 45.928560791013574 ], [ -74.227216196281518, 45.931202550035451 ], [ -74.227144020528272, 45.936398488391163 ], [ -74.220658352817381, 45.938952651936525 ], [ -74.214245492974783, 45.936310524722785 ], [ -74.214318873000821, 45.931114602221157 ], [ -74.220803908603472, 45.928560791013574 ] ] ] } },
{ "type": "Feature", "properties": { "hex_id": 508619, "centroid_lon": -74.253289897303759, "centroid_lat": 45.910590153933079, "occurrences_today": 4, "datetimes_today": "2026-02-02 00:01:23, 2026-02-02 00:16:23, 2026-02-02 00:31:33, 2026-02-02 00:40:48", "cumulative_total": 5.0 }, "geometry": { "type": "Polygon", "coordinates": [ [ [ -74.253359568758299, 45.905394160516593 ], [ -74.259770769918632, 45.908034096450656 ], [ -74.259701690322629, 45.913230095013233 ], [ -74.25322020672364, 45.915786142521668 ], [ -74.246808432833618, 45.913145839008777 ], [ -74.246878715265794, 45.907949855631813 ], [ -74.253359568758299, 45.905394160516593 ] ] ] } },
{ "type": "Feature", "properties": { "hex_id": 509229, "centroid_lon": -74.246948978410614, "centroid_lat": 45.902753867425517, "occurrences_today": 4, "datetimes_today": "2026-02-02 00:01:23, 2026-02-02 00:16:23, 2026-02-02 00:31:33, 2026-02-02 00:40:48", "cumulative_total": 5.0 }, "geometry": { "type": "Polygon", "coordinates": [ [ [ -74.247019222274602, 45.897557874389918 ], [ -74.253429221093739, 45.900198162272169 ], [ -74.253359568758299, 45.905394160516593 ], [ -74.246878715265794, 45.907949855631813 ], [ -74.240468144202183, 45.905309200208777 ], [ -74.240538998869027, 45.900113217276783 ], [ -74.247019222274602, 45.897557874389918 ] ] ] } },
{ "type": "Feature", "properties": { "hex_id": 509840, "centroid_lon": -74.240397270086277, "centroid_lat": 45.910505178310011, "occurrences_today": 4, "datetimes_today": "2026-02-02 00:01:23, 2026-02-02 00:16:23, 2026-02-02 00:31:33, 2026-02-02 00:40:48", "cumulative_total": 5.0 }, "geometry": { "type": "Polygon", "coordinates": [ [ [ -74.240468144202183, 45.905309200208777 ], [ -74.246878715265794, 45.907949855631813 ], [ -74.246808432833618, 45.913145839008777 ], [ -74.240326376514702, 45.915701151580492 ], [ -74.233915233226327, 45.913060128453957 ], [ -74.233986718475023, 45.907864160524724 ], [ -74.240468144202183, 45.905309200208777 ] ] ] } },
{ "type": "Feature", "properties": { "hex_id": 510450, "centroid_lon": -74.23405818410636, "centroid_lat": 45.902668187763304, "occurrences_today": 4, "datetimes_today": "2026-02-02 00:01:23, 2026-02-02 00:16:23, 2026-02-02 00:31:33, 2026-02-02 00:40:48", "cumulative_total": 5.0 }, "geometry": { "type": "Polygon", "coordinates": [ [ [ -74.234129630127001, 45.897472210169717 ], [ -74.240538998869027, 45.900113217276783 ], [ -74.240468144202183, 45.905309200208777 ], [ -74.233986718475023, 45.907864160524724 ], [ -74.227576777993249, 45.905222785752301 ], [ -74.227648834971717, 45.900026818394764 ], [ -74.234129630127001, 45.897472210169717 ] ] ] } },
{ "type": "Feature", "properties": { "hex_id": 511671, "centroid_lon": -74.221167448634262, "centroid_lat": 45.902581054092067, "occurrences_today": 4, "datetimes_today": "2026-02-02 00:01:23, 2026-02-02 00:16:23, 2026-02-02 00:31:33, 2026-02-02 00:40:48", "cumulative_total": 5.0 }, "geometry": { "type": "Polygon", "coordinates": [ [ [ -74.221240096791561, 45.897385092202498 ], [ -74.227648834971717, 45.900026818394764 ], [ -74.227576777993249, 45.905222785752301 ], [ -74.221094780536362, 45.907777011146557 ], [ -74.214685471121342, 45.905134917164453 ], [ -74.21475873039131, 45.899938965643415 ], [ -74.221240096791561, 45.897385092202498 ] ] ] } },
{ "type": "Feature", "properties": { "hex_id": 512281, "centroid_lon": -74.214831969559171, "centroid_lat": 45.894743009285833, "occurrences_today": 4, "datetimes_today": "2026-02-02 00:01:23, 2026-02-02 00:16:23, 2026-02-02 00:31:33, 2026-02-02 00:40:48", "cumulative_total": 5.0 }, "geometry": { "type": "Polygon", "coordinates": [ [ [ -74.21490518863169, 45.88954704809165 ], [ -74.221312725015039, 45.89218912547782 ], [ -74.221240096791561, 45.897385092202498 ], [ -74.21475873039131, 45.899938965643415 ], [ -74.20835062325763, 45.897296520505691 ], [ -74.208424453267725, 45.89210056974408 ], [ -74.21490518863169, 45.88954704809165 ] ] ] } },
{ "type": "Feature", "properties": { "hex_id": 512892, "centroid_lon": -74.208276772983936, "centroid_lat": 45.902492466429237, "occurrences_today": 4, "datetimes_today": "2026-02-02 00:01:23, 2026-02-02 00:16:23, 2026-02-02 00:31:33, 2026-02-02 00:40:48", "cumulative_total": 5.0 }, "geometry": { "type": "Polygon", "coordinates": [ [ [ -74.20835062325763, 45.897296520505691 ], [ -74.21475873039131, 45.899938965643415 ], [ -74.214685471121342, 45.905134917164453 ], [ -74.208202902439766, 45.907688407514755 ], [ -74.201794224576261, 45.905045594462848 ], [ -74.20186868611728, 45.899849659040306 ], [ -74.20835062325763, 45.897296520505691 ] ] ] } },
{ "type": "Feature", "properties": { "hex_id": 514724, "centroid_lon": -74.188827354787733, "centroid_lat": 45.910150731884777, "occurrences_today": 4, "datetimes_today": "2026-02-02 00:01:23, 2026-02-02 00:16:23, 2026-02-02 00:31:33, 2026-02-02 00:40:48", "cumulative_total": 5.0 }, "geometry": { "type": "Polygon", "coordinates": [ [ [ -74.188903039347792, 45.904954817665342 ], [ -74.19531108517522, 45.907598349647067 ], [ -74.195235991598082, 45.912794269660488 ], [ -74.188751649451845, 45.915346641261614 ], [ -74.18234303342085, 45.91270274107881 ], [ -74.182419329732625, 45.907506837561506 ], [ -74.188903039347792, 45.904954817665342 ] ] ] } },
{ "type": "Feature", "properties": { "hex_id": 514113, "centroid_lon": -74.195386158145013, "centroid_lat": 45.902402424792562, "occurrences_today": 4, "datetimes_today": "2026-02-02 00:01:23, 2026-02-02 00:16:23, 2026-02-02 00:31:33, 2026-02-02 00:40:48", "cumulative_total": 4.0 }, "geometry": { "type": "Polygon", "coordinates": [ [ [ -74.19546121051448, 45.897206495097038 ], [ -74.20186868611728, 45.899849659040306 ], [ -74.201794224576261, 45.905045594462848 ], [ -74.19531108517522, 45.907598349647067 ], [ -74.188903039347792, 45.904954817665342 ], [ -74.188978703139043, 45.899758898603338 ], [ -74.19546121051448, 45.897206495097038 ] ] ] } }
]
}
