{
"type": "FeatureCollection",
"name": "daily_2026-08-21",
"crs": { "type": "name", "properties": { "name": "urn:ogc:def:crs:OGC:1.3:CRS84" } },
"features": [
{ "type": "Feature", "properties": { "hex_id": 739335, "centroid_lon": -71.864817105228099, "centroid_lat": 45.04368289564357, "occurrences_today": 4, "datetimes_today": "2026-08-21 03:31:57, 2026-08-21 03:48:01, 2026-08-21 04:16:56, 2026-08-21 04:30:50", "cumulative_total": 59.0 }, "geometry": { "type": "Polygon", "coordinates": [ [ [ -71.865100793035282, 45.03849345933029 ], [ -71.871297955762699, 45.041262184703889 ], [ -71.871014800882776, 45.046451649258508 ], [ -71.864533340460696, 45.048872325816021 ], [ -71.858335721778985, 45.046103222354986 ], [ -71.858620019448168, 45.040913820486786 ], [ -71.865100793035282, 45.03849345933029 ] ] ] } },
{ "type": "Feature", "properties": { "hex_id": 741166, "centroid_lon": -71.84622767741061, "centroid_lat": 45.035374705943298, "occurrences_today": 4, "datetimes_today": "2026-08-21 03:31:57, 2026-08-21 03:48:01, 2026-08-21 04:16:56, 2026-08-21 04:30:50", "cumulative_total": 59.0 }, "geometry": { "type": "Polygon", "coordinates": [ [ [ -71.846512962997153, 45.030185354699228 ], [ -71.852708296678003, 45.032955044229091 ], [ -71.852423543517517, 45.038144423887076 ], [ -71.845942314439156, 45.040564051030429 ], [ -71.839746525729922, 45.037793983364708 ], [ -71.840032421101853, 45.032604666754359 ], [ -71.846512962997153, 45.030185354699228 ] ] ] } },
{ "type": "Feature", "properties": { "hex_id": 742997, "centroid_lon": -71.827643737776327, "centroid_lat": 45.027063625036497, "occurrences_today": 4, "datetimes_today": "2026-08-21 03:31:57, 2026-08-21 03:48:01, 2026-08-21 04:16:56, 2026-08-21 04:30:50", "cumulative_total": 59.0 }, "geometry": { "type": "Polygon", "coordinates": [ [ [ -71.827930619638948, 45.021874359378991 ], [ -71.834124124503262, 45.02464501217532 ], [ -71.833837774565637, 45.02983430641914 ], [ -71.827356778104658, 45.032252884520865 ], [ -71.821162819137243, 45.029481853540545 ], [ -71.821450310708187, 45.024292622705325 ], [ -71.827930619638948, 45.021874359378991 ] ] ] } },
{ "type": "Feature", "properties": { "hex_id": 743607, "centroid_lon": -71.821737724328827, "centroid_lat": 45.019103385691544, "occurrences_today": 4, "datetimes_today": "2026-08-21 03:31:57, 2026-08-21 03:48:01, 2026-08-21 04:16:56, 2026-08-21 04:30:50", "cumulative_total": 59.0 }, "geometry": { "type": "Polygon", "coordinates": [ [ [ -71.822025060024927, 45.013914142499701 ], [ -71.828217423718272, 45.016685087548836 ], [ -71.827930619638948, 45.021874359378991 ], [ -71.821450310708187, 45.024292622705325 ], [ -71.81525749333548, 45.02152129952448 ], [ -71.815545438547147, 45.016332091211844 ], [ -71.822025060024927, 45.013914142499701 ] ] ] } },
{ "type": "Feature", "properties": { "hex_id": 744218, "centroid_lon": -71.814969470032281, "centroid_lat": 45.026710501653113, "occurrences_today": 4, "datetimes_today": "2026-08-21 03:31:57, 2026-08-21 03:48:01, 2026-08-21 04:16:56, 2026-08-21 04:30:50", "cumulative_total": 77.0 }, "geometry": { "type": "Polygon", "coordinates": [ [ [ -71.81525749333548, 45.02152129952448 ], [ -71.821450310708187, 45.024292622705325 ], [ -71.821162819137243, 45.029481853540545 ], [ -71.814681368611772, 45.031899697597233 ], [ -71.808488097637081, 45.029127996132175 ], [ -71.808776730764009, 45.023938828957476 ], [ -71.81525749333548, 45.02152129952448 ] ] ] } },
{ "type": "Feature", "properties": { "hex_id": 744828, "centroid_lon": -71.8090652856324, "centroid_lat": 45.018749655592821, "occurrences_today": 4, "datetimes_today": "2026-08-21 03:31:57, 2026-08-21 03:48:01, 2026-08-21 04:16:56, 2026-08-21 04:30:50", "cumulative_total": 138.0 }, "geometry": { "type": "Polygon", "coordinates": [ [ [ -71.809353762268117, 45.013560476038712 ], [ -71.815545438547147, 45.016332091211844 ], [ -71.81525749333548, 45.02152129952448 ], [ -71.808776730764009, 45.023938828957476 ], [ -71.802584601306535, 45.021166835552492 ], [ -71.802873687573111, 45.015977691009219 ], [ -71.809353762268117, 45.013560476038712 ] ] ] } },
{ "type": "Feature", "properties": { "hex_id": 582478, "centroid_lon": -73.478315535347122, "centroid_lat": 45.723615646305539, "occurrences_today": 5, "datetimes_today": "2026-08-21 03:01:52, 2026-08-21 03:15:11, 2026-08-21 03:31:57, 2026-08-21 03:48:01, 2026-08-21 04:16:56", "cumulative_total": 337.0 }, "geometry": { "type": "Polygon", "coordinates": [ [ [ -73.478456580495433, 45.718420875502524 ], [ -73.484808846281624, 45.72110363963624 ], [ -73.48466837670685, 45.726298423281662 ], [ -73.478174451580173, 45.728810412025098 ], [ -73.471821648845605, 45.726127275317864 ], [ -73.471963308173059, 45.720932522505699 ], [ -73.478456580495433, 45.718420875502524 ] ] ] } },
{ "type": "Feature", "properties": { "hex_id": 791948, "centroid_lon": -71.204948669898513, "centroid_lat": 46.738583071744969, "occurrences_today": 1, "datetimes_today": "2026-08-21 02:46:57", "cumulative_total": 250.0 }, "geometry": { "type": "Polygon", "coordinates": [ [ [ -71.205312887567814, 46.73339880118619 ], [ -71.211661024895662, 46.736207613527846 ], [ -71.211297379981787, 46.741391919659819 ], [ -71.204584351385449, 46.743767335402254 ], [ -71.198235742163376, 46.740958117278346 ], [ -71.198600633397007, 46.735773889260756 ], [ -71.205312887567814, 46.73339880118619 ] ] ] } },
{ "type": "Feature", "properties": { "hex_id": 792559, "centroid_lon": -71.197870749897078, "centroid_lat": 46.746142338386619, "occurrences_today": 1, "datetimes_today": "2026-08-21 02:46:57", "cumulative_total": 29.0 }, "geometry": { "type": "Polygon", "coordinates": [ [ [ -71.198235742163376, 46.740958117278346 ], [ -71.204584351385449, 46.743767335402254 ], [ -71.204219931993748, 46.74895159215724 ], [ -71.197505656563138, 46.751326552584842 ], [ -71.19115657555156, 46.748516928518391 ], [ -71.191522241725139, 46.743332750033396 ], [ -71.198235742163376, 46.740958117278346 ] ] ] } },
{ "type": "Feature", "properties": { "hex_id": 793780, "centroid_lon": -71.184808168618773, "centroid_lat": 46.745706969915524, "occurrences_today": 1, "datetimes_today": "2026-08-21 02:46:57", "cumulative_total": 83.0 }, "geometry": { "type": "Polygon", "coordinates": [ [ [ -71.185174407443, 46.740522827203158 ], [ -71.191522241725139, 46.743332750033396 ], [ -71.19115657555156, 46.748516928518391 ], [ -71.184441828383896, 46.750891105702941 ], [ -71.178093522879308, 46.748080776830164 ], [ -71.178460435729775, 46.742896676881891 ], [ -71.185174407443, 46.740522827203158 ] ] ] } },
{ "type": "Feature", "properties": { "hex_id": 585514, "centroid_lon": -73.453282441973883, "centroid_lat": 45.466039886482541, "occurrences_today": 4, "datetimes_today": "2026-08-21 03:31:57, 2026-08-21 03:48:01, 2026-08-21 04:16:56, 2026-08-21 04:30:50", "cumulative_total": 223.0 }, "geometry": { "type": "Polygon", "coordinates": [ [ [ -73.453424525584893, 45.460844941357614 ], [ -73.459746884157894, 45.463528823283795 ], [ -73.459605368003835, 45.468723781429858 ], [ -73.453140319581721, 45.471234826514873 ], [ -73.446817432339415, 45.468550575062693 ], [ -73.44696012217554, 45.463355648115872 ], [ -73.453424525584893, 45.460844941357614 ] ] ] } },
{ "type": "Feature", "properties": { "hex_id": 586125, "centroid_lon": -73.44667470355563, "centroid_lat": 45.473745496913999, "occurrences_today": 4, "datetimes_today": "2026-08-21 03:31:57, 2026-08-21 03:48:01, 2026-08-21 04:16:56, 2026-08-21 04:30:50", "cumulative_total": 448.0 }, "geometry": { "type": "Polygon", "coordinates": [ [ [ -73.446817432339415, 45.468550575062693 ], [ -73.453140319581721, 45.471234826514873 ], [ -73.452998158395417, 45.476429761454455 ], [ -73.446531935811123, 45.478940413669676 ], [ -73.440208519938608, 45.476255792532804 ], [ -73.440351855267522, 45.471060888929813 ], [ -73.446817432339415, 45.468550575062693 ] ] ] } },
{ "type": "Feature", "properties": { "hex_id": 622143, "centroid_lon": -73.070250315585241, "centroid_lat": 45.444618688634229, "occurrences_today": 5, "datetimes_today": "2026-08-21 02:17:25, 2026-08-21 02:46:57, 2026-08-21 03:01:52, 2026-08-21 03:15:11, 2026-08-21 03:31:57", "cumulative_total": 91.0 }, "geometry": { "type": "Polygon", "coordinates": [ [ [ -73.07042744085453, 45.439424779403787 ], [ -73.076728565088018, 45.442129539762824 ], [ -73.076552001370274, 45.447323465769585 ], [ -73.070073141992552, 45.449812592581061 ], [ -73.063771504538991, 45.447107459470168 ], [ -73.063949239667053, 45.44191357236388 ], [ -73.07042744085453, 45.439424779403787 ] ] ] } },
{ "type": "Feature", "properties": { "hex_id": 765029, "centroid_lon": -71.548621783098554, "centroid_lat": 45.860877424504729, "occurrences_today": 7, "datetimes_today": "2026-08-21 02:46:57, 2026-08-21 03:01:52, 2026-08-21 03:15:11, 2026-08-21 03:31:57, 2026-08-21 03:48:01, 2026-08-21 04:16:56, 2026-08-21 04:30:50", "cumulative_total": 149.0 }, "geometry": { "type": "Polygon", "coordinates": [ [ [ -71.54894307044988, 45.855690382923264 ], [ -71.555211600202966, 45.858478135699116 ], [ -71.554890864567398, 45.863665208990881 ], [ -71.54830040775748, 45.866064459604949 ], [ -71.542031414293291, 45.863276315582496 ], [ -71.542353341320393, 45.858089312257171 ], [ -71.54894307044988, 45.855690382923264 ] ] ] } },
{ "type": "Feature", "properties": { "hex_id": 780286, "centroid_lon": -71.393442108974014, "centroid_lat": 45.770331595749703, "occurrences_today": 4, "datetimes_today": "2026-08-21 00:31:50, 2026-08-21 00:46:51, 2026-08-21 01:16:47, 2026-08-21 01:46:44", "cumulative_total": 12.0 }, "geometry": { "type": "Polygon", "coordinates": [ [ [ -71.393776765365743, 45.76514533932454 ], [ -71.400027128605132, 45.767941121484839 ], [ -71.399693018921511, 45.773127411050098 ], [ -71.393107361049118, 45.775517845539873 ], [ -71.386856542650236, 45.772721672054729 ], [ -71.387191837252388, 45.767535455468931 ], [ -71.393776765365743, 45.76514533932454 ] ] ] } },
{ "type": "Feature", "properties": { "hex_id": 1254818, "centroid_lon": -65.997657267409267, "centroid_lat": 48.17773001927857, "occurrences_today": 1, "datetimes_today": "2026-08-21 00:02:03", "cumulative_total": 10.0 }, "geometry": { "type": "Polygon", "coordinates": [ [ [ -65.998562784756771, 48.172599712615302 ], [ -66.004752820700531, 48.175689194396568 ], [ -66.003847822910117, 48.180819586204457 ], [ -65.996751496791219, 48.182860308510151 ], [ -65.990561194605718, 48.179770366251795 ], [ -65.991467484691299, 48.174640162229714 ], [ -65.998562784756771, 48.172599712615302 ] ] ] } },
{ "type": "Feature", "properties": { "hex_id": 556827, "centroid_lon": -73.751576259641965, "centroid_lat": 45.571028013326888, "occurrences_today": 13, "datetimes_today": "2026-08-21 00:02:03, 2026-08-21 00:31:50, 2026-08-21 00:46:51, 2026-08-21 01:16:47, 2026-08-21 01:46:44, 2026-08-21 02:17:25, 2026-08-21 02:46:57, 2026-08-21 03:01:52, 2026-08-21 03:15:11, 2026-08-21 03:31:57, 2026-08-21 03:48:01, 2026-08-21 04:16:56, 2026-08-21 04:30:50", "cumulative_total": 346.0 }, "geometry": { "type": "Polygon", "coordinates": [ [ [ -73.751691366813219, 45.565832503195409 ], [ -73.758039924605995, 45.568500095486094 ], [ -73.757925392097903, 45.573695615714989 ], [ -73.751461121008887, 45.576223518485186 ], [ -73.745112020020059, 45.573555558121413 ], [ -73.745227733305711, 45.568360063125191 ], [ -73.751691366813219, 45.565832503195409 ] ] ] } },
{ "type": "Feature", "properties": { "hex_id": 528759, "centroid_lon": -74.04231069843361, "centroid_lat": 45.807684913820744, "occurrences_today": 2, "datetimes_today": "2026-08-21 04:16:56, 2026-08-21 04:30:50", "cumulative_total": 115.0 }, "geometry": { "type": "Polygon", "coordinates": [ [ [ -74.04239973360005, 45.802489111441993 ], [ -74.048789023712729, 45.80514075937279 ], [ -74.048700574374863, 45.810336568998387 ], [ -74.042221638858578, 45.81288071131894 ], [ -74.035831787330054, 45.810228695076368 ], [ -74.035921432725402, 45.805032904890261 ], [ -74.04239973360005, 45.802489111441993 ] ] ] } },
{ "type": "Feature", "properties": { "hex_id": 587365, "centroid_lon": -73.425617913914763, "centroid_lat": 45.769671144270689, "occurrences_today": 3, "datetimes_today": "2026-08-21 00:02:03, 2026-08-21 00:31:50, 2026-08-21 00:46:51", "cumulative_total": 543.0 }, "geometry": { "type": "Polygon", "coordinates": [ [ [ -73.425764076873492, 45.764476544830906 ], [ -73.432118907922188, 45.767162253902718 ], [ -73.431973321212453, 45.77235686671915 ], [ -73.425471710914437, 45.774865738603033 ], [ -73.41911634366511, 45.772179655878787 ], [ -73.419263122900901, 45.766985074988177 ], [ -73.425764076873492, 45.764476544830906 ] ] ] } },
{ "type": "Feature", "properties": { "hex_id": 748511, "centroid_lon": -71.753389636747201, "centroid_lat": 45.329007860905421, "occurrences_today": 1, "datetimes_today": "2026-08-21 04:30:50", "cumulative_total": 36.0 }, "geometry": { "type": "Polygon", "coordinates": [ [ [ -71.753686331892922, 45.323819248145739 ], [ -71.75990804510441, 45.326594629675014 ], [ -71.759611889340093, 45.331783271887396 ], [ -71.753092860852448, 45.334196467409356 ], [ -71.746870689022089, 45.331420703225994 ], [ -71.74716800427133, 45.326232126238232 ], [ -71.753686331892922, 45.323819248145739 ] ] ] } },
{ "type": "Feature", "properties": { "hex_id": 799275, "centroid_lon": -71.125472368999738, "centroid_lat": 46.751505067510266, "occurrences_today": 1, "datetimes_today": "2026-08-21 02:46:57", "cumulative_total": 86.0 }, "geometry": { "type": "Polygon", "coordinates": [ [ [ -71.125844370472024, 46.746321291368069 ], [ -71.132189569331317, 46.749134437685804 ], [ -71.131818139730399, 46.754318250177491 ], [ -71.125100264520299, 46.756688836658704 ], [ -71.118754596814583, 46.75387528373971 ], [ -71.119127273129777, 46.748691551007205 ], [ -71.125844370472024, 46.746321291368069 ] ] ] } },
{ "type": "Feature", "properties": { "hex_id": 581257, "centroid_lon": -73.491161726097289, "centroid_lat": 45.723786056908821, "occurrences_today": 5, "datetimes_today": "2026-08-21 03:01:52, 2026-08-21 03:15:11, 2026-08-21 03:31:57, 2026-08-21 03:48:01, 2026-08-21 04:16:56", "cumulative_total": 191.0 }, "geometry": { "type": "Polygon", "coordinates": [ [ [ -73.491301581636108, 45.718591255405357 ], [ -73.497654499738559, 45.721273313001923 ], [ -73.497515219955403, 45.726468127220642 ], [ -73.491021832265247, 45.728980853334477 ], [ -73.48466837670685, 45.726298423281662 ], [ -73.484808846281624, 45.72110363963624 ], [ -73.491301581636108, 45.718591255405357 ] ] ] } },
{ "type": "Feature", "properties": { "hex_id": 800496, "centroid_lon": -71.112409604123229, "centroid_lat": 46.751061397031272, "occurrences_today": 1, "datetimes_today": "2026-08-21 02:46:57", "cumulative_total": 102.0 }, "geometry": { "type": "Polygon", "coordinates": [ [ [ -71.112782852084877, 46.745877700773974 ], [ -71.119127273129777, 46.748691551007205 ], [ -71.118754596814583, 46.75387528373971 ], [ -71.112036252811507, 46.756245086279655 ], [ -71.105691363488106, 46.753430829345866 ], [ -71.106065286410526, 46.748247176639147 ], [ -71.112782852084877, 46.745877700773974 ] ] ] } },
{ "type": "Feature", "properties": { "hex_id": 801107, "centroid_lon": -71.105317337026236, "centroid_lat": 46.75861447503565, "occurrences_today": 1, "datetimes_today": "2026-08-21 02:46:57", "cumulative_total": 94.0 }, "geometry": { "type": "Polygon", "coordinates": [ [ [ -71.105691363488106, 46.753430829345866 ], [ -71.112036252811507, 46.756245086279655 ], [ -71.111662798113983, 46.7614287685183 ], [ -71.104943206989162, 46.763798113707708 ], [ -71.098597849494553, 46.760983449913262 ], [ -71.098972551260147, 46.75579984785653 ], [ -71.105691363488106, 46.753430829345866 ] ] ] } },
{ "type": "Feature", "properties": { "hex_id": 801717, "centroid_lon": -71.099347149296918, "centroid_lat": 46.750616238774839, "occurrences_today": 1, "datetimes_today": "2026-08-21 02:46:57", "cumulative_total": 61.0 }, "geometry": { "type": "Polygon", "coordinates": [ [ [ -71.099721643640748, 46.745432622668986 ], [ -71.106065286410526, 46.748247176639147 ], [ -71.105691363488106, 46.753430829345866 ], [ -71.098972551260147, 46.75579984785653 ], [ -71.092628440779862, 46.752984887086662 ], [ -71.09300361020216, 46.747801314672287 ], [ -71.099721643640748, 46.745432622668986 ] ] ] } },
{ "type": "Feature", "properties": { "hex_id": 802328, "centroid_lon": -71.092253167475207, "centroid_lat": 46.758168452468837, "occurrences_today": 1, "datetimes_today": "2026-08-21 02:46:57", "cumulative_total": 61.0 }, "geometry": { "type": "Polygon", "coordinates": [ [ [ -71.092628440779862, 46.752984887086662 ], [ -71.098972551260147, 46.75579984785653 ], [ -71.098597849494553, 46.760983449913262 ], [ -71.091877790252312, 46.763352010818032 ], [ -71.085533212169196, 46.760536643088365 ], [ -71.085909160895213, 46.755353121480184 ], [ -71.092628440779862, 46.752984887086662 ] ] ] } },
{ "type": "Feature", "properties": { "hex_id": 802938, "centroid_lon": -71.086285005549485, "centroid_lat": 46.750169592831767, "occurrences_today": 1, "datetimes_today": "2026-08-21 02:46:57", "cumulative_total": 61.0 }, "geometry": { "type": "Polygon", "coordinates": [ [ [ -71.086660746167937, 46.744986057143919 ], [ -71.09300361020216, 46.747801314672287 ], [ -71.092628440779862, 46.752984887086662 ], [ -71.085909160895213, 46.755353121480184 ], [ -71.079565829718618, 46.752537457053066 ], [ -71.079942245533061, 46.747353965197583 ], [ -71.086660746167937, 46.744986057143919 ] ] ] } },
{ "type": "Feature", "properties": { "hex_id": 803549, "centroid_lon": -71.079189309678966, "centroid_lat": 46.757720941861031, "occurrences_today": 1, "datetimes_today": "2026-08-21 02:46:57", "cumulative_total": 61.0 }, "geometry": { "type": "Polygon", "coordinates": [ [ [ -71.079565829718618, 46.752537457053066 ], [ -71.085909160895213, 46.755353121480184 ], [ -71.085533212169196, 46.760536643088365 ], [ -71.078812685378068, 46.76290441962071 ], [ -71.072468887167105, 46.760088348134815 ], [ -71.072846082745585, 46.754904907241794 ], [ -71.079565829718618, 46.752537457053066 ] ] ] } },
{ "type": "Feature", "properties": { "hex_id": 804770, "centroid_lon": -71.066125764666452, "centroid_lat": 46.757271943303572, "occurrences_today": 1, "datetimes_today": "2026-08-21 02:46:57", "cumulative_total": 65.0 }, "geometry": { "type": "Polygon", "coordinates": [ [ [ -71.066503531332984, 46.752088539336391 ], [ -71.072846082745585, 46.754904907241794 ], [ -71.072468887167105, 46.760088348134815 ], [ -71.065747893395752, 46.762455340207133 ], [ -71.059404875517345, 46.759638565144073 ], [ -71.059783317839944, 46.754455205232787 ], [ -71.066503531332984, 46.752088539336391 ] ] ] } },
{ "type": "Feature", "properties": { "hex_id": 741272, "centroid_lon": -71.751439355395632, "centroid_lat": 46.685273377371033, "occurrences_today": 5, "datetimes_today": "2026-08-21 00:02:03, 2026-08-21 00:31:50, 2026-08-21 00:46:51, 2026-08-21 01:16:47, 2026-08-21 01:46:44", "cumulative_total": 101.0 }, "geometry": { "type": "Polygon", "coordinates": [ [ [ -71.751750606290543, 46.680086009907122 ], [ -71.758122629315892, 46.682865017520776 ], [ -71.75781195820737, 46.688052415217086 ], [ -71.751128018332878, 46.690460738513096 ], [ -71.744755501703878, 46.687681330362132 ], [ -71.745067418523263, 46.682493999519096 ], [ -71.751750606290543, 46.680086009907122 ] ] ] } },
{ "type": "Feature", "properties": { "hex_id": 559240, "centroid_lon": -73.736051692732261, "centroid_lat": 45.118721471174872, "occurrences_today": 12, "datetimes_today": "2026-08-21 00:02:03, 2026-08-21 00:31:50, 2026-08-21 00:46:51, 2026-08-21 01:16:47, 2026-08-21 01:46:44, 2026-08-21 02:17:25, 2026-08-21 02:46:57, 2026-08-21 03:01:52, 2026-08-21 03:15:11, 2026-08-21 03:31:57, 2026-08-21 03:48:01, 2026-08-21 04:16:56", "cumulative_total": 34.0 }, "geometry": { "type": "Polygon", "coordinates": [ [ [ -73.736166408532739, 45.113525578796903 ], [ -73.742464316700591, 45.116193690385224 ], [ -73.742350161843831, 45.121389592916536 ], [ -73.735936945744911, 45.123917358576257 ], [ -73.729638507825413, 45.121248884457323 ], [ -73.729753815746122, 45.116053007272932 ], [ -73.736166408532739, 45.113525578796903 ] ] ] } },
{ "type": "Feature", "properties": { "hex_id": 721640, "centroid_lon": -72.041036021826557, "centroid_lat": 45.196508420109474, "occurrences_today": 13, "datetimes_today": "2026-08-21 00:02:03, 2026-08-21 00:31:50, 2026-08-21 00:46:51, 2026-08-21 01:16:47, 2026-08-21 01:46:44, 2026-08-21 02:17:25, 2026-08-21 02:46:57, 2026-08-21 03:01:52, 2026-08-21 03:15:11, 2026-08-21 03:31:57, 2026-08-21 03:48:01, 2026-08-21 04:16:56, 2026-08-21 04:30:50", "cumulative_total": 220.0 }, "geometry": { "type": "Polygon", "coordinates": [ [ [ -72.041305208672071, 45.191318272118913 ], [ -72.047527605741266, 45.194078003792747 ], [ -72.047258958683656, 45.1992681784197 ], [ -72.040766761812932, 45.201698562104653 ], [ -72.034543898136093, 45.198938451869488 ], [ -72.034813697913307, 45.193748336573989 ], [ -72.041305208672071, 45.191318272118913 ] ] ] } },
{ "type": "Feature", "properties": { "hex_id": 791947, "centroid_lon": -71.206041020514519, "centroid_lat": 46.72303023936712, "occurrences_today": 1, "datetimes_today": "2026-08-21 02:46:57", "cumulative_total": 98.0 }, "geometry": { "type": "Polygon", "coordinates": [ [ [ -71.20640493586157, 46.717845948108327 ], [ -71.212751355847033, 46.720654653772542 ], [ -71.212388012793511, 46.725838980583454 ], [ -71.20567700442821, 46.728214523726656 ], [ -71.199330112905884, 46.72540541250067 ], [ -71.19969470125092, 46.720221163759675 ], [ -71.20640493586157, 46.717845948108327 ] ] ] } },
{ "type": "Feature", "properties": { "hex_id": 792557, "centroid_lon": -71.200059188702866, "centroid_lat": 46.715036908112396, "occurrences_today": 1, "datetimes_today": "2026-08-21 02:46:57", "cumulative_total": 145.0 }, "geometry": { "type": "Polygon", "coordinates": [ [ [ -71.20042357529654, 46.709852645559579 ], [ -71.206768750504182, 46.712661649951023 ], [ -71.20640493586157, 46.717845948108327 ], [ -71.19969470125092, 46.720221163759675 ], [ -71.193349054967868, 46.717411753866656 ], [ -71.193714114336061, 46.712227533890264 ], [ -71.20042357529654, 46.709852645559579 ] ] ] } },
{ "type": "Feature", "properties": { "hex_id": 793168, "centroid_lon": -71.192983894552825, "centroid_lat": 46.72259596692971, "occurrences_today": 1, "datetimes_today": "2026-08-21 02:46:57", "cumulative_total": 88.0 }, "geometry": { "type": "Polygon", "coordinates": [ [ [ -71.193349054967868, 46.717411753866656 ], [ -71.19969470125092, 46.720221163759675 ], [ -71.199330112905884, 46.72540541250067 ], [ -71.192618633055957, 46.727780173078671 ], [ -71.186272515802159, 46.724970357523915 ], [ -71.186638349334103, 46.719786187119325 ], [ -71.193349054967868, 46.717411753866656 ] ] ] } },
{ "type": "Feature", "properties": { "hex_id": 795001, "centroid_lon": -71.171745891572456, "centroid_lat": 46.745270113572857, "occurrences_today": 1, "datetimes_today": "2026-08-21 02:46:57", "cumulative_total": 56.0 }, "geometry": { "type": "Polygon", "coordinates": [ [ [ -71.172113376849424, 46.740086049523043 ], [ -71.178460435729775, 46.742896676881891 ], [ -71.178093522879308, 46.748080776830164 ], [ -71.171378304541832, 46.750454170682779 ], [ -71.16503077500623, 46.747643137181591 ], [ -71.165398934428197, 46.742459116036649 ], [ -71.172113376849424, 46.740086049523043 ] ] ] } },
{ "type": "Feature", "properties": { "hex_id": 795610, "centroid_lon": -71.166870553393025, "centroid_lat": 46.72172296199453, "occurrences_today": 1, "datetimes_today": "2026-08-21 02:46:57", "cumulative_total": 103.0 }, "geometry": { "type": "Polygon", "coordinates": [ [ [ -71.167238203629452, 46.71653890612226 ], [ -71.173582301123943, 46.719349723940162 ], [ -71.173215222510038, 46.724533815741914 ], [ -71.166502801389854, 46.726907010922865 ], [ -71.160158234057135, 46.724095787243677 ], [ -71.160526557647671, 46.718911774311202 ], [ -71.167238203629452, 46.71653890612226 ] ] ] } },
{ "type": "Feature", "properties": { "hex_id": 795611, "centroid_lon": -71.165766991942647, "centroid_lat": 46.737275087944703, "occurrences_today": 1, "datetimes_today": "2026-08-21 02:46:57", "cumulative_total": 56.0 }, "geometry": { "type": "Polygon", "coordinates": [ [ [ -71.166134947584794, 46.732091052906519 ], [ -71.172480760407922, 46.734901978534126 ], [ -71.172113376849424, 46.740086049523043 ], [ -71.165398934428197, 46.742459116036649 ], [ -71.159052651411301, 46.739647784327147 ], [ -71.1594212809742, 46.73446379225242 ], [ -71.166134947584794, 46.732091052906519 ] ] ] } },
{ "type": "Feature", "properties": { "hex_id": 796220, "centroid_lon": -71.160894779317886, "centroid_lat": 46.713727754427708, "occurrences_today": 1, "datetimes_today": "2026-08-21 02:46:57", "cumulative_total": 103.0 }, "geometry": { "type": "Polygon", "coordinates": [ [ [ -71.161262899102979, 46.708543727593955 ], [ -71.167605752134307, 46.711354843306822 ], [ -71.167238203629452, 46.71653890612226 ], [ -71.160526557647671, 46.718911774311202 ], [ -71.154183235238833, 46.716100252797467 ], [ -71.154552028154072, 46.710916268962031 ], [ -71.161262899102979, 46.708543727593955 ] ] ] } },
{ "type": "Feature", "properties": { "hex_id": 796222, "centroid_lon": -71.158683919787094, "centroid_lat": 46.744831769447771, "occurrences_today": 1, "datetimes_today": "2026-08-21 02:46:57", "cumulative_total": 56.0 }, "geometry": { "type": "Polygon", "coordinates": [ [ [ -71.159052651411301, 46.739647784327147 ], [ -71.165398934428197, 46.742459116036649 ], [ -71.16503077500623, 46.747643137181591 ], [ -71.158315086066295, 46.75001574761351 ], [ -71.151968332961403, 46.747204009661921 ], [ -71.152337738849155, 46.742020067586978 ], [ -71.159052651411301, 46.739647784327147 ] ] ] } },
{ "type": "Feature", "properties": { "hex_id": 796830, "centroid_lon": -71.154920719030741, "centroid_lat": 46.705732278169229, "occurrences_today": 1, "datetimes_today": "2026-08-21 02:46:57", "cumulative_total": 103.0 }, "geometry": { "type": "Polygon", "coordinates": [ [ [ -71.155289307904042, 46.700548280419802 ], [ -71.161630917038138, 46.703359693810683 ], [ -71.161262899102979, 46.708543727593955 ], [ -71.154552028154072, 46.710916268962031 ], [ -71.14820995010281, 46.708104449830778 ], [ -71.148579211882378, 46.702920495138159 ], [ -71.155289307904042, 46.700548280419802 ] ] ] } },
{ "type": "Feature", "properties": { "hex_id": 796831, "centroid_lon": -71.153814340249724, "centroid_lat": 46.721284229674765, "occurrences_today": 1, "datetimes_today": "2026-08-21 02:46:57", "cumulative_total": 103.0 }, "geometry": { "type": "Polygon", "coordinates": [ [ [ -71.154183235238833, 46.716100252797467 ], [ -71.160526557647671, 46.718911774311202 ], [ -71.160158234057135, 46.724095787243677 ], [ -71.153445343151503, 46.726468199593135 ], [ -71.14710155147084, 46.723656272118511 ], [ -71.147471119932362, 46.71847233832171 ], [ -71.154183235238833, 46.716100252797467 ] ] ] } },
{ "type": "Feature", "properties": { "hex_id": 796832, "centroid_lon": -71.152707042486526, "centroid_lat": 46.736836118550016, "occurrences_today": 1, "datetimes_today": "2026-08-21 02:46:57", "cumulative_total": 56.0 }, "geometry": { "type": "Polygon", "coordinates": [ [ [ -71.153076243908885, 46.731652162551811 ], [ -71.1594212809742, 46.73446379225242 ], [ -71.159052651411301, 46.739647784327147 ], [ -71.152337738849155, 46.742020067586978 ], [ -71.14599223215707, 46.739208031704834 ], [ -71.146362107618558, 46.734024118810865 ], [ -71.153076243908885, 46.731652162551811 ] ] ] } },
{ "type": "Feature", "properties": { "hex_id": 796833, "centroid_lon": -71.151598824787925, "centroid_lat": 46.7523879447741, "occurrences_today": 1, "datetimes_today": "2026-08-21 02:46:57", "cumulative_total": 56.0 }, "geometry": { "type": "Polygon", "coordinates": [ [ [ -71.151968332961403, 46.747204009661921 ], [ -71.158315086066295, 46.75001574761351 ], [ -71.15794615021359, 46.755199718823583 ], [ -71.151229214293338, 46.757571872922696 ], [ -71.144881991206475, 46.754759728568807 ], [ -71.145252173986449, 46.749575836584597 ], [ -71.151968332961403, 46.747204009661921 ] ] ] } },
{ "type": "Feature", "properties": { "hex_id": 797441, "centroid_lon": -71.147840586131238, "centroid_lat": 46.713288397558884, "occurrences_today": 1, "datetimes_today": "2026-08-21 02:46:57", "cumulative_total": 103.0 }, "geometry": { "type": "Polygon", "coordinates": [ [ [ -71.14820995010281, 46.708104449830778 ], [ -71.154552028154072, 46.710916268962031 ], [ -71.154183235238833, 46.716100252797467 ], [ -71.147471119932362, 46.71847233832171 ], [ -71.141128573069736, 46.715660113290092 ], [ -71.141498610289631, 46.710476208700946 ], [ -71.14820995010281, 46.708104449830778 ] ] ] } },
{ "type": "Feature", "properties": { "hex_id": 797443, "centroid_lon": -71.14562225429151, "centroid_lat": 46.744391937629686, "occurrences_today": 1, "datetimes_today": "2026-08-21 02:46:57", "cumulative_total": 56.0 }, "geometry": { "type": "Polygon", "coordinates": [ [ [ -71.14599223215707, 46.739208031704834 ], [ -71.152337738849155, 46.742020067586978 ], [ -71.151968332961403, 46.747204009661921 ], [ -71.145252173986449, 46.749575836584597 ], [ -71.138906197773736, 46.746763394360784 ], [ -71.139276850021218, 46.741579531622449 ], [ -71.14599223215707, 46.739208031704834 ] ] ] } },
{ "type": "Feature", "properties": { "hex_id": 798051, "centroid_lon": -71.141868545128816, "centroid_lat": 46.705292297139422, "occurrences_today": 1, "datetimes_today": "2026-08-21 02:46:57", "cumulative_total": 103.0 }, "geometry": { "type": "Polygon", "coordinates": [ [ [ -71.142238377622661, 46.700108378606238 ], [ -71.148579211882378, 46.702920495138159 ], [ -71.14820995010281, 46.708104449830778 ], [ -71.141498610289631, 46.710476208700946 ], [ -71.135157307678639, 46.707663686329234 ], [ -71.135527813196759, 46.702479810993488 ], [ -71.142238377622661, 46.700108378606238 ] ] ] } },
{ "type": "Feature", "properties": { "hex_id": 798052, "centroid_lon": -71.140758433433774, "centroid_lat": 46.720844010906035, "occurrences_today": 1, "datetimes_today": "2026-08-21 02:46:57", "cumulative_total": 103.0 }, "geometry": { "type": "Polygon", "coordinates": [ [ [ -71.141128573069736, 46.715660113290092 ], [ -71.147471119932362, 46.71847233832171 ], [ -71.14710155147084, 46.723656272118511 ], [ -71.140388191346347, 46.726027901548029 ], [ -71.134045175778439, 46.723215270456052 ], [ -71.134415989004907, 46.718031416061301 ], [ -71.141128573069736, 46.715660113290092 ] ] ] } },
{ "type": "Feature", "properties": { "hex_id": 798053, "centroid_lon": -71.139647399675511, "centroid_lat": 46.736395661907018, "occurrences_today": 1, "datetimes_today": "2026-08-21 02:46:57", "cumulative_total": 56.0 }, "geometry": { "type": "Polygon", "coordinates": [ [ [ -71.140017846772068, 46.73121178521528 ], [ -71.146362107618558, 46.734024118810865 ], [ -71.14599223215707, 46.739208031704834 ], [ -71.139276850021218, 46.741579531622449 ], [ -71.132932120115086, 46.738766791745839 ], [ -71.133303241368992, 46.73358295829911 ], [ -71.140017846772068, 46.73121178521528 ] ] ] } },
{ "type": "Feature", "properties": { "hex_id": 798662, "centroid_lon": -71.134786699626488, "centroid_lat": 46.712847554685425, "occurrences_today": 1, "datetimes_today": "2026-08-21 02:46:57", "cumulative_total": 103.0 }, "geometry": { "type": "Polygon", "coordinates": [ [ [ -71.135157307678639, 46.707663686329234 ], [ -71.141498610289631, 46.710476208700946 ], [ -71.141128573069736, 46.715660113290092 ], [ -71.134415989004907, 46.718031416061301 ], [ -71.128074218148839, 46.715218487689839 ], [ -71.128445499567249, 46.710034662613282 ], [ -71.135157307678639, 46.707663686329234 ] ] ] } },
{ "type": "Feature", "properties": { "hex_id": 799272, "centroid_lon": -71.128816678262908, "centroid_lat": 46.70485083054924, "occurrences_today": 1, "datetimes_today": "2026-08-21 02:46:57", "cumulative_total": 103.0 }, "geometry": { "type": "Polygon", "coordinates": [ [ [ -71.129187754271285, 46.699666991498496 ], [ -71.135527813196759, 46.702479810993488 ], [ -71.135157307678639, 46.707663686329234 ], [ -71.128445499567249, 46.710034662613282 ], [ -71.122104972856533, 46.707221437179179 ], [ -71.122476722006994, 46.702037641466482 ], [ -71.129187754271285, 46.699666991498496 ] ] ] } },
{ "type": "Feature", "properties": { "hex_id": 799883, "centroid_lon": -71.121733120830072, "centroid_lat": 46.712405225897221, "occurrences_today": 1, "datetimes_today": "2026-08-21 02:46:57", "cumulative_total": 137.0 }, "geometry": { "type": "Polygon", "coordinates": [ [ [ -71.122104972856533, 46.707221437179179 ], [ -71.128445499567249, 46.710034662613282 ], [ -71.128074218148839, 46.715218487689839 ], [ -71.121361165892083, 46.717589007619821 ], [ -71.115020171502621, 46.714775376086742 ], [ -71.115392697013121, 46.709591630788999 ], [ -71.122104972856533, 46.707221437179179 ] ] ] } },
{ "type": "Feature", "properties": { "hex_id": 800493, "centroid_lon": -71.115765119458842, "centroid_lat": 46.704407878488659, "occurrences_today": 1, "datetimes_today": "2026-08-21 02:46:57", "cumulative_total": 129.0 }, "geometry": { "type": "Polygon", "coordinates": [ [ [ -71.116137438875384, 46.699224119186475 ], [ -71.122476722006994, 46.702037641466482 ], [ -71.122104972856533, 46.707221437179179 ], [ -71.115392697013121, 46.709591630788999 ], [ -71.109052946662374, 46.706777702470731 ], [ -71.109425939338621, 46.701593986647246 ], [ -71.116137438875384, 46.699224119186475 ] ] ] } },
{ "type": "Feature", "properties": { "hex_id": 801104, "centroid_lon": -71.108679850768226, "centroid_lat": 46.711961411284406, "occurrences_today": 1, "datetimes_today": "2026-08-21 02:46:57", "cumulative_total": 133.0 }, "geometry": { "type": "Polygon", "coordinates": [ [ [ -71.109052946662374, 46.706777702470731 ], [ -71.115392697013121, 46.709591630788999 ], [ -71.115020171502621, 46.714775376086742 ], [ -71.108306651620495, 46.717145113087497 ], [ -71.10196643415749, 46.714330778571103 ], [ -71.102340203653213, 46.709147113318409 ], [ -71.109052946662374, 46.706777702470731 ] ] ] } },
{ "type": "Feature", "properties": { "hex_id": 801714, "centroid_lon": -71.102713869742246, "centroid_lat": 46.703963441047932, "occurrences_today": 1, "datetimes_today": "2026-08-21 02:46:57", "cumulative_total": 103.0 }, "geometry": { "type": "Polygon", "coordinates": [ [ [ -71.103087432460256, 46.698779761760449 ], [ -71.109425939338621, 46.701593986647246 ], [ -71.109052946662374, 46.706777702470731 ], [ -71.102340203653213, 46.709147113318409 ], [ -71.096001230121928, 46.7063324822943 ], [ -71.096375466217054, 46.701148846626154 ], [ -71.103087432460256, 46.698779761760449 ] ] ] } },
{ "type": "Feature", "properties": { "hex_id": 802325, "centroid_lon": -71.095626890467045, "centroid_lat": 46.711516110937445, "occurrences_today": 1, "datetimes_today": "2026-08-21 02:46:57", "cumulative_total": 2.0 }, "geometry": { "type": "Polygon", "coordinates": [ [ [ -71.096001230121928, 46.7063324822943 ], [ -71.102340203653213, 46.709147113318409 ], [ -71.10196643415749, 46.714330778571103 ], [ -71.095252447216609, 46.71669973255478 ], [ -71.08891300713961, 46.713884695233546 ], [ -71.089288020513422, 46.708701110292097 ], [ -71.096001230121928, 46.7063324822943 ] ] ] } },
{ "type": "Feature", "properties": { "hex_id": 802935, "centroid_lon": -71.08966293013863, "centroid_lat": 46.703517518317618, "occurrences_today": 1, "datetimes_today": "2026-08-21 02:46:57", "cumulative_total": 103.0 }, "geometry": { "type": "Polygon", "coordinates": [ [ [ -71.090037736051059, 46.698333919310919 ], [ -71.096375466217054, 46.701148846626154 ], [ -71.096001230121928, 46.7063324822943 ], [ -71.089288020513422, 46.708701110292097 ], [ -71.082949824260808, 46.705885776740622 ], [ -71.083325303667522, 46.700702221493913 ], [ -71.090037736051059, 46.698333919310919 ] ] ] } },
{ "type": "Feature", "properties": { "hex_id": 803546, "centroid_lon": -71.082574240952496, "centroid_lat": 46.711069324947083, "occurrences_today": 1, "datetimes_today": "2026-08-21 02:46:57", "cumulative_total": 13.0 }, "geometry": { "type": "Polygon", "coordinates": [ [ [ -71.082949824260808, 46.705885776740622 ], [ -71.089288020513422, 46.708701110292097 ], [ -71.08891300713961, 46.713884695233546 ], [ -71.082198553706718, 46.716252866112477 ], [ -71.075859891475034, 46.713437126165005 ], [ -71.076236148619415, 46.708253621800935 ], [ -71.082949824260808, 46.705885776740622 ] ] ] } },
{ "type": "Feature", "properties": { "hex_id": 804156, "centroid_lon": -71.07661230167335, "centroid_lat": 46.703070110388587, "occurrences_today": 1, "datetimes_today": "2026-08-21 02:46:57", "cumulative_total": 58.0 }, "geometry": { "type": "Polygon", "coordinates": [ [ [ -71.076988350672778, 46.697886591928722 ], [ -71.083325303667522, 46.700702221493913 ], [ -71.082949824260808, 46.705885776740622 ], [ -71.076236148619415, 46.708253621800935 ], [ -71.069898730104427, 46.705437585900718 ], [ -71.070275452715137, 46.700254111341522 ], [ -71.076988350672778, 46.697886591928722 ] ] ] } },
{ "type": "Feature", "properties": { "hex_id": 805377, "centroid_lon": -71.063561985371578, "centroid_lat": 46.702621217351982, "occurrences_today": 1, "datetimes_today": "2026-08-21 02:46:57", "cumulative_total": 2.0 }, "geometry": { "type": "Polygon", "coordinates": [ [ [ -71.063939277350244, 46.697437779704977 ], [ -71.070275452715137, 46.700254111341522 ], [ -71.069898730104427, 46.705437585900718 ], [ -71.063184588996734, 46.70780464793615 ], [ -71.056847948678097, 46.70498790986592 ], [ -71.057225914384844, 46.699804516260258 ], [ -71.063939277350244, 46.697437779704977 ] ] ] } },
{ "type": "Feature", "properties": { "hex_id": 791337, "centroid_lon": -71.21202456915465, "centroid_lat": 46.731023300502137, "occurrences_today": 7, "datetimes_today": "2026-08-21 02:46:57, 2026-08-21 03:01:52, 2026-08-21 03:15:11, 2026-08-21 03:31:57, 2026-08-21 03:48:01, 2026-08-21 04:16:56, 2026-08-21 04:30:50", "cumulative_total": 222.0 }, "geometry": { "type": "Polygon", "coordinates": [ [ [ -71.212388012793511, 46.725838980583454 ], [ -71.21873567812267, 46.728647387303162 ], [ -71.218372807119991, 46.733831742721563 ], [ -71.211661024895662, 46.736207613527846 ], [ -71.205312887567814, 46.73339880118619 ], [ -71.20567700442821, 46.728214523726656 ], [ -71.212388012793511, 46.725838980583454 ] ] ] } },
{ "type": "Feature", "properties": { "hex_id": 799273, "centroid_lon": -71.12770283397218, "centroid_lat": 46.720402305778123, "occurrences_today": 1, "datetimes_today": "2026-08-21 02:46:57", "cumulative_total": 102.0 }, "geometry": { "type": "Polygon", "coordinates": [ [ [ -71.128074218148839, 46.715218487689839 ], [ -71.134415989004907, 46.718031416061301 ], [ -71.134045175778439, 46.723215270456052 ], [ -71.127331347001771, 46.725586116877359 ], [ -71.120989108007009, 46.722772782346212 ], [ -71.121361165892083, 46.717589007619821 ], [ -71.128074218148839, 46.715218487689839 ] ] ] } },
{ "type": "Feature", "properties": { "hex_id": 792558, "centroid_lon": -71.19896542363287, "centroid_lat": 46.730589654334615, "occurrences_today": 1, "datetimes_today": "2026-08-21 02:46:57", "cumulative_total": 148.0 }, "geometry": { "type": "Polygon", "coordinates": [ [ [ -71.199330112905884, 46.72540541250067 ], [ -71.20567700442821, 46.728214523726656 ], [ -71.205312887567814, 46.73339880118619 ], [ -71.198600633397007, 46.735773889260756 ], [ -71.192253270442365, 46.732964372312779 ], [ -71.192618633055957, 46.727780173078671 ], [ -71.199330112905884, 46.72540541250067 ] ] ] } },
{ "type": "Feature", "properties": { "hex_id": 740661, "centroid_lon": -71.758433214443045, "centroid_lat": 46.677677613509218, "occurrences_today": 5, "datetimes_today": "2026-08-21 00:02:03, 2026-08-21 00:31:50, 2026-08-21 00:46:51, 2026-08-21 01:16:47, 2026-08-21 01:46:44", "cumulative_total": 62.0 }, "geometry": { "type": "Polygon", "coordinates": [ [ [ -71.758743713618557, 46.672490203182981 ], [ -71.765115242951026, 46.675268810420953 ], [ -71.764805323434871, 46.680456250906914 ], [ -71.758122629315892, 46.682865017520776 ], [ -71.751750606290543, 46.680086009907122 ], [ -71.75206177104738, 46.674898636121917 ], [ -71.758743713618557, 46.672490203182981 ] ] ] } },
{ "type": "Feature", "properties": { "hex_id": 793169, "centroid_lon": -71.191887806677087, "centroid_lat": 46.738148564631267, "occurrences_today": 1, "datetimes_today": "2026-08-21 02:46:57", "cumulative_total": 11.0 }, "geometry": { "type": "Polygon", "coordinates": [ [ [ -71.192253270442365, 46.732964372312779 ], [ -71.198600633397007, 46.735773889260756 ], [ -71.198235742163376, 46.740958117278346 ], [ -71.191522241725139, 46.743332750033396 ], [ -71.185174407443, 46.740522827203158 ], [ -71.185540544891623, 46.735338677566595 ], [ -71.192253270442365, 46.732964372312779 ] ] ] } },
{ "type": "Feature", "properties": { "hex_id": 793778, "centroid_lon": -71.187004081630491, "centroid_lat": 46.714602009793573, "occurrences_today": 1, "datetimes_today": "2026-08-21 02:46:57", "cumulative_total": 72.0 }, "geometry": { "type": "Polygon", "coordinates": [ [ [ -71.187369712726294, 46.70941782554744 ], [ -71.193714114336061, 46.712227533890264 ], [ -71.193349054967868, 46.717411753866656 ], [ -71.186638349334103, 46.719786187119325 ], [ -71.180293477214789, 46.716976073175026 ], [ -71.180659781203829, 46.711791931645934 ], [ -71.187369712726294, 46.70941782554744 ] ] ] } },
{ "type": "Feature", "properties": { "hex_id": 801106, "centroid_lon": -71.106439105829338, "centroid_lat": 46.743063516916266, "occurrences_today": 1, "datetimes_today": "2026-08-21 02:46:57", "cumulative_total": 4.0 }, "geometry": { "type": "Polygon", "coordinates": [ [ [ -71.106812821780295, 46.737879850178054 ], [ -71.113155996732175, 46.740693997508529 ], [ -71.112782852084877, 46.745877700773974 ], [ -71.106065286410526, 46.748247176639147 ], [ -71.099721643640748, 46.745432622668986 ], [ -71.10009603432745, 46.740248999539794 ], [ -71.106812821780295, 46.737879850178054 ] ] ] } },
{ "type": "Feature", "properties": { "hex_id": 801716, "centroid_lon": -71.100470321392862, "centroid_lat": 46.735065369388003, "occurrences_today": 1, "datetimes_today": "2026-08-21 02:46:57", "cumulative_total": 4.0 }, "geometry": { "type": "Polygon", "coordinates": [ [ [ -71.100844504872782, 46.729881732214444 ], [ -71.107186434299166, 46.732696176425272 ], [ -71.106812821780295, 46.737879850178054 ], [ -71.10009603432745, 46.740248999539794 ], [ -71.093753637543387, 46.737434148750168 ], [ -71.094128495534065, 46.732250555244015 ], [ -71.100844504872782, 46.729881732214444 ] ] ] } },
{ "type": "Feature", "properties": { "hex_id": 793779, "centroid_lon": -71.185906580999671, "centroid_lat": 46.73015452100659, "occurrences_today": 1, "datetimes_today": "2026-08-21 02:46:57", "cumulative_total": 28.0 }, "geometry": { "type": "Polygon", "coordinates": [ [ [ -71.186272515802159, 46.724970357523915 ], [ -71.192618633055957, 46.727780173078671 ], [ -71.192253270442365, 46.732964372312779 ], [ -71.185540544891623, 46.735338677566595 ], [ -71.179193956771968, 46.732528456189925 ], [ -71.179560565033896, 46.727344335447782 ], [ -71.186272515802159, 46.724970357523915 ] ] ] } },
{ "type": "Feature", "properties": { "hex_id": 1253597, "centroid_lon": -66.010943629297842, "centroid_lat": 48.178778385990512, "occurrences_today": 1, "datetimes_today": "2026-08-21 00:02:03", "cumulative_total": 8.0 }, "geometry": { "type": "Polygon", "coordinates": [ [ [ -66.01184785438997, 48.173647891691907 ], [ -66.018038915864921, 48.17673670795444 ], [ -66.017135210638173, 48.181867287283957 ], [ -66.010039151283337, 48.183908862894192 ], [ -66.003847822910117, 48.180819586204457 ], [ -66.004752820700531, 48.175689194396568 ], [ -66.01184785438997, 48.173647891691907 ] ] ] } },
{ "type": "Feature", "properties": { "hex_id": 1255428, "centroid_lon": -65.992373521377061, "centroid_lat": 48.169509940759951, "occurrences_today": 1, "datetimes_today": "2026-08-21 00:02:03", "cumulative_total": 11.0 }, "geometry": { "type": "Polygon", "coordinates": [ [ [ -65.993279304752619, 48.164379701847267 ], [ -65.999468048923248, 48.167469388525156 ], [ -65.998562784756771, 48.172599712615302 ], [ -65.991467484691299, 48.174640162229714 ], [ -65.985278474666586, 48.171550015171114 ], [ -65.986185030471873, 48.166419878943685 ], [ -65.993279304752619, 48.164379701847267 ] ] ] } },
{ "type": "Feature", "properties": { "hex_id": 794389, "centroid_lon": -71.179927071836502, "centroid_lat": 46.722160207775893, "occurrences_today": 1, "datetimes_today": "2026-08-21 02:46:57", "cumulative_total": 28.0 }, "geometry": { "type": "Polygon", "coordinates": [ [ [ -71.180293477214789, 46.716976073175026 ], [ -71.186638349334103, 46.719786187119325 ], [ -71.186272515802159, 46.724970357523915 ], [ -71.179560565033896, 46.727344335447782 ], [ -71.173215222510038, 46.724533815741914 ], [ -71.173582301123943, 46.719349723940162 ], [ -71.180293477214789, 46.716976073175026 ] ] ] } },
{ "type": "Feature", "properties": { "hex_id": 798054, "centroid_lon": -71.13853544289762, "centroid_lat": 46.751947250121283, "occurrences_today": 1, "datetimes_today": "2026-08-21 02:46:57", "cumulative_total": 44.0 }, "geometry": { "type": "Polygon", "coordinates": [ [ [ -71.138906197773736, 46.746763394360784 ], [ -71.145252173986449, 46.749575836584597 ], [ -71.144881991206475, 46.754759728568807 ], [ -71.138164585357345, 46.757131098903145 ], [ -71.131818139730399, 46.754318250177491 ], [ -71.132189569331317, 46.749134437685804 ], [ -71.138906197773736, 46.746763394360784 ] ] ] } },
{ "type": "Feature", "properties": { "hex_id": 735672, "centroid_lon": -71.90285366315031, "centroid_lat": 45.044721757726741, "occurrences_today": 4, "datetimes_today": "2026-08-21 03:31:57, 2026-08-21 03:48:01, 2026-08-21 04:16:56, 2026-08-21 04:30:50", "cumulative_total": 12.0 }, "geometry": { "type": "Polygon", "coordinates": [ [ [ -71.903133922710438, 45.039532134505563 ], [ -71.909333143278133, 45.042298845241341 ], [ -71.909053417222168, 45.047488496342375 ], [ -71.902573327556325, 45.049911374840583 ], [ -71.896373649530886, 45.047144286319785 ], [ -71.896654518603881, 45.041954697148732 ], [ -71.903133922710438, 45.039532134505563 ] ] ] } },
{ "type": "Feature", "properties": { "hex_id": 736893, "centroid_lon": -71.890174581172744, "centroid_lat": 45.044376875877902, "occurrences_today": 4, "datetimes_today": "2026-08-21 03:31:57, 2026-08-21 03:48:01, 2026-08-21 04:16:56, 2026-08-21 04:30:50", "cumulative_total": 12.0 }, "geometry": { "type": "Polygon", "coordinates": [ [ [ -71.890455983557743, 45.039187314707235 ], [ -71.896654518603881, 45.041954697148732 ], [ -71.896373649530886, 45.047144286319785 ], [ -71.889893102445058, 45.049566430930113 ], [ -71.883694110442221, 45.046798670602676 ], [ -71.883976122456644, 45.041609143613776 ], [ -71.890455983557743, 45.039187314707235 ] ] ] } },
{ "type": "Feature", "properties": { "hex_id": 737503, "centroid_lon": -71.884258057986656, "centroid_lat": 45.036419610501078, "occurrences_today": 4, "datetimes_today": "2026-08-21 03:31:57, 2026-08-21 03:48:01, 2026-08-21 04:16:56, 2026-08-21 04:30:50", "cumulative_total": 12.0 }, "geometry": { "type": "Polygon", "coordinates": [ [ [ -71.884539917057509, 45.031230071265085 ], [ -71.890737309625308, 45.033997747418582 ], [ -71.890455983557743, 45.039187314707235 ], [ -71.883976122456644, 45.041609143613776 ], [ -71.877778273357322, 45.038841089626295 ], [ -71.878060741865326, 45.033651584629133 ], [ -71.884539917057509, 45.031230071265085 ] ] ] } },
{ "type": "Feature", "properties": { "hex_id": 738114, "centroid_lon": -71.877495728223209, "centroid_lat": 45.044030588494323, "occurrences_today": 4, "datetimes_today": "2026-08-21 03:31:57, 2026-08-21 03:48:01, 2026-08-21 04:16:56, 2026-08-21 04:30:50", "cumulative_total": 12.0 }, "geometry": { "type": "Polygon", "coordinates": [ [ [ -71.877778273357322, 45.038841089626295 ], [ -71.883976122456644, 45.041609143613776 ], [ -71.883694110442221, 45.046798670602676 ], [ -71.877213106437623, 45.049220081232747 ], [ -71.871014800882776, 45.046451649258508 ], [ -71.871297955762699, 45.041262184703889 ], [ -71.877778273357322, 45.038841089626295 ] ] ] } },
{ "type": "Feature", "properties": { "hex_id": 738724, "centroid_lon": -71.871581033849466, "centroid_lat": 45.036072714014317, "occurrences_today": 4, "datetimes_today": "2026-08-21 03:31:57, 2026-08-21 03:48:01, 2026-08-21 04:16:56, 2026-08-21 04:30:50", "cumulative_total": 12.0 }, "geometry": { "type": "Polygon", "coordinates": [ [ [ -71.871864035168485, 45.03088323719026 ], [ -71.878060741865326, 45.033651584629133 ], [ -71.877778273357322, 45.038841089626295 ], [ -71.871297955762699, 45.041262184703889 ], [ -71.865100793035282, 45.03849345933029 ], [ -71.865384403907669, 45.033304016876713 ], [ -71.871864035168485, 45.03088323719026 ] ] ] } },
{ "type": "Feature", "properties": { "hex_id": 739945, "centroid_lon": -71.858904240015534, "centroid_lat": 45.035724412472398, "occurrences_today": 4, "datetimes_today": "2026-08-21 03:31:57, 2026-08-21 03:48:01, 2026-08-21 04:16:56, 2026-08-21 04:30:50", "cumulative_total": 12.0 }, "geometry": { "type": "Polygon", "coordinates": [ [ [ -71.859188383506549, 45.030534998312348 ], [ -71.865384403907669, 45.033304016876713 ], [ -71.865100793035282, 45.03849345933029 ], [ -71.858620019448168, 45.040913820486786 ], [ -71.852423543517517, 45.038144423887076 ], [ -71.852708296678003, 45.032955044229091 ], [ -71.859188383506549, 45.030534998312348 ] ] ] } },
{ "type": "Feature", "properties": { "hex_id": 740555, "centroid_lon": -71.85299297262064, "centroid_lat": 45.027765658420066, "occurrences_today": 4, "datetimes_today": "2026-08-21 03:31:57, 2026-08-21 03:48:01, 2026-08-21 04:16:56, 2026-08-21 04:30:50", "cumulative_total": 12.0 }, "geometry": { "type": "Polygon", "coordinates": [ [ [ -71.853277571370953, 45.022576266460476 ], [ -71.859472449946722, 45.025345578007091 ], [ -71.859188383506549, 45.030534998312348 ], [ -71.852708296678003, 45.032955044229091 ], [ -71.846512962997153, 45.030185354699228 ], [ -71.846798171224421, 45.02499599729871 ], [ -71.853277571370953, 45.022576266460476 ] ] ] } },
{ "type": "Feature", "properties": { "hex_id": 741776, "centroid_lon": -71.840318238947447, "centroid_lat": 45.02741534398168, "occurrences_today": 4, "datetimes_today": "2026-08-21 03:31:57, 2026-08-21 03:48:01, 2026-08-21 04:16:56, 2026-08-21 04:30:50", "cumulative_total": 12.0 }, "geometry": { "type": "Polygon", "coordinates": [ [ [ -71.840603979292354, 45.022226015047174 ], [ -71.846798171224421, 45.02499599729871 ], [ -71.846512962997153, 45.030185354699228 ], [ -71.840032421101853, 45.032604666754359 ], [ -71.833837774565637, 45.02983430641914 ], [ -71.834124124503262, 45.02464501217532 ], [ -71.840603979292354, 45.022226015047174 ] ] ] } },
{ "type": "Feature", "properties": { "hex_id": 742386, "centroid_lon": -71.834410396798859, "centroid_lat": 45.019455711764259, "occurrences_today": 4, "datetimes_today": "2026-08-21 03:31:57, 2026-08-21 03:48:01, 2026-08-21 04:16:56, 2026-08-21 04:30:50", "cumulative_total": 12.0 }, "geometry": { "type": "Polygon", "coordinates": [ [ [ -71.834696591478078, 45.01426640518649 ], [ -71.840889642162196, 45.017036679951346 ], [ -71.840603979292354, 45.022226015047174 ], [ -71.834124124503262, 45.02464501217532 ], [ -71.827930619638948, 45.021874359378991 ], [ -71.828217423718272, 45.016685087548836 ], [ -71.834696591478078, 45.01426640518649 ] ] ] } },
{ "type": "Feature", "properties": { "hex_id": 741999, "centroid_lon": -71.630401730693663, "centroid_lat": 48.49766938853017, "occurrences_today": 2, "datetimes_today": "2026-08-21 00:02:03, 2026-08-21 00:31:50", "cumulative_total": 5.0 }, "geometry": { "type": "Polygon", "coordinates": [ [ [ -71.63074570454198, 48.492484299972602 ], [ -71.63732987469426, 48.495274638466206 ], [ -71.636986538630808, 48.500459759593753 ], [ -71.63005765913357, 48.502854470562674 ], [ -71.623472948925908, 48.500063705116794 ], [ -71.623817658235438, 48.494878655725586 ], [ -71.63074570454198, 48.492484299972602 ] ] ] } },
{ "type": "Feature", "properties": { "hex_id": 742609, "centroid_lon": -71.624162269656907, "centroid_lat": 48.489693599802337, "occurrences_today": 2, "datetimes_today": "2026-08-21 00:02:03, 2026-08-21 00:31:50", "cumulative_total": 5.0 }, "geometry": { "type": "Polygon", "coordinates": [ [ [ -71.624506783225812, 48.484508537347644 ], [ -71.63108958071399, 48.487299204890554 ], [ -71.63074570454198, 48.492484299972602 ], [ -71.623817658235438, 48.494878655725586 ], [ -71.61723432122065, 48.492087561292443 ], [ -71.617579570003556, 48.486902538067817 ], [ -71.624506783225812, 48.484508537347644 ] ] ] } },
{ "type": "Feature", "properties": { "hex_id": 743220, "centroid_lon": -71.616888974373495, "centroid_lat": 48.497272577978045, "occurrences_today": 2, "datetimes_today": "2026-08-21 00:02:03, 2026-08-21 00:31:50", "cumulative_total": 5.0 }, "geometry": { "type": "Polygon", "coordinates": [ [ [ -71.61723432122065, 48.492087561292443 ], [ -71.623817658235438, 48.494878655725586 ], [ -71.623472948925908, 48.500063705116794 ], [ -71.616543529426494, 48.502457588124038 ], [ -71.609959652991705, 48.499666066627938 ], [ -71.610305735440761, 48.494481089258855 ], [ -71.61723432122065, 48.492087561292443 ] ] ] } },
{ "type": "Feature", "properties": { "hex_id": 799885, "centroid_lon": -71.119499846284185, "centroid_lat": 46.743507811273744, "occurrences_today": 1, "datetimes_today": "2026-08-21 02:46:57", "cumulative_total": 9.0 }, "geometry": { "type": "Polygon", "coordinates": [ [ [ -71.11987231631349, 46.738324064540137 ], [ -71.126216268972797, 46.74113750823291 ], [ -71.125844370472024, 46.746321291368069 ], [ -71.119127273129777, 46.748691551007205 ], [ -71.112782852084877, 46.745877700773974 ], [ -71.113155996732175, 46.740693997508529 ], [ -71.11987231631349, 46.738324064540137 ] ] ] } },
{ "type": "Feature", "properties": { "hex_id": 804158, "centroid_lon": -71.074353821273647, "centroid_lat": 46.734171073122106, "occurrences_today": 1, "datetimes_today": "2026-08-21 02:46:57", "cumulative_total": 21.0 }, "geometry": { "type": "Polygon", "coordinates": [ [ [ -71.074730495139548, 46.728987596959328 ], [ -71.081070867985346, 46.731803447354281 ], [ -71.080694764630437, 46.736986960347394 ], [ -71.073977043137361, 46.739354542232554 ], [ -71.06763620406899, 46.736538285060938 ], [ -71.068013552680227, 46.731354852847225 ], [ -71.074730495139548, 46.728987596959328 ] ] ] } },
{ "type": "Feature", "properties": { "hex_id": 804769, "centroid_lon": -71.067258750998107, "centroid_lat": 46.741721710214243, "occurrences_today": 1, "datetimes_today": "2026-08-21 02:46:57", "cumulative_total": 21.0 }, "geometry": { "type": "Polygon", "coordinates": [ [ [ -71.06763620406899, 46.736538285060938 ], [ -71.073977043137361, 46.739354542232554 ], [ -71.07360016069461, 46.744538004289851 ], [ -71.066881193431485, 46.746905128306331 ], [ -71.060539888248769, 46.744088464198178 ], [ -71.060918016407442, 46.738905083076503 ], [ -71.06763620406899, 46.736538285060938 ] ] ] } },
{ "type": "Feature", "properties": { "hex_id": 613592, "centroid_lon": -73.161737257130412, "centroid_lat": 45.383765134268742, "occurrences_today": 5, "datetimes_today": "2026-08-21 02:46:57, 2026-08-21 03:01:52, 2026-08-21 03:15:11, 2026-08-21 03:31:57, 2026-08-21 03:48:01", "cumulative_total": 6.0 }, "geometry": { "type": "Polygon", "coordinates": [ [ [ -73.161905630601083, 45.378570896248341 ], [ -73.168204607088541, 45.381270597239329 ], [ -73.168036794632854, 45.38646485112087 ], [ -73.161568837754942, 45.388959367055818 ], [ -73.155269346164957, 45.38625929491338 ], [ -73.155438326540065, 45.381065078051549 ], [ -73.161905630601083, 45.378570896248341 ] ] ] } },
{ "type": "Feature", "properties": { "hex_id": 614203, "centroid_lon": -73.155100319718386, "centroid_lat": 45.391453506538454, "occurrences_today": 5, "datetimes_today": "2026-08-21 02:46:57, 2026-08-21 03:01:52, 2026-08-21 03:15:11, 2026-08-21 03:31:57, 2026-08-21 03:48:01", "cumulative_total": 6.0 }, "geometry": { "type": "Polygon", "coordinates": [ [ [ -73.155269346164957, 45.38625929491338 ], [ -73.161568837754942, 45.388959367055818 ], [ -73.16140037245934, 45.394153594609421 ], [ -73.154931247184976, 45.396647712926601 ], [ -73.148631240538577, 45.393947269475042 ], [ -73.148800874207538, 45.388753079079564 ], [ -73.155269346164957, 45.38625929491338 ] ] ] } },
{ "type": "Feature", "properties": { "hex_id": 794390, "centroid_lon": -71.178827247015619, "centroid_lat": 46.737712570001534, "occurrences_today": 1, "datetimes_today": "2026-08-21 02:46:57", "cumulative_total": 1.0 }, "geometry": { "type": "Polygon", "coordinates": [ [ [ -71.179193956771968, 46.732528456189925 ], [ -71.185540544891623, 46.735338677566595 ], [ -71.185174407443, 46.740522827203158 ], [ -71.178460435729775, 46.742896676881891 ], [ -71.172113376849424, 46.740086049523043 ], [ -71.172480760407922, 46.734901978534126 ], [ -71.179193956771968, 46.732528456189925 ] ] ] } },
{ "type": "Feature", "properties": { "hex_id": 794999, "centroid_lon": -71.173949278159881, "centroid_lat": 46.714165625202362, "occurrences_today": 1, "datetimes_today": "2026-08-21 02:46:57", "cumulative_total": 1.0 }, "geometry": { "type": "Polygon", "coordinates": [ [ [ -71.174316153652924, 46.708981519529246 ], [ -71.180659781203829, 46.711791931645934 ], [ -71.180293477214789, 46.716976073175026 ], [ -71.173582301123943, 46.719349723940162 ], [ -71.167238203629452, 46.71653890612226 ], [ -71.167605752134307, 46.711354843306822 ], [ -71.174316153652924, 46.708981519529246 ] ] ] } },
{ "type": "Feature", "properties": { "hex_id": 795000, "centroid_lon": -71.172848042283078, "centroid_lat": 46.729717900606815, "occurrences_today": 1, "datetimes_today": "2026-08-21 02:46:57", "cumulative_total": 1.0 }, "geometry": { "type": "Polygon", "coordinates": [ [ [ -71.173215222510038, 46.724533815741914 ], [ -71.179560565033896, 46.727344335447782 ], [ -71.179193956771968, 46.732528456189925 ], [ -71.172480760407922, 46.734901978534126 ], [ -71.166134947584794, 46.732091052906519 ], [ -71.166502801389854, 46.726907010922865 ], [ -71.173215222510038, 46.724533815741914 ] ] ] } },
{ "type": "Feature", "properties": { "hex_id": 796221, "centroid_lon": -71.159789808511064, "centroid_lat": 46.729279793224329, "occurrences_today": 1, "datetimes_today": "2026-08-21 02:46:57", "cumulative_total": 1.0 }, "geometry": { "type": "Polygon", "coordinates": [ [ [ -71.160158234057135, 46.724095787243677 ], [ -71.166502801389854, 46.726907010922865 ], [ -71.166134947584794, 46.732091052906519 ], [ -71.1594212809742, 46.73446379225242 ], [ -71.153076243908885, 46.731652162551811 ], [ -71.153445343151503, 46.726468199593135 ], [ -71.160158234057135, 46.724095787243677 ] ] ] } },
{ "type": "Feature", "properties": { "hex_id": 797442, "centroid_lon": -71.146731880711371, "centroid_lat": 46.728840198948475, "occurrences_today": 1, "datetimes_today": "2026-08-21 02:46:57", "cumulative_total": 1.0 }, "geometry": { "type": "Polygon", "coordinates": [ [ [ -71.14710155147084, 46.723656272118511 ], [ -71.153445343151503, 46.726468199593135 ], [ -71.153076243908885, 46.731652162551811 ], [ -71.146362107618558, 46.734024118810865 ], [ -71.140017846772068, 46.73121178521528 ], [ -71.140388191346347, 46.726027901548029 ], [ -71.14710155147084, 46.723656272118511 ] ] ] } },
{ "type": "Feature", "properties": { "hex_id": 798663, "centroid_lon": -71.133674259911615, "centroid_lat": 46.728399117868918, "occurrences_today": 1, "datetimes_today": "2026-08-21 02:46:57", "cumulative_total": 1.0 }, "geometry": { "type": "Polygon", "coordinates": [ [ [ -71.134045175778439, 46.723215270456052 ], [ -71.140388191346347, 46.726027901548029 ], [ -71.140017846772068, 46.73121178521528 ], [ -71.133303241368992, 46.73358295829911 ], [ -71.126959757202115, 46.730769920986766 ], [ -71.127331347001771, 46.725586116877359 ], [ -71.134045175778439, 46.723215270456052 ] ] ] } },
{ "type": "Feature", "properties": { "hex_id": 798664, "centroid_lon": -71.132560896114356, "centroid_lat": 46.743950618208324, "occurrences_today": 1, "datetimes_today": "2026-08-21 02:46:57", "cumulative_total": 1.0 }, "geometry": { "type": "Polygon", "coordinates": [ [ [ -71.132932120115086, 46.738766791745839 ], [ -71.139276850021218, 46.741579531622449 ], [ -71.138906197773736, 46.746763394360784 ], [ -71.132189569331317, 46.749134437685804 ], [ -71.125844370472024, 46.746321291368069 ], [ -71.126216268972797, 46.74113750823291 ], [ -71.132932120115086, 46.738766791745839 ] ] ] } },
{ "type": "Feature", "properties": { "hex_id": 799274, "centroid_lon": -71.126588064537643, "centroid_lat": 46.735953718105534, "occurrences_today": 1, "datetimes_today": "2026-08-21 02:46:57", "cumulative_total": 1.0 }, "geometry": { "type": "Polygon", "coordinates": [ [ [ -71.126959757202115, 46.730769920986766 ], [ -71.133303241368992, 46.73358295829911 ], [ -71.132932120115086, 46.738766791745839 ], [ -71.126216268972797, 46.74113750823291 ], [ -71.11987231631349, 46.738324064540137 ], [ -71.120244683253304, 46.733140310807158 ], [ -71.126959757202115, 46.730769920986766 ] ] ] } },
{ "type": "Feature", "properties": { "hex_id": 799884, "centroid_lon": -71.120616947139283, "centroid_lat": 46.727956550075589, "occurrences_today": 1, "datetimes_today": "2026-08-21 02:46:57", "cumulative_total": 1.0 }, "geometry": { "type": "Polygon", "coordinates": [ [ [ -71.120989108007009, 46.722772782346212 ], [ -71.127331347001771, 46.725586116877359 ], [ -71.126959757202115, 46.730769920986766 ], [ -71.120244683253304, 46.733140310807158 ], [ -71.113901976226543, 46.730326569956347 ], [ -71.114274811144966, 46.725142845671193 ], [ -71.120989108007009, 46.722772782346212 ] ] ] } },
{ "type": "Feature", "properties": { "hex_id": 800494, "centroid_lon": -71.114647542891802, "centroid_lat": 46.719959114381055, "occurrences_today": 1, "datetimes_today": "2026-08-21 02:46:57", "cumulative_total": 1.0 }, "geometry": { "type": "Polygon", "coordinates": [ [ [ -71.115020171502621, 46.714775376086742 ], [ -71.121361165892083, 46.717589007619821 ], [ -71.120989108007009, 46.722772782346212 ], [ -71.114274811144966, 46.725142845671193 ], [ -71.107933349183554, 46.722328807879201 ], [ -71.108306651620495, 46.717145113087497 ], [ -71.115020171502621, 46.714775376086742 ] ] ] } },
{ "type": "Feature", "properties": { "hex_id": 800495, "centroid_lon": -71.113529038100836, "centroid_lat": 46.735510287235712, "occurrences_today": 1, "datetimes_today": "2026-08-21 02:46:57", "cumulative_total": 1.0 }, "geometry": { "type": "Polygon", "coordinates": [ [ [ -71.113901976226543, 46.730326569956347 ], [ -71.120244683253304, 46.733140310807158 ], [ -71.11987231631349, 46.738324064540137 ], [ -71.113155996732175, 46.740693997508529 ], [ -71.106812821780295, 46.737879850178054 ], [ -71.107186434299166, 46.732696176425272 ], [ -71.113901976226543, 46.730326569956347 ] ] ] } },
{ "type": "Feature", "properties": { "hex_id": 801105, "centroid_lon": -71.107559943421677, "centroid_lat": 46.727512495658722, "occurrences_today": 1, "datetimes_today": "2026-08-21 02:46:57", "cumulative_total": 1.0 }, "geometry": { "type": "Polygon", "coordinates": [ [ [ -71.107933349183554, 46.722328807879201 ], [ -71.114274811144966, 46.725142845671193 ], [ -71.113901976226543, 46.730326569956347 ], [ -71.107186434299166, 46.732696176425272 ], [ -71.100844504872782, 46.729881732214444 ], [ -71.101218584803021, 46.72469808801992 ], [ -71.107933349183554, 46.722328807879201 ] ] ] } },
{ "type": "Feature", "properties": { "hex_id": 801715, "centroid_lon": -71.101592561219334, "centroid_lat": 46.719514436805191, "occurrences_today": 1, "datetimes_today": "2026-08-21 02:46:57", "cumulative_total": 1.0 }, "geometry": { "type": "Polygon", "coordinates": [ [ [ -71.10196643415749, 46.714330778571103 ], [ -71.108306651620495, 46.717145113087497 ], [ -71.107933349183554, 46.722328807879201 ], [ -71.101218584803021, 46.72469808801992 ], [ -71.094877900334851, 46.721883347145528 ], [ -71.095252447216609, 46.71669973255478 ], [ -71.10196643415749, 46.714330778571103 ] ] ] } },
{ "type": "Feature", "properties": { "hex_id": 802326, "centroid_lon": -71.09450324978593, "centroid_lat": 46.727066954708867, "occurrences_today": 1, "datetimes_today": "2026-08-21 02:46:57", "cumulative_total": 1.0 }, "geometry": { "type": "Polygon", "coordinates": [ [ [ -71.094877900334851, 46.721883347145528 ], [ -71.101218584803021, 46.72469808801992 ], [ -71.100844504872782, 46.729881732214444 ], [ -71.094128495534065, 46.732250555244015 ], [ -71.087787344168078, 46.72943540785176 ], [ -71.088162669002813, 46.724251844014191 ], [ -71.094877900334851, 46.721883347145528 ] ] ] } },
{ "type": "Feature", "properties": { "hex_id": 802327, "centroid_lon": -71.093378675778041, "centroid_lat": 46.742617735226517, "occurrences_today": 1, "datetimes_today": "2026-08-21 02:46:57", "cumulative_total": 1.0 }, "geometry": { "type": "Polygon", "coordinates": [ [ [ -71.093753637543387, 46.737434148750168 ], [ -71.10009603432745, 46.740248999539794 ], [ -71.099721643640748, 46.745432622668986 ], [ -71.09300361020216, 46.747801314672287 ], [ -71.086660746167937, 46.744986057143919 ], [ -71.087036382786579, 46.739802514417441 ], [ -71.093753637543387, 46.737434148750168 ] ] ] } },
{ "type": "Feature", "properties": { "hex_id": 802936, "centroid_lon": -71.088537889981353, "centroid_lat": 46.719068273141175, "occurrences_today": 1, "datetimes_today": "2026-08-21 02:46:57", "cumulative_total": 1.0 }, "geometry": { "type": "Polygon", "coordinates": [ [ [ -71.08891300713961, 46.713884695233546 ], [ -71.095252447216609, 46.71669973255478 ], [ -71.094877900334851, 46.721883347145528 ], [ -71.088162669002813, 46.724251844014191 ], [ -71.081822762487533, 46.721436400236016 ], [ -71.082198553706718, 46.716252866112477 ], [ -71.08891300713961, 46.713884695233546 ] ] ] } },
{ "type": "Feature", "properties": { "hex_id": 802937, "centroid_lon": -71.087411915441322, "centroid_lat": 46.734618964653116, "occurrences_today": 1, "datetimes_today": "2026-08-21 02:46:57", "cumulative_total": 1.0 }, "geometry": { "type": "Polygon", "coordinates": [ [ [ -71.087787344168078, 46.72943540785176 ], [ -71.094128495534065, 46.732250555244015 ], [ -71.093753637543387, 46.737434148750168 ], [ -71.087036382786579, 46.739802514417441 ], [ -71.080694764630437, 46.736986960347394 ], [ -71.081070867985346, 46.731803447354281 ], [ -71.087787344168078, 46.72943540785176 ] ] ] } },
{ "type": "Feature", "properties": { "hex_id": 803547, "centroid_lon": -71.081446867259075, "centroid_lat": 46.726619927316875, "occurrences_today": 1, "datetimes_today": "2026-08-21 02:46:57", "cumulative_total": 1.0 }, "geometry": { "type": "Polygon", "coordinates": [ [ [ -71.081822762487533, 46.721436400236016 ], [ -71.088162669002813, 46.724251844014191 ], [ -71.087787344168078, 46.72943540785176 ], [ -71.081070867985346, 46.731803447354281 ], [ -71.074730495139548, 46.728987596959328 ], [ -71.075107064771075, 46.723804113745004 ], [ -71.081822762487533, 46.721436400236016 ] ] ] } },
{ "type": "Feature", "properties": { "hex_id": 803548, "centroid_lon": -71.080318557158336, "centroid_lat": 46.742170466295434, "occurrences_today": 1, "datetimes_today": "2026-08-21 02:46:57", "cumulative_total": 1.0 }, "geometry": { "type": "Polygon", "coordinates": [ [ [ -71.080694764630437, 46.736986960347394 ], [ -71.087036382786579, 46.739802514417441 ], [ -71.086660746167937, 46.744986057143919 ], [ -71.079942245533061, 46.747353965197583 ], [ -71.07360016069461, 46.744538004289851 ], [ -71.073977043137361, 46.739354542232554 ], [ -71.080694764630437, 46.736986960347394 ] ] ] } },
{ "type": "Feature", "properties": { "hex_id": 804157, "centroid_lon": -71.075483530204238, "centroid_lat": 46.718620623479957, "occurrences_today": 1, "datetimes_today": "2026-08-21 02:46:57", "cumulative_total": 1.0 }, "geometry": { "type": "Polygon", "coordinates": [ [ [ -71.075859891475034, 46.713437126165005 ], [ -71.082198553706718, 46.716252866112477 ], [ -71.081822762487533, 46.721436400236016 ], [ -71.075107064771075, 46.723804113745004 ], [ -71.068767936668138, 46.720987967241761 ], [ -71.069144972116945, 46.715804513851651 ], [ -71.075859891475034, 46.713437126165005 ] ] ] } },
{ "type": "Feature", "properties": { "hex_id": 804159, "centroid_lon": -71.073223173909383, "centroid_lat": 46.749721459293191, "occurrences_today": 1, "datetimes_today": "2026-08-21 02:46:57", "cumulative_total": 1.0 }, "geometry": { "type": "Polygon", "coordinates": [ [ [ -71.07360016069461, 46.744538004289851 ], [ -71.079942245533061, 46.747353965197583 ], [ -71.079565829718618, 46.752537457053066 ], [ -71.072846082745585, 46.754904907241794 ], [ -71.066503531332984, 46.752088539336391 ], [ -71.066881193431485, 46.746905128306331 ], [ -71.07360016069461, 46.744538004289851 ] ] ] } },
{ "type": "Feature", "properties": { "hex_id": 804767, "centroid_lon": -71.069521903250362, "centroid_lat": 46.710621053404374, "occurrences_today": 1, "datetimes_today": "2026-08-21 02:46:57", "cumulative_total": 1.0 }, "geometry": { "type": "Polygon", "coordinates": [ [ [ -71.069898730104427, 46.705437585900718 ], [ -71.076236148619415, 46.708253621800935 ], [ -71.075859891475034, 46.713437126165005 ], [ -71.069144972116945, 46.715804513851651 ], [ -71.062807088189643, 46.712988071456685 ], [ -71.063184588996734, 46.70780464793615 ], [ -71.069898730104427, 46.705437585900718 ] ] ] } },
{ "type": "Feature", "properties": { "hex_id": 804768, "centroid_lon": -71.068390796867931, "centroid_lat": 46.726171413573887, "occurrences_today": 1, "datetimes_today": "2026-08-21 02:46:57", "cumulative_total": 1.0 }, "geometry": { "type": "Polygon", "coordinates": [ [ [ -71.068767936668138, 46.720987967241761 ], [ -71.075107064771075, 46.723804113745004 ], [ -71.074730495139548, 46.728987596959328 ], [ -71.068013552680227, 46.731354852847225 ], [ -71.061673958814112, 46.728538299628411 ], [ -71.062051773134428, 46.723354897303629 ], [ -71.068767936668138, 46.720987967241761 ] ] ] } },
{ "type": "Feature", "properties": { "hex_id": 805378, "centroid_lon": -71.06242948291424, "centroid_lat": 46.718171487912784, "occurrences_today": 1, "datetimes_today": "2026-08-21 02:46:57", "cumulative_total": 1.0 }, "geometry": { "type": "Polygon", "coordinates": [ [ [ -71.062807088189643, 46.712988071456685 ], [ -71.069144972116945, 46.715804513851651 ], [ -71.068767936668138, 46.720987967241761 ], [ -71.062051773134428, 46.723354897303629 ], [ -71.055713423902986, 46.720538048254198 ], [ -71.056091703473285, 46.715354675863694 ], [ -71.062807088189643, 46.712988071456685 ] ] ] } },
{ "type": "Feature", "properties": { "hex_id": 805379, "centroid_lon": -71.061296039917167, "centroid_lat": 46.733721694886306, "occurrences_today": 1, "datetimes_today": "2026-08-21 02:46:57", "cumulative_total": 1.0 }, "geometry": { "type": "Polygon", "coordinates": [ [ [ -71.061673958814112, 46.728538299628411 ], [ -71.068013552680227, 46.731354852847225 ], [ -71.06763620406899, 46.736538285060938 ], [ -71.060918016407442, 46.738905083076503 ], [ -71.054577956886462, 46.736088122982302 ], [ -71.054956550645741, 46.730904771814316 ], [ -71.061673958814112, 46.728538299628411 ] ] ] } },
{ "type": "Feature", "properties": { "hex_id": 805380, "centroid_lon": -71.060161655405011, "centroid_lat": 46.74927183825055, "occurrences_today": 1, "datetimes_today": "2026-08-21 02:46:57", "cumulative_total": 1.0 }, "geometry": { "type": "Polygon", "coordinates": [ [ [ -71.060539888248769, 46.744088464198178 ], [ -71.066881193431485, 46.746905128306331 ], [ -71.066503531332984, 46.752088539336391 ], [ -71.059783317839944, 46.754455205232787 ], [ -71.053441546651371, 46.751638134028191 ], [ -71.053820454925514, 46.746454804090057 ], [ -71.060539888248769, 46.744088464198178 ] ] ] } },
{ "type": "Feature", "properties": { "hex_id": 805988, "centroid_lon": -71.056469878386281, "centroid_lat": 46.710171296400674, "occurrences_today": 1, "datetimes_today": "2026-08-21 02:46:57", "cumulative_total": 1.0 }, "geometry": { "type": "Polygon", "coordinates": [ [ [ -71.056847948678097, 46.70498790986592 ], [ -71.063184588996734, 46.70780464793615 ], [ -71.062807088189643, 46.712988071456685 ], [ -71.056091703473285, 46.715354675863694 ], [ -71.049754598309178, 46.712537531200105 ], [ -71.050133342670762, 46.707354188789182 ], [ -71.056847948678097, 46.70498790986592 ] ] ] } },
{ "type": "Feature", "properties": { "hex_id": 805989, "centroid_lon": -71.055335039639189, "centroid_lat": 46.725721413571328, "occurrences_today": 1, "datetimes_today": "2026-08-21 02:46:57", "cumulative_total": 1.0 }, "geometry": { "type": "Polygon", "coordinates": [ [ [ -71.055713423902986, 46.720538048254198 ], [ -71.062051773134428, 46.723354897303629 ], [ -71.061673958814112, 46.728538299628411 ], [ -71.054956550645741, 46.730904771814316 ], [ -71.048617736218546, 46.728087515950634 ], [ -71.048996795119294, 46.722904194781648 ], [ -71.055713423902986, 46.720538048254198 ] ] ] } },
{ "type": "Feature", "properties": { "hex_id": 805990, "centroid_lon": -71.054199258325127, "centroid_lat": 46.741271467074476, "occurrences_today": 1, "datetimes_today": "2026-08-21 02:46:57", "cumulative_total": 1.0 }, "geometry": { "type": "Polygon", "coordinates": [ [ [ -71.054577956886462, 46.736088122982302 ], [ -71.060918016407442, 46.738905083076503 ], [ -71.060539888248769, 46.744088464198178 ], [ -71.053820454925514, 46.746454804090057 ], [ -71.047479929858255, 46.743637436960604 ], [ -71.047859303624307, 46.738454137040947 ], [ -71.054577956886462, 46.736088122982302 ] ] ] } },
{ "type": "Feature", "properties": { "hex_id": 806599, "centroid_lon": -71.049375749137425, "centroid_lat": 46.717720866531202, "occurrences_today": 1, "datetimes_today": "2026-08-21 02:46:57", "cumulative_total": 1.0 }, "geometry": { "type": "Polygon", "coordinates": [ [ [ -71.049754598309178, 46.712537531200105 ], [ -71.056091703473285, 46.715354675863694 ], [ -71.055713423902986, 46.720538048254198 ], [ -71.048996795119294, 46.722904194781648 ], [ -71.042659225218216, 46.720086643365008 ], [ -71.043038748801592, 46.714903352240292 ], [ -71.049754598309178, 46.712537531200105 ] ] ] } },
{ "type": "Feature", "properties": { "hex_id": 806600, "centroid_lon": -71.048238572398986, "centroid_lat": 46.733270830037334, "occurrences_today": 1, "datetimes_today": "2026-08-21 02:46:57", "cumulative_total": 1.0 }, "geometry": { "type": "Polygon", "coordinates": [ [ [ -71.048617736218546, 46.728087515950634 ], [ -71.054956550645741, 46.730904771814316 ], [ -71.054577956886462, 46.736088122982302 ], [ -71.047859303624307, 46.738454137040947 ], [ -71.041520024110056, 46.735636474203254 ], [ -71.041899862908764, 46.730453204347327 ], [ -71.048617736218546, 46.728087515950634 ] ] ] } },
{ "type": "Feature", "properties": { "hex_id": 807209, "centroid_lon": -71.043418167385738, "centroid_lat": 46.709720054027628, "occurrences_today": 1, "datetimes_today": "2026-08-21 02:46:57", "cumulative_total": 1.0 }, "geometry": { "type": "Polygon", "coordinates": [ [ [ -71.043797481006919, 46.70453674872784 ], [ -71.050133342670762, 46.707354188789182 ], [ -71.049754598309178, 46.712537531200105 ], [ -71.043038748801592, 46.714903352240292 ], [ -71.036702422859221, 46.712085505487082 ], [ -71.037082410666713, 46.706902244451847 ], [ -71.043797481006919, 46.70453674872784 ] ] ] } },
{ "type": "Feature", "properties": { "hex_id": 807210, "centroid_lon": -71.042279596599371, "centroid_lat": 46.725269927400959, "occurrences_today": 1, "datetimes_today": "2026-08-21 02:46:57", "cumulative_total": 1.0 }, "geometry": { "type": "Polygon", "coordinates": [ [ [ -71.042659225218216, 46.720086643365008 ], [ -71.048996795119294, 46.722904194781648 ], [ -71.048617736218546, 46.728087515950634 ], [ -71.041899862908764, 46.730453204347327 ], [ -71.035561828379514, 46.727635246017918 ], [ -71.035942131751938, 46.722452006270927 ], [ -71.042659225218216, 46.720086643365008 ] ] ] } },
{ "type": "Feature", "properties": { "hex_id": 807820, "centroid_lon": -71.036322329899718, "centroid_lat": 46.717268759427043, "occurrences_today": 1, "datetimes_today": "2026-08-21 02:46:57", "cumulative_total": 1.0 }, "geometry": { "type": "Polygon", "coordinates": [ [ [ -71.036702422859221, 46.712085505487082 ], [ -71.043038748801592, 46.714903352240292 ], [ -71.042659225218216, 46.720086643365008 ], [ -71.035942131751938, 46.722452006270927 ], [ -71.029605341639908, 46.719633752666219 ], [ -71.029986109127492, 46.714450543073411 ], [ -71.036702422859221, 46.712085505487082 ] ] ] } }
]
}
