{
"type": "FeatureCollection",
"name": "daily_2026-07-27",
"crs": { "type": "name", "properties": { "name": "urn:ogc:def:crs:OGC:1.3:CRS84" } },
"features": [
{ "type": "Feature", "properties": { "hex_id": 477480, "centroid_lon": -74.582477489882692, "centroid_lat": 45.857704236518195, "occurrences_today": 3, "datetimes_today": "2026-07-27 00:01:58, 2026-07-27 00:16:44, 2026-07-27 00:32:21", "cumulative_total": 898.0 }, "geometry": { "type": "Polygon", "coordinates": [ [ [ -74.582516375627165, 45.852507891021503 ], [ -74.588937228901088, 45.855129414088736 ], [ -74.588898937705238, 45.860325761408468 ], [ -74.582438593470044, 45.862900577242634 ], [ -74.576017156317477, 45.860278690509539 ], [ -74.576056647275138, 45.855082351673552 ], [ -74.582516375627165, 45.852507891021503 ] ] ] } },
{ "type": "Feature", "properties": { "hex_id": 606887, "centroid_lon": -73.226832960851922, "centroid_lat": 45.548496145680502, "occurrences_today": 2, "datetimes_today": "2026-07-27 00:16:44, 2026-07-27 00:32:21", "cumulative_total": 203.0 }, "geometry": { "type": "Polygon", "coordinates": [ [ [ -73.226996308988078, 45.543301871728609 ], [ -73.233316644240645, 45.545998229844805 ], [ -73.233153862919465, 45.551192519070128 ], [ -73.226669568091395, 45.553690414430783 ], [ -73.220348710655713, 45.550993683660835 ], [ -73.220512670216223, 45.545799430248479 ], [ -73.226996308988078, 45.543301871728609 ] ] ] } },
{ "type": "Feature", "properties": { "hex_id": 574530, "centroid_lon": -73.566396056246006, "centroid_lat": 45.545468271132975, "occurrences_today": 3, "datetimes_today": "2026-07-27 00:01:58, 2026-07-27 00:16:44, 2026-07-27 00:32:21", "cumulative_total": 202.0 }, "geometry": { "type": "Polygon", "coordinates": [ [ [ -73.566528116392021, 45.540273131333066 ], [ -73.572864811351081, 45.542950887428901 ], [ -73.572733322587496, 45.548146039154012 ], [ -73.566263960018389, 45.550663405888223 ], [ -73.55992672976457, 45.547985280308424 ], [ -73.560059397362508, 45.542790157542946 ], [ -73.566528116392021, 45.540273131333066 ] ] ] } },
{ "type": "Feature", "properties": { "hex_id": 575141, "centroid_lon": -73.559794025918066, "centroid_lat": 45.55318039802652, "occurrences_today": 3, "datetimes_today": "2026-07-27 00:01:58, 2026-07-27 00:16:44, 2026-07-27 00:32:21", "cumulative_total": 197.0 }, "geometry": { "type": "Polygon", "coordinates": [ [ [ -73.55992672976457, 45.547985280308424 ], [ -73.566263960018389, 45.550663405888223 ], [ -73.566131827697021, 45.555858535598688 ], [ -73.55966128581079, 45.558375510697175 ], [ -73.55332352029869, 45.55569701547401 ], [ -73.553456831918936, 45.550501914860313 ], [ -73.55992672976457, 45.547985280308424 ] ] ] } },
{ "type": "Feature", "properties": { "hex_id": 660087, "centroid_lon": -72.612260051761083, "centroid_lat": 46.885749694370126, "occurrences_today": 3, "datetimes_today": "2026-07-27 00:01:58, 2026-07-27 00:16:44, 2026-07-27 00:32:21", "cumulative_total": 65.0 }, "geometry": { "type": "Polygon", "coordinates": [ [ [ -72.612490489151028, 46.880558666189962 ], [ -72.618932038034529, 46.883290822920408 ], [ -72.618702200081884, 46.888481872950969 ], [ -72.612029550356766, 46.890940716951633 ], [ -72.605587466061436, 46.888208164469987 ], [ -72.605818566880799, 46.883017163806365 ], [ -72.612490489151028, 46.880558666189962 ] ] ] } },
{ "type": "Feature", "properties": { "hex_id": 660697, "centroid_lon": -72.606049603521996, "centroid_lat": 46.877826157539474, "occurrences_today": 3, "datetimes_today": "2026-07-27 00:01:58, 2026-07-27 00:16:44, 2026-07-27 00:32:21", "cumulative_total": 39.0 }, "geometry": { "type": "Polygon", "coordinates": [ [ [ -72.606280576007364, 46.872635145669555 ], [ -72.612720862548883, 46.875367632411361 ], [ -72.612490489151028, 46.880558666189962 ], [ -72.605818566880799, 46.883017163806365 ], [ -72.599377745418749, 46.880284281364524 ], [ -72.599609381125177, 46.875093297073803 ], [ -72.606280576007364, 46.872635145669555 ] ] ] } },
{ "type": "Feature", "properties": { "hex_id": 660698, "centroid_lon": -72.605356301041624, "centroid_lat": 46.893399159530027, "occurrences_today": 3, "datetimes_today": "2026-07-27 00:01:58, 2026-07-27 00:16:44, 2026-07-27 00:32:21", "cumulative_total": 39.0 }, "geometry": { "type": "Polygon", "coordinates": [ [ [ -72.605587466061436, 46.888208164469987 ], [ -72.612029550356766, 46.890940716951633 ], [ -72.61179898491585, 46.896131733934169 ], [ -72.605125071798994, 46.898590148986287 ], [ -72.598682452158741, 46.895857200588289 ], [ -72.598914280957928, 46.890666233122047 ], [ -72.605587466061436, 46.888208164469987 ] ] ] } },
{ "type": "Feature", "properties": { "hex_id": 661308, "centroid_lon": -72.599146045370475, "centroid_lat": 46.885475260047357, "occurrences_today": 3, "datetimes_today": "2026-07-27 00:01:58, 2026-07-27 00:16:44, 2026-07-27 00:32:21", "cumulative_total": 39.0 }, "geometry": { "type": "Polygon", "coordinates": [ [ [ -72.599377745418749, 46.880284281364524 ], [ -72.605818566880799, 46.883017163806365 ], [ -72.605587466061436, 46.888208164469987 ], [ -72.598914280957928, 46.890666233122047 ], [ -72.592472924642408, 46.887932954815085 ], [ -72.592705288261499, 46.882742003788664 ], [ -72.599377745418749, 46.880284281364524 ] ] ] } },
{ "type": "Feature", "properties": { "hex_id": 661309, "centroid_lon": -72.598450558950503, "centroid_lat": 46.901048162445861, "occurrences_today": 3, "datetimes_today": "2026-07-27 00:01:58, 2026-07-27 00:16:44, 2026-07-27 00:32:21", "cumulative_total": 39.0 }, "geometry": { "type": "Polygon", "coordinates": [ [ [ -72.598682452158741, 46.895857200588289 ], [ -72.605125071798994, 46.898590148986287 ], [ -72.604893778311208, 46.903781132838482 ], [ -72.598218601310805, 46.906239118694472 ], [ -72.591775446392774, 46.903505774214956 ], [ -72.592008003730498, 46.898314840028483 ], [ -72.598682452158741, 46.895857200588289 ] ] ] } },
{ "type": "Feature", "properties": { "hex_id": 661918, "centroid_lon": -72.592937587352623, "centroid_lat": 46.877551047149467, "occurrences_today": 3, "datetimes_today": "2026-07-27 00:01:58, 2026-07-27 00:16:44, 2026-07-27 00:32:21", "cumulative_total": 39.0 }, "geometry": { "type": "Polygon", "coordinates": [ [ [ -72.593169821938204, 46.872360084897764 ], [ -72.599609381125177, 46.875093297073803 ], [ -72.599377745418749, 46.880284281364524 ], [ -72.592705288261499, 46.882742003788664 ], [ -72.586265194712126, 46.880008395798754 ], [ -72.58649809265998, 46.874817461266062 ], [ -72.593169821938204, 46.872360084897764 ] ] ] } },
{ "type": "Feature", "properties": { "hex_id": 661919, "centroid_lon": -72.592240496472897, "centroid_lat": 46.893123900228417, "occurrences_today": 3, "datetimes_today": "2026-07-27 00:01:58, 2026-07-27 00:16:44, 2026-07-27 00:32:21", "cumulative_total": 39.0 }, "geometry": { "type": "Polygon", "coordinates": [ [ [ -72.592472924642408, 46.887932954815085 ], [ -72.598914280957928, 46.890666233122047 ], [ -72.598682452158741, 46.895857200588289 ], [ -72.592008003730498, 46.898314840028483 ], [ -72.585566112628769, 46.895581165691276 ], [ -72.585799204719009, 46.890390248011641 ], [ -72.592472924642408, 46.887932954815085 ] ] ] } },
{ "type": "Feature", "properties": { "hex_id": 662529, "centroid_lon": -72.58603223207264, "centroid_lat": 46.885199324714016, "occurrences_today": 3, "datetimes_today": "2026-07-27 00:01:58, 2026-07-27 00:16:44, 2026-07-27 00:32:21", "cumulative_total": 115.0 }, "geometry": { "type": "Polygon", "coordinates": [ [ [ -72.586265194712126, 46.880008395798754 ], [ -72.592705288261499, 46.882742003788664 ], [ -72.592472924642408, 46.887932954815085 ], [ -72.585799204719009, 46.890390248011641 ], [ -72.579358576874625, 46.887656244042795 ], [ -72.579592203226142, 46.882465342923815 ], [ -72.586265194712126, 46.880008395798754 ] ] ] } },
{ "type": "Feature", "properties": { "hex_id": 663140, "centroid_lon": -72.57912488562279, "centroid_lat": 46.892847139539157, "occurrences_today": 3, "datetimes_today": "2026-07-27 00:01:58, 2026-07-27 00:16:44, 2026-07-27 00:32:21", "cumulative_total": 115.0 }, "geometry": { "type": "Polygon", "coordinates": [ [ [ -72.579358576874625, 46.887656244042795 ], [ -72.585799204719009, 46.890390248011641 ], [ -72.585566112628769, 46.895581165691276 ], [ -72.578891129448039, 46.898038029412668 ], [ -72.572449967376258, 46.895303629299811 ], [ -72.572684322690009, 46.890112761677095 ], [ -72.579358576874625, 46.887656244042795 ] ] ] } },
{ "type": "Feature", "properties": { "hex_id": 563534, "centroid_lon": -73.684197865470679, "centroid_lat": 45.437752604461927, "occurrences_today": 1, "datetimes_today": "2026-07-27 00:16:44", "cumulative_total": 237.0 }, "geometry": { "type": "Polygon", "coordinates": [ [ [ -73.684318621802973, 45.432557109552171 ], [ -73.690649090610719, 45.435228306522369 ], [ -73.690528904013888, 45.44042381216714 ], [ -73.684077076186298, 45.442948094374181 ], [ -73.677746070600705, 45.440276530384111 ], [ -73.67786742960952, 45.435081051271233 ], [ -73.684318621802973, 45.432557109552171 ] ] ] } },
{ "type": "Feature", "properties": { "hex_id": 476888, "centroid_lon": -74.586776644272973, "centroid_lat": 46.14611751665764, "occurrences_today": 2, "datetimes_today": "2026-07-27 00:01:58, 2026-07-27 00:16:44", "cumulative_total": 371.0 }, "geometry": { "type": "Polygon", "coordinates": [ [ [ -74.586815518598769, 46.140921431729581 ], [ -74.593269929482517, 46.143542692684434 ], [ -74.593231658908948, 46.148738779414188 ], [ -74.586737759243377, 46.151313596815733 ], [ -74.580282755313007, 46.148691968564279 ], [ -74.580322244091178, 46.143495890273989 ], [ -74.586815518598769, 46.140921431729581 ] ] ] } },
{ "type": "Feature", "properties": { "hex_id": 477499, "centroid_lon": -74.580243255661514, "centroid_lat": 46.153888042083807, "occurrences_today": 2, "datetimes_today": "2026-07-27 00:01:58, 2026-07-27 00:16:44", "cumulative_total": 124.0 }, "geometry": { "type": "Polygon", "coordinates": [ [ [ -74.580282755313007, 46.148691968564279 ], [ -74.586737759243377, 46.151313596815733 ], [ -74.586698863506342, 46.156509672203882 ], [ -74.580203745132991, 46.159084110832602 ], [ -74.573748148167056, 46.156462115119822 ], [ -74.573788262606342, 46.151266048305757 ], [ -74.580282755313007, 46.148691968564279 ] ] ] } },
{ "type": "Feature", "properties": { "hex_id": 478109, "centroid_lon": -74.573828366002687, "centroid_lat": 46.146069976720163, "occurrences_today": 2, "datetimes_today": "2026-07-27 00:01:58, 2026-07-27 00:16:44", "cumulative_total": 191.0 }, "geometry": { "type": "Polygon", "coordinates": [ [ [ -74.573868458359897, 46.140873900363012 ], [ -74.580322244091178, 46.143495890273989 ], [ -74.580282755313007, 46.148691968564279 ], [ -74.573788262606342, 46.151266048305757 ], [ -74.567333884337046, 46.14864369096955 ], [ -74.567374591308663, 46.143447621383181 ], [ -74.573868458359897, 46.140873900363012 ] ] ] } },
{ "type": "Feature", "properties": { "hex_id": 478720, "centroid_lon": -74.567293166156688, "centroid_lat": 46.153839755783551, "occurrences_today": 2, "datetimes_today": "2026-07-27 00:01:58, 2026-07-27 00:16:44", "cumulative_total": 156.0 }, "geometry": { "type": "Polygon", "coordinates": [ [ [ -74.567333884337046, 46.14864369096955 ], [ -74.573788262606342, 46.151266048305757 ], [ -74.573748148167056, 46.156462115119822 ], [ -74.567252436763766, 46.159035815825185 ], [ -74.560797465967838, 46.156413090899058 ], [ -74.560838799098022, 46.151217032923583 ], [ -74.567333884337046, 46.14864369096955 ] ] ] } },
{ "type": "Feature", "properties": { "hex_id": 635589, "centroid_lon": -72.921076094757652, "centroid_lat": 45.675856791467332, "occurrences_today": 3, "datetimes_today": "2026-07-27 00:01:58, 2026-07-27 00:16:44, 2026-07-27 00:32:21", "cumulative_total": 85.0 }, "geometry": { "type": "Polygon", "coordinates": [ [ [ -72.921268450498303, 45.670663567248866 ], [ -72.927587638370426, 45.673376784156858 ], [ -72.927395848983821, 45.678570026692178 ], [ -72.920883686396266, 45.681050010312269 ], [ -72.914563984799727, 45.678336416353396 ], [ -72.914756959497424, 45.673143215890008 ], [ -72.921268450498303, 45.670663567248866 ] ] ] } },
{ "type": "Feature", "properties": { "hex_id": 600159, "centroid_lon": -73.303113403564012, "centroid_lat": 45.354771895548254, "occurrences_today": 3, "datetimes_today": "2026-07-27 00:01:58, 2026-07-27 00:16:44, 2026-07-27 00:32:21", "cumulative_total": 173.0 }, "geometry": { "type": "Polygon", "coordinates": [ [ [ -73.303268674815072, 45.349577234904679 ], [ -73.309571427186924, 45.352269199859606 ], [ -73.309416718032082, 45.357463874969909 ], [ -73.302958089991662, 45.359966551030453 ], [ -73.296654817851945, 45.35727421657819 ], [ -73.296810693506359, 45.352079575626796 ], [ -73.303268674815072, 45.349577234904679 ] ] ] } },
{ "type": "Feature", "properties": { "hex_id": 484215, "centroid_lon": -74.508948868207426, "centroid_lat": 46.161398338046915, "occurrences_today": 2, "datetimes_today": "2026-07-27 00:01:58, 2026-07-27 00:16:44", "cumulative_total": 176.0 }, "geometry": { "type": "Polygon", "coordinates": [ [ [ -74.508995088705731, 46.156202322850973 ], [ -74.515447549847266, 46.158827963256627 ], [ -74.515401932556259, 46.164023981045176 ], [ -74.508902634980274, 46.16659434846261 ], [ -74.502449583362448, 46.163968339789093 ], [ -74.50249641979255, 46.158772332032143 ], [ -74.508995088705731, 46.156202322850973 ] ] ] } },
{ "type": "Feature", "properties": { "hex_id": 484825, "centroid_lon": -74.502543243328191, "centroid_lat": 46.153576319494007, "occurrences_today": 2, "datetimes_today": "2026-07-27 00:01:58, 2026-07-27 00:16:44", "cumulative_total": 227.0 }, "geometry": { "type": "Polygon", "coordinates": [ [ [ -74.502590053973734, 46.14838030217463 ], [ -74.509041296479523, 46.151006302874755 ], [ -74.508995088705731, 46.156202322850973 ], [ -74.50249641979255, 46.158772332032143 ], [ -74.496044587307296, 46.156145963100805 ], [ -74.496092013710282, 46.150949953285611 ], [ -74.502590053973734, 46.14838030217463 ] ] ] } },
{ "type": "Feature", "properties": { "hex_id": 485435, "centroid_lon": -74.496139427057656, "centroid_lat": 46.145753938688244, "occurrences_today": 2, "datetimes_today": "2026-07-27 00:01:58, 2026-07-27 00:16:44", "cumulative_total": 230.0 }, "geometry": { "type": "Polygon", "coordinates": [ [ [ -74.49618682735391, 46.140557919308669 ], [ -74.502636851733612, 46.143184280074024 ], [ -74.502590053973734, 46.14838030217463 ], [ -74.496092013710282, 46.150949953285611 ], [ -74.489641399847557, 46.148323224325715 ], [ -74.489689415726872, 46.143127212515481 ], [ -74.49618682735391, 46.140557919308669 ] ] ] } },
{ "type": "Feature", "properties": { "hex_id": 485436, "centroid_lon": -74.495997147844264, "centroid_lat": 46.16134196813384, "occurrences_today": 2, "datetimes_today": "2026-07-27 00:01:58, 2026-07-27 00:16:44", "cumulative_total": 185.0 }, "geometry": { "type": "Polygon", "coordinates": [ [ [ -74.496044587307296, 46.156145963100805 ], [ -74.50249641979255, 46.158772332032143 ], [ -74.502449583362448, 46.163968339789093 ], [ -74.495949695316725, 46.166537968384723 ], [ -74.489497272865293, 46.163911231057526 ], [ -74.489545328421286, 46.158715233596709 ], [ -74.496044587307296, 46.156145963100805 ] ] ] } },
{ "type": "Feature", "properties": { "hex_id": 486046, "centroid_lon": -74.489593370747201, "centroid_lat": 46.153519231352782, "occurrences_today": 2, "datetimes_today": "2026-07-27 00:01:58, 2026-07-27 00:16:44", "cumulative_total": 185.0 }, "geometry": { "type": "Polygon", "coordinates": [ [ [ -74.489641399847557, 46.148323224325715 ], [ -74.496092013710282, 46.150949953285611 ], [ -74.496044587307296, 46.156145963100805 ], [ -74.489545328421286, 46.158715233596709 ], [ -74.483094125089025, 46.156088136277681 ], [ -74.483142770107804, 46.150892136887983 ], [ -74.489641399847557, 46.148323224325715 ] ] ] } },
{ "type": "Feature", "properties": { "hex_id": 606277, "centroid_lon": -73.23299103712715, "centroid_lat": 45.556386803097006, "occurrences_today": 3, "datetimes_today": "2026-07-27 00:01:58, 2026-07-27 00:16:44, 2026-07-27 00:32:21", "cumulative_total": 239.0 }, "geometry": { "type": "Polygon", "coordinates": [ [ [ -73.233153862919465, 45.551192519070128 ], [ -73.239475376433816, 45.553888550318035 ], [ -73.239313117777982, 45.559082849560184 ], [ -73.23282816684879, 45.561581081925311 ], [ -73.226506130691504, 45.5588846779793 ], [ -73.226669568091395, 45.553690414430783 ], [ -73.233153862919465, 45.551192519070128 ] ] ] } },
{ "type": "Feature", "properties": { "hex_id": 481162, "centroid_lon": -74.54139308906656, "centroid_lat": 46.153738782194409, "occurrences_today": 2, "datetimes_today": "2026-07-27 00:01:58, 2026-07-27 00:16:44", "cumulative_total": 199.0 }, "geometry": { "type": "Polygon", "coordinates": [ [ [ -74.541436244269846, 46.148542735584876 ], [ -74.547889369724828, 46.151166550679072 ], [ -74.547846817915399, 46.156362599551457 ], [ -74.541349921979673, 46.158934824028179 ], [ -74.534896205016437, 46.156310641087209 ], [ -74.534939975493131, 46.151114601582393 ], [ -74.541436244269846, 46.148542735584876 ] ] ] } },
{ "type": "Feature", "properties": { "hex_id": 481772, "centroid_lon": -74.534983733920527, "centroid_lat": 46.145918557300938, "occurrences_today": 2, "datetimes_today": "2026-07-27 00:01:58, 2026-07-27 00:16:44", "cumulative_total": 270.0 }, "geometry": { "type": "Polygon", "coordinates": [ [ [ -74.535027480302759, 46.140722508242838 ], [ -74.541479387593611, 46.143346684199571 ], [ -74.541436244269846, 46.148542735584876 ], [ -74.534939975493131, 46.151114601582393 ], [ -74.528487477191021, 46.148490057815273 ], [ -74.528531838672777, 46.143294015927125 ], [ -74.535027480302759, 46.140722508242838 ] ] ] } },
{ "type": "Feature", "properties": { "hex_id": 605666, "centroid_lon": -73.239637590771849, "centroid_lat": 45.548694245880618, "occurrences_today": 2, "datetimes_today": "2026-07-27 00:16:44, 2026-07-27 00:32:21", "cumulative_total": 221.0 }, "geometry": { "type": "Polygon", "coordinates": [ [ [ -73.239799760806932, 45.543499936248104 ], [ -73.246120751633626, 45.546195594956643 ], [ -73.245959148596583, 45.551389919736749 ], [ -73.239475376433816, 45.553888550318035 ], [ -73.233153862919465, 45.551192519070128 ], [ -73.233316644240645, 45.545998229844805 ], [ -73.239799760806932, 45.543499936248104 ] ] ] } },
{ "type": "Feature", "properties": { "hex_id": 483603, "centroid_lon": -74.515629893465402, "centroid_lat": 46.138043844308989, "occurrences_today": 2, "datetimes_today": "2026-07-27 00:01:58, 2026-07-27 00:16:44", "cumulative_total": 167.0 }, "geometry": { "type": "Polygon", "coordinates": [ [ [ -74.515675448004899, 46.132847802623566 ], [ -74.522125510512581, 46.135473067355058 ], [ -74.522080558522461, 46.140669111563206 ], [ -74.515584326384172, 46.143239881214967 ], [ -74.509133673870977, 46.140614248581457 ], [ -74.509179843497336, 46.135418214264305 ], [ -74.515675448004899, 46.132847802623566 ] ] ] } },
{ "type": "Feature", "properties": { "hex_id": 646562, "centroid_lon": -72.815283819274285, "centroid_lat": 45.424433942942862, "occurrences_today": 3, "datetimes_today": "2026-07-27 00:01:58, 2026-07-27 00:16:44, 2026-07-27 00:32:21", "cumulative_total": 39.0 }, "geometry": { "type": "Polygon", "coordinates": [ [ [ -72.815484195438756, 45.419240846742504 ], [ -72.82177039766519, 45.421959419613948 ], [ -72.821570578897663, 45.427152535073006 ], [ -72.815083388465027, 45.429627033709409 ], [ -72.808796683495572, 45.426908086061268 ], [ -72.808997671683471, 45.421715014617533 ], [ -72.815484195438756, 45.419240846742504 ] ] ] } },
{ "type": "Feature", "properties": { "hex_id": 658864, "centroid_lon": -72.62674834399192, "centroid_lat": 46.854876079352415, "occurrences_today": 3, "datetimes_today": "2026-07-27 00:01:58, 2026-07-27 00:16:44, 2026-07-27 00:32:21", "cumulative_total": 37.0 }, "geometry": { "type": "Polygon", "coordinates": [ [ [ -72.626977137134745, 46.849684968414984 ], [ -72.633415818514777, 46.852416269046877 ], [ -72.633187624034989, 46.857607401676908 ], [ -72.626519487317324, 46.860067184702118 ], [ -72.620080270817056, 46.857335488865267 ], [ -72.620309726132618, 46.852144405275588 ], [ -72.626977137134745, 46.849684968414984 ] ] ] } },
{ "type": "Feature", "properties": { "hex_id": 659474, "centroid_lon": -72.620539117752884, "centroid_lat": 46.846953316093625, "occurrences_today": 3, "datetimes_today": "2026-07-27 00:01:58, 2026-07-27 00:16:44, 2026-07-27 00:32:21", "cumulative_total": 37.0 }, "geometry": { "type": "Polygon", "coordinates": [ [ [ -72.620768445699966, 46.841762221319648 ], [ -72.627205866767895, 46.8444938518901 ], [ -72.626977137134745, 46.849684968414984 ], [ -72.620309726132618, 46.852144405275588 ], [ -72.613871770434983, 46.849412379551183 ], [ -72.614101760347054, 46.844221312187535 ], [ -72.620768445699966, 46.841762221319648 ] ] ] } },
{ "type": "Feature", "properties": { "hex_id": 659475, "centroid_lon": -72.619850751784057, "centroid_lat": 46.862526566862414, "occurrences_today": 3, "datetimes_today": "2026-07-27 00:01:58, 2026-07-27 00:16:44, 2026-07-27 00:32:21", "cumulative_total": 37.0 }, "geometry": { "type": "Polygon", "coordinates": [ [ [ -72.620080270817056, 46.857335488865267 ], [ -72.626519487317324, 46.860067184702118 ], [ -72.626290567088887, 46.865258284463863 ], [ -72.619621169011452, 46.86771763926675 ], [ -72.61318141745727, 46.864985548059934 ], [ -72.613411599012281, 46.859794497487627 ], [ -72.620080270817056, 46.857335488865267 ] ] ] } },
{ "type": "Feature", "properties": { "hex_id": 659476, "centroid_lon": -72.619161812158865, "centroid_lat": 46.878099767296007, "occurrences_today": 3, "datetimes_today": "2026-07-27 00:01:58, 2026-07-27 00:16:44, 2026-07-27 00:32:21", "cumulative_total": 37.0 }, "geometry": { "type": "Polygon", "coordinates": [ [ [ -72.619391522477116, 46.872908706078029 ], [ -72.625832535882111, 46.875640467222411 ], [ -72.625603424859548, 46.880831550218687 ], [ -72.618932038034529, 46.883290822920408 ], [ -72.612490489151028, 46.880558666189962 ], [ -72.612720862548883, 46.875367632411361 ], [ -72.619391522477116, 46.872908706078029 ] ] ] } },
{ "type": "Feature", "properties": { "hex_id": 659477, "centroid_lon": -72.61847229827876, "centroid_lat": 46.893672917387413, "occurrences_today": 3, "datetimes_today": "2026-07-27 00:01:58, 2026-07-27 00:16:44, 2026-07-27 00:32:21", "cumulative_total": 37.0 }, "geometry": { "type": "Polygon", "coordinates": [ [ [ -72.618702200081884, 46.888481872950969 ], [ -72.625145011865456, 46.891213699443988 ], [ -72.624915709849631, 46.896404765672493 ], [ -72.618242332602932, 46.898863956229526 ], [ -72.61179898491585, 46.896131733934169 ], [ -72.612029550356766, 46.890940716951633 ], [ -72.618702200081884, 46.888481872950969 ] ] ] } },
{ "type": "Feature", "properties": { "hex_id": 660085, "centroid_lon": -72.613641716664119, "centroid_lat": 46.854603441317977, "occurrences_today": 3, "datetimes_today": "2026-07-27 00:01:58, 2026-07-27 00:16:44, 2026-07-27 00:32:21", "cumulative_total": 37.0 }, "geometry": { "type": "Polygon", "coordinates": [ [ [ -72.613871770434983, 46.849412379551183 ], [ -72.620309726132618, 46.852144405275588 ], [ -72.620080270817056, 46.857335488865267 ], [ -72.613411599012281, 46.859794497487627 ], [ -72.606973108751419, 46.857062076444336 ], [ -72.607203824836361, 46.851871042164973 ], [ -72.613871770434983, 46.849412379551183 ] ] ] } },
{ "type": "Feature", "properties": { "hex_id": 660086, "centroid_lon": -72.612951171976874, "centroid_lat": 46.870176593034593, "occurrences_today": 3, "datetimes_today": "2026-07-27 00:01:58, 2026-07-27 00:16:44, 2026-07-27 00:32:21", "cumulative_total": 37.0 }, "geometry": { "type": "Polygon", "coordinates": [ [ [ -72.61318141745727, 46.864985548059934 ], [ -72.619621169011452, 46.86771763926675 ], [ -72.619391522477116, 46.872908706078029 ], [ -72.612720862548883, 46.875367632411361 ], [ -72.606280576007364, 46.872635145669555 ], [ -72.606511484359203, 46.867444128196887 ], [ -72.61318141745727, 46.864985548059934 ] ] ] } },
{ "type": "Feature", "properties": { "hex_id": 660695, "centroid_lon": -72.607434476876861, "centroid_lat": 46.846680002283904, "occurrences_today": 3, "datetimes_today": "2026-07-27 00:01:58, 2026-07-27 00:16:44, 2026-07-27 00:32:21", "cumulative_total": 37.0 }, "geometry": { "type": "Polygon", "coordinates": [ [ [ -72.607665064895158, 46.841488956801406 ], [ -72.614101760347054, 46.844221312187535 ], [ -72.613871770434983, 46.849412379551183 ], [ -72.607203824836361, 46.851871042164973 ], [ -72.600766595311526, 46.849138291511025 ], [ -72.600997845436012, 46.8439472735785 ], [ -72.607665064895158, 46.841488956801406 ] ] ] } },
{ "type": "Feature", "properties": { "hex_id": 660696, "centroid_lon": -72.606742328599793, "centroid_lat": 46.862253105121738, "occurrences_today": 3, "datetimes_today": "2026-07-27 00:01:58, 2026-07-27 00:16:44, 2026-07-27 00:32:21", "cumulative_total": 37.0 }, "geometry": { "type": "Polygon", "coordinates": [ [ [ -72.606973108751419, 46.857062076444336 ], [ -72.613411599012281, 46.859794497487627 ], [ -72.61318141745727, 46.864985548059934 ], [ -72.606511484359203, 46.867444128196887 ], [ -72.600072459601805, 46.864711311669716 ], [ -72.600303902416741, 46.859520310556888 ], [ -72.606973108751419, 46.857062076444336 ] ] ] } },
{ "type": "Feature", "properties": { "hex_id": 661305, "centroid_lon": -72.60122903137497, "centroid_lat": 46.838756250039921, "occurrences_today": 3, "datetimes_today": "2026-07-27 00:01:58, 2026-07-27 00:16:44, 2026-07-27 00:32:21", "cumulative_total": 37.0 }, "geometry": { "type": "Polygon", "coordinates": [ [ [ -72.601460153150683, 46.833565220895579 ], [ -72.607895588913522, 46.836297905717707 ], [ -72.607665064895158, 46.841488956801406 ], [ -72.600997845436012, 46.8439472735785 ], [ -72.594561876090211, 46.841214193539649 ], [ -72.594793659764207, 46.836023192007801 ], [ -72.601460153150683, 46.833565220895579 ] ] ] } },
{ "type": "Feature", "properties": { "hex_id": 661306, "centroid_lon": -72.600535280979216, "centroid_lat": 46.854329303837247, "occurrences_today": 3, "datetimes_today": "2026-07-27 00:01:58, 2026-07-27 00:16:44, 2026-07-27 00:32:21", "cumulative_total": 37.0 }, "geometry": { "type": "Polygon", "coordinates": [ [ [ -72.600766595311526, 46.849138291511025 ], [ -72.607203824836361, 46.851871042164973 ], [ -72.606973108751419, 46.857062076444336 ], [ -72.600303902416741, 46.859520310556888 ], [ -72.593866138885858, 46.856787164470234 ], [ -72.59409811567339, 46.851596179771128 ], [ -72.600766595311526, 46.849138291511025 ] ] ] } },
{ "type": "Feature", "properties": { "hex_id": 661307, "centroid_lon": -72.599840952512068, "centroid_lat": 46.86990230717543, "occurrences_today": 3, "datetimes_today": "2026-07-27 00:01:58, 2026-07-27 00:16:44, 2026-07-27 00:32:21", "cumulative_total": 37.0 }, "geometry": { "type": "Polygon", "coordinates": [ [ [ -72.600072459601805, 46.864711311669716 ], [ -72.606511484359203, 46.867444128196887 ], [ -72.606280576007364, 46.872635145669555 ], [ -72.599609381125177, 46.875093297073803 ], [ -72.593169821938204, 46.872360084897764 ], [ -72.593401992040668, 46.867169117033811 ], [ -72.600072459601805, 46.864711311669716 ] ] ] } },
{ "type": "Feature", "properties": { "hex_id": 661916, "centroid_lon": -72.594330028067375, "centroid_lat": 46.846405189460839, "occurrences_today": 3, "datetimes_today": "2026-07-27 00:01:58, 2026-07-27 00:16:44, 2026-07-27 00:32:21", "cumulative_total": 37.0 }, "geometry": { "type": "Polygon", "coordinates": [ [ [ -72.594561876090211, 46.841214193539649 ], [ -72.600997845436012, 46.8439472735785 ], [ -72.600766595311526, 46.849138291511025 ], [ -72.59409811567339, 46.851596179771128 ], [ -72.587661612811587, 46.848862704350736 ], [ -72.58789412308154, 46.843671736119191 ], [ -72.594561876090211, 46.841214193539649 ] ] ] } },
{ "type": "Feature", "properties": { "hex_id": 661917, "centroid_lon": -72.593634097682411, "centroid_lat": 46.861978143557877, "occurrences_today": 3, "datetimes_today": "2026-07-27 00:01:58, 2026-07-27 00:16:44, 2026-07-27 00:32:21", "cumulative_total": 37.0 }, "geometry": { "type": "Polygon", "coordinates": [ [ [ -72.593866138885858, 46.856787164470234 ], [ -72.600303902416741, 46.859520310556888 ], [ -72.600072459601805, 46.864711311669716 ], [ -72.593401992040668, 46.867169117033811 ], [ -72.58696369457077, 46.864435575349496 ], [ -72.587196398578627, 46.859244623966156 ], [ -72.593866138885858, 46.856787164470234 ] ] ] } },
{ "type": "Feature", "properties": { "hex_id": 662526, "centroid_lon": -72.588126568817088, "centroid_lat": 46.838480762272077, "occurrences_today": 3, "datetimes_today": "2026-07-27 00:01:58, 2026-07-27 00:16:44, 2026-07-27 00:32:21", "cumulative_total": 37.0 }, "geometry": { "type": "Polygon", "coordinates": [ [ [ -72.5883589500406, 46.833289782809722 ], [ -72.594793659764207, 46.836023192007801 ], [ -72.594561876090211, 46.841214193539649 ], [ -72.58789412308154, 46.843671736119191 ], [ -72.581458880331667, 46.840937931590766 ], [ -72.581691923594292, 46.835746979880525 ], [ -72.5883589500406, 46.833289782809722 ] ] ] } },
{ "type": "Feature", "properties": { "hex_id": 662527, "centroid_lon": -72.587429037984748, "centroid_lat": 46.854053666966493, "occurrences_today": 3, "datetimes_today": "2026-07-27 00:01:58, 2026-07-27 00:16:44, 2026-07-27 00:32:21", "cumulative_total": 37.0 }, "geometry": { "type": "Polygon", "coordinates": [ [ [ -72.587661612811587, 46.848862704350736 ], [ -72.59409811567339, 46.851596179771128 ], [ -72.593866138885858, 46.856787164470234 ], [ -72.587196398578627, 46.859244623966156 ], [ -72.580759362268026, 46.856510752999355 ], [ -72.580992599691015, 46.851319818150451 ], [ -72.587661612811587, 46.848862704350736 ] ] ] } },
{ "type": "Feature", "properties": { "hex_id": 662528, "centroid_lon": -72.58673092593871, "centroid_lat": 46.86962652111621, "occurrences_today": 3, "datetimes_today": "2026-07-27 00:01:58, 2026-07-27 00:16:44, 2026-07-27 00:32:21", "cumulative_total": 37.0 }, "geometry": { "type": "Polygon", "coordinates": [ [ [ -72.58696369457077, 46.864435575349496 ], [ -72.593401992040668, 46.867169117033811 ], [ -72.593169821938204, 46.872360084897764 ], [ -72.58649809265998, 46.874817461266062 ], [ -72.580059261318382, 46.872083523819136 ], [ -72.580292693104241, 46.866892605833975 ], [ -72.58696369457077, 46.864435575349496 ] ] ] } },
{ "type": "Feature", "properties": { "hex_id": 663137, "centroid_lon": -72.581225772371397, "centroid_lat": 46.846128877680826, "occurrences_today": 3, "datetimes_today": "2026-07-27 00:01:58, 2026-07-27 00:16:44, 2026-07-27 00:32:21", "cumulative_total": 37.0 }, "geometry": { "type": "Polygon", "coordinates": [ [ [ -72.581458880331667, 46.840937931590766 ], [ -72.58789412308154, 46.843671736119191 ], [ -72.587661612811587, 46.848862704350736 ], [ -72.580992599691015, 46.851319818150451 ], [ -72.574556823982192, 46.848585618126876 ], [ -72.574790594330381, 46.843394699866131 ], [ -72.581458880331667, 46.840937931590766 ] ] ] } },
{ "type": "Feature", "properties": { "hex_id": 663138, "centroid_lon": -72.580526060079933, "centroid_lat": 46.861701682227299, "occurrences_today": 3, "datetimes_today": "2026-07-27 00:01:58, 2026-07-27 00:16:44, 2026-07-27 00:32:21", "cumulative_total": 37.0 }, "geometry": { "type": "Polygon", "coordinates": [ [ [ -72.580759362268026, 46.856510752999355 ], [ -72.587196398578627, 46.859244623966156 ], [ -72.58696369457077, 46.864435575349496 ], [ -72.580292693104241, 46.866892605833975 ], [ -72.573855123412287, 46.864158339155871 ], [ -72.574089088545705, 46.858967437772009 ], [ -72.580759362268026, 46.856510752999355 ] ] ] } },
{ "type": "Feature", "properties": { "hex_id": 663139, "centroid_lon": -72.579825764699862, "centroid_lat": 46.877274436182503, "occurrences_today": 3, "datetimes_today": "2026-07-27 00:01:58, 2026-07-27 00:16:44, 2026-07-27 00:32:21", "cumulative_total": 37.0 }, "geometry": { "type": "Polygon", "coordinates": [ [ [ -72.580059261318382, 46.872083523819136 ], [ -72.58649809265998, 46.874817461266062 ], [ -72.586265194712126, 46.880008395798754 ], [ -72.579592203226142, 46.882465342923815 ], [ -72.573152838080361, 46.879731009549303 ], [ -72.57338699820221, 46.874540125044781 ], [ -72.580059261318382, 46.872083523819136 ] ] ] } },
{ "type": "Feature", "properties": { "hex_id": 663747, "centroid_lon": -72.57502429979526, "centroid_lat": 46.838203775980297, "occurrences_today": 3, "datetimes_today": "2026-07-27 00:01:58, 2026-07-27 00:16:44, 2026-07-27 00:32:21", "cumulative_total": 37.0 }, "geometry": { "type": "Polygon", "coordinates": [ [ [ -72.575257940399368, 46.83301284646965 ], [ -72.581691923594292, 46.835746979880525 ], [ -72.581458880331667, 46.840937931590766 ], [ -72.574790594330381, 46.843394699866131 ], [ -72.568356078666028, 46.8406601710114 ], [ -72.568590381449866, 46.835469269392533 ], [ -72.575257940399368, 46.83301284646965 ] ] ] } },
{ "type": "Feature", "properties": { "hex_id": 663748, "centroid_lon": -72.574322988728156, "centroid_lat": 46.853776530762261, "occurrences_today": 3, "datetimes_today": "2026-07-27 00:01:58, 2026-07-27 00:16:44, 2026-07-27 00:32:21", "cumulative_total": 45.0 }, "geometry": { "type": "Polygon", "coordinates": [ [ [ -72.574556823982192, 46.848585618126876 ], [ -72.580992599691015, 46.851319818150451 ], [ -72.580759362268026, 46.856510752999355 ], [ -72.574089088545705, 46.858967437772009 ], [ -72.567652779945504, 46.85623284208846 ], [ -72.56788727793645, 46.851041957359634 ], [ -72.574556823982192, 46.848585618126876 ] ] ] } },
{ "type": "Feature", "properties": { "hex_id": 663749, "centroid_lon": -72.57362109330532, "centroid_lat": 46.869349234913528, "occurrences_today": 3, "datetimes_today": "2026-07-27 00:01:58, 2026-07-27 00:16:44, 2026-07-27 00:32:21", "cumulative_total": 45.0 }, "geometry": { "type": "Polygon", "coordinates": [ [ [ -72.573855123412287, 46.864158339155871 ], [ -72.580292693104241, 46.866892605833975 ], [ -72.580059261318382, 46.872083523819136 ], [ -72.57338699820221, 46.874540125044781 ], [ -72.566948895196575, 46.871805462490443 ], [ -72.567183588598212, 46.866614594654131 ], [ -72.573855123412287, 46.864158339155871 ] ] ] } },
{ "type": "Feature", "properties": { "hex_id": 663750, "centroid_lon": -72.572918612917178, "centroid_lat": 46.884921888426817, "occurrences_today": 3, "datetimes_today": "2026-07-27 00:01:58, 2026-07-27 00:16:44, 2026-07-27 00:32:21", "cumulative_total": 45.0 }, "geometry": { "type": "Polygon", "coordinates": [ [ [ -72.573152838080361, 46.879731009549303 ], [ -72.579592203226142, 46.882465342923815 ], [ -72.579358576874625, 46.887656244042795 ], [ -72.572684322690009, 46.890112761677095 ], [ -72.566244423807845, 46.887378032209959 ], [ -72.566479312824072, 46.88218718126862 ], [ -72.573152838080361, 46.879731009549303 ] ] ] } },
{ "type": "Feature", "properties": { "hex_id": 664358, "centroid_lon": -72.568121710835754, "centroid_lat": 46.845851067000524, "occurrences_today": 3, "datetimes_today": "2026-07-27 00:01:58, 2026-07-27 00:16:44, 2026-07-27 00:32:21", "cumulative_total": 38.0 }, "geometry": { "type": "Polygon", "coordinates": [ [ [ -72.568356078666028, 46.8406601710114 ], [ -72.574790594330381, 46.843394699866131 ], [ -72.574556823982192, 46.848585618126876 ], [ -72.56788727793645, 46.851041957359634 ], [ -72.561452229870355, 46.84830703289628 ], [ -72.561687260229121, 46.843116164876172 ], [ -72.568356078666028, 46.8406601710114 ] ] ] } },
{ "type": "Feature", "properties": { "hex_id": 664359, "centroid_lon": -72.567418216840323, "centroid_lat": 46.861423721186725, "occurrences_today": 3, "datetimes_today": "2026-07-27 00:01:58, 2026-07-27 00:16:44, 2026-07-27 00:32:21", "cumulative_total": 38.0 }, "geometry": { "type": "Polygon", "coordinates": [ [ [ -72.567652779945504, 46.85623284208846 ], [ -72.574089088545705, 46.858967437772009 ], [ -72.573855123412287, 46.864158339155871 ], [ -72.567183588598212, 46.866614594654131 ], [ -72.560746747174449, 46.863879603145747 ], [ -72.560981973365699, 46.858688752031327 ], [ -72.567652779945504, 46.85623284208846 ] ] ] } },
{ "type": "Feature", "properties": { "hex_id": 664360, "centroid_lon": -72.566714136612745, "centroid_lat": 46.876996324695362, "occurrences_today": 3, "datetimes_today": "2026-07-27 00:01:58, 2026-07-27 00:16:44, 2026-07-27 00:32:21", "cumulative_total": 38.0 }, "geometry": { "type": "Polygon", "coordinates": [ [ [ -72.566948895196575, 46.871805462490443 ], [ -72.57338699820221, 46.874540125044781 ], [ -72.573152838080361, 46.879731009549303 ], [ -72.566479312824072, 46.88218718126862 ], [ -72.56004067657264, 46.879452122673101 ], [ -72.560276098800642, 46.874261288466897 ], [ -72.566948895196575, 46.871805462490443 ] ] ] } },
{ "type": "Feature", "properties": { "hex_id": 664968, "centroid_lon": -72.561922225355758, "centroid_lat": 46.837925291221374, "occurrences_today": 3, "datetimes_today": "2026-07-27 00:01:58, 2026-07-27 00:16:44, 2026-07-27 00:32:21", "cumulative_total": 38.0 }, "geometry": { "type": "Polygon", "coordinates": [ [ [ -72.56215712527289, 46.832734411932165 ], [ -72.568590381449866, 46.835469269392533 ], [ -72.568356078666028, 46.8406601710114 ], [ -72.561687260229121, 46.843116164876172 ], [ -72.555253472139682, 46.840380911858546 ], [ -72.555489034376961, 46.835190060600773 ], [ -72.56215712527289, 46.832734411932165 ] ] ] } },
{ "type": "Feature", "properties": { "hex_id": 664969, "centroid_lon": -72.561217134256765, "centroid_lat": 46.853497895281443, "occurrences_today": 3, "datetimes_today": "2026-07-27 00:01:58, 2026-07-27 00:16:44, 2026-07-27 00:32:21", "cumulative_total": 38.0 }, "geometry": { "type": "Polygon", "coordinates": [ [ [ -72.561452229870355, 46.84830703289628 ], [ -72.56788727793645, 46.851041957359634 ], [ -72.567652779945504, 46.85623284208846 ], [ -72.560981973365699, 46.858688752031327 ], [ -72.554546392965776, 46.855953431794553 ], [ -72.554782151456806, 46.850762597455713 ], [ -72.561452229870355, 46.84830703289628 ] ] ] } },
{ "type": "Feature", "properties": { "hex_id": 664970, "centroid_lon": -72.560511455660333, "centroid_lat": 46.869070448624342, "occurrences_today": 3, "datetimes_today": "2026-07-27 00:01:58, 2026-07-27 00:16:44, 2026-07-27 00:32:21", "cumulative_total": 38.0 }, "geometry": { "type": "Polygon", "coordinates": [ [ [ -72.560746747174449, 46.863879603145747 ], [ -72.567183588598212, 46.866614594654131 ], [ -72.566948895196575, 46.871805462490443 ], [ -72.560276098800642, 46.874261288466897 ], [ -72.553838724621315, 46.87152590096877 ], [ -72.554074679570789, 46.86633508355137 ], [ -72.560746747174449, 46.863879603145747 ] ] ] } },
{ "type": "Feature", "properties": { "hex_id": 665579, "centroid_lon": -72.555017844507191, "centroid_lat": 46.845571757476954, "occurrences_today": 3, "datetimes_today": "2026-07-27 00:01:58, 2026-07-27 00:16:44, 2026-07-27 00:32:21", "cumulative_total": 38.0 }, "geometry": { "type": "Polygon", "coordinates": [ [ [ -72.555253472139682, 46.840380911858546 ], [ -72.561687260229121, 46.843116164876172 ], [ -72.561452229870355, 46.84830703289628 ], [ -72.554782151456806, 46.850762597455713 ], [ -72.548347831522932, 46.848026948716118 ], [ -72.548584121824305, 46.842836131206433 ], [ -72.555253472139682, 46.840380911858546 ] ] ] } },
{ "type": "Feature", "properties": { "hex_id": 665580, "centroid_lon": -72.554310569011363, "centroid_lat": 46.861144260493205, "occurrences_today": 3, "datetimes_today": "2026-07-27 00:01:58, 2026-07-27 00:16:44, 2026-07-27 00:32:21", "cumulative_total": 38.0 }, "geometry": { "type": "Polygon", "coordinates": [ [ [ -72.554546392965776, 46.855953431794553 ], [ -72.560981973365699, 46.858688752031327 ], [ -72.560746747174449, 46.863879603145747 ], [ -72.554074679570789, 46.86633508355137 ], [ -72.547638566905206, 46.863599367376324 ], [ -72.547875054086191, 46.85840856680133 ], [ -72.554546392965776, 46.855953431794553 ] ] ] } },
{ "type": "Feature", "properties": { "hex_id": 666189, "centroid_lon": -72.548820346544716, "centroid_lat": 46.837645308052423, "occurrences_today": 3, "datetimes_today": "2026-07-27 00:01:58, 2026-07-27 00:16:44, 2026-07-27 00:32:21", "cumulative_total": 66.0 }, "geometry": { "type": "Polygon", "coordinates": [ [ [ -72.549056505706957, 46.832454479254338 ], [ -72.555489034376961, 46.835190060600773 ], [ -72.555253472139682, 46.840380911858546 ], [ -72.548584121824305, 46.842836131206433 ], [ -72.542151061798904, 46.840100154189486 ], [ -72.542387883421512, 46.834909353562523 ], [ -72.549056505706957, 46.832454479254338 ] ] ] } },
{ "type": "Feature", "properties": { "hex_id": 666190, "centroid_lon": -72.54811147561783, "centroid_lat": 46.853217760581174, "occurrences_today": 3, "datetimes_today": "2026-07-27 00:01:58, 2026-07-27 00:16:44, 2026-07-27 00:32:21", "cumulative_total": 38.0 }, "geometry": { "type": "Polygon", "coordinates": [ [ [ -72.548347831522932, 46.848026948716118 ], [ -72.554782151456806, 46.850762597455713 ], [ -72.554546392965776, 46.855953431794553 ], [ -72.547875054086191, 46.85840856680133 ], [ -72.54144020237618, 46.855672522174991 ], [ -72.541677221299082, 46.850481738496001 ], [ -72.548347831522932, 46.848026948716118 ] ] ] } },
{ "type": "Feature", "properties": { "hex_id": 666800, "centroid_lon": -72.541914174432378, "centroid_lat": 46.845290949167392, "occurrences_today": 3, "datetimes_today": "2026-07-27 00:01:58, 2026-07-27 00:16:44, 2026-07-27 00:32:21", "cumulative_total": 38.0 }, "geometry": { "type": "Polygon", "coordinates": [ [ [ -72.542151061798904, 46.840100154189486 ], [ -72.548584121824305, 46.842836131206433 ], [ -72.548347831522932, 46.848026948716118 ], [ -72.541677221299082, 46.850481738496001 ], [ -72.535243629986709, 46.847745365643839 ], [ -72.535481180162321, 46.842554598914369 ], [ -72.542151061798904, 46.840100154189486 ] ] ] } },
{ "type": "Feature", "properties": { "hex_id": 666801, "centroid_lon": -72.541203117640791, "centroid_lat": 46.860863300204109, "occurrences_today": 3, "datetimes_today": "2026-07-27 00:01:58, 2026-07-27 00:16:44, 2026-07-27 00:32:21", "cumulative_total": 61.0 }, "geometry": { "type": "Polygon", "coordinates": [ [ [ -72.54144020237618, 46.855672522174991 ], [ -72.547875054086191, 46.85840856680133 ], [ -72.547638566905206, 46.863599367376324 ], [ -72.540965967070065, 46.86605407258304 ], [ -72.534530583652455, 46.863317631905147 ], [ -72.534768331754705, 46.858126882139501 ], [ -72.54144020237618, 46.855672522174991 ] ] ] } },
{ "type": "Feature", "properties": { "hex_id": 667410, "centroid_lon": -72.535718664408193, "centroid_lat": 46.837363826530861, "occurrences_today": 3, "datetimes_today": "2026-07-27 00:01:58, 2026-07-27 00:16:44, 2026-07-27 00:32:21", "cumulative_total": 38.0 }, "geometry": { "type": "Polygon", "coordinates": [ [ [ -72.535956082747248, 46.832173048493601 ], [ -72.542387883421512, 46.834909353562523 ], [ -72.542151061798904, 46.840100154189486 ], [ -72.535481180162321, 46.842554598914369 ], [ -72.529048848689897, 46.839817898061789 ], [ -72.529286929629336, 46.834627148335336 ], [ -72.535956082747248, 46.832173048493601 ] ] ] } },
{ "type": "Feature", "properties": { "hex_id": 667411, "centroid_lon": -72.535006013858478, "centroid_lat": 46.852936126718987, "occurrences_today": 3, "datetimes_today": "2026-07-27 00:01:58, 2026-07-27 00:16:44, 2026-07-27 00:32:21", "cumulative_total": 61.0 }, "geometry": { "type": "Polygon", "coordinates": [ [ [ -72.535243629986709, 46.847745365643839 ], [ -72.541677221299082, 46.850481738496001 ], [ -72.54144020237618, 46.855672522174991 ], [ -72.534768331754705, 46.858126882139501 ], [ -72.528334209224013, 46.855390113287406 ], [ -72.528572488510207, 46.850199380538108 ], [ -72.535243629986709, 46.847745365643839 ] ] ] } },
{ "type": "Feature", "properties": { "hex_id": 603223, "centroid_lon": -73.26572655855054, "centroid_lat": 45.533502986138458, "occurrences_today": 2, "datetimes_today": "2026-07-27 00:16:44, 2026-07-27 00:32:21", "cumulative_total": 102.0 }, "geometry": { "type": "Polygon", "coordinates": [ [ [ -73.265886241357805, 45.528308590373371 ], [ -73.272206840782289, 45.531002805152198 ], [ -73.272047724878718, 45.536197215803746 ], [ -73.26556683212722, 45.53869737672175 ], [ -73.259245709422444, 45.536002789835571 ], [ -73.259406002734806, 45.530808414203236 ], [ -73.265886241357805, 45.528308590373371 ] ] ] } },
{ "type": "Feature", "properties": { "hex_id": 603834, "centroid_lon": -73.259085372326084, "centroid_lat": 45.54119716028282, "occurrences_today": 2, "datetimes_today": "2026-07-27 00:16:44, 2026-07-27 00:32:21", "cumulative_total": 93.0 }, "geometry": { "type": "Polygon", "coordinates": [ [ [ -73.259245709422444, 45.536002789835571 ], [ -73.26556683212722, 45.53869737672175 ], [ -73.26540706207318, 45.54389176212311 ], [ -73.25892499143103, 45.546391525544884 ], [ -73.252603345489973, 45.543696566392583 ], [ -73.252764293412639, 45.538502216149112 ], [ -73.259245709422444, 45.536002789835571 ] ] ] } },
{ "type": "Feature", "properties": { "hex_id": 604445, "centroid_lon": -73.252442353600586, "centroid_lat": 45.548890911447572, "occurrences_today": 2, "datetimes_today": "2026-07-27 00:16:44, 2026-07-27 00:32:21", "cumulative_total": 93.0 }, "geometry": { "type": "Polygon", "coordinates": [ [ [ -73.252603345489973, 45.543696566392583 ], [ -73.25892499143103, 45.546391525544884 ], [ -73.25876456672259, 45.551585885621591 ], [ -73.252281317729711, 45.554085251313914 ], [ -73.245959148596583, 45.551389919736749 ], [ -73.246120751633626, 45.546195594956643 ], [ -73.252603345489973, 45.543696566392583 ] ] ] } },
{ "type": "Feature", "properties": { "hex_id": 605055, "centroid_lon": -73.246282310535875, "centroid_lat": 45.54100126498475, "occurrences_today": 2, "datetimes_today": "2026-07-27 00:16:44, 2026-07-27 00:32:21", "cumulative_total": 81.0 }, "geometry": { "type": "Polygon", "coordinates": [ [ [ -73.246443825318138, 45.535806929821213 ], [ -73.252764293412639, 45.538502216149112 ], [ -73.252603345489973, 45.543696566392583 ], [ -73.246120751633626, 45.546195594956643 ], [ -73.239799760806932, 45.543499936248104 ], [ -73.239961886553942, 45.538305621420626 ], [ -73.246443825318138, 45.535806929821213 ] ] ] } },
{ "type": "Feature", "properties": { "hex_id": 605056, "centroid_lon": -73.245797501409896, "centroid_lat": 45.556584239324906, "occurrences_today": 2, "datetimes_today": "2026-07-27 00:16:44, 2026-07-27 00:32:21", "cumulative_total": 93.0 }, "geometry": { "type": "Polygon", "coordinates": [ [ [ -73.245959148596583, 45.551389919736749 ], [ -73.252281317729711, 45.554085251313914 ], [ -73.252120237862556, 45.559279585991476 ], [ -73.245635810058758, 45.561778553721005 ], [ -73.239313117777982, 45.559082849560184 ], [ -73.239475376433816, 45.553888550318035 ], [ -73.245959148596583, 45.551389919736749 ] ] ] } },
{ "type": "Feature", "properties": { "hex_id": 482383, "centroid_lon": -74.52844310349434, "centroid_lat": 46.153686094925874, "occurrences_today": 2, "datetimes_today": "2026-07-27 00:01:58, 2026-07-27 00:16:44", "cumulative_total": 223.0 }, "geometry": { "type": "Polygon", "coordinates": [ [ [ -74.528487477191021, 46.148490057815273 ], [ -74.534939975493131, 46.151114601582393 ], [ -74.534896205016437, 46.156310641087209 ], [ -74.528398717578582, 46.158882127258948 ], [ -74.521945628277649, 46.156257215516789 ], [ -74.521990617409244, 46.151061185644039 ], [ -74.528487477191021, 46.148490057815273 ] ] ] } },
{ "type": "Feature", "properties": { "hex_id": 551341, "centroid_lon": -73.806424801413641, "centroid_lat": 45.704130331381897, "occurrences_today": 3, "datetimes_today": "2026-07-27 00:01:58, 2026-07-27 00:16:44, 2026-07-27 00:32:21", "cumulative_total": 230.0 }, "geometry": { "type": "Polygon", "coordinates": [ [ [ -73.80653536392596, 45.698934836648526 ], [ -73.812901508098562, 45.701599495428404 ], [ -73.812791525045455, 45.706794999742712 ], [ -73.806314208632031, 45.709325821161102 ], [ -73.799947515274596, 45.706660793135597 ], [ -73.800058687505199, 45.701465313002302 ], [ -73.80653536392596, 45.698934836648526 ] ] ] } },
{ "type": "Feature", "properties": { "hex_id": 476259, "centroid_lon": -74.595358687227261, "centroid_lat": 45.857750577167565, "occurrences_today": 3, "datetimes_today": "2026-07-27 00:01:58, 2026-07-27 00:16:44, 2026-07-27 00:32:21", "cumulative_total": 665.0 }, "geometry": { "type": "Polygon", "coordinates": [ [ [ -74.595396373369084, 45.852554223318741 ], [ -74.601817842032602, 45.855175024617459 ], [ -74.601780750609237, 45.860371380159251 ], [ -74.595320990746359, 45.862946926245691 ], [ -74.588898937705238, 45.860325761408468 ], [ -74.588937228901088, 45.855129414088736 ], [ -74.595396373369084, 45.852554223318741 ] ] ] } },
{ "type": "Feature", "properties": { "hex_id": 613017, "centroid_lon": -73.149986131594801, "centroid_lat": 45.937026071948246, "occurrences_today": 1, "datetimes_today": "2026-07-27 00:32:21", "cumulative_total": 44.0 }, "geometry": { "type": "Polygon", "coordinates": [ [ [ -73.150158880484923, 45.931832373318315 ], [ -73.156518801057501, 45.934533428154396 ], [ -73.156346629674729, 45.939727142937862 ], [ -73.149813335288258, 45.942219765331743 ], [ -73.143452884632794, 45.939518332150008 ], [ -73.143626258430601, 45.934324654985424 ], [ -73.150158880484923, 45.931832373318315 ] ] ] } },
{ "type": "Feature", "properties": { "hex_id": 636196, "centroid_lon": -72.916683806851651, "centroid_lat": 45.62121091553955, "occurrences_today": 3, "datetimes_today": "2026-07-27 00:01:58, 2026-07-27 00:16:44, 2026-07-27 00:32:21", "cumulative_total": 91.0 }, "geometry": { "type": "Polygon", "coordinates": [ [ [ -72.916876202014919, 45.616017655937341 ], [ -72.923189117657586, 45.618731029565424 ], [ -72.922997287151233, 45.623924307507885 ], [ -72.916491359092035, 45.626404169766509 ], [ -72.910177931397669, 45.623690419749771 ], [ -72.910370943796508, 45.618497183927659 ], [ -72.916876202014919, 45.616017655937341 ] ] ] } },
{ "type": "Feature", "properties": { "hex_id": 476870, "centroid_lon": -74.588860636003972, "centroid_lat": 45.865522103956778, "occurrences_today": 3, "datetimes_today": "2026-07-27 00:01:58, 2026-07-27 00:16:44, 2026-07-27 00:32:21", "cumulative_total": 612.0 }, "geometry": { "type": "Polygon", "coordinates": [ [ [ -74.588898937705238, 45.860325761408468 ], [ -74.595320990746359, 45.862946926245691 ], [ -74.595283283922853, 45.868143270553155 ], [ -74.588822323793721, 45.870718441733644 ], [ -74.5823996863856, 45.868096913194883 ], [ -74.582438593470044, 45.862900577242634 ], [ -74.588898937705238, 45.860325761408468 ] ] ] } },
{ "type": "Feature", "properties": { "hex_id": 550120, "centroid_lon": -73.819268261836996, "centroid_lat": 45.704263804153122, "occurrences_today": 3, "datetimes_today": "2026-07-27 00:01:58, 2026-07-27 00:16:44, 2026-07-27 00:32:21", "cumulative_total": 85.0 }, "geometry": { "type": "Polygon", "coordinates": [ [ [ -73.819377635319228, 45.69906828537092 ], [ -73.82574441899655, 45.701732234488176 ], [ -73.825635625151378, 45.70692776272351 ], [ -73.81915885841083, 45.709459317985555 ], [ -73.812791525045455, 45.706794999742712 ], [ -73.812901508098562, 45.701599495428404 ], [ -73.819377635319228, 45.69906828537092 ] ] ] } },
{ "type": "Feature", "properties": { "hex_id": 550731, "centroid_lon": -73.812681511880641, "centroid_lat": 45.711990499105013, "occurrences_today": 3, "datetimes_today": "2026-07-27 00:01:58, 2026-07-27 00:16:44, 2026-07-27 00:32:21", "cumulative_total": 174.0 }, "geometry": { "type": "Polygon", "coordinates": [ [ [ -73.812791525045455, 45.706794999742712 ], [ -73.81915885841083, 45.709459317985555 ], [ -73.819049425030613, 45.714654826868156 ], [ -73.812571468593958, 45.717185993515272 ], [ -73.806203585570913, 45.714521305986047 ], [ -73.806314208632031, 45.709325821161102 ], [ -73.812791525045455, 45.706794999742712 ] ] ] } },
{ "type": "Feature", "properties": { "hex_id": 564783, "centroid_lon": -73.661053776260943, "centroid_lat": 45.874006088663833, "occurrences_today": 2, "datetimes_today": "2026-07-27 00:01:58, 2026-07-27 00:16:44", "cumulative_total": 117.0 }, "geometry": { "type": "Polygon", "coordinates": [ [ [ -73.661178539021307, 45.868811040855299 ], [ -73.667556757873143, 45.87148386022816 ], [ -73.667432577810686, 45.876678919102616 ], [ -73.660928979273862, 45.879201131464235 ], [ -73.654550211956661, 45.876527939301248 ], [ -73.654675591630053, 45.871332907632116 ], [ -73.661178539021307, 45.868811040855299 ] ] ] } },
{ "type": "Feature", "properties": { "hex_id": 484214, "centroid_lon": -74.509087491533165, "centroid_lat": 46.145810278118255, "occurrences_today": 2, "datetimes_today": "2026-07-27 00:01:58, 2026-07-27 00:16:44", "cumulative_total": 305.0 }, "geometry": { "type": "Polygon", "coordinates": [ [ [ -74.509133673870977, 46.140614248581457 ], [ -74.515584326384172, 46.143239881214967 ], [ -74.515538746756917, 46.148435913341551 ], [ -74.509041296479523, 46.151006302874755 ], [ -74.502590053973734, 46.14838030217463 ], [ -74.502636851733612, 46.143184280074024 ], [ -74.509133673870977, 46.140614248581457 ] ] ] } },
{ "type": "Feature", "properties": { "hex_id": 645341, "centroid_lon": -72.828057211774208, "centroid_lat": 45.424677656251184, "occurrences_today": 3, "datetimes_today": "2026-07-27 00:01:58, 2026-07-27 00:16:44, 2026-07-27 00:32:21", "cumulative_total": 34.0 }, "geometry": { "type": "Polygon", "coordinates": [ [ [ -72.828256418650028, 45.419484516167827 ], [ -72.834543287076471, 45.422202397337173 ], [ -72.834344637784028, 45.427395556554885 ], [ -72.827857950571882, 45.429870790908716 ], [ -72.821570578897663, 45.427152535073006 ], [ -72.82177039766519, 45.421959419613948 ], [ -72.828256418650028, 45.419484516167827 ] ] ] } },
{ "type": "Feature", "properties": { "hex_id": 480551, "centroid_lon": -74.547931909820434, "centroid_lat": 46.145970497031797, "occurrences_today": 2, "datetimes_today": "2026-07-27 00:01:58, 2026-07-27 00:16:44", "cumulative_total": 153.0 }, "geometry": { "type": "Polygon", "coordinates": [ [ [ -74.547974438206211, 46.140774438609618 ], [ -74.554426972140845, 46.143397886021702 ], [ -74.554385046987235, 46.148593946639735 ], [ -74.547889369724828, 46.151166550679072 ], [ -74.541436244269846, 46.148542735584876 ], [ -74.541479387593611, 46.143346684199571 ], [ -74.547974438206211, 46.140774438609618 ] ] ] } },
{ "type": "Feature", "properties": { "hex_id": 482993, "centroid_lon": -74.522035594156108, "centroid_lat": 46.145865150992854, "occurrences_today": 2, "datetimes_today": "2026-07-27 00:01:58, 2026-07-27 00:16:44", "cumulative_total": 194.0 }, "geometry": { "type": "Polygon", "coordinates": [ [ [ -74.522080558522461, 46.140669111563206 ], [ -74.528531838672777, 46.143294015927125 ], [ -74.528487477191021, 46.148490057815273 ], [ -74.521990617409244, 46.151061185644039 ], [ -74.515538746756917, 46.148435913341551 ], [ -74.515584326384172, 46.143239881214967 ], [ -74.522080558522461, 46.140669111563206 ] ] ] } },
{ "type": "Feature", "properties": { "hex_id": 483604, "centroid_lon": -74.515493154579389, "centroid_lat": 46.153631940688769, "occurrences_today": 2, "datetimes_today": "2026-07-27 00:01:58, 2026-07-27 00:16:44", "cumulative_total": 198.0 }, "geometry": { "type": "Polygon", "coordinates": [ [ [ -74.515538746756917, 46.148435913341551 ], [ -74.521990617409244, 46.151061185644039 ], [ -74.521945628277649, 46.156257215516789 ], [ -74.515447549847266, 46.158827963256627 ], [ -74.508995088705731, 46.156202322850973 ], [ -74.509041296479523, 46.151006302874755 ], [ -74.515538746756917, 46.148435913341551 ] ] ] } },
{ "type": "Feature", "properties": { "hex_id": 479330, "centroid_lon": -74.560880120849831, "centroid_lat": 46.146020970174924, "occurrences_today": 2, "datetimes_today": "2026-07-27 00:01:58, 2026-07-27 00:16:44", "cumulative_total": 178.0 }, "geometry": { "type": "Polygon", "coordinates": [ [ [ -74.560921431227143, 46.140824902653058 ], [ -74.567374591308663, 46.143447621383181 ], [ -74.567333884337046, 46.14864369096955 ], [ -74.560838799098022, 46.151217032923583 ], [ -74.554385046987235, 46.148593946639735 ], [ -74.554426972140845, 46.143397886021702 ], [ -74.560921431227143, 46.140824902653058 ] ] ] } },
{ "type": "Feature", "properties": { "hex_id": 671572, "centroid_lon": -72.567150311342374, "centroid_lat": 45.099796298309514, "occurrences_today": 3, "datetimes_today": "2026-07-27 00:01:58, 2026-07-27 00:16:44, 2026-07-27 00:32:21", "cumulative_total": 80.0 }, "geometry": { "type": "Polygon", "coordinates": [ [ [ -72.567370922783326, 45.094603813949476 ], [ -72.573609609873174, 45.097335200422087 ], [ -72.573389542925469, 45.102527706320402 ], [ -72.566929639978227, 45.104988777080244 ], [ -72.560690468328247, 45.102257017771954 ], [ -72.56091168416576, 45.097064560602789 ], [ -72.567370922783326, 45.094603813949476 ] ] ] } },
{ "type": "Feature", "properties": { "hex_id": 789017, "centroid_lon": -71.0990282960245, "centroid_lat": 48.62893692828127, "occurrences_today": 3, "datetimes_today": "2026-07-27 00:01:58, 2026-07-27 00:16:44, 2026-07-27 00:32:21", "cumulative_total": 49.0 }, "geometry": { "type": "Polygon", "coordinates": [ [ [ -71.099428275111009, 48.623755016226326 ], [ -71.105997960152806, 48.626575402384383 ], [ -71.105598614144071, 48.63175735242676 ], [ -71.098628203155386, 48.634118833186257 ], [ -71.092057998839124, 48.631298013662771 ], [ -71.092458724744617, 48.626116146816564 ], [ -71.099428275111009, 48.623755016226326 ] ] ] } },
{ "type": "Feature", "properties": { "hex_id": 789627, "centroid_lon": -71.092859336693309, "centroid_lat": 48.620934272812363, "occurrences_today": 3, "datetimes_today": "2026-07-27 00:01:58, 2026-07-27 00:16:44, 2026-07-27 00:32:21", "cumulative_total": 60.0 }, "geometry": { "type": "Polygon", "coordinates": [ [ [ -71.093259834726624, 48.615752391650993 ], [ -71.099828140456253, 48.618573097022249 ], [ -71.099428275111009, 48.623755016226326 ], [ -71.092458724744617, 48.626116146816564 ], [ -71.085889900263012, 48.623295008146108 ], [ -71.086291144858336, 48.618113172255946 ], [ -71.093259834726624, 48.615752391650993 ] ] ] } },
{ "type": "Feature", "properties": { "hex_id": 789628, "centroid_lon": -71.091657158935377, "centroid_lat": 48.636479873350154, "occurrences_today": 3, "datetimes_today": "2026-07-27 00:01:58, 2026-07-27 00:16:44, 2026-07-27 00:32:21", "cumulative_total": 55.0 }, "geometry": { "type": "Polygon", "coordinates": [ [ [ -71.092057998839124, 48.631298013662771 ], [ -71.098628203155386, 48.634118833186257 ], [ -71.098227996462271, 48.639300730940448 ], [ -71.091256204991893, 48.641661725877874 ], [ -71.084685481525469, 48.638840472817016 ], [ -71.085087068638103, 48.6336586584275 ], [ -71.092057998839124, 48.631298013662771 ] ] ] } },
{ "type": "Feature", "properties": { "hex_id": 790238, "centroid_lon": -71.085488541536776, "centroid_lat": 48.628476836870256, "occurrences_today": 3, "datetimes_today": "2026-07-27 00:01:58, 2026-07-27 00:16:44, 2026-07-27 00:32:21", "cumulative_total": 60.0 }, "geometry": { "type": "Polygon", "coordinates": [ [ [ -71.085889900263012, 48.623295008146108 ], [ -71.092458724744617, 48.626116146816564 ], [ -71.092057998839124, 48.631298013662771 ], [ -71.085087068638103, 48.6336586584275 ], [ -71.07851772552894, 48.630837086286007 ], [ -71.078919831206832, 48.625655302922183 ], [ -71.085889900263012, 48.623295008146108 ] ] ] } },
{ "type": "Feature", "properties": { "hex_id": 790239, "centroid_lon": -71.084283780157307, "centroid_lat": 48.644022280037987, "occurrences_today": 3, "datetimes_today": "2026-07-27 00:01:58, 2026-07-27 00:16:44, 2026-07-27 00:32:21", "cumulative_total": 46.0 }, "geometry": { "type": "Polygon", "coordinates": [ [ [ -71.084685481525469, 48.638840472817016 ], [ -71.091256204991893, 48.641661725877874 ], [ -71.090855136967164, 48.646843571245078 ], [ -71.083881964492065, 48.649204080089547 ], [ -71.077310722000107, 48.646382393319399 ], [ -71.077713170967201, 48.641200631485461 ], [ -71.084685481525469, 48.638840472817016 ] ] ] } },
{ "type": "Feature", "properties": { "hex_id": 790848, "centroid_lon": -71.079321822538219, "centroid_lat": 48.620473512383406, "occurrences_today": 3, "datetimes_today": "2026-07-27 00:01:58, 2026-07-27 00:16:44, 2026-07-27 00:32:21", "cumulative_total": 60.0 }, "geometry": { "type": "Polygon", "coordinates": [ [ [ -71.079723699564639, 48.615291714670526 ], [ -71.086291144858336, 48.618113172255946 ], [ -71.085889900263012, 48.623295008146108 ], [ -71.078919831206832, 48.625655302922183 ], [ -71.072351867807754, 48.622833411932049 ], [ -71.07275449152867, 48.617651659641894 ], [ -71.079723699564639, 48.615291714670526 ] ] ] } },
{ "type": "Feature", "properties": { "hex_id": 791458, "centroid_lon": -71.073157000770692, "centroid_lat": 48.612469900169557, "occurrences_today": 3, "datetimes_today": "2026-07-27 00:01:58, 2026-07-27 00:16:44, 2026-07-27 00:32:21", "cumulative_total": 64.0 }, "geometry": { "type": "Polygon", "coordinates": [ [ [ -71.07355939557543, 48.607288133515908 ], [ -71.080125462327658, 48.610109909784391 ], [ -71.079723699564639, 48.615291714670526 ], [ -71.07275449152867, 48.617651659641894 ], [ -71.066187907192813, 48.614829450035032 ], [ -71.066591048434944, 48.609647728866456 ], [ -71.07355939557543, 48.607288133515908 ] ] ] } },
{ "type": "Feature", "properties": { "hex_id": 791459, "centroid_lon": -71.071949129566306, "centroid_lat": 48.628015157039194, "occurrences_today": 3, "datetimes_today": "2026-07-27 00:01:58, 2026-07-27 00:16:44, 2026-07-27 00:32:21", "cumulative_total": 73.0 }, "geometry": { "type": "Polygon", "coordinates": [ [ [ -71.072351867807754, 48.622833411932049 ], [ -71.078919831206832, 48.625655302922183 ], [ -71.07851772552894, 48.630837086286007 ], [ -71.071546276762689, 48.633196894962481 ], [ -71.064977795383072, 48.63037457039583 ], [ -71.065381280708579, 48.625192870800568 ], [ -71.072351867807754, 48.622833411932049 ] ] ] } },
{ "type": "Feature", "properties": { "hex_id": 793293, "centroid_lon": -71.048600928594183, "centroid_lat": 48.666181572951281, "occurrences_today": 3, "datetimes_today": "2026-07-27 00:01:58, 2026-07-27 00:16:44, 2026-07-27 00:32:21", "cumulative_total": 59.0 }, "geometry": { "type": "Polygon", "coordinates": [ [ [ -71.049006600496028, 48.661000007897862 ], [ -71.055578016865155, 48.663823315642617 ], [ -71.055172978446549, 48.66900491921546 ], [ -71.048195141230991, 48.671363130788819 ], [ -71.041623206860976, 48.668539388713356 ], [ -71.042029627665372, 48.663357869466694 ], [ -71.049006600496028, 48.661000007897862 ] ] ] } },
{ "type": "Feature", "properties": { "hex_id": 793903, "centroid_lon": -71.042435932834167, "centroid_lat": 48.658176342996001, "occurrences_today": 3, "datetimes_today": "2026-07-27 00:01:58, 2026-07-27 00:16:44, 2026-07-27 00:32:21", "cumulative_total": 59.0 }, "geometry": { "type": "Polygon", "coordinates": [ [ [ -71.042842122409425, 48.652994809302122 ], [ -71.049412156978576, 48.655818435629428 ], [ -71.049006600496028, 48.661000007897862 ], [ -71.042029627665372, 48.663357869466694 ], [ -71.035459075618078, 48.660533808875392 ], [ -71.035866013837506, 48.655352321050657 ], [ -71.042842122409425, 48.652994809302122 ] ] ] } },
{ "type": "Feature", "properties": { "hex_id": 793904, "centroid_lon": -71.041216670378844, "centroid_lat": 48.673720900735127, "occurrences_today": 3, "datetimes_today": "2026-07-27 00:01:58, 2026-07-27 00:16:44, 2026-07-27 00:32:21", "cumulative_total": 59.0 }, "geometry": { "type": "Polygon", "coordinates": [ [ [ -71.041623206860976, 48.668539388713356 ], [ -71.048195141230991, 48.671363130788819 ], [ -71.047789238364416, 48.676544681409602 ], [ -71.04081001817687, 48.678902405531147 ], [ -71.034237565932202, 48.676078228952967 ], [ -71.034644851707597, 48.670896762827411 ], [ -71.041623206860976, 48.668539388713356 ] ] ] } },
{ "type": "Feature", "properties": { "hex_id": 794513, "centroid_lon": -71.036272836289257, "centroid_lat": 48.650170825994586, "occurrences_today": 3, "datetimes_today": "2026-07-27 00:01:58, 2026-07-27 00:16:44, 2026-07-27 00:32:21", "cumulative_total": 59.0 }, "geometry": { "type": "Polygon", "coordinates": [ [ [ -71.036679543015453, 48.644989323708074 ], [ -71.043248196433197, 48.647813268385953 ], [ -71.042842122409425, 48.652994809302122 ], [ -71.035866013837506, 48.655352321050657 ], [ -71.029296843463953, 48.65252794217551 ], [ -71.029704298576021, 48.647346485820471 ], [ -71.036679543015453, 48.644989323708074 ] ] ] } },
{ "type": "Feature", "properties": { "hex_id": 794514, "centroid_lon": -71.035052021588825, "centroid_lat": 48.665715289467919, "occurrences_today": 3, "datetimes_today": "2026-07-27 00:01:58, 2026-07-27 00:16:44, 2026-07-27 00:32:21", "cumulative_total": 59.0 }, "geometry": { "type": "Polygon", "coordinates": [ [ [ -71.035459075618078, 48.660533808875392 ], [ -71.042029627665372, 48.663357869466694 ], [ -71.041623206860976, 48.668539388713356 ], [ -71.034644851707597, 48.670896762827411 ], [ -71.028073782308525, 48.66807226780017 ], [ -71.028481585372418, 48.66289083316623 ], [ -71.035459075618078, 48.660533808875392 ] ] ] } },
{ "type": "Feature", "properties": { "hex_id": 795123, "centroid_lon": -71.030111637788522, "centroid_lat": 48.642165022226798, "occurrences_today": 3, "datetimes_today": "2026-07-27 00:01:58, 2026-07-27 00:16:44, 2026-07-27 00:32:21", "cumulative_total": 59.0 }, "geometry": { "type": "Polygon", "coordinates": [ [ [ -71.030518861143605, 48.636983551395375 ], [ -71.037086134058185, 48.639807814191954 ], [ -71.036679543015453, 48.644989323708074 ], [ -71.029704298576021, 48.647346485820471 ], [ -71.023136509227541, 48.644521788893371 ], [ -71.023544480710271, 48.639340364055748 ], [ -71.030518861143605, 48.636983551395375 ] ] ] } },
{ "type": "Feature", "properties": { "hex_id": 795124, "centroid_lon": -71.028889272410154, "centroid_lat": 48.657709391291057, "occurrences_today": 3, "datetimes_today": "2026-07-27 00:01:58, 2026-07-27 00:16:44, 2026-07-27 00:32:21", "cumulative_total": 59.0 }, "geometry": { "type": "Polygon", "coordinates": [ [ [ -71.029296843463953, 48.65252794217551 ], [ -71.035866013837506, 48.655352321050657 ], [ -71.035459075618078, 48.660533808875392 ], [ -71.028481585372418, 48.66289083316623 ], [ -71.021911898169549, 48.660066019921949 ], [ -71.022320217999436, 48.654884616827346 ], [ -71.029296843463953, 48.65252794217551 ] ] ] } },
{ "type": "Feature", "properties": { "hex_id": 795733, "centroid_lon": -71.023952336161713, "centroid_lat": 48.634158931972173, "occurrences_today": 3, "datetimes_today": "2026-07-27 00:01:58, 2026-07-27 00:16:44, 2026-07-27 00:32:21", "cumulative_total": 59.0 }, "geometry": { "type": "Polygon", "coordinates": [ [ [ -71.024360075624116, 48.628977492643564 ], [ -71.030925968683448, 48.631802073327066 ], [ -71.030518861143605, 48.636983551395375 ], [ -71.023544480710271, 48.639340364055748 ], [ -71.016978071738535, 48.636515349308468 ], [ -71.017386559070346, 48.631333956035924 ], [ -71.024360075624116, 48.628977492643564 ] ] ] } },
{ "type": "Feature", "properties": { "hex_id": 795734, "centroid_lon": -71.02272842167136, "centroid_lat": 48.649703206484183, "occurrences_today": 3, "datetimes_today": "2026-07-27 00:01:58, 2026-07-27 00:16:44, 2026-07-27 00:32:21", "cumulative_total": 59.0 }, "geometry": { "type": "Polygon", "coordinates": [ [ [ -71.023136509227541, 48.644521788893371 ], [ -71.029704298576021, 48.647346485820471 ], [ -71.029296843463953, 48.65252794217551 ], [ -71.022320217999436, 48.654884616827346 ], [ -71.015751912343674, 48.652059485597931 ], [ -71.016160748417491, 48.646878114090349 ], [ -71.023136509227541, 48.644521788893371 ] ] ] } },
{ "type": "Feature", "properties": { "hex_id": 484824, "centroid_lon": -74.502683636612218, "centroid_lat": 46.137988253192134, "occurrences_today": 2, "datetimes_today": "2026-07-27 00:01:58, 2026-07-27 00:16:44", "cumulative_total": 195.0 }, "geometry": { "type": "Polygon", "coordinates": [ [ [ -74.502730408613928, 46.132792221528959 ], [ -74.509179843497336, 46.135418214264305 ], [ -74.509133673870977, 46.140614248581457 ], [ -74.502636851733612, 46.143184280074024 ], [ -74.49618682735391, 46.140557919308669 ], [ -74.49623421460349, 46.135361895146843 ], [ -74.502730408613928, 46.132792221528959 ] ] ] } },
{ "type": "Feature", "properties": { "hex_id": 486045, "centroid_lon": -74.489737418389652, "centroid_lat": 46.137931195922043, "occurrences_today": 2, "datetimes_today": "2026-07-27 00:01:58, 2026-07-27 00:16:44", "cumulative_total": 231.0 }, "geometry": { "type": "Polygon", "coordinates": [ [ [ -74.489785407840401, 46.132735174545395 ], [ -74.49623421460349, 46.135361895146843 ], [ -74.49618682735391, 46.140557919308669 ], [ -74.489689415726872, 46.143127212515481 ], [ -74.48324001997689, 46.140500123756183 ], [ -74.48328862483632, 46.135304110014019 ], [ -74.489785407840401, 46.132735174545395 ] ] ] } },
{ "type": "Feature", "properties": { "hex_id": 481773, "centroid_lon": -74.534852422486367, "centroid_lat": 46.16150667581541, "occurrences_today": 2, "datetimes_today": "2026-07-27 00:01:58, 2026-07-27 00:16:44", "cumulative_total": 128.0 }, "geometry": { "type": "Polygon", "coordinates": [ [ [ -74.534896205016437, 46.156310641087209 ], [ -74.541349921979673, 46.158934824028179 ], [ -74.541306743005165, 46.164130861086235 ], [ -74.534808627898784, 46.166702705767001 ], [ -74.528354319439558, 46.164078154814533 ], [ -74.528398717578582, 46.158882127258948 ], [ -74.534896205016437, 46.156310641087209 ] ] ] } },
{ "type": "Feature", "properties": { "hex_id": 482994, "centroid_lon": -74.521900626757116, "centroid_lat": 46.161453240611131, "occurrences_today": 2, "datetimes_today": "2026-07-27 00:01:58, 2026-07-27 00:16:44", "cumulative_total": 151.0 }, "geometry": { "type": "Polygon", "coordinates": [ [ [ -74.521945628277649, 46.156257215516789 ], [ -74.528398717578582, 46.158882127258948 ], [ -74.528354319439558, 46.164078154814533 ], [ -74.521855612843396, 46.166649260927059 ], [ -74.515401932556259, 46.164023981045176 ], [ -74.515447549847266, 46.158827963256627 ], [ -74.521945628277649, 46.156257215516789 ] ] ] } },
{ "type": "Feature", "properties": { "hex_id": 485434, "centroid_lon": -74.496281588810845, "centroid_lat": 46.130165866202745, "occurrences_today": 2, "datetimes_today": "2026-07-27 00:01:58, 2026-07-27 00:16:44", "cumulative_total": 122.0 }, "geometry": { "type": "Polygon", "coordinates": [ [ [ -74.496328949980423, 46.124969832476367 ], [ -74.502777167743162, 46.127596185084435 ], [ -74.502730408613928, 46.132792221528959 ], [ -74.49623421460349, 46.135361895146843 ], [ -74.489785407840401, 46.132735174545395 ], [ -74.489833384083639, 46.127539148385495 ], [ -74.496328949980423, 46.124969832476367 ] ] ] } },
{ "type": "Feature", "properties": { "hex_id": 486656, "centroid_lon": -74.483191401735567, "centroid_lat": 46.145696132714157, "occurrences_today": 2, "datetimes_today": "2026-07-27 00:01:58, 2026-07-27 00:16:44", "cumulative_total": 102.0 }, "geometry": { "type": "Polygon", "coordinates": [ [ [ -74.48324001997689, 46.140500123756183 ], [ -74.489689415726872, 46.143127212515481 ], [ -74.489641399847557, 46.148323224325715 ], [ -74.483142770107804, 46.150892136887983 ], [ -74.476692785384529, 46.148264679806296 ], [ -74.476742019369738, 46.143068678550847 ], [ -74.48324001997689, 46.140500123756183 ] ] ] } },
{ "type": "Feature", "properties": { "hex_id": 652655, "centroid_lon": -72.758808036010009, "centroid_lat": 45.236247094079324, "occurrences_today": 3, "datetimes_today": "2026-07-27 00:01:58, 2026-07-27 00:16:44, 2026-07-27 00:32:21", "cumulative_total": 32.0 }, "geometry": { "type": "Polygon", "coordinates": [ [ [ -72.759012245762889, 45.231054024230637 ], [ -72.765275176867405, 45.233775340287472 ], [ -72.765071518220935, 45.238968429873616 ], [ -72.758603770693028, 45.241440158462567 ], [ -72.752340344055469, 45.238718469521352 ], [ -72.752545160460329, 45.233525424939231 ], [ -72.759012245762889, 45.231054024230637 ] ] ] } },
{ "type": "Feature", "properties": { "hex_id": 653266, "centroid_lon": -72.752135471920042, "centroid_lat": 45.243911508633822, "occurrences_today": 3, "datetimes_today": "2026-07-27 00:01:58, 2026-07-27 00:16:44, 2026-07-27 00:32:21", "cumulative_total": 32.0 }, "geometry": { "type": "Polygon", "coordinates": [ [ [ -72.752340344055469, 45.238718469521352 ], [ -72.758603770693028, 45.241440158462567 ], [ -72.758399449793444, 45.246633217380094 ], [ -72.751930544035531, 45.249104542276399 ], [ -72.745666621920506, 45.246382480294855 ], [ -72.7458721010223, 45.241189466521014 ], [ -72.752340344055469, 45.238718469521352 ] ] ] } },
{ "type": "Feature", "properties": { "hex_id": 478719, "centroid_lon": -74.567415287075391, "centroid_lat": 46.138251547024403, "occurrences_today": 2, "datetimes_today": "2026-07-27 00:01:58, 2026-07-27 00:16:44", "cumulative_total": 101.0 }, "geometry": { "type": "Polygon", "coordinates": [ [ [ -74.567455971641039, 46.133055467893193 ], [ -74.573908539681739, 46.135677819234239 ], [ -74.573868458359897, 46.140873900363012 ], [ -74.567374591308663, 46.143447621383181 ], [ -74.560921431227143, 46.140824902653058 ], [ -74.560962730233854, 46.135628830357938 ], [ -74.567455971641039, 46.133055467893193 ] ] ] } },
{ "type": "Feature", "properties": { "hex_id": 479331, "centroid_lon": -74.560756121455412, "centroid_lat": 46.161609144101355, "occurrences_today": 2, "datetimes_today": "2026-07-27 00:01:58, 2026-07-27 00:16:44", "cumulative_total": 139.0 }, "geometry": { "type": "Polygon", "coordinates": [ [ [ -74.560797465967838, 46.156413090899058 ], [ -74.567252436763766, 46.159035815825185 ], [ -74.567211696154459, 46.164231871094529 ], [ -74.560714765556838, 46.166805192530518 ], [ -74.554259202245859, 46.164182099849683 ], [ -74.554301162043686, 46.158986053553704 ], [ -74.560797465967838, 46.156413090899058 ] ] ] } },
{ "type": "Feature", "properties": { "hex_id": 479940, "centroid_lon": -74.554468885754275, "centroid_lat": 46.138201820629568, "occurrences_today": 2, "datetimes_today": "2026-07-27 00:01:58, 2026-07-27 00:16:44", "cumulative_total": 124.0 }, "geometry": { "type": "Polygon", "coordinates": [ [ [ -74.554510787831447, 46.13300575046334 ], [ -74.560962730233854, 46.135628830357938 ], [ -74.560921431227143, 46.140824902653058 ], [ -74.554426972140845, 46.143397886021702 ], [ -74.547974438206211, 46.140774438609618 ], [ -74.548016954886151, 46.135578375412479 ], [ -74.554510787831447, 46.13300575046334 ] ] ] } },
{ "type": "Feature", "properties": { "hex_id": 479941, "centroid_lon": -74.554343110289508, "centroid_lat": 46.153790002483746, "occurrences_today": 2, "datetimes_today": "2026-07-27 00:01:58, 2026-07-27 00:16:44", "cumulative_total": 141.0 }, "geometry": { "type": "Polygon", "coordinates": [ [ [ -74.554385046987235, 46.148593946639735 ], [ -74.560838799098022, 46.151217032923583 ], [ -74.560797465967838, 46.156413090899058 ], [ -74.554301162043686, 46.158986053553704 ], [ -74.547846817915399, 46.156362599551457 ], [ -74.547889369724828, 46.151166550679072 ], [ -74.554385046987235, 46.148593946639735 ] ] ] } },
{ "type": "Feature", "properties": { "hex_id": 480552, "centroid_lon": -74.54780425438814, "centroid_lat": 46.161558643648974, "occurrences_today": 2, "datetimes_today": "2026-07-27 00:01:58, 2026-07-27 00:16:44", "cumulative_total": 97.0 }, "geometry": { "type": "Polygon", "coordinates": [ [ [ -74.547846817915399, 46.156362599551457 ], [ -74.554301162043686, 46.158986053553704 ], [ -74.554259202245859, 46.164182099849683 ], [ -74.547761679139057, 46.16675468297165 ], [ -74.541306743005165, 46.164130861086235 ], [ -74.541349921979673, 46.158934824028179 ], [ -74.547846817915399, 46.156362599551457 ] ] ] } },
{ "type": "Feature", "properties": { "hex_id": 481161, "centroid_lon": -74.541522519041919, "centroid_lat": 46.13815062803846, "occurrences_today": 2, "datetimes_today": "2026-07-27 00:01:58, 2026-07-27 00:16:44", "cumulative_total": 124.0 }, "geometry": { "type": "Polygon", "coordinates": [ [ [ -74.541565638618792, 46.132954567101528 ], [ -74.548016954886151, 46.135578375412479 ], [ -74.547974438206211, 46.140774438609618 ], [ -74.541479387593611, 46.143346684199571 ], [ -74.535027480302759, 46.140722508242838 ], [ -74.535071214643949, 46.13552645440803 ], [ -74.541565638618792, 46.132954567101528 ] ] ] } },
{ "type": "Feature", "properties": { "hex_id": 482382, "centroid_lon": -74.528576187943798, "centroid_lat": 46.138097969261402, "occurrences_today": 2, "datetimes_today": "2026-07-27 00:01:58, 2026-07-27 00:16:44", "cumulative_total": 124.0 }, "geometry": { "type": "Polygon", "coordinates": [ [ [ -74.528620525008236, 46.13290191781806 ], [ -74.535071214643949, 46.13552645440803 ], [ -74.535027480302759, 46.140722508242838 ], [ -74.528531838672777, 46.143294015927125 ], [ -74.522080558522461, 46.140669111563206 ], [ -74.522125510512581, 46.135473067355058 ], [ -74.528620525008236, 46.13290191781806 ] ] ] } },
{ "type": "Feature", "properties": { "hex_id": 660598, "centroid_lon": -72.671922400348834, "centroid_lat": 45.335850496462349, "occurrences_today": 3, "datetimes_today": "2026-07-27 00:01:58, 2026-07-27 00:16:44, 2026-07-27 00:32:21", "cumulative_total": 55.0 }, "geometry": { "type": "Polygon", "coordinates": [ [ [ -72.67213526012273, 45.330657832170616 ], [ -72.678404628764739, 45.333384007897372 ], [ -72.678192321777857, 45.338576692807663 ], [ -72.671709482592618, 45.341043155229613 ], [ -72.665439619155578, 45.338316604588826 ], [ -72.665653089679452, 45.333123966504004 ], [ -72.67213526012273, 45.330657832170616 ] ] ] } },
{ "type": "Feature", "properties": { "hex_id": 789018, "centroid_lon": -71.097827675903702, "centroid_lat": 48.644482621543041, "occurrences_today": 3, "datetimes_today": "2026-07-27 00:01:58, 2026-07-27 00:16:44, 2026-07-27 00:32:21", "cumulative_total": 16.0 }, "geometry": { "type": "Polygon", "coordinates": [ [ [ -71.098227996462271, 48.639300730940448 ], [ -71.104799581260238, 48.642121231084893 ], [ -71.104399894302432, 48.647303159698986 ], [ -71.097427241438311, 48.649664504993154 ], [ -71.090855136967164, 48.646843571245078 ], [ -71.091256204991893, 48.641661725877874 ], [ -71.098227996462271, 48.639300730940448 ] ] ] } }
]
}
