{
"type": "FeatureCollection",
"name": "daily_2025-11-16",
"crs": { "type": "name", "properties": { "name": "urn:ogc:def:crs:OGC:1.3:CRS84" } },
"features": [
{ "type": "Feature", "properties": { "hex_id": 1039, "count": 9, "date": "2025-11-16", "n_files": 57, "pct": 15.79 }, "geometry": { "type": "Polygon", "coordinates": [ [ [ -74.4778229, 45.701657 ], [ -74.4775808, 45.727639 ], [ -74.5095949, 45.7407724 ], [ -74.5418366, 45.7279148 ], [ -74.5420489, 45.7019325 ], [ -74.5100492, 45.6888082 ], [ -74.4778229, 45.701657 ] ] ] } },
{ "type": "Feature", "properties": { "hex_id": 1099, "count": 10, "date": "2025-11-16", "n_files": 57, "pct": 17.54 }, "geometry": { "type": "Polygon", "coordinates": [ [ [ -74.4491446, 45.3507392 ], [ -74.4488923, 45.3767226 ], [ -74.4807017, 45.389864 ], [ -74.512749200000016, 45.3770129 ], [ -74.5129722, 45.3510292 ], [ -74.481177, 45.3378968 ], [ -74.4491446, 45.3507392 ] ] ] } },
{ "type": "Feature", "properties": { "hex_id": 1162, "count": 10, "date": "2025-11-16", "n_files": 57, "pct": 17.54 }, "geometry": { "type": "Polygon", "coordinates": [ [ [ -74.4176307, 45.3116056 ], [ -74.4173644, 45.3375891 ], [ -74.4491446, 45.3507392 ], [ -74.481177, 45.3378968 ], [ -74.4814141, 45.311913 ], [ -74.449648, 45.2987719 ], [ -74.4176307, 45.3116056 ] ] ] } },
{ "type": "Feature", "properties": { "hex_id": 1163, "count": 10, "date": "2025-11-16", "n_files": 57, "pct": 17.54 }, "geometry": { "type": "Polygon", "coordinates": [ [ [ -74.4168307, 45.3895557 ], [ -74.4165634, 45.4155388 ], [ -74.4483869, 45.4286892 ], [ -74.4804636, 45.4158474 ], [ -74.4807017, 45.389864 ], [ -74.4488923, 45.3767226 ], [ -74.4168307, 45.3895557 ] ] ] } },
{ "type": "Feature", "properties": { "hex_id": 1227, "count": 10, "date": "2025-11-16", "n_files": 57, "pct": 17.54 }, "geometry": { "type": "Polygon", "coordinates": [ [ [ -74.385318, 45.3504135 ], [ -74.3850365, 45.3763967 ], [ -74.4168307, 45.3895557 ], [ -74.4488923, 45.3767226 ], [ -74.4491446, 45.3507392 ], [ -74.4173644, 45.3375891 ], [ -74.385318, 45.3504135 ] ] ] } },
{ "type": "Feature", "properties": { "hex_id": 1228, "count": 10, "date": "2025-11-16", "n_files": 57, "pct": 17.54 }, "geometry": { "type": "Polygon", "coordinates": [ [ [ -74.3844725, 45.4283626 ], [ -74.3841899, 45.4543454 ], [ -74.4160275, 45.4675048 ], [ -74.4481336, 45.4546723 ], [ -74.4483869, 45.4286892 ], [ -74.4165634, 45.4155388 ], [ -74.3844725, 45.4283626 ] ] ] } },
{ "type": "Feature", "properties": { "hex_id": 1290, "count": 10, "date": "2025-11-16", "n_files": 57, "pct": 17.54 }, "geometry": { "type": "Polygon", "coordinates": [ [ [ -74.3538484, 45.3112625 ], [ -74.353553, 45.3372457 ], [ -74.385318, 45.3504135 ], [ -74.4173644, 45.3375891 ], [ -74.4176307, 45.3116056 ], [ -74.3858797, 45.2984468 ], [ -74.3538484, 45.3112625 ] ] ] } },
{ "type": "Feature", "properties": { "hex_id": 1291, "count": 10, "date": "2025-11-16", "n_files": 57, "pct": 17.54 }, "geometry": { "type": "Polygon", "coordinates": [ [ [ -74.3529609, 45.3892117 ], [ -74.3526642, 45.4151946 ], [ -74.3844725, 45.4283626 ], [ -74.4165634, 45.4155388 ], [ -74.4168307, 45.3895557 ], [ -74.3850365, 45.3763967 ], [ -74.3529609, 45.3892117 ] ] ] } },
{ "type": "Feature", "properties": { "hex_id": 1292, "count": 10, "date": "2025-11-16", "n_files": 57, "pct": 17.54 }, "geometry": { "type": "Polygon", "coordinates": [ [ [ -74.3520696, 45.4671599 ], [ -74.3517718, 45.4931423 ], [ -74.383623500000013, 45.5063107 ], [ -74.415759, 45.4934875 ], [ -74.4160275, 45.4675048 ], [ -74.3841899, 45.4543454 ], [ -74.3520696, 45.4671599 ] ] ] } },
{ "type": "Feature", "properties": { "hex_id": 1355, "count": 10, "date": "2025-11-16", "n_files": 57, "pct": 17.54 }, "geometry": { "type": "Polygon", "coordinates": [ [ [ -74.3214925, 45.3500522 ], [ -74.3211819, 45.376035 ], [ -74.3529609, 45.3892117 ], [ -74.3850365, 45.3763967 ], [ -74.385318, 45.3504135 ], [ -74.353553, 45.3372457 ], [ -74.3214925, 45.3500522 ] ] ] } },
{ "type": "Feature", "properties": { "hex_id": 1356, "count": 10, "date": "2025-11-16", "n_files": 57, "pct": 17.54 }, "geometry": { "type": "Polygon", "coordinates": [ [ [ -74.3205592, 45.4280003 ], [ -74.3202473, 45.4539828 ], [ -74.3520696, 45.4671599 ], [ -74.3841899, 45.4543454 ], [ -74.3844725, 45.4283626 ], [ -74.3526642, 45.4151946 ], [ -74.3205592, 45.4280003 ] ] ] } },
{ "type": "Feature", "properties": { "hex_id": 1418, "count": 10, "date": "2025-11-16", "n_files": 57, "pct": 17.54 }, "geometry": { "type": "Polygon", "coordinates": [ [ [ -74.2900674, 45.3108839 ], [ -74.2897427, 45.3368667 ], [ -74.3214925, 45.3500522 ], [ -74.353553, 45.3372457 ], [ -74.3538484, 45.3112625 ], [ -74.3221126, 45.2980861 ], [ -74.2900674, 45.3108839 ] ] ] } },
{ "type": "Feature", "properties": { "hex_id": 1419, "count": 10, "date": "2025-11-16", "n_files": 57, "pct": 17.54 }, "geometry": { "type": "Polygon", "coordinates": [ [ [ -74.2890922, 45.3888321 ], [ -74.2887662, 45.4148146 ], [ -74.3205592, 45.4280003 ], [ -74.3526642, 45.4151946 ], [ -74.3529609, 45.3892117 ], [ -74.3211819, 45.376035 ], [ -74.2890922, 45.3888321 ] ] ] } },
{ "type": "Feature", "properties": { "hex_id": 1420, "count": 10, "date": "2025-11-16", "n_files": 57, "pct": 17.54 }, "geometry": { "type": "Polygon", "coordinates": [ [ [ -74.288113, 45.4667792 ], [ -74.2877857, 45.4927613 ], [ -74.3196221, 45.5059474 ], [ -74.3517718, 45.4931423 ], [ -74.3520696, 45.4671599 ], [ -74.3202473, 45.4539828 ], [ -74.288113, 45.4667792 ] ] ] } },
{ "type": "Feature", "properties": { "hex_id": 1483, "count": 10, "date": "2025-11-16", "n_files": 57, "pct": 17.54 }, "geometry": { "type": "Polygon", "coordinates": [ [ [ -74.2576683, 45.3496552 ], [ -74.2573285, 45.3756376 ], [ -74.2890922, 45.3888321 ], [ -74.3211819, 45.376035 ], [ -74.3214925, 45.3500522 ], [ -74.2897427, 45.3368667 ], [ -74.2576683, 45.3496552 ] ] ] } },
{ "type": "Feature", "properties": { "hex_id": 1484, "count": 10, "date": "2025-11-16", "n_files": 57, "pct": 17.54 }, "geometry": { "type": "Polygon", "coordinates": [ [ [ -74.2566473, 45.4276023 ], [ -74.256306, 45.4535844 ], [ -74.288113, 45.4667792 ], [ -74.3202473, 45.4539828 ], [ -74.3205592, 45.4280003 ], [ -74.2887662, 45.4148146 ], [ -74.2566473, 45.4276023 ] ] ] } },
{ "type": "Feature", "properties": { "hex_id": 1547, "count": 10, "date": "2025-11-16", "n_files": 57, "pct": 17.54 }, "geometry": { "type": "Polygon", "coordinates": [ [ [ -74.2252248, 45.3884167 ], [ -74.2248696, 45.4143988 ], [ -74.2566473, 45.4276023 ], [ -74.2887662, 45.4148146 ], [ -74.2890922, 45.3888321 ], [ -74.2573285, 45.3756376 ], [ -74.2252248, 45.3884167 ] ] ] } },
{ "type": "Feature", "properties": { "hex_id": 1611, "count": 10, "date": "2025-11-16", "n_files": 57, "pct": 17.54 }, "geometry": { "type": "Polygon", "coordinates": [ [ [ -74.1938456, 45.3492225 ], [ -74.1934765, 45.3752046 ], [ -74.2252248, 45.3884167 ], [ -74.2573285, 45.3756376 ], [ -74.2576683, 45.3496552 ], [ -74.2259338, 45.3364521 ], [ -74.1938456, 45.3492225 ] ] ] } },
{ "type": "Feature", "properties": { "hex_id": 1936, "count": 4, "date": "2025-11-16", "n_files": 57, "pct": 7.02 }, "geometry": { "type": "Polygon", "coordinates": [ [ [ -74.0269226, 45.7766554 ], [ -74.0264704, 45.8026344 ], [ -74.0584191, 45.8158935 ], [ -74.0908061, 45.8031644 ], [ -74.0912284, 45.777185 ], [ -74.0592937, 45.7639351 ], [ -74.0269226, 45.7766554 ] ] ] } },
{ "type": "Feature", "properties": { "hex_id": 2064, "count": 4, "date": "2025-11-16", "n_files": 57, "pct": 7.02 }, "geometry": { "type": "Polygon", "coordinates": [ [ [ -73.9626186, 45.7760896 ], [ -73.9621365, 45.8020681 ], [ -73.9940694, 45.815345 ], [ -74.0264704, 45.8026344 ], [ -74.0269226, 45.7766554 ], [ -73.9950037, 45.7633876 ], [ -73.9626186, 45.7760896 ] ] ] } },
{ "type": "Feature", "properties": { "hex_id": 2383, "count": 6, "date": "2025-11-16", "n_files": 57, "pct": 10.53 }, "geometry": { "type": "Polygon", "coordinates": [ [ [ -73.8043634, 45.6576186 ], [ -73.8038101, 45.6835962 ], [ -73.8356376, 45.6969167 ], [ -73.8680047, 45.6842504 ], [ -73.8685284, 45.6582722 ], [ -73.8367146, 45.6449609 ], [ -73.8043634, 45.6576186 ] ] ] } },
{ "type": "Feature", "properties": { "hex_id": 2511, "count": 26, "date": "2025-11-16", "n_files": 57, "pct": 45.61 }, "geometry": { "type": "Polygon", "coordinates": [ [ [ -73.7402007, 45.656929 ], [ -73.7396177, 45.682906 ], [ -73.7714292, 45.6962442 ], [ -73.8038101, 45.6835962 ], [ -73.8043634, 45.6576186 ], [ -73.7725656, 45.6442896 ], [ -73.7402007, 45.656929 ] ] ] } },
{ "type": "Feature", "properties": { "hex_id": 2516, "count": 3, "date": "2025-11-16", "n_files": 57, "pct": 5.26 }, "geometry": { "type": "Polygon", "coordinates": [ [ [ -73.7313713, 46.0465705 ], [ -73.7307762, 46.0725456 ], [ -73.7628068, 46.0858877 ], [ -73.7954186, 46.0732452 ], [ -73.7959834, 46.0472695 ], [ -73.7639667, 46.0339368 ], [ -73.7313713, 46.0465705 ] ] ] } },
{ "type": "Feature", "properties": { "hex_id": 2517, "count": 3, "date": "2025-11-16", "n_files": 57, "pct": 5.26 }, "geometry": { "type": "Polygon", "coordinates": [ [ [ -73.7295835, 46.1244954 ], [ -73.7289859, 46.1504702 ], [ -73.7610609, 46.163813 ], [ -73.7937194, 46.1511717 ], [ -73.7942866, 46.1251963 ], [ -73.7622256, 46.1118629 ], [ -73.7295835, 46.1244954 ] ] ] } },
{ "type": "Feature", "properties": { "hex_id": 2580, "count": 3, "date": "2025-11-16", "n_files": 57, "pct": 5.26 }, "geometry": { "type": "Polygon", "coordinates": [ [ [ -73.6981504, 46.0851694 ], [ -73.6975389, 46.111144 ], [ -73.7295835, 46.1244954 ], [ -73.7622256, 46.1118629 ], [ -73.7628068, 46.0858877 ], [ -73.7307762, 46.0725456 ], [ -73.6981504, 46.0851694 ] ] ] } },
{ "type": "Feature", "properties": { "hex_id": 2644, "count": 3, "date": "2025-11-16", "n_files": 57, "pct": 5.26 }, "geometry": { "type": "Polygon", "coordinates": [ [ [ -73.6667616, 46.045835 ], [ -73.6661362, 46.0718094 ], [ -73.6981504, 46.0851694 ], [ -73.7307762, 46.0725456 ], [ -73.7313713, 46.0465705 ], [ -73.699371, 46.0332199 ], [ -73.6667616, 46.045835 ] ] ] } },
{ "type": "Feature", "properties": { "hex_id": 2645, "count": 3, "date": "2025-11-16", "n_files": 57, "pct": 5.26 }, "geometry": { "type": "Polygon", "coordinates": [ [ [ -73.6648828, 46.1237579 ], [ -73.6642549, 46.149732 ], [ -73.6963134, 46.1630928 ], [ -73.7289859, 46.1504702 ], [ -73.7295835, 46.1244954 ], [ -73.6975389, 46.111144 ], [ -73.6648828, 46.1237579 ] ] ] } },
{ "type": "Feature", "properties": { "hex_id": 2700, "count": 16, "date": "2025-11-16", "n_files": 57, "pct": 28.07 }, "geometry": { "type": "Polygon", "coordinates": [ [ [ -73.6486402, 45.4610032 ], [ -73.6480191, 45.4869801 ], [ -73.6796989, 45.5003429 ], [ -73.7119863, 45.4877195 ], [ -73.7125781, 45.4617419 ], [ -73.6809117, 45.4483883 ], [ -73.6486402, 45.4610032 ] ] ] } },
{ "type": "Feature", "properties": { "hex_id": 2708, "count": 3, "date": "2025-11-16", "n_files": 57, "pct": 5.26 }, "geometry": { "type": "Polygon", "coordinates": [ [ [ -73.6334966, 46.0844146 ], [ -73.6328548, 46.1103886 ], [ -73.6648828, 46.1237579 ], [ -73.6975389, 46.111144 ], [ -73.6981504, 46.0851694 ], [ -73.6661362, 46.0718094 ], [ -73.6334966, 46.0844146 ] ] ] } },
{ "type": "Feature", "properties": { "hex_id": 2894, "count": 5, "date": "2025-11-16", "n_files": 57, "pct": 8.77 }, "geometry": { "type": "Polygon", "coordinates": [ [ [ -73.549738, 45.5767185 ], [ -73.5490687, 45.6026938 ], [ -73.5807888, 45.6160842 ], [ -73.6131647, 45.6034901 ], [ -73.6138044, 45.5775141 ], [ -73.5820977, 45.5641329 ], [ -73.549738, 45.5767185 ] ] ] } },
{ "type": "Feature", "properties": { "hex_id": 2958, "count": 7, "date": "2025-11-16", "n_files": 57, "pct": 12.28 }, "geometry": { "type": "Polygon", "coordinates": [ [ [ -73.5166794, 45.6152696 ], [ -73.515994, 45.6412444 ], [ -73.5477275, 45.654644 ], [ -73.580133, 45.6420597 ], [ -73.5807888, 45.6160842 ], [ -73.5490687, 45.6026938 ], [ -73.5166794, 45.6152696 ] ] ] } },
{ "type": "Feature", "properties": { "hex_id": 3022, "count": 7, "date": "2025-11-16", "n_files": 57, "pct": 12.28 }, "geometry": { "type": "Polygon", "coordinates": [ [ [ -73.4856743, 45.5758871 ], [ -73.4849755, 45.6018616 ], [ -73.5166794, 45.6152696 ], [ -73.5490687, 45.6026938 ], [ -73.549738, 45.5767185 ], [ -73.5180475, 45.5633198 ], [ -73.4856743, 45.5758871 ] ] ] } },
{ "type": "Feature", "properties": { "hex_id": 3341, "count": 11, "date": "2025-11-16", "n_files": 57, "pct": 19.3 }, "geometry": { "type": "Polygon", "coordinates": [ [ [ -73.3266849, 45.5346923 ], [ -73.3259138, 45.5606651 ], [ -73.3575557, 45.5741165 ], [ -73.3899554, 45.5615859 ], [ -73.3906969, 45.5356123 ], [ -73.3590683, 45.5221702 ], [ -73.3266849, 45.5346923 ] ] ] } },
{ "type": "Feature", "properties": { "hex_id": 3469, "count": 11, "date": "2025-11-16", "n_files": 57, "pct": 19.3 }, "geometry": { "type": "Polygon", "coordinates": [ [ [ -73.262676, 45.5337365 ], [ -73.2618755, 45.5597084 ], [ -73.293501, 45.5731773 ], [ -73.3259138, 45.5606651 ], [ -73.3266849, 45.5346923 ], [ -73.2950725, 45.5212327 ], [ -73.262676, 45.5337365 ] ] ] } },
{ "type": "Feature", "properties": { "hex_id": 3918, "count": 6, "date": "2025-11-16", "n_files": 57, "pct": 10.53 }, "geometry": { "type": "Polygon", "coordinates": [ [ [ -73.0373156, 45.5690617 ], [ -73.0364102, 45.595030099999988 ], [ -73.067999300000011, 45.6085608 ], [ -73.1004808, 45.5961138 ], [ -73.1013567, 45.5701444 ], [ -73.0697805, 45.556623 ], [ -73.0373156, 45.5690617 ] ] ] } },
{ "type": "Feature", "properties": { "hex_id": 3983, "count": 5, "date": "2025-11-16", "n_files": 57, "pct": 8.77 }, "geometry": { "type": "Polygon", "coordinates": [ [ [ -73.0011459, 45.6853613 ], [ -73.0002201, 45.7113286 ], [ -73.0318646, 45.72487 ], [ -73.064422, 45.7124347 ], [ -73.0653182, 45.6864664 ], [ -73.0336866, 45.6729344 ], [ -73.0011459, 45.6853613 ] ] ] } },
{ "type": "Feature", "properties": { "hex_id": 4048, "count": 5, "date": "2025-11-16", "n_files": 57, "pct": 8.77 }, "geometry": { "type": "Polygon", "coordinates": [ [ [ -72.9676497, 45.7237453 ], [ -72.9667071, 45.7497119 ], [ -72.9983646, 45.7632628 ], [ -73.0309518, 45.7508376 ], [ -73.0318646, 45.72487 ], [ -73.0002201, 45.7113286 ], [ -72.9676497, 45.7237453 ] ] ] } },
{ "type": "Feature", "properties": { "hex_id": 4110, "count": 2, "date": "2025-11-16", "n_files": 57, "pct": 3.51 }, "geometry": { "type": "Polygon", "coordinates": [ [ [ -72.939836, 45.6063205 ], [ -72.9388844, 45.6322872 ], [ -72.9704697, 45.6458448 ], [ -73.0029937, 45.633426299999989 ], [ -73.0039157, 45.6074586 ], [ -72.9723433, 45.5939104 ], [ -72.939836, 45.6063205 ] ] ] } },
{ "type": "Feature", "properties": { "hex_id": 4111, "count": 5, "date": "2025-11-16", "n_files": 57, "pct": 8.77 }, "geometry": { "type": "Polygon", "coordinates": [ [ [ -72.9369774, 45.6842201 ], [ -72.9360219, 45.7101864 ], [ -72.9676497, 45.7237453 ], [ -73.0002201, 45.7113286 ], [ -73.0011459, 45.6853613 ], [ -72.969531, 45.6718118 ], [ -72.9369774, 45.6842201 ] ] ] } },
{ "type": "Feature", "properties": { "hex_id": 4512, "count": 6, "date": "2025-11-16", "n_files": 57, "pct": 10.53 }, "geometry": { "type": "Polygon", "coordinates": [ [ [ -72.6893538, 47.004517299999989 ], [ -72.6882332, 47.0304732 ], [ -72.7205565, 47.0441107 ], [ -72.7539867, 47.0317823 ], [ -72.7550755, 47.0058252 ], [ -72.7227658, 46.9921976 ], [ -72.6893538, 47.004517299999989 ] ] ] } },
{ "type": "Feature", "properties": { "hex_id": 4576, "count": 6, "date": "2025-11-16", "n_files": 57, "pct": 10.53 }, "geometry": { "type": "Polygon", "coordinates": [ [ [ -72.6581965, 46.9649159 ], [ -72.6570624, 46.9908714 ], [ -72.6893538, 47.004517299999989 ], [ -72.7227658, 46.9921976 ], [ -72.7238682, 46.9662409 ], [ -72.6915903, 46.9526049 ], [ -72.6581965, 46.9649159 ] ] ] } },
{ "type": "Feature", "properties": { "hex_id": 4577, "count": 6, "date": "2025-11-16", "n_files": 57, "pct": 10.53 }, "geometry": { "type": "Polygon", "coordinates": [ [ [ -72.6547894, 47.0427821 ], [ -72.6536506, 47.0687373 ], [ -72.6859874, 47.0823847 ], [ -72.7194495, 47.0700671 ], [ -72.7205565, 47.0441107 ], [ -72.6882332, 47.0304732 ], [ -72.6547894, 47.0427821 ] ] ] } },
{ "type": "Feature", "properties": { "hex_id": 4639, "count": 6, "date": "2025-11-16", "n_files": 57, "pct": 10.53 }, "geometry": { "type": "Polygon", "coordinates": [ [ [ -72.6270844, 46.9253066 ], [ -72.6259368, 46.9512617 ], [ -72.6581965, 46.9649159 ], [ -72.6915903, 46.9526049 ], [ -72.6927062, 46.9266486 ], [ -72.66046, 46.9130043 ], [ -72.6270844, 46.9253066 ] ] ] } },
{ "type": "Feature", "properties": { "hex_id": 4640, "count": 6, "date": "2025-11-16", "n_files": 57, "pct": 10.53 }, "geometry": { "type": "Polygon", "coordinates": [ [ [ -72.6236368, 47.0031716 ], [ -72.6224845, 47.029126399999988 ], [ -72.6547894, 47.0427821 ], [ -72.6882332, 47.0304732 ], [ -72.6893538, 47.004517299999989 ], [ -72.6570624, 46.9908714 ], [ -72.6236368, 47.0031716 ] ] ] } },
{ "type": "Feature", "properties": { "hex_id": 4704, "count": 6, "date": "2025-11-16", "n_files": 57, "pct": 10.53 }, "geometry": { "type": "Polygon", "coordinates": [ [ [ -72.5925295, 46.9635532 ], [ -72.5913637, 46.9895076 ], [ -72.6236368, 47.0031716 ], [ -72.6570624, 46.9908714 ], [ -72.6581965, 46.9649159 ], [ -72.6259368, 46.9512617 ], [ -72.5925295, 46.9635532 ] ] ] } },
{ "type": "Feature", "properties": { "hex_id": 4767, "count": 6, "date": "2025-11-16", "n_files": 57, "pct": 10.53 }, "geometry": { "type": "Polygon", "coordinates": [ [ [ -72.5614673, 46.923927 ], [ -72.5602881, 46.949880899999989 ], [ -72.5925295, 46.9635532 ], [ -72.6259368, 46.9512617 ], [ -72.6270844, 46.9253066 ], [ -72.5948563, 46.9116441 ], [ -72.5614673, 46.923927 ] ] ] } },
{ "type": "Feature", "properties": { "hex_id": 4768, "count": 6, "date": "2025-11-16", "n_files": 57, "pct": 10.53 }, "geometry": { "type": "Polygon", "coordinates": [ [ [ -72.5579247, 47.0017883 ], [ -72.5567405, 47.0277418 ], [ -72.5890271, 47.0414158 ], [ -72.6224845, 47.029126399999988 ], [ -72.6236368, 47.0031716 ], [ -72.5913637, 46.9895076 ], [ -72.5579247, 47.0017883 ] ] ] } },
{ "type": "Feature", "properties": { "hex_id": 4832, "count": 6, "date": "2025-11-16", "n_files": 57, "pct": 10.53 }, "geometry": { "type": "Polygon", "coordinates": [ [ [ -72.5268674, 46.962153 ], [ -72.5256698, 46.988106 ], [ -72.5579247, 47.0017883 ], [ -72.5913637, 46.9895076 ], [ -72.5925295, 46.9635532 ], [ -72.5602881, 46.949880899999989 ], [ -72.5268674, 46.962153 ] ] ] } },
{ "type": "Feature", "properties": { "hex_id": 4872, "count": 12, "date": "2025-11-16", "n_files": 57, "pct": 21.05 }, "geometry": { "type": "Polygon", "coordinates": [ [ [ -72.5754998, 45.1314369 ], [ -72.5743984, 45.1573993 ], [ -72.6056333, 45.1710516 ], [ -72.6379574, 45.1587322 ], [ -72.63903, 45.1327687 ], [ -72.6078073, 45.1191257 ], [ -72.5754998, 45.1314369 ] ] ] } },
{ "type": "Feature", "properties": { "hex_id": 5000, "count": 12, "date": "2025-11-16", "n_files": 57, "pct": 21.05 }, "geometry": { "type": "Polygon", "coordinates": [ [ [ -72.511974100000018, 45.1300698 ], [ -72.5108439, 45.156031 ], [ -72.5420621, 45.1697003 ], [ -72.5743984, 45.1573993 ], [ -72.5754998, 45.1314369 ], [ -72.5442937, 45.1177769 ], [ -72.511974100000018, 45.1300698 ] ] ] } },
{ "type": "Feature", "properties": { "hex_id": 5001, "count": 2, "date": "2025-11-16", "n_files": 57, "pct": 3.51 }, "geometry": { "type": "Polygon", "coordinates": [ [ [ -72.508579, 45.2079528 ], [ -72.5074442, 45.2339135 ], [ -72.5387034, 45.2475845 ], [ -72.5710853, 45.235285499999989 ], [ -72.5721912, 45.209323499999989 ], [ -72.5409441, 45.1956619 ], [ -72.508579, 45.2079528 ] ] ] } },
{ "type": "Feature", "properties": { "hex_id": 5067, "count": 20, "date": "2025-11-16", "n_files": 57, "pct": 35.09 }, "geometry": { "type": "Polygon", "coordinates": [ [ [ -72.4715907, 45.3240733 ], [ -72.4704344, 45.3500328 ], [ -72.501747, 45.3637149 ], [ -72.5342037, 45.3514281 ], [ -72.5353309, 45.3254674 ], [ -72.5040305, 45.3117947 ], [ -72.4715907, 45.3240733 ] ] ] } },
{ "type": "Feature", "properties": { "hex_id": 5130, "count": 20, "date": "2025-11-16", "n_files": 57, "pct": 35.09 }, "geometry": { "type": "Polygon", "coordinates": [ [ [ -72.4414756, 45.2844245 ], [ -72.4403071, 45.3103835 ], [ -72.4715907, 45.3240733 ], [ -72.5040305, 45.3117947 ], [ -72.50517, 45.2858345 ], [ -72.4738986, 45.272154 ], [ -72.4414756, 45.2844245 ] ] ] } },
{ "type": "Feature", "properties": { "hex_id": 5473, "count": 38, "date": "2025-11-16", "n_files": 57, "pct": 66.67 }, "geometry": { "type": "Polygon", "coordinates": [ [ [ -72.1945606, 47.0324258 ], [ -72.1931989, 47.0583715 ], [ -72.225406, 47.0721465 ], [ -72.258961700000015, 47.0599656 ], [ -72.2602916, 47.0340183 ], [ -72.2280976, 47.0202534 ], [ -72.1945606, 47.0324258 ] ] ] } },
{ "type": "Feature", "properties": { "hex_id": 5535, "count": 38, "date": "2025-11-16", "n_files": 57, "pct": 66.67 }, "geometry": { "type": "Polygon", "coordinates": [ [ [ -72.1678727, 46.9148607 ], [ -72.1665037, 46.9408064 ], [ -72.1986343, 46.9545875 ], [ -72.2321209, 46.9424128 ], [ -72.2334583, 46.9164656 ], [ -72.2013407, 46.9026946 ], [ -72.1678727, 46.9148607 ] ] ] } },
{ "type": "Feature", "properties": { "hex_id": 5536, "count": 38, "date": "2025-11-16", "n_files": 57, "pct": 66.67 }, "geometry": { "type": "Polygon", "coordinates": [ [ [ -72.16376, 46.9926975 ], [ -72.1623853, 47.0186427 ], [ -72.1945606, 47.0324258 ], [ -72.2280976, 47.0202534 ], [ -72.2294406, 46.9943067 ], [ -72.1972783, 46.9805337 ], [ -72.16376, 46.9926975 ] ] ] } },
{ "type": "Feature", "properties": { "hex_id": 5537, "count": 38, "date": "2025-11-16", "n_files": 57, "pct": 66.67 }, "geometry": { "type": "Polygon", "coordinates": [ [ [ -72.1596301, 47.070532899999989 ], [ -72.1582497, 47.0964777 ], [ -72.190469900000011, 47.1102627 ], [ -72.2240574, 47.0980928 ], [ -72.225406, 47.0721465 ], [ -72.1931989, 47.0583715 ], [ -72.1596301, 47.070532899999989 ] ] ] } },
{ "type": "Feature", "properties": { "hex_id": 5599, "count": 38, "date": "2025-11-16", "n_files": 57, "pct": 66.67 }, "geometry": { "type": "Polygon", "coordinates": [ [ [ -72.1371556, 46.8751264 ], [ -72.1357737, 46.9010716 ], [ -72.1678727, 46.9148607 ], [ -72.2013407, 46.9026946 ], [ -72.2026911, 46.8767479 ], [ -72.170605, 46.8629688 ], [ -72.1371556, 46.8751264 ] ] ] } },
{ "type": "Feature", "properties": { "hex_id": 5600, "count": 38, "date": "2025-11-16", "n_files": 57, "pct": 66.67 }, "geometry": { "type": "Polygon", "coordinates": [ [ [ -72.1330041, 46.9529616 ], [ -72.1316164, 46.9789064 ], [ -72.16376, 46.9926975 ], [ -72.1972783, 46.9805337 ], [ -72.1986343, 46.9545875 ], [ -72.1665037, 46.9408064 ], [ -72.1330041, 46.9529616 ] ] ] } },
{ "type": "Feature", "properties": { "hex_id": 5601, "count": 38, "date": "2025-11-16", "n_files": 57, "pct": 66.67 }, "geometry": { "type": "Polygon", "coordinates": [ [ [ -72.1288353, 47.0307955 ], [ -72.1274418, 47.0567398 ], [ -72.1596301, 47.070532899999989 ], [ -72.1931989, 47.0583715 ], [ -72.1945606, 47.0324258 ], [ -72.1623853, 47.0186427 ], [ -72.1288353, 47.0307955 ] ] ] } },
{ "type": "Feature", "properties": { "hex_id": 5662, "count": 38, "date": "2025-11-16", "n_files": 57, "pct": 66.67 }, "geometry": { "type": "Polygon", "coordinates": [ [ [ -72.1064829, 46.8353846 ], [ -72.1050881, 46.8613293 ], [ -72.1371556, 46.8751264 ], [ -72.170605, 46.8629688 ], [ -72.1719683, 46.8370226 ], [ -72.1399137, 46.8232355 ], [ -72.1064829, 46.8353846 ] ] ] } },
{ "type": "Feature", "properties": { "hex_id": 5663, "count": 38, "date": "2025-11-16", "n_files": 57, "pct": 66.67 }, "geometry": { "type": "Polygon", "coordinates": [ [ [ -72.1022928, 46.9132183 ], [ -72.1008922, 46.939162499999988 ], [ -72.1330041, 46.9529616 ], [ -72.1665037, 46.9408064 ], [ -72.1678727, 46.9148607 ], [ -72.1357737, 46.9010716 ], [ -72.1022928, 46.9132183 ] ] ] } },
{ "type": "Feature", "properties": { "hex_id": 5664, "count": 38, "date": "2025-11-16", "n_files": 57, "pct": 66.67 }, "geometry": { "type": "Polygon", "coordinates": [ [ [ -72.0980852, 46.9910506 ], [ -72.0966787, 47.0169944 ], [ -72.1288353, 47.0307955 ], [ -72.1623853, 47.0186427 ], [ -72.16376, 46.9926975 ], [ -72.1316164, 46.9789064 ], [ -72.0980852, 46.9910506 ] ] ] } },
{ "type": "Feature", "properties": { "hex_id": 5665, "count": 38, "date": "2025-11-16", "n_files": 57, "pct": 66.67 }, "geometry": { "type": "Polygon", "coordinates": [ [ [ -72.09386, 47.0688815 ], [ -72.0924477, 47.0948249 ], [ -72.124649, 47.108628 ], [ -72.1582497, 47.0964777 ], [ -72.1596301, 47.070532899999989 ], [ -72.1274418, 47.0567398 ], [ -72.09386, 47.0688815 ] ] ] } },
{ "type": "Feature", "properties": { "hex_id": 5722, "count": 4, "date": "2025-11-16", "n_files": 57, "pct": 7.02 }, "geometry": { "type": "Polygon", "coordinates": [ [ [ -72.092594, 46.4842935 ], [ -72.0912096, 46.5102395 ], [ -72.1230702, 46.5240365 ], [ -72.156302600000018, 46.5118777 ], [ -72.1576561, 46.4859302 ], [ -72.1258081, 46.4721431 ], [ -72.092594, 46.4842935 ] ] ] } },
{ "type": "Feature", "properties": { "hex_id": 5727, "count": 38, "date": "2025-11-16", "n_files": 57, "pct": 66.67 }, "geometry": { "type": "Polygon", "coordinates": [ [ [ -72.0716259, 46.8734675 ], [ -72.0702125, 46.8994112 ], [ -72.1022928, 46.9132183 ], [ -72.1357737, 46.9010716 ], [ -72.1371556, 46.8751264 ], [ -72.1050881, 46.8613293 ], [ -72.0716259, 46.8734675 ] ] ] } },
{ "type": "Feature", "properties": { "hex_id": 5728, "count": 38, "date": "2025-11-16", "n_files": 57, "pct": 66.67 }, "geometry": { "type": "Polygon", "coordinates": [ [ [ -72.067379700000018, 46.9512982 ], [ -72.0659604, 46.9772414 ], [ -72.0980852, 46.9910506 ], [ -72.1316164, 46.9789064 ], [ -72.1330041, 46.9529616 ], [ -72.1008922, 46.939162499999988 ], [ -72.067379700000018, 46.9512982 ] ] ] } },
{ "type": "Feature", "properties": { "hex_id": 5729, "count": 38, "date": "2025-11-16", "n_files": 57, "pct": 66.67 }, "geometry": { "type": "Polygon", "coordinates": [ [ [ -72.0631158, 47.0291275 ], [ -72.0616905, 47.0550704 ], [ -72.09386, 47.0688815 ], [ -72.1274418, 47.0567398 ], [ -72.1288353, 47.0307955 ], [ -72.0966787, 47.0169944 ], [ -72.0631158, 47.0291275 ] ] ] } },
{ "type": "Feature", "properties": { "hex_id": 5786, "count": 3, "date": "2025-11-16", "n_files": 57, "pct": 5.26 }, "geometry": { "type": "Polygon", "coordinates": [ [ [ -72.0579647, 46.5223791 ], [ -72.056562, 46.5483241 ], [ -72.0884351, 46.562131 ], [ -72.1216984, 46.549983 ], [ -72.1230702, 46.5240365 ], [ -72.0912096, 46.5102395 ], [ -72.0579647, 46.5223791 ] ] ] } },
{ "type": "Feature", "properties": { "hex_id": 5790, "count": 38, "date": "2025-11-16", "n_files": 57, "pct": 66.67 }, "geometry": { "type": "Polygon", "coordinates": [ [ [ -72.0410033, 46.8337092 ], [ -72.0395771, 46.8596524 ], [ -72.0716259, 46.8734675 ], [ -72.1050881, 46.8613293 ], [ -72.1064829, 46.8353846 ], [ -72.0744469, 46.8215796 ], [ -72.0410033, 46.8337092 ] ] ] } },
{ "type": "Feature", "properties": { "hex_id": 5791, "count": 38, "date": "2025-11-16", "n_files": 57, "pct": 66.67 }, "geometry": { "type": "Polygon", "coordinates": [ [ [ -72.0367187, 46.911538299999989 ], [ -72.0352865, 46.9374811 ], [ -72.067379700000018, 46.9512982 ], [ -72.1008922, 46.939162499999988 ], [ -72.1022928, 46.9132183 ], [ -72.0702125, 46.8994112 ], [ -72.0367187, 46.911538299999989 ] ] ] } },
{ "type": "Feature", "properties": { "hex_id": 5792, "count": 38, "date": "2025-11-16", "n_files": 57, "pct": 66.67 }, "geometry": { "type": "Polygon", "coordinates": [ [ [ -72.0324162, 46.9893661 ], [ -72.0309781, 47.0153084 ], [ -72.0631158, 47.0291275 ], [ -72.0966787, 47.0169944 ], [ -72.0980852, 46.9910506 ], [ -72.0659604, 46.9772414 ], [ -72.0324162, 46.9893661 ] ] ] } },
{ "type": "Feature", "properties": { "hex_id": 5850, "count": 4, "date": "2025-11-16", "n_files": 57, "pct": 7.02 }, "geometry": { "type": "Polygon", "coordinates": [ [ [ -72.0275377, 46.4826199 ], [ -72.0261224, 46.5085644 ], [ -72.0579647, 46.5223791 ], [ -72.0912096, 46.5102395 ], [ -72.092594, 46.4842935 ], [ -72.0607643, 46.4704887 ], [ -72.0275377, 46.4826199 ] ] ] } },
{ "type": "Feature", "properties": { "hex_id": 5851, "count": 2, "date": "2025-11-16", "n_files": 57, "pct": 3.51 }, "geometry": { "type": "Polygon", "coordinates": [ [ [ -72.0232861, 46.5604529 ], [ -72.0218649, 46.5863969 ], [ -72.0537507, 46.6002137 ], [ -72.087045, 46.5880766 ], [ -72.0884351, 46.562131 ], [ -72.056562, 46.5483241 ], [ -72.0232861, 46.5604529 ] ] ] } },
{ "type": "Feature", "properties": { "hex_id": 5855, "count": 38, "date": "2025-11-16", "n_files": 57, "pct": 66.67 }, "geometry": { "type": "Polygon", "coordinates": [ [ [ -72.0061021, 46.871771 ], [ -72.0046571, 46.8977132 ], [ -72.0367187, 46.911538299999989 ], [ -72.0702125, 46.8994112 ], [ -72.0716259, 46.8734675 ], [ -72.0395771, 46.8596524 ], [ -72.0061021, 46.871771 ] ] ] } },
{ "type": "Feature", "properties": { "hex_id": 5856, "count": 38, "date": "2025-11-16", "n_files": 57, "pct": 66.67 }, "geometry": { "type": "Polygon", "coordinates": [ [ [ -72.0017612, 46.9495972 ], [ -72.0003102, 46.9755389 ], [ -72.0324162, 46.9893661 ], [ -72.0659604, 46.9772414 ], [ -72.067379700000018, 46.9512982 ], [ -72.0352865, 46.9374811 ], [ -72.0017612, 46.9495972 ] ] ] } },
{ "type": "Feature", "properties": { "hex_id": 5914, "count": 3, "date": "2025-11-16", "n_files": 57, "pct": 5.26 }, "geometry": { "type": "Polygon", "coordinates": [ [ [ -71.992864900000015, 46.5206847 ], [ -71.9914313, 46.5466282 ], [ -72.0232861, 46.5604529 ], [ -72.056562, 46.5483241 ], [ -72.0579647, 46.5223791 ], [ -72.0261224, 46.5085644 ], [ -71.992864900000015, 46.5206847 ] ] ] } },
{ "type": "Feature", "properties": { "hex_id": 5919, "count": 38, "date": "2025-11-16", "n_files": 57, "pct": 66.67 }, "geometry": { "type": "Polygon", "coordinates": [ [ [ -71.9711506, 46.9098209 ], [ -71.9696868, 46.935762 ], [ -72.0017612, 46.9495972 ], [ -72.0352865, 46.9374811 ], [ -72.0367187, 46.911538299999989 ], [ -72.0046571, 46.8977132 ], [ -71.9711506, 46.9098209 ] ] ] } },
{ "type": "Feature", "properties": { "hex_id": 5978, "count": 3, "date": "2025-11-16", "n_files": 57, "pct": 5.26 }, "geometry": { "type": "Polygon", "coordinates": [ [ [ -71.9624872, 46.4809093 ], [ -71.9610411, 46.5068523 ], [ -71.992864900000015, 46.5206847 ], [ -72.0261224, 46.5085644 ], [ -72.0275377, 46.4826199 ], [ -71.9957263, 46.4687973 ], [ -71.9624872, 46.4809093 ] ] ] } },
{ "type": "Feature", "properties": { "hex_id": 5979, "count": 3, "date": "2025-11-16", "n_files": 57, "pct": 5.26 }, "geometry": { "type": "Polygon", "coordinates": [ [ [ -71.9581429, 46.5587377 ], [ -71.9566908, 46.5846801 ], [ -71.9885581, 46.598514699999988 ], [ -72.0218649, 46.5863969 ], [ -72.0232861, 46.5604529 ], [ -71.9914313, 46.5466282 ], [ -71.9581429, 46.5587377 ] ] ] } },
{ "type": "Feature", "properties": { "hex_id": 5983, "count": 38, "date": "2025-11-16", "n_files": 57, "pct": 66.67 }, "geometry": { "type": "Polygon", "coordinates": [ [ [ -71.9405842, 46.8700372 ], [ -71.9391078, 46.8959778 ], [ -71.9711506, 46.9098209 ], [ -72.0046571, 46.8977132 ], [ -72.0061021, 46.871771 ], [ -71.974072, 46.857938 ], [ -71.9405842, 46.8700372 ] ] ] } },
{ "type": "Feature", "properties": { "hex_id": 5984, "count": 38, "date": "2025-11-16", "n_files": 57, "pct": 66.67 }, "geometry": { "type": "Polygon", "coordinates": [ [ [ -71.9361487, 46.9478586 ], [ -71.9346661, 46.9737988 ], [ -71.9667532, 46.987644 ], [ -72.0003102, 46.9755389 ], [ -72.0017612, 46.9495972 ], [ -71.9696868, 46.935762 ], [ -71.9361487, 46.9478586 ] ] ] } },
{ "type": "Feature", "properties": { "hex_id": 6042, "count": 3, "date": "2025-11-16", "n_files": 57, "pct": 5.26 }, "geometry": { "type": "Polygon", "coordinates": [ [ [ -71.9277711, 46.5189533 ], [ -71.9263066, 46.5448953 ], [ -71.9581429, 46.5587377 ], [ -71.9914313, 46.5466282 ], [ -71.992864900000015, 46.5206847 ], [ -71.9610411, 46.5068523 ], [ -71.9277711, 46.5189533 ] ] ] } },
{ "type": "Feature", "properties": { "hex_id": 6043, "count": 3, "date": "2025-11-16", "n_files": 57, "pct": 5.26 }, "geometry": { "type": "Polygon", "coordinates": [ [ [ -71.9233714, 46.5967786 ], [ -71.9219007, 46.6227201 ], [ -71.9537805, 46.6365646 ], [ -71.9871185, 46.6244577 ], [ -71.9885581, 46.598514699999988 ], [ -71.9566908, 46.5846801 ], [ -71.9233714, 46.5967786 ] ] ] } },
{ "type": "Feature", "properties": { "hex_id": 6047, "count": 38, "date": "2025-11-16", "n_files": 57, "pct": 66.67 }, "geometry": { "type": "Polygon", "coordinates": [ [ [ -71.9055885, 46.9080659 ], [ -71.9040932, 46.9340055 ], [ -71.9361487, 46.9478586 ], [ -71.9696868, 46.935762 ], [ -71.9711506, 46.9098209 ], [ -71.9391078, 46.8959778 ], [ -71.9055885, 46.9080659 ] ] ] } },
{ "type": "Feature", "properties": { "hex_id": 6107, "count": 3, "date": "2025-11-16", "n_files": 57, "pct": 5.26 }, "geometry": { "type": "Polygon", "coordinates": [ [ [ -71.8930057, 46.5569854 ], [ -71.8915226, 46.5829263 ], [ -71.9233714, 46.5967786 ], [ -71.9566908, 46.5846801 ], [ -71.9581429, 46.5587377 ], [ -71.9263066, 46.5448953 ], [ -71.8930057, 46.5569854 ] ] ] } },
{ "type": "Feature", "properties": { "hex_id": 6108, "count": 3, "date": "2025-11-16", "n_files": 57, "pct": 5.26 }, "geometry": { "type": "Polygon", "coordinates": [ [ [ -71.8885503, 46.6348076 ], [ -71.8870611, 46.660748 ], [ -71.918953300000013, 46.6746025 ], [ -71.9523224, 46.6625066 ], [ -71.9537805, 46.6365646 ], [ -71.9219007, 46.6227201 ], [ -71.8885503, 46.6348076 ] ] ] } },
{ "type": "Feature", "properties": { "hex_id": 6111, "count": 38, "date": "2025-11-16", "n_files": 57, "pct": 66.67 }, "geometry": { "type": "Polygon", "coordinates": [ [ [ -71.8750725, 46.8682659 ], [ -71.8735646, 46.8942049 ], [ -71.9055885, 46.9080659 ], [ -71.9391078, 46.8959778 ], [ -71.9405842, 46.8700372 ], [ -71.9085729, 46.8561862 ], [ -71.8750725, 46.8682659 ] ] ] } },
{ "type": "Feature", "properties": { "hex_id": 6113, "count": 38, "date": "2025-11-16", "n_files": 57, "pct": 66.67 }, "geometry": { "type": "Polygon", "coordinates": [ [ [ -71.8659934, 47.0238977 ], [ -71.8644729, 47.0498358 ], [ -71.8965855, 47.0637012 ], [ -71.9302059, 47.0516184 ], [ -71.9316947, 47.0256787 ], [ -71.8995948, 47.0118234 ], [ -71.8659934, 47.0238977 ] ] ] } },
{ "type": "Feature", "properties": { "hex_id": 6114, "count": 38, "date": "2025-11-16", "n_files": 57, "pct": 66.67 }, "geometry": { "type": "Polygon", "coordinates": [ [ [ -71.8614254, 47.1017116 ], [ -71.8598985, 47.1276492 ], [ -71.8920557, 47.1415168 ], [ -71.925727, 47.1294366 ], [ -71.9272221, 47.1034973 ], [ -71.8950777, 47.0896399 ], [ -71.8614254, 47.1017116 ] ] ] } },
{ "type": "Feature", "properties": { "hex_id": 6170, "count": 3, "date": "2025-11-16", "n_files": 57, "pct": 5.26 }, "geometry": { "type": "Polygon", "coordinates": [ [ [ -71.8626834, 46.5171849 ], [ -71.8611879, 46.5431253 ], [ -71.8930057, 46.5569854 ], [ -71.9263066, 46.5448953 ], [ -71.9277711, 46.5189533 ], [ -71.8959658, 46.5051031 ], [ -71.8626834, 46.5171849 ] ] ] } },
{ "type": "Feature", "properties": { "hex_id": 6171, "count": 3, "date": "2025-11-16", "n_files": 57, "pct": 5.26 }, "geometry": { "type": "Polygon", "coordinates": [ [ [ -71.8581908, 46.5950055 ], [ -71.8566891, 46.6209453 ], [ -71.8885503, 46.6348076 ], [ -71.9219007, 46.6227201 ], [ -71.9233714, 46.5967786 ], [ -71.8915226, 46.5829263 ], [ -71.8581908, 46.5950055 ] ] ] } },
{ "type": "Feature", "properties": { "hex_id": 6175, "count": 38, "date": "2025-11-16", "n_files": 57, "pct": 66.67 }, "geometry": { "type": "Polygon", "coordinates": [ [ [ -71.8400327, 46.9062735 ], [ -71.8385059, 46.9322114 ], [ -71.8705424, 46.9460825 ], [ -71.9040932, 46.9340055 ], [ -71.9055885, 46.9080659 ], [ -71.8735646, 46.8942049 ], [ -71.8400327, 46.9062735 ] ] ] } },
{ "type": "Feature", "properties": { "hex_id": 6176, "count": 38, "date": "2025-11-16", "n_files": 57, "pct": 66.67 }, "geometry": { "type": "Polygon", "coordinates": [ [ [ -71.835445800000016, 46.9840869 ], [ -71.8339126, 47.0100245 ], [ -71.8659934, 47.0238977 ], [ -71.8995948, 47.0118234 ], [ -71.9010964, 46.9858842 ], [ -71.8690282, 46.9720211 ], [ -71.835445800000016, 46.9840869 ] ] ] } },
{ "type": "Feature", "properties": { "hex_id": 6177, "count": 38, "date": "2025-11-16", "n_files": 57, "pct": 66.67 }, "geometry": { "type": "Polygon", "coordinates": [ [ [ -71.8308397, 47.061899 ], [ -71.8293001, 47.0878361 ], [ -71.8614254, 47.1017116 ], [ -71.8950777, 47.0896399 ], [ -71.8965855, 47.0637012 ], [ -71.8644729, 47.0498358 ], [ -71.8308397, 47.061899 ] ] ] } },
{ "type": "Feature", "properties": { "hex_id": 6235, "count": 3, "date": "2025-11-16", "n_files": 57, "pct": 5.26 }, "geometry": { "type": "Polygon", "coordinates": [ [ [ -71.8278747, 46.5551961 ], [ -71.8263607, 46.5811354 ], [ -71.8581908, 46.5950055 ], [ -71.8915226, 46.5829263 ], [ -71.8930057, 46.5569854 ], [ -71.8611879, 46.5431253 ], [ -71.8278747, 46.5551961 ] ] ] } },
{ "type": "Feature", "properties": { "hex_id": 6236, "count": 3, "date": "2025-11-16", "n_files": 57, "pct": 5.26 }, "geometry": { "type": "Polygon", "coordinates": [ [ [ -71.8233263, 46.6330135 ], [ -71.8218059, 46.6589523 ], [ -71.8536795, 46.6728246 ], [ -71.8870611, 46.660748 ], [ -71.8885503, 46.6348076 ], [ -71.8566891, 46.6209453 ], [ -71.8233263, 46.6330135 ] ] ] } },
{ "type": "Feature", "properties": { "hex_id": 6239, "count": 40, "date": "2025-11-16", "n_files": 57, "pct": 70.18 }, "geometry": { "type": "Polygon", "coordinates": [ [ [ -71.8095671, 46.8664571 ], [ -71.8080277, 46.892394499999988 ], [ -71.8400327, 46.9062735 ], [ -71.8735646, 46.8942049 ], [ -71.8750725, 46.8682659 ], [ -71.8430801, 46.854397 ], [ -71.8095671, 46.8664571 ] ] ] } },
{ "type": "Feature", "properties": { "hex_id": 6240, "count": 38, "date": "2025-11-16", "n_files": 57, "pct": 66.67 }, "geometry": { "type": "Polygon", "coordinates": [ [ [ -71.8049425, 46.9442689 ], [ -71.8033966, 46.970205799999988 ], [ -71.835445800000016, 46.9840869 ], [ -71.8690282, 46.9720211 ], [ -71.8705424, 46.9460825 ], [ -71.8385059, 46.9322114 ], [ -71.8049425, 46.9442689 ] ] ] } },
{ "type": "Feature", "properties": { "hex_id": 6241, "count": 38, "date": "2025-11-16", "n_files": 57, "pct": 66.67 }, "geometry": { "type": "Polygon", "coordinates": [ [ [ -71.8002985, 47.0220792 ], [ -71.7987462, 47.0480156 ], [ -71.8308397, 47.061899 ], [ -71.8644729, 47.0498358 ], [ -71.8659934, 47.0238977 ], [ -71.8339126, 47.0100245 ], [ -71.8002985, 47.0220792 ] ] ] } },
{ "type": "Feature", "properties": { "hex_id": 6298, "count": 3, "date": "2025-11-16", "n_files": 57, "pct": 5.26 }, "geometry": { "type": "Polygon", "coordinates": [ [ [ -71.7976019, 46.5153796 ], [ -71.7960755, 46.5413183 ], [ -71.8278747, 46.5551961 ], [ -71.8611879, 46.5431253 ], [ -71.8626834, 46.5171849 ], [ -71.8308965, 46.5033171 ], [ -71.7976019, 46.5153796 ] ] ] } },
{ "type": "Feature", "properties": { "hex_id": 6299, "count": 3, "date": "2025-11-16", "n_files": 57, "pct": 5.26 }, "geometry": { "type": "Polygon", "coordinates": [ [ [ -71.7930165, 46.5931952 ], [ -71.7914838, 46.6191334 ], [ -71.8233263, 46.6330135 ], [ -71.8566891, 46.6209453 ], [ -71.8581908, 46.5950055 ], [ -71.8263607, 46.5811354 ], [ -71.7930165, 46.5931952 ] ] ] } },
{ "type": "Feature", "properties": { "hex_id": 6303, "count": 38, "date": "2025-11-16", "n_files": 57, "pct": 66.67 }, "geometry": { "type": "Polygon", "coordinates": [ [ [ -71.7744833, 46.9044435 ], [ -71.7729249, 46.9303799 ], [ -71.8049425, 46.9442689 ], [ -71.8385059, 46.9322114 ], [ -71.8400327, 46.9062735 ], [ -71.8080277, 46.892394499999988 ], [ -71.7744833, 46.9044435 ] ] ] } },
{ "type": "Feature", "properties": { "hex_id": 6304, "count": 38, "date": "2025-11-16", "n_files": 57, "pct": 66.67 }, "geometry": { "type": "Polygon", "coordinates": [ [ [ -71.7698016, 46.9822521 ], [ -71.7682367, 47.0081879 ], [ -71.8002985, 47.0220792 ], [ -71.8339126, 47.0100245 ], [ -71.835445800000016, 46.9840869 ], [ -71.8033966, 46.970205799999988 ], [ -71.7698016, 46.9822521 ] ] ] } },
{ "type": "Feature", "properties": { "hex_id": 6363, "count": 3, "date": "2025-11-16", "n_files": 57, "pct": 5.26 }, "geometry": { "type": "Polygon", "coordinates": [ [ [ -71.76275, 46.5533698 ], [ -71.761205, 46.5793074 ], [ -71.7930165, 46.5931952 ], [ -71.8263607, 46.5811354 ], [ -71.8278747, 46.5551961 ], [ -71.7960755, 46.5413183 ], [ -71.76275, 46.5533698 ] ] ] } },
{ "type": "Feature", "properties": { "hex_id": 6364, "count": 3, "date": "2025-11-16", "n_files": 57, "pct": 5.26 }, "geometry": { "type": "Polygon", "coordinates": [ [ [ -71.7581086, 46.6311822 ], [ -71.7565571, 46.6571194 ], [ -71.788412, 46.671009399999988 ], [ -71.8218059, 46.6589523 ], [ -71.8233263, 46.6330135 ], [ -71.7914838, 46.6191334 ], [ -71.7581086, 46.6311822 ] ] ] } },
{ "type": "Feature", "properties": { "hex_id": 6367, "count": 38, "date": "2025-11-16", "n_files": 57, "pct": 66.67 }, "geometry": { "type": "Polygon", "coordinates": [ [ [ -71.7440681, 46.864611 ], [ -71.7424972, 46.8905467 ], [ -71.7744833, 46.9044435 ], [ -71.8080277, 46.892394499999988 ], [ -71.8095671, 46.8664571 ], [ -71.7775936, 46.8525704 ], [ -71.7440681, 46.864611 ] ] ] } },
{ "type": "Feature", "properties": { "hex_id": 6368, "count": 38, "date": "2025-11-16", "n_files": 57, "pct": 66.67 }, "geometry": { "type": "Polygon", "coordinates": [ [ [ -71.7393489, 46.9424177 ], [ -71.7377715, 46.968353 ], [ -71.7698016, 46.9822521 ], [ -71.8033966, 46.970205799999988 ], [ -71.8049425, 46.9442689 ], [ -71.7729249, 46.9303799 ], [ -71.7393489, 46.9424177 ] ] ] } },
{ "type": "Feature", "properties": { "hex_id": 6369, "count": 38, "date": "2025-11-16", "n_files": 57, "pct": 66.67 }, "geometry": { "type": "Polygon", "coordinates": [ [ [ -71.73461, 47.020223 ], [ -71.733026, 47.0461578 ], [ -71.7651004, 47.0600592 ], [ -71.7987462, 47.0480156 ], [ -71.8002985, 47.0220792 ], [ -71.7682367, 47.0081879 ], [ -71.73461, 47.020223 ] ] ] } },
{ "type": "Feature", "properties": { "hex_id": 6430, "count": 38, "date": "2025-11-16", "n_files": 57, "pct": 66.67 }, "geometry": { "type": "Polygon", "coordinates": [ [ [ -71.7136969, 46.8247712 ], [ -71.7121136, 46.8507063 ], [ -71.7440681, 46.864611 ], [ -71.7775936, 46.8525704 ], [ -71.779145500000013, 46.8266336 ], [ -71.7472034, 46.812739 ], [ -71.7136969, 46.8247712 ] ] ] } },
{ "type": "Feature", "properties": { "hex_id": 6431, "count": 38, "date": "2025-11-16", "n_files": 57, "pct": 66.67 }, "geometry": { "type": "Polygon", "coordinates": [ [ [ -71.7089403, 46.9025761 ], [ -71.7073504, 46.9285108 ], [ -71.7393489, 46.9424177 ], [ -71.7729249, 46.9303799 ], [ -71.7744833, 46.9044435 ], [ -71.7424972, 46.8905467 ], [ -71.7089403, 46.9025761 ] ] ] } },
{ "type": "Feature", "properties": { "hex_id": 6432, "count": 38, "date": "2025-11-16", "n_files": 57, "pct": 66.67 }, "geometry": { "type": "Polygon", "coordinates": [ [ [ -71.7041639, 46.9803796 ], [ -71.7025674, 47.0063138 ], [ -71.73461, 47.020223 ], [ -71.7682367, 47.0081879 ], [ -71.7698016, 46.9822521 ], [ -71.7377715, 46.968353 ], [ -71.7041639, 46.9803796 ] ] ] } },
{ "type": "Feature", "properties": { "hex_id": 6495, "count": 38, "date": "2025-11-16", "n_files": 57, "pct": 66.67 }, "geometry": { "type": "Polygon", "coordinates": [ [ [ -71.6785757, 46.8627274 ], [ -71.6769733, 46.8886614 ], [ -71.7089403, 46.9025761 ], [ -71.7424972, 46.8905467 ], [ -71.7440681, 46.864611 ], [ -71.7121136, 46.8507063 ], [ -71.6785757, 46.8627274 ] ] ] } },
{ "type": "Feature", "properties": { "hex_id": 6622, "count": 2, "date": "2025-11-16", "n_files": 57, "pct": 3.51 }, "geometry": { "type": "Polygon", "coordinates": [ [ [ -71.6179776, 46.7830085 ], [ -71.6163506, 46.8089413 ], [ -71.6482548, 46.8228715 ], [ -71.6817737, 46.8108588 ], [ -71.6833694, 46.7849243 ], [ -71.6514775, 46.7710042 ], [ -71.6179776, 46.7830085 ] ] ] } },
{ "type": "Feature", "properties": { "hex_id": 6686, "count": 2, "date": "2025-11-16", "n_files": 57, "pct": 3.51 }, "geometry": { "type": "Polygon", "coordinates": [ [ [ -71.5828195, 46.8209344 ], [ -71.5811734, 46.8468661 ], [ -71.6130899, 46.8608064 ], [ -71.6466401, 46.8488049 ], [ -71.6482548, 46.8228715 ], [ -71.6163506, 46.8089413 ], [ -71.5828195, 46.8209344 ] ] ] } },
{ "type": "Feature", "properties": { "hex_id": 6710, "count": 9, "date": "2025-11-16", "n_files": 57, "pct": 15.79 }, "geometry": { "type": "Polygon", "coordinates": [ [ [ -71.4582159, 48.6875948 ], [ -71.4563946, 48.7135146 ], [ -71.489413, 48.7275145 ], [ -71.5242391, 48.7155837 ], [ -71.5260257, 48.6896621 ], [ -71.4930209, 48.675673 ], [ -71.4582159, 48.6875948 ] ] ] } },
{ "type": "Feature", "properties": { "hex_id": 6750, "count": 2, "date": "2025-11-16", "n_files": 57, "pct": 3.51 }, "geometry": { "type": "Polygon", "coordinates": [ [ [ -71.5525927, 46.7810554 ], [ -71.550934400000017, 46.8069864 ], [ -71.5828195, 46.8209344 ], [ -71.6163506, 46.8089413 ], [ -71.6179776, 46.7830085 ], [ -71.5861048, 46.7690706 ], [ -71.5525927, 46.7810554 ] ] ] } },
{ "type": "Feature", "properties": { "hex_id": 6751, "count": 2, "date": "2025-11-16", "n_files": 57, "pct": 3.51 }, "geometry": { "type": "Polygon", "coordinates": [ [ [ -71.5476108, 46.858848 ], [ -71.5459456, 46.8847785 ], [ -71.5778744, 46.8987289 ], [ -71.6114561, 46.8867387 ], [ -71.6130899, 46.8608064 ], [ -71.5811734, 46.8468661 ], [ -71.5476108, 46.858848 ] ] ] } },
{ "type": "Feature", "properties": { "hex_id": 6814, "count": 2, "date": "2025-11-16", "n_files": 57, "pct": 3.51 }, "geometry": { "type": "Polygon", "coordinates": [ [ [ -71.517391, 46.81896 ], [ -71.5157135, 46.8448899 ], [ -71.5476108, 46.858848 ], [ -71.5811734, 46.8468661 ], [ -71.5828195, 46.8209344 ], [ -71.550934400000017, 46.8069864 ], [ -71.517391, 46.81896 ] ] ] } },
{ "type": "Feature", "properties": { "hex_id": 6838, "count": 9, "date": "2025-11-16", "n_files": 57, "pct": 15.79 }, "geometry": { "type": "Polygon", "coordinates": [ [ [ -71.390414, 48.6854878 ], [ -71.388558, 48.7114056 ], [ -71.421555, 48.7254245 ], [ -71.4563946, 48.7135146 ], [ -71.4582159, 48.6875948 ], [ -71.4252323, 48.6735868 ], [ -71.390414, 48.6854878 ] ] ] } },
{ "type": "Feature", "properties": { "hex_id": 6879, "count": 2, "date": "2025-11-16", "n_files": 57, "pct": 3.51 }, "geometry": { "type": "Polygon", "coordinates": [ [ [ -71.4821387, 46.8568522 ], [ -71.4804421, 46.8827809 ], [ -71.5123516, 46.8967492 ], [ -71.5459456, 46.8847785 ], [ -71.5476108, 46.858848 ], [ -71.5157135, 46.8448899 ], [ -71.4821387, 46.8568522 ] ] ] } },
{ "type": "Feature", "properties": { "hex_id": 6881, "count": 1, "date": "2025-11-16", "n_files": 57, "pct": 1.75 }, "geometry": { "type": "Polygon", "coordinates": [ [ [ -71.4719235, 47.0124222 ], [ -71.4702126, 47.0383499 ], [ -71.5022098, 47.052323099999988 ], [ -71.5359056, 47.0403583 ], [ -71.5375847, 47.0144288 ], [ -71.5055998, 47.0004658 ], [ -71.4719235, 47.0124222 ] ] ] } },
{ "type": "Feature", "properties": { "hex_id": 6902, "count": 9, "date": "2025-11-16", "n_files": 57, "pct": 15.79 }, "geometry": { "type": "Polygon", "coordinates": [ [ [ -71.3593209, 48.6455436 ], [ -71.3574516, 48.6714608 ], [ -71.390414, 48.6854878 ], [ -71.4252323, 48.6735868 ], [ -71.427067, 48.6476677 ], [ -71.394118, 48.6336515 ], [ -71.3593209, 48.6455436 ] ] ] } },
{ "type": "Feature", "properties": { "hex_id": 6903, "count": 6, "date": "2025-11-16", "n_files": 57, "pct": 10.53 }, "geometry": { "type": "Polygon", "coordinates": [ [ [ -71.3537049, 48.7232946 ], [ -71.3518276, 48.7492112 ], [ -71.3848381, 48.7632408 ], [ -71.4197124, 48.751343 ], [ -71.421555, 48.7254245 ], [ -71.388558, 48.7114056 ], [ -71.3537049, 48.7232946 ] ] ] } },
{ "type": "Feature", "properties": { "hex_id": 6942, "count": 2, "date": "2025-11-16", "n_files": 57, "pct": 3.51 }, "geometry": { "type": "Polygon", "coordinates": [ [ [ -71.4519694, 46.8169482 ], [ -71.4502606, 46.8428763 ], [ -71.4821387, 46.8568522 ], [ -71.5157135, 46.8448899 ], [ -71.517391, 46.81896 ], [ -71.485525, 46.8049942 ], [ -71.4519694, 46.8169482 ] ] ] } },
{ "type": "Feature", "properties": { "hex_id": 6944, "count": 1, "date": "2025-11-16", "n_files": 57, "pct": 1.75 }, "geometry": { "type": "Polygon", "coordinates": [ [ [ -71.441681, 46.9725142 ], [ -71.4399579, 46.9984413 ], [ -71.4719235, 47.0124222 ], [ -71.5055998, 47.0004658 ], [ -71.5072913, 46.9745369 ], [ -71.475338, 46.9605662 ], [ -71.441681, 46.9725142 ] ] ] } },
{ "type": "Feature", "properties": { "hex_id": 6945, "count": 1, "date": "2025-11-16", "n_files": 57, "pct": 1.75 }, "geometry": { "type": "Polygon", "coordinates": [ [ [ -71.4365046, 47.050295 ], [ -71.4347743, 47.076221499999988 ], [ -71.4667838, 47.0902049 ], [ -71.5005113, 47.0782515 ], [ -71.5022098, 47.052323099999988 ], [ -71.4702126, 47.0383499 ], [ -71.4365046, 47.050295 ] ] ] } },
{ "type": "Feature", "properties": { "hex_id": 6946, "count": 1, "date": "2025-11-16", "n_files": 57, "pct": 1.75 }, "geometry": { "type": "Polygon", "coordinates": [ [ [ -71.4313065, 47.1280742 ], [ -71.429569, 47.1540003 ], [ -71.4616226, 47.1679862 ], [ -71.4954015, 47.1560358 ], [ -71.4971071, 47.1301078 ], [ -71.4650658, 47.1161322 ], [ -71.4313065, 47.1280742 ] ] ] } },
{ "type": "Feature", "properties": { "hex_id": 6966, "count": 6, "date": "2025-11-16", "n_files": 57, "pct": 10.53 }, "geometry": { "type": "Polygon", "coordinates": [ [ [ -71.3226199, 48.6833408 ], [ -71.3207292, 48.7092568 ], [ -71.3537049, 48.7232946 ], [ -71.388558, 48.7114056 ], [ -71.390414, 48.6854878 ], [ -71.3574516, 48.6714608 ], [ -71.3226199, 48.6833408 ] ] ] } },
{ "type": "Feature", "properties": { "hex_id": 7007, "count": 2, "date": "2025-11-16", "n_files": 57, "pct": 3.51 }, "geometry": { "type": "Polygon", "coordinates": [ [ [ -71.4166737, 46.854819 ], [ -71.4149457, 46.8807459 ], [ -71.4468359, 46.894732 ], [ -71.4804421, 46.8827809 ], [ -71.4821387, 46.8568522 ], [ -71.4502606, 46.8428763 ], [ -71.4166737, 46.854819 ] ] ] } },
{ "type": "Feature", "properties": { "hex_id": 7008, "count": 1, "date": "2025-11-16", "n_files": 57, "pct": 1.75 }, "geometry": { "type": "Polygon", "coordinates": [ [ [ -71.4114823, 46.9325993 ], [ -71.4097471, 46.9585257 ], [ -71.441681, 46.9725142 ], [ -71.475338, 46.9605662 ], [ -71.4770417, 46.9346379 ], [ -71.44512, 46.9206596 ], [ -71.4114823, 46.9325993 ] ] ] } },
{ "type": "Feature", "properties": { "hex_id": 7009, "count": 1, "date": "2025-11-16", "n_files": 57, "pct": 1.75 }, "geometry": { "type": "Polygon", "coordinates": [ [ [ -71.4062693, 47.010378 ], [ -71.4045268, 47.0363039 ], [ -71.4365046, 47.050295 ], [ -71.4702126, 47.0383499 ], [ -71.4719235, 47.0124222 ], [ -71.4399579, 46.9984413 ], [ -71.4062693, 47.010378 ] ] ] } },
{ "type": "Feature", "properties": { "hex_id": 7010, "count": 1, "date": "2025-11-16", "n_files": 57, "pct": 1.75 }, "geometry": { "type": "Polygon", "coordinates": [ [ [ -71.4010345, 47.0881552 ], [ -71.3992847, 47.1140806 ], [ -71.4313065, 47.1280742 ], [ -71.4650658, 47.1161322 ], [ -71.4667838, 47.0902049 ], [ -71.4347743, 47.076221499999988 ], [ -71.4010345, 47.0881552 ] ] ] } },
{ "type": "Feature", "properties": { "hex_id": 7030, "count": 6, "date": "2025-11-16", "n_files": 57, "pct": 10.53 }, "geometry": { "type": "Polygon", "coordinates": [ [ [ -71.2915828, 48.6433797 ], [ -71.2896788, 48.6692949 ], [ -71.3226199, 48.6833408 ], [ -71.3574516, 48.6714608 ], [ -71.3593209, 48.6455436 ], [ -71.3263931, 48.6315085 ], [ -71.2915828, 48.6433797 ] ] ] } },
{ "type": "Feature", "properties": { "hex_id": 7072, "count": 1, "date": "2025-11-16", "n_files": 57, "pct": 1.75 }, "geometry": { "type": "Polygon", "coordinates": [ [ [ -71.3760779, 46.970454 ], [ -71.3743232, 46.9963793 ], [ -71.4062693, 47.010378 ], [ -71.4399579, 46.9984413 ], [ -71.441681, 46.9725142 ], [ -71.4097471, 46.9585257 ], [ -71.3760779, 46.970454 ] ] ] } },
{ "type": "Feature", "properties": { "hex_id": 7073, "count": 1, "date": "2025-11-16", "n_files": 57, "pct": 1.75 }, "geometry": { "type": "Polygon", "coordinates": [ [ [ -71.3708065, 47.0482292 ], [ -71.3690445, 47.0741539 ], [ -71.4010345, 47.0881552 ], [ -71.4347743, 47.076221499999988 ], [ -71.4365046, 47.050295 ], [ -71.4045268, 47.0363039 ], [ -71.3708065, 47.0482292 ] ] ] } },
{ "type": "Feature", "properties": { "hex_id": 7074, "count": 1, "date": "2025-11-16", "n_files": 57, "pct": 1.75 }, "geometry": { "type": "Polygon", "coordinates": [ [ [ -71.3655131, 47.1260029 ], [ -71.3637437, 47.1519271 ], [ -71.3957778, 47.1659309 ], [ -71.429569, 47.1540003 ], [ -71.4313065, 47.1280742 ], [ -71.3992847, 47.1140806 ], [ -71.3655131, 47.1260029 ] ] ] } },
{ "type": "Feature", "properties": { "hex_id": 7136, "count": 1, "date": "2025-11-16", "n_files": 57, "pct": 1.75 }, "geometry": { "type": "Polygon", "coordinates": [ [ [ -71.3459302, 46.9305231 ], [ -71.3441634, 46.9564477 ], [ -71.3760779, 46.970454 ], [ -71.4097471, 46.9585257 ], [ -71.4114823, 46.9325993 ], [ -71.3795799, 46.9186031 ], [ -71.3459302, 46.9305231 ] ] ] } },
{ "type": "Feature", "properties": { "hex_id": 7137, "count": 1, "date": "2025-11-16", "n_files": 57, "pct": 1.75 }, "geometry": { "type": "Polygon", "coordinates": [ [ [ -71.3406224, 47.0082962 ], [ -71.3388482, 47.0342203 ], [ -71.3708065, 47.0482292 ], [ -71.4045268, 47.0363039 ], [ -71.4062693, 47.010378 ], [ -71.3743232, 46.9963793 ], [ -71.3406224, 47.0082962 ] ] ] } },
{ "type": "Feature", "properties": { "hex_id": 7138, "count": 1, "date": "2025-11-16", "n_files": 57, "pct": 1.75 }, "geometry": { "type": "Polygon", "coordinates": [ [ [ -71.3352925, 47.0860678 ], [ -71.3335109, 47.1119913 ], [ -71.3655131, 47.1260029 ], [ -71.3992847, 47.1140806 ], [ -71.4010345, 47.0881552 ], [ -71.3690445, 47.0741539 ], [ -71.3352925, 47.0860678 ] ] ] } },
{ "type": "Feature", "properties": { "hex_id": 7199, "count": 1, "date": "2025-11-16", "n_files": 57, "pct": 1.75 }, "geometry": { "type": "Polygon", "coordinates": [ [ [ -71.315826, 46.8905853 ], [ -71.3140472, 46.9165092 ], [ -71.3459302, 46.9305231 ], [ -71.3795799, 46.9186031 ], [ -71.3813273, 46.8926774 ], [ -71.3494564, 46.8786736 ], [ -71.315826, 46.8905853 ] ] ] } },
{ "type": "Feature", "properties": { "hex_id": 7200, "count": 1, "date": "2025-11-16", "n_files": 57, "pct": 1.75 }, "geometry": { "type": "Polygon", "coordinates": [ [ [ -71.3104821, 46.968356299999989 ], [ -71.3086958, 46.9942797 ], [ -71.3406224, 47.0082962 ], [ -71.3743232, 46.9963793 ], [ -71.3760779, 46.970454 ], [ -71.3441634, 46.9564477 ], [ -71.3104821, 46.968356299999989 ] ] ] } },
{ "type": "Feature", "properties": { "hex_id": 7264, "count": 1, "date": "2025-11-16", "n_files": 57, "pct": 1.75 }, "geometry": { "type": "Polygon", "coordinates": [ [ [ -71.2803853, 46.9284095 ], [ -71.278587, 46.9543322 ], [ -71.3104821, 46.968356299999989 ], [ -71.3441634, 46.9564477 ], [ -71.3459302, 46.9305231 ], [ -71.3140472, 46.9165092 ], [ -71.2803853, 46.9284095 ] ] ] } },
{ "type": "Feature", "properties": { "hex_id": 7453, "count": 4, "date": "2025-11-16", "n_files": 57, "pct": 7.02 }, "geometry": { "type": "Polygon", "coordinates": [ [ [ -71.1958426, 46.7307656 ], [ -71.1940161, 46.7566866 ], [ -71.2257737, 46.7707307 ], [ -71.259346, 46.7588437 ], [ -71.2611413, 46.7329207 ], [ -71.2293955, 46.7188868 ], [ -71.1958426, 46.7307656 ] ] ] } },
{ "type": "Feature", "properties": { "hex_id": 7713, "count": 4, "date": "2025-11-16", "n_files": 57, "pct": 7.02 }, "geometry": { "type": "Polygon", "coordinates": [ [ [ -71.0424291, 47.0373364 ], [ -71.0405086, 47.0632513 ], [ -71.07240010000001, 47.0773418 ], [ -71.1062003, 47.0655071 ], [ -71.1080891, 47.0395901 ], [ -71.0762094, 47.02551 ], [ -71.0424291, 47.0373364 ] ] ] } },
{ "type": "Feature", "properties": { "hex_id": 7777, "count": 4, "date": "2025-11-16", "n_files": 57, "pct": 7.02 }, "geometry": { "type": "Polygon", "coordinates": [ [ [ -71.0125014, 46.9973243 ], [ -71.0105692, 47.0232385 ], [ -71.0424291, 47.0373364 ], [ -71.0762094, 47.02551 ], [ -71.0781101, 46.9995938 ], [ -71.046262, 46.9855061 ], [ -71.0125014, 46.9973243 ] ] ] } },
{ "type": "Feature", "properties": { "hex_id": 7778, "count": 4, "date": "2025-11-16", "n_files": 57, "pct": 7.02 }, "geometry": { "type": "Polygon", "coordinates": [ [ [ -71.0066966, 47.075066199999988 ], [ -71.0047562, 47.1009798 ], [ -71.0366596, 47.1150806 ], [ -71.0704915, 47.1032575 ], [ -71.07240010000001, 47.0773418 ], [ -71.0405086, 47.0632513 ], [ -71.0066966, 47.075066199999988 ] ] ] } },
{ "type": "Feature", "properties": { "hex_id": 7840, "count": 4, "date": "2025-11-16", "n_files": 57, "pct": 7.02 }, "geometry": { "type": "Polygon", "coordinates": [ [ [ -70.9826172, 46.9573056 ], [ -70.9806732, 46.9832189 ], [ -71.0125014, 46.9973243 ], [ -71.046262, 46.9855061 ], [ -71.0481745, 46.9595907 ], [ -71.0163579, 46.9454955 ], [ -70.9826172, 46.9573056 ] ] ] } },
{ "type": "Feature", "properties": { "hex_id": 7841, "count": 4, "date": "2025-11-16", "n_files": 57, "pct": 7.02 }, "geometry": { "type": "Polygon", "coordinates": [ [ [ -70.976777, 47.0350452 ], [ -70.9748249, 47.060958 ], [ -71.0066966, 47.075066199999988 ], [ -71.0405086, 47.0632513 ], [ -71.0424291, 47.0373364 ], [ -71.0105692, 47.0232385 ], [ -70.976777, 47.0350452 ] ] ] } },
{ "type": "Feature", "properties": { "hex_id": 11240, "count": 4, "date": "2025-11-16", "n_files": 57, "pct": 7.02 }, "geometry": { "type": "Polygon", "coordinates": [ [ [ -69.1853537, 47.4646373 ], [ -69.1824922, 47.4904784 ], [ -69.2140869, 47.5050757 ], [ -69.248533, 47.4938212 ], [ -69.2513625, 47.467977 ], [ -69.2197778, 47.4533905 ], [ -69.1853537, 47.4646373 ] ] ] } },
{ "type": "Feature", "properties": { "hex_id": 11303, "count": 4, "date": "2025-11-16", "n_files": 57, "pct": 7.02 }, "geometry": { "type": "Polygon", "coordinates": [ [ [ -69.1566625, 47.4241934 ], [ -69.153791, 47.450033399999988 ], [ -69.1853537, 47.4646373 ], [ -69.2197778, 47.4533905 ], [ -69.2226174, 47.4275475 ], [ -69.1910647, 47.4129543 ], [ -69.1566625, 47.4241934 ] ] ] } },
{ "type": "Feature", "properties": { "hex_id": 11304, "count": 4, "date": "2025-11-16", "n_files": 57, "pct": 7.02 }, "geometry": { "type": "Polygon", "coordinates": [ [ [ -69.148036, 47.5017126 ], [ -69.1451525, 47.5275518 ], [ -69.1767572, 47.5421599 ], [ -69.2112355, 47.530918 ], [ -69.2140869, 47.5050757 ], [ -69.1824922, 47.4904784 ], [ -69.148036, 47.5017126 ] ] ] } },
{ "type": "Feature", "properties": { "hex_id": 11368, "count": 4, "date": "2025-11-16", "n_files": 57, "pct": 7.02 }, "geometry": { "type": "Polygon", "coordinates": [ [ [ -69.1193568, 47.4612598 ], [ -69.1164633, 47.4870979 ], [ -69.148036, 47.5017126 ], [ -69.1824922, 47.4904784 ], [ -69.1853537, 47.4646373 ], [ -69.153791, 47.450033399999988 ], [ -69.1193568, 47.4612598 ] ] ] } },
{ "type": "Feature", "properties": { "hex_id": 11369, "count": 4, "date": "2025-11-16", "n_files": 57, "pct": 7.02 }, "geometry": { "type": "Polygon", "coordinates": [ [ [ -69.1106642, 47.5387733 ], [ -69.1077585, 47.564610599999988 ], [ -69.1393733, 47.5792295 ], [ -69.1738837, 47.5680003 ], [ -69.1767572, 47.5421599 ], [ -69.1451525, 47.5275518 ], [ -69.1106642, 47.5387733 ] ] ] } },
{ "type": "Feature", "properties": { "hex_id": 11431, "count": 4, "date": "2025-11-16", "n_files": 57, "pct": 7.02 }, "geometry": { "type": "Polygon", "coordinates": [ [ [ -69.0907196, 47.4208016 ], [ -69.0878162, 47.4466385 ], [ -69.1193568, 47.4612598 ], [ -69.153791, 47.450033399999988 ], [ -69.1566625, 47.4241934 ], [ -69.1251318, 47.4095829 ], [ -69.0907196, 47.4208016 ] ] ] } },
{ "type": "Feature", "properties": { "hex_id": 11432, "count": 4, "date": "2025-11-16", "n_files": 57, "pct": 7.02 }, "geometry": { "type": "Polygon", "coordinates": [ [ [ -69.0819971, 47.4983116 ], [ -69.0790815, 47.5241478 ], [ -69.1106642, 47.5387733 ], [ -69.1451525, 47.5275518 ], [ -69.148036, 47.5017126 ], [ -69.1164633, 47.4870979 ], [ -69.0819971, 47.4983116 ] ] ] } },
{ "type": "Feature", "properties": { "hex_id": 11495, "count": 4, "date": "2025-11-16", "n_files": 57, "pct": 7.02 }, "geometry": { "type": "Polygon", "coordinates": [ [ [ -69.0621242, 47.3803379 ], [ -69.059210900000011, 47.4061737 ], [ -69.0907196, 47.4208016 ], [ -69.1251318, 47.4095829 ], [ -69.1280132, 47.383744 ], [ -69.09651430000001, 47.3691269 ], [ -69.0621242, 47.3803379 ] ] ] } },
{ "type": "Feature", "properties": { "hex_id": 11496, "count": 4, "date": "2025-11-16", "n_files": 57, "pct": 7.02 }, "geometry": { "type": "Polygon", "coordinates": [ [ [ -69.0533721, 47.4578445 ], [ -69.0504465, 47.4836795 ], [ -69.0819971, 47.4983116 ], [ -69.1164633, 47.4870979 ], [ -69.1193568, 47.4612598 ], [ -69.0878162, 47.4466385 ], [ -69.0533721, 47.4578445 ] ] ] } },
{ "type": "Feature", "properties": { "hex_id": 11497, "count": 4, "date": "2025-11-16", "n_files": 57, "pct": 7.02 }, "geometry": { "type": "Polygon", "coordinates": [ [ [ -69.0445833, 47.5353487 ], [ -69.0416455, 47.561183 ], [ -69.0732381, 47.5758193 ], [ -69.1077585, 47.564610599999988 ], [ -69.1106642, 47.5387733 ], [ -69.0790815, 47.5241478 ], [ -69.0445833, 47.5353487 ] ] ] } },
{ "type": "Feature", "properties": { "hex_id": 11558, "count": 4, "date": "2025-11-16", "n_files": 57, "pct": 7.02 }, "geometry": { "type": "Polygon", "coordinates": [ [ [ -69.0335704, 47.3398689 ], [ -69.0306473, 47.3657035 ], [ -69.0621242, 47.3803379 ], [ -69.09651430000001, 47.3691269 ], [ -69.0994057, 47.3432893 ], [ -69.0679386, 47.3286656 ], [ -69.0335704, 47.3398689 ] ] ] } },
{ "type": "Feature", "properties": { "hex_id": 11559, "count": 4, "date": "2025-11-16", "n_files": 57, "pct": 7.02 }, "geometry": { "type": "Polygon", "coordinates": [ [ [ -69.02478880000001, 47.417372 ], [ -69.0218535, 47.4432058 ], [ -69.0533721, 47.4578445 ], [ -69.0878162, 47.4466385 ], [ -69.0907196, 47.4208016 ], [ -69.059210900000011, 47.4061737 ], [ -69.02478880000001, 47.417372 ] ] ] } },
{ "type": "Feature", "properties": { "hex_id": 11560, "count": 4, "date": "2025-11-16", "n_files": 57, "pct": 7.02 }, "geometry": { "type": "Polygon", "coordinates": [ [ [ -69.0159705, 47.4948727 ], [ -69.0130228, 47.5207058 ], [ -69.0445833, 47.5353487 ], [ -69.0790815, 47.5241478 ], [ -69.0819971, 47.4983116 ], [ -69.0504465, 47.4836795 ], [ -69.0159705, 47.4948727 ] ] ] } },
{ "type": "Feature", "properties": { "hex_id": 11623, "count": 4, "date": "2025-11-16", "n_files": 57, "pct": 7.02 }, "geometry": { "type": "Polygon", "coordinates": [ [ [ -68.9962473, 47.3768941 ], [ -68.9933021, 47.402726799999989 ], [ -69.02478880000001, 47.417372 ], [ -69.059210900000011, 47.4061737 ], [ -69.0621242, 47.3803379 ], [ -69.0306473, 47.3657035 ], [ -68.9962473, 47.3768941 ] ] ] } },
{ "type": "Feature", "properties": { "hex_id": 11624, "count": 4, "date": "2025-11-16", "n_files": 57, "pct": 7.02 }, "geometry": { "type": "Polygon", "coordinates": [ [ [ -68.9873995, 47.4543914 ], [ -68.984442, 47.4802233 ], [ -69.0159705, 47.4948727 ], [ -69.0504465, 47.4836795 ], [ -69.0533721, 47.4578445 ], [ -69.0218535, 47.4432058 ], [ -68.9873995, 47.4543914 ] ] ] } },
{ "type": "Feature", "properties": { "hex_id": 11625, "count": 4, "date": "2025-11-16", "n_files": 57, "pct": 7.02 }, "geometry": { "type": "Polygon", "coordinates": [ [ [ -68.9785147, 47.5318863 ], [ -68.9755448, 47.5577174 ], [ -69.0071151, 47.5723712 ], [ -69.0416455, 47.561183 ], [ -69.0445833, 47.5353487 ], [ -69.0130228, 47.5207058 ], [ -68.9785147, 47.5318863 ] ] ] } },
{ "type": "Feature", "properties": { "hex_id": 11686, "count": 4, "date": "2025-11-16", "n_files": 57, "pct": 7.02 }, "geometry": { "type": "Polygon", "coordinates": [ [ [ -68.9677474, 47.3364109 ], [ -68.9647925, 47.3622424 ], [ -68.9962473, 47.3768941 ], [ -69.0306473, 47.3657035 ], [ -69.0335704, 47.3398689 ], [ -69.0021253, 47.325228 ], [ -68.9677474, 47.3364109 ] ] ] } },
{ "type": "Feature", "properties": { "hex_id": 11687, "count": 4, "date": "2025-11-16", "n_files": 57, "pct": 7.02 }, "geometry": { "type": "Polygon", "coordinates": [ [ [ -68.9588703, 47.4139047 ], [ -68.9559031, 47.4397354 ], [ -68.9873995, 47.4543914 ], [ -69.0218535, 47.4432058 ], [ -69.02478880000001, 47.417372 ], [ -68.9933021, 47.402726799999989 ], [ -68.9588703, 47.4139047 ] ] ] } },
{ "type": "Feature", "properties": { "hex_id": 11688, "count": 4, "date": "2025-11-16", "n_files": 57, "pct": 7.02 }, "geometry": { "type": "Polygon", "coordinates": [ [ [ -68.9499561, 47.4913961 ], [ -68.9469764, 47.517226 ], [ -68.9785147, 47.5318863 ], [ -69.0130228, 47.5207058 ], [ -69.0159705, 47.4948727 ], [ -68.984442, 47.4802233 ], [ -68.9499561, 47.4913961 ] ] ] } },
{ "type": "Feature", "properties": { "hex_id": 11751, "count": 4, "date": "2025-11-16", "n_files": 57, "pct": 7.02 }, "geometry": { "type": "Polygon", "coordinates": [ [ [ -68.9303827, 47.3734127 ], [ -68.9274057, 47.399242199999989 ], [ -68.9588703, 47.4139047 ], [ -68.9933021, 47.402726799999989 ], [ -68.9962473, 47.3768941 ], [ -68.9647925, 47.3622424 ], [ -68.9303827, 47.3734127 ] ] ] } },
{ "type": "Feature", "properties": { "hex_id": 11752, "count": 20, "date": "2025-11-16", "n_files": 57, "pct": 35.09 }, "geometry": { "type": "Polygon", "coordinates": [ [ [ -68.9214393, 47.4509005 ], [ -68.918449900000013, 47.4767293 ], [ -68.9499561, 47.4913961 ], [ -68.984442, 47.4802233 ], [ -68.9873995, 47.4543914 ], [ -68.9559031, 47.4397354 ], [ -68.9214393, 47.4509005 ] ] ] } },
{ "type": "Feature", "properties": { "hex_id": 11753, "count": 4, "date": "2025-11-16", "n_files": 57, "pct": 7.02 }, "geometry": { "type": "Polygon", "coordinates": [ [ [ -68.9124585, 47.528386 ], [ -68.9094565, 47.554214 ], [ -68.9410045, 47.5688851 ], [ -68.9755448, 47.5577174 ], [ -68.9785147, 47.5318863 ], [ -68.9469764, 47.517226 ], [ -68.9124585, 47.528386 ] ] ] } },
{ "type": "Feature", "properties": { "hex_id": 11814, "count": 4, "date": "2025-11-16", "n_files": 57, "pct": 7.02 }, "geometry": { "type": "Polygon", "coordinates": [ [ [ -68.9019366, 47.3329154 ], [ -68.89895, 47.3587437 ], [ -68.9303827, 47.3734127 ], [ -68.9647925, 47.3622424 ], [ -68.9677474, 47.3364109 ], [ -68.9363243, 47.3217528 ], [ -68.9019366, 47.3329154 ] ] ] } },
{ "type": "Feature", "properties": { "hex_id": 11815, "count": 20, "date": "2025-11-16", "n_files": 57, "pct": 35.09 }, "geometry": { "type": "Polygon", "coordinates": [ [ [ -68.8929642, 47.4103997 ], [ -68.889965, 47.4362272 ], [ -68.9214393, 47.4509005 ], [ -68.9559031, 47.4397354 ], [ -68.9588703, 47.4139047 ], [ -68.9274057, 47.399242199999989 ], [ -68.8929642, 47.4103997 ] ] ] } },
{ "type": "Feature", "properties": { "hex_id": 11816, "count": 4, "date": "2025-11-16", "n_files": 57, "pct": 7.02 }, "geometry": { "type": "Polygon", "coordinates": [ [ [ -68.8839542, 47.4878816 ], [ -68.8809425, 47.5137084 ], [ -68.9124585, 47.528386 ], [ -68.9469764, 47.517226 ], [ -68.9499561, 47.4913961 ], [ -68.918449900000013, 47.4767293 ], [ -68.8839542, 47.4878816 ] ] ] } },
{ "type": "Feature", "properties": { "hex_id": 11879, "count": 20, "date": "2025-11-16", "n_files": 57, "pct": 35.09 }, "geometry": { "type": "Polygon", "coordinates": [ [ [ -68.8645306, 47.3698936 ], [ -68.8615218, 47.3957199 ], [ -68.8929642, 47.4103997 ], [ -68.9274057, 47.399242199999989 ], [ -68.9303827, 47.3734127 ], [ -68.89895, 47.3587437 ], [ -68.8645306, 47.3698936 ] ] ] } },
{ "type": "Feature", "properties": { "hex_id": 11880, "count": 20, "date": "2025-11-16", "n_files": 57, "pct": 35.09 }, "geometry": { "type": "Polygon", "coordinates": [ [ [ -68.8554916, 47.4473719 ], [ -68.8524702, 47.4731975 ], [ -68.8839542, 47.4878816 ], [ -68.918449900000013, 47.4767293 ], [ -68.9214393, 47.4509005 ], [ -68.889965, 47.4362272 ], [ -68.8554916, 47.4473719 ] ] ] } },
{ "type": "Feature", "properties": { "hex_id": 11942, "count": 20, "date": "2025-11-16", "n_files": 57, "pct": 35.09 }, "geometry": { "type": "Polygon", "coordinates": [ [ [ -68.8361383, 47.3293822 ], [ -68.83312, 47.3552074 ], [ -68.8645306, 47.3698936 ], [ -68.89895, 47.3587437 ], [ -68.9019366, 47.3329154 ], [ -68.8705356, 47.31824 ], [ -68.8361383, 47.3293822 ] ] ] } },
{ "type": "Feature", "properties": { "hex_id": 11943, "count": 20, "date": "2025-11-16", "n_files": 57, "pct": 35.09 }, "geometry": { "type": "Polygon", "coordinates": [ [ [ -68.8270706, 47.406857 ], [ -68.8240396, 47.4326814 ], [ -68.8554916, 47.4473719 ], [ -68.889965, 47.4362272 ], [ -68.8929642, 47.4103997 ], [ -68.8615218, 47.3957199 ], [ -68.8270706, 47.406857 ] ] ] } },
{ "type": "Feature", "properties": { "hex_id": 11944, "count": 4, "date": "2025-11-16", "n_files": 57, "pct": 7.02 }, "geometry": { "type": "Polygon", "coordinates": [ [ [ -68.8179649, 47.4843293 ], [ -68.8149212, 47.5101529 ], [ -68.8464148, 47.5248479 ], [ -68.8809425, 47.5137084 ], [ -68.8839542, 47.4878816 ], [ -68.8524702, 47.4731975 ], [ -68.8179649, 47.4843293 ] ] ] } },
{ "type": "Feature", "properties": { "hex_id": 12007, "count": 20, "date": "2025-11-16", "n_files": 57, "pct": 35.09 }, "geometry": { "type": "Polygon", "coordinates": [ [ [ -68.798691, 47.3663368 ], [ -68.7956504, 47.39216 ], [ -68.8270706, 47.406857 ], [ -68.8615218, 47.3957199 ], [ -68.8645306, 47.3698936 ], [ -68.83312, 47.3552074 ], [ -68.798691, 47.3663368 ] ] ] } },
{ "type": "Feature", "properties": { "hex_id": 12008, "count": 4, "date": "2025-11-16", "n_files": 57, "pct": 7.02 }, "geometry": { "type": "Polygon", "coordinates": [ [ [ -68.789556500000018, 47.4438056 ], [ -68.7865032, 47.469628 ], [ -68.8179649, 47.4843293 ], [ -68.8524702, 47.4731975 ], [ -68.8554916, 47.4473719 ], [ -68.8240396, 47.4326814 ], [ -68.789556500000018, 47.4438056 ] ] ] } },
{ "type": "Feature", "properties": { "hex_id": 12070, "count": 20, "date": "2025-11-16", "n_files": 57, "pct": 35.09 }, "geometry": { "type": "Polygon", "coordinates": [ [ [ -68.7703526, 47.3258115 ], [ -68.7673026, 47.3516335 ], [ -68.798691, 47.3663368 ], [ -68.83312, 47.3552074 ], [ -68.8361383, 47.3293822 ], [ -68.8047595, 47.3146897 ], [ -68.7703526, 47.3258115 ] ] ] } },
{ "type": "Feature", "properties": { "hex_id": 12071, "count": 20, "date": "2025-11-16", "n_files": 57, "pct": 35.09 }, "geometry": { "type": "Polygon", "coordinates": [ [ [ -68.7611896, 47.4032766 ], [ -68.7581268, 47.4290978 ], [ -68.789556500000018, 47.4438056 ], [ -68.8240396, 47.4326814 ], [ -68.8270706, 47.406857 ], [ -68.7956504, 47.39216 ], [ -68.7611896, 47.4032766 ] ] ] } },
{ "type": "Feature", "properties": { "hex_id": 12135, "count": 33, "date": "2025-11-16", "n_files": 57, "pct": 57.89 }, "geometry": { "type": "Polygon", "coordinates": [ [ [ -68.732864, 47.3627425 ], [ -68.7297917, 47.3885624 ], [ -68.7611896, 47.4032766 ], [ -68.7956504, 47.39216 ], [ -68.798691, 47.3663368 ], [ -68.7673026, 47.3516335 ], [ -68.732864, 47.3627425 ] ] ] } },
{ "type": "Feature", "properties": { "hex_id": 12199, "count": 20, "date": "2025-11-16", "n_files": 57, "pct": 35.09 }, "geometry": { "type": "Polygon", "coordinates": [ [ [ -68.6953215, 47.3996586 ], [ -68.6922268, 47.4254765 ], [ -68.7236342, 47.4402015 ], [ -68.7581268, 47.4290978 ], [ -68.7611896, 47.4032766 ], [ -68.7297917, 47.3885624 ], [ -68.6953215, 47.3996586 ] ] ] } },
{ "type": "Feature", "properties": { "hex_id": 12263, "count": 33, "date": "2025-11-16", "n_files": 57, "pct": 57.89 }, "geometry": { "type": "Polygon", "coordinates": [ [ [ -68.6670499, 47.3591106 ], [ -68.6639459, 47.3849272 ], [ -68.6953215, 47.3996586 ], [ -68.7297917, 47.3885624 ], [ -68.732864, 47.3627425 ], [ -68.7014979, 47.348022 ], [ -68.6670499, 47.3591106 ] ] ] } }
]
}
