{
"type": "FeatureCollection",
"name": "daily_2026-02-09",
"crs": { "type": "name", "properties": { "name": "urn:ogc:def:crs:OGC:1.3:CRS84" } },
"features": [
{ "type": "Feature", "properties": { "hex_id": 594676, "centroid_lon": -73.355339696509674, "centroid_lat": 45.534828711737944, "occurrences_today": 3, "datetimes_today": "2026-02-09 08:46:24, 2026-02-09 08:46:26, 2026-02-09 09:01:39", "cumulative_total": 56.0 }, "geometry": { "type": "Polygon", "coordinates": [ [ [ -73.355491137521824, 45.529634077183168 ], [ -73.361816302809217, 45.532323392529044 ], [ -73.361665429974465, 45.537518041088717 ], [ -73.355188214130081, 45.540023341154523 ], [ -73.348862522039695, 45.53733365450627 ], [ -73.349014572582789, 45.532139039159127 ], [ -73.355491137521824, 45.529634077183168 ] ] ] } },
{ "type": "Feature", "properties": { "hex_id": 595287, "centroid_lon": -73.3487104299615, "centroid_lat": 45.542528264712125, "occurrences_today": 3, "datetimes_today": "2026-02-09 08:46:24, 2026-02-09 08:46:26, 2026-02-09 09:01:39", "cumulative_total": 12.0 }, "geometry": { "type": "Polygon", "coordinates": [ [ [ -73.348862522039695, 45.53733365450627 ], [ -73.355188214130081, 45.540023341154523 ], [ -73.355036690369118, 45.545217965432769 ], [ -73.348558296334289, 45.547722869776564 ], [ -73.342232077482677, 45.545032811667006 ], [ -73.342384779413166, 45.539838220739483 ], [ -73.348862522039695, 45.53733365450627 ] ] ] } },
{ "type": "Feature", "properties": { "hex_id": 596508, "centroid_lon": -73.335906468644083, "centroid_lat": 45.542342410343075, "occurrences_today": 3, "datetimes_today": "2026-02-09 08:46:24, 2026-02-09 08:46:26, 2026-02-09 09:01:39", "cumulative_total": 16.0 }, "geometry": { "type": "Polygon", "coordinates": [ [ [ -73.336059738710134, 45.537147833613993 ], [ -73.342384779413166, 45.539838220739483 ], [ -73.342232077482677, 45.545032811667006 ], [ -73.335753156707582, 45.547536981924623 ], [ -73.329427589746487, 45.544846223222514 ], [ -73.329581469804495, 45.539651665903925 ], [ -73.336059738710134, 45.537147833613993 ] ] ] } },
{ "type": "Feature", "properties": { "hex_id": 690513, "centroid_lon": -72.359187829208381, "centroid_lat": 45.336839236933905, "occurrences_today": 10, "datetimes_today": "2026-02-09 00:01:45, 2026-02-09 00:16:47, 2026-02-09 00:31:22, 2026-02-09 00:45:22, 2026-02-09 00:47:23, 2026-02-09 01:01:45, 2026-02-09 01:16:43, 2026-02-09 01:31:26, 2026-02-09 01:46:46, 2026-02-09 02:01:47", "cumulative_total": 86.0 }, "geometry": { "type": "Polygon", "coordinates": [ [ [ -72.35942927216368, 45.33164780507925 ], [ -72.365682951960139, 45.334390821546791 ], [ -72.365442057385849, 45.339582277046169 ], [ -72.358946320499641, 45.342030663041989 ], [ -72.352692158086583, 45.339287268928643 ], [ -72.352934215154377, 45.334095866529026 ], [ -72.35942927216368, 45.33164780507925 ] ] ] } },
{ "type": "Feature", "properties": { "hex_id": 691124, "centroid_lon": -72.352450035096538, "centroid_lat": 45.344478665576695, "occurrences_today": 10, "datetimes_today": "2026-02-09 00:01:45, 2026-02-09 00:16:47, 2026-02-09 00:31:22, 2026-02-09 00:45:22, 2026-02-09 00:47:23, 2026-02-09 01:01:45, 2026-02-09 01:16:43, 2026-02-09 01:31:26, 2026-02-09 01:46:46, 2026-02-09 02:01:47", "cumulative_total": 86.0 }, "geometry": { "type": "Polygon", "coordinates": [ [ [ -72.352692158086583, 45.339287268928643 ], [ -72.358946320499641, 45.342030663041989 ], [ -72.358704746015533, 45.347222083403118 ], [ -72.352207846162244, 45.349670056472789 ], [ -72.345953201198512, 45.346926284558116 ], [ -72.346195938616717, 45.34173491743887 ], [ -72.352692158086583, 45.339287268928643 ] ] ] } },
{ "type": "Feature", "properties": { "hex_id": 758895, "centroid_lon": -71.640033128227572, "centroid_lat": 45.411476946507406, "occurrences_today": 7, "datetimes_today": "2026-02-09 07:46:32, 2026-02-09 08:01:55, 2026-02-09 08:16:26, 2026-02-09 08:31:40, 2026-02-09 08:46:24, 2026-02-09 08:46:26, 2026-02-09 09:01:39", "cumulative_total": 115.0 }, "geometry": { "type": "Polygon", "coordinates": [ [ [ -71.640341054672746, 45.406289002269915 ], [ -71.64656568750226, 45.40907063445313 ], [ -71.646258301121762, 45.414258609269403 ], [ -71.639725117903978, 45.41666488437783 ], [ -71.633500028902219, 45.413882867545759 ], [ -71.633808579262464, 45.408694960317732 ], [ -71.640341054672746, 45.406289002269915 ] ] ] } },
{ "type": "Feature", "properties": { "hex_id": 686239, "centroid_lon": -72.40416768117737, "centroid_lat": 45.330075538241864, "occurrences_today": 10, "datetimes_today": "2026-02-09 00:01:45, 2026-02-09 00:16:47, 2026-02-09 00:31:22, 2026-02-09 00:45:22, 2026-02-09 00:47:23, 2026-02-09 01:01:45, 2026-02-09 01:16:43, 2026-02-09 01:31:26, 2026-02-09 01:46:46, 2026-02-09 02:01:47", "cumulative_total": 30.0 }, "geometry": { "type": "Polygon", "coordinates": [ [ [ -72.404404958624653, 45.324883913549726 ], [ -72.410660191109258, 45.327624499514691 ], [ -72.410423462488893, 45.332816147414448 ], [ -72.403930339113955, 45.335267157221281 ], [ -72.397674622429378, 45.332526194084558 ], [ -72.397912513298138, 45.32733459837651 ], [ -72.404404958624653, 45.324883913549726 ] ] ] } },
{ "type": "Feature", "properties": { "hex_id": 686850, "centroid_lon": -72.397436666775846, "centroid_lat": 45.337717784074975, "occurrences_today": 10, "datetimes_today": "2026-02-09 00:01:45, 2026-02-09 00:16:47, 2026-02-09 00:31:22, 2026-02-09 00:45:22, 2026-02-09 00:47:23, 2026-02-09 01:01:45, 2026-02-09 01:16:43, 2026-02-09 01:31:26, 2026-02-09 01:46:46, 2026-02-09 02:01:47", "cumulative_total": 26.0 }, "geometry": { "type": "Polygon", "coordinates": [ [ [ -72.397674622429378, 45.332526194084558 ], [ -72.403930339113955, 45.335267157221281 ], [ -72.403692932412795, 45.34045877048765 ], [ -72.397198646315942, 45.342909368347456 ], [ -72.390942445496165, 45.340168027883323 ], [ -72.39118101488684, 45.334976466950543 ], [ -72.397674622429378, 45.332526194084558 ] ] ] } },
{ "type": "Feature", "properties": { "hex_id": 687460, "centroid_lon": -72.391419519324103, "centroid_lat": 45.329784900295266, "occurrences_today": 10, "datetimes_today": "2026-02-09 00:01:45, 2026-02-09 00:16:47, 2026-02-09 00:31:22, 2026-02-09 00:45:22, 2026-02-09 00:47:23, 2026-02-09 01:01:45, 2026-02-09 01:16:43, 2026-02-09 01:31:26, 2026-02-09 01:46:46, 2026-02-09 02:01:47", "cumulative_total": 30.0 }, "geometry": { "type": "Polygon", "coordinates": [ [ [ -72.391657958829626, 45.324593327917768 ], [ -72.397912513298138, 45.32733459837651 ], [ -72.397674622429378, 45.332526194084558 ], [ -72.39118101488684, 45.334976466950543 ], [ -72.384925976724134, 45.332234819213781 ], [ -72.385165029776488, 45.327043275952796 ], [ -72.391657958829626, 45.324593327917768 ] ] ] } },
{ "type": "Feature", "properties": { "hex_id": 687461, "centroid_lon": -72.390703811130436, "centroid_lat": 45.345359583093206, "occurrences_today": 10, "datetimes_today": "2026-02-09 00:01:45, 2026-02-09 00:16:47, 2026-02-09 00:31:22, 2026-02-09 00:45:22, 2026-02-09 00:47:23, 2026-02-09 01:01:45, 2026-02-09 01:16:43, 2026-02-09 01:31:26, 2026-02-09 01:46:46, 2026-02-09 02:01:47", "cumulative_total": 26.0 }, "geometry": { "type": "Polygon", "coordinates": [ [ [ -72.390942445496165, 45.340168027883323 ], [ -72.397198646315942, 45.342909368347456 ], [ -72.396960561028024, 45.348100946901617 ], [ -72.390465111767924, 45.350551132579874 ], [ -72.384208426877933, 45.347809414632678 ], [ -72.384447675296585, 45.342617888554066 ], [ -72.390942445496165, 45.340168027883323 ] ] ] } },
{ "type": "Feature", "properties": { "hex_id": 688071, "centroid_lon": -72.384686858571399, "centroid_lat": 45.337426356747642, "occurrences_today": 10, "datetimes_today": "2026-02-09 00:01:45, 2026-02-09 00:16:47, 2026-02-09 00:31:22, 2026-02-09 00:45:22, 2026-02-09 00:47:23, 2026-02-09 01:01:45, 2026-02-09 01:16:43, 2026-02-09 01:31:26, 2026-02-09 01:46:46, 2026-02-09 02:01:47", "cumulative_total": 30.0 }, "geometry": { "type": "Polygon", "coordinates": [ [ [ -72.384925976724134, 45.332234819213781 ], [ -72.39118101488684, 45.334976466950543 ], [ -72.390942445496165, 45.340168027883323 ], [ -72.384447675296585, 45.342617888554066 ], [ -72.37819215350477, 45.339875863383661 ], [ -72.37843188551993, 45.33468435503989 ], [ -72.384925976724134, 45.332234819213781 ] ] ] } },
{ "type": "Feature", "properties": { "hex_id": 688681, "centroid_lon": -72.378671552266013, "centroid_lat": 45.329492840964086, "occurrences_today": 10, "datetimes_today": "2026-02-09 00:01:45, 2026-02-09 00:16:47, 2026-02-09 00:31:22, 2026-02-09 00:45:22, 2026-02-09 00:47:23, 2026-02-09 01:01:45, 2026-02-09 01:16:43, 2026-02-09 01:31:26, 2026-02-09 01:46:46, 2026-02-09 02:01:47", "cumulative_total": 30.0 }, "geometry": { "type": "Polygon", "coordinates": [ [ [ -72.378911153764847, 45.324301321156568 ], [ -72.385165029776488, 45.327043275952796 ], [ -72.384925976724134, 45.332234819213781 ], [ -72.37843188551993, 45.33468435503989 ], [ -72.372177526319973, 45.331942022859465 ], [ -72.372417741490779, 45.326750532300871 ], [ -72.378911153764847, 45.324301321156568 ] ] ] } },
{ "type": "Feature", "properties": { "hex_id": 688682, "centroid_lon": -72.37795235619879, "centroid_lat": 45.345067365995021, "occurrences_today": 10, "datetimes_today": "2026-02-09 00:01:45, 2026-02-09 00:16:47, 2026-02-09 00:31:22, 2026-02-09 00:45:22, 2026-02-09 00:47:23, 2026-02-09 01:01:45, 2026-02-09 01:16:43, 2026-02-09 01:31:26, 2026-02-09 01:46:46, 2026-02-09 02:01:47", "cumulative_total": 26.0 }, "geometry": { "type": "Polygon", "coordinates": [ [ [ -72.37819215350477, 45.339875863383661 ], [ -72.384447675296585, 45.342617888554066 ], [ -72.384208426877933, 45.347809414632678 ], [ -72.377712493580162, 45.350258862873638 ], [ -72.371456488224538, 45.347516460113951 ], [ -72.371696899708695, 45.342324986766357 ], [ -72.37819215350477, 45.339875863383661 ] ] ] } },
{ "type": "Feature", "properties": { "hex_id": 689292, "centroid_lon": -72.371937245733235, "centroid_lat": 45.337133507681415, "occurrences_today": 10, "datetimes_today": "2026-02-09 00:01:45, 2026-02-09 00:16:47, 2026-02-09 00:31:22, 2026-02-09 00:45:22, 2026-02-09 00:47:23, 2026-02-09 01:01:45, 2026-02-09 01:16:43, 2026-02-09 01:31:26, 2026-02-09 01:46:46, 2026-02-09 02:01:47", "cumulative_total": 30.0 }, "geometry": { "type": "Polygon", "coordinates": [ [ [ -72.372177526319973, 45.331942022859465 ], [ -72.37843188551993, 45.33468435503989 ], [ -72.37819215350477, 45.339875863383661 ], [ -72.371696899708695, 45.342324986766357 ], [ -72.365442057385849, 45.339582277046169 ], [ -72.365682951960139, 45.334390821546791 ], [ -72.372177526319973, 45.331942022859465 ] ] ] } },
{ "type": "Feature", "properties": { "hex_id": 689293, "centroid_lon": -72.371216011258923, "centroid_lat": 45.352707927723863, "occurrences_today": 10, "datetimes_today": "2026-02-09 00:01:45, 2026-02-09 00:16:47, 2026-02-09 00:31:22, 2026-02-09 00:45:22, 2026-02-09 00:47:23, 2026-02-09 01:01:45, 2026-02-09 01:16:43, 2026-02-09 01:31:26, 2026-02-09 01:46:46, 2026-02-09 02:01:47", "cumulative_total": 26.0 }, "geometry": { "type": "Polygon", "coordinates": [ [ [ -72.371456488224538, 45.347516460113951 ], [ -72.377712493580162, 45.350258862873638 ], [ -72.377472565627144, 45.35545035401919 ], [ -72.370975468789979, 45.35789938959573 ], [ -72.364718979936029, 45.355156609091097 ], [ -72.364960071395686, 45.349965170818663 ], [ -72.371456488224538, 45.347516460113951 ] ] ] } },
{ "type": "Feature", "properties": { "hex_id": 689903, "centroid_lon": -72.365201097204988, "centroid_lat": 45.344773726803581, "occurrences_today": 10, "datetimes_today": "2026-02-09 00:01:45, 2026-02-09 00:16:47, 2026-02-09 00:31:22, 2026-02-09 00:45:22, 2026-02-09 00:47:23, 2026-02-09 01:01:45, 2026-02-09 01:16:43, 2026-02-09 01:31:26, 2026-02-09 01:46:46, 2026-02-09 02:01:47", "cumulative_total": 26.0 }, "geometry": { "type": "Polygon", "coordinates": [ [ [ -72.365442057385849, 45.339582277046169 ], [ -72.371696899708695, 45.342324986766357 ], [ -72.371456488224538, 45.347516460113951 ], [ -72.364960071395686, 45.349965170818663 ], [ -72.358704746015533, 45.347222083403118 ], [ -72.358946320499641, 45.342030663041989 ], [ -72.365442057385849, 45.339582277046169 ] ] ] } },
{ "type": "Feature", "properties": { "hex_id": 759505, "centroid_lon": -71.634117045600576, "centroid_lat": 45.403507046716761, "occurrences_today": 7, "datetimes_today": "2026-02-09 07:46:32, 2026-02-09 08:01:55, 2026-02-09 08:16:26, 2026-02-09 08:31:40, 2026-02-09 08:46:24, 2026-02-09 08:46:26, 2026-02-09 09:01:39", "cumulative_total": 8.0 }, "geometry": { "type": "Polygon", "coordinates": [ [ [ -71.634425427944592, 45.398319126743466 ], [ -71.640648897267525, 45.401101051665911 ], [ -71.640341054672746, 45.406289002269915 ], [ -71.633808579262464, 45.408694960317732 ], [ -71.627584654198401, 45.405912650800701 ], [ -71.627893660257712, 45.400724767894026 ], [ -71.634425427944592, 45.398319126743466 ] ] ] } },
{ "type": "Feature", "properties": { "hex_id": 759506, "centroid_lon": -71.633191394491746, "centroid_lat": 45.419070768400296, "occurrences_today": 7, "datetimes_today": "2026-02-09 07:46:32, 2026-02-09 08:01:55, 2026-02-09 08:16:26, 2026-02-09 08:31:40, 2026-02-09 08:46:24, 2026-02-09 08:46:26, 2026-02-09 09:01:39", "cumulative_total": 8.0 }, "geometry": { "type": "Polygon", "coordinates": [ [ [ -71.633500028902219, 45.413882867545759 ], [ -71.639725117903978, 45.41666488437783 ], [ -71.639417023673971, 45.421852815880591 ], [ -71.632882676002993, 45.424258662880774 ], [ -71.626657130913102, 45.421476261245772 ], [ -71.626966389554227, 45.416288397477153 ], [ -71.633500028902219, 45.413882867545759 ] ] ] } },
{ "type": "Feature", "properties": { "hex_id": 760116, "centroid_lon": -71.627275563973285, "centroid_lat": 45.411100527328607, "occurrences_today": 7, "datetimes_today": "2026-02-09 07:46:32, 2026-02-09 08:01:55, 2026-02-09 08:16:26, 2026-02-09 08:31:40, 2026-02-09 08:46:24, 2026-02-09 08:46:26, 2026-02-09 09:01:39", "cumulative_total": 8.0 }, "geometry": { "type": "Polygon", "coordinates": [ [ [ -71.627584654198401, 45.405912650800701 ], [ -71.633808579262464, 45.408694960317732 ], [ -71.633500028902219, 45.413882867545759 ], [ -71.626966389554227, 45.416288397477153 ], [ -71.62074200883329, 45.413505703211527 ], [ -71.621051723089096, 45.40831786382671 ], [ -71.627584654198401, 45.405912650800701 ] ] ] } },
{ "type": "Feature", "properties": { "hex_id": 760726, "centroid_lon": -71.621361353007316, "centroid_lat": 45.403130018056686, "occurrences_today": 7, "datetimes_today": "2026-02-09 07:46:32, 2026-02-09 08:01:55, 2026-02-09 08:16:26, 2026-02-09 08:31:40, 2026-02-09 08:46:24, 2026-02-09 08:46:26, 2026-02-09 09:01:39", "cumulative_total": 8.0 }, "geometry": { "type": "Polygon", "coordinates": [ [ [ -71.621670898616088, 45.397942165902016 ], [ -71.627893660257712, 45.400724767894026 ], [ -71.627584654198401, 45.405912650800701 ], [ -71.621051723089096, 45.40831786382671 ], [ -71.614828506221542, 45.405534877140454 ], [ -71.615138675661072, 45.400347062186029 ], [ -71.621670898616088, 45.397942165902016 ] ] ] } },
{ "type": "Feature", "properties": { "hex_id": 760727, "centroid_lon": -71.620432210211703, "centroid_lat": 45.418693536210533, "occurrences_today": 7, "datetimes_today": "2026-02-09 07:46:32, 2026-02-09 08:01:55, 2026-02-09 08:16:26, 2026-02-09 08:31:40, 2026-02-09 08:46:24, 2026-02-09 08:46:26, 2026-02-09 09:01:39", "cumulative_total": 8.0 }, "geometry": { "type": "Polygon", "coordinates": [ [ [ -71.62074200883329, 45.413505703211527 ], [ -71.626966389554227, 45.416288397477153 ], [ -71.626657130913102, 45.421476261245772 ], [ -71.620122327196157, 45.423881362823167 ], [ -71.613897490902801, 45.421098283654885 ], [ -71.614207913870615, 45.415910487875465 ], [ -71.62074200883329, 45.413505703211527 ] ] ] } },
{ "type": "Feature", "properties": { "hex_id": 594066, "centroid_lon": -73.36151451592599, "centroid_lat": 45.542712684513177, "occurrences_today": 3, "datetimes_today": "2026-02-09 08:46:24, 2026-02-09 08:46:26, 2026-02-09 09:01:39", "cumulative_total": 26.0 }, "geometry": { "type": "Polygon", "coordinates": [ [ [ -73.361665429974465, 45.537518041088717 ], [ -73.367991772991033, 45.540207027112338 ], [ -73.367841427441306, 45.545401684483117 ], [ -73.361363560649949, 45.547907322802281 ], [ -73.355036690369118, 45.545217965432769 ], [ -73.355188214130081, 45.540023341154523 ], [ -73.361665429974465, 45.537518041088717 ] ] ] } },
{ "type": "Feature", "properties": { "hex_id": 685628, "centroid_lon": -72.410896855282004, "centroid_lat": 45.32243284590708, "occurrences_today": 10, "datetimes_today": "2026-02-09 00:01:45, 2026-02-09 00:16:47, 2026-02-09 00:31:22, 2026-02-09 00:45:22, 2026-02-09 00:47:23, 2026-02-09 01:01:45, 2026-02-09 01:16:43, 2026-02-09 01:31:26, 2026-02-09 01:46:46, 2026-02-09 02:01:47", "cumulative_total": 15.0 }, "geometry": { "type": "Polygon", "coordinates": [ [ [ -72.411133455028633, 45.317241186591993 ], [ -72.417388203248734, 45.319981395540808 ], [ -72.417152152203499, 45.325173077995252 ], [ -72.410660191109258, 45.327624499514691 ], [ -72.404404958624653, 45.324883913549726 ], [ -72.404642171477306, 45.319692283145187 ], [ -72.411133455028633, 45.317241186591993 ] ] ] } },
{ "type": "Feature", "properties": { "hex_id": 850514, "centroid_lon": -70.630889549885026, "centroid_lat": 46.063283275198678, "occurrences_today": 5, "datetimes_today": "2026-02-09 08:16:26, 2026-02-09 08:31:40, 2026-02-09 08:46:24, 2026-02-09 08:46:26, 2026-02-09 09:01:39", "cumulative_total": 15.0 }, "geometry": { "type": "Polygon", "coordinates": [ [ [ -70.631299000426139, 46.058102102037978 ], [ -70.637539842217308, 46.060939358517949 ], [ -70.637130935006809, 46.066120572254668 ], [ -70.630479987047707, 46.068464440816676 ], [ -70.624238714241187, 46.065626783116919 ], [ -70.624648820371021, 46.06044565813945 ], [ -70.631299000426139, 46.058102102037978 ] ] ] } },
{ "type": "Feature", "properties": { "hex_id": 851124, "centroid_lon": -70.625058814060651, "centroid_lat": 46.055264525611506, "occurrences_today": 5, "datetimes_today": "2026-02-09 08:16:26, 2026-02-09 08:31:40, 2026-02-09 08:46:24, 2026-02-09 08:46:26, 2026-02-09 09:01:39", "cumulative_total": 15.0 }, "geometry": { "type": "Polygon", "coordinates": [ [ [ -70.625468695348204, 46.050083385534109 ], [ -70.631708338709103, 46.052920921335506 ], [ -70.631299000426139, 46.058102102037978 ], [ -70.624648820371021, 46.06044565813945 ], [ -70.618408746426681, 46.057607721180368 ], [ -70.618819283082786, 46.052426629342008 ], [ -70.625468695348204, 46.050083385534109 ] ] ] } },
{ "type": "Feature", "properties": { "hex_id": 851735, "centroid_lon": -70.61799809718643, "centroid_lat": 46.062788805460535, "occurrences_today": 5, "datetimes_today": "2026-02-09 08:16:26, 2026-02-09 08:31:40, 2026-02-09 08:46:24, 2026-02-09 08:46:26, 2026-02-09 09:01:39", "cumulative_total": 15.0 }, "geometry": { "type": "Polygon", "coordinates": [ [ [ -70.618408746426681, 46.057607721180368 ], [ -70.624648820371021, 46.06044565813945 ], [ -70.624238714241187, 46.065626783116919 ], [ -70.617587335323876, 46.067969882181529 ], [ -70.611346830910563, 46.065131543910191 ], [ -70.611758135845321, 46.059950507951022 ], [ -70.618408746426681, 46.057607721180368 ] ] ] } },
{ "type": "Feature", "properties": { "hex_id": 588573, "centroid_lon": -73.41847867110971, "centroid_lat": 45.566901310352499, "occurrences_today": 10, "datetimes_today": "2026-02-09 00:01:45, 2026-02-09 00:16:47, 2026-02-09 00:31:22, 2026-02-09 00:45:22, 2026-02-09 00:47:23, 2026-02-09 01:01:45, 2026-02-09 01:16:43, 2026-02-09 01:31:26, 2026-02-09 01:46:46, 2026-02-09 02:01:47", "cumulative_total": 44.0 }, "geometry": { "type": "Polygon", "coordinates": [ [ [ -73.418624462633971, 45.561706543629427 ], [ -73.424956292231911, 45.564392435248223 ], [ -73.42481107071535, 45.569587215362795 ], [ -73.418332839744508, 45.572096071966449 ], [ -73.412000479986489, 45.569409809219103 ], [ -73.412146881346004, 45.564215061061233 ], [ -73.418624462633971, 45.561706543629427 ] ] ] } },
{ "type": "Feature", "properties": { "hex_id": 589184, "centroid_lon": -73.411854038618287, "centroid_lat": 45.574604552264859, "occurrences_today": 10, "datetimes_today": "2026-02-09 00:01:45, 2026-02-09 00:16:47, 2026-02-09 00:31:22, 2026-02-09 00:45:22, 2026-02-09 00:47:23, 2026-02-09 01:01:45, 2026-02-09 01:16:43, 2026-02-09 01:31:26, 2026-02-09 01:46:46, 2026-02-09 02:01:47", "cumulative_total": 21.0 }, "geometry": { "type": "Polygon", "coordinates": [ [ [ -73.412000479986489, 45.569409809219103 ], [ -73.418332839744508, 45.572096071966449 ], [ -73.418186968524978, 45.577290828471142 ], [ -73.411707557227984, 45.579799290198402 ], [ -73.405374667350131, 45.577112656163273 ], [ -73.405521718875661, 45.571917931753298 ], [ -73.412000479986489, 45.569409809219103 ] ] ] } },
{ "type": "Feature", "properties": { "hex_id": 589794, "centroid_lon": -73.405668730224718, "centroid_lat": 45.566723202228204, "occurrences_today": 10, "datetimes_today": "2026-02-09 00:01:45, 2026-02-09 00:16:47, 2026-02-09 00:31:22, 2026-02-09 00:45:22, 2026-02-09 00:47:23, 2026-02-09 01:01:45, 2026-02-09 01:16:43, 2026-02-09 01:31:26, 2026-02-09 01:46:46, 2026-02-09 02:01:47", "cumulative_total": 21.0 }, "geometry": { "type": "Polygon", "coordinates": [ [ [ -73.405815701410816, 45.561528467588133 ], [ -73.412146881346004, 45.564215061061233 ], [ -73.412000479986489, 45.569409809219103 ], [ -73.405521718875661, 45.571917931753298 ], [ -73.399190009283615, 45.569230967035644 ], [ -73.399337590445754, 45.564036251092936 ], [ -73.405815701410816, 45.561528467588133 ] ] ] } },
{ "type": "Feature", "properties": { "hex_id": 685629, "centroid_lon": -72.410186669399408, "centroid_lat": 45.338007789606039, "occurrences_today": 10, "datetimes_today": "2026-02-09 00:01:45, 2026-02-09 00:16:47, 2026-02-09 00:31:22, 2026-02-09 00:45:22, 2026-02-09 00:47:23, 2026-02-09 01:01:45, 2026-02-09 01:16:43, 2026-02-09 01:31:26, 2026-02-09 01:46:46, 2026-02-09 02:01:47", "cumulative_total": 11.0 }, "geometry": { "type": "Polygon", "coordinates": [ [ [ -72.410423462488893, 45.332816147414448 ], [ -72.416679857254223, 45.335556425794884 ], [ -72.416443613307294, 45.340748091139425 ], [ -72.409949811819288, 45.343199426089136 ], [ -72.403692932412795, 45.34045877048765 ], [ -72.403930339113955, 45.335267157221281 ], [ -72.410423462488893, 45.332816147414448 ] ] ] } },
{ "type": "Feature", "properties": { "hex_id": 686240, "centroid_lon": -72.403455461052346, "centroid_lat": 45.345650378040624, "occurrences_today": 10, "datetimes_today": "2026-02-09 00:01:45, 2026-02-09 00:16:47, 2026-02-09 00:31:22, 2026-02-09 00:45:22, 2026-02-09 00:47:23, 2026-02-09 01:01:45, 2026-02-09 01:16:43, 2026-02-09 01:31:26, 2026-02-09 01:46:46, 2026-02-09 02:01:47", "cumulative_total": 11.0 }, "geometry": { "type": "Polygon", "coordinates": [ [ [ -72.403692932412795, 45.34045877048765 ], [ -72.409949811819288, 45.343199426089136 ], [ -72.409712889727018, 45.348391056863392 ], [ -72.40321792501102, 45.350841979879853 ], [ -72.396960561028024, 45.348100946901617 ], [ -72.397198646315942, 45.342909368347456 ], [ -72.403692932412795, 45.34045877048765 ] ] ] } },
{ "type": "Feature", "properties": { "hex_id": 686851, "centroid_lon": -72.396722410890462, "centroid_lat": 45.35329251973716, "occurrences_today": 10, "datetimes_today": "2026-02-09 00:01:45, 2026-02-09 00:16:47, 2026-02-09 00:31:22, 2026-02-09 00:45:22, 2026-02-09 00:47:23, 2026-02-09 01:01:45, 2026-02-09 01:16:43, 2026-02-09 01:31:26, 2026-02-09 01:46:46, 2026-02-09 02:01:47", "cumulative_total": 11.0 }, "geometry": { "type": "Polygon", "coordinates": [ [ [ -72.396960561028024, 45.348100946901617 ], [ -72.40321792501102, 45.350841979879853 ], [ -72.402980324267233, 45.356033576005039 ], [ -72.396484195881612, 45.358484086853736 ], [ -72.390226347386957, 45.35574267634302 ], [ -72.390465111767924, 45.350551132579874 ], [ -72.396960561028024, 45.348100946901617 ] ] ] } },
{ "type": "Feature", "properties": { "hex_id": 688072, "centroid_lon": -72.383969113293716, "centroid_lat": 45.353000934983164, "occurrences_today": 10, "datetimes_today": "2026-02-09 00:01:45, 2026-02-09 00:16:47, 2026-02-09 00:31:22, 2026-02-09 00:45:22, 2026-02-09 00:47:23, 2026-02-09 01:01:45, 2026-02-09 01:16:43, 2026-02-09 01:31:26, 2026-02-09 01:46:46, 2026-02-09 02:01:47", "cumulative_total": 11.0 }, "geometry": { "type": "Polygon", "coordinates": [ [ [ -72.384208426877933, 45.347809414632678 ], [ -72.390465111767924, 45.350551132579874 ], [ -72.390226347386957, 45.35574267634302 ], [ -72.383729734522177, 45.358192449605163 ], [ -72.377472565627144, 45.35545035401919 ], [ -72.377712493580162, 45.350258862873638 ], [ -72.384208426877933, 45.347809414632678 ] ] ] } },
{ "type": "Feature", "properties": { "hex_id": 688683, "centroid_lon": -72.37723257231788, "centroid_lat": 45.36064183943131, "occurrences_today": 10, "datetimes_today": "2026-02-09 00:01:45, 2026-02-09 00:16:47, 2026-02-09 00:31:22, 2026-02-09 00:45:22, 2026-02-09 00:47:23, 2026-02-09 01:01:45, 2026-02-09 01:16:43, 2026-02-09 01:31:26, 2026-02-09 01:46:46, 2026-02-09 02:01:47", "cumulative_total": 11.0 }, "geometry": { "type": "Polygon", "coordinates": [ [ [ -72.377472565627144, 45.35545035401919 ], [ -72.383729734522177, 45.358192449605163 ], [ -72.383490290541545, 45.363383958498318 ], [ -72.376992513630569, 45.365833319109655 ], [ -72.370734860795864, 45.363090845729197 ], [ -72.370975468789979, 45.35789938959573 ], [ -72.377472565627144, 45.35545035401919 ] ] ] } },
{ "type": "Feature", "properties": { "hex_id": 690514, "centroid_lon": -72.358463105734103, "centroid_lat": 45.352413498016958, "occurrences_today": 10, "datetimes_today": "2026-02-09 00:01:45, 2026-02-09 00:16:47, 2026-02-09 00:31:22, 2026-02-09 00:45:22, 2026-02-09 00:47:23, 2026-02-09 01:01:45, 2026-02-09 01:16:43, 2026-02-09 01:31:26, 2026-02-09 01:46:46, 2026-02-09 02:01:47", "cumulative_total": 11.0 }, "geometry": { "type": "Polygon", "coordinates": [ [ [ -72.358704746015533, 45.347222083403118 ], [ -72.364960071395686, 45.349965170818663 ], [ -72.364718979936029, 45.355156609091097 ], [ -72.358221399633365, 45.357604906883161 ], [ -72.351965591261717, 45.354861441616606 ], [ -72.352207846162244, 45.349670056472789 ], [ -72.358704746015533, 45.347222083403118 ] ] ] } },
{ "type": "Feature", "properties": { "hex_id": 849904, "centroid_lon": -70.636721915644173, "centroid_lat": 46.071301778456366, "occurrences_today": 5, "datetimes_today": "2026-02-09 08:16:26, 2026-02-09 08:31:40, 2026-02-09 08:46:24, 2026-02-09 08:46:26, 2026-02-09 09:01:39", "cumulative_total": 5.0 }, "geometry": { "type": "Polygon", "coordinates": [ [ [ -70.637130935006809, 46.066120572254668 ], [ -70.643372975774454, 46.068957549203887 ], [ -70.642964500068629, 46.074138795932477 ], [ -70.636312784091331, 46.076482977122041 ], [ -70.630070311876096, 46.073645598890955 ], [ -70.630479987047707, 46.068464440816676 ], [ -70.637130935006809, 46.066120572254668 ] ] ] } },
{ "type": "Feature", "properties": { "hex_id": 850515, "centroid_lon": -70.629660524332053, "centroid_lat": 46.078826749420493, "occurrences_today": 5, "datetimes_today": "2026-02-09 08:16:26, 2026-02-09 08:31:40, 2026-02-09 08:46:24, 2026-02-09 08:46:26, 2026-02-09 09:01:39", "cumulative_total": 5.0 }, "geometry": { "type": "Polygon", "coordinates": [ [ [ -70.630070311876096, 46.073645598890955 ], [ -70.636312784091331, 46.076482977122041 ], [ -70.63590354031021, 46.081664168250711 ], [ -70.629250624377477, 46.084007892404301 ], [ -70.623007720828952, 46.081170112736629 ], [ -70.623418164508308, 46.075989010416507 ], [ -70.630070311876096, 46.073645598890955 ] ] ] } },
{ "type": "Feature", "properties": { "hex_id": 851125, "centroid_lon": -70.623828495632992, "centroid_lat": 46.070807900542952, "occurrences_today": 5, "datetimes_today": "2026-02-09 08:16:26, 2026-02-09 08:31:40, 2026-02-09 08:46:24, 2026-02-09 08:46:26, 2026-02-09 09:01:39", "cumulative_total": 5.0 }, "geometry": { "type": "Polygon", "coordinates": [ [ [ -70.624238714241187, 46.065626783116919 ], [ -70.630479987047707, 46.068464440816676 ], [ -70.630070311876096, 46.073645598890955 ], [ -70.623418164508308, 46.075989010416507 ], [ -70.617176460800792, 46.073150951342335 ], [ -70.617587335323876, 46.067969882181529 ], [ -70.624238714241187, 46.065626783116919 ] ] ] } },
{ "type": "Feature", "properties": { "hex_id": 851126, "centroid_lon": -70.622597164556709, "centroid_lat": 46.086351207502304, "occurrences_today": 5, "datetimes_today": "2026-02-09 08:16:26, 2026-02-09 08:31:40, 2026-02-09 08:46:24, 2026-02-09 08:46:26, 2026-02-09 09:01:39", "cumulative_total": 5.0 }, "geometry": { "type": "Polygon", "coordinates": [ [ [ -70.623007720828952, 46.081170112736629 ], [ -70.629250624377477, 46.084007892404301 ], [ -70.628840611974198, 46.089189027841392 ], [ -70.622186495653366, 46.091532294712515 ], [ -70.61594316088609, 46.088694113453556 ], [ -70.61635437362014, 46.083513066979343 ], [ -70.623007720828952, 46.081170112736629 ] ] ] } },
{ "type": "Feature", "properties": { "hex_id": 851736, "centroid_lon": -70.616765473578965, "centroid_lat": 46.078332012941935, "occurrences_today": 5, "datetimes_today": "2026-02-09 08:16:26, 2026-02-09 08:31:40, 2026-02-09 08:46:24, 2026-02-09 08:46:26, 2026-02-09 09:01:39", "cumulative_total": 5.0 }, "geometry": { "type": "Polygon", "coordinates": [ [ [ -70.617176460800792, 46.073150951342335 ], [ -70.623418164508308, 46.075989010416507 ], [ -70.623007720828952, 46.081170112736629 ], [ -70.61635437362014, 46.083513066979343 ], [ -70.610112239126281, 46.080674606376078 ], [ -70.610523882589305, 46.075493593123724 ], [ -70.617176460800792, 46.073150951342335 ] ] ] } },
{ "type": "Feature", "properties": { "hex_id": 852346, "centroid_lon": -70.610935413171305, "centroid_lat": 46.070312572301432, "occurrences_today": 5, "datetimes_today": "2026-02-09 08:16:26, 2026-02-09 08:31:40, 2026-02-09 08:46:24, 2026-02-09 08:46:26, 2026-02-09 09:01:39", "cumulative_total": 5.0 }, "geometry": { "type": "Polygon", "coordinates": [ [ [ -70.611346830910563, 46.065131543910191 ], [ -70.617587335323876, 46.067969882181529 ], [ -70.617176460800792, 46.073150951342335 ], [ -70.610523882589305, 46.075493593123724 ], [ -70.604282947821716, 46.072654853385544 ], [ -70.604695021581605, 46.067473873397319 ], [ -70.611346830910563, 46.065131543910191 ] ] ] } },
{ "type": "Feature", "properties": { "hex_id": 852956, "centroid_lon": -70.605106982354798, "centroid_lat": 46.062292885832406, "occurrences_today": 5, "datetimes_today": "2026-02-09 08:16:26, 2026-02-09 08:31:40, 2026-02-09 08:46:24, 2026-02-09 08:46:26, 2026-02-09 09:01:39", "cumulative_total": 5.0 }, "geometry": { "type": "Polygon", "coordinates": [ [ [ -70.605518830179619, 46.057111890691822 ], [ -70.611758135845321, 46.059950507951022 ], [ -70.611346830910563, 46.065131543910191 ], [ -70.604695021581605, 46.067473873397319 ], [ -70.598455285993367, 46.064634854733505 ], [ -70.598867789618311, 46.059453908051672 ], [ -70.605518830179619, 46.057111890691822 ] ] ] } },
{ "type": "Feature", "properties": { "hex_id": 852957, "centroid_lon": -70.603870761036802, "centroid_lat": 46.077835825796051, "occurrences_today": 5, "datetimes_today": "2026-02-09 08:16:26, 2026-02-09 08:31:40, 2026-02-09 08:46:24, 2026-02-09 08:46:26, 2026-02-09 09:01:39", "cumulative_total": 5.0 }, "geometry": { "type": "Polygon", "coordinates": [ [ [ -70.604282947821716, 46.072654853385544 ], [ -70.610523882589305, 46.075493593123724 ], [ -70.610112239126281, 46.080674606376078 ], [ -70.603458461188538, 46.083016790627845 ], [ -70.597217096181609, 46.080177649268173 ], [ -70.597629939313407, 46.074996725342764 ], [ -70.604282947821716, 46.072654853385544 ] ] ] } },
{ "type": "Feature", "properties": { "hex_id": 853567, "centroid_lon": -70.598042669237856, "centroid_lat": 46.069815793830891, "occurrences_today": 5, "datetimes_today": "2026-02-09 08:16:26, 2026-02-09 08:31:40, 2026-02-09 08:46:24, 2026-02-09 08:46:26, 2026-02-09 09:01:39", "cumulative_total": 5.0 }, "geometry": { "type": "Polygon", "coordinates": [ [ [ -70.598455285993367, 46.064634854733505 ], [ -70.604695021581605, 46.067473873397319 ], [ -70.604282947821716, 46.072654853385544 ], [ -70.597629939313407, 46.074996725342764 ], [ -70.591389773917683, 46.072157305119795 ], [ -70.59180304679937, 46.06697641456325 ], [ -70.598455285993367, 46.064634854733505 ] ] ] } },
{ "type": "Feature", "properties": { "hex_id": 594677, "centroid_lon": -73.354885125212931, "centroid_lat": 45.550412584572577, "occurrences_today": 3, "datetimes_today": "2026-02-09 08:46:24, 2026-02-09 08:46:26, 2026-02-09 09:01:39", "cumulative_total": 3.0 }, "geometry": { "type": "Polygon", "coordinates": [ [ [ -73.355036690369118, 45.545217965432769 ], [ -73.361363560649949, 45.547907322802281 ], [ -73.361212564132487, 45.553101955955896 ], [ -73.354733518647564, 45.555607198573824 ], [ -73.348406121144095, 45.552917469699445 ], [ -73.348558296334289, 45.547722869776564 ], [ -73.355036690369118, 45.545217965432769 ] ] ] } },
{ "type": "Feature", "properties": { "hex_id": 661821, "centroid_lon": -72.657885002934449, "centroid_lat": 45.366745308228843, "occurrences_today": 3, "datetimes_today": "2026-02-09 08:46:24, 2026-02-09 08:46:26, 2026-02-09 09:01:39", "cumulative_total": 3.0 }, "geometry": { "type": "Polygon", "coordinates": [ [ [ -72.658099376141195, 45.361552724087979 ], [ -72.664371393896317, 45.36427971207516 ], [ -72.664157574180464, 45.369472316982971 ], [ -72.657670571312309, 45.371937886835141 ], [ -72.651398058491424, 45.369210523417145 ], [ -72.651613043584959, 45.364017965641743 ], [ -72.658099376141195, 45.361552724087979 ] ] ] } },
{ "type": "Feature", "properties": { "hex_id": 662431, "centroid_lon": -72.651827970114496, "centroid_lat": 45.358825402327597, "occurrences_today": 3, "datetimes_today": "2026-02-09 08:46:24, 2026-02-09 08:46:26, 2026-02-09 09:01:39", "cumulative_total": 3.0 }, "geometry": { "type": "Polygon", "coordinates": [ [ [ -72.65204283809959, 45.353632833475011 ], [ -72.65831369095207, 45.356360134412796 ], [ -72.658099376141195, 45.361552724087979 ], [ -72.651613043584959, 45.364017965641743 ], [ -72.645341696112482, 45.361290289320884 ], [ -72.645557175796668, 45.356097746893248 ], [ -72.65204283809959, 45.353632833475011 ] ] ] } },
{ "type": "Feature", "properties": { "hex_id": 663042, "centroid_lon": -72.645126157715723, "centroid_lat": 45.366482826205655, "occurrences_today": 3, "datetimes_today": "2026-02-09 08:46:24, 2026-02-09 08:46:26, 2026-02-09 09:01:39", "cumulative_total": 3.0 }, "geometry": { "type": "Polygon", "coordinates": [ [ [ -72.645341696112482, 45.361290289320884 ], [ -72.651613043584959, 45.364017965641743 ], [ -72.651398058491424, 45.369210523417145 ], [ -72.644910560586794, 45.371675357547275 ], [ -72.638638718553068, 45.368947305686994 ], [ -72.638854868965595, 45.363754795299954 ], [ -72.645341696112482, 45.361290289320884 ] ] ] } },
{ "type": "Feature", "properties": { "hex_id": 663652, "centroid_lon": -72.639070960497421, "centroid_lat": 45.358562279365586, "occurrences_today": 3, "datetimes_today": "2026-02-09 08:46:24, 2026-02-09 08:46:26, 2026-02-09 09:01:39", "cumulative_total": 3.0 }, "geometry": { "type": "Polygon", "coordinates": [ [ [ -72.63928699316817, 45.353369757884181 ], [ -72.645557175796668, 45.356097746893248 ], [ -72.645341696112482, 45.361290289320884 ], [ -72.638854868965595, 45.363754795299954 ], [ -72.632584192221429, 45.361026430799292 ], [ -72.632800836720151, 45.355833935875076 ], [ -72.63928699316817, 45.353369757884181 ] ] ] } }
]
}
