{
"type": "FeatureCollection",
"name": "daily_2025-12-06",
"crs": { "type": "name", "properties": { "name": "urn:ogc:def:crs:OGC:1.3:CRS84" } },
"features": [
{ "type": "Feature", "properties": { "hex_id": 25, "count": 1, "date": "2025-12-06", "n_files": 22, "pct": 4.55 }, "geometry": { "type": "Polygon", "coordinates": [ [ [ -74.99153, 46.4822901 ], [ -74.991526, 46.5082696 ], [ -75.0241176, 46.521257 ], [ -75.0566978, 46.5082558 ], [ -75.0566708, 46.4822763 ], [ -75.0240947, 46.469298 ], [ -74.99153, 46.4822901 ] ] ] } },
{ "type": "Feature", "properties": { "hex_id": 658, "count": 8, "date": "2025-12-06", "n_files": 22, "pct": 36.36 }, "geometry": { "type": "Polygon", "coordinates": [ [ [ -74.6691212, 45.9362146 ], [ -74.6689666, 45.9621961 ], [ -74.7011606, 45.9752758 ], [ -74.7334944, 45.9623648 ], [ -74.7336189, 45.9363831 ], [ -74.7014397, 45.9233125 ], [ -74.6691212, 45.9362146 ] ] ] } },
{ "type": "Feature", "properties": { "hex_id": 659, "count": 8, "date": "2025-12-06", "n_files": 22, "pct": 36.36 }, "geometry": { "type": "Polygon", "coordinates": [ [ [ -74.6686567, 46.0141589 ], [ -74.6685014, 46.040140099999988 ], [ -74.7007404, 46.0532198 ], [ -74.7331199, 46.0403092 ], [ -74.7332449, 46.0143279 ], [ -74.7010207, 46.0012572 ], [ -74.6686567, 46.0141589 ] ] ] } },
{ "type": "Feature", "properties": { "hex_id": 722, "count": 8, "date": "2025-12-06", "n_files": 22, "pct": 36.36 }, "geometry": { "type": "Polygon", "coordinates": [ [ [ -74.6371267, 45.8971442 ], [ -74.6369574, 45.923125899999988 ], [ -74.6691212, 45.9362146 ], [ -74.7014397, 45.9233125 ], [ -74.701579, 45.8973307 ], [ -74.6694298, 45.8842511 ], [ -74.6371267, 45.8971442 ] ] ] } },
{ "type": "Feature", "properties": { "hex_id": 723, "count": 8, "date": "2025-12-06", "n_files": 22, "pct": 36.36 }, "geometry": { "type": "Polygon", "coordinates": [ [ [ -74.636618, 45.9750888 ], [ -74.6364479, 46.0010701 ], [ -74.6686567, 46.0141589 ], [ -74.7010207, 46.0012572 ], [ -74.7011606, 45.9752758 ], [ -74.6689666, 45.9621961 ], [ -74.636618, 45.9750888 ] ] ] } },
{ "type": "Feature", "properties": { "hex_id": 724, "count": 8, "date": "2025-12-06", "n_files": 22, "pct": 36.36 }, "geometry": { "type": "Polygon", "coordinates": [ [ [ -74.6361071, 46.0530323 ], [ -74.6359364, 46.0790132 ], [ -74.6681902, 46.0921021 ], [ -74.7006, 46.079200899999989 ], [ -74.7007404, 46.0532198 ], [ -74.6685014, 46.040140099999988 ], [ -74.6361071, 46.0530323 ] ] ] } },
{ "type": "Feature", "properties": { "hex_id": 785, "count": 8, "date": "2025-12-06", "n_files": 22, "pct": 36.36 }, "geometry": { "type": "Polygon", "coordinates": [ [ [ -74.605177, 45.8580648 ], [ -74.604993, 45.8840465 ], [ -74.6371267, 45.8971442 ], [ -74.6694298, 45.8842511 ], [ -74.6695838, 45.8582692 ], [ -74.6374647, 45.8451806 ], [ -74.605177, 45.8580648 ] ] ] } },
{ "type": "Feature", "properties": { "hex_id": 786, "count": 8, "date": "2025-12-06", "n_files": 22, "pct": 36.36 }, "geometry": { "type": "Polygon", "coordinates": [ [ [ -74.6046242, 45.9360096 ], [ -74.6044394, 45.961991 ], [ -74.636618, 45.9750888 ], [ -74.6689666, 45.9621961 ], [ -74.6691212, 45.9362146 ], [ -74.6369574, 45.923125899999988 ], [ -74.6046242, 45.9360096 ] ] ] } },
{ "type": "Feature", "properties": { "hex_id": 787, "count": 8, "date": "2025-12-06", "n_files": 22, "pct": 36.36 }, "geometry": { "type": "Polygon", "coordinates": [ [ [ -74.6040691, 46.0139534 ], [ -74.6038836, 46.0399344 ], [ -74.6361071, 46.0530323 ], [ -74.6685014, 46.040140099999988 ], [ -74.6686567, 46.0141589 ], [ -74.6364479, 46.0010701 ], [ -74.6040691, 46.0139534 ] ] ] } },
{ "type": "Feature", "properties": { "hex_id": 788, "count": 8, "date": "2025-12-06", "n_files": 22, "pct": 36.36 }, "geometry": { "type": "Polygon", "coordinates": [ [ [ -74.6035117, 46.091896 ], [ -74.6033254, 46.1178767 ], [ -74.6355942, 46.1309747 ], [ -74.6680343, 46.1180829 ], [ -74.6681902, 46.0921021 ], [ -74.6359364, 46.0790132 ], [ -74.6035117, 46.091896 ] ] ] } },
{ "type": "Feature", "properties": { "hex_id": 850, "count": 8, "date": "2025-12-06", "n_files": 22, "pct": 36.36 }, "geometry": { "type": "Polygon", "coordinates": [ [ [ -74.5726752, 45.8969214 ], [ -74.5724758, 45.9229028 ], [ -74.6046242, 45.9360096 ], [ -74.6369574, 45.923125899999988 ], [ -74.6371267, 45.8971442 ], [ -74.604993, 45.8840465 ], [ -74.5726752, 45.8969214 ] ] ] } },
{ "type": "Feature", "properties": { "hex_id": 851, "count": 8, "date": "2025-12-06", "n_files": 22, "pct": 36.36 }, "geometry": { "type": "Polygon", "coordinates": [ [ [ -74.5720761, 45.9748653 ], [ -74.5718758, 46.0008464 ], [ -74.6040691, 46.0139534 ], [ -74.6364479, 46.0010701 ], [ -74.636618, 45.9750888 ], [ -74.6044394, 45.961991 ], [ -74.5720761, 45.9748653 ] ] ] } },
{ "type": "Feature", "properties": { "hex_id": 852, "count": 8, "date": "2025-12-06", "n_files": 22, "pct": 36.36 }, "geometry": { "type": "Polygon", "coordinates": [ [ [ -74.5714745, 46.0528082 ], [ -74.5712734, 46.078789 ], [ -74.6035117, 46.091896 ], [ -74.6359364, 46.0790132 ], [ -74.6361071, 46.0530323 ], [ -74.6038836, 46.0399344 ], [ -74.5714745, 46.0528082 ] ] ] } },
{ "type": "Feature", "properties": { "hex_id": 913, "count": 8, "date": "2025-12-06", "n_files": 22, "pct": 36.36 }, "geometry": { "type": "Polygon", "coordinates": [ [ [ -74.5407709, 45.8578241 ], [ -74.5405568, 45.8838056 ], [ -74.5726752, 45.8969214 ], [ -74.604993, 45.8840465 ], [ -74.605177, 45.8580648 ], [ -74.5730732, 45.8449581 ], [ -74.5407709, 45.8578241 ] ] ] } },
{ "type": "Feature", "properties": { "hex_id": 914, "count": 8, "date": "2025-12-06", "n_files": 22, "pct": 36.36 }, "geometry": { "type": "Polygon", "coordinates": [ [ [ -74.5401279, 45.9357683 ], [ -74.539913, 45.9617494 ], [ -74.5720761, 45.9748653 ], [ -74.6044394, 45.961991 ], [ -74.6046242, 45.9360096 ], [ -74.5724758, 45.9229028 ], [ -74.5401279, 45.9357683 ] ] ] } },
{ "type": "Feature", "properties": { "hex_id": 915, "count": 8, "date": "2025-12-06", "n_files": 22, "pct": 36.36 }, "geometry": { "type": "Polygon", "coordinates": [ [ [ -74.5394823, 46.0137114 ], [ -74.5392665, 46.0396922 ], [ -74.5714745, 46.0528082 ], [ -74.6038836, 46.0399344 ], [ -74.6040691, 46.0139534 ], [ -74.5718758, 46.0008464 ], [ -74.5394823, 46.0137114 ] ] ] } },
{ "type": "Feature", "properties": { "hex_id": 916, "count": 8, "date": "2025-12-06", "n_files": 22, "pct": 36.36 }, "geometry": { "type": "Polygon", "coordinates": [ [ [ -74.538834, 46.0916534 ], [ -74.5386173, 46.1176338 ], [ -74.5708704, 46.1307501 ], [ -74.6033254, 46.1178767 ], [ -74.6035117, 46.091896 ], [ -74.5712734, 46.078789 ], [ -74.538834, 46.0916534 ] ] ] } },
{ "type": "Feature", "properties": { "hex_id": 978, "count": 8, "date": "2025-12-06", "n_files": 22, "pct": 36.36 }, "geometry": { "type": "Polygon", "coordinates": [ [ [ -74.5082245, 45.8966622 ], [ -74.507995, 45.9226434 ], [ -74.5401279, 45.9357683 ], [ -74.5724758, 45.9229028 ], [ -74.5726752, 45.8969214 ], [ -74.5405568, 45.8838056 ], [ -74.5082245, 45.8966622 ] ] ] } },
{ "type": "Feature", "properties": { "hex_id": 979, "count": 8, "date": "2025-12-06", "n_files": 22, "pct": 36.36 }, "geometry": { "type": "Polygon", "coordinates": [ [ [ -74.507535, 45.9746055 ], [ -74.5073046, 46.0005863 ], [ -74.5394823, 46.0137114 ], [ -74.5718758, 46.0008464 ], [ -74.5720761, 45.9748653 ], [ -74.539913, 45.9617494 ], [ -74.507535, 45.9746055 ] ] ] } },
{ "type": "Feature", "properties": { "hex_id": 980, "count": 8, "date": "2025-12-06", "n_files": 22, "pct": 36.36 }, "geometry": { "type": "Polygon", "coordinates": [ [ [ -74.5068427, 46.0525477 ], [ -74.5066113, 46.0785281 ], [ -74.538834, 46.0916534 ], [ -74.5712734, 46.078789 ], [ -74.5714745, 46.0528082 ], [ -74.5392665, 46.0396922 ], [ -74.5068427, 46.0525477 ] ] ] } },
{ "type": "Feature", "properties": { "hex_id": 981, "count": 1, "date": "2025-12-06", "n_files": 22, "pct": 4.55 }, "geometry": { "type": "Polygon", "coordinates": [ [ [ -74.506147500000012, 46.1304888 ], [ -74.5059152, 46.1564689 ], [ -74.538183, 46.1695943 ], [ -74.5706685, 46.1567304 ], [ -74.5708704, 46.1307501 ], [ -74.5386173, 46.1176338 ], [ -74.506147500000012, 46.1304888 ] ] ] } },
{ "type": "Feature", "properties": { "hex_id": 1042, "count": 8, "date": "2025-12-06", "n_files": 22, "pct": 36.36 }, "geometry": { "type": "Polygon", "coordinates": [ [ [ -74.4756325, 45.9354905 ], [ -74.475387500000011, 45.9614714 ], [ -74.507535, 45.9746055 ], [ -74.539913, 45.9617494 ], [ -74.5401279, 45.9357683 ], [ -74.507995, 45.9226434 ], [ -74.4756325, 45.9354905 ] ] ] } },
{ "type": "Feature", "properties": { "hex_id": 1043, "count": 8, "date": "2025-12-06", "n_files": 22, "pct": 36.36 }, "geometry": { "type": "Polygon", "coordinates": [ [ [ -74.4748964, 46.0134329 ], [ -74.4746503, 46.0394134 ], [ -74.5068427, 46.0525477 ], [ -74.5392665, 46.0396922 ], [ -74.5394823, 46.0137114 ], [ -74.5073046, 46.0005863 ], [ -74.4748964, 46.0134329 ] ] ] } },
{ "type": "Feature", "properties": { "hex_id": 1044, "count": 9, "date": "2025-12-06", "n_files": 22, "pct": 40.91 }, "geometry": { "type": "Polygon", "coordinates": [ [ [ -74.4741572, 46.0913742 ], [ -74.4739101, 46.1173543 ], [ -74.506147500000012, 46.1304888 ], [ -74.5386173, 46.1176338 ], [ -74.538834, 46.0916534 ], [ -74.5066113, 46.0785281 ], [ -74.4741572, 46.0913742 ] ] ] } },
{ "type": "Feature", "properties": { "hex_id": 1045, "count": 1, "date": "2025-12-06", "n_files": 22, "pct": 4.55 }, "geometry": { "type": "Polygon", "coordinates": [ [ [ -74.4734149, 46.1693143 ], [ -74.4731668, 46.1952942 ], [ -74.5054495, 46.2084288 ], [ -74.5379655, 46.1955744 ], [ -74.538183, 46.1695943 ], [ -74.5059152, 46.1564689 ], [ -74.4734149, 46.1693143 ] ] ] } },
{ "type": "Feature", "properties": { "hex_id": 1106, "count": 8, "date": "2025-12-06", "n_files": 22, "pct": 36.36 }, "geometry": { "type": "Polygon", "coordinates": [ [ [ -74.4437747, 45.8963666 ], [ -74.4435151, 45.9223476 ], [ -74.4756325, 45.9354905 ], [ -74.507995, 45.9226434 ], [ -74.5082245, 45.8966622 ], [ -74.4761216, 45.8835284 ], [ -74.4437747, 45.8963666 ] ] ] } },
{ "type": "Feature", "properties": { "hex_id": 1107, "count": 8, "date": "2025-12-06", "n_files": 22, "pct": 36.36 }, "geometry": { "type": "Polygon", "coordinates": [ [ [ -74.4429949, 45.9743091 ], [ -74.4427342, 46.0002897 ], [ -74.4748964, 46.0134329 ], [ -74.5073046, 46.0005863 ], [ -74.507535, 45.9746055 ], [ -74.475387500000011, 45.9614714 ], [ -74.4429949, 45.9743091 ] ] ] } },
{ "type": "Feature", "properties": { "hex_id": 1108, "count": 8, "date": "2025-12-06", "n_files": 22, "pct": 36.36 }, "geometry": { "type": "Polygon", "coordinates": [ [ [ -74.4422119, 46.0522505 ], [ -74.4419501, 46.0782307 ], [ -74.4741572, 46.0913742 ], [ -74.5066113, 46.0785281 ], [ -74.5068427, 46.0525477 ], [ -74.4746503, 46.0394134 ], [ -74.4422119, 46.0522505 ] ] ] } },
{ "type": "Feature", "properties": { "hex_id": 1109, "count": 1, "date": "2025-12-06", "n_files": 22, "pct": 4.55 }, "geometry": { "type": "Polygon", "coordinates": [ [ [ -74.4414256, 46.1301908 ], [ -74.4411628, 46.1561707 ], [ -74.4734149, 46.1693143 ], [ -74.5059152, 46.1564689 ], [ -74.506147500000012, 46.1304888 ], [ -74.4739101, 46.1173543 ], [ -74.4414256, 46.1301908 ] ] ] } },
{ "type": "Feature", "properties": { "hex_id": 1170, "count": 8, "date": "2025-12-06", "n_files": 22, "pct": 36.36 }, "geometry": { "type": "Polygon", "coordinates": [ [ [ -74.4111381, 45.9351764 ], [ -74.410863, 45.961157 ], [ -74.4429949, 45.9743091 ], [ -74.475387500000011, 45.9614714 ], [ -74.4756325, 45.9354905 ], [ -74.4435151, 45.9223476 ], [ -74.4111381, 45.9351764 ] ] ] } },
{ "type": "Feature", "properties": { "hex_id": 1300, "count": 1, "date": "2025-12-06", "n_files": 22, "pct": 4.55 }, "geometry": { "type": "Polygon", "coordinates": [ [ [ -74.3448067, 46.0907059 ], [ -74.3444988, 46.1166855 ], [ -74.3767047, 46.1298562 ], [ -74.4092039, 46.1170382 ], [ -74.4094814, 46.0910583 ], [ -74.37729, 46.0778967 ], [ -74.3448067, 46.0907059 ] ] ] } },
{ "type": "Feature", "properties": { "hex_id": 1365, "count": 1, "date": "2025-12-06", "n_files": 22, "pct": 4.55 }, "geometry": { "type": "Polygon", "coordinates": [ [ [ -74.3119851, 46.129485 ], [ -74.3116614, 46.1554642 ], [ -74.3438819, 46.1686443 ], [ -74.3764115, 46.1558358 ], [ -74.3767047, 46.1298562 ], [ -74.3444988, 46.1166855 ], [ -74.3119851, 46.129485 ] ] ] } },
{ "type": "Feature", "properties": { "hex_id": 1428, "count": 1, "date": "2025-12-06", "n_files": 22, "pct": 4.55 }, "geometry": { "type": "Polygon", "coordinates": [ [ [ -74.2801333, 46.0903169 ], [ -74.2797951, 46.1162961 ], [ -74.3119851, 46.129485 ], [ -74.3444988, 46.1166855 ], [ -74.3448067, 46.0907059 ], [ -74.3126312, 46.0775262 ], [ -74.2801333, 46.0903169 ] ] ] } },
{ "type": "Feature", "properties": { "hex_id": 1429, "count": 1, "date": "2025-12-06", "n_files": 22, "pct": 4.55 }, "geometry": { "type": "Polygon", "coordinates": [ [ [ -74.2791172, 46.1682542 ], [ -74.2787776, 46.194233 ], [ -74.3110127, 46.2074223 ], [ -74.3435728, 46.1946235 ], [ -74.3438819, 46.1686443 ], [ -74.3116614, 46.1554642 ], [ -74.2791172, 46.1682542 ] ] ] } },
{ "type": "Feature", "properties": { "hex_id": 1492, "count": 1, "date": "2025-12-06", "n_files": 22, "pct": 4.55 }, "geometry": { "type": "Polygon", "coordinates": [ [ [ -74.2483263, 46.0511398 ], [ -74.2479736, 46.0771191 ], [ -74.2801333, 46.0903169 ], [ -74.3126312, 46.0775262 ], [ -74.3129535, 46.0515466 ], [ -74.2808083, 46.038358 ], [ -74.2483263, 46.0511398 ] ] ] } },
{ "type": "Feature", "properties": { "hex_id": 1493, "count": 1, "date": "2025-12-06", "n_files": 22, "pct": 4.55 }, "geometry": { "type": "Polygon", "coordinates": [ [ [ -74.2472668, 46.1290771 ], [ -74.2469126, 46.155056 ], [ -74.2791172, 46.1682542 ], [ -74.3116614, 46.1554642 ], [ -74.3119851, 46.129485 ], [ -74.2797951, 46.1162961 ], [ -74.2472668, 46.1290771 ] ] ] } },
{ "type": "Feature", "properties": { "hex_id": 1556, "count": 1, "date": "2025-12-06", "n_files": 22, "pct": 4.55 }, "geometry": { "type": "Polygon", "coordinates": [ [ [ -74.2154613, 46.0898912 ], [ -74.215092700000014, 46.1158701 ], [ -74.2472668, 46.1290771 ], [ -74.2797951, 46.1162961 ], [ -74.2801333, 46.0903169 ], [ -74.2479736, 46.0771191 ], [ -74.2154613, 46.0898912 ] ] ] } },
{ "type": "Feature", "properties": { "hex_id": 1557, "count": 1, "date": "2025-12-06", "n_files": 22, "pct": 4.55 }, "geometry": { "type": "Polygon", "coordinates": [ [ [ -74.2143539, 46.1678274 ], [ -74.2139838, 46.1938059 ], [ -74.2462029, 46.2070134 ], [ -74.2787776, 46.194233 ], [ -74.2791172, 46.1682542 ], [ -74.2469126, 46.155056 ], [ -74.2143539, 46.1678274 ] ] ] } },
{ "type": "Feature", "properties": { "hex_id": 1621, "count": 1, "date": "2025-12-06", "n_files": 22, "pct": 4.55 }, "geometry": { "type": "Polygon", "coordinates": [ [ [ -74.1825499, 46.1286326 ], [ -74.1821654, 46.1546111 ], [ -74.2143539, 46.1678274 ], [ -74.2469126, 46.155056 ], [ -74.2472668, 46.1290771 ], [ -74.215092700000014, 46.1158701 ], [ -74.1825499, 46.1286326 ] ] ] } },
{ "type": "Feature", "properties": { "hex_id": 1685, "count": 1, "date": "2025-12-06", "n_files": 22, "pct": 4.55 }, "geometry": { "type": "Polygon", "coordinates": [ [ [ -74.1495922, 46.167364 ], [ -74.1491916, 46.193342 ], [ -74.1813946, 46.2065676 ], [ -74.2139838, 46.1938059 ], [ -74.2143539, 46.1678274 ], [ -74.1821654, 46.1546111 ], [ -74.1495922, 46.167364 ] ] ] } },
{ "type": "Feature", "properties": { "hex_id": 1749, "count": 1, "date": "2025-12-06", "n_files": 22, "pct": 4.55 }, "geometry": { "type": "Polygon", "coordinates": [ [ [ -74.1178347, 46.1281515 ], [ -74.1174197, 46.1541295 ], [ -74.1495922, 46.167364 ], [ -74.1821654, 46.1546111 ], [ -74.1825499, 46.1286326 ], [ -74.1503918, 46.1154075 ], [ -74.1178347, 46.1281515 ] ] ] } },
{ "type": "Feature", "properties": { "hex_id": 2445, "count": 6, "date": "2025-12-06", "n_files": 22, "pct": 27.27 }, "geometry": { "type": "Polygon", "coordinates": [ [ [ -73.7748289, 45.540379 ], [ -73.7742642, 45.5663569 ], [ -73.8060188, 45.5796851 ], [ -73.8383245, 45.5670263 ], [ -73.8388597, 45.5410479 ], [ -73.8071187, 45.5277288 ], [ -73.7748289, 45.540379 ] ] ] } },
{ "type": "Feature", "properties": { "hex_id": 2519, "count": 2, "date": "2025-12-06", "n_files": 22, "pct": 9.09 }, "geometry": { "type": "Polygon", "coordinates": [ [ [ -73.7259856, 46.280342 ], [ -73.7253831, 46.3063159 ], [ -73.7575474, 46.3196603 ], [ -73.7903, 46.3070213 ], [ -73.7908719, 46.2810467 ], [ -73.7587218, 46.2677117 ], [ -73.7259856, 46.280342 ] ] ] } },
{ "type": "Feature", "properties": { "hex_id": 2582, "count": 7, "date": "2025-12-06", "n_files": 22, "pct": 31.82 }, "geometry": { "type": "Polygon", "coordinates": [ [ [ -73.6944687, 46.2410151 ], [ -73.6938521, 46.2669889 ], [ -73.7259856, 46.280342 ], [ -73.7587218, 46.2677117 ], [ -73.7593077, 46.2417372 ], [ -73.7271882, 46.2283936 ], [ -73.6944687, 46.2410151 ] ] ] } },
{ "type": "Feature", "properties": { "hex_id": 2647, "count": 7, "date": "2025-12-06", "n_files": 22, "pct": 31.82 }, "geometry": { "type": "Polygon", "coordinates": [ [ [ -73.6611019, 46.2796004 ], [ -73.6604687, 46.3055738 ], [ -73.6926163, 46.3189362 ], [ -73.7253831, 46.3063159 ], [ -73.7259856, 46.280342 ], [ -73.6938521, 46.2669889 ], [ -73.6611019, 46.2796004 ] ] ] } },
{ "type": "Feature", "properties": { "hex_id": 2710, "count": 2, "date": "2025-12-06", "n_files": 22, "pct": 9.09 }, "geometry": { "type": "Polygon", "coordinates": [ [ [ -73.6296321, 46.2402562 ], [ -73.6289849, 46.2662294 ], [ -73.6611019, 46.2796004 ], [ -73.6938521, 46.2669889 ], [ -73.6944687, 46.2410151 ], [ -73.6623657, 46.2276534 ], [ -73.6296321, 46.2402562 ] ] ] } },
{ "type": "Feature", "properties": { "hex_id": 2764, "count": 7, "date": "2025-12-06", "n_files": 22, "pct": 31.82 }, "geometry": { "type": "Polygon", "coordinates": [ [ [ -73.6176243, 45.4216554 ], [ -73.6169898, 45.4476322 ], [ -73.6486402, 45.4610032 ], [ -73.6809117, 45.4483883 ], [ -73.6815169, 45.4224109 ], [ -73.6498799, 45.409049 ], [ -73.6176243, 45.4216554 ] ] ] } },
{ "type": "Feature", "properties": { "hex_id": 2894, "count": 3, "date": "2025-12-06", "n_files": 22, "pct": 13.64 }, "geometry": { "type": "Polygon", "coordinates": [ [ [ -73.549738, 45.5767185 ], [ -73.5490687, 45.6026938 ], [ -73.5807888, 45.6160842 ], [ -73.6131647, 45.6034901 ], [ -73.6138044, 45.5775141 ], [ -73.5820977, 45.5641329 ], [ -73.549738, 45.5767185 ] ] ] } },
{ "type": "Feature", "properties": { "hex_id": 2957, "count": 1, "date": "2025-12-06", "n_files": 22, "pct": 4.55 }, "geometry": { "type": "Polygon", "coordinates": [ [ [ -73.5187301, 45.5373447 ], [ -73.5180475, 45.5633198 ], [ -73.549738, 45.5767185 ], [ -73.5820977, 45.5641329 ], [ -73.5827509, 45.5381571 ], [ -73.5510737, 45.5247676 ], [ -73.5187301, 45.5373447 ] ] ] } },
{ "type": "Feature", "properties": { "hex_id": 3022, "count": 3, "date": "2025-12-06", "n_files": 22, "pct": 13.64 }, "geometry": { "type": "Polygon", "coordinates": [ [ [ -73.4856743, 45.5758871 ], [ -73.4849755, 45.6018616 ], [ -73.5166794, 45.6152696 ], [ -73.5490687, 45.6026938 ], [ -73.549738, 45.5767185 ], [ -73.5180475, 45.5633198 ], [ -73.4856743, 45.5758871 ] ] ] } },
{ "type": "Feature", "properties": { "hex_id": 3406, "count": 1, "date": "2025-12-06", "n_files": 22, "pct": 4.55 }, "geometry": { "type": "Polygon", "coordinates": [ [ [ -73.293501, 45.5731773 ], [ -73.2927136, 45.5991494 ], [ -73.3243686, 45.6126101 ], [ -73.3567979, 45.600089399999987 ], [ -73.3575557, 45.5741165 ], [ -73.3259138, 45.5606651 ], [ -73.293501, 45.5731773 ] ] ] } },
{ "type": "Feature", "properties": { "hex_id": 3476, "count": 1, "date": "2025-12-06", "n_files": 22, "pct": 4.55 }, "geometry": { "type": "Polygon", "coordinates": [ [ [ -73.2456336, 46.0791183 ], [ -73.2448098, 46.105087399999988 ], [ -73.2767378, 46.1185642 ], [ -73.3094762, 46.1060624 ], [ -73.3102697, 46.0800924 ], [ -73.2783552, 46.0666251 ], [ -73.2456336, 46.0791183 ] ] ] } },
{ "type": "Feature", "properties": { "hex_id": 3541, "count": 1, "date": "2025-12-06", "n_files": 22, "pct": 4.55 }, "geometry": { "type": "Polygon", "coordinates": [ [ [ -73.2120579, 46.1175705 ], [ -73.2112172, 46.143539 ], [ -73.2431587, 46.1570253 ], [ -73.2759274, 46.1445336 ], [ -73.2767378, 46.1185642 ], [ -73.2448098, 46.105087399999988 ], [ -73.2120579, 46.1175705 ] ] ] } },
{ "type": "Feature", "properties": { "hex_id": 3604, "count": 1, "date": "2025-12-06", "n_files": 22, "pct": 4.55 }, "geometry": { "type": "Polygon", "coordinates": [ [ [ -73.1810009, 46.0781077 ], [ -73.1801468, 46.1040759 ], [ -73.2120579, 46.1175705 ], [ -73.2448098, 46.105087399999988 ], [ -73.2456336, 46.0791183 ], [ -73.2137359, 46.0656332 ], [ -73.1810009, 46.0781077 ] ] ] } },
{ "type": "Feature", "properties": { "hex_id": 3731, "count": 1, "date": "2025-12-06", "n_files": 22, "pct": 4.55 }, "geometry": { "type": "Polygon", "coordinates": [ [ [ -73.1190179, 45.9991579 ], [ -73.1181371, 46.0251256 ], [ -73.1499877, 46.0386368 ], [ -73.1827058, 46.0261708 ], [ -73.1835564, 46.0002022 ], [ -73.1517191, 45.9867005 ], [ -73.1190179, 45.9991579 ] ] ] } },
{ "type": "Feature", "properties": { "hex_id": 3732, "count": 1, "date": "2025-12-06", "n_files": 22, "pct": 4.55 }, "geometry": { "type": "Polygon", "coordinates": [ [ [ -73.11637180000001, 46.0770605 ], [ -73.1154873, 46.1030278 ], [ -73.1473815, 46.1165402 ], [ -73.1801468, 46.1040759 ], [ -73.1810009, 46.0781077 ], [ -73.1491201, 46.0646047 ], [ -73.11637180000001, 46.0770605 ] ] ] } },
{ "type": "Feature", "properties": { "hex_id": 3796, "count": 1, "date": "2025-12-06", "n_files": 22, "pct": 4.55 }, "geometry": { "type": "Polygon", "coordinates": [ [ [ -73.0854057, 46.0375728 ], [ -73.0845079, 46.0635398 ], [ -73.11637180000001, 46.0770605 ], [ -73.1491201, 46.0646047 ], [ -73.1499877, 46.0386368 ], [ -73.1181371, 46.0251256 ], [ -73.0854057, 46.0375728 ] ] ] } },
{ "type": "Feature", "properties": { "hex_id": 3859, "count": 1, "date": "2025-12-06", "n_files": 22, "pct": 4.55 }, "geometry": { "type": "Polygon", "coordinates": [ [ [ -73.054483, 45.9980772 ], [ -73.053572, 46.0240439 ], [ -73.0854057, 46.0375728 ], [ -73.1181371, 46.0251256 ], [ -73.1190179, 45.9991579 ], [ -73.0871975, 45.9856384 ], [ -73.054483, 45.9980772 ] ] ] } },
{ "type": "Feature", "properties": { "hex_id": 5368, "count": 3, "date": "2025-12-06", "n_files": 22, "pct": 13.64 }, "geometry": { "type": "Polygon", "coordinates": [ [ [ -72.1640081, 48.8240301 ], [ -72.1625424, 48.8499671 ], [ -72.1958541, 48.8637692 ], [ -72.2306171, 48.8516237 ], [ -72.2320478, 48.8256852 ], [ -72.1987505, 48.8118937 ], [ -72.1640081, 48.8240301 ] ] ] } },
{ "type": "Feature", "properties": { "hex_id": 5432, "count": 3, "date": "2025-12-06", "n_files": 22, "pct": 13.64 }, "geometry": { "type": "Polygon", "coordinates": [ [ [ -72.127765, 48.8620919 ], [ -72.1262786, 48.8880278 ], [ -72.1596047, 48.9018406 ], [ -72.1944028, 48.8897067 ], [ -72.1958541, 48.8637692 ], [ -72.1625424, 48.8499671 ], [ -72.127765, 48.8620919 ] ] ] } },
{ "type": "Feature", "properties": { "hex_id": 5496, "count": 3, "date": "2025-12-06", "n_files": 22, "pct": 13.64 }, "geometry": { "type": "Polygon", "coordinates": [ [ [ -72.0959748, 48.822335 ], [ -72.0944741, 48.8482704 ], [ -72.127765, 48.8620919 ], [ -72.1625424, 48.8499671 ], [ -72.1640081, 48.8240301 ], [ -72.1307315, 48.8102194 ], [ -72.0959748, 48.822335 ] ] ] } },
{ "type": "Feature", "properties": { "hex_id": 7283, "count": 1, "date": "2025-12-06", "n_files": 22, "pct": 4.55 }, "geometry": { "type": "Polygon", "coordinates": [ [ [ -71.1737627, 48.4057243 ], [ -71.1718148, 48.431637 ], [ -71.2045708, 48.4457124 ], [ -71.2392618, 48.4338642 ], [ -71.2411757, 48.4079495 ], [ -71.2084326, 48.3938849 ], [ -71.1737627, 48.4057243 ] ] ] } },
{ "type": "Feature", "properties": { "hex_id": 7862, "count": 4, "date": "2025-12-06", "n_files": 22, "pct": 18.18 }, "geometry": { "type": "Polygon", "coordinates": [ [ [ -70.8482956, 48.6671981 ], [ -70.8461627, 48.6930994 ], [ -70.8789872, 48.7072693 ], [ -70.9139318, 48.695527 ], [ -70.9160301, 48.6696235 ], [ -70.8832184, 48.6554645 ], [ -70.8482956, 48.6671981 ] ] ] } },
{ "type": "Feature", "properties": { "hex_id": 7927, "count": 4, "date": "2025-12-06", "n_files": 22, "pct": 18.18 }, "geometry": { "type": "Polygon", "coordinates": [ [ [ -70.8112054, 48.7048207 ], [ -70.8090506, 48.7307206 ], [ -70.8418878, 48.7449014 ], [ -70.876867, 48.7331714 ], [ -70.8789872, 48.7072693 ], [ -70.8461627, 48.6930994 ], [ -70.8112054, 48.7048207 ] ] ] } },
{ "type": "Feature", "properties": { "hex_id": 7990, "count": 4, "date": "2025-12-06", "n_files": 22, "pct": 18.18 }, "geometry": { "type": "Polygon", "coordinates": [ [ [ -70.7805702, 48.664733 ], [ -70.7784028, 48.6906321 ], [ -70.8112054, 48.7048207 ], [ -70.8461627, 48.6930994 ], [ -70.8482956, 48.6671981 ], [ -70.8155057, 48.6530204 ], [ -70.7805702, 48.664733 ] ] ] } },
{ "type": "Feature", "properties": { "hex_id": 8116, "count": 6, "date": "2025-12-06", "n_files": 22, "pct": 27.27 }, "geometry": { "type": "Polygon", "coordinates": [ [ [ -70.7260004, 48.5068435 ], [ -70.7238171, 48.5327414 ], [ -70.7565038, 48.5469426 ], [ -70.7913614, 48.5352349 ], [ -70.7935104, 48.5093347 ], [ -70.7608362, 48.4951444 ], [ -70.7260004, 48.5068435 ] ] ] } },
{ "type": "Feature", "properties": { "hex_id": 8180, "count": 6, "date": "2025-12-06", "n_files": 22, "pct": 27.27 }, "geometry": { "type": "Polygon", "coordinates": [ [ [ -70.6955436, 48.4667375 ], [ -70.6933479, 48.4926345 ], [ -70.7260004, 48.5068435 ], [ -70.7608362, 48.4951444 ], [ -70.7629977, 48.4692451 ], [ -70.7303577, 48.455047 ], [ -70.6955436, 48.4667375 ] ] ] } },
{ "type": "Feature", "properties": { "hex_id": 8181, "count": 6, "date": "2025-12-06", "n_files": 22, "pct": 27.27 }, "geometry": { "type": "Polygon", "coordinates": [ [ [ -70.6889471, 48.5444281 ], [ -70.686742, 48.5703246 ], [ -70.7194412, 48.5845367 ], [ -70.7543331, 48.5728413 ], [ -70.7565038, 48.5469426 ], [ -70.7238171, 48.5327414 ], [ -70.6889471, 48.5444281 ] ] ] } },
{ "type": "Feature", "properties": { "hex_id": 8243, "count": 6, "date": "2025-12-06", "n_files": 22, "pct": 27.27 }, "geometry": { "type": "Polygon", "coordinates": [ [ [ -70.6651333, 48.4266246 ], [ -70.6629252, 48.4525208 ], [ -70.6955436, 48.4667375 ], [ -70.7303577, 48.455047 ], [ -70.7325317, 48.4291485 ], [ -70.6999257, 48.4149427 ], [ -70.6651333, 48.4266246 ] ] ] } },
{ "type": "Feature", "properties": { "hex_id": 8244, "count": 6, "date": "2025-12-06", "n_files": 22, "pct": 27.27 }, "geometry": { "type": "Polygon", "coordinates": [ [ [ -70.6584997, 48.5043127 ], [ -70.6562822, 48.5302083 ], [ -70.6889471, 48.5444281 ], [ -70.7238171, 48.5327414 ], [ -70.7260004, 48.5068435 ], [ -70.6933479, 48.4926345 ], [ -70.6584997, 48.5043127 ] ] ] } },
{ "type": "Feature", "properties": { "hex_id": 8245, "count": 6, "date": "2025-12-06", "n_files": 22, "pct": 27.27 }, "geometry": { "type": "Polygon", "coordinates": [ [ [ -70.6518377, 48.581999 ], [ -70.6496107, 48.607894099999989 ], [ -70.6823224, 48.6221171 ], [ -70.7172486, 48.610434 ], [ -70.7194412, 48.5845367 ], [ -70.686742, 48.5703246 ], [ -70.6518377, 48.581999 ] ] ] } },
{ "type": "Feature", "properties": { "hex_id": 8308, "count": 6, "date": "2025-12-06", "n_files": 22, "pct": 27.27 }, "geometry": { "type": "Polygon", "coordinates": [ [ [ -70.6280988, 48.4641904 ], [ -70.6258689, 48.4900852 ], [ -70.6584997, 48.5043127 ], [ -70.6933479, 48.4926345 ], [ -70.6955436, 48.4667375 ], [ -70.6629252, 48.4525208 ], [ -70.6280988, 48.4641904 ] ] ] } },
{ "type": "Feature", "properties": { "hex_id": 8309, "count": 6, "date": "2025-12-06", "n_files": 22, "pct": 27.27 }, "geometry": { "type": "Polygon", "coordinates": [ [ [ -70.6213997, 48.5418742 ], [ -70.6191604, 48.5677683 ], [ -70.6518377, 48.581999 ], [ -70.686742, 48.5703246 ], [ -70.6889471, 48.5444281 ], [ -70.6562822, 48.5302083 ], [ -70.6213997, 48.5418742 ] ] ] } },
{ "type": "Feature", "properties": { "hex_id": 8597, "count": 2, "date": "2025-12-06", "n_files": 22, "pct": 9.09 }, "geometry": { "type": "Polygon", "coordinates": [ [ [ -70.6582024, 46.0879917 ], [ -70.6561645, 46.113898299999988 ], [ -70.6874127, 46.1280758 ], [ -70.7206879, 46.1163367 ], [ -70.7226958, 46.0904279 ], [ -70.6914585, 46.0762605 ], [ -70.6582024, 46.0879917 ] ] ] } }
]
}
