{
"type": "FeatureCollection",
"name": "daily_2026-04-11",
"crs": { "type": "name", "properties": { "name": "urn:ogc:def:crs:OGC:1.3:CRS84" } },
"features": [
{ "type": "Feature", "properties": { "hex_id": 707606, "centroid_lon": -72.181490057664149, "centroid_lat": 45.316998194684935, "occurrences_today": 19, "datetimes_today": "2026-04-11 01:01:39, 2026-04-11 01:13:12, 2026-04-11 01:31:37, 2026-04-11 01:46:33, 2026-04-11 02:01:20, 2026-04-11 02:15:46, 2026-04-11 02:31:35, 2026-04-11 02:46:20, 2026-04-11 03:01:32, 2026-04-11 03:16:27, 2026-04-11 03:31:01, 2026-04-11 03:46:45, 2026-04-11 04:01:58, 2026-04-11 04:17:07, 2026-04-11 04:31:35, 2026-04-11 04:46:45, 2026-04-11 05:01:55, 2026-04-11 05:17:11, 2026-04-11 05:31:45", "cumulative_total": 79.0 }, "geometry": { "type": "Polygon", "coordinates": [ [ [ -72.181747556360051, 45.311807513519113 ], [ -72.187990042130522, 45.314560017443576 ], [ -72.187733088694856, 45.319750723956425 ], [ -72.181232488869114, 45.322188869966283 ], [ -72.174989527949194, 45.319435987129523 ], [ -72.175247641981102, 45.314245337258853 ], [ -72.181747556360051, 45.311807513519113 ] ] ] } },
{ "type": "Feature", "properties": { "hex_id": 564182, "centroid_lon": -73.663941662091304, "centroid_lat": 46.022138535056982, "occurrences_today": 6, "datetimes_today": "2026-04-11 00:01:28, 2026-04-11 00:16:26, 2026-04-11 00:31:34, 2026-04-11 00:46:23, 2026-04-11 01:01:39, 2026-04-11 01:13:12", "cumulative_total": 45.0 }, "geometry": { "type": "Polygon", "coordinates": [ [ [ -73.664066800443308, 46.016943616364856 ], [ -73.67046201652083, 46.019616394127866 ], [ -73.670337465500353, 46.02481132389245 ], [ -73.663816489345791, 46.027333448741722 ], [ -73.657420720336091, 46.024660296309968 ], [ -73.657546480401422, 46.019465393763383 ], [ -73.664066800443308, 46.016943616364856 ] ] ] } },
{ "type": "Feature", "properties": { "hex_id": 556832, "centroid_lon": -73.749845870722851, "centroid_lat": 45.64896006848285, "occurrences_today": 5, "datetimes_today": "2026-04-11 00:01:28, 2026-04-11 00:16:26, 2026-04-11 00:31:34, 2026-04-11 00:46:23, 2026-04-11 01:01:39", "cumulative_total": 108.0 }, "geometry": { "type": "Polygon", "coordinates": [ [ [ -73.749961450934265, 45.643764632955467 ], [ -73.756318645076277, 45.646432376946173 ], [ -73.756203641873213, 45.651627822605136 ], [ -73.749730258890438, 45.654155499036165 ], [ -73.743372519366403, 45.651487385966725 ], [ -73.743488708196523, 45.646291965609834 ], [ -73.749961450934265, 45.643764632955467 ] ] ] } },
{ "type": "Feature", "properties": { "hex_id": 525100, "centroid_lon": -74.079888392619225, "centroid_lat": 45.870351920128456, "occurrences_today": 3, "datetimes_today": "2026-04-11 01:31:37, 2026-04-11 01:46:33, 2026-04-11 02:01:20", "cumulative_total": 45.0 }, "geometry": { "type": "Polygon", "coordinates": [ [ [ -74.079974121623167, 45.865156119052536 ], [ -74.086372359593625, 45.867805704615222 ], [ -74.086287218869003, 45.873001512572152 ], [ -74.079802640094513, 45.875547716334175 ], [ -74.073403837369455, 45.872897762022902 ], [ -74.073490178165514, 45.867701972763605 ], [ -74.079974121623167, 45.865156119052536 ] ] ] } },
{ "type": "Feature", "properties": { "hex_id": 554413, "centroid_lon": -73.767620307513255, "centroid_lat": 46.007714549037118, "occurrences_today": 6, "datetimes_today": "2026-04-11 00:01:28, 2026-04-11 00:16:26, 2026-04-11 00:31:34, 2026-04-11 00:46:23, 2026-04-11 01:01:39, 2026-04-11 01:13:12", "cumulative_total": 33.0 }, "geometry": { "type": "Polygon", "coordinates": [ [ [ -73.767735678594093, 46.002519406127718 ], [ -73.774134360702888, 46.005186421414223 ], [ -73.774019577934624, 46.010381574356991 ], [ -73.767504904727872, 46.012909686978155 ], [ -73.761105666016462, 46.010242298191081 ], [ -73.761221657103647, 46.005047170349108 ], [ -73.767735678594093, 46.002519406127718 ] ] ] } },
{ "type": "Feature", "properties": { "hex_id": 555024, "centroid_lon": -73.760989643053392, "centroid_lat": 46.015437421062344, "occurrences_today": 6, "datetimes_today": "2026-04-11 00:01:28, 2026-04-11 00:16:26, 2026-04-11 00:31:34, 2026-04-11 00:46:23, 2026-04-11 01:01:39, 2026-04-11 01:13:12", "cumulative_total": 52.0 }, "geometry": { "type": "Polygon", "coordinates": [ [ [ -73.761105666016462, 46.010242298191081 ], [ -73.767504904727872, 46.012909686978155 ], [ -73.76738947022713, 46.018104819950786 ], [ -73.760873588203609, 46.020632538962836 ], [ -73.754473792922028, 46.01796477651272 ], [ -73.754590436223296, 46.012769668779313 ], [ -73.761105666016462, 46.010242298191081 ] ] ] } },
{ "type": "Feature", "properties": { "hex_id": 578802, "centroid_lon": -73.522188255145124, "centroid_lat": 45.521519170002257, "occurrences_today": 18, "datetimes_today": "2026-04-11 01:13:12, 2026-04-11 01:31:37, 2026-04-11 01:46:33, 2026-04-11 02:01:20, 2026-04-11 02:15:46, 2026-04-11 02:31:35, 2026-04-11 02:46:20, 2026-04-11 03:01:32, 2026-04-11 03:16:27, 2026-04-11 03:31:01, 2026-04-11 03:46:45, 2026-04-11 04:01:58, 2026-04-11 04:17:07, 2026-04-11 04:31:35, 2026-04-11 04:46:45, 2026-04-11 05:01:55, 2026-04-11 05:17:11, 2026-04-11 05:31:45", "cumulative_total": 26.0 }, "geometry": { "type": "Polygon", "coordinates": [ [ [ -73.522324273143312, 45.516324110349629 ], [ -73.52865614726187, 45.519004270562377 ], [ -73.528520699323408, 45.52419934257091 ], [ -73.5220521999954, 45.526714224591814 ], [ -73.515719792974863, 45.52403369478786 ], [ -73.51585641817185, 45.518838652618726 ], [ -73.522324273143312, 45.516324110349629 ] ] ] } },
{ "type": "Feature", "properties": { "hex_id": 579412, "centroid_lon": -73.515993006062985, "centroid_lat": 45.513643605383848, "occurrences_today": 18, "datetimes_today": "2026-04-11 01:13:12, 2026-04-11 01:31:37, 2026-04-11 01:46:33, 2026-04-11 02:01:20, 2026-04-11 02:15:46, 2026-04-11 02:31:35, 2026-04-11 02:46:20, 2026-04-11 03:01:32, 2026-04-11 03:16:27, 2026-04-11 03:31:01, 2026-04-11 03:46:45, 2026-04-11 04:01:58, 2026-04-11 04:17:07, 2026-04-11 04:31:35, 2026-04-11 04:46:45, 2026-04-11 05:01:55, 2026-04-11 05:17:11, 2026-04-11 05:31:45", "cumulative_total": 86.0 }, "geometry": { "type": "Polygon", "coordinates": [ [ [ -73.516129556660758, 45.508448553083319 ], [ -73.522460254002468, 45.51112904563405 ], [ -73.522324273143312, 45.516324110349629 ], [ -73.51585641817185, 45.518838652618726 ], [ -73.509525188391123, 45.516157790519181 ], [ -73.509662346008369, 45.510962755763856 ], [ -73.516129556660758, 45.508448553083319 ] ] ] } },
{ "type": "Feature", "properties": { "hex_id": 580633, "centroid_lon": -73.503194565790366, "centroid_lat": 45.513476583802507, "occurrences_today": 18, "datetimes_today": "2026-04-11 01:13:12, 2026-04-11 01:31:37, 2026-04-11 01:46:33, 2026-04-11 02:01:20, 2026-04-11 02:15:46, 2026-04-11 02:31:35, 2026-04-11 02:46:20, 2026-04-11 03:01:32, 2026-04-11 03:16:27, 2026-04-11 03:31:01, 2026-04-11 03:46:45, 2026-04-11 04:01:58, 2026-04-11 04:17:07, 2026-04-11 04:31:35, 2026-04-11 04:46:45, 2026-04-11 05:01:55, 2026-04-11 05:17:11, 2026-04-11 05:31:45", "cumulative_total": 76.0 }, "geometry": { "type": "Polygon", "coordinates": [ [ [ -73.503332292966931, 45.508281561588518 ], [ -73.509662346008369, 45.510962755763856 ], [ -73.509525188391123, 45.516157790519181 ], [ -73.503056800999417, 45.518671600945339 ], [ -73.496726216019368, 45.515990037104544 ], [ -73.496864550357003, 45.51079503256755 ], [ -73.503332292966931, 45.508281561588518 ] ] ] } },
{ "type": "Feature", "properties": { "hex_id": 759506, "centroid_lon": -71.633191394491746, "centroid_lat": 45.419070768400296, "occurrences_today": 5, "datetimes_today": "2026-04-11 04:31:35, 2026-04-11 04:46:45, 2026-04-11 05:01:55, 2026-04-11 05:17:11, 2026-04-11 05:31:45", "cumulative_total": 40.0 }, "geometry": { "type": "Polygon", "coordinates": [ [ [ -71.633500028902219, 45.413882867545759 ], [ -71.639725117903978, 45.41666488437783 ], [ -71.639417023673971, 45.421852815880591 ], [ -71.632882676002993, 45.424258662880774 ], [ -71.626657130913102, 45.421476261245772 ], [ -71.626966389554227, 45.416288397477153 ], [ -71.633500028902219, 45.413882867545759 ] ] ] } },
{ "type": "Feature", "properties": { "hex_id": 760727, "centroid_lon": -71.620432210211703, "centroid_lat": 45.418693536210533, "occurrences_today": 5, "datetimes_today": "2026-04-11 04:31:35, 2026-04-11 04:46:45, 2026-04-11 05:01:55, 2026-04-11 05:17:11, 2026-04-11 05:31:45", "cumulative_total": 40.0 }, "geometry": { "type": "Polygon", "coordinates": [ [ [ -71.62074200883329, 45.413505703211527 ], [ -71.626966389554227, 45.416288397477153 ], [ -71.626657130913102, 45.421476261245772 ], [ -71.620122327196157, 45.423881362823167 ], [ -71.613897490902801, 45.421098283654885 ], [ -71.614207913870615, 45.415910487875465 ], [ -71.62074200883329, 45.413505703211527 ] ] ] } },
{ "type": "Feature", "properties": { "hex_id": 653889, "centroid_lon": -72.738024428707277, "centroid_lat": 45.438520139513969, "occurrences_today": 8, "datetimes_today": "2026-04-11 03:46:45, 2026-04-11 04:01:58, 2026-04-11 04:17:07, 2026-04-11 04:31:35, 2026-04-11 04:46:45, 2026-04-11 05:01:55, 2026-04-11 05:17:11, 2026-04-11 05:31:45", "cumulative_total": 26.0 }, "geometry": { "type": "Polygon", "coordinates": [ [ [ -72.738231989159075, 45.433327328449046 ], [ -72.744515854019753, 45.436050108352624 ], [ -72.744308850292285, 45.441242939433728 ], [ -72.737816811644919, 45.443712945095513 ], [ -72.73153244667995, 45.440989789551338 ], [ -72.731740620447695, 45.435797004050066 ], [ -72.738231989159075, 45.433327328449046 ] ] ] } },
{ "type": "Feature", "properties": { "hex_id": 555591, "centroid_lon": -73.769485112747674, "centroid_lat": 45.337363336447908, "occurrences_today": 16, "datetimes_today": "2026-04-11 01:46:33, 2026-04-11 02:01:20, 2026-04-11 02:15:46, 2026-04-11 02:31:35, 2026-04-11 02:46:20, 2026-04-11 03:01:32, 2026-04-11 03:16:27, 2026-04-11 03:31:01, 2026-04-11 03:46:45, 2026-04-11 04:01:58, 2026-04-11 04:17:07, 2026-04-11 04:31:35, 2026-04-11 04:46:45, 2026-04-11 05:01:55, 2026-04-11 05:17:11, 2026-04-11 05:31:45", "cumulative_total": 20.0 }, "geometry": { "type": "Polygon", "coordinates": [ [ [ -73.769597648773697, 45.332167577690122 ], [ -73.775921136531778, 45.334834017860636 ], [ -73.775809168376952, 45.340029786488458 ], [ -73.769372546048373, 45.342559090239817 ], [ -73.763048521097502, 45.339892285114175 ], [ -73.76316165565774, 45.334696541256442 ], [ -73.769597648773697, 45.332167577690122 ] ] ] } },
{ "type": "Feature", "properties": { "hex_id": 556812, "centroid_lon": -73.75672509483968, "centroid_lat": 45.33722513487362, "occurrences_today": 16, "datetimes_today": "2026-04-11 01:46:33, 2026-04-11 02:01:20, 2026-04-11 02:15:46, 2026-04-11 02:31:35, 2026-04-11 02:46:20, 2026-04-11 03:01:32, 2026-04-11 03:16:27, 2026-04-11 03:31:01, 2026-04-11 03:46:45, 2026-04-11 04:01:58, 2026-04-11 04:17:07, 2026-04-11 04:31:35, 2026-04-11 04:46:45, 2026-04-11 05:01:55, 2026-04-11 05:17:11, 2026-04-11 05:31:45", "cumulative_total": 20.0 }, "geometry": { "type": "Polygon", "coordinates": [ [ [ -73.75683879709689, 45.332029401011987 ], [ -73.76316165565774, 45.334696541256442 ], [ -73.763048521097502, 45.339892285114175 ], [ -73.756611361591524, 45.342420863764872 ], [ -73.750287966329836, 45.339753358447155 ], [ -73.75040226726459, 45.33455763961615 ], [ -73.75683879709689, 45.332029401011987 ] ] ] } },
{ "type": "Feature", "properties": { "hex_id": 556221, "centroid_lon": -73.756433616825674, "centroid_lat": 45.641236926315464, "occurrences_today": 5, "datetimes_today": "2026-04-11 00:01:28, 2026-04-11 00:16:26, 2026-04-11 00:31:34, 2026-04-11 00:46:23, 2026-04-11 01:01:39", "cumulative_total": 72.0 }, "geometry": { "type": "Polygon", "coordinates": [ [ [ -73.756548557132021, 45.636041470713089 ], [ -73.762905205860164, 45.638708845785381 ], [ -73.762790842416038, 45.643904311452218 ], [ -73.756318645076277, 45.646432376946173 ], [ -73.749961450934265, 45.643764632955467 ], [ -73.75007699953531, 45.63856919245405 ], [ -73.756548557132021, 45.636041470713089 ] ] ] } },
{ "type": "Feature", "properties": { "hex_id": 612415, "centroid_lon": -73.152026943891784, "centroid_lat": 46.069568308154217, "occurrences_today": 8, "datetimes_today": "2026-04-11 03:46:45, 2026-04-11 04:01:58, 2026-04-11 04:17:07, 2026-04-11 04:31:35, 2026-04-11 04:46:45, 2026-04-11 05:01:55, 2026-04-11 05:17:11, 2026-04-11 05:31:45", "cumulative_total": 50.0 }, "geometry": { "type": "Polygon", "coordinates": [ [ [ -73.152200301596039, 46.064374724491003 ], [ -73.158575336093719, 46.067075836624433 ], [ -73.158402560005484, 46.072269436464381 ], [ -73.151853538524563, 46.074761886570684 ], [ -73.145477970081942, 46.072060394390959 ], [ -73.145651957048969, 46.066866832216924 ], [ -73.152200301596039, 46.064374724491003 ] ] ] } },
{ "type": "Feature", "properties": { "hex_id": 613636, "centroid_lon": -73.139103031068274, "centroid_lat": 46.069358554623143, "occurrences_today": 8, "datetimes_today": "2026-04-11 03:46:45, 2026-04-11 04:01:58, 2026-04-11 04:17:07, 2026-04-11 04:31:35, 2026-04-11 04:46:45, 2026-04-11 05:01:55, 2026-04-11 05:17:11, 2026-04-11 05:31:45", "cumulative_total": 94.0 }, "geometry": { "type": "Polygon", "coordinates": [ [ [ -73.139277599460755, 46.064165008753776 ], [ -73.145651957048969, 46.066866832216924 ], [ -73.145477970081942, 46.072060394390959 ], [ -73.13892841468045, 46.074552095238737 ], [ -73.132553523670325, 46.07184989161366 ], [ -73.132728721467259, 46.066656367368438 ], [ -73.139277599460755, 46.064165008753776 ] ] ] } },
{ "type": "Feature", "properties": { "hex_id": 517133, "centroid_lon": -74.170670819972315, "centroid_lat": 45.395549072513255, "occurrences_today": 6, "datetimes_today": "2026-04-11 00:01:28, 2026-04-11 00:16:26, 2026-04-11 00:31:34, 2026-04-11 00:46:23, 2026-04-11 01:01:39, 2026-04-11 01:13:12", "cumulative_total": 216.0 }, "geometry": { "type": "Polygon", "coordinates": [ [ [ -74.17074682291414, 45.390352711823347 ], [ -74.177095920660562, 45.392997089650677 ], [ -74.177020492636601, 45.39819345624155 ], [ -74.170594796297891, 45.400745428355506 ], [ -74.164245144369715, 45.398100688658893 ], [ -74.164321742955053, 45.392904338781939 ], [ -74.17074682291414, 45.390352711823347 ] ] ] } },
{ "type": "Feature", "properties": { "hex_id": 673020, "centroid_lon": -72.388303119345892, "centroid_lat": 48.634257767281973, "occurrences_today": 13, "datetimes_today": "2026-04-11 01:31:37, 2026-04-11 01:46:33, 2026-04-11 02:01:20, 2026-04-11 02:15:46, 2026-04-11 02:31:35, 2026-04-11 02:46:20, 2026-04-11 03:01:32, 2026-04-11 03:16:27, 2026-04-11 03:31:01, 2026-04-11 03:46:45, 2026-04-11 04:01:58, 2026-04-11 04:17:07, 2026-04-11 04:31:35", "cumulative_total": 32.0 }, "geometry": { "type": "Polygon", "coordinates": [ [ [ -72.388571068759475, 48.629069213471126 ], [ -72.395216145174913, 48.631817105100943 ], [ -72.394948851316627, 48.637005683874357 ], [ -72.388035093604302, 48.639446315289327 ], [ -72.381389437975471, 48.636698001446909 ], [ -72.381658119244548, 48.631509478474193 ], [ -72.388571068759475, 48.629069213471126 ] ] ] } },
{ "type": "Feature", "properties": { "hex_id": 673630, "centroid_lon": -72.381926724002597, "centroid_lat": 48.626320949692442, "occurrences_today": 13, "datetimes_today": "2026-04-11 01:31:37, 2026-04-11 01:46:33, 2026-04-11 02:01:20, 2026-04-11 02:15:46, 2026-04-11 02:31:35, 2026-04-11 02:46:20, 2026-04-11 03:01:32, 2026-04-11 03:16:27, 2026-04-11 03:31:01, 2026-04-11 03:46:45, 2026-04-11 04:01:58, 2026-04-11 04:17:07, 2026-04-11 04:31:35", "cumulative_total": 36.0 }, "geometry": { "type": "Polygon", "coordinates": [ [ [ -72.382195252277484, 48.621132415101982 ], [ -72.388838941872905, 48.623880653857093 ], [ -72.388571068759475, 48.629069213471126 ], [ -72.381658119244548, 48.631509478474193 ], [ -72.375013850984743, 48.628760817563304 ], [ -72.375283110876396, 48.623572313877155 ], [ -72.382195252277484, 48.621132415101982 ] ] ] } },
{ "type": "Feature", "properties": { "hex_id": 674240, "centroid_lon": -72.375552294101993, "centroid_lat": 48.618383804376748, "occurrences_today": 13, "datetimes_today": "2026-04-11 01:31:37, 2026-04-11 01:46:33, 2026-04-11 02:01:20, 2026-04-11 02:15:46, 2026-04-11 02:31:35, 2026-04-11 02:46:20, 2026-04-11 03:01:32, 2026-04-11 03:16:27, 2026-04-11 03:31:01, 2026-04-11 03:46:45, 2026-04-11 04:01:58, 2026-04-11 04:17:07, 2026-04-11 04:31:35", "cumulative_total": 32.0 }, "geometry": { "type": "Polygon", "coordinates": [ [ [ -72.375821400689475, 48.613195289062411 ], [ -72.382463704097077, 48.615943874703113 ], [ -72.382195252277484, 48.621132415101982 ], [ -72.375283110876396, 48.623572313877155 ], [ -72.368640229352991, 48.620823306137545 ], [ -72.368910067318538, 48.61563482179367 ], [ -72.375821400689475, 48.613195289062411 ] ] ] } },
{ "type": "Feature", "properties": { "hex_id": 674241, "centroid_lon": -72.374744514399111, "centroid_lat": 48.633949315434869, "occurrences_today": 13, "datetimes_today": "2026-04-11 01:31:37, 2026-04-11 01:46:33, 2026-04-11 02:01:20, 2026-04-11 02:15:46, 2026-04-11 02:31:35, 2026-04-11 02:46:20, 2026-04-11 03:01:32, 2026-04-11 03:16:27, 2026-04-11 03:31:01, 2026-04-11 03:46:45, 2026-04-11 04:01:58, 2026-04-11 04:17:07, 2026-04-11 04:31:35", "cumulative_total": 36.0 }, "geometry": { "type": "Polygon", "coordinates": [ [ [ -72.375013850984743, 48.628760817563304 ], [ -72.381658119244548, 48.631509478474193 ], [ -72.381389437975471, 48.636698001446909 ], [ -72.374475101091519, 48.639137807491565 ], [ -72.367830254251075, 48.636388724249009 ], [ -72.368100322847269, 48.631200257365535 ], [ -72.375013850984743, 48.628760817563304 ] ] ] } },
{ "type": "Feature", "properties": { "hex_id": 674851, "centroid_lon": -72.368370314538552, "centroid_lat": 48.626011784661593, "occurrences_today": 13, "datetimes_today": "2026-04-11 01:31:37, 2026-04-11 01:46:33, 2026-04-11 02:01:20, 2026-04-11 02:15:46, 2026-04-11 02:31:35, 2026-04-11 02:46:20, 2026-04-11 03:01:32, 2026-04-11 03:16:27, 2026-04-11 03:31:01, 2026-04-11 03:46:45, 2026-04-11 04:01:58, 2026-04-11 04:17:07, 2026-04-11 04:31:35", "cumulative_total": 45.0 }, "geometry": { "type": "Polygon", "coordinates": [ [ [ -72.368640229352991, 48.620823306137545 ], [ -72.375283110876396, 48.623572313877155 ], [ -72.375013850984743, 48.628760817563304 ], [ -72.368100322847269, 48.631200257365535 ], [ -72.361456863291963, 48.62845082735118 ], [ -72.361727509878023, 48.623262379881368 ], [ -72.368640229352991, 48.620823306137545 ] ] ] } },
{ "type": "Feature", "properties": { "hex_id": 675461, "centroid_lon": -72.361998079404401, "centroid_lat": 48.618073926585851, "occurrences_today": 13, "datetimes_today": "2026-04-11 01:31:37, 2026-04-11 01:46:33, 2026-04-11 02:01:20, 2026-04-11 02:15:46, 2026-04-11 02:31:35, 2026-04-11 02:46:20, 2026-04-11 03:01:32, 2026-04-11 03:16:27, 2026-04-11 03:31:01, 2026-04-11 03:46:45, 2026-04-11 04:01:58, 2026-04-11 04:17:07, 2026-04-11 04:31:35", "cumulative_total": 50.0 }, "geometry": { "type": "Polygon", "coordinates": [ [ [ -72.362268571899193, 48.612885467464949 ], [ -72.368910067318538, 48.61563482179367 ], [ -72.368640229352991, 48.620823306137545 ], [ -72.361727509878023, 48.623262379881368 ], [ -72.355085436975074, 48.620512603334888 ], [ -72.355356661002631, 48.615324175334358 ], [ -72.362268571899193, 48.612885467464949 ] ] ] } },
{ "type": "Feature", "properties": { "hex_id": 675462, "centroid_lon": -72.361186139618141, "centroid_lat": 48.63363926899499, "occurrences_today": 13, "datetimes_today": "2026-04-11 01:31:37, 2026-04-11 01:46:33, 2026-04-11 02:01:20, 2026-04-11 02:15:46, 2026-04-11 02:31:35, 2026-04-11 02:46:20, 2026-04-11 03:01:32, 2026-04-11 03:16:27, 2026-04-11 03:31:01, 2026-04-11 03:46:45, 2026-04-11 04:01:58, 2026-04-11 04:17:07, 2026-04-11 04:31:35", "cumulative_total": 45.0 }, "geometry": { "type": "Polygon", "coordinates": [ [ [ -72.361456863291963, 48.62845082735118 ], [ -72.368100322847269, 48.631200257365535 ], [ -72.367830254251075, 48.636388724249009 ], [ -72.360915338828462, 48.638827704812442 ], [ -72.35427130132544, 48.636077852347519 ], [ -72.354542757164637, 48.630889441841802 ], [ -72.361456863291963, 48.62845082735118 ] ] ] } },
{ "type": "Feature", "properties": { "hex_id": 676071, "centroid_lon": -72.355627807815907, "centroid_lat": 48.610135741502859, "occurrences_today": 13, "datetimes_today": "2026-04-11 01:31:37, 2026-04-11 01:46:33, 2026-04-11 02:01:20, 2026-04-11 02:15:46, 2026-04-11 02:31:35, 2026-04-11 02:46:20, 2026-04-11 03:01:32, 2026-04-11 03:16:27, 2026-04-11 03:31:01, 2026-04-11 03:46:45, 2026-04-11 04:01:58, 2026-04-11 04:17:07, 2026-04-11 04:31:35", "cumulative_total": 32.0 }, "geometry": { "type": "Polygon", "coordinates": [ [ [ -72.355898877443039, 48.604947301840738 ], [ -72.362538987390423, 48.607697002519011 ], [ -72.362268571899193, 48.612885467464949 ], [ -72.355356661002631, 48.615324175334358 ], [ -72.348715974119543, 48.61257405249529 ], [ -72.348987775040612, 48.607385644019594 ], [ -72.355898877443039, 48.604947301840738 ] ] ] } },
{ "type": "Feature", "properties": { "hex_id": 676072, "centroid_lon": -72.354814135705141, "centroid_lat": 48.625701025504135, "occurrences_today": 13, "datetimes_today": "2026-04-11 01:31:37, 2026-04-11 01:46:33, 2026-04-11 02:01:20, 2026-04-11 02:15:46, 2026-04-11 02:31:35, 2026-04-11 02:46:20, 2026-04-11 03:01:32, 2026-04-11 03:16:27, 2026-04-11 03:31:01, 2026-04-11 03:46:45, 2026-04-11 04:01:58, 2026-04-11 04:17:07, 2026-04-11 04:31:35", "cumulative_total": 50.0 }, "geometry": { "type": "Polygon", "coordinates": [ [ [ -72.355085436975074, 48.620512603334888 ], [ -72.361727509878023, 48.623262379881368 ], [ -72.361456863291963, 48.62845082735118 ], [ -72.354542757164637, 48.630889441841802 ], [ -72.34790010686244, 48.628139242901774 ], [ -72.348172140058665, 48.6229508519367 ], [ -72.355085436975074, 48.620512603334888 ] ] ] } },
{ "type": "Feature", "properties": { "hex_id": 676681, "centroid_lon": -72.349259498593028, "centroid_lat": 48.602197229707684, "occurrences_today": 13, "datetimes_today": "2026-04-11 01:31:37, 2026-04-11 01:46:33, 2026-04-11 02:01:20, 2026-04-11 02:15:46, 2026-04-11 02:31:35, 2026-04-11 02:46:20, 2026-04-11 03:01:32, 2026-04-11 03:16:27, 2026-04-11 03:31:01, 2026-04-11 03:46:45, 2026-04-11 04:01:58, 2026-04-11 04:17:07, 2026-04-11 04:31:35", "cumulative_total": 32.0 }, "geometry": { "type": "Polygon", "coordinates": [ [ [ -72.349531144804942, 48.597008809559888 ], [ -72.356169869912151, 48.599758856348295 ], [ -72.355898877443039, 48.604947301840738 ], [ -72.348987775040612, 48.607385644019594 ], [ -72.342348473545172, 48.604635175127399 ], [ -72.342620850812239, 48.599446786232058 ], [ -72.349531144804942, 48.597008809559888 ] ] ] } },
{ "type": "Feature", "properties": { "hex_id": 676682, "centroid_lon": -72.348444095801625, "centroid_lat": 48.617762455134432, "occurrences_today": 13, "datetimes_today": "2026-04-11 01:31:37, 2026-04-11 01:46:33, 2026-04-11 02:01:20, 2026-04-11 02:15:46, 2026-04-11 02:31:35, 2026-04-11 02:46:20, 2026-04-11 03:01:32, 2026-04-11 03:16:27, 2026-04-11 03:31:01, 2026-04-11 03:46:45, 2026-04-11 04:01:58, 2026-04-11 04:17:07, 2026-04-11 04:31:35", "cumulative_total": 50.0 }, "geometry": { "type": "Polygon", "coordinates": [ [ [ -72.348715974119543, 48.61257405249529 ], [ -72.355356661002631, 48.615324175334358 ], [ -72.355085436975074, 48.620512603334888 ], [ -72.348172140058665, 48.6229508519367 ], [ -72.341530876324356, 48.620200306761156 ], [ -72.341803486329496, 48.615011935392275 ], [ -72.348715974119543, 48.61257405249529 ] ] ] } },
{ "type": "Feature", "properties": { "hex_id": 676683, "centroid_lon": -72.347627996184741, "centroid_lat": 48.633327628029313, "occurrences_today": 13, "datetimes_today": "2026-04-11 01:31:37, 2026-04-11 01:46:33, 2026-04-11 02:01:20, 2026-04-11 02:15:46, 2026-04-11 02:31:35, 2026-04-11 02:46:20, 2026-04-11 03:01:32, 2026-04-11 03:16:27, 2026-04-11 03:31:01, 2026-04-11 03:46:45, 2026-04-11 04:01:58, 2026-04-11 04:17:07, 2026-04-11 04:31:35", "cumulative_total": 45.0 }, "geometry": { "type": "Polygon", "coordinates": [ [ [ -72.34790010686244, 48.628139242901774 ], [ -72.354542757164637, 48.630889441841802 ], [ -72.35427130132544, 48.636077852347519 ], [ -72.347355807997317, 48.638516007319012 ], [ -72.340712580380469, 48.635765385809641 ], [ -72.340985423378143, 48.630577031970169 ], [ -72.34790010686244, 48.628139242901774 ] ] ] } },
{ "type": "Feature", "properties": { "hex_id": 677292, "centroid_lon": -72.342076018726999, "centroid_lat": 48.609823558180913, "occurrences_today": 13, "datetimes_today": "2026-04-11 01:31:37, 2026-04-11 01:46:33, 2026-04-11 02:01:20, 2026-04-11 02:15:46, 2026-04-11 02:31:35, 2026-04-11 02:46:20, 2026-04-11 03:01:32, 2026-04-11 03:16:27, 2026-04-11 03:31:01, 2026-04-11 03:46:45, 2026-04-11 04:01:58, 2026-04-11 04:17:07, 2026-04-11 04:31:35", "cumulative_total": 32.0 }, "geometry": { "type": "Polygon", "coordinates": [ [ [ -72.342348473545172, 48.604635175127399 ], [ -72.348987775040612, 48.607385644019594 ], [ -72.348715974119543, 48.61257405249529 ], [ -72.341803486329496, 48.615011935392275 ], [ -72.335163608530422, 48.612261044220681 ], [ -72.335436794796777, 48.607072692503465 ], [ -72.342348473545172, 48.604635175127399 ] ] ] } },
{ "type": "Feature", "properties": { "hex_id": 526320, "centroid_lon": -74.067266361780483, "centroid_lat": 45.854660091457745, "occurrences_today": 3, "datetimes_today": "2026-04-11 01:31:37, 2026-04-11 01:46:33, 2026-04-11 02:01:20", "cumulative_total": 62.0 }, "geometry": { "type": "Polygon", "coordinates": [ [ [ -74.067353219178301, 45.849464294587634 ], [ -74.073749058498109, 45.852114575754271 ], [ -74.073662788721819, 45.85731037962929 ], [ -74.067179480557044, 45.859855883454209 ], [ -74.060783077445322, 45.857205233617378 ], [ -74.060870546282231, 45.85200944869117 ], [ -74.067353219178301, 45.849464294587634 ] ] ] } },
{ "type": "Feature", "properties": { "hex_id": 586135, "centroid_lon": -73.442374664393029, "centroid_lat": 45.629590782507663, "occurrences_today": 10, "datetimes_today": "2026-04-11 03:16:27, 2026-04-11 03:31:01, 2026-04-11 03:46:45, 2026-04-11 04:01:58, 2026-04-11 04:17:07, 2026-04-11 04:31:35, 2026-04-11 04:46:45, 2026-04-11 05:01:55, 2026-04-11 05:17:11, 2026-04-11 05:31:45", "cumulative_total": 140.0 }, "geometry": { "type": "Polygon", "coordinates": [ [ [ -73.442518567706045, 45.624396013571385 ], [ -73.448858549881692, 45.627080658892901 ], [ -73.448715218795343, 45.632275441001816 ], [ -73.442230721724698, 45.634785546345149 ], [ -73.43589020668432, 45.632100529317462 ], [ -73.436034721566074, 45.626905778717386 ], [ -73.442518567706045, 45.624396013571385 ] ] ] } },
{ "type": "Feature", "properties": { "hex_id": 580022, "centroid_lon": -73.509799466178009, "centroid_lat": 45.505767715940202, "occurrences_today": 18, "datetimes_today": "2026-04-11 01:13:12, 2026-04-11 01:31:37, 2026-04-11 01:46:33, 2026-04-11 02:01:20, 2026-04-11 02:15:46, 2026-04-11 02:31:35, 2026-04-11 02:46:20, 2026-04-11 03:01:32, 2026-04-11 03:16:27, 2026-04-11 03:31:01, 2026-04-11 03:46:45, 2026-04-11 04:01:58, 2026-04-11 04:17:07, 2026-04-11 04:31:35, 2026-04-11 04:46:45, 2026-04-11 05:01:55, 2026-04-11 05:17:11, 2026-04-11 05:31:45", "cumulative_total": 91.0 }, "geometry": { "type": "Polygon", "coordinates": [ [ [ -73.509936548912648, 45.500572671048289 ], [ -73.516266069977704, 45.503253495717246 ], [ -73.516129556660758, 45.508448553083319 ], [ -73.509662346008369, 45.510962755763856 ], [ -73.503332292966931, 45.508281561588518 ], [ -73.503469982541702, 45.503086534303513 ], [ -73.509936548912648, 45.500572671048289 ] ] ] } },
{ "type": "Feature", "properties": { "hex_id": 580632, "centroid_lon": -73.503607634527341, "centroid_lat": 45.497891501947556, "occurrences_today": 14, "datetimes_today": "2026-04-11 01:46:33, 2026-04-11 02:01:20, 2026-04-11 02:15:46, 2026-04-11 02:31:35, 2026-04-11 02:46:20, 2026-04-11 03:01:32, 2026-04-11 03:16:27, 2026-04-11 03:31:01, 2026-04-11 03:46:45, 2026-04-11 04:01:58, 2026-04-11 04:17:07, 2026-04-11 04:31:35, 2026-04-11 04:46:45, 2026-04-11 05:01:55", "cumulative_total": 157.0 }, "geometry": { "type": "Polygon", "coordinates": [ [ [ -73.50374524893644, 45.492696464520733 ], [ -73.510073594224835, 45.495377621088231 ], [ -73.509936548912648, 45.500572671048289 ], [ -73.503469982541702, 45.503086534303513 ], [ -73.497141105739246, 45.500405008272097 ], [ -73.497279326809192, 45.495209988513835 ], [ -73.50374524893644, 45.492696464520733 ] ] ] } },
{ "type": "Feature", "properties": { "hex_id": 526321, "centroid_lon": -74.067005646601061, "centroid_lat": 45.870247452826227, "occurrences_today": 3, "datetimes_today": "2026-04-11 01:31:37, 2026-04-11 01:46:33, 2026-04-11 02:01:20", "cumulative_total": 94.0 }, "geometry": { "type": "Polygon", "coordinates": [ [ [ -74.067092575499927, 45.865051670577053 ], [ -74.073490178165514, 45.867701972763605 ], [ -74.073403837369455, 45.872897762022902 ], [ -74.066918693852358, 45.875443230201739 ], [ -74.060520526937836, 45.872792559143583 ], [ -74.06060806778126, 45.867596788843599 ], [ -74.067092575499927, 45.865051670577053 ] ] ] } },
{ "type": "Feature", "properties": { "hex_id": 527542, "centroid_lon": -74.054122972132404, "centroid_lat": 45.870141533335264, "occurrences_today": 3, "datetimes_today": "2026-04-11 01:31:37, 2026-04-11 01:46:33, 2026-04-11 02:01:20", "cumulative_total": 82.0 }, "geometry": { "type": "Polygon", "coordinates": [ [ [ -74.054211100901952, 45.864945770174451 ], [ -74.06060806778126, 45.867596788843599 ], [ -74.060520526937836, 45.872792559143583 ], [ -74.054034819183954, 45.87533729161887 ], [ -74.047637288561532, 45.872685903955258 ], [ -74.047726029427906, 45.867490152876229 ], [ -74.054211100901952, 45.864945770174451 ] ] ] } },
{ "type": "Feature", "properties": { "hex_id": 526931, "centroid_lon": -74.060695584614379, "centroid_lat": 45.862401013668205, "occurrences_today": 3, "datetimes_today": "2026-04-11 01:31:37, 2026-04-11 01:46:33, 2026-04-11 02:01:20", "cumulative_total": 45.0 }, "geometry": { "type": "Polygon", "coordinates": [ [ [ -74.060783077445322, 45.857205233617378 ], [ -74.067179480557044, 45.859855883454209 ], [ -74.067092575499927, 45.865051670577053 ], [ -74.06060806778126, 45.867596788843599 ], [ -74.054211100901952, 45.864945770174451 ], [ -74.054299205500783, 45.859750002136465 ], [ -74.060783077445322, 45.857205233617378 ] ] ] } },
{ "type": "Feature", "properties": { "hex_id": 527541, "centroid_lon": -74.054387285937068, "centroid_lat": 45.854554229221314, "occurrences_today": 3, "datetimes_today": "2026-04-11 01:31:37, 2026-04-11 01:46:33, 2026-04-11 02:01:20", "cumulative_total": 35.0 }, "geometry": { "type": "Polygon", "coordinates": [ [ [ -74.054475342219007, 45.849358451428998 ], [ -74.060870546282231, 45.85200944869117 ], [ -74.060783077445322, 45.857205233617378 ], [ -74.054299205500783, 45.859750002136465 ], [ -74.047903438150954, 45.857098636081282 ], [ -74.047992106024097, 45.851902870365386 ], [ -74.054475342219007, 45.849358451428998 ] ] ] } },
{ "type": "Feature", "properties": { "hex_id": 665572, "centroid_lon": -72.559952321934645, "centroid_lat": 46.736562815592343, "occurrences_today": 5, "datetimes_today": "2026-04-11 00:16:26, 2026-04-11 00:31:34, 2026-04-11 00:46:23, 2026-04-11 01:01:39, 2026-04-11 01:13:12", "cumulative_total": 15.0 }, "geometry": { "type": "Polygon", "coordinates": [ [ [ -72.56018658102218, 46.731371851605473 ], [ -72.566607863943915, 46.734106635265739 ], [ -72.56637419871754, 46.739297621556375 ], [ -72.559717997904002, 46.741753773945383 ], [ -72.553296186075471, 46.739018596073322 ], [ -72.553531103944778, 46.733827660091201 ], [ -72.56018658102218, 46.731371851605473 ] ] ] } },
{ "type": "Feature", "properties": { "hex_id": 665573, "centroid_lon": -72.559249154923364, "centroid_lat": 46.752135673748889, "occurrences_today": 6, "datetimes_today": "2026-04-11 00:01:28, 2026-04-11 00:16:26, 2026-04-11 00:31:34, 2026-04-11 00:46:23, 2026-04-11 01:01:39, 2026-04-11 01:13:12", "cumulative_total": 25.0 }, "geometry": { "type": "Polygon", "coordinates": [ [ [ -72.559483608907755, 46.746944726664331 ], [ -72.56590667389888, 46.749679577249879 ], [ -72.565672814261674, 46.754870546652178 ], [ -72.559014635928335, 46.757326615198799 ], [ -72.552591041611933, 46.754591370186098 ], [ -72.552826154931623, 46.749400451121062 ], [ -72.559483608907755, 46.746944726664331 ] ] ] } },
{ "type": "Feature", "properties": { "hex_id": 666183, "centroid_lon": -72.553061203078599, "centroid_lat": 46.744209526416725, "occurrences_today": 6, "datetimes_today": "2026-04-11 00:01:28, 2026-04-11 00:16:26, 2026-04-11 00:31:34, 2026-04-11 00:46:23, 2026-04-11 01:01:39, 2026-04-11 01:13:12", "cumulative_total": 27.0 }, "geometry": { "type": "Polygon", "coordinates": [ [ [ -72.553296186075471, 46.739018596073322 ], [ -72.559717997904002, 46.741753773945383 ], [ -72.559483608907755, 46.746944726664331 ], [ -72.552826154931623, 46.749400451121062 ], [ -72.546403814263883, 46.746664878873098 ], [ -72.546639456388903, 46.741473976611438 ], [ -72.553296186075471, 46.739018596073322 ] ] ] } },
{ "type": "Feature", "properties": { "hex_id": 666794, "centroid_lon": -72.54616810680416, "centroid_lat": 46.751855775490782, "occurrences_today": 5, "datetimes_today": "2026-04-11 00:16:26, 2026-04-11 00:31:34, 2026-04-11 00:46:23, 2026-04-11 01:01:39, 2026-04-11 01:13:12", "cumulative_total": 13.0 }, "geometry": { "type": "Polygon", "coordinates": [ [ [ -72.546403814263883, 46.746664878873098 ], [ -72.552826154931623, 46.749400451121062 ], [ -72.552591041611933, 46.754591370186098 ], [ -72.545932333987125, 46.757046666464191 ], [ -72.539509464548019, 46.754310699676175 ], [ -72.539745831482449, 46.749119831217243 ], [ -72.546403814263883, 46.746664878873098 ] ] ] } },
{ "type": "Feature", "properties": { "hex_id": 667405, "centroid_lon": -72.539273032071577, "centroid_lat": 46.759501562485852, "occurrences_today": 5, "datetimes_today": "2026-04-11 00:16:26, 2026-04-11 00:31:34, 2026-04-11 00:46:23, 2026-04-11 01:01:39, 2026-04-11 01:13:12", "cumulative_total": 13.0 }, "geometry": { "type": "Polygon", "coordinates": [ [ [ -72.539509464548019, 46.754310699676175 ], [ -72.545932333987125, 46.757046666464191 ], [ -72.545696495790082, 46.762237551793064 ], [ -72.539036534030387, 46.764692419646018 ], [ -72.532613135887971, 46.761956058153771 ], [ -72.53285022818585, 46.756765223579947 ], [ -72.539509464548019, 46.754310699676175 ] ] ] } },
{ "type": "Feature", "properties": { "hex_id": 668015, "centroid_lon": -72.533087254756964, "centroid_lat": 46.751574383351922, "occurrences_today": 5, "datetimes_today": "2026-04-11 00:16:26, 2026-04-11 00:31:34, 2026-04-11 00:46:23, 2026-04-11 01:01:39, 2026-04-11 01:13:12", "cumulative_total": 15.0 }, "geometry": { "type": "Polygon", "coordinates": [ [ [ -72.533324215624091, 46.74638353746996 ], [ -72.539745831482449, 46.749119831217243 ], [ -72.539509464548019, 46.754310699676175 ], [ -72.53285022818585, 46.756765223579947 ], [ -72.526428084110165, 46.754028535179806 ], [ -72.52666570459121, 46.748837717595862 ], [ -72.533324215624091, 46.74638353746996 ] ] ] } },
{ "type": "Feature", "properties": { "hex_id": 668016, "centroid_lon": -72.532375977840559, "centroid_lat": 46.767146887073089, "occurrences_today": 5, "datetimes_today": "2026-04-11 00:16:26, 2026-04-11 00:31:34, 2026-04-11 00:46:23, 2026-04-11 01:01:39, 2026-04-11 01:13:12", "cumulative_total": 13.0 }, "geometry": { "type": "Polygon", "coordinates": [ [ [ -72.532613135887971, 46.761956058153771 ], [ -72.539036534030387, 46.764692419646018 ], [ -72.53879997040174, 46.769883271156395 ], [ -72.532138754020806, 46.772337710337624 ], [ -72.525714827243377, 46.769600953976955 ], [ -72.525952645459085, 46.764410153370648 ], [ -72.532613135887971, 46.761956058153771 ] ] ] } },
{ "type": "Feature", "properties": { "hex_id": 668626, "centroid_lon": -72.526190397740407, "centroid_lat": 46.759219347104832, "occurrences_today": 5, "datetimes_today": "2026-04-11 00:16:26, 2026-04-11 00:31:34, 2026-04-11 00:46:23, 2026-04-11 01:01:39, 2026-04-11 01:13:12", "cumulative_total": 13.0 }, "geometry": { "type": "Polygon", "coordinates": [ [ [ -72.526428084110165, 46.754028535179806 ], [ -72.53285022818585, 46.756765223579947 ], [ -72.532613135887971, 46.761956058153771 ], [ -72.525952645459085, 46.764410153370648 ], [ -72.519529973234498, 46.761673070153535 ], [ -72.519768319564847, 46.756482286603678 ], [ -72.526428084110165, 46.754028535179806 ] ] ] } },
{ "type": "Feature", "properties": { "hex_id": 668627, "centroid_lon": -72.525476943070387, "centroid_lat": 46.774791748923484, "occurrences_today": 5, "datetimes_today": "2026-04-11 00:16:26, 2026-04-11 00:31:34, 2026-04-11 00:46:23, 2026-04-11 01:01:39, 2026-04-11 01:13:12", "cumulative_total": 13.0 }, "geometry": { "type": "Polygon", "coordinates": [ [ [ -72.525714827243377, 46.769600953976955 ], [ -72.532138754020806, 46.772337710337624 ], [ -72.531901464405905, 46.777528527947091 ], [ -72.525238992917267, 46.77998253820995 ], [ -72.51881453757332, 46.777245386816617 ], [ -72.519053082261635, 46.772054620260299 ], [ -72.525714827243377, 46.769600953976955 ] ] ] } },
{ "type": "Feature", "properties": { "hex_id": 669237, "centroid_lon": -72.519291560807716, "centroid_lat": 46.766863848039172, "occurrences_today": 5, "datetimes_today": "2026-04-11 00:16:26, 2026-04-11 00:31:34, 2026-04-11 00:46:23, 2026-04-11 01:01:39, 2026-04-11 01:13:12", "cumulative_total": 13.0 }, "geometry": { "type": "Polygon", "coordinates": [ [ [ -72.519529973234498, 46.761673070153535 ], [ -72.525952645459085, 46.764410153370648 ], [ -72.525714827243377, 46.769600953976955 ], [ -72.519053082261635, 46.772054620260299 ], [ -72.512629881956769, 46.769317142062057 ], [ -72.512868954690973, 46.764126392628775 ], [ -72.519529973234498, 46.761673070153535 ] ] ] } },
{ "type": "Feature", "properties": { "hex_id": 669238, "centroid_lon": -72.518575926719819, "centroid_lat": 46.782436147707855, "occurrences_today": 5, "datetimes_today": "2026-04-11 00:16:26, 2026-04-11 00:31:34, 2026-04-11 00:46:23, 2026-04-11 01:01:39, 2026-04-11 01:13:12", "cumulative_total": 13.0 }, "geometry": { "type": "Polygon", "coordinates": [ [ [ -72.51881453757332, 46.777245386816617 ], [ -72.525238992917267, 46.77998253820995 ], [ -72.525000976761149, 46.785173321836034 ], [ -72.518337249678197, 46.787626902933724 ], [ -72.511912265836472, 46.784889356343498 ], [ -72.512151537552512, 46.779698623919714 ], [ -72.51881453757332, 46.777245386816617 ] ] ] } },
{ "type": "Feature", "properties": { "hex_id": 669848, "centroid_lon": -72.512390742918285, "centroid_lat": 46.774507885825798, "occurrences_today": 5, "datetimes_today": "2026-04-11 00:16:26, 2026-04-11 00:31:34, 2026-04-11 00:46:23, 2026-04-11 01:01:39, 2026-04-11 01:13:12", "cumulative_total": 13.0 }, "geometry": { "type": "Polygon", "coordinates": [ [ [ -72.512629881956769, 46.769317142062057 ], [ -72.519053082261635, 46.772054620260299 ], [ -72.51881453757332, 46.777245386816617 ], [ -72.512151537552512, 46.779698623919714 ], [ -72.505727809236248, 46.776960750576144 ], [ -72.505967608929197, 46.771770035342008 ], [ -72.512629881956769, 46.769317142062057 ] ] ] } },
{ "type": "Feature", "properties": { "hex_id": 669849, "centroid_lon": -72.511672927747128, "centroid_lat": 46.790080083096882, "occurrences_today": 5, "datetimes_today": "2026-04-11 00:16:26, 2026-04-11 00:31:34, 2026-04-11 00:46:23, 2026-04-11 01:01:39, 2026-04-11 01:13:12", "cumulative_total": 13.0 }, "geometry": { "type": "Polygon", "coordinates": [ [ [ -72.511912265836472, 46.784889356343498 ], [ -72.518337249678197, 46.787626902933724 ], [ -72.518098506425488, 46.79281765249393 ], [ -72.511433523261488, 46.79527080417958 ], [ -72.505008010990949, 46.792532862228164 ], [ -72.505248010290202, 46.787342164019513 ], [ -72.511912265836472, 46.784889356343498 ] ] ] } },
{ "type": "Feature", "properties": { "hex_id": 670459, "centroid_lon": -72.505487943030943, "centroid_lat": 46.78215146013541, "occurrences_today": 5, "datetimes_today": "2026-04-11 00:16:26, 2026-04-11 00:31:34, 2026-04-11 00:46:23, 2026-04-11 01:01:39, 2026-04-11 01:13:12", "cumulative_total": 13.0 }, "geometry": { "type": "Polygon", "coordinates": [ [ [ -72.505727809236248, 46.776960750576144 ], [ -72.512151537552512, 46.779698623919714 ], [ -72.511912265836472, 46.784889356343498 ], [ -72.505248010290202, 46.787342164019513 ], [ -72.498823754031633, 46.784603895366409 ], [ -72.499064281238574, 46.779413214414042 ], [ -72.505727809236248, 46.776960750576144 ] ] ] } },
{ "type": "Feature", "properties": { "hex_id": 670460, "centroid_lon": -72.504767945110117, "centroid_lat": 46.797723554761085, "occurrences_today": 5, "datetimes_today": "2026-04-11 00:16:26, 2026-04-11 00:31:34, 2026-04-11 00:46:23, 2026-04-11 01:01:39, 2026-04-11 01:13:12", "cumulative_total": 31.0 }, "geometry": { "type": "Polygon", "coordinates": [ [ [ -72.505008010990949, 46.792532862228164 ], [ -72.511433523261488, 46.79527080417958 ], [ -72.511194052356487, 46.800461519591295 ], [ -72.504527812624573, 46.802914241617955 ], [ -72.498101771994456, 46.800175904141028 ], [ -72.498342499432738, 46.794985240230204 ], [ -72.505008010990949, 46.792532862228164 ] ] ] } },
{ "type": "Feature", "properties": { "hex_id": 671070, "centroid_lon": -72.498583160104076, "centroid_lat": 46.789794570638556, "occurrences_today": 5, "datetimes_today": "2026-04-11 00:16:26, 2026-04-11 00:31:34, 2026-04-11 00:46:23, 2026-04-11 01:01:39, 2026-04-11 01:13:12", "cumulative_total": 31.0 }, "geometry": { "type": "Polygon", "coordinates": [ [ [ -72.498823754031633, 46.784603895366409 ], [ -72.505248010290202, 46.787342164019513 ], [ -72.505008010990949, 46.792532862228164 ], [ -72.498342499432738, 46.794985240230204 ], [ -72.491917715301213, 46.792246576103295 ], [ -72.492158970577734, 46.787055929515375 ], [ -72.498823754031633, 46.784603895366409 ] ] ] } },
{ "type": "Feature", "properties": { "hex_id": 671071, "centroid_lon": -72.497860977766067, "centroid_lat": 46.805366562370757, "occurrences_today": 5, "datetimes_today": "2026-04-11 00:16:26, 2026-04-11 00:31:34, 2026-04-11 00:46:23, 2026-04-11 01:01:39, 2026-04-11 01:13:12", "cumulative_total": 31.0 }, "geometry": { "type": "Polygon", "coordinates": [ [ [ -72.498101771994456, 46.800175904141028 ], [ -72.504527812624573, 46.802914241617955 ], [ -72.504287613511224, 46.808104922798485 ], [ -72.497620116724391, 46.810557214919093 ], [ -72.491193547804116, 46.807818481752328 ], [ -72.491435003937639, 46.802627852222074 ], [ -72.498101771994456, 46.800175904141028 ] ] ] } },
{ "type": "Feature", "properties": { "hex_id": 671681, "centroid_lon": -72.491676393095588, "centroid_lat": 46.797437217005623, "occurrences_today": 5, "datetimes_today": "2026-04-11 00:16:26, 2026-04-11 00:31:34, 2026-04-11 00:46:23, 2026-04-11 01:01:39, 2026-04-11 01:13:12", "cumulative_total": 31.0 }, "geometry": { "type": "Polygon", "coordinates": [ [ [ -72.491917715301213, 46.792246576103295 ], [ -72.498342499432738, 46.794985240230204 ], [ -72.498101771994456, 46.800175904141028 ], [ -72.491435003937639, 46.802627852222074 ], [ -72.48500969200272, 46.799888792457082 ], [ -72.485251675904792, 46.794698180316381 ], [ -72.491917715301213, 46.792246576103295 ] ] ] } },
{ "type": "Feature", "properties": { "hex_id": 523269, "centroid_lon": -74.099086706788597, "centroid_lat": 45.878299632298436, "occurrences_today": 3, "datetimes_today": "2026-04-11 01:31:37, 2026-04-11 01:46:33, 2026-04-11 02:01:20", "cumulative_total": 36.0 }, "geometry": { "type": "Polygon", "coordinates": [ [ [ -74.099170670449027, 45.873103810770608 ], [ -74.105570743349702, 45.875752331164477 ], [ -74.10548736847413, 45.880948159382157 ], [ -74.099002720089373, 45.883495448961199 ], [ -74.092602081446543, 45.880846559902771 ], [ -74.092686656922837, 45.875650749995302 ], [ -74.099170670449027, 45.873103810770608 ] ] ] } },
{ "type": "Feature", "properties": { "hex_id": 524490, "centroid_lon": -74.086202054784223, "centroid_lat": 45.878197315660614, "occurrences_today": 3, "datetimes_today": "2026-04-11 01:31:37, 2026-04-11 01:46:33, 2026-04-11 02:01:20", "cumulative_total": 53.0 }, "geometry": { "type": "Polygon", "coordinates": [ [ [ -74.086287218869003, 45.873001512572152 ], [ -74.092686656922837, 45.875650749995302 ], [ -74.092602081446543, 45.880846559902771 ], [ -74.08611686733137, 45.883393113880587 ], [ -74.079716864041089, 45.880743507669692 ], [ -74.079802640094513, 45.875547716334175 ], [ -74.086287218869003, 45.873001512572152 ] ] ] } },
{ "type": "Feature", "properties": { "hex_id": 522047, "centroid_lon": -74.112219649449571, "centroid_lat": 45.862812962601687, "occurrences_today": 3, "datetimes_today": "2026-04-11 01:31:37, 2026-04-11 01:46:33, 2026-04-11 02:01:20", "cumulative_total": 13.0 }, "geometry": { "type": "Polygon", "coordinates": [ [ [ -74.112302344579831, 45.857617108311089 ], [ -74.118701285926363, 45.860264891862712 ], [ -74.118619179275044, 45.865460752708977 ], [ -74.112136931632875, 45.868008812030574 ], [ -74.105737424497718, 45.865360660138947 ], [ -74.105820730785652, 45.860164817331139 ], [ -74.112302344579831, 45.857617108311089 ] ] ] } },
{ "type": "Feature", "properties": { "hex_id": 522048, "centroid_lon": -74.111971427909381, "centroid_lat": 45.878400496303271, "occurrences_today": 3, "datetimes_today": "2026-04-11 01:31:37, 2026-04-11 01:46:33, 2026-04-11 02:01:20", "cumulative_total": 20.0 }, "geometry": { "type": "Polygon", "coordinates": [ [ [ -74.112054191122056, 45.873204656597771 ], [ -74.118454898387412, 45.875852459821409 ], [ -74.118372724135838, 45.881048306087557 ], [ -74.111888641987207, 45.883596331147054 ], [ -74.10548736847413, 45.880948159382157 ], [ -74.105570743349702, 45.875752331164477 ], [ -74.112054191122056, 45.873204656597771 ] ] ] } },
{ "type": "Feature", "properties": { "hex_id": 522657, "centroid_lon": -74.105904014226539, "centroid_lat": 45.854968969659978, "occurrences_today": 3, "datetimes_today": "2026-04-11 01:31:37, 2026-04-11 01:46:33, 2026-04-11 02:01:20", "cumulative_total": 29.0 }, "geometry": { "type": "Polygon", "coordinates": [ [ [ -74.105987274828109, 45.849773117125466 ], [ -74.112385017031329, 45.852421249158837 ], [ -74.112302344579831, 45.857617108311089 ], [ -74.105820730785652, 45.860164817331139 ], [ -74.099422423275527, 45.857516316996737 ], [ -74.099506294858784, 45.852320476008686 ], [ -74.105987274828109, 45.849773117125466 ] ] ] } },
{ "type": "Feature", "properties": { "hex_id": 522658, "centroid_lon": -74.105654095354978, "centroid_lat": 45.870556498083403, "occurrences_today": 3, "datetimes_today": "2026-04-11 01:31:37, 2026-04-11 01:46:33, 2026-04-11 02:01:20", "cumulative_total": 8.0 }, "geometry": { "type": "Polygon", "coordinates": [ [ [ -74.105737424497718, 45.865360660138947 ], [ -74.112136931632875, 45.868008812030574 ], [ -74.112054191122056, 45.873204656597771 ], [ -74.105570743349702, 45.875752331164477 ], [ -74.099170670449027, 45.873103810770608 ], [ -74.099254611078464, 45.867907984377688 ], [ -74.105737424497718, 45.865360660138947 ] ] ] } },
{ "type": "Feature", "properties": { "hex_id": 523268, "centroid_lon": -74.099338528684697, "centroid_lat": 45.862712153119737, "occurrences_today": 3, "datetimes_today": "2026-04-11 01:31:37, 2026-04-11 01:46:33, 2026-04-11 02:01:20", "cumulative_total": 8.0 }, "geometry": { "type": "Polygon", "coordinates": [ [ [ -74.099422423275527, 45.857516316996737 ], [ -74.105820730785652, 45.860164817331139 ], [ -74.105737424497718, 45.865360660138947 ], [ -74.099254611078464, 45.867907984377688 ], [ -74.092855738284754, 45.865259115580031 ], [ -74.092940244186082, 45.860063291072279 ], [ -74.099422423275527, 45.857516316996737 ] ] ] } },
{ "type": "Feature", "properties": { "hex_id": 523878, "centroid_lon": -74.09302472691148, "centroid_lat": 45.854867461697808, "occurrences_today": 3, "datetimes_today": "2026-04-11 01:31:37, 2026-04-11 01:46:33, 2026-04-11 02:01:20", "cumulative_total": 9.0 }, "geometry": { "type": "Polygon", "coordinates": [ [ [ -74.09310918646878, 45.849671627456594 ], [ -74.099506294858784, 45.852320476008686 ], [ -74.099422423275527, 45.857516316996737 ], [ -74.092940244186082, 45.860063291072279 ], [ -74.086542570994041, 45.857414074095985 ], [ -74.086627641685666, 45.852218251533692 ], [ -74.09310918646878, 45.849671627456594 ] ] ] } },
{ "type": "Feature", "properties": { "hex_id": 523879, "centroid_lon": -74.092771209199626, "centroid_lat": 45.870454935221041, "occurrences_today": 3, "datetimes_today": "2026-04-11 01:31:37, 2026-04-11 01:46:33, 2026-04-11 02:01:20", "cumulative_total": 8.0 }, "geometry": { "type": "Polygon", "coordinates": [ [ [ -74.092855738284754, 45.865259115580031 ], [ -74.099254611078464, 45.867907984377688 ], [ -74.099170670449027, 45.873103810770608 ], [ -74.092686656922837, 45.875650749995302 ], [ -74.086287218869003, 45.873001512572152 ], [ -74.086372359593625, 45.867805704615222 ], [ -74.092855738284754, 45.865259115580031 ] ] ] } },
{ "type": "Feature", "properties": { "hex_id": 524488, "centroid_lon": -74.086712689048753, "centroid_lat": 45.847022424102995, "occurrences_today": 3, "datetimes_today": "2026-04-11 01:31:37, 2026-04-11 01:46:33, 2026-04-11 02:01:20", "cumulative_total": 30.0 }, "geometry": { "type": "Polygon", "coordinates": [ [ [ -74.086797713091229, 45.841826591803866 ], [ -74.093193622865854, 45.84447578834866 ], [ -74.09310918646878, 45.849671627456594 ], [ -74.086627641685666, 45.852218251533692 ], [ -74.080231167590199, 45.849568686603796 ], [ -74.080316802590801, 45.844372866047237 ], [ -74.086797713091229, 45.841826591803866 ] ] ] } },
{ "type": "Feature", "properties": { "hex_id": 524489, "centroid_lon": -74.086457476966004, "centroid_lat": 45.86260989178983, "occurrences_today": 3, "datetimes_today": "2026-04-11 01:31:37, 2026-04-11 01:46:33, 2026-04-11 02:01:20", "cumulative_total": 8.0 }, "geometry": { "type": "Polygon", "coordinates": [ [ [ -74.086542570994041, 45.857414074095985 ], [ -74.092940244186082, 45.860063291072279 ], [ -74.092855738284754, 45.865259115580031 ], [ -74.086372359593625, 45.867805704615222 ], [ -74.079974121623167, 45.865156119052536 ], [ -74.08005982711434, 45.859960313106448 ], [ -74.086542570994041, 45.857414074095985 ] ] ] } },
{ "type": "Feature", "properties": { "hex_id": 525099, "centroid_lon": -74.080145509100703, "centroid_lat": 45.854764502290195, "occurrences_today": 3, "datetimes_today": "2026-04-11 01:31:37, 2026-04-11 01:46:33, 2026-04-11 02:01:20", "cumulative_total": 18.0 }, "geometry": { "type": "Polygon", "coordinates": [ [ [ -74.080231167590199, 45.849568686603796 ], [ -74.086627641685666, 45.852218251533692 ], [ -74.086542570994041, 45.857414074095985 ], [ -74.08005982711434, 45.859960313106448 ], [ -74.073662788721819, 45.85731037962929 ], [ -74.073749058498109, 45.852114575754271 ], [ -74.080231167590199, 45.849568686603796 ] ] ] } },
{ "type": "Feature", "properties": { "hex_id": 525709, "centroid_lon": -74.073835304617162, "centroid_lat": 45.846918767007416, "occurrences_today": 3, "datetimes_today": "2026-04-11 01:31:37, 2026-04-11 01:46:33, 2026-04-11 02:01:20", "cumulative_total": 9.0 }, "geometry": { "type": "Polygon", "coordinates": [ [ [ -74.073921527087009, 45.841722953388661 ], [ -74.080316802590801, 45.844372866047237 ], [ -74.080231167590199, 45.849568686603796 ], [ -74.073749058498109, 45.852114575754271 ], [ -74.067353219178301, 45.849464294587634 ], [ -74.06744005275857, 45.844268492843909 ], [ -74.073921527087009, 45.841722953388661 ] ] ] } },
{ "type": "Feature", "properties": { "hex_id": 525710, "centroid_lon": -74.073576495280307, "centroid_lat": 45.862506178632408, "occurrences_today": 6, "datetimes_today": "2026-04-11 01:31:37, 2026-04-11 01:46:33, 2026-04-11 02:01:20, 2026-04-11 02:31:35, 2026-04-11 02:46:20, 2026-04-11 03:01:32", "cumulative_total": 68.0 }, "geometry": { "type": "Polygon", "coordinates": [ [ [ -74.073662788721819, 45.85731037962929 ], [ -74.08005982711434, 45.859960313106448 ], [ -74.079974121623167, 45.865156119052536 ], [ -74.073490178165514, 45.867701972763605 ], [ -74.067092575499927, 45.865051670577053 ], [ -74.067179480557044, 45.859855883454209 ], [ -74.073662788721819, 45.85731037962929 ] ] ] } },
{ "type": "Feature", "properties": { "hex_id": 526319, "centroid_lon": -74.067526862529391, "centroid_lat": 45.839072686226586, "occurrences_today": 3, "datetimes_today": "2026-04-11 01:31:37, 2026-04-11 01:46:33, 2026-04-11 02:01:20", "cumulative_total": 9.0 }, "geometry": { "type": "Polygon", "coordinates": [ [ [ -74.067613648498792, 45.833876874735687 ], [ -74.074007725915649, 45.836527134898077 ], [ -74.073921527087009, 45.841722953388661 ], [ -74.06744005275857, 45.844268492843909 ], [ -74.061045412006408, 45.841617864212644 ], [ -74.061132808909917, 45.836422064660354 ], [ -74.067613648498792, 45.833876874735687 ] ] ] } },
{ "type": "Feature", "properties": { "hex_id": 526930, "centroid_lon": -74.060957991133222, "centroid_lat": 45.846813658889602, "occurrences_today": 3, "datetimes_today": "2026-04-11 01:31:37, 2026-04-11 01:46:33, 2026-04-11 02:01:20", "cumulative_total": 8.0 }, "geometry": { "type": "Polygon", "coordinates": [ [ [ -74.061045412006408, 45.841617864212644 ], [ -74.06744005275857, 45.844268492843909 ], [ -74.067353219178301, 45.849464294587634 ], [ -74.060870546282231, 45.85200944869117 ], [ -74.054475342219007, 45.849358451428998 ], [ -74.054563374354771, 45.844162668759537 ], [ -74.061045412006408, 45.841617864212644 ] ] ] } },
{ "type": "Feature", "properties": { "hex_id": 527540, "centroid_lon": -74.054651382352546, "centroid_lat": 45.838966881212968, "occurrences_today": 3, "datetimes_today": "2026-04-11 01:31:37, 2026-04-11 01:46:33, 2026-04-11 02:01:20", "cumulative_total": 44.0 }, "geometry": { "type": "Polygon", "coordinates": [ [ [ -74.054739366220517, 45.833771088789291 ], [ -74.061132808909917, 45.836422064660354 ], [ -74.061045412006408, 45.841617864212644 ], [ -74.054563374354771, 45.844162668759537 ], [ -74.048169368834834, 45.841511324296839 ], [ -74.048257963788885, 45.836315543944217 ], [ -74.054739366220517, 45.833771088789291 ] ] ] } },
{ "type": "Feature", "properties": { "hex_id": 581243, "centroid_lon": -73.49700284692608, "centroid_lat": 45.505600022956706, "occurrences_today": 18, "datetimes_today": "2026-04-11 01:13:12, 2026-04-11 01:31:37, 2026-04-11 01:46:33, 2026-04-11 02:01:20, 2026-04-11 02:15:46, 2026-04-11 02:31:35, 2026-04-11 02:46:20, 2026-04-11 03:01:32, 2026-04-11 03:16:27, 2026-04-11 03:31:01, 2026-04-11 03:46:45, 2026-04-11 04:01:58, 2026-04-11 04:17:07, 2026-04-11 04:31:35, 2026-04-11 04:46:45, 2026-04-11 05:01:55, 2026-04-11 05:17:11, 2026-04-11 05:31:45", "cumulative_total": 118.0 }, "geometry": { "type": "Polygon", "coordinates": [ [ [ -73.497141105739246, 45.500405008272097 ], [ -73.503469982541702, 45.503086534303513 ], [ -73.503332292966931, 45.508281561588518 ], [ -73.496864550357003, 45.51079503256755 ], [ -73.490535142078386, 45.508113136913188 ], [ -73.490674007873167, 45.502918139967221 ], [ -73.497141105739246, 45.500405008272097 ] ] ] } },
{ "type": "Feature", "properties": { "hex_id": 653872, "centroid_lon": -72.748538249480134, "centroid_lat": 45.173679789431873, "occurrences_today": 23, "datetimes_today": "2026-04-11 00:01:28, 2026-04-11 00:16:26, 2026-04-11 00:31:34, 2026-04-11 00:46:23, 2026-04-11 01:01:39, 2026-04-11 01:13:12, 2026-04-11 01:31:37, 2026-04-11 01:46:33, 2026-04-11 02:01:20, 2026-04-11 02:15:46, 2026-04-11 02:31:35, 2026-04-11 02:46:20, 2026-04-11 03:01:32, 2026-04-11 03:16:27, 2026-04-11 03:31:01, 2026-04-11 03:46:45, 2026-04-11 04:01:58, 2026-04-11 04:17:07, 2026-04-11 04:31:35, 2026-04-11 04:46:45, 2026-04-11 05:01:55, 2026-04-11 05:17:11, 2026-04-11 05:31:45", "cumulative_total": 45.0 }, "geometry": { "type": "Polygon", "coordinates": [ [ [ -72.748742947713538, 45.16848669904693 ], [ -72.754998617080076, 45.17120846341205 ], [ -72.754794467997314, 45.176401573610477 ], [ -72.748333495590899, 45.178872874346219 ], [ -72.742077332738802, 45.176150737798224 ], [ -72.742282635760176, 45.170957672760892 ], [ -72.748742947713538, 45.16848669904693 ] ] ] } },
{ "type": "Feature", "properties": { "hex_id": 655704, "centroid_lon": -72.729153851906133, "centroid_lat": 45.181091501201315, "occurrences_today": 23, "datetimes_today": "2026-04-11 00:01:28, 2026-04-11 00:16:26, 2026-04-11 00:31:34, 2026-04-11 00:46:23, 2026-04-11 01:01:39, 2026-04-11 01:13:12, 2026-04-11 01:31:37, 2026-04-11 01:46:33, 2026-04-11 02:01:20, 2026-04-11 02:15:46, 2026-04-11 02:31:35, 2026-04-11 02:46:20, 2026-04-11 03:01:32, 2026-04-11 03:16:27, 2026-04-11 03:31:01, 2026-04-11 03:46:45, 2026-04-11 04:01:58, 2026-04-11 04:17:07, 2026-04-11 04:31:35, 2026-04-11 04:46:45, 2026-04-11 05:01:55, 2026-04-11 05:17:11, 2026-04-11 05:31:45", "cumulative_total": 45.0 }, "geometry": { "type": "Polygon", "coordinates": [ [ [ -72.729360364945165, 45.175898487062426 ], [ -72.73561586687461, 45.178621308418819 ], [ -72.735409902930542, 45.183814342561796 ], [ -72.728947282713705, 45.186284509857003 ], [ -72.722691287851987, 45.183561316053449 ], [ -72.722898406120734, 45.178368327465392 ], [ -72.729360364945165, 45.175898487062426 ] ] ] } },
{ "type": "Feature", "properties": { "hex_id": 554369, "centroid_lon": -73.782579240941573, "centroid_lat": 45.321912747768245, "occurrences_today": 16, "datetimes_today": "2026-04-11 01:46:33, 2026-04-11 02:01:20, 2026-04-11 02:15:46, 2026-04-11 02:31:35, 2026-04-11 02:46:20, 2026-04-11 03:01:32, 2026-04-11 03:16:27, 2026-04-11 03:31:01, 2026-04-11 03:46:45, 2026-04-11 04:01:58, 2026-04-11 04:17:07, 2026-04-11 04:31:35, 2026-04-11 04:46:45, 2026-04-11 05:01:55, 2026-04-11 05:17:11, 2026-04-11 05:31:45", "cumulative_total": 19.0 }, "geometry": { "type": "Polygon", "coordinates": [ [ [ -73.782690519699713, 45.316716949487073 ], [ -73.789012932980413, 45.319382660223091 ], [ -73.788902221806438, 45.324578468241654 ], [ -73.782467931858235, 45.327108541088201 ], [ -73.776144981323611, 45.324442465714235 ], [ -73.776256857980982, 45.319246682195782 ], [ -73.782690519699713, 45.316716949487073 ] ] ] } },
{ "type": "Feature", "properties": { "hex_id": 555590, "centroid_lon": -73.769822628846896, "centroid_lat": 45.321776045277161, "occurrences_today": 16, "datetimes_today": "2026-04-11 01:46:33, 2026-04-11 02:01:20, 2026-04-11 02:15:46, 2026-04-11 02:31:35, 2026-04-11 02:46:20, 2026-04-11 03:01:32, 2026-04-11 03:16:27, 2026-04-11 03:31:01, 2026-04-11 03:46:45, 2026-04-11 04:01:58, 2026-04-11 04:17:07, 2026-04-11 04:31:35, 2026-04-11 04:46:45, 2026-04-11 05:01:55, 2026-04-11 05:17:11, 2026-04-11 05:31:45", "cumulative_total": 19.0 }, "geometry": { "type": "Polygon", "coordinates": [ [ [ -73.769935072914535, 45.316580271622122 ], [ -73.776256857980982, 45.319246682195782 ], [ -73.776144981323611, 45.324442465714235 ], [ -73.769710154136689, 45.326971813966516 ], [ -73.763387832307657, 45.324305038636744 ], [ -73.763500874417886, 45.319109279874901 ], [ -73.769935072914535, 45.316580271622122 ] ] ] } },
{ "type": "Feature", "properties": { "hex_id": 552537, "centroid_lon": -73.801878614280454, "centroid_lat": 45.314321376713352, "occurrences_today": 16, "datetimes_today": "2026-04-11 01:46:33, 2026-04-11 02:01:20, 2026-04-11 02:15:46, 2026-04-11 02:31:35, 2026-04-11 02:46:20, 2026-04-11 03:01:32, 2026-04-11 03:16:27, 2026-04-11 03:31:01, 2026-04-11 03:46:45, 2026-04-11 04:01:58, 2026-04-11 04:17:07, 2026-04-11 04:31:35, 2026-04-11 04:46:45, 2026-04-11 05:01:55, 2026-04-11 05:17:11, 2026-04-11 05:31:45", "cumulative_total": 18.0 }, "geometry": { "type": "Polygon", "coordinates": [ [ [ -73.801988100262548, 45.309125534542076 ], [ -73.808310603521619, 45.311790180937756 ], [ -73.808201685153762, 45.316986032654093 ], [ -73.80176909846422, 45.319517213930077 ], [ -73.79544605743007, 45.316852203173291 ], [ -73.795556140850564, 45.311656375565725 ], [ -73.801988100262548, 45.309125534542076 ] ] ] } },
{ "type": "Feature", "properties": { "hex_id": 553148, "centroid_lon": -73.795335944011782, "centroid_lat": 45.322048025824103, "occurrences_today": 20, "datetimes_today": "2026-04-11 00:46:23, 2026-04-11 01:01:39, 2026-04-11 01:13:12, 2026-04-11 01:31:37, 2026-04-11 01:46:33, 2026-04-11 02:01:20, 2026-04-11 02:15:46, 2026-04-11 02:31:35, 2026-04-11 02:46:20, 2026-04-11 03:01:32, 2026-04-11 03:16:27, 2026-04-11 03:31:01, 2026-04-11 03:46:45, 2026-04-11 04:01:58, 2026-04-11 04:17:07, 2026-04-11 04:31:35, 2026-04-11 04:46:45, 2026-04-11 05:01:55, 2026-04-11 05:17:11, 2026-04-11 05:31:45", "cumulative_total": 22.0 }, "geometry": { "type": "Polygon", "coordinates": [ [ [ -73.79544605743007, 45.316852203173291 ], [ -73.80176909846422, 45.319517213930077 ], [ -73.801659552803855, 45.32471304619223 ], [ -73.795225800585698, 45.327243843518119 ], [ -73.788902221806438, 45.324578468241654 ], [ -73.789012932980413, 45.319382660223091 ], [ -73.79544605743007, 45.316852203173291 ] ] ] } },
{ "type": "Feature", "properties": { "hex_id": 553758, "centroid_lon": -73.789123613992942, "centroid_lat": 45.314186847245573, "occurrences_today": 16, "datetimes_today": "2026-04-11 01:46:33, 2026-04-11 02:01:20, 2026-04-11 02:15:46, 2026-04-11 02:31:35, 2026-04-11 02:46:20, 2026-04-11 03:01:32, 2026-04-11 03:16:27, 2026-04-11 03:31:01, 2026-04-11 03:46:45, 2026-04-11 04:01:58, 2026-04-11 04:17:07, 2026-04-11 04:31:35, 2026-04-11 04:46:45, 2026-04-11 05:01:55, 2026-04-11 05:17:11, 2026-04-11 05:31:45", "cumulative_total": 18.0 }, "geometry": { "type": "Polygon", "coordinates": [ [ [ -73.789234264854059, 45.308991029309112 ], [ -73.795556140850564, 45.311656375565725 ], [ -73.79544605743007, 45.316852203173291 ], [ -73.789012932980413, 45.319382660223091 ], [ -73.782690519699713, 45.316716949487073 ], [ -73.782801768142804, 45.31152114624475 ], [ -73.789234264854059, 45.308991029309112 ] ] ] } },
{ "type": "Feature", "properties": { "hex_id": 554980, "centroid_lon": -73.776033074177263, "centroid_lat": 45.329638244269191, "occurrences_today": 16, "datetimes_today": "2026-04-11 01:46:33, 2026-04-11 02:01:20, 2026-04-11 02:15:46, 2026-04-11 02:31:35, 2026-04-11 02:46:20, 2026-04-11 03:01:32, 2026-04-11 03:16:27, 2026-04-11 03:31:01, 2026-04-11 03:46:45, 2026-04-11 04:01:58, 2026-04-11 04:17:07, 2026-04-11 04:31:35, 2026-04-11 04:46:45, 2026-04-11 05:01:55, 2026-04-11 05:17:11, 2026-04-11 05:31:45", "cumulative_total": 18.0 }, "geometry": { "type": "Polygon", "coordinates": [ [ [ -73.776144981323611, 45.324442465714235 ], [ -73.782467931858235, 45.327108541088201 ], [ -73.782356592439584, 45.332304329446863 ], [ -73.775921136531778, 45.334834017860636 ], [ -73.769597648773697, 45.332167577690122 ], [ -73.769710154136689, 45.326971813966516 ], [ -73.776144981323611, 45.324442465714235 ] ] ] } },
{ "type": "Feature", "properties": { "hex_id": 556201, "centroid_lon": -73.763274759391024, "centroid_lat": 45.329500792430608, "occurrences_today": 16, "datetimes_today": "2026-04-11 01:46:33, 2026-04-11 02:01:20, 2026-04-11 02:15:46, 2026-04-11 02:31:35, 2026-04-11 02:46:20, 2026-04-11 03:01:32, 2026-04-11 03:16:27, 2026-04-11 03:31:01, 2026-04-11 03:46:45, 2026-04-11 04:01:58, 2026-04-11 04:17:07, 2026-04-11 04:31:35, 2026-04-11 04:46:45, 2026-04-11 05:01:55, 2026-04-11 05:17:11, 2026-04-11 05:31:45", "cumulative_total": 18.0 }, "geometry": { "type": "Polygon", "coordinates": [ [ [ -73.763387832307657, 45.324305038636744 ], [ -73.769710154136689, 45.326971813966516 ], [ -73.769597648773697, 45.332167577690122 ], [ -73.76316165565774, 45.334696541256442 ], [ -73.75683879709689, 45.332029401011987 ], [ -73.756952468373512, 45.326833662180015 ], [ -73.763387832307657, 45.324305038636744 ] ] ] } },
{ "type": "Feature", "properties": { "hex_id": 558048, "centroid_lon": -73.738763525306865, "centroid_lat": 45.570887249980423, "occurrences_today": 1, "datetimes_today": "2026-04-11 00:01:28", "cumulative_total": 10.0 }, "geometry": { "type": "Polygon", "coordinates": [ [ [ -73.738879813078555, 45.565691765208662 ], [ -73.745227733305711, 45.568360063125191 ], [ -73.745112020020059, 45.573555558121413 ], [ -73.73864720575088, 45.576082729774356 ], [ -73.732298742827325, 45.573414063665837 ], [ -73.732415636858647, 45.568218594161024 ], [ -73.738879813078555, 45.565691765208662 ] ] ] } },
{ "type": "Feature", "properties": { "hex_id": 654483, "centroid_lon": -72.741871973895798, "centroid_lat": 45.181343797360746, "occurrences_today": 23, "datetimes_today": "2026-04-11 00:01:28, 2026-04-11 00:16:26, 2026-04-11 00:31:34, 2026-04-11 00:46:23, 2026-04-11 01:01:39, 2026-04-11 01:13:12, 2026-04-11 01:31:37, 2026-04-11 01:46:33, 2026-04-11 02:01:20, 2026-04-11 02:15:46, 2026-04-11 02:31:35, 2026-04-11 02:46:20, 2026-04-11 03:01:32, 2026-04-11 03:16:27, 2026-04-11 03:31:01, 2026-04-11 03:46:45, 2026-04-11 04:01:58, 2026-04-11 04:17:07, 2026-04-11 04:31:35, 2026-04-11 04:46:45, 2026-04-11 05:01:55, 2026-04-11 05:17:11, 2026-04-11 05:31:45", "cumulative_total": 25.0 }, "geometry": { "type": "Polygon", "coordinates": [ [ [ -72.742077332738802, 45.176150737798224 ], [ -72.748333495590899, 45.178872874346219 ], [ -72.748128686027343, 45.184065953789698 ], [ -72.741666559212604, 45.186536851448245 ], [ -72.735409902930542, 45.183814342561796 ], [ -72.73561586687461, 45.178621308418819 ], [ -72.742077332738802, 45.176150737798224 ] ] ] } },
{ "type": "Feature", "properties": { "hex_id": 655094, "centroid_lon": -72.735203882980386, "centroid_lat": 45.189007371225529, "occurrences_today": 23, "datetimes_today": "2026-04-11 00:01:28, 2026-04-11 00:16:26, 2026-04-11 00:31:34, 2026-04-11 00:46:23, 2026-04-11 01:01:39, 2026-04-11 01:13:12, 2026-04-11 01:31:37, 2026-04-11 01:46:33, 2026-04-11 02:01:20, 2026-04-11 02:15:46, 2026-04-11 02:31:35, 2026-04-11 02:46:20, 2026-04-11 03:01:32, 2026-04-11 03:16:27, 2026-04-11 03:31:01, 2026-04-11 03:46:45, 2026-04-11 04:01:58, 2026-04-11 04:17:07, 2026-04-11 04:31:35, 2026-04-11 04:46:45, 2026-04-11 05:01:55, 2026-04-11 05:17:11, 2026-04-11 05:31:45", "cumulative_total": 25.0 }, "geometry": { "type": "Polygon", "coordinates": [ [ [ -72.735409902930542, 45.183814342561796 ], [ -72.741666559212604, 45.186536851448245 ], [ -72.741461088670661, 45.191729900060459 ], [ -72.734997807005499, 45.194200394409762 ], [ -72.728740657349235, 45.191477513029206 ], [ -72.728947282713705, 45.186284509857003 ], [ -72.735409902930542, 45.183814342561796 ] ] ] } },
{ "type": "Feature", "properties": { "hex_id": 708217, "centroid_lon": -72.174731343649029, "centroid_lat": 45.324626631110384, "occurrences_today": 19, "datetimes_today": "2026-04-11 01:01:39, 2026-04-11 01:13:12, 2026-04-11 01:31:37, 2026-04-11 01:46:33, 2026-04-11 02:01:20, 2026-04-11 02:15:46, 2026-04-11 02:31:35, 2026-04-11 02:46:20, 2026-04-11 03:01:32, 2026-04-11 03:16:27, 2026-04-11 03:31:01, 2026-04-11 03:46:45, 2026-04-11 04:01:58, 2026-04-11 04:17:07, 2026-04-11 04:31:35, 2026-04-11 04:46:45, 2026-04-11 05:01:55, 2026-04-11 05:17:11, 2026-04-11 05:31:45", "cumulative_total": 19.0 }, "geometry": { "type": "Polygon", "coordinates": [ [ [ -72.174989527949194, 45.319435987129523 ], [ -72.181232488869114, 45.322188869966283 ], [ -72.180974849951596, 45.32737953936271 ], [ -72.174473089057159, 45.329817269201008 ], [ -72.16822965305802, 45.327064007296947 ], [ -72.168488453009104, 45.321873394685568 ], [ -72.174989527949194, 45.319435987129523 ] ] ] } },
{ "type": "Feature", "properties": { "hex_id": 708827, "centroid_lon": -72.168747182522722, "centroid_lat": 45.316682776179, "occurrences_today": 19, "datetimes_today": "2026-04-11 01:01:39, 2026-04-11 01:13:12, 2026-04-11 01:31:37, 2026-04-11 01:46:33, 2026-04-11 02:01:20, 2026-04-11 02:15:46, 2026-04-11 02:31:35, 2026-04-11 02:46:20, 2026-04-11 03:01:32, 2026-04-11 03:16:27, 2026-04-11 03:31:01, 2026-04-11 03:46:45, 2026-04-11 04:01:58, 2026-04-11 04:17:07, 2026-04-11 04:31:35, 2026-04-11 04:46:45, 2026-04-11 05:01:55, 2026-04-11 05:17:11, 2026-04-11 05:31:45", "cumulative_total": 19.0 }, "geometry": { "type": "Polygon", "coordinates": [ [ [ -72.169005841622365, 45.311492151777685 ], [ -72.175247641981102, 45.314245337258853 ], [ -72.174989527949194, 45.319435987129523 ], [ -72.168488453009104, 45.321873394685568 ], [ -72.162246178008331, 45.319119830187844 ], [ -72.162505452566208, 45.313929237214268 ], [ -72.169005841622365, 45.311492151777685 ] ] ] } }
]
}
