{
"type": "FeatureCollection",
"name": "daily_2026-05-19",
"crs": { "type": "name", "properties": { "name": "urn:ogc:def:crs:OGC:1.3:CRS84" } },
"features": [
{ "type": "Feature", "properties": { "hex_id": 603821, "centroid_lon": -73.265306208876964, "centroid_lat": 45.338612871971364, "occurrences_today": 2, "datetimes_today": "2026-05-19 00:01:22, 2026-05-19 00:16:17", "cumulative_total": 18.0 }, "geometry": { "type": "Polygon", "coordinates": [ [ [ -73.265464849223619, 45.333418299409516 ], [ -73.271763976341134, 45.33611230551913 ], [ -73.271605897095966, 45.341306892913749 ], [ -73.265147525299881, 45.343807439353498 ], [ -73.258847880318541, 45.341113063605754 ], [ -73.259007124982659, 45.335918511120433 ], [ -73.265464849223619, 45.333418299409516 ] ] ] } },
{ "type": "Feature", "properties": { "hex_id": 604431, "centroid_lon": -73.259166326265017, "centroid_lat": 45.330723953452242, "occurrences_today": 2, "datetimes_today": "2026-05-19 00:01:22, 2026-05-19 00:16:17", "cumulative_total": 63.0 }, "geometry": { "type": "Polygon", "coordinates": [ [ [ -73.25932548418011, 45.325529390601346 ], [ -73.265623446354283, 45.328223721668039 ], [ -73.265464849223619, 45.333418299409516 ], [ -73.259007124982659, 45.335918511120433 ], [ -73.25270864539857, 45.333223810459437 ], [ -73.252868407450904, 45.328029267745869 ], [ -73.25932548418011, 45.325529390601346 ] ] ] } },
{ "type": "Feature", "properties": { "hex_id": 605041, "centroid_lon": -73.253028125984727, "centroid_lat": 45.322834719846462, "occurrences_today": 2, "datetimes_today": "2026-05-19 00:01:22, 2026-05-19 00:16:17", "cumulative_total": 31.0 }, "geometry": { "type": "Polygon", "coordinates": [ [ [ -73.25318780101459, 45.317640166761393 ], [ -73.259484598742418, 45.320334822567879 ], [ -73.25932548418011, 45.325529390601346 ], [ -73.252868407450904, 45.328029267745869 ], [ -73.246571092766743, 45.32533424238887 ], [ -73.246731371753611, 45.320139709501866 ], [ -73.25318780101459, 45.317640166761393 ] ] ] } },
{ "type": "Feature", "properties": { "hex_id": 498230, "centroid_lon": -74.36474424897915, "centroid_lat": 45.7475738540086, "occurrences_today": 10, "datetimes_today": "2026-05-19 00:01:22, 2026-05-19 00:16:17, 2026-05-19 00:31:18, 2026-05-19 00:46:46, 2026-05-19 01:02:29, 2026-05-19 01:16:36, 2026-05-19 01:31:19, 2026-05-19 01:44:37, 2026-05-19 02:02:15, 2026-05-19 02:16:54", "cumulative_total": 108.0 }, "geometry": { "type": "Polygon", "coordinates": [ [ [ -74.364803185810175, 45.742377589608139 ], [ -74.371201115826125, 45.745011277524469 ], [ -74.371142767247179, 45.750207545930479 ], [ -74.364685296001554, 45.752770113603013 ], [ -74.358286793882826, 45.750136061268371 ], [ -74.358346335107029, 45.744939805744686 ], [ -74.364803185810175, 45.742377589608139 ] ] ] } },
{ "type": "Feature", "properties": { "hex_id": 498840, "centroid_lon": -74.358405860024092, "centroid_lat": 45.739743545413752, "occurrences_today": 10, "datetimes_today": "2026-05-19 00:01:22, 2026-05-19 00:16:17, 2026-05-19 00:31:18, 2026-05-19 00:46:46, 2026-05-19 01:02:29, 2026-05-19 01:16:36, 2026-05-19 01:31:19, 2026-05-19 01:44:37, 2026-05-19 02:02:15, 2026-05-19 02:16:54", "cumulative_total": 112.0 }, "geometry": { "type": "Polygon", "coordinates": [ [ [ -74.358465368639543, 45.734547280275578 ], [ -74.364862106500084, 45.737181320401618 ], [ -74.364803185810175, 45.742377589608139 ], [ -74.358346335107029, 45.744939805744686 ], [ -74.351949025625331, 45.742305401237367 ], [ -74.352009138462421, 45.737109145039909 ], [ -74.358465368639543, 45.734547280275578 ] ] ] } },
{ "type": "Feature", "properties": { "hex_id": 498841, "centroid_lon": -74.358227236345996, "centroid_lat": 45.755332311984809, "occurrences_today": 10, "datetimes_today": "2026-05-19 00:01:22, 2026-05-19 00:16:17, 2026-05-19 00:31:18, 2026-05-19 00:46:46, 2026-05-19 01:02:29, 2026-05-19 01:16:36, 2026-05-19 01:31:19, 2026-05-19 01:44:37, 2026-05-19 02:02:15, 2026-05-19 02:16:54", "cumulative_total": 112.0 }, "geometry": { "type": "Polygon", "coordinates": [ [ [ -74.358286793882826, 45.750136061268371 ], [ -74.364685296001554, 45.752770113603013 ], [ -74.364626326871942, 45.757966368391379 ], [ -74.358167662490985, 45.760528557894034 ], [ -74.351768588285935, 45.75789414097904 ], [ -74.351828750542651, 45.752697899206915 ], [ -74.358286793882826, 45.750136061268371 ] ] ] } },
{ "type": "Feature", "properties": { "hex_id": 499450, "centroid_lon": -74.35206923483743, "centroid_lat": 45.731912884034017, "occurrences_today": 10, "datetimes_today": "2026-05-19 00:01:22, 2026-05-19 00:16:17, 2026-05-19 00:31:18, 2026-05-19 00:46:46, 2026-05-19 01:02:29, 2026-05-19 01:16:36, 2026-05-19 01:31:19, 2026-05-19 01:44:37, 2026-05-19 02:02:15, 2026-05-19 02:16:54", "cumulative_total": 112.0 }, "geometry": { "type": "Polygon", "coordinates": [ [ [ -74.352129314755913, 45.726716618219655 ], [ -74.358524860958852, 45.729351010330156 ], [ -74.358465368639543, 45.734547280275578 ], [ -74.352009138462421, 45.737109145039909 ], [ -74.345613021119618, 45.73447438858522 ], [ -74.345673705088245, 45.729278131775516 ], [ -74.352129314755913, 45.726716618219655 ] ] ] } },
{ "type": "Feature", "properties": { "hex_id": 499451, "centroid_lon": -74.351888896320602, "centroid_lat": 45.747501652626354, "occurrences_today": 10, "datetimes_today": "2026-05-19 00:01:22, 2026-05-19 00:16:17, 2026-05-19 00:31:18, 2026-05-19 00:46:46, 2026-05-19 01:02:29, 2026-05-19 01:16:36, 2026-05-19 01:31:19, 2026-05-19 01:44:37, 2026-05-19 02:02:15, 2026-05-19 02:16:54", "cumulative_total": 136.0 }, "geometry": { "type": "Polygon", "coordinates": [ [ [ -74.351949025625331, 45.742305401237367 ], [ -74.358346335107029, 45.744939805744686 ], [ -74.358286793882826, 45.750136061268371 ], [ -74.351828750542651, 45.752697899206915 ], [ -74.345430869456422, 45.750063130156342 ], [ -74.345491603309327, 45.744866887775643 ], [ -74.351949025625331, 45.742305401237367 ] ] ] } },
{ "type": "Feature", "properties": { "hex_id": 499452, "centroid_lon": -74.351708409544898, "centroid_lat": 45.763090377942717, "occurrences_today": 10, "datetimes_today": "2026-05-19 00:01:22, 2026-05-19 00:16:17, 2026-05-19 00:31:18, 2026-05-19 00:46:46, 2026-05-19 01:02:29, 2026-05-19 01:16:36, 2026-05-19 01:31:19, 2026-05-19 01:44:37, 2026-05-19 02:02:15, 2026-05-19 02:16:54", "cumulative_total": 168.0 }, "geometry": { "type": "Polygon", "coordinates": [ [ [ -74.351768588285935, 45.75789414097904 ], [ -74.358167662490985, 45.760528557894034 ], [ -74.358108072312319, 45.765724798996025 ], [ -74.351648214313911, 45.768286610097981 ], [ -74.345248568039182, 45.765651828440554 ], [ -74.34530935182697, 45.76045560048879 ], [ -74.351768588285935, 45.75789414097904 ] ] ] } },
{ "type": "Feature", "properties": { "hex_id": 500060, "centroid_lon": -74.345734372439978, "centroid_lat": 45.724081870156134, "occurrences_today": 10, "datetimes_today": "2026-05-19 00:01:22, 2026-05-19 00:16:17, 2026-05-19 00:31:18, 2026-05-19 00:46:46, 2026-05-19 01:02:29, 2026-05-19 01:16:36, 2026-05-19 01:31:19, 2026-05-19 01:44:37, 2026-05-19 02:02:15, 2026-05-19 02:16:54", "cumulative_total": 121.0 }, "geometry": { "type": "Polygon", "coordinates": [ [ [ -74.345795023180472, 45.71888560372706 ], [ -74.352189378223414, 45.721520347596829 ], [ -74.352129314755913, 45.726716618219655 ], [ -74.345673705088245, 45.729278131775516 ], [ -74.33927877938639, 45.726643023598676 ], [ -74.339340034005502, 45.721446766238159 ], [ -74.345795023180472, 45.71888560372706 ] ] ] } },
{ "type": "Feature", "properties": { "hex_id": 500061, "centroid_lon": -74.345552320528526, "centroid_lat": 45.739670640585253, "occurrences_today": 10, "datetimes_today": "2026-05-19 00:01:22, 2026-05-19 00:16:17, 2026-05-19 00:31:18, 2026-05-19 00:46:46, 2026-05-19 01:02:29, 2026-05-19 01:16:36, 2026-05-19 01:31:19, 2026-05-19 01:44:37, 2026-05-19 02:02:15, 2026-05-19 02:16:54", "cumulative_total": 120.0 }, "geometry": { "type": "Polygon", "coordinates": [ [ [ -74.345613021119618, 45.73447438858522 ], [ -74.352009138462421, 45.737109145039909 ], [ -74.351949025625331, 45.742305401237367 ], [ -74.345491603309327, 45.744866887775643 ], [ -74.339094914843429, 45.742231766814832 ], [ -74.339156219811017, 45.737035523887009 ], [ -74.345613021119618, 45.73447438858522 ] ] ] } },
{ "type": "Feature", "properties": { "hex_id": 500062, "centroid_lon": -74.345370118964169, "centroid_lat": 45.755259367727383, "occurrences_today": 10, "datetimes_today": "2026-05-19 00:01:22, 2026-05-19 00:16:17, 2026-05-19 00:31:18, 2026-05-19 00:46:46, 2026-05-19 01:02:29, 2026-05-19 01:16:36, 2026-05-19 01:31:19, 2026-05-19 01:44:37, 2026-05-19 02:02:15, 2026-05-19 02:16:54", "cumulative_total": 120.0 }, "geometry": { "type": "Polygon", "coordinates": [ [ [ -74.345430869456422, 45.750063130156342 ], [ -74.351828750542651, 45.752697899206915 ], [ -74.351768588285935, 45.75789414097904 ], [ -74.34530935182697, 45.76045560048879 ], [ -74.338910899152964, 45.757820466732973 ], [ -74.338972254520073, 45.752624238237814 ], [ -74.345430869456422, 45.750063130156342 ] ] ] } },
{ "type": "Feature", "properties": { "hex_id": 500671, "centroid_lon": -74.339217507990114, "centroid_lat": 45.7318392761483, "occurrences_today": 10, "datetimes_today": "2026-05-19 00:01:22, 2026-05-19 00:16:17, 2026-05-19 00:31:18, 2026-05-19 00:46:46, 2026-05-19 01:02:29, 2026-05-19 01:16:36, 2026-05-19 01:31:19, 2026-05-19 01:44:37, 2026-05-19 02:02:15, 2026-05-19 02:16:54", "cumulative_total": 129.0 }, "geometry": { "type": "Polygon", "coordinates": [ [ [ -74.33927877938639, 45.726643023598676 ], [ -74.345673705088245, 45.729278131775516 ], [ -74.345613021119618, 45.73447438858522 ], [ -74.339156219811017, 45.737035523887009 ], [ -74.33276072346716, 45.734400051241238 ], [ -74.332822599068251, 45.729203807827744 ], [ -74.33927877938639, 45.726643023598676 ] ] ] } },
{ "type": "Feature", "properties": { "hex_id": 500672, "centroid_lon": -74.339033593081666, "centroid_lat": 45.747428004931777, "occurrences_today": 10, "datetimes_today": "2026-05-19 00:01:22, 2026-05-19 00:16:17, 2026-05-19 00:31:18, 2026-05-19 00:46:46, 2026-05-19 01:02:29, 2026-05-19 01:16:36, 2026-05-19 01:31:19, 2026-05-19 01:44:37, 2026-05-19 02:02:15, 2026-05-19 02:16:54", "cumulative_total": 120.0 }, "geometry": { "type": "Polygon", "coordinates": [ [ [ -74.339094914843429, 45.742231766814832 ], [ -74.345491603309327, 45.744866887775643 ], [ -74.345430869456422, 45.750063130156342 ], [ -74.338972254520073, 45.752624238237814 ], [ -74.332574994948004, 45.749988752608964 ], [ -74.332636921412771, 45.744792523631851 ], [ -74.339094914843429, 45.742231766814832 ] ] ] } },
{ "type": "Feature", "properties": { "hex_id": 500673, "centroid_lon": -74.33884952697467, "centroid_lat": 45.763016690417253, "occurrences_today": 10, "datetimes_today": "2026-05-19 00:01:22, 2026-05-19 00:16:17, 2026-05-19 00:31:18, 2026-05-19 00:46:46, 2026-05-19 01:02:29, 2026-05-19 01:16:36, 2026-05-19 01:31:19, 2026-05-19 01:44:37, 2026-05-19 02:02:15, 2026-05-19 02:16:54", "cumulative_total": 132.0 }, "geometry": { "type": "Polygon", "coordinates": [ [ [ -74.338910899152964, 45.757820466732973 ], [ -74.34530935182697, 45.76045560048879 ], [ -74.345248568039182, 45.765651828440554 ], [ -74.338788137979478, 45.768212909290661 ], [ -74.332389113734678, 45.765577410667547 ], [ -74.332451091114692, 45.760381196126794 ], [ -74.338910899152964, 45.757820466732973 ] ] ] } },
{ "type": "Feature", "properties": { "hex_id": 501281, "centroid_lon": -74.332884457726223, "centroid_lat": 45.724007559602107, "occurrences_today": 10, "datetimes_today": "2026-05-19 00:01:22, 2026-05-19 00:16:17, 2026-05-19 00:31:18, 2026-05-19 00:46:46, 2026-05-19 01:02:29, 2026-05-19 01:16:36, 2026-05-19 01:31:19, 2026-05-19 01:44:37, 2026-05-19 02:02:15, 2026-05-19 02:16:54", "cumulative_total": 129.0 }, "geometry": { "type": "Polygon", "coordinates": [ [ [ -74.332946299446803, 45.718811306564312 ], [ -74.339340034005502, 45.721446766238159 ], [ -74.33927877938639, 45.726643023598676 ], [ -74.332822599068251, 45.729203807827744 ], [ -74.326428294348347, 45.72656798372217 ], [ -74.326490740102074, 45.721371739884354 ], [ -74.332946299446803, 45.718811306564312 ] ] ] } },
{ "type": "Feature", "properties": { "hex_id": 501282, "centroid_lon": -74.332698830917238, "centroid_lat": 45.739596289842616, "occurrences_today": 10, "datetimes_today": "2026-05-19 00:01:22, 2026-05-19 00:16:17, 2026-05-19 00:31:18, 2026-05-19 00:46:46, 2026-05-19 01:02:29, 2026-05-19 01:16:36, 2026-05-19 01:31:19, 2026-05-19 01:44:37, 2026-05-19 02:02:15, 2026-05-19 02:16:54", "cumulative_total": 167.0 }, "geometry": { "type": "Polygon", "coordinates": [ [ [ -74.33276072346716, 45.734400051241238 ], [ -74.339156219811017, 45.737035523887009 ], [ -74.339094914843429, 45.742231766814832 ], [ -74.332636921412771, 45.744792523631851 ], [ -74.326240854444009, 45.742156686355251 ], [ -74.326303351525084, 45.736960456957604 ], [ -74.33276072346716, 45.734400051241238 ] ] ] } },
{ "type": "Feature", "properties": { "hex_id": 501283, "centroid_lon": -74.332513051517225, "centroid_lat": 45.755184976773933, "occurrences_today": 10, "datetimes_today": "2026-05-19 00:01:22, 2026-05-19 00:16:17, 2026-05-19 00:31:18, 2026-05-19 00:46:46, 2026-05-19 01:02:29, 2026-05-19 01:16:36, 2026-05-19 01:31:19, 2026-05-19 01:44:37, 2026-05-19 02:02:15, 2026-05-19 02:16:54", "cumulative_total": 132.0 }, "geometry": { "type": "Polygon", "coordinates": [ [ [ -74.332574994948004, 45.749988752608964 ], [ -74.338972254520073, 45.752624238237814 ], [ -74.338910899152964, 45.757820466732973 ], [ -74.332451091114692, 45.760381196126794 ], [ -74.326053260453563, 45.757745345667907 ], [ -74.326115808914039, 45.752549130710399 ], [ -74.332574994948004, 45.749988752608964 ] ] ] } },
{ "type": "Feature", "properties": { "hex_id": 501892, "centroid_lon": -74.326365831491273, "centroid_lat": 45.731764222746584, "occurrences_today": 10, "datetimes_today": "2026-05-19 00:01:22, 2026-05-19 00:16:17, 2026-05-19 00:31:18, 2026-05-19 00:46:46, 2026-05-19 01:02:29, 2026-05-19 01:16:36, 2026-05-19 01:31:19, 2026-05-19 01:44:37, 2026-05-19 02:02:15, 2026-05-19 02:16:54", "cumulative_total": 125.0 }, "geometry": { "type": "Polygon", "coordinates": [ [ [ -74.326428294348347, 45.72656798372217 ], [ -74.332822599068251, 45.729203807827744 ], [ -74.33276072346716, 45.734400051241238 ], [ -74.326303351525084, 45.736960456957604 ], [ -74.319908476661212, 45.734324268258447 ], [ -74.3199715438776, 45.729128038501635 ], [ -74.326428294348347, 45.72656798372217 ] ] ] } },
{ "type": "Feature", "properties": { "hex_id": 501893, "centroid_lon": -74.326178340242251, "centroid_lat": 45.747352910939519, "occurrences_today": 10, "datetimes_today": "2026-05-19 00:01:22, 2026-05-19 00:16:17, 2026-05-19 00:31:18, 2026-05-19 00:46:46, 2026-05-19 01:02:29, 2026-05-19 01:16:36, 2026-05-19 01:31:19, 2026-05-19 01:44:37, 2026-05-19 02:02:15, 2026-05-19 02:16:54", "cumulative_total": 113.0 }, "geometry": { "type": "Polygon", "coordinates": [ [ [ -74.326240854444009, 45.742156686355251 ], [ -74.332636921412771, 45.744792523631851 ], [ -74.332574994948004, 45.749988752608964 ], [ -74.326115808914039, 45.752549130710399 ], [ -74.319719171337624, 45.749912928641038 ], [ -74.319782290397058, 45.744716713328167 ], [ -74.326240854444009, 45.742156686355251 ] ] ] } },
{ "type": "Feature", "properties": { "hex_id": 501894, "centroid_lon": -74.325990694855065, "centroid_lat": 45.762941555812041, "occurrences_today": 10, "datetimes_today": "2026-05-19 00:01:22, 2026-05-19 00:16:17, 2026-05-19 00:31:18, 2026-05-19 00:46:46, 2026-05-19 01:02:29, 2026-05-19 01:16:36, 2026-05-19 01:31:19, 2026-05-19 01:44:37, 2026-05-19 02:02:15, 2026-05-19 02:16:54", "cumulative_total": 132.0 }, "geometry": { "type": "Polygon", "coordinates": [ [ [ -74.326053260453563, 45.757745345667907 ], [ -74.332451091114692, 45.760381196126794 ], [ -74.332389113734678, 45.765577410667547 ], [ -74.325928112112734, 45.76813776114281 ], [ -74.31952971037984, 45.765501545691848 ], [ -74.31959288133487, 45.760305344822875 ], [ -74.326053260453563, 45.757745345667907 ] ] ] } },
{ "type": "Feature", "properties": { "hex_id": 502503, "centroid_lon": -74.31984539216964, "centroid_lat": 45.739520493200629, "occurrences_today": 10, "datetimes_today": "2026-05-19 00:01:22, 2026-05-19 00:16:17, 2026-05-19 00:31:18, 2026-05-19 00:46:46, 2026-05-19 01:02:29, 2026-05-19 01:16:36, 2026-05-19 01:31:19, 2026-05-19 01:44:37, 2026-05-19 02:02:15, 2026-05-19 02:16:54", "cumulative_total": 149.0 }, "geometry": { "type": "Polygon", "coordinates": [ [ [ -74.319908476661212, 45.734324268258447 ], [ -74.326303351525084, 45.736960456957604 ], [ -74.326240854444009, 45.742156686355251 ], [ -74.319782290397058, 45.744716713328167 ], [ -74.313386845406612, 45.742080159873566 ], [ -74.313450534583836, 45.736883944266658 ], [ -74.319908476661212, 45.734324268258447 ] ] ] } },
{ "type": "Feature", "properties": { "hex_id": 502504, "centroid_lon": -74.319656034985513, "centroid_lat": 45.755109139139272, "occurrences_today": 10, "datetimes_today": "2026-05-19 00:01:22, 2026-05-19 00:16:17, 2026-05-19 00:31:18, 2026-05-19 00:46:46, 2026-05-19 01:02:29, 2026-05-19 01:16:36, 2026-05-19 01:31:19, 2026-05-19 01:44:37, 2026-05-19 02:02:15, 2026-05-19 02:16:54", "cumulative_total": 132.0 }, "geometry": { "type": "Polygon", "coordinates": [ [ [ -74.319719171337624, 45.749912928641038 ], [ -74.326115808914039, 45.752549130710399 ], [ -74.326053260453563, 45.757745345667907 ], [ -74.31959288133487, 45.760305344822875 ], [ -74.313195673168281, 45.757668777798798 ], [ -74.313259414704731, 45.75247257663964 ], [ -74.319719171337624, 45.749912928641038 ] ] ] } },
{ "type": "Feature", "properties": { "hex_id": 503113, "centroid_lon": -74.31351420631978, "centroid_lat": 45.731687723843827, "occurrences_today": 10, "datetimes_today": "2026-05-19 00:01:22, 2026-05-19 00:16:17, 2026-05-19 00:31:18, 2026-05-19 00:46:46, 2026-05-19 01:02:29, 2026-05-19 01:16:36, 2026-05-19 01:31:19, 2026-05-19 01:44:37, 2026-05-19 02:02:15, 2026-05-19 02:16:54", "cumulative_total": 130.0 }, "geometry": { "type": "Polygon", "coordinates": [ [ [ -74.313577860620313, 45.72649149860505 ], [ -74.3199715438776, 45.729128038501635 ], [ -74.319908476661212, 45.734324268258447 ], [ -74.313450534583836, 45.736883944266658 ], [ -74.307056281680772, 45.734247039651976 ], [ -74.307120540494964, 45.729050823812315 ], [ -74.313577860620313, 45.72649149860505 ] ] ] } },
{ "type": "Feature", "properties": { "hex_id": 503114, "centroid_lon": -74.313323138782209, "centroid_lat": 45.747276370664572, "occurrences_today": 10, "datetimes_today": "2026-05-19 00:01:22, 2026-05-19 00:16:17, 2026-05-19 00:31:18, 2026-05-19 00:46:46, 2026-05-19 01:02:29, 2026-05-19 01:16:36, 2026-05-19 01:31:19, 2026-05-19 01:44:37, 2026-05-19 02:02:15, 2026-05-19 02:16:54", "cumulative_total": 149.0 }, "geometry": { "type": "Polygon", "coordinates": [ [ [ -74.313386845406612, 45.742080159873566 ], [ -74.319782290397058, 45.744716713328167 ], [ -74.319719171337624, 45.749912928641038 ], [ -74.313259414704731, 45.75247257663964 ], [ -74.306863399605334, 45.749835658267706 ], [ -74.306927711241912, 45.744639456879668 ], [ -74.313386845406612, 45.742080159873566 ] ] ] } },
{ "type": "Feature", "properties": { "hex_id": 503115, "centroid_lon": -74.313131914166945, "centroid_lat": 45.762864974142055, "occurrences_today": 10, "datetimes_today": "2026-05-19 00:01:22, 2026-05-19 00:16:17, 2026-05-19 00:31:18, 2026-05-19 00:46:46, 2026-05-19 01:02:29, 2026-05-19 01:16:36, 2026-05-19 01:31:19, 2026-05-19 01:44:37, 2026-05-19 02:02:15, 2026-05-19 02:16:54", "cumulative_total": 133.0 }, "geometry": { "type": "Polygon", "coordinates": [ [ [ -74.313195673168281, 45.757668777798798 ], [ -74.31959288133487, 45.760305344822875 ], [ -74.31952971037984, 45.765501545691848 ], [ -74.313068137694842, 45.768061165669394 ], [ -74.306670358955685, 45.765424233528591 ], [ -74.306734723468168, 45.760228046592154 ], [ -74.313195673168281, 45.757668777798798 ] ] ] } },
{ "type": "Feature", "properties": { "hex_id": 503724, "centroid_lon": -74.306992005265059, "centroid_lat": 45.73944325067442, "occurrences_today": 10, "datetimes_today": "2026-05-19 00:01:22, 2026-05-19 00:16:17, 2026-05-19 00:31:18, 2026-05-19 00:46:46, 2026-05-19 01:02:29, 2026-05-19 01:16:36, 2026-05-19 01:31:19, 2026-05-19 01:44:37, 2026-05-19 02:02:15, 2026-05-19 02:16:54", "cumulative_total": 130.0 }, "geometry": { "type": "Polygon", "coordinates": [ [ [ -74.307056281680772, 45.734247039651976 ], [ -74.313450534583836, 45.736883944266658 ], [ -74.313386845406612, 45.742080159873566 ], [ -74.306927711241912, 45.744639456879668 ], [ -74.300532888710762, 45.74200218738504 ], [ -74.300597769966473, 45.736805985829392 ], [ -74.307056281680772, 45.734247039651976 ] ] ] } },
{ "type": "Feature", "properties": { "hex_id": 503725, "centroid_lon": -74.306799070349413, "centroid_lat": 45.755031854838521, "occurrences_today": 10, "datetimes_today": "2026-05-19 00:01:22, 2026-05-19 00:16:17, 2026-05-19 00:31:18, 2026-05-19 00:46:46, 2026-05-19 01:02:29, 2026-05-19 01:16:36, 2026-05-19 01:31:19, 2026-05-19 01:44:37, 2026-05-19 02:02:15, 2026-05-19 02:16:54", "cumulative_total": 149.0 }, "geometry": { "type": "Polygon", "coordinates": [ [ [ -74.306863399605334, 45.749835658267706 ], [ -74.313259414704731, 45.75247257663964 ], [ -74.313195673168281, 45.757668777798798 ], [ -74.306734723468168, 45.760228046592154 ], [ -74.300338138277596, 45.757590763140939 ], [ -74.300403072872342, 45.752394576040807 ], [ -74.306863399605334, 45.749835658267706 ] ] ] } },
{ "type": "Feature", "properties": { "hex_id": 504335, "centroid_lon": -74.300467989681394, "centroid_lat": 45.747198384122179, "occurrences_today": 10, "datetimes_today": "2026-05-19 00:01:22, 2026-05-19 00:16:17, 2026-05-19 00:31:18, 2026-05-19 00:46:46, 2026-05-19 01:02:29, 2026-05-19 01:16:36, 2026-05-19 01:31:19, 2026-05-19 01:44:37, 2026-05-19 02:02:15, 2026-05-19 02:16:54", "cumulative_total": 179.0 }, "geometry": { "type": "Polygon", "coordinates": [ [ [ -74.300532888710762, 45.74200218738504 ], [ -74.306927711241912, 45.744639456879668 ], [ -74.306863399605334, 45.749835658267706 ], [ -74.300403072872342, 45.752394576040807 ], [ -74.294007680731099, 45.749756941504359 ], [ -74.294073184926944, 45.74456075430178 ], [ -74.300532888710762, 45.74200218738504 ] ] ] } },
{ "type": "Feature", "properties": { "hex_id": 282276, "centroid_lon": -76.719647503634448, "centroid_lat": 48.277042265393135, "occurrences_today": 10, "datetimes_today": "2026-05-19 00:01:22, 2026-05-19 00:16:17, 2026-05-19 00:31:18, 2026-05-19 00:46:46, 2026-05-19 01:02:29, 2026-05-19 01:16:36, 2026-05-19 01:31:19, 2026-05-19 01:44:37, 2026-05-19 02:02:15, 2026-05-19 02:16:54", "cumulative_total": 378.0 }, "geometry": { "type": "Polygon", "coordinates": [ [ [ -76.719473239218715, 48.271850328359804 ], [ -76.726295943304322, 48.274345355392327 ], [ -76.726470914289905, 48.279537271539553 ], [ -76.719821817451319, 48.282234197241927 ], [ -76.712998357385814, 48.279738797971852 ], [ -76.712824750156642, 48.274546845308322 ], [ -76.719473239218715, 48.271850328359804 ] ] ] } },
{ "type": "Feature", "properties": { "hex_id": 665545, "centroid_lon": -72.578718865077477, "centroid_lat": 46.316076503635905, "occurrences_today": 1, "datetimes_today": "2026-05-19 00:01:22", "cumulative_total": 42.0 }, "geometry": { "type": "Polygon", "coordinates": [ [ [ -72.57894793750485, 46.310885084230478 ], [ -72.585321650593755, 46.313618076545076 ], [ -72.585093159086981, 46.31880951788397 ], [ -72.578489729493825, 46.321267917429978 ], [ -72.572115498651399, 46.318534536669063 ], [ -72.572345215134035, 46.313343144874544 ], [ -72.57894793750485, 46.310885084230478 ] ] ] } },
{ "type": "Feature", "properties": { "hex_id": 666156, "centroid_lon": -72.571885718833229, "centroid_lat": 46.323725922847416, "occurrences_today": 1, "datetimes_today": "2026-05-19 00:01:22", "cumulative_total": 46.0 }, "geometry": { "type": "Polygon", "coordinates": [ [ [ -72.572115498651399, 46.318534536669063 ], [ -72.578489729493825, 46.321267917429978 ], [ -72.578260530732265, 46.326459325612419 ], [ -72.571655875657825, 46.328917303409348 ], [ -72.565281127126894, 46.32618353404046 ], [ -72.56551155133721, 46.320992175548703 ], [ -72.572115498651399, 46.318534536669063 ] ] ] } },
{ "type": "Feature", "properties": { "hex_id": 564154, "centroid_lon": -73.674334531987839, "centroid_lat": 45.585747915304466, "occurrences_today": 10, "datetimes_today": "2026-05-19 00:01:22, 2026-05-19 00:16:17, 2026-05-19 00:31:18, 2026-05-19 00:46:46, 2026-05-19 01:02:29, 2026-05-19 01:16:36, 2026-05-19 01:31:19, 2026-05-19 01:44:37, 2026-05-19 02:02:15, 2026-05-19 02:16:54", "cumulative_total": 179.0 }, "geometry": { "type": "Polygon", "coordinates": [ [ [ -73.674456822497561, 45.580552576217158 ], [ -73.68080326914729, 45.583224432695104 ], [ -73.680681552702637, 45.588419782648913 ], [ -73.674212208047962, 45.590943249389845 ], [ -73.667865220768945, 45.588271023925778 ], [ -73.667988118762636, 45.583075700771616 ], [ -73.674456822497561, 45.580552576217158 ] ] ] } },
{ "type": "Feature", "properties": { "hex_id": 881142, "centroid_lon": -70.166961140680741, "centroid_lat": 47.650371252506247, "occurrences_today": 7, "datetimes_today": "2026-05-19 00:46:46, 2026-05-19 01:02:29, 2026-05-19 01:16:36, 2026-05-19 01:31:19, 2026-05-19 01:44:37, 2026-05-19 02:02:15, 2026-05-19 02:16:54", "cumulative_total": 12.0 }, "geometry": { "type": "Polygon", "coordinates": [ [ [ -70.16743977817778, 47.645194898048622 ], [ -70.173834451369089, 47.648062990509771 ], [ -70.173356397748691, 47.653239391256193 ], [ -70.166482369158459, 47.65554759861913 ], [ -70.160087246139398, 47.652679079532938 ], [ -70.16056660149097, 47.647502779776907 ], [ -70.16743977817778, 47.645194898048622 ] ] ] } },
{ "type": "Feature", "properties": { "hex_id": 881752, "centroid_lon": -70.161045822660654, "centroid_lat": 47.642326471666884, "occurrences_today": 4, "datetimes_today": "2026-05-19 00:46:46, 2026-05-19 01:02:29, 2026-05-19 01:16:36, 2026-05-19 01:31:19", "cumulative_total": 6.0 }, "geometry": { "type": "Polygon", "coordinates": [ [ [ -70.161524909695899, 47.637150155204175 ], [ -70.16791828169697, 47.640018535247528 ], [ -70.16743977817778, 47.645194898048622 ], [ -70.16056660149097, 47.647502779776907 ], [ -70.154172780132001, 47.644633973178109 ], [ -70.154652584770332, 47.63945771147452 ], [ -70.161524909695899, 47.637150155204175 ] ] ] } },
{ "type": "Feature", "properties": { "hex_id": 882973, "centroid_lon": -70.147779676556382, "centroid_lat": 47.641764832819803, "occurrences_today": 4, "datetimes_today": "2026-05-19 00:46:46, 2026-05-19 01:02:29, 2026-05-19 01:16:36, 2026-05-19 01:31:19", "cumulative_total": 8.0 }, "geometry": { "type": "Polygon", "coordinates": [ [ [ -70.148260064459379, 47.636588617581424 ], [ -70.154652584770332, 47.63945771147452 ], [ -70.154172780132001, 47.644633973178109 ], [ -70.147299154158446, 47.646941039685721 ], [ -70.140906185101542, 47.644071519144646 ], [ -70.141387290716608, 47.638895358811972 ], [ -70.148260064459379, 47.636588617581424 ] ] ] } },
{ "type": "Feature", "properties": { "hex_id": 787673, "centroid_lon": -71.252282632467157, "centroid_lat": 46.716761636895015, "occurrences_today": 1, "datetimes_today": "2026-05-19 02:16:54", "cumulative_total": 71.0 }, "geometry": { "type": "Polygon", "coordinates": [ [ [ -71.252642040010841, 46.711577063779593 ], [ -71.258990304995109, 46.714383250592896 ], [ -71.258631470294887, 46.719567858809313 ], [ -71.251923125435084, 46.721946203163817 ], [ -71.245574387112939, 46.719139611249766 ], [ -71.245934466954083, 46.713955080148395 ], [ -71.252642040010841, 46.711577063779593 ] ] ] } },
{ "type": "Feature", "properties": { "hex_id": 543419, "centroid_lon": -73.885408245107556, "centroid_lat": 45.930977950933915, "occurrences_today": 3, "datetimes_today": "2026-05-19 00:01:22, 2026-05-19 00:16:17, 2026-05-19 00:31:18", "cumulative_total": 39.0 }, "geometry": { "type": "Polygon", "coordinates": [ [ [ -73.885512311944737, 45.925782518859705 ], [ -73.891908007800467, 45.928442944790916 ], [ -73.891804528497275, 45.933638385704484 ], [ -73.885304149698584, 45.93617337808022 ], [ -73.878907894885529, 45.933512580756876 ], [ -73.87901257781877, 45.928317162515462 ], [ -73.885512311944737, 45.925782518859705 ] ] ] } },
{ "type": "Feature", "properties": { "hex_id": 544029, "centroid_lon": -73.879117232019965, "centroid_lat": 45.92312173934404, "occurrences_today": 3, "datetimes_today": "2026-05-19 00:01:22, 2026-05-19 00:16:17, 2026-05-19 00:31:18", "cumulative_total": 163.0 }, "geometry": { "type": "Polygon", "coordinates": [ [ [ -73.879221857498877, 45.917926311242695 ], [ -73.885616350219792, 45.920587081857633 ], [ -73.885512311944737, 45.925782518859705 ], [ -73.87901257781877, 45.928317162515462 ], [ -73.872617526621184, 45.925656020548985 ], [ -73.872722768016473, 45.920460606343802 ], [ -73.879221857498877, 45.917926311242695 ] ] ] } },
{ "type": "Feature", "properties": { "hex_id": 605044, "centroid_lon": -73.251589091292843, "centroid_lat": 45.369585464239321, "occurrences_today": 2, "datetimes_today": "2026-05-19 00:01:22, 2026-05-19 00:16:17", "cumulative_total": 57.0 }, "geometry": { "type": "Polygon", "coordinates": [ [ [ -73.251749158381941, 45.36439095783053 ], [ -73.258051005764202, 45.367085748284516 ], [ -73.257891500504996, 45.372280269669695 ], [ -73.251428980568818, 45.374779965461137 ], [ -73.245126614998895, 45.372084804852101 ], [ -73.245287287538247, 45.366890318670791 ], [ -73.251749158381941, 45.36439095783053 ] ] ] } },
{ "type": "Feature", "properties": { "hex_id": 595900, "centroid_lon": -73.341161995115002, "centroid_lat": 45.581394804105763, "occurrences_today": 7, "datetimes_today": "2026-05-19 00:01:22, 2026-05-19 00:16:17, 2026-05-19 00:31:18, 2026-05-19 00:46:46, 2026-05-19 01:02:29, 2026-05-19 01:16:36, 2026-05-19 01:31:19", "cumulative_total": 159.0 }, "geometry": { "type": "Polygon", "coordinates": [ [ [ -73.341314989357272, 45.576200249192567 ], [ -73.347644621259533, 45.578890392186473 ], [ -73.347492196398022, 45.584084961257531 ], [ -73.341008959057774, 45.586589353873556 ], [ -73.334678799596787, 45.583898838853976 ], [ -73.334832405020691, 45.578704303308669 ], [ -73.341314989357272, 45.576200249192567 ] ] ] } },
{ "type": "Feature", "properties": { "hex_id": 605042, "centroid_lon": -73.252548839813215, "centroid_lat": 45.338418347987037, "occurrences_today": 2, "datetimes_today": "2026-05-19 00:01:22, 2026-05-19 00:16:17", "cumulative_total": 10.0 }, "geometry": { "type": "Polygon", "coordinates": [ [ [ -73.25270864539857, 45.333223810459437 ], [ -73.259007124982659, 45.335918511120433 ], [ -73.258847880318541, 45.341113063605754 ], [ -73.252388990680302, 45.343612880328543 ], [ -73.246089993729825, 45.340917809915645 ], [ -73.246250403769437, 45.335723292595901 ], [ -73.25270864539857, 45.333223810459437 ] ] ] } },
{ "type": "Feature", "properties": { "hex_id": 604432, "centroid_lon": -73.258688592258167, "centroid_lat": 45.346307610908092, "occurrences_today": 2, "datetimes_today": "2026-05-19 00:01:22, 2026-05-19 00:16:17", "cumulative_total": 44.0 }, "geometry": { "type": "Polygon", "coordinates": [ [ [ -73.258847880318541, 45.341113063605754 ], [ -73.265147525299881, 45.343807439353498 ], [ -73.26498879847793, 45.349002001555696 ], [ -73.258529260787057, 45.351502153027262 ], [ -73.252229097985278, 45.348807407483783 ], [ -73.252388990680302, 45.343612880328543 ], [ -73.258847880318541, 45.341113063605754 ] ] ] } },
{ "type": "Feature", "properties": { "hex_id": 605654, "centroid_lon": -73.245447916291084, "centroid_lat": 45.3616958272994, "occurrences_today": 2, "datetimes_today": "2026-05-19 00:01:22, 2026-05-19 00:16:17", "cumulative_total": 42.0 }, "geometry": { "type": "Polygon", "coordinates": [ [ [ -73.245608501272031, 45.356501330738027 ], [ -73.25190918185065, 45.359196446234925 ], [ -73.251749158381941, 45.36439095783053 ], [ -73.245287287538247, 45.366890318670791 ], [ -73.238986089226586, 45.36419483306279 ], [ -73.239147279477024, 45.359000356789721 ], [ -73.245608501272031, 45.356501330738027 ] ] ] } },
{ "type": "Feature", "properties": { "hex_id": 604433, "centroid_lon": -73.258210467554591, "centroid_lat": 45.361891221715624, "occurrences_today": 2, "datetimes_today": "2026-05-19 00:01:22, 2026-05-19 00:16:17", "cumulative_total": 28.0 }, "geometry": { "type": "Polygon", "coordinates": [ [ [ -73.258369885890701, 45.356696689963158 ], [ -73.264671215041631, 45.359391110419843 ], [ -73.264512358398378, 45.364585657081506 ], [ -73.258051005764202, 45.367085748284516 ], [ -73.251749158381941, 45.36439095783053 ], [ -73.25190918185065, 45.359196446234925 ], [ -73.258369885890701, 45.356696689963158 ] ] ] } },
{ "type": "Feature", "properties": { "hex_id": 581221, "centroid_lon": -73.506047544320595, "centroid_lat": 45.162718175349561, "occurrences_today": 1, "datetimes_today": "2026-05-19 00:01:22", "cumulative_total": 20.0 }, "geometry": { "type": "Polygon", "coordinates": [ [ [ -73.506183338960795, 45.157522826019147 ], [ -73.512474984277532, 45.160203526368143 ], [ -73.512339748814512, 45.165398888122269 ], [ -73.505911712747647, 45.167913519612902 ], [ -73.49961954519263, 45.165232454047704 ], [ -73.499755935930466, 45.160037122271738 ], [ -73.506183338960795, 45.157522826019147 ] ] ] } },
{ "type": "Feature", "properties": { "hex_id": 606263, "centroid_lon": -73.239791601392184, "centroid_lat": 45.338222399767943, "occurrences_today": 10, "datetimes_today": "2026-05-19 00:01:22, 2026-05-19 00:16:17, 2026-05-19 00:31:18, 2026-05-19 00:46:46, 2026-05-19 01:02:29, 2026-05-19 01:16:36, 2026-05-19 01:31:19, 2026-05-19 01:44:37, 2026-05-19 02:02:15, 2026-05-19 02:16:54", "cumulative_total": 32.0 }, "geometry": { "type": "Polygon", "coordinates": [ [ [ -73.239952572172598, 45.333027897530869 ], [ -73.246250403769437, 45.335723292595901 ], [ -73.246089993729825, 45.340917809915645 ], [ -73.23963058674704, 45.343416896812521 ], [ -73.233332238281406, 45.340721131881892 ], [ -73.2334938136527, 45.335526649984011 ], [ -73.239952572172598, 45.333027897530869 ] ] ] } },
{ "type": "Feature", "properties": { "hex_id": 879921, "centroid_lon": -70.180229842281889, "centroid_lat": 47.650930748940397, "occurrences_today": 7, "datetimes_today": "2026-05-19 00:46:46, 2026-05-19 01:02:29, 2026-05-19 01:16:36, 2026-05-19 01:31:19, 2026-05-19 01:44:37, 2026-05-19 02:02:15, 2026-05-19 02:16:54", "cumulative_total": 17.0 }, "geometry": { "type": "Polygon", "coordinates": [ [ [ -70.180707178157107, 47.645754293639044 ], [ -70.187102702710732, 47.648621671767337 ], [ -70.186625950963489, 47.65379817323057 ], [ -70.179752372742229, 47.656107195916753 ], [ -70.173356397748691, 47.653239391256193 ], [ -70.173834451369089, 47.648062990509771 ], [ -70.180707178157107, 47.645754293639044 ] ] ] } },
{ "type": "Feature", "properties": { "hex_id": 882363, "centroid_lon": -70.15369284115522, "centroid_lat": 47.649810226518468, "occurrences_today": 4, "datetimes_today": "2026-05-19 00:46:46, 2026-05-19 01:02:29, 2026-05-19 01:16:36, 2026-05-19 01:31:19", "cumulative_total": 20.0 }, "geometry": { "type": "Polygon", "coordinates": [ [ [ -70.154172780132001, 47.644633973178109 ], [ -70.16056660149097, 47.647502779776907 ], [ -70.160087246139398, 47.652679079532938 ], [ -70.15321276779251, 47.654986471494311 ], [ -70.146818497218021, 47.652117238177837 ], [ -70.147299154158446, 47.646941039685721 ], [ -70.154172780132001, 47.644633973178109 ] ] ] } },
{ "type": "Feature", "properties": { "hex_id": 786452, "centroid_lon": -71.265339242139945, "centroid_lat": 46.717189102527939, "occurrences_today": 1, "datetimes_today": "2026-05-19 02:16:54", "cumulative_total": 33.0 }, "geometry": { "type": "Polygon", "coordinates": [ [ [ -71.26569740466249, 46.712004452438038 ], [ -71.272046440935966, 46.714809934414326 ], [ -71.271688851479581, 46.719994619479259 ], [ -71.264980980471591, 46.722373745785838 ], [ -71.258631470294887, 46.719567858809313 ], [ -71.258990304995109, 46.714383250592896 ], [ -71.26569740466249, 46.712004452438038 ] ] ] } },
{ "type": "Feature", "properties": { "hex_id": 512289, "centroid_lon": -74.21306866750723, "centroid_lat": 46.019444626976998, "occurrences_today": 9, "datetimes_today": "2026-05-19 00:16:17, 2026-05-19 00:31:18, 2026-05-19 00:46:46, 2026-05-19 01:02:29, 2026-05-19 01:16:36, 2026-05-19 01:31:19, 2026-05-19 01:44:37, 2026-05-19 02:02:15, 2026-05-19 02:16:54", "cumulative_total": 52.0 }, "geometry": { "type": "Polygon", "coordinates": [ [ [ -74.213142370755037, 46.014248781860239 ], [ -74.219564132193156, 46.016890992385825 ], [ -74.219491023684839, 46.022086843068564 ], [ -74.212994943999604, 46.024640467257228 ], [ -74.206572608085253, 46.021997887369245 ], [ -74.206646926325462, 46.016802052720791 ], [ -74.213142370755037, 46.014248781860239 ] ] ] } },
{ "type": "Feature", "properties": { "hex_id": 608093, "centroid_lon": -73.221387875037948, "centroid_lat": 45.314550746424871, "occurrences_today": 10, "datetimes_today": "2026-05-19 00:01:22, 2026-05-19 00:16:17, 2026-05-19 00:31:18, 2026-05-19 00:46:46, 2026-05-19 01:02:29, 2026-05-19 01:16:36, 2026-05-19 01:31:19, 2026-05-19 01:44:37, 2026-05-19 02:02:15, 2026-05-19 02:16:54", "cumulative_total": 55.0 }, "geometry": { "type": "Polygon", "coordinates": [ [ [ -73.221550394180156, 45.309356274196048 ], [ -73.227844732700163, 45.31205264191464 ], [ -73.227682773348278, 45.317247129399284 ], [ -73.221225311621964, 45.319745213452201 ], [ -73.214930457592786, 45.31704847599994 ], [ -73.215093580784327, 45.311854024292394 ], [ -73.221550394180156, 45.309356274196048 ] ] ] } },
{ "type": "Feature", "properties": { "hex_id": 158350, "centroid_lon": -78.091244008313055, "centroid_lat": 48.334052795343801, "occurrences_today": 3, "datetimes_today": "2026-05-19 00:01:22, 2026-05-19 00:16:17, 2026-05-19 00:31:18", "cumulative_total": 100.0 }, "geometry": { "type": "Polygon", "coordinates": [ [ [ -78.090930227596118, 48.328866135023198 ], [ -78.097823389145248, 48.331278071180996 ], [ -78.098137895568826, 48.336464695536812 ], [ -78.091557877968427, 48.339239449431865 ], [ -78.084663901758148, 48.336827156732824 ], [ -78.084350757841548, 48.331640466750947 ], [ -78.090930227596118, 48.328866135023198 ] ] ] } },
{ "type": "Feature", "properties": { "hex_id": 158351, "centroid_lon": -78.092185884223085, "centroid_lat": 48.349612738908391, "occurrences_today": 3, "datetimes_today": "2026-05-19 00:01:22, 2026-05-19 00:16:17, 2026-05-19 00:31:18", "cumulative_total": 100.0 }, "geometry": { "type": "Polygon", "coordinates": [ [ [ -78.091871836594379, 48.344426097286885 ], [ -78.098767175888582, 48.346837925529705 ], [ -78.099081949849221, 48.352024531165831 ], [ -78.092500020886689, 48.354799374295908 ], [ -78.085603866209553, 48.352387189319373 ], [ -78.085290455910069, 48.347200518017509 ], [ -78.091871836594379, 48.344426097286885 ] ] ] } },
{ "type": "Feature", "properties": { "hex_id": 158961, "centroid_lon": -78.084977134436969, "centroid_lat": 48.342013840488484, "occurrences_today": 3, "datetimes_today": "2026-05-19 00:01:22, 2026-05-19 00:16:17, 2026-05-19 00:31:18", "cumulative_total": 100.0 }, "geometry": { "type": "Polygon", "coordinates": [ [ [ -78.084663901758148, 48.336827156732824 ], [ -78.091557877968427, 48.339239449431865 ], [ -78.091871836594379, 48.344426097286885 ], [ -78.085290455910069, 48.347200518017509 ], [ -78.07839566494232, 48.344787868595219 ], [ -78.078083069448454, 48.339601155236586 ], [ -78.084663901758148, 48.336827156732824 ] ] ] } },
{ "type": "Feature", "properties": { "hex_id": 158962, "centroid_lon": -78.085917365367536, "centroid_lat": 48.357573854393614, "occurrences_today": 3, "datetimes_today": "2026-05-19 00:01:22, 2026-05-19 00:16:17, 2026-05-19 00:31:18", "cumulative_total": 100.0 }, "geometry": { "type": "Polygon", "coordinates": [ [ [ -78.085603866209553, 48.352387189319373 ], [ -78.092500020886689, 48.354799374295908 ], [ -78.092814246617394, 48.359986003448974 ], [ -78.086230953416148, 48.362760513239749 ], [ -78.079333983259588, 48.360347971347345 ], [ -78.079021121815842, 48.355161276651081 ], [ -78.085603866209553, 48.352387189319373 ] ] ] } },
{ "type": "Feature", "properties": { "hex_id": 159571, "centroid_lon": -78.077770562540479, "centroid_lat": 48.334414435658097, "occurrences_today": 3, "datetimes_today": "2026-05-19 00:01:22, 2026-05-19 00:16:17, 2026-05-19 00:31:18", "cumulative_total": 100.0 }, "geometry": { "type": "Polygon", "coordinates": [ [ [ -78.077458144186409, 48.329227709860241 ], [ -78.084350757841548, 48.331640466750947 ], [ -78.084663901758148, 48.336827156732824 ], [ -78.078083069448454, 48.339601155236586 ], [ -78.071189641660865, 48.337188041633169 ], [ -78.070877860347423, 48.332001286309705 ], [ -78.077458144186409, 48.329227709860241 ] ] ] } },
{ "type": "Feature", "properties": { "hex_id": 159572, "centroid_lon": -78.078708349054111, "centroid_lat": 48.349974575733555, "occurrences_today": 3, "datetimes_today": "2026-05-19 00:01:22, 2026-05-19 00:16:17, 2026-05-19 00:31:18", "cumulative_total": 100.0 }, "geometry": { "type": "Polygon", "coordinates": [ [ [ -78.07839566494232, 48.344787868595219 ], [ -78.085290455910069, 48.347200518017509 ], [ -78.085603866209553, 48.352387189319373 ], [ -78.079021121815842, 48.355161276651081 ], [ -78.072125515994429, 48.352748270323481 ], [ -78.071813469452408, 48.347561533640537 ], [ -78.07839566494232, 48.344787868595219 ] ] ] } },
{ "type": "Feature", "properties": { "hex_id": 159573, "centroid_lon": -78.079646933417408, "centroid_lat": 48.365534659821847, "occurrences_today": 3, "datetimes_today": "2026-05-19 00:01:22, 2026-05-19 00:16:17, 2026-05-19 00:31:18", "cumulative_total": 100.0 }, "geometry": { "type": "Polygon", "coordinates": [ [ [ -78.079333983259588, 48.360347971347345 ], [ -78.086230953416148, 48.362760513239749 ], [ -78.086544630387522, 48.367947165857281 ], [ -78.079959972321376, 48.370721342074141 ], [ -78.073062186589056, 48.368308443083691 ], [ -78.072749874530743, 48.363121725045538 ], [ -78.079333983259588, 48.360347971347345 ] ] ] } },
{ "type": "Feature", "properties": { "hex_id": 160182, "centroid_lon": -78.071501511351883, "centroid_lat": 48.342374790743598, "occurrences_today": 3, "datetimes_today": "2026-05-19 00:01:22, 2026-05-19 00:16:17, 2026-05-19 00:31:18", "cumulative_total": 100.0 }, "geometry": { "type": "Polygon", "coordinates": [ [ [ -78.071189641660865, 48.337188041633169 ], [ -78.078083069448454, 48.339601155236586 ], [ -78.07839566494232, 48.344787868595219 ], [ -78.071813469452408, 48.347561533640537 ], [ -78.064919227436505, 48.345148063142396 ], [ -78.064607995170761, 48.339961284564708 ], [ -78.071189641660865, 48.337188041633169 ] ] ] } },
{ "type": "Feature", "properties": { "hex_id": 160183, "centroid_lon": -78.072437651009878, "centroid_lat": 48.357935000791969, "occurrences_today": 3, "datetimes_today": "2026-05-19 00:01:22, 2026-05-19 00:16:17, 2026-05-19 00:31:18", "cumulative_total": 100.0 }, "geometry": { "type": "Polygon", "coordinates": [ [ [ -78.072125515994429, 48.352748270323481 ], [ -78.079021121815842, 48.355161276651081 ], [ -78.079333983259588, 48.360347971347345 ], [ -78.072749874530743, 48.363121725045538 ], [ -78.065853453759587, 48.360708361630486 ], [ -78.065541956699008, 48.355521601675761 ], [ -78.072125515994429, 48.352748270323481 ] ] ] } },
{ "type": "Feature", "properties": { "hex_id": 160184, "centroid_lon": -78.073374587216847, "centroid_lat": 48.373495154905974, "occurrences_today": 3, "datetimes_today": "2026-05-19 00:01:22, 2026-05-19 00:16:17, 2026-05-19 00:31:18", "cumulative_total": 100.0 }, "geometry": { "type": "Polygon", "coordinates": [ [ [ -78.073062186589056, 48.368308443083691 ], [ -78.079959972321376, 48.370721342074141 ], [ -78.080273100003581, 48.375908018103722 ], [ -78.07368707644612, 48.378681860511904 ], [ -78.066788475041861, 48.376268604241197 ], [ -78.066476712899075, 48.371081862913677 ], [ -78.073062186589056, 48.368308443083691 ] ] ] } },
{ "type": "Feature", "properties": { "hex_id": 160794, "centroid_lon": -78.066165039148956, "centroid_lat": 48.36589511537661, "occurrences_today": 3, "datetimes_today": "2026-05-19 00:01:22, 2026-05-19 00:16:17, 2026-05-19 00:31:18", "cumulative_total": 100.0 }, "geometry": { "type": "Polygon", "coordinates": [ [ [ -78.065853453759587, 48.360708361630486 ], [ -78.072749874530743, 48.363121725045538 ], [ -78.073062186589056, 48.368308443083691 ], [ -78.066476712899075, 48.371081862913677 ], [ -78.059579477082252, 48.368668142228984 ], [ -78.059268530033052, 48.363481359055058 ], [ -78.065853453759587, 48.360708361630486 ] ] ] } },
{ "type": "Feature", "properties": { "hex_id": 557437, "centroid_lon": -73.745343414973632, "centroid_lat": 45.563164563153492, "occurrences_today": 3, "datetimes_today": "2026-05-19 01:44:37, 2026-05-19 02:02:15, 2026-05-19 02:16:54", "cumulative_total": 131.0 }, "geometry": { "type": "Polygon", "coordinates": [ [ [ -73.745459065034424, 45.557969058206389 ], [ -73.751806442533237, 45.560636988090792 ], [ -73.751691366813219, 45.565832503195409 ], [ -73.745227733305711, 45.568360063125191 ], [ -73.738879813078555, 45.565691765208662 ], [ -73.738996069076634, 45.560496275459123 ], [ -73.745459065034424, 45.557969058206389 ] ] ] } },
{ "type": "Feature", "properties": { "hex_id": 605652, "centroid_lon": -73.246410770110217, "centroid_lat": 45.330528770086914, "occurrences_today": 10, "datetimes_today": "2026-05-19 00:01:22, 2026-05-19 00:16:17, 2026-05-19 00:31:18, 2026-05-19 00:46:46, 2026-05-19 01:02:29, 2026-05-19 01:16:36, 2026-05-19 01:31:19, 2026-05-19 01:44:37, 2026-05-19 02:02:15, 2026-05-19 02:16:54", "cumulative_total": 30.0 }, "geometry": { "type": "Polygon", "coordinates": [ [ [ -73.246571092766743, 45.32533424238887 ], [ -73.252868407450904, 45.328029267745869 ], [ -73.25270864539857, 45.333223810459437 ], [ -73.246250403769437, 45.335723292595901 ], [ -73.239952572172598, 45.333027897530869 ], [ -73.240113499103003, 45.327833390101439 ], [ -73.246571092766743, 45.32533424238887 ] ] ] } },
{ "type": "Feature", "properties": { "hex_id": 160792, "centroid_lon": -78.064296851106207, "centroid_lat": 48.334774499780309, "occurrences_today": 3, "datetimes_today": "2026-05-19 00:01:22, 2026-05-19 00:16:17, 2026-05-19 00:31:18", "cumulative_total": 88.0 }, "geometry": { "type": "Polygon", "coordinates": [ [ [ -78.063985795210954, 48.329587708789667 ], [ -78.070877860347423, 48.332001286309705 ], [ -78.071189641660865, 48.337188041633169 ], [ -78.064607995170761, 48.339961284564708 ], [ -78.057715116430884, 48.337547350160605 ], [ -78.057404697816381, 48.332360529780047 ], [ -78.063985795210954, 48.329587708789667 ] ] ] } },
{ "type": "Feature", "properties": { "hex_id": 160793, "centroid_lon": -78.065230547935286, "centroid_lat": 48.350334835512896, "occurrences_today": 3, "datetimes_today": "2026-05-19 00:01:22, 2026-05-19 00:16:17, 2026-05-19 00:31:18", "cumulative_total": 88.0 }, "geometry": { "type": "Polygon", "coordinates": [ [ [ -78.064919227436505, 48.345148063142396 ], [ -78.071813469452408, 48.347561533640537 ], [ -78.072125515994429, 48.352748270323481 ], [ -78.065541956699008, 48.355521601675761 ], [ -78.058646900358966, 48.35310777410082 ], [ -78.058336217670373, 48.347920972321461 ], [ -78.064919227436505, 48.345148063142396 ] ] ] } },
{ "type": "Feature", "properties": { "hex_id": 161403, "centroid_lon": -78.058025623038276, "centroid_lat": 48.34273416434123, "occurrences_today": 3, "datetimes_today": "2026-05-19 00:01:22, 2026-05-19 00:16:17, 2026-05-19 00:31:18", "cumulative_total": 88.0 }, "geometry": { "type": "Polygon", "coordinates": [ [ [ -78.057715116430884, 48.337547350160605 ], [ -78.064607995170761, 48.339961284564708 ], [ -78.064919227436505, 48.345148063142396 ], [ -78.058336217670373, 48.347920972321461 ], [ -78.05144252523155, 48.345506680851273 ], [ -78.05113265628961, 48.340319837339152 ], [ -78.057715116430884, 48.337547350160605 ] ] ] } },
{ "type": "Feature", "properties": { "hex_id": 161404, "centroid_lon": -78.0589576711359, "centroid_lat": 48.35829456967884, "occurrences_today": 3, "datetimes_today": "2026-05-19 00:01:22, 2026-05-19 00:16:17, 2026-05-19 00:31:18", "cumulative_total": 88.0 }, "geometry": { "type": "Polygon", "coordinates": [ [ [ -78.058646900358966, 48.35310777410082 ], [ -78.065541956699008, 48.355521601675761 ], [ -78.065853453759587, 48.360708361630486 ], [ -78.059268530033052, 48.363481359055058 ], [ -78.052372659273246, 48.361067174221191 ], [ -78.0520625266916, 48.355880349292775 ], [ -78.058646900358966, 48.35310777410082 ] ] ] } },
{ "type": "Feature", "properties": { "hex_id": 161405, "centroid_lon": -78.059890512315405, "centroid_lat": 48.373854919200163, "occurrences_today": 3, "datetimes_today": "2026-05-19 00:01:22, 2026-05-19 00:16:17, 2026-05-19 00:31:18", "cumulative_total": 88.0 }, "geometry": { "type": "Polygon", "coordinates": [ [ [ -78.059579477082252, 48.368668142228984 ], [ -78.066476712899075, 48.371081862913677 ], [ -78.066788475041861, 48.376268604241197 ], [ -78.0602016357644, 48.37904168996814 ], [ -78.05330358480613, 48.37662761183158 ], [ -78.052993188298686, 48.371440805491062 ], [ -78.059579477082252, 48.368668142228984 ] ] ] } },
{ "type": "Feature", "properties": { "hex_id": 162014, "centroid_lon": -78.051752482021641, "centroid_lat": 48.350693518169308, "occurrences_today": 3, "datetimes_today": "2026-05-19 00:01:22, 2026-05-19 00:16:17, 2026-05-19 00:31:18", "cumulative_total": 88.0 }, "geometry": { "type": "Polygon", "coordinates": [ [ [ -78.05144252523155, 48.345506680851273 ], [ -78.058336217670373, 48.347920972321461 ], [ -78.058646900358966, 48.35310777410082 ], [ -78.0520625266916, 48.355880349292775 ], [ -78.04516802045849, 48.353465700574418 ], [ -78.044858701718809, 48.348278833983343 ], [ -78.05144252523155, 48.345506680851273 ] ] ] } },
{ "type": "Feature", "properties": { "hex_id": 162015, "centroid_lon": -78.05268287979834, "centroid_lat": 48.366253992954114, "occurrences_today": 3, "datetimes_today": "2026-05-19 00:01:22, 2026-05-19 00:16:17, 2026-05-19 00:31:18", "cumulative_total": 88.0 }, "geometry": { "type": "Polygon", "coordinates": [ [ [ -78.052372659273246, 48.361067174221191 ], [ -78.059268530033052, 48.363481359055058 ], [ -78.059579477082252, 48.368668142228984 ], [ -78.052993188298686, 48.371440805491062 ], [ -78.04609650302362, 48.369026263216078 ], [ -78.045786921079184, 48.363839415191251 ], [ -78.052372659273246, 48.361067174221191 ] ] ] } },
{ "type": "Feature", "properties": { "hex_id": 162624, "centroid_lon": -78.044549470650622, "centroid_lat": 48.343091961204451, "occurrences_today": 3, "datetimes_today": "2026-05-19 00:01:22, 2026-05-19 00:16:17, 2026-05-19 00:31:18", "cumulative_total": 88.0 }, "geometry": { "type": "Polygon", "coordinates": [ [ [ -78.044240327222255, 48.33790508223823 ], [ -78.05113265628961, 48.340319837339152 ], [ -78.05144252523155, 48.345506680851273 ], [ -78.044858701718809, 48.348278833983343 ], [ -78.037965559482217, 48.345863721645088 ], [ -78.037657053959279, 48.340676813483142 ], [ -78.044240327222255, 48.33790508223823 ] ] ] } },
{ "type": "Feature", "properties": { "hex_id": 162625, "centroid_lon": -78.045477426901385, "centroid_lat": 48.358652560977212, "occurrences_today": 3, "datetimes_today": "2026-05-19 00:01:22, 2026-05-19 00:16:17, 2026-05-19 00:31:18", "cumulative_total": 110.0 }, "geometry": { "type": "Polygon", "coordinates": [ [ [ -78.04516802045849, 48.353465700574418 ], [ -78.0520625266916, 48.355880349292775 ], [ -78.052372659273246, 48.361067174221191 ], [ -78.045786921079184, 48.363839415191251 ], [ -78.038891600956546, 48.361424409042613 ], [ -78.038582832949231, 48.356237519425278 ], [ -78.04516802045849, 48.353465700574418 ] ] ] } },
{ "type": "Feature", "properties": { "hex_id": 163235, "centroid_lon": -78.038274152468318, "centroid_lat": 48.351050623625945, "occurrences_today": 3, "datetimes_today": "2026-05-19 00:01:22, 2026-05-19 00:16:17, 2026-05-19 00:31:18", "cumulative_total": 88.0 }, "geometry": { "type": "Polygon", "coordinates": [ [ [ -78.037965559482217, 48.345863721645088 ], [ -78.044858701718809, 48.348278833983343 ], [ -78.04516802045849, 48.353465700574418 ], [ -78.038582832949231, 48.356237519425278 ], [ -78.031688877448445, 48.353822049667613 ], [ -78.03138092275276, 48.348635118549545 ], [ -78.037965559482217, 48.345863721645088 ] ] ] } },
{ "type": "Feature", "properties": { "hex_id": 163236, "centroid_lon": -78.039200456521939, "centroid_lat": 48.366611292477465, "occurrences_today": 3, "datetimes_today": "2026-05-19 00:01:22, 2026-05-19 00:16:17, 2026-05-19 00:31:18", "cumulative_total": 88.0 }, "geometry": { "type": "Polygon", "coordinates": [ [ [ -78.038891600956546, 48.361424409042613 ], [ -78.045786921079184, 48.363839415191251 ], [ -78.04609650302362, 48.369026263216078 ], [ -78.039509399677101, 48.371798169729395 ], [ -78.03261326556985, 48.369382805968264 ], [ -78.032305048825407, 48.364195893377435 ], [ -78.038891600956546, 48.361424409042613 ] ] ] } },
{ "type": "Feature", "properties": { "hex_id": 163845, "centroid_lon": -78.031073055343512, "centroid_lat": 48.343448181256662, "occurrences_today": 3, "datetimes_today": "2026-05-19 00:01:22, 2026-05-19 00:16:17, 2026-05-19 00:31:18", "cumulative_total": 88.0 }, "geometry": { "type": "Polygon", "coordinates": [ [ [ -78.030765275189168, 48.338261237789432 ], [ -78.037657053959279, 48.340676813483142 ], [ -78.037965559482217, 48.345863721645088 ], [ -78.03138092275276, 48.348635118549545 ], [ -78.024488331343392, 48.346219185447374 ], [ -78.024181189334257, 48.341032212920261 ], [ -78.030765275189168, 48.338261237789432 ] ] ] } },
{ "type": "Feature", "properties": { "hex_id": 163846, "centroid_lon": -78.031996919462131, "centroid_lat": 48.359008974610383, "occurrences_today": 3, "datetimes_today": "2026-05-19 00:01:22, 2026-05-19 00:16:17, 2026-05-19 00:31:18", "cumulative_total": 88.0 }, "geometry": { "type": "Polygon", "coordinates": [ [ [ -78.031688877448445, 48.353822049667613 ], [ -78.038582832949231, 48.356237519425278 ], [ -78.038891600956546, 48.361424409042613 ], [ -78.032305048825407, 48.364195893377435 ], [ -78.025410279965627, 48.361780066018206 ], [ -78.025102876627571, 48.356593111996801 ], [ -78.031688877448445, 48.353822049667613 ] ] ] } },
{ "type": "Feature", "properties": { "hex_id": 164456, "centroid_lon": -78.024795560430647, "centroid_lat": 48.351406151806366, "occurrences_today": 3, "datetimes_today": "2026-05-19 00:01:22, 2026-05-19 00:16:17, 2026-05-19 00:31:18", "cumulative_total": 88.0 }, "geometry": { "type": "Polygon", "coordinates": [ [ [ -78.024488331343392, 48.346219185447374 ], [ -78.03138092275276, 48.348635118549545 ], [ -78.031688877448445, 48.353822049667613 ], [ -78.025102876627571, 48.356593111996801 ], [ -78.018209472484401, 48.354176821304073 ], [ -78.017902881927384, 48.348989825943775 ], [ -78.024488331343392, 48.346219185447374 ] ] ] } },
{ "type": "Feature", "properties": { "hex_id": 164457, "centroid_lon": -78.025717770476334, "centroid_lat": 48.366967013870116, "occurrences_today": 3, "datetimes_today": "2026-05-19 00:01:22, 2026-05-19 00:16:17, 2026-05-19 00:31:18", "cumulative_total": 88.0 }, "geometry": { "type": "Polygon", "coordinates": [ [ [ -78.025410279965627, 48.361780066018206 ], [ -78.032305048825407, 48.364195893377435 ], [ -78.03261326556985, 48.369382805968264 ], [ -78.026025348191226, 48.372153955552101 ], [ -78.019129765877764, 48.369737770409131 ], [ -78.018822914428156, 48.364550793537205 ], [ -78.025410279965627, 48.361780066018206 ] ] ] } },
{ "type": "Feature", "properties": { "hex_id": 165067, "centroid_lon": -78.018516149974175, "centroid_lat": 48.359363810502039, "occurrences_today": 3, "datetimes_today": "2026-05-19 00:01:22, 2026-05-19 00:16:17, 2026-05-19 00:31:18", "cumulative_total": 88.0 }, "geometry": { "type": "Polygon", "coordinates": [ [ [ -78.018209472484401, 48.354176821304073 ], [ -78.025102876627571, 48.356593111996801 ], [ -78.025410279965627, 48.361780066018206 ], [ -78.018822914428156, 48.364550793537205 ], [ -78.011928697456767, 48.362134145071792 ], [ -78.011622658882516, 48.356947126931153 ], [ -78.018209472484401, 48.354176821304073 ] ] ] } },
{ "type": "Feature", "properties": { "hex_id": 165677, "centroid_lon": -78.011316707064083, "centroid_lat": 48.351760102634422, "occurrences_today": 3, "datetimes_today": "2026-05-19 00:01:22, 2026-05-19 00:16:17, 2026-05-19 00:31:18", "cumulative_total": 88.0 }, "geometry": { "type": "Polygon", "coordinates": [ [ [ -78.011010841970077, 48.346573072182025 ], [ -78.017902881927384, 48.348989825943775 ], [ -78.018209472484401, 48.354176821304073 ], [ -78.011622658882516, 48.356947126931153 ], [ -78.004729806722096, 48.354530015407832 ], [ -78.004424580398009, 48.349342956090084 ], [ -78.011010841970077, 48.346573072182025 ] ] ] } },
{ "type": "Feature", "properties": { "hex_id": 165678, "centroid_lon": -78.012234822818201, "centroid_lat": 48.367321157055862, "occurrences_today": 3, "datetimes_today": "2026-05-19 00:01:22, 2026-05-19 00:16:17, 2026-05-19 00:31:18", "cumulative_total": 88.0 }, "geometry": { "type": "Polygon", "coordinates": [ [ [ -78.011928697456767, 48.362134145071792 ], [ -78.018822914428156, 48.364550793537205 ], [ -78.019129765877764, 48.369737770409131 ], [ -78.012541034998193, 48.37250816288293 ], [ -78.005646005104367, 48.370091156462621 ], [ -78.005340519043955, 48.364904115594562 ], [ -78.011928697456767, 48.362134145071792 ] ] ] } },
{ "type": "Feature", "properties": { "hex_id": 166288, "centroid_lon": -78.005035119593629, "centroid_lat": 48.359717068576138, "occurrences_today": 3, "datetimes_today": "2026-05-19 00:01:22, 2026-05-19 00:16:17, 2026-05-19 00:31:18", "cumulative_total": 88.0 }, "geometry": { "type": "Polygon", "coordinates": [ [ [ -78.004729806722096, 48.354530015407832 ], [ -78.011622658882516, 48.356947126931153 ], [ -78.011928697456767, 48.362134145071792 ], [ -78.005340519043955, 48.364904115594562 ], [ -77.998446854586405, 48.362486646127522 ], [ -77.998142180870076, 48.357299564152527 ], [ -78.004729806722096, 48.354530015407832 ] ] ] } },
{ "type": "Feature", "properties": { "hex_id": 166898, "centroid_lon": -77.997837593524196, "centroid_lat": 48.3521124760343, "occurrences_today": 3, "datetimes_today": "2026-05-19 00:01:22, 2026-05-19 00:16:17, 2026-05-19 00:31:18", "cumulative_total": 88.0 }, "geometry": { "type": "Polygon", "coordinates": [ [ [ -77.997533092517486, 48.346925381773268 ], [ -78.004424580398009, 48.349342956090084 ], [ -78.004729806722096, 48.354530015407832 ], [ -77.998142180870076, 48.357299564152527 ], [ -77.991249881317373, 48.354881631903233 ], [ -77.990946019320077, 48.349694508912819 ], [ -77.997533092517486, 48.346925381773268 ] ] ] } },
{ "type": "Feature", "properties": { "hex_id": 167509, "centroid_lon": -77.991553829476814, "centroid_lat": 48.36006874875703, "occurrences_today": 3, "datetimes_today": "2026-05-19 00:01:22, 2026-05-19 00:16:17, 2026-05-19 00:31:18", "cumulative_total": 123.0 }, "geometry": { "type": "Polygon", "coordinates": [ [ [ -77.991249881317373, 48.354881631903233 ], [ -77.998142180870076, 48.357299564152527 ], [ -77.998446854586405, 48.362486646127522 ], [ -77.991857863829537, 48.365255859473784 ], [ -77.984964752511061, 48.362837569109864 ], [ -77.98466144374639, 48.357650423585419 ], [ -77.991249881317373, 48.354881631903233 ] ] ] } },
{ "type": "Feature", "properties": { "hex_id": 966029, "centroid_lon": -69.198358754213359, "centroid_lat": 48.034127736720059, "occurrences_today": 10, "datetimes_today": "2026-05-19 00:01:22, 2026-05-19 00:16:17, 2026-05-19 00:31:18, 2026-05-19 00:46:46, 2026-05-19 01:02:29, 2026-05-19 01:16:36, 2026-05-19 01:31:19, 2026-05-19 01:44:37, 2026-05-19 02:02:15, 2026-05-19 02:16:54", "cumulative_total": 118.0 }, "geometry": { "type": "Polygon", "coordinates": [ [ [ -69.19894078691118, 48.028959877137879 ], [ -69.205322362056535, 48.031881703591196 ], [ -69.204740907921135, 48.037049619069769 ], [ -69.19777655788377, 48.039295586303048 ], [ -69.191394567836923, 48.036373320625955 ], [ -69.191977342670626, 48.031205527007629 ], [ -69.19894078691118, 48.028959877137879 ] ] ] } },
{ "type": "Feature", "properties": { "hex_id": 966639, "centroid_lon": -69.19255995371887, "centroid_lat": 48.026037723379027, "occurrences_today": 10, "datetimes_today": "2026-05-19 00:01:22, 2026-05-19 00:16:17, 2026-05-19 00:31:18, 2026-05-19 00:46:46, 2026-05-19 01:02:29, 2026-05-19 01:16:36, 2026-05-19 01:31:19, 2026-05-19 01:44:37, 2026-05-19 02:02:15, 2026-05-19 02:16:54", "cumulative_total": 118.0 }, "geometry": { "type": "Polygon", "coordinates": [ [ [ -69.193142401040006, 48.020869909742089 ], [ -69.199522656035512, 48.023792007558455 ], [ -69.19894078691118, 48.028959877137879 ], [ -69.191977342670626, 48.031205527007629 ], [ -69.185596673234599, 48.028282990044524 ], [ -69.186179862421341, 48.023115242426641 ], [ -69.193142401040006, 48.020869909742089 ] ] ] } },
{ "type": "Feature", "properties": { "hex_id": 967250, "centroid_lon": -69.185013320108808, "centroid_lat": 48.033450727641075, "occurrences_today": 10, "datetimes_today": "2026-05-19 00:01:22, 2026-05-19 00:16:17, 2026-05-19 00:31:18, 2026-05-19 00:46:46, 2026-05-19 01:02:29, 2026-05-19 01:16:36, 2026-05-19 01:31:19, 2026-05-19 01:44:37, 2026-05-19 02:02:15, 2026-05-19 02:16:54", "cumulative_total": 118.0 }, "geometry": { "type": "Polygon", "coordinates": [ [ [ -69.185596673234599, 48.028282990044524 ], [ -69.191977342670626, 48.031205527007629 ], [ -69.191394567836923, 48.036373320625955 ], [ -69.184429802985562, 48.038618455214312 ], [ -69.178048719284135, 48.035695478943715 ], [ -69.178632814641034, 48.030527807460516 ], [ -69.185596673234599, 48.028282990044524 ] ] ] } },
{ "type": "Feature", "properties": { "hex_id": 967860, "centroid_lon": -69.179216745846887, "centroid_lat": 48.025360125942896, "occurrences_today": 10, "datetimes_today": "2026-05-19 00:01:22, 2026-05-19 00:16:17, 2026-05-19 00:31:18, 2026-05-19 00:46:46, 2026-05-19 01:02:29, 2026-05-19 01:16:36, 2026-05-19 01:31:19, 2026-05-19 01:44:37, 2026-05-19 02:02:15, 2026-05-19 02:16:54", "cumulative_total": 118.0 }, "geometry": { "type": "Polygon", "coordinates": [ [ [ -69.179800512960199, 48.020192434392811 ], [ -69.186179862421341, 48.023115242426641 ], [ -69.185596673234599, 48.028282990044524 ], [ -69.178632814641034, 48.030527807460516 ], [ -69.172253051375151, 48.027604560196352 ], [ -69.172837560449125, 48.022436934814749 ], [ -69.179800512960199, 48.020192434392811 ] ] ] } },
{ "type": "Feature", "properties": { "hex_id": 967861, "centroid_lon": -69.177464459717697, "centroid_lat": 48.040863140390591, "occurrences_today": 10, "datetimes_today": "2026-05-19 00:01:22, 2026-05-19 00:16:17, 2026-05-19 00:31:18, 2026-05-19 00:46:46, 2026-05-19 01:02:29, 2026-05-19 01:16:36, 2026-05-19 01:31:19, 2026-05-19 01:44:37, 2026-05-19 02:02:15, 2026-05-19 02:16:54", "cumulative_total": 118.0 }, "geometry": { "type": "Polygon", "coordinates": [ [ [ -69.178048719284135, 48.035695478943715 ], [ -69.184429802985562, 48.038618455214312 ], [ -69.183846121806397, 48.043786172762324 ], [ -69.176880035883215, 48.046030791799176 ], [ -69.17049853809182, 48.043107376060242 ], [ -69.171083540255054, 48.037939780821034 ], [ -69.178048719284135, 48.035695478943715 ] ] ] } },
{ "type": "Feature", "properties": { "hex_id": 968471, "centroid_lon": -69.171668377996639, "centroid_lat": 48.032772175532422, "occurrences_today": 10, "datetimes_today": "2026-05-19 00:01:22, 2026-05-19 00:16:17, 2026-05-19 00:31:18, 2026-05-19 00:46:46, 2026-05-19 01:02:29, 2026-05-19 01:16:36, 2026-05-19 01:31:19, 2026-05-19 01:44:37, 2026-05-19 02:02:15, 2026-05-19 02:16:54", "cumulative_total": 118.0 }, "geometry": { "type": "Polygon", "coordinates": [ [ [ -69.172253051375151, 48.027604560196352 ], [ -69.178632814641034, 48.030527807460516 ], [ -69.178048719284135, 48.035695478943715 ], [ -69.171083540255054, 48.037939780821034 ], [ -69.164703363359905, 48.03501609416579 ], [ -69.165288779064539, 48.029848545092548 ], [ -69.172253051375151, 48.027604560196352 ] ] ] } },
{ "type": "Feature", "properties": { "hex_id": 969081, "centroid_lon": -69.165874030252624, "centroid_lat": 48.024680985960693, "occurrences_today": 10, "datetimes_today": "2026-05-19 00:01:22, 2026-05-19 00:16:17, 2026-05-19 00:31:18, 2026-05-19 00:46:46, 2026-05-19 01:02:29, 2026-05-19 01:16:36, 2026-05-19 01:31:19, 2026-05-19 01:44:37, 2026-05-19 02:02:15, 2026-05-19 02:16:54", "cumulative_total": 118.0 }, "geometry": { "type": "Polygon", "coordinates": [ [ [ -69.166459116982764, 48.019513416772178 ], [ -69.172837560449125, 48.022436934814749 ], [ -69.172253051375151, 48.027604560196352 ], [ -69.165288779064539, 48.029848545092548 ], [ -69.158909922429245, 48.026924587736161 ], [ -69.159495751214934, 48.021757084865584 ], [ -69.166459116982764, 48.019513416772178 ] ] ] } },
{ "type": "Feature", "properties": { "hex_id": 969082, "centroid_lon": -69.16411778308013, "centroid_lat": 48.040183633178522, "occurrences_today": 10, "datetimes_today": "2026-05-19 00:01:22, 2026-05-19 00:16:17, 2026-05-19 00:31:18, 2026-05-19 00:46:46, 2026-05-19 01:02:29, 2026-05-19 01:16:36, 2026-05-19 01:31:19, 2026-05-19 01:44:37, 2026-05-19 02:02:15, 2026-05-19 02:16:54", "cumulative_total": 118.0 }, "geometry": { "type": "Polygon", "coordinates": [ [ [ -69.164703363359905, 48.03501609416579 ], [ -69.171083540255054, 48.037939780821034 ], [ -69.17049853809182, 48.043107376060242 ], [ -69.163532038166522, 48.045351162128725 ], [ -69.157151447817952, 48.042427035921648 ], [ -69.157737770789439, 48.03725956326614 ], [ -69.164703363359905, 48.03501609416579 ] ] ] } },
{ "type": "Feature", "properties": { "hex_id": 969692, "centroid_lon": -69.158323928973644, "centroid_lat": 48.032092080536991, "occurrences_today": 10, "datetimes_today": "2026-05-19 00:01:22, 2026-05-19 00:16:17, 2026-05-19 00:31:18, 2026-05-19 00:46:46, 2026-05-19 01:02:29, 2026-05-19 01:16:36, 2026-05-19 01:31:19, 2026-05-19 01:44:37, 2026-05-19 02:02:15, 2026-05-19 02:16:54", "cumulative_total": 118.0 }, "geometry": { "type": "Polygon", "coordinates": [ [ [ -69.158909922429245, 48.026924587736161 ], [ -69.165288779064539, 48.029848545092548 ], [ -69.164703363359905, 48.03501609416579 ], [ -69.157737770789439, 48.03725956326614 ], [ -69.151358501161127, 48.034335166435241 ], [ -69.151945237037609, 48.029167740046731 ], [ -69.158909922429245, 48.026924587736161 ] ] ] } },
{ "type": "Feature", "properties": { "hex_id": 970302, "centroid_lon": -69.152531808032151, "centroid_lat": 48.02400030357537, "occurrences_today": 10, "datetimes_today": "2026-05-19 00:01:22, 2026-05-19 00:16:17, 2026-05-19 00:31:18, 2026-05-19 00:46:46, 2026-05-19 01:02:29, 2026-05-19 01:16:36, 2026-05-19 01:31:19, 2026-05-19 01:44:37, 2026-05-19 02:02:15, 2026-05-19 02:16:54", "cumulative_total": 118.0 }, "geometry": { "type": "Polygon", "coordinates": [ [ [ -69.15311821420346, 48.018832857023128 ], [ -69.159495751214934, 48.021757084865584 ], [ -69.158909922429245, 48.026924587736161 ], [ -69.151945237037609, 48.029167740046731 ], [ -69.145567287493094, 48.026243072807084 ], [ -69.146154435814566, 48.021075692722228 ], [ -69.15311821420346, 48.018832857023128 ] ] ] } },
{ "type": "Feature", "properties": { "hex_id": 605045, "centroid_lon": -73.251108628157553, "centroid_lat": 45.385168952343271, "occurrences_today": 2, "datetimes_today": "2026-05-19 00:01:22, 2026-05-19 00:16:17", "cumulative_total": 19.0 }, "geometry": { "type": "Polygon", "coordinates": [ [ [ -73.251268826195258, 45.379974461495827 ], [ -73.257572359522101, 45.382669296888359 ], [ -73.257412723769306, 45.387863802721547 ], [ -73.250948386441138, 45.390363438003305 ], [ -73.244644334515414, 45.387668232253979 ], [ -73.244805138502144, 45.38247376164383 ], [ -73.251268826195258, 45.379974461495827 ] ] ] } },
{ "type": "Feature", "properties": { "hex_id": 605655, "centroid_lon": -73.244965898658407, "centroid_lat": 45.377279285843166, "occurrences_today": 2, "datetimes_today": "2026-05-19 00:01:22, 2026-05-19 00:16:17", "cumulative_total": 19.0 }, "geometry": { "type": "Polygon", "coordinates": [ [ [ -73.245126614998895, 45.372084804852101 ], [ -73.251428980568818, 45.374779965461137 ], [ -73.251268826195258, 45.379974461495827 ], [ -73.244805138502144, 45.38247376164383 ], [ -73.238502254788415, 45.379778230721968 ], [ -73.238663576896968, 45.374583770029062 ], [ -73.245126614998895, 45.372084804852101 ] ] ] } },
{ "type": "Feature", "properties": { "hex_id": 606265, "centroid_lon": -73.238824855038132, "centroid_lat": 45.369389304142622, "occurrences_today": 2, "datetimes_today": "2026-05-19 00:01:22, 2026-05-19 00:16:17", "cumulative_total": 12.0 }, "geometry": { "type": "Polygon", "coordinates": [ [ [ -73.238986089226586, 45.36419483306279 ], [ -73.245287287538247, 45.366890318670791 ], [ -73.245126614998895, 45.372084804852101 ], [ -73.238663576896968, 45.374583770029062 ], [ -73.232361860896233, 45.371887914152197 ], [ -73.23252370067182, 45.366693463431325 ], [ -73.238986089226586, 45.36419483306279 ] ] ] } },
{ "type": "Feature", "properties": { "hex_id": 606876, "centroid_lon": -73.232199977001699, "centroid_lat": 45.377082359676386, "occurrences_today": 2, "datetimes_today": "2026-05-19 00:01:22, 2026-05-19 00:16:17", "cumulative_total": 12.0 }, "geometry": { "type": "Polygon", "coordinates": [ [ [ -73.232361860896233, 45.371887914152197 ], [ -73.238663576896968, 45.374583770029062 ], [ -73.238502254788415, 45.379778230721968 ], [ -73.232038048973479, 45.382276800003744 ], [ -73.225735815327837, 45.379580573700274 ], [ -73.225898305127288, 45.374386148605758 ], [ -73.232361860896233, 45.371887914152197 ] ] ] } },
{ "type": "Feature", "properties": { "hex_id": 630747, "centroid_lon": -72.948346467171277, "centroid_lat": 46.33110400617575, "occurrences_today": 5, "datetimes_today": "2026-05-19 01:16:36, 2026-05-19 01:31:19, 2026-05-19 01:44:37, 2026-05-19 02:02:15, 2026-05-19 02:16:54", "cumulative_total": 22.0 }, "geometry": { "type": "Polygon", "coordinates": [ [ [ -72.948540687890514, 46.325911290479581 ], [ -72.954935236240956, 46.328623984035261 ], [ -72.954741602341102, 46.333816718018099 ], [ -72.948152192880599, 46.336296716505039 ], [ -72.941757111291381, 46.333583637623278 ], [ -72.941951972383066, 46.328390945646909 ], [ -72.948540687890514, 46.325911290479581 ] ] ] } },
{ "type": "Feature", "properties": { "hex_id": 606872, "centroid_lon": -73.234139675125959, "centroid_lat": 45.31474867043746, "occurrences_today": 10, "datetimes_today": "2026-05-19 00:01:22, 2026-05-19 00:16:17, 2026-05-19 00:31:18, 2026-05-19 00:46:46, 2026-05-19 01:02:29, 2026-05-19 01:16:36, 2026-05-19 01:31:19, 2026-05-19 01:44:37, 2026-05-19 02:02:15, 2026-05-19 02:16:54", "cumulative_total": 109.0 }, "geometry": { "type": "Polygon", "coordinates": [ [ [ -73.234301030564694, 45.309554162562797 ], [ -73.240596016940287, 45.312249836660371 ], [ -73.240435221472211, 45.317444359666041 ], [ -73.233978275730053, 45.319943173117075 ], [ -73.227682773348278, 45.317247129399284 ], [ -73.227844732700163, 45.31205264191464 ], [ -73.234301030564694, 45.309554162562797 ] ] ] } },
{ "type": "Feature", "properties": { "hex_id": 512312, "centroid_lon": -74.207933835516954, "centroid_lat": 46.377946260082169, "occurrences_today": 1, "datetimes_today": "2026-05-19 00:01:22", "cumulative_total": 155.0 }, "geometry": { "type": "Polygon", "coordinates": [ [ [ -74.208008953040903, 46.372750748672381 ], [ -74.214472136295711, 46.375393346769037 ], [ -74.214397624873556, 46.380588863848814 ], [ -74.20785869724962, 46.383141766655982 ], [ -74.201394928639971, 46.380498794524257 ], [ -74.201470673001978, 46.375303293687061 ], [ -74.208008953040903, 46.372750748672381 ] ] ] } },
{ "type": "Feature", "properties": { "hex_id": 549501, "centroid_lon": -73.828454613883167, "centroid_lat": 45.57184242077075, "occurrences_today": 10, "datetimes_today": "2026-05-19 00:01:22, 2026-05-19 00:16:17, 2026-05-19 00:31:18, 2026-05-19 00:46:46, 2026-05-19 01:02:29, 2026-05-19 01:16:36, 2026-05-19 01:31:19, 2026-05-19 01:44:37, 2026-05-19 02:02:15, 2026-05-19 02:16:54", "cumulative_total": 225.0 }, "geometry": { "type": "Polygon", "coordinates": [ [ [ -73.828562636797145, 45.566646763914321 ], [ -73.834915010153367, 45.569310119447493 ], [ -73.834807562962069, 45.574505785638436 ], [ -73.828346561442572, 45.577038072680821 ], [ -73.821993641895247, 45.574374349790361 ], [ -73.822102270048617, 45.569178707279484 ], [ -73.828562636797145, 45.566646763914321 ] ] ] } },
{ "type": "Feature", "properties": { "hex_id": 881753, "centroid_lon": -70.159607756558529, "centroid_lat": 47.657855370933689, "occurrences_today": 4, "datetimes_today": "2026-05-19 00:46:46, 2026-05-19 01:02:29, 2026-05-19 01:16:36, 2026-05-19 01:31:19", "cumulative_total": 32.0 }, "geometry": { "type": "Polygon", "coordinates": [ [ [ -70.160087246139398, 47.652679079532938 ], [ -70.166482369158459, 47.65554759861913 ], [ -70.16600346356357, 47.660723936385985 ], [ -70.159128132700857, 47.663031653977889 ], [ -70.152732559996352, 47.66016270810433 ], [ -70.15321276779251, 47.654986471494311 ], [ -70.160087246139398, 47.652679079532938 ] ] ] } },
{ "type": "Feature", "properties": { "hex_id": 606262, "centroid_lon": -73.240274382197995, "centroid_lat": 45.322638877479761, "occurrences_today": 10, "datetimes_today": "2026-05-19 00:01:22, 2026-05-19 00:16:17, 2026-05-19 00:31:18, 2026-05-19 00:46:46, 2026-05-19 01:02:29, 2026-05-19 01:16:36, 2026-05-19 01:31:19, 2026-05-19 01:44:37, 2026-05-19 02:02:15, 2026-05-19 02:16:54", "cumulative_total": 61.0 }, "geometry": { "type": "Polygon", "coordinates": [ [ [ -73.240435221472211, 45.317444359666041 ], [ -73.246731371753611, 45.320139709501866 ], [ -73.246571092766743, 45.32533424238887 ], [ -73.240113499103003, 45.327833390101439 ], [ -73.233816832362336, 45.325137670601457 ], [ -73.233978275730053, 45.319943173117075 ], [ -73.240435221472211, 45.317444359666041 ] ] ] } },
{ "type": "Feature", "properties": { "hex_id": 548891, "centroid_lon": -73.834700086400517, "centroid_lat": 45.579701446885146, "occurrences_today": 10, "datetimes_today": "2026-05-19 00:01:22, 2026-05-19 00:16:17, 2026-05-19 00:31:18, 2026-05-19 00:46:46, 2026-05-19 01:02:29, 2026-05-19 01:16:36, 2026-05-19 01:31:19, 2026-05-19 01:44:37, 2026-05-19 02:02:15, 2026-05-19 02:16:54", "cumulative_total": 124.0 }, "geometry": { "type": "Polygon", "coordinates": [ [ [ -73.834807562962069, 45.574505785638436 ], [ -73.841161117295229, 45.577168801783827 ], [ -73.841054216778986, 45.582364472304612 ], [ -73.834592580458789, 45.584897103187593 ], [ -73.828238479465412, 45.582233719644478 ], [ -73.828346561442572, 45.577038072680821 ], [ -73.834807562962069, 45.574505785638436 ] ] ] } },
{ "type": "Feature", "properties": { "hex_id": 605043, "centroid_lon": -73.252069161713578, "centroid_lat": 45.354001929452622, "occurrences_today": 2, "datetimes_today": "2026-05-19 00:01:22, 2026-05-19 00:16:17", "cumulative_total": 21.0 }, "geometry": { "type": "Polygon", "coordinates": [ [ [ -73.252229097985278, 45.348807407483783 ], [ -73.258529260787057, 45.351502153027262 ], [ -73.258369885890701, 45.356696689963158 ], [ -73.25190918185065, 45.359196446234925 ], [ -73.245608501272031, 45.356501330738027 ], [ -73.245769042495738, 45.35130682898685 ], [ -73.252229097985278, 45.348807407483783 ] ] ] } },
{ "type": "Feature", "properties": { "hex_id": 605653, "centroid_lon": -73.2459295399768, "centroid_lat": 45.346112322046018, "occurrences_today": 10, "datetimes_today": "2026-05-19 00:01:22, 2026-05-19 00:16:17, 2026-05-19 00:31:18, 2026-05-19 00:46:46, 2026-05-19 01:02:29, 2026-05-19 01:16:36, 2026-05-19 01:31:19, 2026-05-19 01:44:37, 2026-05-19 02:02:15, 2026-05-19 02:16:54", "cumulative_total": 29.0 }, "geometry": { "type": "Polygon", "coordinates": [ [ [ -73.246089993729825, 45.340917809915645 ], [ -73.252388990680302, 45.343612880328543 ], [ -73.252229097985278, 45.348807407483783 ], [ -73.245769042495738, 45.35130682898685 ], [ -73.2394695282226, 45.348611388664438 ], [ -73.23963058674704, 45.343416896812521 ], [ -73.246089993729825, 45.340917809915645 ] ] ] } },
{ "type": "Feature", "properties": { "hex_id": 809634, "centroid_lon": -71.036653590883219, "centroid_lat": 46.444463812678713, "occurrences_today": 9, "datetimes_today": "2026-05-19 00:16:17, 2026-05-19 00:31:18, 2026-05-19 00:46:46, 2026-05-19 01:02:29, 2026-05-19 01:16:36, 2026-05-19 01:31:19, 2026-05-19 01:44:37, 2026-05-19 02:02:15, 2026-05-19 02:16:54", "cumulative_total": 40.0 }, "geometry": { "type": "Polygon", "coordinates": [ [ [ -71.037030050847363, 46.439280308722218 ], [ -71.043335545785254, 46.44209725645689 ], [ -71.042959646911839, 46.447280797404126 ], [ -71.036277027110501, 46.449647309559204 ], [ -71.029971074908218, 46.446829958672168 ], [ -71.030348199736068, 46.441646498848087 ], [ -71.037030050847363, 46.439280308722218 ] ] ] } },
{ "type": "Feature", "properties": { "hex_id": 607483, "centroid_lon": -73.22752076987355, "centroid_lat": 45.322441611685534, "occurrences_today": 10, "datetimes_today": "2026-05-19 00:01:22, 2026-05-19 00:16:17, 2026-05-19 00:31:18, 2026-05-19 00:46:46, 2026-05-19 01:02:29, 2026-05-19 01:16:36, 2026-05-19 01:31:19, 2026-05-19 01:44:37, 2026-05-19 02:02:15, 2026-05-19 02:16:54", "cumulative_total": 32.0 }, "geometry": { "type": "Polygon", "coordinates": [ [ [ -73.227682773348278, 45.317247129399284 ], [ -73.233978275730053, 45.319943173117075 ], [ -73.233816832362336, 45.325137670601457 ], [ -73.2273587222613, 45.327636088773303 ], [ -73.22106270391744, 45.32493967527784 ], [ -73.221225311621964, 45.319745213452201 ], [ -73.227682773348278, 45.317247129399284 ] ] ] } },
{ "type": "Feature", "properties": { "hex_id": 882974, "centroid_lon": -70.146337705687543, "centroid_lat": 47.657293428294857, "occurrences_today": 4, "datetimes_today": "2026-05-19 00:46:46, 2026-05-19 01:02:29, 2026-05-19 01:16:36, 2026-05-19 01:31:19", "cumulative_total": 5.0 }, "geometry": { "type": "Polygon", "coordinates": [ [ [ -70.146818497218021, 47.652117238177837 ], [ -70.15321276779251, 47.654986471494311 ], [ -70.152732559996352, 47.66016270810433 ], [ -70.14585677951942, 47.662469610035494 ], [ -70.139462059872073, 47.659599949839077 ], [ -70.139943569726896, 47.654423814659488 ], [ -70.146818497218021, 47.652117238177837 ] ] ] } },
{ "type": "Feature", "properties": { "hex_id": 512923, "centroid_lon": -74.201319163360807, "centroid_lat": 46.385694290523908, "occurrences_today": 1, "datetimes_today": "2026-05-19 00:01:22", "cumulative_total": 22.0 }, "geometry": { "type": "Polygon", "coordinates": [ [ [ -74.201394928639971, 46.380498794524257 ], [ -74.20785869724962, 46.383141766655982 ], [ -74.207783538231766, 46.388337268393776 ], [ -74.201243377157311, 46.390889781686028 ], [ -74.194779023214281, 46.388246435353757 ], [ -74.194855415671881, 46.383050949996438 ], [ -74.201394928639971, 46.380498794524257 ] ] ] } },
{ "type": "Feature", "properties": { "hex_id": 639839, "centroid_lon": -72.88989046996322, "centroid_lat": 45.308905374079352, "occurrences_today": 7, "datetimes_today": "2026-05-19 00:01:22, 2026-05-19 00:16:17, 2026-05-19 00:31:18, 2026-05-19 00:46:46, 2026-05-19 01:02:29, 2026-05-19 01:16:36, 2026-05-19 01:31:19", "cumulative_total": 25.0 }, "geometry": { "type": "Polygon", "coordinates": [ [ [ -72.890083228916581, 45.303711918469823 ], [ -72.896360564859492, 45.306426268163378 ], [ -72.896168360956125, 45.311619742263133 ], [ -72.889697658511963, 45.314098824303258 ], [ -72.883419820025722, 45.31138410196553 ], [ -72.883613186509464, 45.30619067029572 ], [ -72.890083228916581, 45.303711918469823 ] ] ] } },
{ "type": "Feature", "properties": { "hex_id": 606264, "centroid_lon": -73.239308425804154, "centroid_lat": 45.353805875323545, "occurrences_today": 10, "datetimes_today": "2026-05-19 00:01:22, 2026-05-19 00:16:17, 2026-05-19 00:31:18, 2026-05-19 00:46:46, 2026-05-19 01:02:29, 2026-05-19 01:16:36, 2026-05-19 01:31:19, 2026-05-19 01:44:37, 2026-05-19 02:02:15, 2026-05-19 02:16:54", "cumulative_total": 14.0 }, "geometry": { "type": "Polygon", "coordinates": [ [ [ -73.2394695282226, 45.348611388664438 ], [ -73.245769042495738, 45.35130682898685 ], [ -73.245608501272031, 45.356501330738027 ], [ -73.239147279477024, 45.359000356789721 ], [ -73.232847247925136, 45.356304546400132 ], [ -73.233008955432339, 45.351110080090095 ], [ -73.2394695282226, 45.348611388664438 ] ] ] } },
{ "type": "Feature", "properties": { "hex_id": 606873, "centroid_lon": -73.233655345008117, "centroid_lat": 45.330332162890485, "occurrences_today": 10, "datetimes_today": "2026-05-19 00:01:22, 2026-05-19 00:16:17, 2026-05-19 00:31:18, 2026-05-19 00:46:46, 2026-05-19 01:02:29, 2026-05-19 01:16:36, 2026-05-19 01:31:19, 2026-05-19 01:44:37, 2026-05-19 02:02:15, 2026-05-19 02:16:54", "cumulative_total": 14.0 }, "geometry": { "type": "Polygon", "coordinates": [ [ [ -73.233816832362336, 45.325137670601457 ], [ -73.240113499103003, 45.327833390101439 ], [ -73.239952572172598, 45.333027897530869 ], [ -73.2334938136527, 45.335526649984011 ], [ -73.227196630496749, 45.332830560662408 ], [ -73.2273587222613, 45.327636088773303 ], [ -73.233816832362336, 45.325137670601457 ] ] ] } },
{ "type": "Feature", "properties": { "hex_id": 606874, "centroid_lon": -73.233170618879527, "centroid_lat": 45.345915608583972, "occurrences_today": 10, "datetimes_today": "2026-05-19 00:01:22, 2026-05-19 00:16:17, 2026-05-19 00:31:18, 2026-05-19 00:46:46, 2026-05-19 01:02:29, 2026-05-19 01:16:36, 2026-05-19 01:31:19, 2026-05-19 01:44:37, 2026-05-19 02:02:15, 2026-05-19 02:16:54", "cumulative_total": 14.0 }, "geometry": { "type": "Polygon", "coordinates": [ [ [ -73.233332238281406, 45.340721131881892 ], [ -73.23963058674704, 45.343416896812521 ], [ -73.2394695282226, 45.348611388664438 ], [ -73.233008955432339, 45.351110080090095 ], [ -73.226710090141893, 45.348413945136279 ], [ -73.226872314451811, 45.343219488844049 ], [ -73.233332238281406, 45.340721131881892 ] ] ] } },
{ "type": "Feature", "properties": { "hex_id": 606875, "centroid_lon": -73.232685496343208, "centroid_lat": 45.361499007513935, "occurrences_today": 10, "datetimes_today": "2026-05-19 00:01:22, 2026-05-19 00:16:17, 2026-05-19 00:31:18, 2026-05-19 00:46:46, 2026-05-19 01:02:29, 2026-05-19 01:16:36, 2026-05-19 01:31:19, 2026-05-19 01:44:37, 2026-05-19 02:02:15, 2026-05-19 02:16:54", "cumulative_total": 14.0 }, "geometry": { "type": "Polygon", "coordinates": [ [ [ -73.232847247925136, 45.356304546400132 ], [ -73.239147279477024, 45.359000356789721 ], [ -73.238986089226586, 45.36419483306279 ], [ -73.23252370067182, 45.366693463431325 ], [ -73.226223151885279, 45.363997282816904 ], [ -73.226385508873406, 45.358802842122863 ], [ -73.232847247925136, 45.356304546400132 ] ] ] } },
{ "type": "Feature", "properties": { "hex_id": 607484, "centroid_lon": -73.227034494565174, "centroid_lat": 45.338025027352685, "occurrences_today": 10, "datetimes_today": "2026-05-19 00:01:22, 2026-05-19 00:16:17, 2026-05-19 00:31:18, 2026-05-19 00:46:46, 2026-05-19 01:02:29, 2026-05-19 01:16:36, 2026-05-19 01:31:19, 2026-05-19 01:44:37, 2026-05-19 02:02:15, 2026-05-19 02:16:54", "cumulative_total": 14.0 }, "geometry": { "type": "Polygon", "coordinates": [ [ [ -73.227196630496749, 45.332830560662408 ], [ -73.2334938136527, 45.335526649984011 ], [ -73.233332238281406, 45.340721131881892 ], [ -73.226872314451811, 45.343219488844049 ], [ -73.220574614924729, 45.340523029543263 ], [ -73.220737355583623, 45.335328583323516 ], [ -73.227196630496749, 45.332830560662408 ] ] ] } },
{ "type": "Feature", "properties": { "hex_id": 607485, "centroid_lon": -73.226547821620699, "centroid_lat": 45.353608396229276, "occurrences_today": 10, "datetimes_today": "2026-05-19 00:01:22, 2026-05-19 00:16:17, 2026-05-19 00:31:18, 2026-05-19 00:46:46, 2026-05-19 01:02:29, 2026-05-19 01:16:36, 2026-05-19 01:31:19, 2026-05-19 01:44:37, 2026-05-19 02:02:15, 2026-05-19 02:16:54", "cumulative_total": 14.0 }, "geometry": { "type": "Polygon", "coordinates": [ [ [ -73.226710090141893, 45.348413945136279 ], [ -73.233008955432339, 45.351110080090095 ], [ -73.232847247925136, 45.356304546400132 ], [ -73.226385508873406, 45.358802842122863 ], [ -73.220086126802443, 45.356106336988262 ], [ -73.220249000548961, 45.350911906375771 ], [ -73.226710090141893, 45.348413945136279 ] ] ] } },
{ "type": "Feature", "properties": { "hex_id": 607486, "centroid_lon": -73.226060750641494, "centroid_lat": 45.369191718311257, "occurrences_today": 2, "datetimes_today": "2026-05-19 00:01:22, 2026-05-19 00:16:17", "cumulative_total": 6.0 }, "geometry": { "type": "Polygon", "coordinates": [ [ [ -73.226223151885279, 45.363997282816904 ], [ -73.23252370067182, 45.366693463431325 ], [ -73.232361860896233, 45.371887914152197 ], [ -73.225898305127288, 45.374386148605758 ], [ -73.219597239150389, 45.3716895976088 ], [ -73.219760246117986, 45.366495182604922 ], [ -73.226223151885279, 45.363997282816904 ] ] ] } },
{ "type": "Feature", "properties": { "hex_id": 608094, "centroid_lon": -73.220900051909581, "centroid_lat": 45.330134131901659, "occurrences_today": 10, "datetimes_today": "2026-05-19 00:01:22, 2026-05-19 00:16:17, 2026-05-19 00:31:18, 2026-05-19 00:46:46, 2026-05-19 01:02:29, 2026-05-19 01:16:36, 2026-05-19 01:31:19, 2026-05-19 01:44:37, 2026-05-19 02:02:15, 2026-05-19 02:16:54", "cumulative_total": 14.0 }, "geometry": { "type": "Polygon", "coordinates": [ [ [ -73.22106270391744, 45.32493967527784 ], [ -73.2273587222613, 45.327636088773303 ], [ -73.227196630496749, 45.332830560662408 ], [ -73.220737355583623, 45.335328583323516 ], [ -73.214440821321986, 45.332631799892916 ], [ -73.214604077876459, 45.32743736380035 ], [ -73.22106270391744, 45.32493967527784 ] ] ] } },
{ "type": "Feature", "properties": { "hex_id": 608095, "centroid_lon": -73.22041182991812, "centroid_lat": 45.345717470560729, "occurrences_today": 10, "datetimes_today": "2026-05-19 00:01:22, 2026-05-19 00:16:17, 2026-05-19 00:31:18, 2026-05-19 00:46:46, 2026-05-19 01:02:29, 2026-05-19 01:16:36, 2026-05-19 01:31:19, 2026-05-19 01:44:37, 2026-05-19 02:02:15, 2026-05-19 02:16:54", "cumulative_total": 14.0 }, "geometry": { "type": "Polygon", "coordinates": [ [ [ -73.220574614924729, 45.340523029543263 ], [ -73.226872314451811, 45.343219488844049 ], [ -73.226710090141893, 45.348413945136279 ], [ -73.220249000548961, 45.350911906375771 ], [ -73.213950784695129, 45.348215076938253 ], [ -73.214114174746172, 45.343020656462024 ], [ -73.220574614924729, 45.340523029543263 ] ] ] } },
{ "type": "Feature", "properties": { "hex_id": 608096, "centroid_lon": -73.219923208663729, "centroid_lat": 45.361300762398024, "occurrences_today": 10, "datetimes_today": "2026-05-19 00:01:22, 2026-05-19 00:16:17, 2026-05-19 00:31:18, 2026-05-19 00:46:46, 2026-05-19 01:02:29, 2026-05-19 01:16:36, 2026-05-19 01:31:19, 2026-05-19 01:44:37, 2026-05-19 02:02:15, 2026-05-19 02:16:54", "cumulative_total": 14.0 }, "geometry": { "type": "Polygon", "coordinates": [ [ [ -73.220086126802443, 45.356106336988262 ], [ -73.226385508873406, 45.358802842122863 ], [ -73.226223151885279, 45.363997282816904 ], [ -73.219760246117986, 45.366495182604922 ], [ -73.213460347310871, 45.363798307131873 ], [ -73.21362387099235, 45.35860390227333 ], [ -73.220086126802443, 45.356106336988262 ] ] ] } },
{ "type": "Feature", "properties": { "hex_id": 608097, "centroid_lon": -73.21943418774606, "centroid_lat": 45.376884007409522, "occurrences_today": 2, "datetimes_today": "2026-05-19 00:01:22, 2026-05-19 00:16:17", "cumulative_total": 6.0 }, "geometry": { "type": "Polygon", "coordinates": [ [ [ -73.219597239150389, 45.3716895976088 ], [ -73.225898305127288, 45.374386148605758 ], [ -73.225735815327837, 45.379580573700274 ], [ -73.219271091890164, 45.382078412006912 ], [ -73.212969508767387, 45.37938149046969 ], [ -73.213133166213311, 45.374187101230198 ], [ -73.219597239150389, 45.3716895976088 ] ] ] } },
{ "type": "Feature", "properties": { "hex_id": 608704, "centroid_lon": -73.21476728996177, "centroid_lat": 45.322242922502639, "occurrences_today": 10, "datetimes_today": "2026-05-19 00:01:22, 2026-05-19 00:16:17, 2026-05-19 00:31:18, 2026-05-19 00:46:46, 2026-05-19 01:02:29, 2026-05-19 01:16:36, 2026-05-19 01:31:19, 2026-05-19 01:44:37, 2026-05-19 02:02:15, 2026-05-19 02:16:54", "cumulative_total": 14.0 }, "geometry": { "type": "Polygon", "coordinates": [ [ [ -73.214930457592786, 45.31704847599994 ], [ -73.221225311621964, 45.319745213452201 ], [ -73.22106270391744, 45.32493967527784 ], [ -73.214604077876459, 45.32743736380035 ], [ -73.208308708382518, 45.324740256457019 ], [ -73.208472480379498, 45.319545830546232 ], [ -73.214930457592786, 45.31704847599994 ] ] ] } },
{ "type": "Feature", "properties": { "hex_id": 608705, "centroid_lon": -73.214277520283517, "centroid_lat": 45.337826230780188, "occurrences_today": 10, "datetimes_today": "2026-05-19 00:01:22, 2026-05-19 00:16:17, 2026-05-19 00:31:18, 2026-05-19 00:46:46, 2026-05-19 01:02:29, 2026-05-19 01:16:36, 2026-05-19 01:31:19, 2026-05-19 01:44:37, 2026-05-19 02:02:15, 2026-05-19 02:16:54", "cumulative_total": 14.0 }, "geometry": { "type": "Polygon", "coordinates": [ [ [ -73.214440821321986, 45.332631799892916 ], [ -73.220737355583623, 45.335328583323516 ], [ -73.220574614924729, 45.340523029543263 ], [ -73.214114174746172, 45.343020656462024 ], [ -73.207817124611239, 45.34032350293878 ], [ -73.207981030513295, 45.335129092653439 ], [ -73.214440821321986, 45.332631799892916 ] ] ] } },
{ "type": "Feature", "properties": { "hex_id": 608706, "centroid_lon": -73.213787350115467, "centroid_lat": 45.353409492208733, "occurrences_today": 2, "datetimes_today": "2026-05-19 00:01:22, 2026-05-19 00:16:17", "cumulative_total": 6.0 }, "geometry": { "type": "Polygon", "coordinates": [ [ [ -73.213950784695129, 45.348215076938253 ], [ -73.220249000548961, 45.350911906375771 ], [ -73.220086126802443, 45.356106336988262 ], [ -73.21362387099235, 45.35860390227333 ], [ -73.207325138856291, 45.355906702541482 ], [ -73.207489178797658, 45.350712307882958 ], [ -73.213950784695129, 45.348215076938253 ] ] ] } },
{ "type": "Feature", "properties": { "hex_id": 608707, "centroid_lon": -73.213296779056165, "centroid_lat": 45.368992706784212, "occurrences_today": 2, "datetimes_today": "2026-05-19 00:01:22, 2026-05-19 00:16:17", "cumulative_total": 6.0 }, "geometry": { "type": "Polygon", "coordinates": [ [ [ -73.213460347310871, 45.363798307131873 ], [ -73.219760246117986, 45.366495182604922 ], [ -73.219597239150389, 45.3716895976088 ], [ -73.213133166213311, 45.374187101230198 ], [ -73.206832750714668, 45.371489855261025 ], [ -73.206996924829753, 45.366295476230675 ], [ -73.213460347310871, 45.363798307131873 ] ] ] } },
{ "type": "Feature", "properties": { "hex_id": 609316, "centroid_lon": -73.207653174044339, "centroid_lat": 45.345517908015331, "occurrences_today": 2, "datetimes_today": "2026-05-19 00:01:22, 2026-05-19 00:16:17", "cumulative_total": 6.0 }, "geometry": { "type": "Polygon", "coordinates": [ [ [ -73.207817124611239, 45.34032350293878 ], [ -73.214114174746172, 45.343020656462024 ], [ -73.213950784695129, 45.348215076938253 ], [ -73.207489178797658, 45.350712307882958 ], [ -73.201191612834094, 45.348014784109523 ], [ -73.201356168581711, 45.342820399705644 ], [ -73.207817124611239, 45.34032350293878 ] ] ] } },
{ "type": "Feature", "properties": { "hex_id": 609317, "centroid_lon": -73.207161054205301, "centroid_lat": 45.361101091990783, "occurrences_today": 2, "datetimes_today": "2026-05-19 00:01:22, 2026-05-19 00:16:17", "cumulative_total": 6.0 }, "geometry": { "type": "Polygon", "coordinates": [ [ [ -73.207325138856291, 45.355906702541482 ], [ -73.21362387099235, 45.35860390227333 ], [ -73.213460347310871, 45.363798307131873 ], [ -73.206996924829753, 45.366295476230675 ], [ -73.200697676456201, 45.363597906046891 ], [ -73.200862366786353, 45.358403537280317 ], [ -73.207325138856291, 45.355906702541482 ] ] ] } },
{ "type": "Feature", "properties": { "hex_id": 880532, "centroid_lon": -70.17287821025981, "centroid_lat": 47.658415783667088, "occurrences_today": 7, "datetimes_today": "2026-05-19 00:46:46, 2026-05-19 01:02:29, 2026-05-19 01:16:36, 2026-05-19 01:31:19, 2026-05-19 01:44:37, 2026-05-19 02:02:15, 2026-05-19 02:16:54", "cumulative_total": 7.0 }, "geometry": { "type": "Polygon", "coordinates": [ [ [ -70.173356397748691, 47.653239391256193 ], [ -70.179752372742229, 47.656107195916753 ], [ -70.179274769490846, 47.661283634566821 ], [ -70.172399888855082, 47.663592167741193 ], [ -70.16600346356357, 47.660723936385985 ], [ -70.166482369158459, 47.65554759861913 ], [ -70.173356397748691, 47.653239391256193 ] ] ] } }
]
}
