{
"type": "FeatureCollection",
"name": "daily_2026-01-01",
"crs": { "type": "name", "properties": { "name": "urn:ogc:def:crs:OGC:1.3:CRS84" } },
"features": [
{ "type": "Feature", "properties": { "hex_id": 300431, "centroid_lon": -76.44846604324762, "centroid_lat": 45.786926954353312, "count": 11.0, "datetimes_affected": "2026-01-03 09:32:54,2026-01-03 10:31:59,2026-01-03 11:39:00,2026-01-03 12:31:54,2026-01-03 13:44:56,2026-01-03 14:26:59,2026-01-03 15:35:01,2026-01-03 16:30:53,2026-01-03 17:34:22,2026-01-03 18:31:00,2026-01-03 21:39:56", "date": "2026-01-01", "n_files": 60 }, "geometry": { "type": "Polygon", "coordinates": [ [ [ -76.4419685, 45.7844109 ], [ -76.4421025, 45.7896058 ], [ -76.4486006, 45.7921218 ], [ -76.4549642, 45.7894427 ], [ -76.454829, 45.7842478 ], [ -76.4483315, 45.7817321 ], [ -76.4419685, 45.7844109 ] ] ] } },
{ "type": "Feature", "properties": { "hex_id": 301652, "centroid_lon": -76.435604893654272, "centroid_lat": 45.787089304354055, "count": 11.0, "datetimes_affected": "2026-01-03 09:32:54,2026-01-03 10:31:59,2026-01-03 11:39:00,2026-01-03 12:31:54,2026-01-03 13:44:56,2026-01-03 14:26:59,2026-01-03 15:35:01,2026-01-03 16:30:53,2026-01-03 17:34:22,2026-01-03 18:31:00,2026-01-03 21:39:56", "date": "2026-01-01", "n_files": 60 }, "geometry": { "type": "Polygon", "coordinates": [ [ [ -76.4291079, 45.7845725 ], [ -76.4292407, 45.7897674 ], [ -76.4357383, 45.7922842 ], [ -76.4421025, 45.7896058 ], [ -76.4419685, 45.7844109 ], [ -76.4354715, 45.7818944 ], [ -76.4291079, 45.7845725 ] ] ] } },
{ "type": "Feature", "properties": { "hex_id": 302262, "centroid_lon": -76.428975142327062, "centroid_lat": 45.779377541047594, "count": 11.0, "datetimes_affected": "2026-01-03 09:32:54,2026-01-03 10:31:59,2026-01-03 11:39:00,2026-01-03 12:31:54,2026-01-03 13:44:56,2026-01-03 14:26:59,2026-01-03 15:35:01,2026-01-03 16:30:53,2026-01-03 17:34:22,2026-01-03 18:31:00,2026-01-03 21:39:56", "date": "2026-01-01", "n_files": 60 }, "geometry": { "type": "Polygon", "coordinates": [ [ [ -76.4224793, 45.7768603 ], [ -76.4226115, 45.7820553 ], [ -76.4291079, 45.7845725 ], [ -76.4354715, 45.7818944 ], [ -76.4353382, 45.7766995 ], [ -76.4288424, 45.7741826 ], [ -76.4224793, 45.7768603 ] ] ] } },
{ "type": "Feature", "properties": { "hex_id": 302871, "centroid_lon": -76.42195116266204, "centroid_lat": 45.756080469904774, "count": 11.0, "datetimes_affected": "2026-01-03 09:32:54,2026-01-03 10:31:59,2026-01-03 11:39:00,2026-01-03 12:31:54,2026-01-03 13:44:56,2026-01-03 14:26:59,2026-01-03 15:35:01,2026-01-03 16:30:53,2026-01-03 17:34:22,2026-01-03 18:31:00,2026-01-03 21:39:56", "date": "2026-01-01", "n_files": 60 }, "geometry": { "type": "Polygon", "coordinates": [ [ [ -76.4154584, 45.7535628 ], [ -76.4155898, 45.7587578 ], [ -76.4220832, 45.7612754 ], [ -76.4284445, 45.7585978 ], [ -76.4283119, 45.7534028 ], [ -76.4218192, 45.7508855 ], [ -76.4154584, 45.7535628 ] ] ] } },
{ "type": "Feature", "properties": { "hex_id": 302873, "centroid_lon": -76.422743634425416, "centroid_lat": 45.787250207127286, "count": 11.0, "datetimes_affected": "2026-01-03 09:32:54,2026-01-03 10:31:59,2026-01-03 11:39:00,2026-01-03 12:31:54,2026-01-03 13:44:56,2026-01-03 14:26:59,2026-01-03 15:35:01,2026-01-03 16:30:53,2026-01-03 17:34:22,2026-01-03 18:31:00,2026-01-03 21:39:56", "date": "2026-01-01", "n_files": 60 }, "geometry": { "type": "Polygon", "coordinates": [ [ [ -76.4162472, 45.7847326 ], [ -76.4163788, 45.7899276 ], [ -76.4228758, 45.7924451 ], [ -76.4292407, 45.7897674 ], [ -76.4291079, 45.7845725 ], [ -76.4226115, 45.7820553 ], [ -76.4162472, 45.7847326 ] ] ] } },
{ "type": "Feature", "properties": { "hex_id": 303482, "centroid_lon": -76.415721172872608, "centroid_lat": 45.763952765123754, "count": 11.0, "datetimes_affected": "2026-01-03 09:32:54,2026-01-03 10:31:59,2026-01-03 11:39:00,2026-01-03 12:31:54,2026-01-03 13:44:56,2026-01-03 14:26:59,2026-01-03 15:35:01,2026-01-03 16:30:53,2026-01-03 17:34:22,2026-01-03 18:31:00,2026-01-03 21:39:56", "date": "2026-01-01", "n_files": 60 }, "geometry": { "type": "Polygon", "coordinates": [ [ [ -76.4092277, 45.7614348 ], [ -76.4093586, 45.7666297 ], [ -76.4158526, 45.7691477 ], [ -76.4222152, 45.7664704 ], [ -76.4220832, 45.7612754 ], [ -76.4155898, 45.7587578 ], [ -76.4092277, 45.7614348 ] ] ] } },
{ "type": "Feature", "properties": { "hex_id": 304703, "centroid_lon": -76.4028651207189, "centroid_lat": 45.764111368340757, "count": 11.0, "datetimes_affected": "2026-01-03 09:32:54,2026-01-03 10:31:59,2026-01-03 11:39:00,2026-01-03 12:31:54,2026-01-03 13:44:56,2026-01-03 14:26:59,2026-01-03 15:35:01,2026-01-03 16:30:53,2026-01-03 17:34:22,2026-01-03 18:31:00,2026-01-03 21:39:56", "date": "2026-01-01", "n_files": 60 }, "geometry": { "type": "Polygon", "coordinates": [ [ [ -76.3963722, 45.7615926 ], [ -76.3965019, 45.7667876 ], [ -76.4029954, 45.7693064 ], [ -76.4093586, 45.7666297 ], [ -76.4092277, 45.7614348 ], [ -76.4027349, 45.7589164 ], [ -76.3963722, 45.7615926 ] ] ] } },
{ "type": "Feature", "properties": { "hex_id": 511642, "centroid_lon": -74.227413975132976, "centroid_lat": 45.450514281925408, "count": 59.0, "datetimes_affected": "2026-01-01 00:42:56,2026-01-01 01:50:42,2026-01-01 02:34:19,2026-01-01 03:45:12,2026-01-01 04:38:37,2026-01-01 05:38:47,2026-01-01 06:29:59,2026-01-01 08:46:14,2026-01-01 09:35:37,2026-01-01 10:33:51,2026-01-01 11:42:17,2026-01-01 12:34:02,2026-01-01 13:46:45,2026-01-01 14:28:35,2026-01-01 15:36:11,2026-01-01 16:31:31,2026-01-01 17:35:42,2026-01-01 18:31:47,2026-01-01 21:27:59,2026-01-01 23:53:18,2026-01-02 00:42:01,2026-01-02 01:51:15,2026-01-02 02:36:03,2026-01-02 03:45:08,2026-01-02 04:37:43,2026-01-02 05:37:08,2026-01-02 06:30:06,2026-01-02 08:44:39,2026-01-02 09:36:33,2026-01-02 10:34:37,2026-01-02 11:40:28,2026-01-02 12:32:53,2026-01-02 13:46:02,2026-01-02 14:24:22,2026-01-02 15:34:50,2026-01-02 16:28:03,2026-01-02 17:36:18,2026-01-02 18:30:56,2026-01-02 21:21:43,2026-01-02 23:44:47,2026-01-03 00:36:49,2026-01-03 01:48:02,2026-01-03 02:31:19,2026-01-03 03:41:02,2026-01-03 04:33:47,2026-01-03 05:36:34,2026-01-03 06:27:49,2026-01-03 08:39:49,2026-01-03 09:32:54,2026-01-03 10:31:59,2026-01-03 11:39:00,2026-01-03 12:31:54,2026-01-03 13:44:56,2026-01-03 14:26:59,2026-01-03 15:35:01,2026-01-03 16:30:53,2026-01-03 17:34:22,2026-01-03 18:31:00,2026-01-03 21:39:56", "date": "2026-01-01", "n_files": 60 }, "geometry": { "type": "Polygon", "coordinates": [ [ [ -74.2210561, 45.4478727 ], [ -74.2209845, 45.453069 ], [ -74.227343, 45.4557107 ], [ -74.2337725, 45.4531555 ], [ -74.2338428, 45.4479592 ], [ -74.2274849, 45.4453179 ], [ -74.2210561, 45.4478727 ] ] ] } },
{ "type": "Feature", "properties": { "hex_id": 512252, "centroid_lon": -74.221127592447985, "centroid_lat": 45.442676292199096, "count": 59.0, "datetimes_affected": "2026-01-01 00:42:56,2026-01-01 01:50:42,2026-01-01 02:34:19,2026-01-01 03:45:12,2026-01-01 04:38:37,2026-01-01 05:38:47,2026-01-01 06:29:59,2026-01-01 08:46:14,2026-01-01 09:35:37,2026-01-01 10:33:51,2026-01-01 11:42:17,2026-01-01 12:34:02,2026-01-01 13:46:45,2026-01-01 14:28:35,2026-01-01 15:36:11,2026-01-01 16:31:31,2026-01-01 17:35:42,2026-01-01 18:31:47,2026-01-01 21:27:59,2026-01-01 23:53:18,2026-01-02 00:42:01,2026-01-02 01:51:15,2026-01-02 02:36:03,2026-01-02 03:45:08,2026-01-02 04:37:43,2026-01-02 05:37:08,2026-01-02 06:30:06,2026-01-02 08:44:39,2026-01-02 09:36:33,2026-01-02 10:34:37,2026-01-02 11:40:28,2026-01-02 12:32:53,2026-01-02 13:46:02,2026-01-02 14:24:22,2026-01-02 15:34:50,2026-01-02 16:28:03,2026-01-02 17:36:18,2026-01-02 18:30:56,2026-01-02 21:21:43,2026-01-02 23:44:47,2026-01-03 00:36:49,2026-01-03 01:48:02,2026-01-03 02:31:19,2026-01-03 03:41:02,2026-01-03 04:33:47,2026-01-03 05:36:34,2026-01-03 06:27:49,2026-01-03 08:39:49,2026-01-03 09:32:54,2026-01-03 10:31:59,2026-01-03 11:39:00,2026-01-03 12:31:54,2026-01-03 13:44:56,2026-01-03 14:26:59,2026-01-03 15:35:01,2026-01-03 16:30:53,2026-01-03 17:34:22,2026-01-03 18:31:00,2026-01-03 21:39:56", "date": "2026-01-01", "n_files": 60 }, "geometry": { "type": "Polygon", "coordinates": [ [ [ -74.2147709, 45.4400343 ], [ -74.2146988, 45.4452307 ], [ -74.2210561, 45.4478727 ], [ -74.2274849, 45.4453179 ], [ -74.2275558, 45.4401215 ], [ -74.2211991, 45.4374799 ], [ -74.2147709, 45.4400343 ] ] ] } },
{ "type": "Feature", "properties": { "hex_id": 512862, "centroid_lon": -74.214842940770254, "centroid_lat": 45.434837957411652, "count": 59.0, "datetimes_affected": "2026-01-01 00:42:56,2026-01-01 01:50:42,2026-01-01 02:34:19,2026-01-01 03:45:12,2026-01-01 04:38:37,2026-01-01 05:38:47,2026-01-01 06:29:59,2026-01-01 08:46:14,2026-01-01 09:35:37,2026-01-01 10:33:51,2026-01-01 11:42:17,2026-01-01 12:34:02,2026-01-01 13:46:45,2026-01-01 14:28:35,2026-01-01 15:36:11,2026-01-01 16:31:31,2026-01-01 17:35:42,2026-01-01 18:31:47,2026-01-01 21:27:59,2026-01-01 23:53:18,2026-01-02 00:42:01,2026-01-02 01:51:15,2026-01-02 02:36:03,2026-01-02 03:45:08,2026-01-02 04:37:43,2026-01-02 05:37:08,2026-01-02 06:30:06,2026-01-02 08:44:39,2026-01-02 09:36:33,2026-01-02 10:34:37,2026-01-02 11:40:28,2026-01-02 12:32:53,2026-01-02 13:46:02,2026-01-02 14:24:22,2026-01-02 15:34:50,2026-01-02 16:28:03,2026-01-02 17:36:18,2026-01-02 18:30:56,2026-01-02 21:21:43,2026-01-02 23:44:47,2026-01-03 00:36:49,2026-01-03 01:48:02,2026-01-03 02:31:19,2026-01-03 03:41:02,2026-01-03 04:33:47,2026-01-03 05:36:34,2026-01-03 06:27:49,2026-01-03 08:39:49,2026-01-03 09:32:54,2026-01-03 10:31:59,2026-01-03 11:39:00,2026-01-03 12:31:54,2026-01-03 13:44:56,2026-01-03 14:26:59,2026-01-03 15:35:01,2026-01-03 16:30:53,2026-01-03 17:34:22,2026-01-03 18:31:00,2026-01-03 21:39:56", "date": "2026-01-01", "n_files": 60 }, "geometry": { "type": "Polygon", "coordinates": [ [ [ -74.20848740000001, 45.4321957 ], [ -74.2084147, 45.437392 ], [ -74.2147709, 45.4400343 ], [ -74.2211991, 45.4374799 ], [ -74.2212706, 45.4322835 ], [ -74.214915, 45.4296416 ], [ -74.20848740000001, 45.4321957 ] ] ] } },
{ "type": "Feature", "properties": { "hex_id": 512863, "centroid_lon": -74.21462666169684, "centroid_lat": 45.450427072368328, "count": 59.0, "datetimes_affected": "2026-01-01 00:42:56,2026-01-01 01:50:42,2026-01-01 02:34:19,2026-01-01 03:45:12,2026-01-01 04:38:37,2026-01-01 05:38:47,2026-01-01 06:29:59,2026-01-01 08:46:14,2026-01-01 09:35:37,2026-01-01 10:33:51,2026-01-01 11:42:17,2026-01-01 12:34:02,2026-01-01 13:46:45,2026-01-01 14:28:35,2026-01-01 15:36:11,2026-01-01 16:31:31,2026-01-01 17:35:42,2026-01-01 18:31:47,2026-01-01 21:27:59,2026-01-01 23:53:18,2026-01-02 00:42:01,2026-01-02 01:51:15,2026-01-02 02:36:03,2026-01-02 03:45:08,2026-01-02 04:37:43,2026-01-02 05:37:08,2026-01-02 06:30:06,2026-01-02 08:44:39,2026-01-02 09:36:33,2026-01-02 10:34:37,2026-01-02 11:40:28,2026-01-02 12:32:53,2026-01-02 13:46:02,2026-01-02 14:24:22,2026-01-02 15:34:50,2026-01-02 16:28:03,2026-01-02 17:36:18,2026-01-02 18:30:56,2026-01-02 21:21:43,2026-01-02 23:44:47,2026-01-03 00:36:49,2026-01-03 01:48:02,2026-01-03 02:31:19,2026-01-03 03:41:02,2026-01-03 04:33:47,2026-01-03 05:36:34,2026-01-03 06:27:49,2026-01-03 08:39:49,2026-01-03 09:32:54,2026-01-03 10:31:59,2026-01-03 11:39:00,2026-01-03 12:31:54,2026-01-03 13:44:56,2026-01-03 14:26:59,2026-01-03 15:35:01,2026-01-03 16:30:53,2026-01-03 17:34:22,2026-01-03 18:31:00,2026-01-03 21:39:56", "date": "2026-01-01", "n_files": 60 }, "geometry": { "type": "Polygon", "coordinates": [ [ [ -74.2082694, 45.4477848 ], [ -74.2081967, 45.4529811 ], [ -74.2145545, 45.4556234 ], [ -74.2209845, 45.453069 ], [ -74.2210561, 45.4478727 ], [ -74.2146988, 45.4452307 ], [ -74.2082694, 45.4477848 ] ] ] } },
{ "type": "Feature", "properties": { "hex_id": 525704, "centroid_lon": -74.075126162974357, "centroid_lat": 45.768981051189449, "count": 59.0, "datetimes_affected": "2026-01-01 00:42:56,2026-01-01 01:50:42,2026-01-01 02:34:19,2026-01-01 03:45:12,2026-01-01 04:38:37,2026-01-01 05:38:47,2026-01-01 06:29:59,2026-01-01 08:46:14,2026-01-01 09:35:37,2026-01-01 10:33:51,2026-01-01 11:42:17,2026-01-01 12:34:02,2026-01-01 13:46:45,2026-01-01 14:28:35,2026-01-01 15:36:11,2026-01-01 16:31:31,2026-01-01 17:35:42,2026-01-01 18:31:47,2026-01-01 21:27:59,2026-01-01 23:53:18,2026-01-02 00:42:01,2026-01-02 01:51:15,2026-01-02 02:36:03,2026-01-02 03:45:08,2026-01-02 04:37:43,2026-01-02 05:37:08,2026-01-02 06:30:06,2026-01-02 08:44:39,2026-01-02 09:36:33,2026-01-02 10:34:37,2026-01-02 11:40:28,2026-01-02 12:32:53,2026-01-02 13:46:02,2026-01-02 14:24:22,2026-01-02 15:34:50,2026-01-02 16:28:03,2026-01-02 17:36:18,2026-01-02 18:30:56,2026-01-02 21:21:43,2026-01-02 23:44:47,2026-01-03 00:36:49,2026-01-03 01:48:02,2026-01-03 02:31:19,2026-01-03 03:41:02,2026-01-03 04:33:47,2026-01-03 05:36:34,2026-01-03 06:27:49,2026-01-03 08:39:49,2026-01-03 09:32:54,2026-01-03 10:31:59,2026-01-03 11:39:00,2026-01-03 12:31:54,2026-01-03 13:44:56,2026-01-03 14:26:59,2026-01-03 15:35:01,2026-01-03 16:30:53,2026-01-03 17:34:22,2026-01-03 18:31:00,2026-01-03 21:39:56", "date": "2026-01-01", "n_files": 60 }, "geometry": { "type": "Polygon", "coordinates": [ [ [ -74.0687397, 45.7663309 ], [ -74.0686532, 45.7715268 ], [ -74.0750403, 45.7741769 ], [ -74.0815132, 45.7716309 ], [ -74.0815985, 45.766435 ], [ -74.075212, 45.7637852 ], [ -74.0687397, 45.7663309 ] ] ] } },
{ "type": "Feature", "properties": { "hex_id": 526315, "centroid_lon": -74.06856672557042, "centroid_lat": 45.776722626684027, "count": 59.0, "datetimes_affected": "2026-01-01 00:42:56,2026-01-01 01:50:42,2026-01-01 02:34:19,2026-01-01 03:45:12,2026-01-01 04:38:37,2026-01-01 05:38:47,2026-01-01 06:29:59,2026-01-01 08:46:14,2026-01-01 09:35:37,2026-01-01 10:33:51,2026-01-01 11:42:17,2026-01-01 12:34:02,2026-01-01 13:46:45,2026-01-01 14:28:35,2026-01-01 15:36:11,2026-01-01 16:31:31,2026-01-01 17:35:42,2026-01-01 18:31:47,2026-01-01 21:27:59,2026-01-01 23:53:18,2026-01-02 00:42:01,2026-01-02 01:51:15,2026-01-02 02:36:03,2026-01-02 03:45:08,2026-01-02 04:37:43,2026-01-02 05:37:08,2026-01-02 06:30:06,2026-01-02 08:44:39,2026-01-02 09:36:33,2026-01-02 10:34:37,2026-01-02 11:40:28,2026-01-02 12:32:53,2026-01-02 13:46:02,2026-01-02 14:24:22,2026-01-02 15:34:50,2026-01-02 16:28:03,2026-01-02 17:36:18,2026-01-02 18:30:56,2026-01-02 21:21:43,2026-01-02 23:44:47,2026-01-03 00:36:49,2026-01-03 01:48:02,2026-01-03 02:31:19,2026-01-03 03:41:02,2026-01-03 04:33:47,2026-01-03 05:36:34,2026-01-03 06:27:49,2026-01-03 08:39:49,2026-01-03 09:32:54,2026-01-03 10:31:59,2026-01-03 11:39:00,2026-01-03 12:31:54,2026-01-03 13:44:56,2026-01-03 14:26:59,2026-01-03 15:35:01,2026-01-03 16:30:53,2026-01-03 17:34:22,2026-01-03 18:31:00,2026-01-03 21:39:56", "date": "2026-01-01", "n_files": 60 }, "geometry": { "type": "Polygon", "coordinates": [ [ [ -74.0621797, 45.7740721 ], [ -74.0620926, 45.7792679 ], [ -74.0684802, 45.7819185 ], [ -74.0749544, 45.7793728 ], [ -74.0750403, 45.7741769 ], [ -74.0686532, 45.7715268 ], [ -74.0621797, 45.7740721 ] ] ] } },
{ "type": "Feature", "properties": { "hex_id": 526925, "centroid_lon": -74.062266791101848, "centroid_lat": 45.768876226831907, "count": 59.0, "datetimes_affected": "2026-01-01 00:42:56,2026-01-01 01:50:42,2026-01-01 02:34:19,2026-01-01 03:45:12,2026-01-01 04:38:37,2026-01-01 05:38:47,2026-01-01 06:29:59,2026-01-01 08:46:14,2026-01-01 09:35:37,2026-01-01 10:33:51,2026-01-01 11:42:17,2026-01-01 12:34:02,2026-01-01 13:46:45,2026-01-01 14:28:35,2026-01-01 15:36:11,2026-01-01 16:31:31,2026-01-01 17:35:42,2026-01-01 18:31:47,2026-01-01 21:27:59,2026-01-01 23:53:18,2026-01-02 00:42:01,2026-01-02 01:51:15,2026-01-02 02:36:03,2026-01-02 03:45:08,2026-01-02 04:37:43,2026-01-02 05:37:08,2026-01-02 06:30:06,2026-01-02 08:44:39,2026-01-02 09:36:33,2026-01-02 10:34:37,2026-01-02 11:40:28,2026-01-02 12:32:53,2026-01-02 13:46:02,2026-01-02 14:24:22,2026-01-02 15:34:50,2026-01-02 16:28:03,2026-01-02 17:36:18,2026-01-02 18:30:56,2026-01-02 21:21:43,2026-01-02 23:44:47,2026-01-03 00:36:49,2026-01-03 01:48:02,2026-01-03 02:31:19,2026-01-03 03:41:02,2026-01-03 04:33:47,2026-01-03 05:36:34,2026-01-03 06:27:49,2026-01-03 08:39:49,2026-01-03 09:32:54,2026-01-03 10:31:59,2026-01-03 11:39:00,2026-01-03 12:31:54,2026-01-03 13:44:56,2026-01-03 14:26:59,2026-01-03 15:35:01,2026-01-03 16:30:53,2026-01-03 17:34:22,2026-01-03 18:31:00,2026-01-03 21:39:56", "date": "2026-01-01", "n_files": 60 }, "geometry": { "type": "Polygon", "coordinates": [ [ [ -74.055881, 45.7662253 ], [ -74.0557933, 45.7714212 ], [ -74.0621797, 45.7740721 ], [ -74.0686532, 45.7715268 ], [ -74.0687397, 45.7663309 ], [ -74.0623539, 45.7636804 ], [ -74.055881, 45.7662253 ] ] ] } },
{ "type": "Feature", "properties": { "hex_id": 527536, "centroid_lon": -74.055705598533109, "centroid_lat": 45.776617050245058, "count": 59.0, "datetimes_affected": "2026-01-01 00:42:56,2026-01-01 01:50:42,2026-01-01 02:34:19,2026-01-01 03:45:12,2026-01-01 04:38:37,2026-01-01 05:38:47,2026-01-01 06:29:59,2026-01-01 08:46:14,2026-01-01 09:35:37,2026-01-01 10:33:51,2026-01-01 11:42:17,2026-01-01 12:34:02,2026-01-01 13:46:45,2026-01-01 14:28:35,2026-01-01 15:36:11,2026-01-01 16:31:31,2026-01-01 17:35:42,2026-01-01 18:31:47,2026-01-01 21:27:59,2026-01-01 23:53:18,2026-01-02 00:42:01,2026-01-02 01:51:15,2026-01-02 02:36:03,2026-01-02 03:45:08,2026-01-02 04:37:43,2026-01-02 05:37:08,2026-01-02 06:30:06,2026-01-02 08:44:39,2026-01-02 09:36:33,2026-01-02 10:34:37,2026-01-02 11:40:28,2026-01-02 12:32:53,2026-01-02 13:46:02,2026-01-02 14:24:22,2026-01-02 15:34:50,2026-01-02 16:28:03,2026-01-02 17:36:18,2026-01-02 18:30:56,2026-01-02 21:21:43,2026-01-02 23:44:47,2026-01-03 00:36:49,2026-01-03 01:48:02,2026-01-03 02:31:19,2026-01-03 03:41:02,2026-01-03 04:33:47,2026-01-03 05:36:34,2026-01-03 06:27:49,2026-01-03 08:39:49,2026-01-03 09:32:54,2026-01-03 10:31:59,2026-01-03 11:39:00,2026-01-03 12:31:54,2026-01-03 13:44:56,2026-01-03 14:26:59,2026-01-03 15:35:01,2026-01-03 16:30:53,2026-01-03 17:34:22,2026-01-03 18:31:00,2026-01-03 21:39:56", "date": "2026-01-01", "n_files": 60 }, "geometry": { "type": "Polygon", "coordinates": [ [ [ -74.0493192, 45.7739658 ], [ -74.0492309, 45.7791616 ], [ -74.0556179, 45.7818129 ], [ -74.0620926, 45.7792679 ], [ -74.0621797, 45.7740721 ], [ -74.0557933, 45.7714212 ], [ -74.0493192, 45.7739658 ] ] ] } },
{ "type": "Feature", "properties": { "hex_id": 535479, "centroid_lon": -73.970243459961594, "centroid_lat": 45.877211100908298, "count": 59.0, "datetimes_affected": "2026-01-01 00:42:56,2026-01-01 01:50:42,2026-01-01 02:34:19,2026-01-01 03:45:12,2026-01-01 04:38:37,2026-01-01 05:38:47,2026-01-01 06:29:59,2026-01-01 08:46:14,2026-01-01 09:35:37,2026-01-01 10:33:51,2026-01-01 11:42:17,2026-01-01 12:34:02,2026-01-01 13:46:45,2026-01-01 14:28:35,2026-01-01 15:36:11,2026-01-01 16:31:31,2026-01-01 17:35:42,2026-01-01 18:31:47,2026-01-01 21:27:59,2026-01-01 23:53:18,2026-01-02 00:42:01,2026-01-02 01:51:15,2026-01-02 02:36:03,2026-01-02 03:45:08,2026-01-02 04:37:43,2026-01-02 05:37:08,2026-01-02 06:30:06,2026-01-02 08:44:39,2026-01-02 09:36:33,2026-01-02 10:34:37,2026-01-02 11:40:28,2026-01-02 12:32:53,2026-01-02 13:46:02,2026-01-02 14:24:22,2026-01-02 15:34:50,2026-01-02 16:28:03,2026-01-02 17:36:18,2026-01-02 18:30:56,2026-01-02 21:21:43,2026-01-02 23:44:47,2026-01-03 00:36:49,2026-01-03 01:48:02,2026-01-03 02:31:19,2026-01-03 03:41:02,2026-01-03 04:33:47,2026-01-03 05:36:34,2026-01-03 06:27:49,2026-01-03 08:39:49,2026-01-03 09:32:54,2026-01-03 10:31:59,2026-01-03 11:39:00,2026-01-03 12:31:54,2026-01-03 13:44:56,2026-01-03 14:26:59,2026-01-03 15:35:01,2026-01-03 16:30:53,2026-01-03 17:34:22,2026-01-03 18:31:00,2026-01-03 21:39:56", "date": "2026-01-01", "n_files": 60 }, "geometry": { "type": "Polygon", "coordinates": [ [ [ -73.9638498, 45.874555099999988 ], [ -73.9637532, 45.8797507 ], [ -73.9701475, 45.8824067 ], [ -73.9766377, 45.8798668 ], [ -73.9767331, 45.8746712 ], [ -73.9703394, 45.8720155 ], [ -73.9638498, 45.874555099999988 ] ] ] } },
{ "type": "Feature", "properties": { "hex_id": 536089, "centroid_lon": -73.963946337160607, "centroid_lat": 45.869359437429857, "count": 59.0, "datetimes_affected": "2026-01-01 00:42:56,2026-01-01 01:50:42,2026-01-01 02:34:19,2026-01-01 03:45:12,2026-01-01 04:38:37,2026-01-01 05:38:47,2026-01-01 06:29:59,2026-01-01 08:46:14,2026-01-01 09:35:37,2026-01-01 10:33:51,2026-01-01 11:42:17,2026-01-01 12:34:02,2026-01-01 13:46:45,2026-01-01 14:28:35,2026-01-01 15:36:11,2026-01-01 16:31:31,2026-01-01 17:35:42,2026-01-01 18:31:47,2026-01-01 21:27:59,2026-01-01 23:53:18,2026-01-02 00:42:01,2026-01-02 01:51:15,2026-01-02 02:36:03,2026-01-02 03:45:08,2026-01-02 04:37:43,2026-01-02 05:37:08,2026-01-02 06:30:06,2026-01-02 08:44:39,2026-01-02 09:36:33,2026-01-02 10:34:37,2026-01-02 11:40:28,2026-01-02 12:32:53,2026-01-02 13:46:02,2026-01-02 14:24:22,2026-01-02 15:34:50,2026-01-02 16:28:03,2026-01-02 17:36:18,2026-01-02 18:30:56,2026-01-02 21:21:43,2026-01-02 23:44:47,2026-01-03 00:36:49,2026-01-03 01:48:02,2026-01-03 02:31:19,2026-01-03 03:41:02,2026-01-03 04:33:47,2026-01-03 05:36:34,2026-01-03 06:27:49,2026-01-03 08:39:49,2026-01-03 09:32:54,2026-01-03 10:31:59,2026-01-03 11:39:00,2026-01-03 12:31:54,2026-01-03 13:44:56,2026-01-03 14:26:59,2026-01-03 15:35:01,2026-01-03 16:30:53,2026-01-03 17:34:22,2026-01-03 18:31:00,2026-01-03 21:39:56", "date": "2026-01-01", "n_files": 60 }, "geometry": { "type": "Polygon", "coordinates": [ [ [ -73.9575539, 45.866703 ], [ -73.9574567, 45.8718987 ], [ -73.9638498, 45.874555099999988 ], [ -73.9703394, 45.8720155 ], [ -73.9704354, 45.8668198 ], [ -73.9640429, 45.8641638 ], [ -73.9575539, 45.866703 ] ] ] } },
{ "type": "Feature", "properties": { "hex_id": 550717, "centroid_lon": -73.817276254689901, "centroid_lat": 45.493775262779621, "count": 12.0, "datetimes_affected": "2026-01-03 08:39:49,2026-01-03 09:32:54,2026-01-03 10:31:59,2026-01-03 11:39:00,2026-01-03 12:31:54,2026-01-03 13:44:56,2026-01-03 14:26:59,2026-01-03 15:35:01,2026-01-03 16:30:53,2026-01-03 17:34:22,2026-01-03 18:31:00,2026-01-03 21:39:56", "date": "2026-01-01", "n_files": 60 }, "geometry": { "type": "Polygon", "coordinates": [ [ [ -73.8109332, 45.491111 ], [ -73.8108238, 45.4963067 ], [ -73.8171675, 45.498971 ], [ -73.82362, 45.4964392 ], [ -73.8237281, 45.4912435 ], [ -73.817385, 45.4885796 ], [ -73.8109332, 45.491111 ] ] ] } },
{ "type": "Feature", "properties": { "hex_id": 551938, "centroid_lon": -73.804480735632026, "centroid_lat": 45.493642043968805, "count": 12.0, "datetimes_affected": "2026-01-03 08:39:49,2026-01-03 09:32:54,2026-01-03 10:31:59,2026-01-03 11:39:00,2026-01-03 12:31:54,2026-01-03 13:44:56,2026-01-03 14:26:59,2026-01-03 15:35:01,2026-01-03 16:30:53,2026-01-03 17:34:22,2026-01-03 18:31:00,2026-01-03 21:39:56", "date": "2026-01-01", "n_files": 60 }, "geometry": { "type": "Polygon", "coordinates": [ [ [ -73.7981383, 45.4909771 ], [ -73.7980277, 45.4961727 ], [ -73.8043708, 45.4988377 ], [ -73.8108238, 45.4963067 ], [ -73.8109332, 45.491111 ], [ -73.8045907, 45.4884464 ], [ -73.7981383, 45.4909771 ] ] ] } },
{ "type": "Feature", "properties": { "hex_id": 552559, "centroid_lon": -73.794586095235729, "centroid_lat": 45.657236002800474, "count": 32.0, "datetimes_affected": "2026-01-02 08:44:39,2026-01-02 09:36:33,2026-01-02 10:34:37,2026-01-02 11:40:28,2026-01-02 12:32:53,2026-01-02 13:46:02,2026-01-02 14:24:22,2026-01-02 15:34:50,2026-01-02 16:28:03,2026-01-02 17:36:18,2026-01-02 18:30:56,2026-01-02 21:21:43,2026-01-02 23:44:47,2026-01-03 00:36:49,2026-01-03 01:48:02,2026-01-03 02:31:19,2026-01-03 03:41:02,2026-01-03 04:33:47,2026-01-03 05:36:34,2026-01-03 06:27:49,2026-01-03 08:39:49,2026-01-03 09:32:54,2026-01-03 10:31:59,2026-01-03 11:39:00,2026-01-03 12:31:54,2026-01-03 13:44:56,2026-01-03 14:26:59,2026-01-03 15:35:01,2026-01-03 16:30:53,2026-01-03 17:34:22,2026-01-03 18:31:00,2026-01-03 21:39:56", "date": "2026-01-01", "n_files": 60 }, "geometry": { "type": "Polygon", "coordinates": [ [ [ -73.7882258, 45.6545704 ], [ -73.7881137, 45.6597659 ], [ -73.7944746, 45.6624315 ], [ -73.800947, 45.6599013 ], [ -73.8010579, 45.6547058 ], [ -73.7946976, 45.6520405 ], [ -73.7882258, 45.6545704 ] ] ] } },
{ "type": "Feature", "properties": { "hex_id": 559241, "centroid_lon": -73.735707358168099, "centroid_lat": 45.134309118448968, "count": 12.0, "datetimes_affected": "2026-01-03 08:39:49,2026-01-03 09:32:54,2026-01-03 10:31:59,2026-01-03 11:39:00,2026-01-03 12:31:54,2026-01-03 13:44:56,2026-01-03 14:26:59,2026-01-03 15:35:01,2026-01-03 16:30:53,2026-01-03 17:34:22,2026-01-03 18:31:00,2026-01-03 21:39:56", "date": "2026-01-01", "n_files": 60 }, "geometry": { "type": "Polygon", "coordinates": [ [ [ -73.7294078, 45.1316406 ], [ -73.7292924, 45.1368365 ], [ -73.7355925, 45.139505 ], [ -73.7420075, 45.1369773 ], [ -73.7421218, 45.1317814 ], [ -73.7358222, 45.1291132 ], [ -73.7294078, 45.1316406 ] ] ] } },
{ "type": "Feature", "properties": { "hex_id": 561703, "centroid_lon": -73.703192789190396, "centroid_lat": 45.445765190727599, "count": 32.0, "datetimes_affected": "2026-01-02 08:44:39,2026-01-02 09:36:33,2026-01-02 10:34:37,2026-01-02 11:40:28,2026-01-02 12:32:53,2026-01-02 13:46:02,2026-01-02 14:24:22,2026-01-02 15:34:50,2026-01-02 16:28:03,2026-01-02 17:36:18,2026-01-02 18:30:56,2026-01-02 21:21:43,2026-01-02 23:44:47,2026-01-03 00:36:49,2026-01-03 01:48:02,2026-01-03 02:31:19,2026-01-03 03:41:02,2026-01-03 04:33:47,2026-01-03 05:36:34,2026-01-03 06:27:49,2026-01-03 08:39:49,2026-01-03 09:32:54,2026-01-03 10:31:59,2026-01-03 11:39:00,2026-01-03 12:31:54,2026-01-03 13:44:56,2026-01-03 14:26:59,2026-01-03 15:35:01,2026-01-03 16:30:53,2026-01-03 17:34:22,2026-01-03 18:31:00,2026-01-03 21:39:56", "date": "2026-01-01", "n_files": 60 }, "geometry": { "type": "Polygon", "coordinates": [ [ [ -73.6968605, 45.4430947 ], [ -73.6967409, 45.4482902 ], [ -73.7030737, 45.4509607 ], [ -73.7095256, 45.4484354 ], [ -73.7096441, 45.4432398 ], [ -73.7033118, 45.4405697 ], [ -73.6968605, 45.4430947 ] ] ] } },
{ "type": "Feature", "properties": { "hex_id": 562313, "centroid_lon": -73.696980161946215, "centroid_lat": 45.437899157970683, "count": 32.0, "datetimes_affected": "2026-01-02 08:44:39,2026-01-02 09:36:33,2026-01-02 10:34:37,2026-01-02 11:40:28,2026-01-02 12:32:53,2026-01-02 13:46:02,2026-01-02 14:24:22,2026-01-02 15:34:50,2026-01-02 16:28:03,2026-01-02 17:36:18,2026-01-02 18:30:56,2026-01-02 21:21:43,2026-01-02 23:44:47,2026-01-03 00:36:49,2026-01-03 01:48:02,2026-01-03 02:31:19,2026-01-03 03:41:02,2026-01-03 04:33:47,2026-01-03 05:36:34,2026-01-03 06:27:49,2026-01-03 08:39:49,2026-01-03 09:32:54,2026-01-03 10:31:59,2026-01-03 11:39:00,2026-01-03 12:31:54,2026-01-03 13:44:56,2026-01-03 14:26:59,2026-01-03 15:35:01,2026-01-03 16:30:53,2026-01-03 17:34:22,2026-01-03 18:31:00,2026-01-03 21:39:56", "date": "2026-01-01", "n_files": 60 }, "geometry": { "type": "Polygon", "coordinates": [ [ [ -73.6906491, 45.4352283 ], [ -73.6905289, 45.4404238 ], [ -73.6968605, 45.4430947 ], [ -73.7033118, 45.4405697 ], [ -73.7034308, 45.4353741 ], [ -73.6970997, 45.4327036 ], [ -73.6906491, 45.4352283 ] ] ] } },
{ "type": "Feature", "properties": { "hex_id": 562924, "centroid_lon": -73.690408684619271, "centroid_lat": 45.445619312816802, "count": 31.0, "datetimes_affected": "2026-01-02 09:36:33,2026-01-02 10:34:37,2026-01-02 11:40:28,2026-01-02 12:32:53,2026-01-02 13:46:02,2026-01-02 14:24:22,2026-01-02 15:34:50,2026-01-02 16:28:03,2026-01-02 17:36:18,2026-01-02 18:30:56,2026-01-02 21:21:43,2026-01-02 23:44:47,2026-01-03 00:36:49,2026-01-03 01:48:02,2026-01-03 02:31:19,2026-01-03 03:41:02,2026-01-03 04:33:47,2026-01-03 05:36:34,2026-01-03 06:27:49,2026-01-03 08:39:49,2026-01-03 09:32:54,2026-01-03 10:31:59,2026-01-03 11:39:00,2026-01-03 12:31:54,2026-01-03 13:44:56,2026-01-03 14:26:59,2026-01-03 15:35:01,2026-01-03 16:30:53,2026-01-03 17:34:22,2026-01-03 18:31:00,2026-01-03 21:39:56", "date": "2026-01-01", "n_files": 60 }, "geometry": { "type": "Polygon", "coordinates": [ [ [ -73.6840771, 45.4429481 ], [ -73.6839563, 45.4481436 ], [ -73.6902884, 45.4508148 ], [ -73.6967409, 45.4482902 ], [ -73.6968605, 45.4430947 ], [ -73.6905289, 45.4404238 ], [ -73.6840771, 45.4429481 ] ] ] } },
{ "type": "Feature", "properties": { "hex_id": 570867, "centroid_lon": -73.604814549221018, "centroid_lat": 45.545944045912073, "count": 12.0, "datetimes_affected": "2026-01-03 08:39:49,2026-01-03 09:32:54,2026-01-03 10:31:59,2026-01-03 11:39:00,2026-01-03 12:31:54,2026-01-03 13:44:56,2026-01-03 14:26:59,2026-01-03 15:35:01,2026-01-03 16:30:53,2026-01-03 17:34:22,2026-01-03 18:31:00,2026-01-03 21:39:56", "date": "2026-01-01", "n_files": 60 }, "geometry": { "type": "Polygon", "coordinates": [ [ [ -73.598476, 45.543268 ], [ -73.5983468, 45.5484633 ], [ -73.604686, 45.5511393 ], [ -73.6111537, 45.5486197 ], [ -73.6112817, 45.5434245 ], [ -73.6049431, 45.5407488 ], [ -73.598476, 45.543268 ] ] ] } },
{ "type": "Feature", "properties": { "hex_id": 582478, "centroid_lon": -73.478315535347122, "centroid_lat": 45.723615646305539, "count": 12.0, "datetimes_affected": "2026-01-03 08:39:49,2026-01-03 09:32:54,2026-01-03 10:31:59,2026-01-03 11:39:00,2026-01-03 12:31:54,2026-01-03 13:44:56,2026-01-03 14:26:59,2026-01-03 15:35:01,2026-01-03 16:30:53,2026-01-03 17:34:22,2026-01-03 18:31:00,2026-01-03 21:39:56", "date": "2026-01-01", "n_files": 60 }, "geometry": { "type": "Polygon", "coordinates": [ [ [ -73.4719633, 45.7209325 ], [ -73.4718216, 45.7261273 ], [ -73.4781745, 45.7288104 ], [ -73.4846684, 45.7262984 ], [ -73.4848088, 45.7211036 ], [ -73.4784566, 45.7184209 ], [ -73.4719633, 45.7209325 ] ] ] } },
{ "type": "Feature", "properties": { "hex_id": 658763, "centroid_lon": -72.69326461596512, "centroid_lat": 45.281715008916812, "count": 12.0, "datetimes_affected": "2026-01-03 08:39:49,2026-01-03 09:32:54,2026-01-03 10:31:59,2026-01-03 11:39:00,2026-01-03 12:31:54,2026-01-03 13:44:56,2026-01-03 14:26:59,2026-01-03 15:35:01,2026-01-03 16:30:53,2026-01-03 17:34:22,2026-01-03 18:31:00,2026-01-03 21:39:56", "date": "2026-01-01", "n_files": 60 }, "geometry": { "type": "Polygon", "coordinates": [ [ [ -72.6870001, 45.2789897 ], [ -72.686789, 45.2841825 ], [ -72.693054, 45.286907799999987 ], [ -72.6995297, 45.28444 ], [ -72.6997397, 45.2792471 ], [ -72.6934751, 45.2765222 ], [ -72.6870001, 45.2789897 ] ] ] } },
{ "type": "Feature", "properties": { "hex_id": 659373, "centroid_lon": -72.687211163944752, "centroid_lat": 45.27379695417072, "count": 12.0, "datetimes_affected": "2026-01-03 08:39:49,2026-01-03 09:32:54,2026-01-03 10:31:59,2026-01-03 11:39:00,2026-01-03 12:31:54,2026-01-03 13:44:56,2026-01-03 14:26:59,2026-01-03 15:35:01,2026-01-03 16:30:53,2026-01-03 17:34:22,2026-01-03 18:31:00,2026-01-03 21:39:56", "date": "2026-01-01", "n_files": 60 }, "geometry": { "type": "Polygon", "coordinates": [ [ [ -72.6809478, 45.2710714 ], [ -72.6807362, 45.2762641 ], [ -72.6870001, 45.2789897 ], [ -72.6934751, 45.2765222 ], [ -72.6936856, 45.2713294 ], [ -72.6874222, 45.2686042 ], [ -72.6809478, 45.2710714 ] ] ] } },
{ "type": "Feature", "properties": { "hex_id": 659374, "centroid_lon": -72.686577801639899, "centroid_lat": 45.289375252561861, "count": 12.0, "datetimes_affected": "2026-01-03 08:39:49,2026-01-03 09:32:54,2026-01-03 10:31:59,2026-01-03 11:39:00,2026-01-03 12:31:54,2026-01-03 13:44:56,2026-01-03 14:26:59,2026-01-03 15:35:01,2026-01-03 16:30:53,2026-01-03 17:34:22,2026-01-03 18:31:00,2026-01-03 21:39:56", "date": "2026-01-01", "n_files": 60 }, "geometry": { "type": "Polygon", "coordinates": [ [ [ -72.68031280000001, 45.2866496 ], [ -72.680101, 45.2918423 ], [ -72.6863666, 45.294568 ], [ -72.6928434, 45.2921006 ], [ -72.693054, 45.286907799999987 ], [ -72.686789, 45.2841825 ], [ -72.68031280000001, 45.2866496 ] ] ] } },
{ "type": "Feature", "properties": { "hex_id": 659984, "centroid_lon": -72.680524522013044, "centroid_lat": 45.28145685523377, "count": 12.0, "datetimes_affected": "2026-01-03 08:39:49,2026-01-03 09:32:54,2026-01-03 10:31:59,2026-01-03 11:39:00,2026-01-03 12:31:54,2026-01-03 13:44:56,2026-01-03 14:26:59,2026-01-03 15:35:01,2026-01-03 16:30:53,2026-01-03 17:34:22,2026-01-03 18:31:00,2026-01-03 21:39:56", "date": "2026-01-01", "n_files": 60 }, "geometry": { "type": "Polygon", "coordinates": [ [ [ -72.6742607, 45.2787309 ], [ -72.6740484, 45.2839236 ], [ -72.68031280000001, 45.2866496 ], [ -72.686789, 45.2841825 ], [ -72.6870001, 45.2789897 ], [ -72.6807362, 45.2762641 ], [ -72.6742607, 45.2787309 ] ] ] } },
{ "type": "Feature", "properties": { "hex_id": 659985, "centroid_lon": -72.679889159945077, "centroid_lat": 45.297035058977883, "count": 12.0, "datetimes_affected": "2026-01-03 08:39:49,2026-01-03 09:32:54,2026-01-03 10:31:59,2026-01-03 11:39:00,2026-01-03 12:31:54,2026-01-03 13:44:56,2026-01-03 14:26:59,2026-01-03 15:35:01,2026-01-03 16:30:53,2026-01-03 17:34:22,2026-01-03 18:31:00,2026-01-03 21:39:56", "date": "2026-01-01", "n_files": 60 }, "geometry": { "type": "Polygon", "coordinates": [ [ [ -72.6736237, 45.294309 ], [ -72.6734112, 45.2995017 ], [ -72.6796773, 45.3022278 ], [ -72.6861553, 45.2997608 ], [ -72.6863666, 45.294568 ], [ -72.680101, 45.2918423 ], [ -72.6736237, 45.294309 ] ] ] } },
{ "type": "Feature", "properties": { "hex_id": 660595, "centroid_lon": -72.673836053270861, "centroid_lat": 45.289116318988761, "count": 12.0, "datetimes_affected": "2026-01-03 08:39:49,2026-01-03 09:32:54,2026-01-03 10:31:59,2026-01-03 11:39:00,2026-01-03 12:31:54,2026-01-03 13:44:56,2026-01-03 14:26:59,2026-01-03 15:35:01,2026-01-03 16:30:53,2026-01-03 17:34:22,2026-01-03 18:31:00,2026-01-03 21:39:56", "date": "2026-01-01", "n_files": 60 }, "geometry": { "type": "Polygon", "coordinates": [ [ [ -72.6675717, 45.28639 ], [ -72.6673588, 45.2915827 ], [ -72.6736237, 45.294309 ], [ -72.680101, 45.2918423 ], [ -72.68031280000001, 45.2866496 ], [ -72.6740484, 45.2839236 ], [ -72.6675717, 45.28639 ] ] ] } },
{ "type": "Feature", "properties": { "hex_id": 661205, "centroid_lon": -72.667784600927163, "centroid_lat": 45.281197281629204, "count": 12.0, "datetimes_affected": "2026-01-03 08:39:49,2026-01-03 09:32:54,2026-01-03 10:31:59,2026-01-03 11:39:00,2026-01-03 12:31:54,2026-01-03 13:44:56,2026-01-03 14:26:59,2026-01-03 15:35:01,2026-01-03 16:30:53,2026-01-03 17:34:22,2026-01-03 18:31:00,2026-01-03 21:39:56", "date": "2026-01-01", "n_files": 60 }, "geometry": { "type": "Polygon", "coordinates": [ [ [ -72.6615214, 45.2784706 ], [ -72.661308, 45.2836633 ], [ -72.6675717, 45.28639 ], [ -72.6740484, 45.2839236 ], [ -72.6742607, 45.2787309 ], [ -72.6679974, 45.2760046 ], [ -72.6615214, 45.2784706 ] ] ] } },
{ "type": "Feature", "properties": { "hex_id": 661206, "centroid_lon": -72.667145756772626, "centroid_lat": 45.296775345125532, "count": 12.0, "datetimes_affected": "2026-01-03 08:39:49,2026-01-03 09:32:54,2026-01-03 10:31:59,2026-01-03 11:39:00,2026-01-03 12:31:54,2026-01-03 13:44:56,2026-01-03 14:26:59,2026-01-03 15:35:01,2026-01-03 16:30:53,2026-01-03 17:34:22,2026-01-03 18:31:00,2026-01-03 21:39:56", "date": "2026-01-01", "n_files": 60 }, "geometry": { "type": "Polygon", "coordinates": [ [ [ -72.6608809, 45.2940486 ], [ -72.6606673, 45.2992413 ], [ -72.6669327, 45.301968 ], [ -72.6734112, 45.2995017 ], [ -72.6736237, 45.294309 ], [ -72.6673588, 45.2915827 ], [ -72.6608809, 45.2940486 ] ] ] } },
{ "type": "Feature", "properties": { "hex_id": 661816, "centroid_lon": -72.661094478327314, "centroid_lat": 45.288855965136733, "count": 12.0, "datetimes_affected": "2026-01-03 08:39:49,2026-01-03 09:32:54,2026-01-03 10:31:59,2026-01-03 11:39:00,2026-01-03 12:31:54,2026-01-03 13:44:56,2026-01-03 14:26:59,2026-01-03 15:35:01,2026-01-03 16:30:53,2026-01-03 17:34:22,2026-01-03 18:31:00,2026-01-03 21:39:56", "date": "2026-01-01", "n_files": 60 }, "geometry": { "type": "Polygon", "coordinates": [ [ [ -72.6548308, 45.2861289 ], [ -72.6546167, 45.2913216 ], [ -72.6608809, 45.2940486 ], [ -72.6673588, 45.2915827 ], [ -72.6675717, 45.28639 ], [ -72.661308, 45.2836633 ], [ -72.6548308, 45.2861289 ] ] ] } },
{ "type": "Feature", "properties": { "hex_id": 662427, "centroid_lon": -72.654402527585532, "centroid_lat": 45.296514210636815, "count": 12.0, "datetimes_affected": "2026-01-03 08:39:49,2026-01-03 09:32:54,2026-01-03 10:31:59,2026-01-03 11:39:00,2026-01-03 12:31:54,2026-01-03 13:44:56,2026-01-03 14:26:59,2026-01-03 15:35:01,2026-01-03 16:30:53,2026-01-03 17:34:22,2026-01-03 18:31:00,2026-01-03 21:39:56", "date": "2026-01-01", "n_files": 60 }, "geometry": { "type": "Polygon", "coordinates": [ [ [ -72.6481384, 45.2937868 ], [ -72.6479236, 45.2989794 ], [ -72.6541883, 45.3017068 ], [ -72.6606673, 45.2992413 ], [ -72.6608809, 45.2940486 ], [ -72.6546167, 45.2913216 ], [ -72.6481384, 45.2937868 ] ] ] } },
{ "type": "Feature", "properties": { "hex_id": 683181, "centroid_lon": -72.439897924110298, "centroid_lat": 45.245131239940939, "count": 31.0, "datetimes_affected": "2026-01-02 09:36:33,2026-01-02 10:34:37,2026-01-02 11:40:28,2026-01-02 12:32:53,2026-01-02 13:46:02,2026-01-02 14:24:22,2026-01-02 15:34:50,2026-01-02 16:28:03,2026-01-02 17:36:18,2026-01-02 18:30:56,2026-01-02 21:21:43,2026-01-02 23:44:47,2026-01-03 00:36:49,2026-01-03 01:48:02,2026-01-03 02:31:19,2026-01-03 03:41:02,2026-01-03 04:33:47,2026-01-03 05:36:34,2026-01-03 06:27:49,2026-01-03 08:39:49,2026-01-03 09:32:54,2026-01-03 10:31:59,2026-01-03 11:39:00,2026-01-03 12:31:54,2026-01-03 13:44:56,2026-01-03 14:26:59,2026-01-03 15:35:01,2026-01-03 16:30:53,2026-01-03 17:34:22,2026-01-03 18:31:00,2026-01-03 21:39:56", "date": "2026-01-01", "n_files": 60 }, "geometry": { "type": "Polygon", "coordinates": [ [ [ -72.4336501, 45.2423924 ], [ -72.4334162, 45.2475842 ], [ -72.4396645, 45.2503231 ], [ -72.4461464, 45.2478698 ], [ -72.4463791, 45.2426779 ], [ -72.4401312, 45.2399394 ], [ -72.4336501, 45.2423924 ] ] ] } },
{ "type": "Feature", "properties": { "hex_id": 683791, "centroid_lon": -72.433883972897277, "centroid_lat": 45.237200564904761, "count": 31.0, "datetimes_affected": "2026-01-02 09:36:33,2026-01-02 10:34:37,2026-01-02 11:40:28,2026-01-02 12:32:53,2026-01-02 13:46:02,2026-01-02 14:24:22,2026-01-02 15:34:50,2026-01-02 16:28:03,2026-01-02 17:36:18,2026-01-02 18:30:56,2026-01-02 21:21:43,2026-01-02 23:44:47,2026-01-03 00:36:49,2026-01-03 01:48:02,2026-01-03 02:31:19,2026-01-03 03:41:02,2026-01-03 04:33:47,2026-01-03 05:36:34,2026-01-03 06:27:49,2026-01-03 08:39:49,2026-01-03 09:32:54,2026-01-03 10:31:59,2026-01-03 11:39:00,2026-01-03 12:31:54,2026-01-03 13:44:56,2026-01-03 14:26:59,2026-01-03 15:35:01,2026-01-03 16:30:53,2026-01-03 17:34:22,2026-01-03 18:31:00,2026-01-03 21:39:56", "date": "2026-01-01", "n_files": 60 }, "geometry": { "type": "Polygon", "coordinates": [ [ [ -72.4276373, 45.2344614 ], [ -72.4274029, 45.2396532 ], [ -72.4336501, 45.2423924 ], [ -72.4401312, 45.2399394 ], [ -72.4403645, 45.2347475 ], [ -72.4341178, 45.2320087 ], [ -72.4276373, 45.2344614 ] ] ] } },
{ "type": "Feature", "properties": { "hex_id": 684402, "centroid_lon": -72.427168415743836, "centroid_lat": 45.24484500717039, "count": 31.0, "datetimes_affected": "2026-01-02 09:36:33,2026-01-02 10:34:37,2026-01-02 11:40:28,2026-01-02 12:32:53,2026-01-02 13:46:02,2026-01-02 14:24:22,2026-01-02 15:34:50,2026-01-02 16:28:03,2026-01-02 17:36:18,2026-01-02 18:30:56,2026-01-02 21:21:43,2026-01-02 23:44:47,2026-01-03 00:36:49,2026-01-03 01:48:02,2026-01-03 02:31:19,2026-01-03 03:41:02,2026-01-03 04:33:47,2026-01-03 05:36:34,2026-01-03 06:27:49,2026-01-03 08:39:49,2026-01-03 09:32:54,2026-01-03 10:31:59,2026-01-03 11:39:00,2026-01-03 12:31:54,2026-01-03 13:44:56,2026-01-03 14:26:59,2026-01-03 15:35:01,2026-01-03 16:30:53,2026-01-03 17:34:22,2026-01-03 18:31:00,2026-01-03 21:39:56", "date": "2026-01-01", "n_files": 60 }, "geometry": { "type": "Polygon", "coordinates": [ [ [ -72.4209213, 45.2421055 ], [ -72.4206862, 45.2472972 ], [ -72.4269339, 45.2500368 ], [ -72.4334162, 45.2475842 ], [ -72.4336501, 45.2423924 ], [ -72.4274029, 45.2396532 ], [ -72.4209213, 45.2421055 ] ] ] } },
{ "type": "Feature", "properties": { "hex_id": 693575, "centroid_lon": -72.320323159613153, "centroid_lat": 45.484046915428465, "count": 33.0, "datetimes_affected": "2026-01-02 06:30:06,2026-01-02 08:44:39,2026-01-02 09:36:33,2026-01-02 10:34:37,2026-01-02 11:40:28,2026-01-02 12:32:53,2026-01-02 13:46:02,2026-01-02 14:24:22,2026-01-02 15:34:50,2026-01-02 16:28:03,2026-01-02 17:36:18,2026-01-02 18:30:56,2026-01-02 21:21:43,2026-01-02 23:44:47,2026-01-03 00:36:49,2026-01-03 01:48:02,2026-01-03 02:31:19,2026-01-03 03:41:02,2026-01-03 04:33:47,2026-01-03 05:36:34,2026-01-03 06:27:49,2026-01-03 08:39:49,2026-01-03 09:32:54,2026-01-03 10:31:59,2026-01-03 11:39:00,2026-01-03 12:31:54,2026-01-03 13:44:56,2026-01-03 14:26:59,2026-01-03 15:35:01,2026-01-03 16:30:53,2026-01-03 17:34:22,2026-01-03 18:31:00,2026-01-03 21:39:56", "date": "2026-01-01", "n_files": 60 }, "geometry": { "type": "Polygon", "coordinates": [ [ [ -72.3140556, 45.4813011 ], [ -72.3138087, 45.4864923 ], [ -72.3200768, 45.489238 ], [ -72.3265914, 45.4867924 ], [ -72.3268371, 45.4816012 ], [ -72.3205694, 45.4788558 ], [ -72.3140556, 45.4813011 ] ] ] } },
{ "type": "Feature", "properties": { "hex_id": 694186, "centroid_lon": -72.313561761062829, "centroid_lat": 45.491683350523154, "count": 33.0, "datetimes_affected": "2026-01-02 06:30:06,2026-01-02 08:44:39,2026-01-02 09:36:33,2026-01-02 10:34:37,2026-01-02 11:40:28,2026-01-02 12:32:53,2026-01-02 13:46:02,2026-01-02 14:24:22,2026-01-02 15:34:50,2026-01-02 16:28:03,2026-01-02 17:36:18,2026-01-02 18:30:56,2026-01-02 21:21:43,2026-01-02 23:44:47,2026-01-03 00:36:49,2026-01-03 01:48:02,2026-01-03 02:31:19,2026-01-03 03:41:02,2026-01-03 04:33:47,2026-01-03 05:36:34,2026-01-03 06:27:49,2026-01-03 08:39:49,2026-01-03 09:32:54,2026-01-03 10:31:59,2026-01-03 11:39:00,2026-01-03 12:31:54,2026-01-03 13:44:56,2026-01-03 14:26:59,2026-01-03 15:35:01,2026-01-03 16:30:53,2026-01-03 17:34:22,2026-01-03 18:31:00,2026-01-03 21:39:56", "date": "2026-01-01", "n_files": 60 }, "geometry": { "type": "Polygon", "coordinates": [ [ [ -72.3072937, 45.4889372 ], [ -72.3070461, 45.4941283 ], [ -72.3133148, 45.4968744 ], [ -72.3198305, 45.4944292 ], [ -72.3200768, 45.489238 ], [ -72.3138087, 45.4864923 ], [ -72.3072937, 45.4889372 ] ] ] } },
{ "type": "Feature", "properties": { "hex_id": 739559, "centroid_lon": -71.655378719505677, "centroid_lat": 48.529569510040275, "count": 11.0, "datetimes_affected": "2026-01-03 09:32:54,2026-01-03 10:31:59,2026-01-03 11:39:00,2026-01-03 12:31:54,2026-01-03 13:44:56,2026-01-03 14:26:59,2026-01-03 15:35:01,2026-01-03 16:30:53,2026-01-03 17:34:22,2026-01-03 18:31:00,2026-01-03 21:39:56", "date": "2026-01-01", "n_files": 60 }, "geometry": { "type": "Polygon", "coordinates": [ [ [ -71.6487891, 48.5267801 ], [ -71.6484466, 48.5319652 ], [ -71.6550368, 48.5347547 ], [ -71.661969, 48.532358599999988 ], [ -71.6623102, 48.5271733 ], [ -71.6557205, 48.5243843 ], [ -71.6487891, 48.5267801 ] ] ] } },
{ "type": "Feature", "properties": { "hex_id": 740169, "centroid_lon": -71.649131598272248, "centroid_lat": 48.521594935243762, "count": 10.0, "datetimes_affected": "2026-01-03 10:31:59,2026-01-03 11:39:00,2026-01-03 12:31:54,2026-01-03 13:44:56,2026-01-03 14:26:59,2026-01-03 15:35:01,2026-01-03 16:30:53,2026-01-03 17:34:22,2026-01-03 18:31:00,2026-01-03 21:39:56", "date": "2026-01-01", "n_files": 60 }, "geometry": { "type": "Polygon", "coordinates": [ [ [ -71.6425434, 48.518805199999989 ], [ -71.6422003, 48.5239903 ], [ -71.6487891, 48.5267801 ], [ -71.6557205, 48.5243843 ], [ -71.6560622, 48.5191991 ], [ -71.6494739, 48.5164098 ], [ -71.6425434, 48.518805199999989 ] ] ] } },
{ "type": "Feature", "properties": { "hex_id": 740780, "centroid_lon": -71.641857130656646, "centroid_lat": 48.529175439290668, "count": 11.0, "datetimes_affected": "2026-01-03 09:32:54,2026-01-03 10:31:59,2026-01-03 11:39:00,2026-01-03 12:31:54,2026-01-03 13:44:56,2026-01-03 14:26:59,2026-01-03 15:35:01,2026-01-03 16:30:53,2026-01-03 17:34:22,2026-01-03 18:31:00,2026-01-03 21:39:56", "date": "2026-01-01", "n_files": 60 }, "geometry": { "type": "Polygon", "coordinates": [ [ [ -71.6352684, 48.5263853 ], [ -71.6349245, 48.5315703 ], [ -71.6415138, 48.5343606 ], [ -71.6484466, 48.5319652 ], [ -71.6487891, 48.5267801 ], [ -71.6422003, 48.5239903 ], [ -71.6352684, 48.5263853 ] ] ] } },
{ "type": "Feature", "properties": { "hex_id": 742505, "centroid_lon": -71.727075931491214, "centroid_lat": 46.871640176637761, "count": 59.0, "datetimes_affected": "2026-01-01 00:42:56,2026-01-01 01:50:42,2026-01-01 02:34:19,2026-01-01 03:45:12,2026-01-01 04:38:37,2026-01-01 05:38:47,2026-01-01 06:29:59,2026-01-01 08:46:14,2026-01-01 09:35:37,2026-01-01 10:33:51,2026-01-01 11:42:17,2026-01-01 12:34:02,2026-01-01 13:46:45,2026-01-01 14:28:35,2026-01-01 15:36:11,2026-01-01 16:31:31,2026-01-01 17:35:42,2026-01-01 18:31:47,2026-01-01 21:27:59,2026-01-01 23:53:18,2026-01-02 00:42:01,2026-01-02 01:51:15,2026-01-02 02:36:03,2026-01-02 03:45:08,2026-01-02 04:37:43,2026-01-02 05:37:08,2026-01-02 06:30:06,2026-01-02 08:44:39,2026-01-02 09:36:33,2026-01-02 10:34:37,2026-01-02 11:40:28,2026-01-02 12:32:53,2026-01-02 13:46:02,2026-01-02 14:24:22,2026-01-02 15:34:50,2026-01-02 16:28:03,2026-01-02 17:36:18,2026-01-02 18:30:56,2026-01-02 21:21:43,2026-01-02 23:44:47,2026-01-03 00:36:49,2026-01-03 01:48:02,2026-01-03 02:31:19,2026-01-03 03:41:02,2026-01-03 04:33:47,2026-01-03 05:36:34,2026-01-03 06:27:49,2026-01-03 08:39:49,2026-01-03 09:32:54,2026-01-03 10:31:59,2026-01-03 11:39:00,2026-01-03 12:31:54,2026-01-03 13:44:56,2026-01-03 14:26:59,2026-01-03 15:35:01,2026-01-03 16:30:53,2026-01-03 17:34:22,2026-01-03 18:31:00,2026-01-03 21:39:56", "date": "2026-01-01", "n_files": 60 }, "geometry": { "type": "Polygon", "coordinates": [ [ [ -71.7206838, 46.868859 ], [ -71.7203675, 46.874046 ], [ -71.7267602, 46.8768272 ], [ -71.7334688, 46.874421 ], [ -71.7337838, 46.8692339 ], [ -71.7273916, 46.8664531 ], [ -71.7206838, 46.868859 ] ] ] } },
{ "type": "Feature", "properties": { "hex_id": 743115, "centroid_lon": -71.720999999276117, "centroid_lat": 46.863671948004949, "count": 59.0, "datetimes_affected": "2026-01-01 00:42:56,2026-01-01 01:50:42,2026-01-01 02:34:19,2026-01-01 03:45:12,2026-01-01 04:38:37,2026-01-01 05:38:47,2026-01-01 06:29:59,2026-01-01 08:46:14,2026-01-01 09:35:37,2026-01-01 10:33:51,2026-01-01 11:42:17,2026-01-01 12:34:02,2026-01-01 13:46:45,2026-01-01 14:28:35,2026-01-01 15:36:11,2026-01-01 16:31:31,2026-01-01 17:35:42,2026-01-01 18:31:47,2026-01-01 21:27:59,2026-01-01 23:53:18,2026-01-02 00:42:01,2026-01-02 01:51:15,2026-01-02 02:36:03,2026-01-02 03:45:08,2026-01-02 04:37:43,2026-01-02 05:37:08,2026-01-02 06:30:06,2026-01-02 08:44:39,2026-01-02 09:36:33,2026-01-02 10:34:37,2026-01-02 11:40:28,2026-01-02 12:32:53,2026-01-02 13:46:02,2026-01-02 14:24:22,2026-01-02 15:34:50,2026-01-02 16:28:03,2026-01-02 17:36:18,2026-01-02 18:30:56,2026-01-02 21:21:43,2026-01-02 23:44:47,2026-01-03 00:36:49,2026-01-03 01:48:02,2026-01-03 02:31:19,2026-01-03 03:41:02,2026-01-03 04:33:47,2026-01-03 05:36:34,2026-01-03 06:27:49,2026-01-03 08:39:49,2026-01-03 09:32:54,2026-01-03 10:31:59,2026-01-03 11:39:00,2026-01-03 12:31:54,2026-01-03 13:44:56,2026-01-03 14:26:59,2026-01-03 15:35:01,2026-01-03 16:30:53,2026-01-03 17:34:22,2026-01-03 18:31:00,2026-01-03 21:39:56", "date": "2026-01-01", "n_files": 60 }, "geometry": { "type": "Polygon", "coordinates": [ [ [ -71.7146091, 46.8608904 ], [ -71.7142923, 46.866077499999989 ], [ -71.7206838, 46.868859 ], [ -71.7273916, 46.8664531 ], [ -71.7277071, 46.861266 ], [ -71.7213161, 46.8584849 ], [ -71.7146091, 46.8608904 ] ] ] } },
{ "type": "Feature", "properties": { "hex_id": 749732, "centroid_lon": -71.740649137452337, "centroid_lat": 45.328644615399561, "count": 11.0, "datetimes_affected": "2026-01-03 09:32:54,2026-01-03 10:31:59,2026-01-03 11:39:00,2026-01-03 12:31:54,2026-01-03 13:44:56,2026-01-03 14:26:59,2026-01-03 15:35:01,2026-01-03 16:30:53,2026-01-03 17:34:22,2026-01-03 18:31:00,2026-01-03 21:39:56", "date": "2026-01-01", "n_files": 60 }, "geometry": { "type": "Polygon", "coordinates": [ [ [ -71.7344282, 45.3258682 ], [ -71.7341297, 45.3310567 ], [ -71.7403512, 45.3338332 ], [ -71.7468707, 45.3314207 ], [ -71.747168, 45.3262321 ], [ -71.740947, 45.3234561 ], [ -71.7344282, 45.3258682 ] ] ] } },
{ "type": "Feature", "properties": { "hex_id": 750343, "centroid_lon": -71.733831175575887, "centroid_lat": 45.336245220773677, "count": 11.0, "datetimes_affected": "2026-01-03 09:32:54,2026-01-03 10:31:59,2026-01-03 11:39:00,2026-01-03 12:31:54,2026-01-03 13:44:56,2026-01-03 14:26:59,2026-01-03 15:35:01,2026-01-03 16:30:53,2026-01-03 17:34:22,2026-01-03 18:31:00,2026-01-03 21:39:56", "date": "2026-01-01", "n_files": 60 }, "geometry": { "type": "Polygon", "coordinates": [ [ [ -71.7276098, 45.3334684 ], [ -71.72731060000001, 45.3386569 ], [ -71.7335325, 45.3414337 ], [ -71.7400532, 45.3390217 ], [ -71.7403512, 45.3338332 ], [ -71.7341297, 45.3310567 ], [ -71.7276098, 45.3334684 ] ] ] } },
{ "type": "Feature", "properties": { "hex_id": 750953, "centroid_lon": -71.727908881347062, "centroid_lat": 45.328279951030773, "count": 11.0, "datetimes_affected": "2026-01-03 09:32:54,2026-01-03 10:31:59,2026-01-03 11:39:00,2026-01-03 12:31:54,2026-01-03 13:44:56,2026-01-03 14:26:59,2026-01-03 15:35:01,2026-01-03 16:30:53,2026-01-03 17:34:22,2026-01-03 18:31:00,2026-01-03 21:39:56", "date": "2026-01-01", "n_files": 60 }, "geometry": { "type": "Polygon", "coordinates": [ [ [ -71.7216887, 45.3255029 ], [ -71.721389, 45.3306913 ], [ -71.7276098, 45.3334684 ], [ -71.7341297, 45.3310567 ], [ -71.7344282, 45.3258682 ], [ -71.7282079, 45.3230915 ], [ -71.7216887, 45.3255029 ] ] ] } },
{ "type": "Feature", "properties": { "hex_id": 768649, "centroid_lon": -71.551229542875163, "centroid_lat": 45.190549600797688, "count": 7.0, "datetimes_affected": "2026-01-03 13:44:56,2026-01-03 14:26:59,2026-01-03 15:35:01,2026-01-03 16:30:53,2026-01-03 17:34:22,2026-01-03 18:31:00,2026-01-03 21:39:56", "date": "2026-01-01", "n_files": 60 }, "geometry": { "type": "Polygon", "coordinates": [ [ [ -71.5450332, 45.1877635 ], [ -71.5447189, 45.1929512 ], [ -71.5509158, 45.1957373 ], [ -71.5574265, 45.1933354 ], [ -71.5577396, 45.1881477 ], [ -71.551543200000012, 45.1853619 ], [ -71.5450332, 45.1877635 ] ] ] } },
{ "type": "Feature", "properties": { "hex_id": 769259, "centroid_lon": -71.545347319742604, "centroid_lat": 45.182575887929943, "count": 7.0, "datetimes_affected": "2026-01-03 13:44:56,2026-01-03 14:26:59,2026-01-03 15:35:01,2026-01-03 16:30:53,2026-01-03 17:34:22,2026-01-03 18:31:00,2026-01-03 21:39:56", "date": "2026-01-01", "n_files": 60 }, "geometry": { "type": "Polygon", "coordinates": [ [ [ -71.5391521, 45.1797895 ], [ -71.5388374, 45.1849771 ], [ -71.5450332, 45.1877635 ], [ -71.551543200000012, 45.1853619 ], [ -71.5518567, 45.1801743 ], [ -71.5456614, 45.1773882 ], [ -71.5391521, 45.1797895 ] ] ] } },
{ "type": "Feature", "properties": { "hex_id": 770480, "centroid_lon": -71.532642235480665, "centroid_lat": 45.182190408314668, "count": 7.0, "datetimes_affected": "2026-01-03 13:44:56,2026-01-03 14:26:59,2026-01-03 15:35:01,2026-01-03 16:30:53,2026-01-03 17:34:22,2026-01-03 18:31:00,2026-01-03 21:39:56", "date": "2026-01-01", "n_files": 60 }, "geometry": { "type": "Polygon", "coordinates": [ [ [ -71.5264477, 45.1794034 ], [ -71.5261319, 45.1845909 ], [ -71.532326900000015, 45.187378 ], [ -71.5388374, 45.1849771 ], [ -71.5391521, 45.1797895 ], [ -71.5329575, 45.1770028 ], [ -71.5264477, 45.1794034 ] ] ] } },
{ "type": "Feature", "properties": { "hex_id": 785239, "centroid_lon": -71.269800411983795, "centroid_lat": 46.842046477619455, "count": 11.0, "datetimes_affected": "2026-01-03 09:32:54,2026-01-03 10:31:59,2026-01-03 11:39:00,2026-01-03 12:31:54,2026-01-03 13:44:56,2026-01-03 14:26:59,2026-01-03 15:35:01,2026-01-03 16:30:53,2026-01-03 17:34:22,2026-01-03 18:31:00,2026-01-03 21:39:56", "date": "2026-01-01", "n_files": 60 }, "geometry": { "type": "Polygon", "coordinates": [ [ [ -71.2634369, 46.8392405 ], [ -71.2630769, 46.844425 ], [ -71.269441, 46.847231 ], [ -71.2761646, 46.8448521 ], [ -71.2765233, 46.8396675 ], [ -71.2701597, 46.8368619 ], [ -71.2634369, 46.8392405 ] ] ] } },
{ "type": "Feature", "properties": { "hex_id": 785850, "centroid_lon": -71.262716853595848, "centroid_lat": 46.849609526071333, "count": 11.0, "datetimes_affected": "2026-01-03 09:32:54,2026-01-03 10:31:59,2026-01-03 11:39:00,2026-01-03 12:31:54,2026-01-03 13:44:56,2026-01-03 14:26:59,2026-01-03 15:35:01,2026-01-03 16:30:53,2026-01-03 17:34:22,2026-01-03 18:31:00,2026-01-03 21:39:56", "date": "2026-01-01", "n_files": 60 }, "geometry": { "type": "Polygon", "coordinates": [ [ [ -71.2563529, 46.8468031 ], [ -71.2559921, 46.8519876 ], [ -71.2623567, 46.854794 ], [ -71.2690815, 46.8524156 ], [ -71.269441, 46.847231 ], [ -71.2630769, 46.844425 ], [ -71.2563529, 46.8468031 ] ] ] } },
{ "type": "Feature", "properties": { "hex_id": 786460, "centroid_lon": -71.256713518837572, "centroid_lat": 46.841618653415189, "count": 11.0, "datetimes_affected": "2026-01-03 09:32:54,2026-01-03 10:31:59,2026-01-03 11:39:00,2026-01-03 12:31:54,2026-01-03 13:44:56,2026-01-03 14:26:59,2026-01-03 15:35:01,2026-01-03 16:30:53,2026-01-03 17:34:22,2026-01-03 18:31:00,2026-01-03 21:39:56", "date": "2026-01-01", "n_files": 60 }, "geometry": { "type": "Polygon", "coordinates": [ [ [ -71.2503508, 46.838812 ], [ -71.2499896, 46.8439964 ], [ -71.2563529, 46.8468031 ], [ -71.2630769, 46.844425 ], [ -71.2634369, 46.8392405 ], [ -71.2570741, 46.8364342 ], [ -71.2503508, 46.838812 ] ] ] } },
{ "type": "Feature", "properties": { "hex_id": 790832, "centroid_lon": -71.098483744954251, "centroid_lat": 48.371739145252114, "count": 32.0, "datetimes_affected": "2026-01-02 08:44:39,2026-01-02 09:36:33,2026-01-02 10:34:37,2026-01-02 11:40:28,2026-01-02 12:32:53,2026-01-02 13:46:02,2026-01-02 14:24:22,2026-01-02 15:34:50,2026-01-02 16:28:03,2026-01-02 17:36:18,2026-01-02 18:30:56,2026-01-02 21:21:43,2026-01-02 23:44:47,2026-01-03 00:36:49,2026-01-03 01:48:02,2026-01-03 02:31:19,2026-01-03 03:41:02,2026-01-03 04:33:47,2026-01-03 05:36:34,2026-01-03 06:27:49,2026-01-03 08:39:49,2026-01-03 09:32:54,2026-01-03 10:31:59,2026-01-03 11:39:00,2026-01-03 12:31:54,2026-01-03 13:44:56,2026-01-03 14:26:59,2026-01-03 15:35:01,2026-01-03 16:30:53,2026-01-03 17:34:22,2026-01-03 18:31:00,2026-01-03 21:39:56", "date": "2026-01-01", "n_files": 60 }, "geometry": { "type": "Polygon", "coordinates": [ [ [ -71.0919466, 48.3689191 ], [ -71.0915494, 48.3741012 ], [ -71.0980872, 48.3769213 ], [ -71.1050217, 48.3745588 ], [ -71.1054175, 48.3693766 ], [ -71.0988802, 48.366557 ], [ -71.0919466, 48.3689191 ] ] ] } },
{ "type": "Feature", "properties": { "hex_id": 791443, "centroid_lon": -71.091152102001843, "centroid_lat": 48.379283304037891, "count": 32.0, "datetimes_affected": "2026-01-02 08:44:39,2026-01-02 09:36:33,2026-01-02 10:34:37,2026-01-02 11:40:28,2026-01-02 12:32:53,2026-01-02 13:46:02,2026-01-02 14:24:22,2026-01-02 15:34:50,2026-01-02 16:28:03,2026-01-02 17:36:18,2026-01-02 18:30:56,2026-01-02 21:21:43,2026-01-02 23:44:47,2026-01-03 00:36:49,2026-01-03 01:48:02,2026-01-03 02:31:19,2026-01-03 03:41:02,2026-01-03 04:33:47,2026-01-03 05:36:34,2026-01-03 06:27:49,2026-01-03 08:39:49,2026-01-03 09:32:54,2026-01-03 10:31:59,2026-01-03 11:39:00,2026-01-03 12:31:54,2026-01-03 13:44:56,2026-01-03 14:26:59,2026-01-03 15:35:01,2026-01-03 16:30:53,2026-01-03 17:34:22,2026-01-03 18:31:00,2026-01-03 21:39:56", "date": "2026-01-01", "n_files": 60 }, "geometry": { "type": "Polygon", "coordinates": [ [ [ -71.0846144, 48.3764628 ], [ -71.0842164, 48.3816449 ], [ -71.0907547, 48.3844654 ], [ -71.0976905, 48.3821034 ], [ -71.0980872, 48.3769213 ], [ -71.0915494, 48.3741012 ], [ -71.0846144, 48.3764628 ] ] ] } },
{ "type": "Feature", "properties": { "hex_id": 792053, "centroid_lon": -71.085012322598232, "centroid_lat": 48.371280797083536, "count": 32.0, "datetimes_affected": "2026-01-02 08:44:39,2026-01-02 09:36:33,2026-01-02 10:34:37,2026-01-02 11:40:28,2026-01-02 12:32:53,2026-01-02 13:46:02,2026-01-02 14:24:22,2026-01-02 15:34:50,2026-01-02 16:28:03,2026-01-02 17:36:18,2026-01-02 18:30:56,2026-01-02 21:21:43,2026-01-02 23:44:47,2026-01-03 00:36:49,2026-01-03 01:48:02,2026-01-03 02:31:19,2026-01-03 03:41:02,2026-01-03 04:33:47,2026-01-03 05:36:34,2026-01-03 06:27:49,2026-01-03 08:39:49,2026-01-03 09:32:54,2026-01-03 10:31:59,2026-01-03 11:39:00,2026-01-03 12:31:54,2026-01-03 13:44:56,2026-01-03 14:26:59,2026-01-03 15:35:01,2026-01-03 16:30:53,2026-01-03 17:34:22,2026-01-03 18:31:00,2026-01-03 21:39:56", "date": "2026-01-01", "n_files": 60 }, "geometry": { "type": "Polygon", "coordinates": [ [ [ -71.078476, 48.36846 ], [ -71.0780775, 48.373642 ], [ -71.0846144, 48.3764628 ], [ -71.0915494, 48.3741012 ], [ -71.0919466, 48.3689191 ], [ -71.0854101, 48.3660987 ], [ -71.078476, 48.36846 ] ] ] } },
{ "type": "Feature", "properties": { "hex_id": 808414, "centroid_lon": -71.048515382103247, "centroid_lat": 46.460464587493355, "count": 11.0, "datetimes_affected": "2026-01-03 09:32:54,2026-01-03 10:31:59,2026-01-03 11:39:00,2026-01-03 12:31:54,2026-01-03 13:44:56,2026-01-03 14:26:59,2026-01-03 15:35:01,2026-01-03 16:30:53,2026-01-03 17:34:22,2026-01-03 18:31:00,2026-01-03 21:39:56", "date": "2026-01-01", "n_files": 60 }, "geometry": { "type": "Polygon", "coordinates": [ [ [ -71.0422075, 46.4576479 ], [ -71.0418313, 46.4628314 ], [ -71.0481397, 46.4656481 ], [ -71.0548239, 46.463281 ], [ -71.0551989, 46.4580974 ], [ -71.0488909, 46.455281 ], [ -71.0422075, 46.4576479 ] ] ] } },
{ "type": "Feature", "properties": { "hex_id": 809024, "centroid_lon": -71.042583644379988, "centroid_lat": 46.452464331282606, "count": 11.0, "datetimes_affected": "2026-01-03 09:32:54,2026-01-03 10:31:59,2026-01-03 11:39:00,2026-01-03 12:31:54,2026-01-03 13:44:56,2026-01-03 14:26:59,2026-01-03 15:35:01,2026-01-03 16:30:53,2026-01-03 17:34:22,2026-01-03 18:31:00,2026-01-03 21:39:56", "date": "2026-01-01", "n_files": 60 }, "geometry": { "type": "Polygon", "coordinates": [ [ [ -71.036277, 46.4496473 ], [ -71.0359004, 46.4548308 ], [ -71.0422075, 46.4576479 ], [ -71.0488909, 46.455281 ], [ -71.0492664, 46.4500975 ], [ -71.0429596, 46.4472808 ], [ -71.036277, 46.4496473 ] ] ] } },
{ "type": "Feature", "properties": { "hex_id": 809635, "centroid_lon": -71.035523587996977, "centroid_lat": 46.460014282089041, "count": 11.0, "datetimes_affected": "2026-01-03 09:32:54,2026-01-03 10:31:59,2026-01-03 11:39:00,2026-01-03 12:31:54,2026-01-03 13:44:56,2026-01-03 14:26:59,2026-01-03 15:35:01,2026-01-03 16:30:53,2026-01-03 17:34:22,2026-01-03 18:31:00,2026-01-03 21:39:56", "date": "2026-01-01", "n_files": 60 }, "geometry": { "type": "Polygon", "coordinates": [ [ [ -71.0292165, 46.4571969 ], [ -71.0288391, 46.4623803 ], [ -71.0351467, 46.4651978 ], [ -71.0418313, 46.4628314 ], [ -71.0422075, 46.4576479 ], [ -71.0359004, 46.4548308 ], [ -71.0292165, 46.4571969 ] ] ] } },
{ "type": "Feature", "properties": { "hex_id": 891551, "centroid_lon": -70.008799982929716, "centroid_lat": 48.119074573292849, "count": 1.0, "datetimes_affected": "2026-01-03 23:19:46", "date": "2026-01-01", "n_files": 60 }, "geometry": { "type": "Polygon", "coordinates": [ [ [ -70.00235880000001, 48.1161957 ], [ -70.0018556, 48.1213703 ], [ -70.0082974, 48.124249299999988 ], [ -70.0152419, 48.1219532 ], [ -70.0157437, 48.1167784 ], [ -70.0093024, 48.1138999 ], [ -70.00235880000001, 48.1161957 ] ] ] } },
{ "type": "Feature", "properties": { "hex_id": 1009385, "centroid_lon": -68.705006772182827, "centroid_lat": 48.171790286693735, "count": 1.0, "datetimes_affected": "2026-01-03 23:19:46", "date": "2026-01-01", "n_files": 60 }, "geometry": { "type": "Polygon", "coordinates": [ [ [ -68.6986398, 48.1688411 ], [ -68.6980047, 48.174004 ], [ -68.7043722, 48.1769533 ], [ -68.7113745, 48.1747392 ], [ -68.7120083, 48.1695761 ], [ -68.7056412, 48.166627299999988 ], [ -68.6986398, 48.1688411 ] ] ] } },
{ "type": "Feature", "properties": { "hex_id": 1009386, "centroid_lon": -68.703102530858473, "centroid_lat": 48.187279272169349, "count": 1.0, "datetimes_affected": "2026-01-03 23:19:46", "date": "2026-01-01", "n_files": 60 }, "geometry": { "type": "Polygon", "coordinates": [ [ [ -68.6967339, 48.1843299 ], [ -68.6960982, 48.189492799999989 ], [ -68.7024674, 48.1924422 ], [ -68.709472, 48.1902283 ], [ -68.7101063, 48.1850653 ], [ -68.7037375, 48.1821163 ], [ -68.6967339, 48.1843299 ] ] ] } },
{ "type": "Feature", "properties": { "hex_id": 1009996, "centroid_lon": -68.697369353538122, "centroid_lat": 48.179166956061628, "count": 1.0, "datetimes_affected": "2026-01-03 23:19:46", "date": "2026-01-01", "n_files": 60 }, "geometry": { "type": "Polygon", "coordinates": [ [ [ -68.691002, 48.1762173 ], [ -68.6903659, 48.1813802 ], [ -68.6967339, 48.1843299 ], [ -68.7037375, 48.1821163 ], [ -68.7043722, 48.1769533 ], [ -68.6980047, 48.174004 ], [ -68.691002, 48.1762173 ] ] ] } },
{ "type": "Feature", "properties": { "hex_id": 1009997, "centroid_lon": -68.69546231790325, "centroid_lat": 48.194655693360268, "count": 1.0, "datetimes_affected": "2026-01-03 23:19:46", "date": "2026-01-01", "n_files": 60 }, "geometry": { "type": "Polygon", "coordinates": [ [ [ -68.6890932, 48.1917059 ], [ -68.6884566, 48.1968687 ], [ -68.6948263, 48.1998186 ], [ -68.7018321, 48.1976052 ], [ -68.7024674, 48.1924422 ], [ -68.6960982, 48.189492799999989 ], [ -68.6890932, 48.1917059 ] ] ] } },
{ "type": "Feature", "properties": { "hex_id": 1010606, "centroid_lon": -68.691637897250843, "centroid_lat": 48.171054427419136, "count": 1.0, "datetimes_affected": "2026-01-03 23:19:46", "date": "2026-01-01", "n_files": 60 }, "geometry": { "type": "Polygon", "coordinates": [ [ [ -68.6852719, 48.1681045 ], [ -68.6846354, 48.1732673 ], [ -68.691002, 48.1762173 ], [ -68.6980047, 48.174004 ], [ -68.6986398, 48.1688411 ], [ -68.6922736, 48.1658915 ], [ -68.6852719, 48.1681045 ] ] ] } },
{ "type": "Feature", "properties": { "hex_id": 1010607, "centroid_lon": -68.689729677365392, "centroid_lat": 48.186543015131583, "count": 1.0, "datetimes_affected": "2026-01-03 23:19:46", "date": "2026-01-01", "n_files": 60 }, "geometry": { "type": "Polygon", "coordinates": [ [ [ -68.6833619, 48.1835929 ], [ -68.6827249, 48.1887557 ], [ -68.6890932, 48.1917059 ], [ -68.6960982, 48.189492799999989 ], [ -68.6967339, 48.1843299 ], [ -68.6903659, 48.1813802 ], [ -68.6833619, 48.1835929 ] ] ] } },
{ "type": "Feature", "properties": { "hex_id": 1010608, "centroid_lon": -68.687819845481471, "centroid_lat": 48.202031503913119, "count": 1.0, "datetimes_affected": "2026-01-03 23:19:46", "date": "2026-01-01", "n_files": 60 }, "geometry": { "type": "Polygon", "coordinates": [ [ [ -68.6814504, 48.1990812 ], [ -68.6808128, 48.204244 ], [ -68.6871829, 48.2071943 ], [ -68.6941901, 48.2049815 ], [ -68.6948263, 48.1998186 ], [ -68.6884566, 48.1968687 ], [ -68.6814504, 48.1990812 ] ] ] } },
{ "type": "Feature", "properties": { "hex_id": 1011218, "centroid_lon": -68.682087742564448, "centroid_lat": 48.19391846351715, "count": 1.0, "datetimes_affected": "2026-01-03 23:19:46", "date": "2026-01-01", "n_files": 60 }, "geometry": { "type": "Polygon", "coordinates": [ [ [ -68.6757196, 48.1909679 ], [ -68.6750817, 48.196130599999989 ], [ -68.6814504, 48.1990812 ], [ -68.6884566, 48.1968687 ], [ -68.6890932, 48.1917059 ], [ -68.6827249, 48.1887557 ], [ -68.6757196, 48.1909679 ] ] ] } },
{ "type": "Feature", "properties": { "hex_id": 1141243, "centroid_lon": -67.287688832606761, "centroid_lat": 47.928995938951275, "count": 11.0, "datetimes_affected": "2026-01-03 09:32:54,2026-01-03 10:31:59,2026-01-03 11:39:00,2026-01-03 12:31:54,2026-01-03 13:44:56,2026-01-03 14:26:59,2026-01-03 15:35:01,2026-01-03 16:30:53,2026-01-03 17:34:22,2026-01-03 18:31:00,2026-01-03 21:39:56", "date": "2026-01-01", "n_files": 60 }, "geometry": { "type": "Polygon", "coordinates": [ [ [ -67.2814412, 47.9259739 ], [ -67.2806706, 47.9311213 ], [ -67.2869188, 47.9341435 ], [ -67.2939372, 47.9320177 ], [ -67.2947066, 47.9268701 ], [ -67.2884587, 47.9238484 ], [ -67.2814412, 47.9259739 ] ] ] } },
{ "type": "Feature", "properties": { "hex_id": 1141854, "centroid_lon": -67.279899736810648, "centroid_lat": 47.93626877236909, "count": 11.0, "datetimes_affected": "2026-01-03 09:32:54,2026-01-03 10:31:59,2026-01-03 11:39:00,2026-01-03 12:31:54,2026-01-03 13:44:56,2026-01-03 14:26:59,2026-01-03 15:35:01,2026-01-03 16:30:53,2026-01-03 17:34:22,2026-01-03 18:31:00,2026-01-03 21:39:56", "date": "2026-01-01", "n_files": 60 }, "geometry": { "type": "Polygon", "coordinates": [ [ [ -67.2736518, 47.9332462 ], [ -67.2728802, 47.9383936 ], [ -67.2791287, 47.9414162 ], [ -67.2861485, 47.939291 ], [ -67.2869188, 47.9341435 ], [ -67.2806706, 47.9311213 ], [ -67.2736518, 47.9332462 ] ] ] } },
{ "type": "Feature", "properties": { "hex_id": 1142463, "centroid_lon": -67.276735963144276, "centroid_lat": 47.912656670669968, "count": 11.0, "datetimes_affected": "2026-01-03 09:32:54,2026-01-03 10:31:59,2026-01-03 11:39:00,2026-01-03 12:31:54,2026-01-03 13:44:56,2026-01-03 14:26:59,2026-01-03 15:35:01,2026-01-03 16:30:53,2026-01-03 17:34:22,2026-01-03 18:31:00,2026-01-03 21:39:56", "date": "2026-01-01", "n_files": 60 }, "geometry": { "type": "Polygon", "coordinates": [ [ [ -67.2704909, 47.9096341 ], [ -67.2697196, 47.9147815 ], [ -67.2759652, 47.9178041 ], [ -67.2829818, 47.9156789 ], [ -67.2837517, 47.9105314 ], [ -67.2775065, 47.9075092 ], [ -67.2704909, 47.9096341 ] ] ] } },
{ "type": "Feature", "properties": { "hex_id": 1144296, "centroid_lon": -67.253365771082201, "centroid_lat": 47.934471120848805, "count": 11.0, "datetimes_affected": "2026-01-03 09:32:54,2026-01-03 10:31:59,2026-01-03 11:39:00,2026-01-03 12:31:54,2026-01-03 13:44:56,2026-01-03 14:26:59,2026-01-03 15:35:01,2026-01-03 16:30:53,2026-01-03 17:34:22,2026-01-03 18:31:00,2026-01-03 21:39:56", "date": "2026-01-01", "n_files": 60 }, "geometry": { "type": "Polygon", "coordinates": [ [ [ -67.2471197, 47.9314472 ], [ -67.2463456, 47.9365943 ], [ -67.2525921, 47.9396182 ], [ -67.2596126, 47.9374947 ], [ -67.2603854, 47.9323475 ], [ -67.2541392, 47.929324 ], [ -67.2471197, 47.9314472 ] ] ] } },
{ "type": "Feature", "properties": { "hex_id": 1144906, "centroid_lon": -67.24789369959629, "centroid_lat": 47.92630018738555, "count": 11.0, "datetimes_affected": "2026-01-03 09:32:54,2026-01-03 10:31:59,2026-01-03 11:39:00,2026-01-03 12:31:54,2026-01-03 13:44:56,2026-01-03 14:26:59,2026-01-03 15:35:01,2026-01-03 16:30:53,2026-01-03 17:34:22,2026-01-03 18:31:00,2026-01-03 21:39:56", "date": "2026-01-01", "n_files": 60 }, "geometry": { "type": "Polygon", "coordinates": [ [ [ -67.241649, 47.9232761 ], [ -67.2408745, 47.9284231 ], [ -67.2471197, 47.9314472 ], [ -67.2541392, 47.929324 ], [ -67.2549124, 47.9241769 ], [ -67.2486674, 47.9211531 ], [ -67.241649, 47.9232761 ] ] ] } },
{ "type": "Feature", "properties": { "hex_id": 1144907, "centroid_lon": -67.245571183015159, "centroid_lat": 47.941741296885411, "count": 11.0, "datetimes_affected": "2026-01-03 09:32:54,2026-01-03 10:31:59,2026-01-03 11:39:00,2026-01-03 12:31:54,2026-01-03 13:44:56,2026-01-03 14:26:59,2026-01-03 15:35:01,2026-01-03 16:30:53,2026-01-03 17:34:22,2026-01-03 18:31:00,2026-01-03 21:39:56", "date": "2026-01-01", "n_files": 60 }, "geometry": { "type": "Polygon", "coordinates": [ [ [ -67.2393248, 47.938717 ], [ -67.2385497, 47.9438639 ], [ -67.2447966, 47.9468883 ], [ -67.2518183, 47.9447653 ], [ -67.2525921, 47.9396182 ], [ -67.2463456, 47.9365943 ], [ -67.2393248, 47.938717 ] ] ] } },
{ "type": "Feature", "properties": { "hex_id": 1145517, "centroid_lon": -67.240099760788752, "centroid_lat": 47.933570015183456, "count": 11.0, "datetimes_affected": "2026-01-03 09:32:54,2026-01-03 10:31:59,2026-01-03 11:39:00,2026-01-03 12:31:54,2026-01-03 13:44:56,2026-01-03 14:26:59,2026-01-03 15:35:01,2026-01-03 16:30:53,2026-01-03 17:34:22,2026-01-03 18:31:00,2026-01-03 21:39:56", "date": "2026-01-01", "n_files": 60 }, "geometry": { "type": "Polygon", "coordinates": [ [ [ -67.2338547, 47.9305455 ], [ -67.2330792, 47.9356923 ], [ -67.2393248, 47.938717 ], [ -67.2463456, 47.9365943 ], [ -67.2471197, 47.9314472 ], [ -67.2408745, 47.9284231 ], [ -67.2338547, 47.9305455 ] ] ] } },
{ "type": "Feature", "properties": { "hex_id": 1147350, "centroid_lon": -67.216704362689967, "centroid_lat": 47.955375570797294, "count": 11.0, "datetimes_affected": "2026-01-03 09:32:54,2026-01-03 10:31:59,2026-01-03 11:39:00,2026-01-03 12:31:54,2026-01-03 13:44:56,2026-01-03 14:26:59,2026-01-03 15:35:01,2026-01-03 16:30:53,2026-01-03 17:34:22,2026-01-03 18:31:00,2026-01-03 21:39:56", "date": "2026-01-01", "n_files": 60 }, "geometry": { "type": "Polygon", "coordinates": [ [ [ -67.2104583, 47.9523497 ], [ -67.20968, 47.9574962 ], [ -67.2159265, 47.9605222 ], [ -67.2229511, 47.9584012 ], [ -67.2237282, 47.9532545 ], [ -67.217482, 47.9502289 ], [ -67.2104583, 47.9523497 ] ] ] } },
{ "type": "Feature", "properties": { "hex_id": 1147961, "centroid_lon": -67.208901365915125, "centroid_lat": 47.962642778756525, "count": 11.0, "datetimes_affected": "2026-01-03 09:32:54,2026-01-03 10:31:59,2026-01-03 11:39:00,2026-01-03 12:31:54,2026-01-03 13:44:56,2026-01-03 14:26:59,2026-01-03 15:35:01,2026-01-03 16:30:53,2026-01-03 17:34:22,2026-01-03 18:31:00,2026-01-03 21:39:56", "date": "2026-01-01", "n_files": 60 }, "geometry": { "type": "Polygon", "coordinates": [ [ [ -67.202655, 47.9596164 ], [ -67.2018757, 47.9647629 ], [ -67.2081226, 47.9677893 ], [ -67.2151485, 47.9656688 ], [ -67.2159265, 47.9605222 ], [ -67.20968, 47.9574962 ], [ -67.202655, 47.9596164 ] ] ] } }
]
}
