{
"type": "FeatureCollection",
"name": "daily_2026-02-06",
"crs": { "type": "name", "properties": { "name": "urn:ogc:def:crs:OGC:1.3:CRS84" } },
"features": [
{ "type": "Feature", "properties": { "hex_id": 1146774, "centroid_lon": -67.141732979044349, "centroid_lat": 48.48843790818583, "occurrences_today": 6, "datetimes_today": "2026-02-06 00:01:37, 2026-02-06 00:16:42, 2026-02-06 00:31:26, 2026-02-06 00:46:48, 2026-02-06 01:02:00, 2026-02-06 01:07:54", "cumulative_total": 73.0 }, "geometry": { "type": "Polygon", "coordinates": [ [ [ -67.142532861393846, 48.483292654935347 ], [ -67.148836011268102, 48.486325586289261 ], [ -67.148036681452695, 48.491470915022838 ], [ -67.140932871252502, 48.49358314691105 ], [ -67.134629394326865, 48.490549756516543 ], [ -67.135430054572026, 48.485404593341592 ], [ -67.142532861393846, 48.483292654935347 ] ] ] } },
{ "type": "Feature", "properties": { "hex_id": 1147384, "centroid_lon": -67.136230489233043, "centroid_lat": 48.480259415626705, "occurrences_today": 6, "datetimes_today": "2026-02-06 00:01:37, 2026-02-06 00:16:42, 2026-02-06 00:31:26, 2026-02-06 00:46:48, 2026-02-06 01:02:00, 2026-02-06 01:07:54", "cumulative_total": 73.0 }, "geometry": { "type": "Polygon", "coordinates": [ [ [ -67.137030698390703, 48.475114223375542 ], [ -67.143332518381754, 48.478147387163233 ], [ -67.142532861393846, 48.483292654935347 ], [ -67.135430054572026, 48.485404593341592 ], [ -67.129127907954967, 48.482370970604698 ], [ -67.129928894704946, 48.477225868477895 ], [ -67.137030698390703, 48.475114223375542 ] ] ] } },
{ "type": "Feature", "properties": { "hex_id": 1148605, "centroid_lon": -67.12282653911231, "centroid_lat": 48.479337040089732, "occurrences_today": 6, "datetimes_today": "2026-02-06 00:01:37, 2026-02-06 00:16:42, 2026-02-06 00:31:26, 2026-02-06 00:46:48, 2026-02-06 01:02:00, 2026-02-06 01:07:54", "cumulative_total": 73.0 }, "geometry": { "type": "Polygon", "coordinates": [ [ [ -67.123628077728782, 48.474192013603492 ], [ -67.129928894704946, 48.477225868477895 ], [ -67.129127907954967, 48.482370970604698 ], [ -67.122024774628343, 48.48448205200669 ], [ -67.115723631693641, 48.481447738120529 ], [ -67.116525947963183, 48.47630280191126 ], [ -67.123628077728782, 48.474192013603492 ] ] ] } },
{ "type": "Feature", "properties": { "hex_id": 1149215, "centroid_lon": -67.117328038223675, "centroid_lat": 48.471157851118022, "occurrences_today": 6, "datetimes_today": "2026-02-06 00:01:37, 2026-02-06 00:16:42, 2026-02-06 00:31:26, 2026-02-06 00:46:48, 2026-02-06 01:02:00, 2026-02-06 01:07:54", "cumulative_total": 73.0 }, "geometry": { "type": "Polygon", "coordinates": [ [ [ -67.118129902556021, 48.466012885744512 ], [ -67.124429390558603, 48.469046972551645 ], [ -67.123628077728782, 48.474192013603492 ], [ -67.116525947963183, 48.47630280191126 ], [ -67.110226134426696, 48.473268256183843 ], [ -67.111028776108782, 48.468123381136039 ], [ -67.118129902556021, 48.466012885744512 ] ] ] } },
{ "type": "Feature", "properties": { "hex_id": 1149826, "centroid_lon": -67.109423266594064, "centroid_lat": 48.478413116633, "occurrences_today": 6, "datetimes_today": "2026-02-06 00:01:37, 2026-02-06 00:16:42, 2026-02-06 00:31:26, 2026-02-06 00:46:48, 2026-02-06 01:02:00, 2026-02-06 01:07:54", "cumulative_total": 73.0 }, "geometry": { "type": "Polygon", "coordinates": [ [ [ -67.110226134426696, 48.473268256183843 ], [ -67.116525947963183, 48.47630280191126 ], [ -67.115723631693641, 48.481447738120529 ], [ -67.108620172529882, 48.483557962479807 ], [ -67.102320033702384, 48.480522957678218 ], [ -67.103123679248597, 48.475378187658642 ], [ -67.110226134426696, 48.473268256183843 ] ] ] } },
{ "type": "Feature", "properties": { "hex_id": 1150436, "centroid_lon": -67.103927098421849, "centroid_lat": 48.470233403022014, "occurrences_today": 6, "datetimes_today": "2026-02-06 00:01:37, 2026-02-06 00:16:42, 2026-02-06 00:31:26, 2026-02-06 00:46:48, 2026-02-06 01:02:00, 2026-02-06 01:07:54", "cumulative_total": 73.0 }, "geometry": { "type": "Polygon", "coordinates": [ [ [ -67.104730291303156, 48.465088603772053 ], [ -67.111028776108782, 48.468123381136039 ], [ -67.110226134426696, 48.473268256183843 ], [ -67.103123679248597, 48.475378187658642 ], [ -67.09682486957621, 48.472342951312022 ], [ -67.097628839867653, 48.46719824254032 ], [ -67.104730291303156, 48.465088603772053 ] ] ] } },
{ "type": "Feature", "properties": { "hex_id": 1151047, "centroid_lon": -67.096020672770436, "centroid_lat": 48.47748764545198, "occurrences_today": 6, "datetimes_today": "2026-02-06 00:01:37, 2026-02-06 00:16:42, 2026-02-06 00:31:26, 2026-02-06 00:46:48, 2026-02-06 01:02:00, 2026-02-06 01:07:54", "cumulative_total": 73.0 }, "geometry": { "type": "Polygon", "coordinates": [ [ [ -67.09682486957621, 48.472342951312022 ], [ -67.103123679248597, 48.475378187658642 ], [ -67.102320033702384, 48.480522957678218 ], [ -67.095216249369173, 48.482632324956484 ], [ -67.088917115073272, 48.479596629473427 ], [ -67.089722089652923, 48.474452025915639 ], [ -67.09682486957621, 48.472342951312022 ] ] ] } },
{ "type": "Feature", "properties": { "hex_id": 1151657, "centroid_lon": -67.090526837495787, "centroid_lat": 48.469307407707682, "occurrences_today": 6, "datetimes_today": "2026-02-06 00:01:37, 2026-02-06 00:16:42, 2026-02-06 00:31:26, 2026-02-06 00:46:48, 2026-02-06 01:02:00, 2026-02-06 01:07:54", "cumulative_total": 73.0 }, "geometry": { "type": "Polygon", "coordinates": [ [ [ -67.09133135868305, 48.46416277485325 ], [ -67.097628839867653, 48.46719824254032 ], [ -67.09682486957621, 48.472342951312022 ], [ -67.089722089652923, 48.474452025915639 ], [ -67.083424284268702, 48.471416099183756 ], [ -67.084229582926241, 48.466271556960137 ], [ -67.09133135868305, 48.46416277485325 ] ] ] } },
{ "type": "Feature", "properties": { "hex_id": 1152267, "centroid_lon": -67.085034654786966, "centroid_lat": 48.461127000075329, "occurrences_today": 6, "datetimes_today": "2026-02-06 00:01:37, 2026-02-06 00:16:42, 2026-02-06 00:31:26, 2026-02-06 00:46:48, 2026-02-06 01:02:00, 2026-02-06 01:07:54", "cumulative_total": 73.0 }, "geometry": { "type": "Polygon", "coordinates": [ [ [ -67.085839499932078, 48.455982428533076 ], [ -67.092135653295827, 48.459018127356082 ], [ -67.09133135868305, 48.46416277485325 ], [ -67.084229582926241, 48.466271556960137 ], [ -67.077933105786357, 48.463235399183901 ], [ -67.078738728098273, 48.458090918321041 ], [ -67.085839499932078, 48.455982428533076 ] ] ] } },
{ "type": "Feature", "properties": { "hex_id": 1152268, "centroid_lon": -67.082618758733148, "centroid_lat": 48.476560626742483, "occurrences_today": 6, "datetimes_today": "2026-02-06 00:01:37, 2026-02-06 00:16:42, 2026-02-06 00:31:26, 2026-02-06 00:46:48, 2026-02-06 01:02:00, 2026-02-06 01:07:54", "cumulative_total": 73.0 }, "geometry": { "type": "Polygon", "coordinates": [ [ [ -67.083424284268702, 48.471416099183756 ], [ -67.089722089652923, 48.474452025915639 ], [ -67.088917115073272, 48.479596629473427 ], [ -67.081813006238335, 48.481705139632574 ], [ -67.075514876898126, 48.478668753702138 ], [ -67.076321180267556, 48.473524316878169 ], [ -67.083424284268702, 48.471416099183756 ] ] ] } },
{ "type": "Feature", "properties": { "hex_id": 1152878, "centroid_lon": -67.077127256536542, "centroid_lat": 48.468379865370856, "occurrences_today": 6, "datetimes_today": "2026-02-06 00:01:37, 2026-02-06 00:16:42, 2026-02-06 00:31:26, 2026-02-06 00:46:48, 2026-02-06 01:02:00, 2026-02-06 01:07:54", "cumulative_total": 73.0 }, "geometry": { "type": "Polygon", "coordinates": [ [ [ -67.077933105786357, 48.463235399183901 ], [ -67.084229582926241, 48.466271556960137 ], [ -67.083424284268702, 48.471416099183756 ], [ -67.076321180267556, 48.473524316878169 ], [ -67.070024379595196, 48.470487699995076 ], [ -67.070831006375201, 48.465343324591466 ], [ -67.077933105786357, 48.463235399183901 ] ] ] } },
{ "type": "Feature", "properties": { "hex_id": 37406, "centroid_lon": -79.338569012111719, "centroid_lat": 47.280454903420917, "occurrences_today": 6, "datetimes_today": "2026-02-06 00:01:37, 2026-02-06 00:16:42, 2026-02-06 00:31:26, 2026-02-06 00:46:48, 2026-02-06 01:02:00, 2026-02-06 01:07:54", "cumulative_total": 37.0 }, "geometry": { "type": "Polygon", "coordinates": [ [ [ -79.33814477020664, 47.27527462474746 ], [ -79.344948949008256, 47.277614539644865 ], [ -79.34537388980749, 47.282794769420974 ], [ -79.338993372272483, 47.285635174482877 ], [ -79.332188376300337, 47.283294932108809 ], [ -79.331764715075138, 47.278114612216974 ], [ -79.33814477020664, 47.27527462474746 ] ] ] } },
{ "type": "Feature", "properties": { "hex_id": 37407, "centroid_lon": -79.339842447526848, "centroid_lat": 47.295995693768269, "occurrences_today": 6, "datetimes_today": "2026-02-06 00:01:37, 2026-02-06 00:16:42, 2026-02-06 00:31:26, 2026-02-06 00:46:48, 2026-02-06 01:02:00, 2026-02-06 01:07:54", "cumulative_total": 37.0 }, "geometry": { "type": "Polygon", "coordinates": [ [ [ -79.339417850730356, 47.290815437932338 ], [ -79.346224126807329, 47.293155206110008 ], [ -79.346649423090994, 47.298335413020915 ], [ -79.340267162703384, 47.301175941989676 ], [ -79.333460068738418, 47.298835846160507 ], [ -79.333036053090566, 47.293655549081585 ], [ -79.339417850730356, 47.290815437932338 ] ] ] } },
{ "type": "Feature", "properties": { "hex_id": 38016, "centroid_lon": -79.331341171908093, "centroid_lat": 47.272934284722865, "occurrences_today": 6, "datetimes_today": "2026-02-06 00:01:37, 2026-02-06 00:16:42, 2026-02-06 00:31:26, 2026-02-06 00:46:48, 2026-02-06 01:02:00, 2026-02-06 01:07:54", "cumulative_total": 37.0 }, "geometry": { "type": "Polygon", "coordinates": [ [ [ -79.330917746757791, 47.267753949627476 ], [ -79.337720646515805, 47.270094338463537 ], [ -79.33814477020664, 47.27527462474746 ], [ -79.331764715075138, 47.278114612216974 ], [ -79.324960998739158, 47.275773895904479 ], [ -79.32453815415397, 47.270593519666363 ], [ -79.330917746757791, 47.267753949627476 ] ] ] } },
{ "type": "Feature", "properties": { "hex_id": 38017, "centroid_lon": -79.332612155625, "centroid_lat": 47.288475244397354, "occurrences_today": 6, "datetimes_today": "2026-02-06 00:01:37, 2026-02-06 00:16:42, 2026-02-06 00:31:26, 2026-02-06 00:46:48, 2026-02-06 01:02:00, 2026-02-06 01:07:54", "cumulative_total": 37.0 }, "geometry": { "type": "Polygon", "coordinates": [ [ [ -79.332188376300337, 47.283294932108809 ], [ -79.338993372272483, 47.285635174482877 ], [ -79.339417850730356, 47.290815437932338 ], [ -79.333036053090566, 47.293655549081585 ], [ -79.326230239823616, 47.291314979056224 ], [ -79.325807041532656, 47.286134625600411 ], [ -79.332188376300337, 47.283294932108809 ] ] ] } },
{ "type": "Feature", "properties": { "hex_id": 38018, "centroid_lon": -79.333884202610022, "centroid_lat": 47.30401613563312, "occurrences_today": 6, "datetimes_today": "2026-02-06 00:01:37, 2026-02-06 00:16:42, 2026-02-06 00:31:26, 2026-02-06 00:46:48, 2026-02-06 01:02:00, 2026-02-06 01:07:54", "cumulative_total": 37.0 }, "geometry": { "type": "Polygon", "coordinates": [ [ [ -79.333460068738418, 47.298835846160507 ], [ -79.340267162703384, 47.301175941989676 ], [ -79.34069199630153, 47.306356182595543 ], [ -79.334308454746818, 47.309196417498377 ], [ -79.3275005427694, 47.306855993843001 ], [ -79.327076990400599, 47.301675663178528 ], [ -79.333460068738418, 47.298835846160507 ] ] ] } },
{ "type": "Feature", "properties": { "hex_id": 38019, "centroid_lon": -79.335157313981895, "centroid_lat": 47.319556958402877, "occurrences_today": 6, "datetimes_today": "2026-02-06 00:01:37, 2026-02-06 00:16:42, 2026-02-06 00:31:26, 2026-02-06 00:46:48, 2026-02-06 01:02:00, 2026-02-06 01:07:54", "cumulative_total": 37.0 }, "geometry": { "type": "Polygon", "coordinates": [ [ [ -79.334732825190272, 47.314376691755314 ], [ -79.341542018928649, 47.316716640956571 ], [ -79.341967208040757, 47.321896858709685 ], [ -79.335581921163183, 47.324737217440052 ], [ -79.328771908693881, 47.322396940237596 ], [ -79.328348001874602, 47.317216632373551 ], [ -79.334732825190272, 47.314376691755314 ] ] ] } },
{ "type": "Feature", "properties": { "hex_id": 38626, "centroid_lon": -79.324115427388136, "centroid_lat": 47.265413135836198, "occurrences_today": 6, "datetimes_today": "2026-02-06 00:01:37, 2026-02-06 00:16:42, 2026-02-06 00:31:26, 2026-02-06 00:46:48, 2026-02-06 01:02:00, 2026-02-06 01:07:54", "cumulative_total": 37.0 }, "geometry": { "type": "Polygon", "coordinates": [ [ [ -79.323692818400346, 47.260232744414942 ], [ -79.330494439582935, 47.262573606931831 ], [ -79.330917746757791, 47.267753949627476 ], [ -79.32453815415397, 47.270593519666363 ], [ -79.317735716985609, 47.268252329673295 ], [ -79.317313688448095, 47.263071897184957 ], [ -79.323692818400346, 47.260232744414942 ] ] ] } },
{ "type": "Feature", "properties": { "hex_id": 38627, "centroid_lon": -79.325383961184954, "centroid_lat": 47.280954264549486, "occurrences_today": 6, "datetimes_today": "2026-02-06 00:01:37, 2026-02-06 00:16:42, 2026-02-06 00:31:26, 2026-02-06 00:46:48, 2026-02-06 01:02:00, 2026-02-06 01:07:54", "cumulative_total": 37.0 }, "geometry": { "type": "Polygon", "coordinates": [ [ [ -79.324960998739158, 47.275773895904479 ], [ -79.331764715075138, 47.278114612216974 ], [ -79.332188376300337, 47.283294932108809 ], [ -79.325807041532656, 47.286134625600411 ], [ -79.319002508494719, 47.283793581636893 ], [ -79.318580126967703, 47.278613171900268 ], [ -79.324960998739158, 47.275773895904479 ] ] ] } },
{ "type": "Feature", "properties": { "hex_id": 38628, "centroid_lon": -79.326653556099131, "centroid_lat": 47.296495324915931, "occurrences_today": 6, "datetimes_today": "2026-02-06 00:01:37, 2026-02-06 00:16:42, 2026-02-06 00:31:26, 2026-02-06 00:46:48, 2026-02-06 01:02:00, 2026-02-06 01:07:54", "cumulative_total": 37.0 }, "geometry": { "type": "Polygon", "coordinates": [ [ [ -79.326230239823616, 47.291314979056224 ], [ -79.333036053090566, 47.293655549081585 ], [ -79.333460068738418, 47.298835846160507 ], [ -79.327076990400599, 47.301675663178528 ], [ -79.320270359714684, 47.299334765327202 ], [ -79.31984762482692, 47.294154378351365 ], [ -79.326230239823616, 47.291314979056224 ] ] ] } },
{ "type": "Feature", "properties": { "hex_id": 38629, "centroid_lon": -79.327924213246931, "centroid_lat": 47.312036316908355, "occurrences_today": 6, "datetimes_today": "2026-02-06 00:01:37, 2026-02-06 00:16:42, 2026-02-06 00:31:26, 2026-02-06 00:46:48, 2026-02-06 01:02:00, 2026-02-06 01:07:54", "cumulative_total": 37.0 }, "geometry": { "type": "Polygon", "coordinates": [ [ [ -79.3275005427694, 47.306855993843001 ], [ -79.334308454746818, 47.309196417498377 ], [ -79.334732825190272, 47.314376691755314 ], [ -79.328348001874602, 47.317216632373551 ], [ -79.321539271760372, 47.314875880717182 ], [ -79.321116183140063, 47.309695516511134 ], [ -79.3275005427694, 47.306855993843001 ] ] ] } },
{ "type": "Feature", "properties": { "hex_id": 38630, "centroid_lon": -79.32919593374622, "centroid_lat": 47.327577240499473, "occurrences_today": 6, "datetimes_today": "2026-02-06 00:01:37, 2026-02-06 00:16:42, 2026-02-06 00:31:26, 2026-02-06 00:46:48, 2026-02-06 01:02:00, 2026-02-06 01:07:54", "cumulative_total": 37.0 }, "geometry": { "type": "Polygon", "coordinates": [ [ [ -79.328771908693881, 47.322396940237596 ], [ -79.335581921163183, 47.324737217440052 ], [ -79.336006646775687, 47.329917468865858 ], [ -79.329620077073116, 47.332757533158166 ], [ -79.322809245748331, 47.330416927779616 ], [ -79.322385803023124, 47.325236586352432 ], [ -79.328771908693881, 47.322396940237596 ] ] ] } },
{ "type": "Feature", "properties": { "hex_id": 39237, "centroid_lon": -79.318157863145075, "centroid_lat": 47.273432754578756, "occurrences_today": 6, "datetimes_today": "2026-02-06 00:01:37, 2026-02-06 00:16:42, 2026-02-06 00:31:26, 2026-02-06 00:46:48, 2026-02-06 01:02:00, 2026-02-06 01:07:54", "cumulative_total": 37.0 }, "geometry": { "type": "Polygon", "coordinates": [ [ [ -79.317735716985609, 47.268252329673295 ], [ -79.32453815415397, 47.270593519666363 ], [ -79.324960998739158, 47.275773895904479 ], [ -79.318580126967703, 47.278613171900268 ], [ -79.311776873689865, 47.276271654256512 ], [ -79.311355308334171, 47.271091188335127 ], [ -79.317735716985609, 47.268252329673295 ] ] ] } },
{ "type": "Feature", "properties": { "hex_id": 39238, "centroid_lon": -79.319425007767364, "centroid_lat": 47.288973983787585, "occurrences_today": 6, "datetimes_today": "2026-02-06 00:01:37, 2026-02-06 00:16:42, 2026-02-06 00:31:26, 2026-02-06 00:46:48, 2026-02-06 01:02:00, 2026-02-06 01:07:54", "cumulative_total": 37.0 }, "geometry": { "type": "Polygon", "coordinates": [ [ [ -79.319002508494719, 47.283793581636893 ], [ -79.325807041532656, 47.286134625600411 ], [ -79.326230239823616, 47.291314979056224 ], [ -79.31984762482692, 47.294154378351365 ], [ -79.313042274963124, 47.291813006562194 ], [ -79.312620356963151, 47.28663256337105 ], [ -79.319002508494719, 47.283793581636893 ] ] ] } },
{ "type": "Feature", "properties": { "hex_id": 39239, "centroid_lon": -79.320693212471951, "centroid_lat": 47.304515144714145, "occurrences_today": 6, "datetimes_today": "2026-02-06 00:01:37, 2026-02-06 00:16:42, 2026-02-06 00:31:26, 2026-02-06 00:46:48, 2026-02-06 01:02:00, 2026-02-06 01:07:54", "cumulative_total": 37.0 }, "geometry": { "type": "Polygon", "coordinates": [ [ [ -79.320270359714684, 47.299334765327202 ], [ -79.327076990400599, 47.301675663178528 ], [ -79.3275005427694, 47.306855993843001 ], [ -79.321116183140063, 47.309695516511134 ], [ -79.314308734911108, 47.307354290659134 ], [ -79.313886463895841, 47.302173870207234 ], [ -79.320270359714684, 47.299334765327202 ] ] ] } },
{ "type": "Feature", "properties": { "hex_id": 39240, "centroid_lon": -79.32196247837426, "centroid_lat": 47.320056237331293, "occurrences_today": 6, "datetimes_today": "2026-02-06 00:01:37, 2026-02-06 00:16:42, 2026-02-06 00:31:26, 2026-02-06 00:46:48, 2026-02-06 01:02:00, 2026-02-06 01:07:54", "cumulative_total": 37.0 }, "geometry": { "type": "Polygon", "coordinates": [ [ [ -79.321539271760372, 47.314875880717182 ], [ -79.328348001874602, 47.317216632373551 ], [ -79.328771908693881, 47.322396940237596 ], [ -79.322385803023124, 47.325236586352432 ], [ -79.315576254647837, 47.322895506520268 ], [ -79.315153630245788, 47.317715108816657 ], [ -79.321539271760372, 47.314875880717182 ] ] ] } },
{ "type": "Feature", "properties": { "hex_id": 39847, "centroid_lon": -79.310933860444237, "centroid_lat": 47.265910714838988, "occurrences_today": 6, "datetimes_today": "2026-02-06 00:01:37, 2026-02-06 00:16:42, 2026-02-06 00:31:26, 2026-02-06 00:46:48, 2026-02-06 01:02:00, 2026-02-06 01:07:54", "cumulative_total": 37.0 }, "geometry": { "type": "Polygon", "coordinates": [ [ [ -79.310512529978908, 47.260730233769102 ], [ -79.317313688448095, 47.263071897184957 ], [ -79.317735716985609, 47.268252329673295 ], [ -79.311355308334171, 47.271091188335127 ], [ -79.304553334347617, 47.268749197268967 ], [ -79.304132584571008, 47.263568675258739 ], [ -79.310512529978908, 47.260730233769102 ] ] ] } },
{ "type": "Feature", "properties": { "hex_id": 39848, "centroid_lon": -79.31219855655246, "centroid_lat": 47.281452112602153, "occurrences_today": 6, "datetimes_today": "2026-02-06 00:01:37, 2026-02-06 00:16:42, 2026-02-06 00:31:26, 2026-02-06 00:46:48, 2026-02-06 01:02:00, 2026-02-06 01:07:54", "cumulative_total": 37.0 }, "geometry": { "type": "Polygon", "coordinates": [ [ [ -79.311776873689865, 47.276271654256512 ], [ -79.318580126967703, 47.278613171900268 ], [ -79.319002508494719, 47.283793581636893 ], [ -79.312620356963151, 47.28663256337105 ], [ -79.305816287452203, 47.284290717902024 ], [ -79.30539518574713, 47.279110218591605 ], [ -79.311776873689865, 47.276271654256512 ] ] ] } },
{ "type": "Feature", "properties": { "hex_id": 39849, "centroid_lon": -79.313464310593616, "centroid_lat": 47.296993442174589, "occurrences_today": 6, "datetimes_today": "2026-02-06 00:01:37, 2026-02-06 00:16:42, 2026-02-06 00:31:26, 2026-02-06 00:46:48, 2026-02-06 01:02:00, 2026-02-06 01:07:54", "cumulative_total": 37.0 }, "geometry": { "type": "Polygon", "coordinates": [ [ [ -79.313042274963124, 47.291813006562194 ], [ -79.31984762482692, 47.294154378351365 ], [ -79.320270359714684, 47.299334765327202 ], [ -79.313886463895841, 47.302173870207234 ], [ -79.307080297082408, 47.29983217041773 ], [ -79.306658843078694, 47.2946516938161 ], [ -79.313042274963124, 47.291813006562194 ] ] ] } },
{ "type": "Feature", "properties": { "hex_id": 39850, "centroid_lon": -79.314731123680644, "centroid_lat": 47.31253470352928, "occurrences_today": 6, "datetimes_today": "2026-02-06 00:01:37, 2026-02-06 00:16:42, 2026-02-06 00:31:26, 2026-02-06 00:46:48, 2026-02-06 01:02:00, 2026-02-06 01:07:54", "cumulative_total": 37.0 }, "geometry": { "type": "Polygon", "coordinates": [ [ [ -79.314308734911108, 47.307354290659134 ], [ -79.321116183140063, 47.309695516511134 ], [ -79.321539271760372, 47.314875880717182 ], [ -79.315153630245788, 47.317715108816657 ], [ -79.308345364349805, 47.315373554789183 ], [ -79.30792355767673, 47.310193100905273 ], [ -79.314308734911108, 47.307354290659134 ] ] ] } },
{ "type": "Feature", "properties": { "hex_id": 39851, "centroid_lon": -79.315998996928144, "centroid_lat": 47.32807589663912, "occurrences_today": 6, "datetimes_today": "2026-02-06 00:01:37, 2026-02-06 00:16:42, 2026-02-06 00:31:26, 2026-02-06 00:46:48, 2026-02-06 01:02:00, 2026-02-06 01:07:54", "cumulative_total": 37.0 }, "geometry": { "type": "Polygon", "coordinates": [ [ [ -79.315576254647837, 47.322895506520268 ], [ -79.322385803023124, 47.325236586352432 ], [ -79.322809245748331, 47.330416927779616 ], [ -79.316421857128077, 47.33325627917219 ], [ -79.309611490367573, 47.330914870989332 ], [ -79.309189330653922, 47.325734439832196 ], [ -79.315576254647837, 47.322895506520268 ] ] ] } },
{ "type": "Feature", "properties": { "hex_id": 40457, "centroid_lon": -79.303711952021729, "centroid_lat": 47.258388145683938, "occurrences_today": 6, "datetimes_today": "2026-02-06 00:01:37, 2026-02-06 00:16:42, 2026-02-06 00:31:26, 2026-02-06 00:46:48, 2026-02-06 01:02:00, 2026-02-06 01:07:54", "cumulative_total": 37.0 }, "geometry": { "type": "Polygon", "coordinates": [ [ [ -79.303291436658711, 47.253207608545495 ], [ -79.310091316897072, 47.255549745126487 ], [ -79.310512529978908, 47.260730233769102 ], [ -79.304132584571008, 47.263568675258739 ], [ -79.297331889407019, 47.261226211027925 ], [ -79.296911954617613, 47.256045633024755 ], [ -79.303291436658711, 47.253207608545495 ] ] ] } },
{ "type": "Feature", "properties": { "hex_id": 40458, "centroid_lon": -79.304974201392639, "centroid_lat": 47.273929711713599, "occurrences_today": 6, "datetimes_today": "2026-02-06 00:01:37, 2026-02-06 00:16:42, 2026-02-06 00:31:26, 2026-02-06 00:46:48, 2026-02-06 01:02:00, 2026-02-06 01:07:54", "cumulative_total": 37.0 }, "geometry": { "type": "Polygon", "coordinates": [ [ [ -79.304553334347617, 47.268749197268967 ], [ -79.311355308334171, 47.271091188335127 ], [ -79.311776873689865, 47.276271654256512 ], [ -79.30539518574713, 47.279110218591605 ], [ -79.298592396119858, 47.276767899700616 ], [ -79.29817211011715, 47.271587344366864 ], [ -79.304553334347617, 47.268749197268967 ] ] ] } },
{ "type": "Feature", "properties": { "hex_id": 40459, "centroid_lon": -79.30623750654901, "centroid_lat": 47.289471209643857, "occurrences_today": 6, "datetimes_today": "2026-02-06 00:01:37, 2026-02-06 00:16:42, 2026-02-06 00:31:26, 2026-02-06 00:46:48, 2026-02-06 01:02:00, 2026-02-06 01:07:54", "cumulative_total": 37.0 }, "geometry": { "type": "Polygon", "coordinates": [ [ [ -79.305816287452203, 47.284290717902024 ], [ -79.312620356963151, 47.28663256337105 ], [ -79.313042274963124, 47.291813006562194 ], [ -79.306658843078694, 47.2946516938161 ], [ -79.299853957211127, 47.292309520347168 ], [ -79.299433319625791, 47.28712898769178 ], [ -79.305816287452203, 47.284290717902024 ] ] ] } },
{ "type": "Feature", "properties": { "hex_id": 40460, "centroid_lon": -79.307501868601349, "centroid_lat": 47.30501263944781, "occurrences_today": 6, "datetimes_today": "2026-02-06 00:01:37, 2026-02-06 00:16:42, 2026-02-06 00:31:26, 2026-02-06 00:46:48, 2026-02-06 01:02:00, 2026-02-06 01:07:54", "cumulative_total": 37.0 }, "geometry": { "type": "Polygon", "coordinates": [ [ [ -79.307080297082408, 47.29983217041773 ], [ -79.313886463895841, 47.302173870207234 ], [ -79.314308734911108, 47.307354290659134 ], [ -79.30792355767673, 47.310193100905273 ], [ -79.30111657378994, 47.307851072940736 ], [ -79.300695584252082, 47.302670562972637 ], [ -79.307080297082408, 47.29983217041773 ] ] ] } },
{ "type": "Feature", "properties": { "hex_id": 40461, "centroid_lon": -79.30876728866177, "centroid_lat": 47.320554001098493, "occurrences_today": 6, "datetimes_today": "2026-02-06 00:01:37, 2026-02-06 00:16:42, 2026-02-06 00:31:26, 2026-02-06 00:46:48, 2026-02-06 01:02:00, 2026-02-06 01:07:54", "cumulative_total": 37.0 }, "geometry": { "type": "Polygon", "coordinates": [ [ [ -79.308345364349805, 47.315373554789183 ], [ -79.315153630245788, 47.317715108816657 ], [ -79.315576254647837, 47.322895506520268 ], [ -79.309189330653922, 47.325734439832196 ], [ -79.302380246967047, 47.323392557454433 ], [ -79.301958905106233, 47.318212070182625 ], [ -79.308345364349805, 47.315373554789183 ] ] ] } },
{ "type": "Feature", "properties": { "hex_id": 41068, "centroid_lon": -79.297751941226537, "centroid_lat": 47.266406781475631, "occurrences_today": 6, "datetimes_today": "2026-02-06 00:01:37, 2026-02-06 00:16:42, 2026-02-06 00:31:26, 2026-02-06 00:46:48, 2026-02-06 01:02:00, 2026-02-06 01:07:54", "cumulative_total": 37.0 }, "geometry": { "type": "Polygon", "coordinates": [ [ [ -79.297331889407019, 47.261226211027925 ], [ -79.304132584571008, 47.263568675258739 ], [ -79.304553334347617, 47.268749197268967 ], [ -79.29817211011715, 47.271587344366864 ], [ -79.291370599904468, 47.269244552311704 ], [ -79.290951129011972, 47.264063941050452 ], [ -79.297331889407019, 47.261226211027925 ] ] ] } },
{ "type": "Feature", "properties": { "hex_id": 41069, "centroid_lon": -79.299012799275729, "centroid_lat": 47.281948447475919, "occurrences_today": 6, "datetimes_today": "2026-02-06 00:01:37, 2026-02-06 00:16:42, 2026-02-06 00:31:26, 2026-02-06 00:46:48, 2026-02-06 01:02:00, 2026-02-06 01:07:54", "cumulative_total": 37.0 }, "geometry": { "type": "Polygon", "coordinates": [ [ [ -79.298592396119858, 47.276767899700616 ], [ -79.30539518574713, 47.279110218591605 ], [ -79.305816287452203, 47.284290717902024 ], [ -79.299433319625791, 47.28712898769178 ], [ -79.292629714234565, 47.284786340801375 ], [ -79.292209892474787, 47.279605752188147 ], [ -79.298592396119858, 47.276767899700616 ] ] ] } },
{ "type": "Feature", "properties": { "hex_id": 41070, "centroid_lon": -79.300274712072849, "centroid_lat": 47.297490045441123, "occurrences_today": 6, "datetimes_today": "2026-02-06 00:01:37, 2026-02-06 00:16:42, 2026-02-06 00:31:26, 2026-02-06 00:46:48, 2026-02-06 01:02:00, 2026-02-06 01:07:54", "cumulative_total": 37.0 }, "geometry": { "type": "Polygon", "coordinates": [ [ [ -79.299853957211127, 47.292309520347168 ], [ -79.306658843078694, 47.2946516938161 ], [ -79.307080297082408, 47.29983217041773 ], [ -79.300695584252082, 47.302670562972637 ], [ -79.293889881904462, 47.300328061329118 ], [ -79.293469708908376, 47.295147495372845 ], [ -79.299853957211127, 47.292309520347168 ] ] ] } },
{ "type": "Feature", "properties": { "hex_id": 41071, "centroid_lon": -79.301537680727606, "centroid_lat": 47.313031575344397, "occurrences_today": 6, "datetimes_today": "2026-02-06 00:01:37, 2026-02-06 00:16:42, 2026-02-06 00:31:26, 2026-02-06 00:46:48, 2026-02-06 01:02:00, 2026-02-06 01:07:54", "cumulative_total": 37.0 }, "geometry": { "type": "Polygon", "coordinates": [ [ [ -79.30111657378994, 47.307851072940736 ], [ -79.30792355767673, 47.310193100905273 ], [ -79.308345364349805, 47.315373554789183 ], [ -79.301958905106233, 47.318212070182625 ], [ -79.29515110402248, 47.31586971386821 ], [ -79.294730579420431, 47.310689170577803 ], [ -79.30111657378994, 47.307851072940736 ] ] ] } },
{ "type": "Feature", "properties": { "hex_id": 41072, "centroid_lon": -79.302801706351232, "centroid_lat": 47.328573037158826, "occurrences_today": 6, "datetimes_today": "2026-02-06 00:01:37, 2026-02-06 00:16:42, 2026-02-06 00:31:26, 2026-02-06 00:46:48, 2026-02-06 01:02:00, 2026-02-06 01:07:54", "cumulative_total": 37.0 }, "geometry": { "type": "Polygon", "coordinates": [ [ [ -79.302380246967047, 47.323392557454433 ], [ -79.309189330653922, 47.325734439832196 ], [ -79.309611490367573, 47.330914870989332 ], [ -79.303223283300056, 47.333753509294795 ], [ -79.296413381698457, 47.331411298391835 ], [ -79.295992505120338, 47.32623077777621 ], [ -79.302380246967047, 47.323392557454433 ] ] ] } },
{ "type": "Feature", "properties": { "hex_id": 41678, "centroid_lon": -79.290531774993312, "centroid_lat": 47.258883322241871, "occurrences_today": 6, "datetimes_today": "2026-02-06 00:01:37, 2026-02-06 00:16:42, 2026-02-06 00:31:26, 2026-02-06 00:46:48, 2026-02-06 01:02:00, 2026-02-06 01:07:54", "cumulative_total": 37.0 }, "geometry": { "type": "Polygon", "coordinates": [ [ [ -79.290112537807559, 47.253702695886894 ], [ -79.296911954617613, 47.256045633024755 ], [ -79.297331889407019, 47.261226211027925 ], [ -79.290951129011972, 47.264063941050452 ], [ -79.284150897744894, 47.261720676088842 ], [ -79.283732241370828, 47.256540008995906 ], [ -79.290112537807559, 47.253702695886894 ] ] ] } },
{ "type": "Feature", "properties": { "hex_id": 41679, "centroid_lon": -79.291790187711754, "centroid_lat": 47.274425156024613, "occurrences_today": 6, "datetimes_today": "2026-02-06 00:01:37, 2026-02-06 00:16:42, 2026-02-06 00:31:26, 2026-02-06 00:46:48, 2026-02-06 01:02:00, 2026-02-06 01:07:54", "cumulative_total": 37.0 }, "geometry": { "type": "Polygon", "coordinates": [ [ [ -79.291370599904468, 47.269244552311704 ], [ -79.29817211011715, 47.271587344366864 ], [ -79.298592396119858, 47.276767899700616 ], [ -79.292209892474787, 47.279605752188147 ], [ -79.285407567090445, 47.277262632134118 ], [ -79.284988560563818, 47.272081987658929 ], [ -79.291370599904468, 47.269244552311704 ] ] ] } },
{ "type": "Feature", "properties": { "hex_id": 41680, "centroid_lon": -79.293049653032071, "centroid_lat": 47.289966921863268, "occurrences_today": 6, "datetimes_today": "2026-02-06 00:01:37, 2026-02-06 00:16:42, 2026-02-06 00:31:26, 2026-02-06 00:46:48, 2026-02-06 01:02:00, 2026-02-06 01:07:54", "cumulative_total": 37.0 }, "geometry": { "type": "Polygon", "coordinates": [ [ [ -79.292629714234565, 47.284786340801375 ], [ -79.299433319625791, 47.28712898769178 ], [ -79.299853957211127, 47.292309520347168 ], [ -79.293469708908376, 47.295147495372845 ], [ -79.286665287630015, 47.292804520308373 ], [ -79.286245930582595, 47.28762389845982 ], [ -79.292629714234565, 47.284786340801375 ] ] ] } },
{ "type": "Feature", "properties": { "hex_id": 41681, "centroid_lon": -79.294310172061472, "centroid_lat": 47.305508619731107, "occurrences_today": 6, "datetimes_today": "2026-02-06 00:01:37, 2026-02-06 00:16:42, 2026-02-06 00:31:26, 2026-02-06 00:46:48, 2026-02-06 01:02:00, 2026-02-06 01:07:54", "cumulative_total": 37.0 }, "geometry": { "type": "Polygon", "coordinates": [ [ [ -79.293889881904462, 47.300328061329118 ], [ -79.300695584252082, 47.302670562972637 ], [ -79.30111657378994, 47.307851072940736 ], [ -79.294730579420431, 47.310689170577803 ], [ -79.287924060469422, 47.308346340584933 ], [ -79.287504352532423, 47.30316574137192 ], [ -79.293889881904462, 47.300328061329118 ] ] ] } },
{ "type": "Feature", "properties": { "hex_id": 41682, "centroid_lon": -79.295571745908731, "centroid_lat": 47.321050249601363, "occurrences_today": 6, "datetimes_today": "2026-02-06 00:01:37, 2026-02-06 00:16:42, 2026-02-06 00:31:26, 2026-02-06 00:46:48, 2026-02-06 01:02:00, 2026-02-06 01:07:54", "cumulative_total": 37.0 }, "geometry": { "type": "Polygon", "coordinates": [ [ [ -79.29515110402248, 47.31586971386821 ], [ -79.301958905106233, 47.318212070182625 ], [ -79.302380246967047, 47.323392557454433 ], [ -79.295992505120338, 47.32623077777621 ], [ -79.289183886716089, 47.323888092937118 ], [ -79.288763827520185, 47.318707516368534 ], [ -79.29515110402248, 47.31586971386821 ] ] ] } },
{ "type": "Feature", "properties": { "hex_id": 42289, "centroid_lon": -79.284569670795591, "centroid_lat": 47.26690133564351, "occurrences_today": 6, "datetimes_today": "2026-02-06 00:01:37, 2026-02-06 00:16:42, 2026-02-06 00:31:26, 2026-02-06 00:46:48, 2026-02-06 01:02:00, 2026-02-06 01:07:54", "cumulative_total": 37.0 }, "geometry": { "type": "Polygon", "coordinates": [ [ [ -79.284150897744894, 47.261720676088842 ], [ -79.290951129011972, 47.264063941050452 ], [ -79.291370599904468, 47.269244552311704 ], [ -79.284988560563818, 47.272081987658929 ], [ -79.27818751471699, 47.26973839469904 ], [ -79.277769322831446, 47.264557694457665 ], [ -79.284150897744894, 47.261720676088842 ] ] ] } },
{ "type": "Feature", "properties": { "hex_id": 42290, "centroid_lon": -79.285826690416386, "centroid_lat": 47.282443269068068, "occurrences_today": 6, "datetimes_today": "2026-02-06 00:01:37, 2026-02-06 00:16:42, 2026-02-06 00:31:26, 2026-02-06 00:46:48, 2026-02-06 01:02:00, 2026-02-06 01:07:54", "cumulative_total": 37.0 }, "geometry": { "type": "Polygon", "coordinates": [ [ [ -79.285407567090445, 47.277262632134118 ], [ -79.292209892474787, 47.279605752188147 ], [ -79.292629714234565, 47.284786340801375 ], [ -79.286245930582595, 47.28762389845982 ], [ -79.279442789903698, 47.285280450232328 ], [ -79.279024248212252, 47.280099772587342 ], [ -79.285407567090445, 47.277262632134118 ] ] ] } },
{ "type": "Feature", "properties": { "hex_id": 42291, "centroid_lon": -79.28708476159963, "centroid_lat": 47.297985134612738, "occurrences_today": 6, "datetimes_today": "2026-02-06 00:01:37, 2026-02-06 00:16:42, 2026-02-06 00:31:26, 2026-02-06 00:46:48, 2026-02-06 01:02:00, 2026-02-06 01:07:54", "cumulative_total": 37.0 }, "geometry": { "type": "Polygon", "coordinates": [ [ [ -79.286665287630015, 47.292804520308373 ], [ -79.293469708908376, 47.295147495372845 ], [ -79.293889881904462, 47.300328061329118 ], [ -79.287504352532423, 47.30316574137192 ], [ -79.280699115243891, 47.300822437958672 ], [ -79.280280223378611, 47.29564178291897 ], [ -79.286665287630015, 47.292804520308373 ] ] ] } },
{ "type": "Feature", "properties": { "hex_id": 42292, "centroid_lon": -79.288343885451653, "centroid_lat": 47.313526932250817, "occurrences_today": 6, "datetimes_today": "2026-02-06 00:01:37, 2026-02-06 00:16:42, 2026-02-06 00:31:26, 2026-02-06 00:46:48, 2026-02-06 01:02:00, 2026-02-06 01:07:54", "cumulative_total": 37.0 }, "geometry": { "type": "Polygon", "coordinates": [ [ [ -79.287924060469422, 47.308346340584933 ], [ -79.294730579420431, 47.310689170577803 ], [ -79.29515110402248, 47.31586971386821 ], [ -79.288763827520185, 47.318707516368534 ], [ -79.281956491842564, 47.316364357851526 ], [ -79.281537249434905, 47.311183725425941 ], [ -79.287924060469422, 47.308346340584933 ] ] ] } },
{ "type": "Feature", "properties": { "hex_id": 42293, "centroid_lon": -79.289604063080446, "centroid_lat": 47.329068661955581, "occurrences_today": 6, "datetimes_today": "2026-02-06 00:01:37, 2026-02-06 00:16:42, 2026-02-06 00:31:26, 2026-02-06 00:46:48, 2026-02-06 01:02:00, 2026-02-06 01:07:54", "cumulative_total": 37.0 }, "geometry": { "type": "Polygon", "coordinates": [ [ [ -79.289183886716089, 47.323888092937118 ], [ -79.295992505120338, 47.32623077777621 ], [ -79.296413381698457, 47.331411298391835 ], [ -79.290024356654399, 47.334249223422923 ], [ -79.283214920806245, 47.331906209884224 ], [ -79.282795327487193, 47.326725600081652 ], [ -79.289183886716089, 47.323888092937118 ] ] ] } },
{ "type": "Feature", "properties": { "hex_id": 42899, "centroid_lon": -79.277351247466186, "centroid_lat": 47.259376986686142, "occurrences_today": 6, "datetimes_today": "2026-02-06 00:01:37, 2026-02-06 00:16:42, 2026-02-06 00:31:26, 2026-02-06 00:46:48, 2026-02-06 01:02:00, 2026-02-06 01:07:54", "cumulative_total": 37.0 }, "geometry": { "type": "Polygon", "coordinates": [ [ [ -79.276933288580437, 47.254196271385418 ], [ -79.283732241370828, 47.256540008995906 ], [ -79.284150897744894, 47.261720676088842 ], [ -79.277769322831446, 47.264557694457665 ], [ -79.270969556052862, 47.26221362884958 ], [ -79.270552178216704, 47.257032872937728 ], [ -79.276933288580437, 47.254196271385418 ] ] ] } },
{ "type": "Feature", "properties": { "hex_id": 42900, "centroid_lon": -79.278605823163645, "centroid_lat": 47.274919087409273, "occurrences_today": 6, "datetimes_today": "2026-02-06 00:01:37, 2026-02-06 00:16:42, 2026-02-06 00:31:26, 2026-02-06 00:46:48, 2026-02-06 01:02:00, 2026-02-06 01:07:54", "cumulative_total": 37.0 }, "geometry": { "type": "Polygon", "coordinates": [ [ [ -79.27818751471699, 47.26973839469904 ], [ -79.284988560563818, 47.272081987658929 ], [ -79.285407567090445, 47.277262632134118 ], [ -79.279024248212252, 47.280099772587342 ], [ -79.272222387663064, 47.27775585145465 ], [ -79.27180466073527, 47.272575118109025 ], [ -79.27818751471699, 47.26973839469904 ] ] ] } },
{ "type": "Feature", "properties": { "hex_id": 42901, "centroid_lon": -79.279861448278837, "centroid_lat": 47.290461120343195, "occurrences_today": 6, "datetimes_today": "2026-02-06 00:01:37, 2026-02-06 00:16:42, 2026-02-06 00:31:26, 2026-02-06 00:46:48, 2026-02-06 01:02:00, 2026-02-06 01:07:54", "cumulative_total": 37.0 }, "geometry": { "type": "Polygon", "coordinates": [ [ [ -79.279442789903698, 47.285280450232328 ], [ -79.286245930582595, 47.28762389845982 ], [ -79.286665287630015, 47.292804520308373 ], [ -79.280280223378611, 47.29564178291897 ], [ -79.273476267282348, 47.293298006343356 ], [ -79.273058190895782, 47.288117295572789 ], [ -79.279442789903698, 47.285280450232328 ] ] ] } },
{ "type": "Feature", "properties": { "hex_id": 42902, "centroid_lon": -79.281118123915675, "centroid_lat": 47.306003085461334, "occurrences_today": 6, "datetimes_today": "2026-02-06 00:01:37, 2026-02-06 00:16:42, 2026-02-06 00:31:26, 2026-02-06 00:46:48, 2026-02-06 01:02:00, 2026-02-06 01:07:54", "cumulative_total": 37.0 }, "geometry": { "type": "Polygon", "coordinates": [ [ [ -79.280699115243891, 47.300822437958672 ], [ -79.287504352532423, 47.30316574137192 ], [ -79.287924060469422, 47.308346340584933 ], [ -79.281537249434905, 47.311183725425941 ], [ -79.274731196013221, 47.308840093489181 ], [ -79.27431276980019, 47.303659405302533 ], [ -79.280699115243891, 47.300822437958672 ] ] ] } },
{ "type": "Feature", "properties": { "hex_id": 42903, "centroid_lon": -79.282375851179637, "centroid_lat": 47.321544982737102, "occurrences_today": 6, "datetimes_today": "2026-02-06 00:01:37, 2026-02-06 00:16:42, 2026-02-06 00:31:26, 2026-02-06 00:46:48, 2026-02-06 01:02:00, 2026-02-06 01:07:54", "cumulative_total": 37.0 }, "geometry": { "type": "Polygon", "coordinates": [ [ [ -79.281956491842564, 47.316364357851526 ], [ -79.288763827520185, 47.318707516368534 ], [ -79.289183886716089, 47.323888092937118 ], [ -79.282795327487193, 47.326725600081652 ], [ -79.275987174959752, 47.324382112865663 ], [ -79.275568398552068, 47.319201447271745 ], [ -79.281956491842564, 47.316364357851526 ] ] ] } },
{ "type": "Feature", "properties": { "hex_id": 43510, "centroid_lon": -79.271387050212141, "centroid_lat": 47.267394377240343, "occurrences_today": 6, "datetimes_today": "2026-02-06 00:01:37, 2026-02-06 00:16:42, 2026-02-06 00:31:26, 2026-02-06 00:46:48, 2026-02-06 01:02:00, 2026-02-06 01:07:54", "cumulative_total": 37.0 }, "geometry": { "type": "Polygon", "coordinates": [ [ [ -79.270969556052862, 47.26221362884958 ], [ -79.277769322831446, 47.264557694457665 ], [ -79.27818751471699, 47.26973839469904 ], [ -79.27180466073527, 47.272575118109025 ], [ -79.265004079846165, 47.270230724328826 ], [ -79.264587167090056, 47.265049935378237 ], [ -79.270969556052862, 47.26221362884958 ] ] ] } },
{ "type": "Feature", "properties": { "hex_id": 43511, "centroid_lon": -79.272640231036291, "centroid_lat": 47.282936577276224, "occurrences_today": 6, "datetimes_today": "2026-02-06 00:01:37, 2026-02-06 00:16:42, 2026-02-06 00:31:26, 2026-02-06 00:46:48, 2026-02-06 01:02:00, 2026-02-06 01:07:54", "cumulative_total": 37.0 }, "geometry": { "type": "Polygon", "coordinates": [ [ [ -79.272222387663064, 47.27775585145465 ], [ -79.279024248212252, 47.280099772587342 ], [ -79.279442789903698, 47.285280450232328 ], [ -79.273058190895782, 47.288117295572789 ], [ -79.266255515521721, 47.285773046092658 ], [ -79.265838254021276, 47.280592279687006 ], [ -79.272222387663064, 47.27775585145465 ] ] ] } },
{ "type": "Feature", "properties": { "hex_id": 43512, "centroid_lon": -79.27389446023686, "centroid_lat": 47.298478709586917, "occurrences_today": 6, "datetimes_today": "2026-02-06 00:01:37, 2026-02-06 00:16:42, 2026-02-06 00:31:26, 2026-02-06 00:46:48, 2026-02-06 01:02:00, 2026-02-06 01:07:54", "cumulative_total": 37.0 }, "geometry": { "type": "Polygon", "coordinates": [ [ [ -79.273476267282348, 47.293298006343356 ], [ -79.280280223378611, 47.29564178291897 ], [ -79.280699115243891, 47.300822437958672 ], [ -79.27431276980019, 47.303659405302533 ], [ -79.267507998163893, 47.30131530020406 ], [ -79.267090387552244, 47.296134556352158 ], [ -79.273476267282348, 47.293298006343356 ] ] ] } },
{ "type": "Feature", "properties": { "hex_id": 43513, "centroid_lon": -79.275149738916866, "centroid_lat": 47.314020774145931, "occurrences_today": 6, "datetimes_today": "2026-02-06 00:01:37, 2026-02-06 00:16:42, 2026-02-06 00:31:26, 2026-02-06 00:46:48, 2026-02-06 01:02:00, 2026-02-06 01:07:54", "cumulative_total": 37.0 }, "geometry": { "type": "Polygon", "coordinates": [ [ [ -79.274731196013221, 47.308840093489181 ], [ -79.281537249434905, 47.311183725425941 ], [ -79.281956491842564, 47.316364357851526 ], [ -79.275568398552068, 47.319201447271745 ], [ -79.268761528874336, 47.316857486636657 ], [ -79.26834356878409, 47.311676765347286 ], [ -79.274731196013221, 47.308840093489181 ] ] ] } },
{ "type": "Feature", "properties": { "hex_id": 43514, "centroid_lon": -79.276406068180947, "centroid_lat": 47.329562770926692, "occurrences_today": 6, "datetimes_today": "2026-02-06 00:01:37, 2026-02-06 00:16:42, 2026-02-06 00:31:26, 2026-02-06 00:46:48, 2026-02-06 01:02:00, 2026-02-06 01:07:54", "cumulative_total": 37.0 }, "geometry": { "type": "Polygon", "coordinates": [ [ [ -79.275987174959752, 47.324382112865663 ], [ -79.282795327487193, 47.326725600081652 ], [ -79.283214920806245, 47.331906209884224 ], [ -79.276825078256607, 47.334743421453851 ], [ -79.270016108756337, 47.33239960536396 ], [ -79.269597798819561, 47.327218906645967 ], [ -79.275987174959752, 47.324382112865663 ] ] ] } },
{ "type": "Feature", "properties": { "hex_id": 44120, "centroid_lon": -79.264170370500636, "centroid_lat": 47.259869138914659, "occurrences_today": 6, "datetimes_today": "2026-02-06 00:01:37, 2026-02-06 00:16:42, 2026-02-06 00:31:26, 2026-02-06 00:46:48, 2026-02-06 01:02:00, 2026-02-06 01:07:54", "cumulative_total": 37.0 }, "geometry": { "type": "Polygon", "coordinates": [ [ [ -79.263753690037206, 47.254688334938997 ], [ -79.270552178216704, 47.257032872937728 ], [ -79.270969556052862, 47.26221362884958 ], [ -79.264587167090056, 47.265049935378237 ], [ -79.257787865391492, 47.262705069208195 ], [ -79.257371766215456, 47.257524224748288 ], [ -79.263753690037206, 47.254688334938997 ] ] ] } },
{ "type": "Feature", "properties": { "hex_id": 44121, "centroid_lon": -79.265421108809662, "centroid_lat": 47.275411505765412, "occurrences_today": 6, "datetimes_today": "2026-02-06 00:01:37, 2026-02-06 00:16:42, 2026-02-06 00:31:26, 2026-02-06 00:46:48, 2026-02-06 01:02:00, 2026-02-06 01:07:54", "cumulative_total": 37.0 }, "geometry": { "type": "Polygon", "coordinates": [ [ [ -79.265004079846165, 47.270230724328826 ], [ -79.27180466073527, 47.272575118109025 ], [ -79.272222387663064, 47.27775585145465 ], [ -79.265838254021276, 47.280592279687006 ], [ -79.259036858899393, 47.278247557560157 ], [ -79.258620411692817, 47.273066735615117 ], [ -79.265004079846165, 47.270230724328826 ] ] ] } },
{ "type": "Feature", "properties": { "hex_id": 44122, "centroid_lon": -79.266672893351782, "centroid_lat": 47.29095380498137, "occurrences_today": 6, "datetimes_today": "2026-02-06 00:01:37, 2026-02-06 00:16:42, 2026-02-06 00:31:26, 2026-02-06 00:46:48, 2026-02-06 01:02:00, 2026-02-06 01:07:54", "cumulative_total": 37.0 }, "geometry": { "type": "Polygon", "coordinates": [ [ [ -79.266255515521721, 47.285773046092658 ], [ -79.273058190895782, 47.288117295572789 ], [ -79.273476267282348, 47.293298006343356 ], [ -79.267090387552244, 47.296134556352158 ], [ -79.260286897230898, 47.293789978349935 ], [ -79.259870101627726, 47.288609178928539 ], [ -79.266255515521721, 47.285773046092658 ] ] ] } },
{ "type": "Feature", "properties": { "hex_id": 44123, "centroid_lon": -79.26792572522757, "centroid_lat": 47.30649603653611, "occurrences_today": 6, "datetimes_today": "2026-02-06 00:01:37, 2026-02-06 00:16:42, 2026-02-06 00:31:26, 2026-02-06 00:46:48, 2026-02-06 01:02:00, 2026-02-06 01:07:54", "cumulative_total": 37.0 }, "geometry": { "type": "Polygon", "coordinates": [ [ [ -79.267507998163893, 47.30131530020406 ], [ -79.27431276980019, 47.303659405302533 ], [ -79.274731196013221, 47.308840093489181 ], [ -79.26834356878409, 47.311676765347286 ], [ -79.261537981485176, 47.309332331551225 ], [ -79.261120837118838, 47.304151554662255 ], [ -79.267507998163893, 47.30131530020406 ] ] ] } },
{ "type": "Feature", "properties": { "hex_id": 44731, "centroid_lon": -79.25820408053707, "centroid_lat": 47.267885906164132, "occurrences_today": 6, "datetimes_today": "2026-02-06 00:01:37, 2026-02-06 00:16:42, 2026-02-06 00:31:26, 2026-02-06 00:46:48, 2026-02-06 01:02:00, 2026-02-06 01:07:54", "cumulative_total": 37.0 }, "geometry": { "type": "Polygon", "coordinates": [ [ [ -79.257787865391492, 47.262705069208195 ], [ -79.264587167090056, 47.265049935378237 ], [ -79.265004079846165, 47.270230724328826 ], [ -79.258620411692817, 47.273066735615117 ], [ -79.251820296353216, 47.270721541099213 ], [ -79.251404662848643, 47.265540663710382 ], [ -79.257787865391492, 47.262705069208195 ] ] ] } },
{ "type": "Feature", "properties": { "hex_id": 1146163, "centroid_lon": -67.149635115863774, "centroid_lat": 48.481180243048733, "occurrences_today": 6, "datetimes_today": "2026-02-06 00:01:37, 2026-02-06 00:16:42, 2026-02-06 00:31:26, 2026-02-06 00:46:48, 2026-02-06 01:02:00, 2026-02-06 01:07:54", "cumulative_total": 26.0 }, "geometry": { "type": "Polygon", "coordinates": [ [ [ -67.15043399532037, 48.476034885304884 ], [ -67.15673681790112, 48.479067357772323 ], [ -67.155938490917436, 48.484212790917425 ], [ -67.148836011268102, 48.486325586289261 ], [ -67.142532861393846, 48.483292654935347 ], [ -67.143332518381754, 48.478147387163233 ], [ -67.15043399532037, 48.476034885304884 ] ] ] } },
{ "type": "Feature", "properties": { "hex_id": 1147995, "centroid_lon": -67.128326695479117, "centroid_lat": 48.487516058176887, "occurrences_today": 6, "datetimes_today": "2026-02-06 00:01:37, 2026-02-06 00:16:42, 2026-02-06 00:31:26, 2026-02-06 00:46:48, 2026-02-06 01:02:00, 2026-02-06 01:07:54", "cumulative_total": 26.0 }, "geometry": { "type": "Polygon", "coordinates": [ [ [ -67.129127907954967, 48.482370970604698 ], [ -67.135430054572026, 48.485404593341592 ], [ -67.134629394326865, 48.490549756516543 ], [ -67.12752525719651, 48.492661131190815 ], [ -67.121222784195936, 48.489627049350702 ], [ -67.122024774628343, 48.48448205200669 ], [ -67.129127907954967, 48.482370970604698 ] ] ] } },
{ "type": "Feature", "properties": { "hex_id": 1149216, "centroid_lon": -67.114921089334061, "centroid_lat": 48.486592659742165, "occurrences_today": 6, "datetimes_today": "2026-02-06 00:01:37, 2026-02-06 00:16:42, 2026-02-06 00:31:26, 2026-02-06 00:46:48, 2026-02-06 01:02:00, 2026-02-06 01:07:54", "cumulative_total": 26.0 }, "geometry": { "type": "Polygon", "coordinates": [ [ [ -67.115723631693641, 48.481447738120529 ], [ -67.122024774628343, 48.48448205200669 ], [ -67.121222784195936, 48.489627049350702 ], [ -67.114118320803456, 48.491737566772457 ], [ -67.107816852153135, 48.488702793720591 ], [ -67.108620172529882, 48.483557962479807 ], [ -67.115723631693641, 48.481447738120529 ] ] ] } },
{ "type": "Feature", "properties": { "hex_id": 1151046, "centroid_lon": -67.098432583725838, "centroid_lat": 48.462053519140561, "occurrences_today": 6, "datetimes_today": "2026-02-06 00:01:37, 2026-02-06 00:16:42, 2026-02-06 00:31:26, 2026-02-06 00:46:48, 2026-02-06 01:02:00, 2026-02-06 01:07:54", "cumulative_total": 26.0 }, "geometry": { "type": "Polygon", "coordinates": [ [ [ -67.099236101231824, 48.456908781116482 ], [ -67.105533257973519, 48.459943789912458 ], [ -67.104730291303156, 48.465088603772053 ], [ -67.097628839867653, 48.46719824254032 ], [ -67.09133135868305, 48.46416277485325 ], [ -67.092135653295827, 48.459018127356082 ], [ -67.099236101231824, 48.456908781116482 ] ] ] } }
]
}
