{
"type": "FeatureCollection",
"name": "daily_2026-08-06",
"crs": { "type": "name", "properties": { "name": "urn:ogc:def:crs:OGC:1.3:CRS84" } },
"features": [
{ "type": "Feature", "properties": { "hex_id": 542819, "centroid_lon": -73.888582529984689, "centroid_lat": 46.094694610666636, "occurrences_today": 1, "datetimes_today": "2026-08-06 00:01:43", "cumulative_total": 113.0 }, "geometry": { "type": "Polygon", "coordinates": [ [ [ -73.888686894550446, 46.089499322467724 ], [ -73.89510149997831, 46.09215966773246 ], [ -73.894997728112756, 46.097354964771739 ], [ -73.888478136706254, 46.099889893938801 ], [ -73.882062967295752, 46.097229175206913 ], [ -73.882167953264613, 46.092033900841031 ], [ -73.888686894550446, 46.089499322467724 ] ] ] } },
{ "type": "Feature", "properties": { "hex_id": 543430, "centroid_lon": -73.88195795244242, "centroid_lat": 46.102424444643908, "occurrences_today": 1, "datetimes_today": "2026-08-06 00:01:43", "cumulative_total": 142.0 }, "geometry": { "type": "Polygon", "coordinates": [ [ [ -73.882062967295752, 46.097229175206913 ], [ -73.888478136706254, 46.099889893938801 ], [ -73.888373714705352, 46.105085172284177 ], [ -73.881852908694725, 46.107619709151976 ], [ -73.875437175331044, 46.104958616789737 ], [ -73.875542811921335, 46.099763361255953 ], [ -73.882062967295752, 46.097229175206913 ] ] ] } },
{ "type": "Feature", "properties": { "hex_id": 544040, "centroid_lon": -73.875648419455246, "centroid_lat": 46.094568100791143, "occurrences_today": 1, "datetimes_today": "2026-08-06 00:01:43", "cumulative_total": 218.0 }, "geometry": { "type": "Polygon", "coordinates": [ [ [ -73.875753997942695, 46.089372835395324 ], [ -73.882167953264613, 46.092033900841031 ], [ -73.882062967295752, 46.097229175206913 ], [ -73.875542811921335, 46.099763361255953 ], [ -73.869128293132249, 46.097101922220808 ], [ -73.869234493174844, 46.091906670791978 ], [ -73.875753997942695, 46.089372835395324 ] ] ] } },
{ "type": "Feature", "properties": { "hex_id": 544651, "centroid_lon": -73.869022063871299, "centroid_lat": 46.102297168716468, "occurrences_today": 1, "datetimes_today": "2026-08-06 00:01:43", "cumulative_total": 198.0 }, "geometry": { "type": "Polygon", "coordinates": [ [ [ -73.869128293132249, 46.097101922220808 ], [ -73.875542811921335, 46.099763361255953 ], [ -73.875437175331044, 46.104958616789737 ], [ -73.868915805382045, 46.10749241027893 ], [ -73.862500723155577, 46.104830597491166 ], [ -73.862607574305528, 46.099635365032725 ], [ -73.869128293132249, 46.097101922220808 ] ] ] } },
{ "type": "Feature", "properties": { "hex_id": 545261, "centroid_lon": -73.862714396065201, "centroid_lat": 46.094440127638961, "occurrences_today": 1, "datetimes_today": "2026-08-06 00:01:43", "cumulative_total": 218.0 }, "geometry": { "type": "Polygon", "coordinates": [ [ [ -73.862821188444627, 46.089244885309895 ], [ -73.869234493174844, 46.091906670791978 ], [ -73.869128293132249, 46.097101922220808 ], [ -73.862607574305528, 46.099635365032725 ], [ -73.856193706623756, 46.096973205839021 ], [ -73.856301120710228, 46.091777977610924 ], [ -73.862821188444627, 46.089244885309895 ] ] ] } },
{ "type": "Feature", "properties": { "hex_id": 498191, "centroid_lon": -74.371531723481823, "centroid_lat": 45.139578304672845, "occurrences_today": 1, "datetimes_today": "2026-08-06 00:01:43", "cumulative_total": 24.0 }, "geometry": { "type": "Polygon", "coordinates": [ [ [ -74.371588808126461, 45.134381477958243 ], [ -74.377919006879068, 45.137014705254401 ], [ -74.377862492058767, 45.142211535839586 ], [ -74.3714746233114, 45.144775126581642 ], [ -74.365143870262798, 45.142141542545438 ], [ -74.3652015402524, 45.136944724571009 ], [ -74.371588808126461, 45.134381477958243 ] ] ] } },
{ "type": "Feature", "properties": { "hex_id": 499412, "centroid_lon": -74.358813702716205, "centroid_lat": 45.139507609608053, "occurrences_today": 1, "datetimes_today": "2026-08-06 00:01:43", "cumulative_total": 25.0 }, "geometry": { "type": "Polygon", "coordinates": [ [ [ -74.358871942365326, 45.134310795630618 ], [ -74.3652015402524, 45.136944724571009 ], [ -74.365143870262798, 45.142141542545438 ], [ -74.358755447227196, 45.144704418777373 ], [ -74.352425295523091, 45.142070132974567 ], [ -74.352484120666347, 45.13687332786602 ], [ -74.358871942365326, 45.134310795630618 ] ] ] } },
{ "type": "Feature", "properties": { "hex_id": 61313, "centroid_lon": -79.203132815549353, "centroid_lat": 48.805333435818369, "occurrences_today": 1, "datetimes_today": "2026-08-06 00:01:43", "cumulative_total": 111.0 }, "geometry": { "type": "Polygon", "coordinates": [ [ [ -79.202699228827655, 48.800153620732978 ], [ -79.209706745818622, 48.802495284084074 ], [ -79.210141089959677, 48.8076750504027 ], [ -79.203566525905188, 48.810513243347728 ], [ -79.196558127838131, 48.808171231451091 ], [ -79.196125174946786, 48.802991375226604 ], [ -79.202699228827655, 48.800153620732978 ] ] ] } },
{ "type": "Feature", "properties": { "hex_id": 62534, "centroid_lon": -79.18955036379819, "centroid_lat": 48.805828773567136, "occurrences_today": 1, "datetimes_today": "2026-08-06 00:01:43", "cumulative_total": 32.0 }, "geometry": { "type": "Polygon", "coordinates": [ [ [ -79.189118168197112, 48.800648868728821 ], [ -79.196125174946786, 48.802991375226604 ], [ -79.196558127838131, 48.808171231451091 ], [ -79.189982682639865, 48.811008670867757 ], [ -79.182974795336818, 48.808665815640076 ], [ -79.182543233830444, 48.803485869797278 ], [ -79.189118168197112, 48.800648868728821 ] ] ] } },
{ "type": "Feature", "properties": { "hex_id": 572688, "centroid_lon": -73.58969234473085, "centroid_lat": 45.382057091249671, "occurrences_today": 1, "datetimes_today": "2026-08-06 00:01:43", "cumulative_total": 122.0 }, "geometry": { "type": "Polygon", "coordinates": [ [ [ -73.589821521548757, 45.376861749689205 ], [ -73.59614125294172, 45.379538082710063 ], [ -73.596012642919845, 45.384733435925625 ], [ -73.589563132687857, 45.387252427776019 ], [ -73.583242869729844, 45.384575727556076 ], [ -73.583372648557088, 45.379380402749049 ], [ -73.589821521548757, 45.376861749689205 ] ] ] } },
{ "type": "Feature", "properties": { "hex_id": 542818, "centroid_lon": -73.888895537583096, "centroid_lat": 46.079108731289743, "occurrences_today": 1, "datetimes_today": "2026-08-06 00:01:43", "cumulative_total": 136.0 }, "geometry": { "type": "Polygon", "coordinates": [ [ [ -73.888999816069543, 46.073913428310711 ], [ -73.895412644368477, 46.076573747066917 ], [ -73.89530895809645, 46.08176905888002 ], [ -73.888791230413318, 46.084304029342086 ], [ -73.882377838588198, 46.081643337322681 ], [ -73.882482737962604, 46.076448048170292 ], [ -73.888999816069543, 46.073913428310711 ] ] ] } },
{ "type": "Feature", "properties": { "hex_id": 543428, "centroid_lon": -73.88258760849186, "centroid_lat": 46.071252754089137, "occurrences_today": 1, "datetimes_today": "2026-08-06 00:01:43", "cumulative_total": 162.0 }, "geometry": { "type": "Polygon", "coordinates": [ [ [ -73.882692450185814, 46.066057455079253 ], [ -73.889104065882421, 46.068718120405073 ], [ -73.888999816069543, 46.073913428310711 ], [ -73.882482737962604, 46.076448048170292 ], [ -73.87607055922517, 46.073787009622137 ], [ -73.876176021625668, 46.06859172450261 ], [ -73.882692450185814, 46.066057455079253 ] ] ] } },
{ "type": "Feature", "properties": { "hex_id": 544649, "centroid_lon": -73.869659001360915, "centroid_lat": 46.071125615745622, "occurrences_today": 1, "datetimes_today": "2026-08-06 00:01:43", "cumulative_total": 115.0 }, "geometry": { "type": "Polygon", "coordinates": [ [ [ -73.869765055461087, 46.065930339651445 ], [ -73.876176021625668, 46.06859172450261 ], [ -73.87607055922517, 46.073787009622137 ], [ -73.869552918092154, 46.076320886906807 ], [ -73.863141389401477, 46.073659128711171 ], [ -73.863248064359979, 46.068463866641203 ], [ -73.869765055461087, 46.065930339651445 ] ] ] } },
{ "type": "Feature", "properties": { "hex_id": 780961, "centroid_lon": -71.320389886403163, "centroid_lat": 46.77353631714459, "occurrences_today": 1, "datetimes_today": "2026-08-06 00:01:43", "cumulative_total": 315.0 }, "geometry": { "type": "Polygon", "coordinates": [ [ [ -71.320743471586084, 46.768351395055355 ], [ -71.327102008349485, 46.771154064701676 ], [ -71.326748998858733, 46.776339021270395 ], [ -71.320036203261651, 46.778721232459588 ], [ -71.313677188781611, 46.775918157496221 ], [ -71.314031447581414, 46.77073327672732 ], [ -71.320743471586084, 46.768351395055355 ] ] ] } },
{ "type": "Feature", "properties": { "hex_id": 583075, "centroid_lon": -73.477598024737674, "centroid_lat": 45.513138240357442, "occurrences_today": 1, "datetimes_today": "2026-08-06 00:01:43", "cumulative_total": 308.0 }, "geometry": { "type": "Polygon", "coordinates": [ [ [ -73.477738104957879, 45.507943279090661 ], [ -73.484066868011325, 45.510625876078329 ], [ -73.483927356991344, 45.515820850138937 ], [ -73.477457906261051, 45.518333196541967 ], [ -73.471128612270221, 45.51565022965589 ], [ -73.471269299934207, 45.510455286329687 ], [ -73.477738104957879, 45.507943279090661 ] ] ] } },
{ "type": "Feature", "properties": { "hex_id": 582465, "centroid_lon": -73.483787807869035, "centroid_lat": 45.521015819120059, "occurrences_today": 1, "datetimes_today": "2026-08-06 00:01:43", "cumulative_total": 253.0 }, "geometry": { "type": "Polygon", "coordinates": [ [ [ -73.483927356991344, 45.515820850138937 ], [ -73.490257296708023, 45.518503115575299 ], [ -73.490118317107004, 45.523698097291238 ], [ -73.483648220631636, 45.52621078302154 ], [ -73.477317749515166, 45.523528147644129 ], [ -73.477457906261051, 45.518333196541967 ], [ -73.483927356991344, 45.515820850138937 ] ] ] } },
{ "type": "Feature", "properties": { "hex_id": 531784, "centroid_lon": -74.017648482993366, "centroid_lat": 45.378744669174786, "occurrences_today": 1, "datetimes_today": "2026-08-06 00:01:43", "cumulative_total": 314.0 }, "geometry": { "type": "Polygon", "coordinates": [ [ [ -74.017738455529525, 45.373548512897891 ], [ -74.024078408318957, 45.376201329039397 ], [ -74.023989008184131, 45.381397492735971 ], [ -74.017558485919821, 45.383940820564298 ], [ -74.011217985270548, 45.381287641297703 ], [ -74.011308554737212, 45.376091497392132 ], [ -74.017738455529525, 45.373548512897891 ] ] ] } },
{ "type": "Feature", "properties": { "hex_id": 355961, "centroid_lon": -75.857114127910648, "centroid_lat": 45.395343942257654, "occurrences_today": 1, "datetimes_today": "2026-08-06 00:01:43", "cumulative_total": 54.0 }, "geometry": { "type": "Polygon", "coordinates": [ [ [ -75.85703557939587, 45.39014761852588 ], [ -75.863461863033379, 45.392697673579868 ], [ -75.863541007515664, 45.397893986215443 ], [ -75.857192697852255, 45.400540261135063 ], [ -75.850765796816859, 45.397989861220758 ], [ -75.850687822849906, 45.392793531311511 ], [ -75.85703557939587, 45.39014761852588 ] ] ] } },
{ "type": "Feature", "properties": { "hex_id": 544650, "centroid_lon": -73.869340664009073, "centroid_lat": 46.086711414430006, "occurrences_today": 1, "datetimes_today": "2026-08-06 00:01:43", "cumulative_total": 196.0 }, "geometry": { "type": "Polygon", "coordinates": [ [ [ -73.869446805644856, 46.081516153134949 ], [ -73.87585954739356, 46.084177565068529 ], [ -73.875753997942695, 46.089372835395324 ], [ -73.869234493174844, 46.091906670791978 ], [ -73.862821188444627, 46.089244885309895 ], [ -73.862927951453813, 46.084049638045556 ], [ -73.869446805644856, 46.081516153134949 ] ] ] } },
{ "type": "Feature", "properties": { "hex_id": 545260, "centroid_lon": -73.863034685102761, "centroid_lat": 46.078854385845965, "occurrences_today": 1, "datetimes_today": "2026-08-06 00:01:43", "cumulative_total": 196.0 }, "geometry": { "type": "Polygon", "coordinates": [ [ [ -73.863141389401477, 46.073659128711171 ], [ -73.869552918092154, 46.076320886906807 ], [ -73.869446805644856, 46.081516153134949 ], [ -73.862927951453813, 46.084049638045556 ], [ -73.856515860266967, 46.081387506342388 ], [ -73.856623185757329, 46.076192263302005 ], [ -73.863141389401477, 46.073659128711171 ] ] ] } },
{ "type": "Feature", "properties": { "hex_id": 545871, "centroid_lon": -73.85640850525462, "centroid_lat": 46.086582744445359, "occurrences_today": 1, "datetimes_today": "2026-08-06 00:01:43", "cumulative_total": 196.0 }, "geometry": { "type": "Polygon", "coordinates": [ [ [ -73.856515860266967, 46.081387506342388 ], [ -73.862927951453813, 46.084049638045556 ], [ -73.862821188444627, 46.089244885309895 ], [ -73.856301120710228, 46.091777977610924 ], [ -73.849888467057283, 46.089115472237175 ], [ -73.849996443594762, 46.083920248298874 ], [ -73.856515860266967, 46.081387506342388 ] ] ] } },
{ "type": "Feature", "properties": { "hex_id": 546481, "centroid_lon": -73.85010439043846, "centroid_lat": 46.078725019420979, "occurrences_today": 1, "datetimes_today": "2026-08-06 00:01:43", "cumulative_total": 220.0 }, "geometry": { "type": "Polygon", "coordinates": [ [ [ -73.850212307598497, 46.073529785603533 ], [ -73.856623185757329, 46.076192263302005 ], [ -73.856515860266967, 46.081387506342388 ], [ -73.849996443594762, 46.083920248298874 ], [ -73.843585003454976, 46.081257396970884 ], [ -73.843693541958245, 46.076062177381779 ], [ -73.850212307598497, 46.073529785603533 ] ] ] } },
{ "type": "Feature", "properties": { "hex_id": 1011187, "centroid_lon": -68.740586962186441, "centroid_lat": 47.713734188302666, "occurrences_today": 1, "datetimes_today": "2026-08-06 00:01:43", "cumulative_total": 40.0 }, "geometry": { "type": "Polygon", "coordinates": [ [ [ -68.741207739278551, 47.708570405774573 ], [ -68.747523342412634, 47.711514951909827 ], [ -68.746903125324593, 47.716678794270727 ], [ -68.739966011530342, 47.718897960032457 ], [ -68.733650021986804, 47.715952976178876 ], [ -68.734271532585737, 47.71078926434889 ], [ -68.741207739278551, 47.708570405774573 ] ] ] } },
{ "type": "Feature", "properties": { "hex_id": 1011798, "centroid_lon": -68.733028337615536, "centroid_lat": 47.72111667719674, "occurrences_today": 1, "datetimes_today": "2026-08-06 00:01:43", "cumulative_total": 40.0 }, "geometry": { "type": "Polygon", "coordinates": [ [ [ -68.733650021986804, 47.715952976178876 ], [ -68.739966011530342, 47.718897960032457 ], [ -68.739344887249004, 47.72406172096175 ], [ -68.732406479410642, 47.726280367400228 ], [ -68.726090103641482, 47.723334945671283 ], [ -68.726712521874987, 47.718171315446241 ], [ -68.733650021986804, 47.715952976178876 ] ] ] } },
{ "type": "Feature", "properties": { "hex_id": 1012408, "centroid_lon": -68.727334766127768, "centroid_lat": 47.713007674395172, "occurrences_today": 1, "datetimes_today": "2026-08-06 00:01:43", "cumulative_total": 40.0 }, "geometry": { "type": "Polygon", "coordinates": [ [ [ -68.727956836461232, 47.707844022520327 ], [ -68.734271532585737, 47.71078926434889 ], [ -68.733650021986804, 47.715952976178876 ], [ -68.726712521874987, 47.718171315446241 ], [ -68.72039743996595, 47.715225635821213 ], [ -68.7210202438919, 47.710062054792267 ], [ -68.727956836461232, 47.707844022520327 ] ] ] } },
{ "type": "Feature", "properties": { "hex_id": 1013018, "centroid_lon": -68.72164287375162, "centroid_lat": 47.704898462927893, "occurrences_today": 1, "datetimes_today": "2026-08-06 00:01:43", "cumulative_total": 40.0 }, "geometry": { "type": "Polygon", "coordinates": [ [ [ -68.722265329606444, 47.699734860230336 ], [ -68.728578732936697, 47.702680359823937 ], [ -68.727956836461232, 47.707844022520327 ], [ -68.7210202438919, 47.710062054792267 ], [ -68.714706455217865, 47.707116117481092 ], [ -68.715329644395567, 47.701952585682491 ], [ -68.722265329606444, 47.699734860230336 ] ] ] } },
{ "type": "Feature", "properties": { "hex_id": 1013019, "centroid_lon": -68.719774461912309, "centroid_lat": 47.720389206012484, "occurrences_today": 1, "datetimes_today": "2026-08-06 00:01:43", "cumulative_total": 40.0 }, "geometry": { "type": "Polygon", "coordinates": [ [ [ -68.72039743996595, 47.715225635821213 ], [ -68.726712521874987, 47.718171315446241 ], [ -68.726090103641482, 47.723334945671283 ], [ -68.719151309669556, 47.725552765363872 ], [ -68.712835842160203, 47.722606647785426 ], [ -68.713459554161659, 47.717443148534805 ], [ -68.72039743996595, 47.715225635821213 ] ] ] } },
{ "type": "Feature", "properties": { "hex_id": 1013628, "centroid_lon": -68.715952659421561, "centroid_lat": 47.696789043039054, "occurrences_today": 1, "datetimes_today": "2026-08-06 00:01:43", "cumulative_total": 40.0 }, "geometry": { "type": "Polygon", "coordinates": [ [ [ -68.71657550035728, 47.691625489552976 ], [ -68.722887611517734, 47.694571246701805 ], [ -68.722265329606444, 47.699734860230336 ], [ -68.715329644395567, 47.701952585682491 ], [ -68.709017148331668, 47.699006390895015 ], [ -68.7096407223207, 47.693842908360949 ], [ -68.71657550035728, 47.691625489552976 ] ] ] } },
{ "type": "Feature", "properties": { "hex_id": 1013629, "centroid_lon": -68.714083091827035, "centroid_lat": 47.712279638432612, "occurrences_today": 1, "datetimes_today": "2026-08-06 00:01:43", "cumulative_total": 40.0 }, "geometry": { "type": "Polygon", "coordinates": [ [ [ -68.714706455217865, 47.707116117481092 ], [ -68.7210202438919, 47.710062054792267 ], [ -68.72039743996595, 47.715225635821213 ], [ -68.713459554161659, 47.717443148534805 ], [ -68.707145380328072, 47.714496773349168 ], [ -68.707769477396823, 47.709333323391363 ], [ -68.714706455217865, 47.707116117481092 ] ] ] } },
{ "type": "Feature", "properties": { "hex_id": 1014238, "centroid_lon": -68.710264122072758, "centroid_lat": 47.68867941497264, "occurrences_today": 1, "datetimes_today": "2026-08-06 00:01:43", "cumulative_total": 40.0 }, "geometry": { "type": "Polygon", "coordinates": [ [ [ -68.710887347649248, 47.683515910732289 ], [ -68.717198167264058, 47.686461925226574 ], [ -68.71657550035728, 47.691625489552976 ], [ -68.7096407223207, 47.693842908360949 ], [ -68.703329518242455, 47.690896456306916 ], [ -68.70395347660282, 47.685733023071577 ], [ -68.710887347649248, 47.683515910732289 ] ] ] } },
{ "type": "Feature", "properties": { "hex_id": 1014239, "centroid_lon": -68.708393400044201, "centroid_lat": 47.704169862572563, "occurrences_today": 1, "datetimes_today": "2026-08-06 00:01:43", "cumulative_total": 40.0 }, "geometry": { "type": "Polygon", "coordinates": [ [ [ -68.709017148331668, 47.699006390895015 ], [ -68.715329644395567, 47.701952585682491 ], [ -68.714706455217865, 47.707116117481092 ], [ -68.707769477396823, 47.709333323391363 ], [ -68.701456596613795, 47.706386690808408 ], [ -68.702081078309448, 47.701223290177587 ], [ -68.709017148331668, 47.699006390895015 ] ] ] } },
{ "type": "Feature", "properties": { "hex_id": 1014849, "centroid_lon": -68.70270538549849, "centroid_lat": 47.696059878676344, "occurrences_today": 1, "datetimes_today": "2026-08-06 00:01:43", "cumulative_total": 40.0 }, "geometry": { "type": "Polygon", "coordinates": [ [ [ -68.703329518242455, 47.690896456306916 ], [ -68.7096407223207, 47.693842908360949 ], [ -68.709017148331668, 47.699006390895015 ], [ -68.702081078309448, 47.701223290177587 ], [ -68.695769489952113, 47.69827640040706 ], [ -68.69639435583457, 47.693113049137338 ], [ -68.703329518242455, 47.690896456306916 ] ] ] } },
{ "type": "Feature", "properties": { "hex_id": 1106497, "centroid_lon": -67.547979858172582, "centroid_lat": 48.765200374016494, "occurrences_today": 1, "datetimes_today": "2026-08-06 00:01:43", "cumulative_total": 38.0 }, "geometry": { "type": "Polygon", "coordinates": [ [ [ -67.548746040642101, 48.760050456573524 ], [ -67.555109221173296, 48.763063889942728 ], [ -67.554343608230809, 48.768213879565366 ], [ -67.547213458630026, 48.770350277836258 ], [ -67.540849925684043, 48.767336383629235 ], [ -67.541616894675144, 48.762186552057528 ], [ -67.548746040642101, 48.760050456573524 ] ] ] } },
{ "type": "Feature", "properties": { "hex_id": 1106498, "centroid_lon": -67.5456800080118, "centroid_lat": 48.78065004459279, "occurrences_today": 1, "datetimes_today": "2026-08-06 00:01:43", "cumulative_total": 38.0 }, "geometry": { "type": "Polygon", "coordinates": [ [ [ -67.546446841935946, 48.775500168029474 ], [ -67.552811731492426, 48.778513817980404 ], [ -67.5520454675396, 48.783663766766153 ], [ -67.544912956779029, 48.785799907522872 ], [ -67.538547714599176, 48.78278579648601 ], [ -67.539315335724652, 48.777636005846816 ], [ -67.546446841935946, 48.775500168029474 ] ] ] } },
{ "type": "Feature", "properties": { "hex_id": 1107108, "centroid_lon": -67.540082739393412, "centroid_lat": 48.772486201560113, "occurrences_today": 1, "datetimes_today": "2026-08-06 00:01:43", "cumulative_total": 38.0 }, "geometry": { "type": "Polygon", "coordinates": [ [ [ -67.540849925684043, 48.767336383629235 ], [ -67.547213458630026, 48.770350277836258 ], [ -67.546446841935946, 48.775500168029474 ], [ -67.539315335724652, 48.777636005846816 ], [ -67.532951450599541, 48.774621650644079 ], [ -67.533719423786252, 48.769471918688112 ], [ -67.540849925684043, 48.767336383629235 ] ] ] } },
{ "type": "Feature", "properties": { "hex_id": 1107109, "centroid_lon": -67.537779875938298, "centroid_lat": 48.787935573474357, "occurrences_today": 1, "datetimes_today": "2026-08-06 00:01:43", "cumulative_total": 38.0 }, "geometry": { "type": "Polygon", "coordinates": [ [ [ -67.538547714599176, 48.78278579648601 ], [ -67.544912956779029, 48.785799907522872 ], [ -67.544145688158991, 48.790949756816374 ], [ -67.537011819663334, 48.793085336808481 ], [ -67.530646225096078, 48.790070764527748 ], [ -67.531414851333182, 48.784921073567254 ], [ -67.538547714599176, 48.78278579648601 ] ] ] } },
{ "type": "Feature", "properties": { "hex_id": 1107718, "centroid_lon": -67.53448717944687, "centroid_lat": 48.764322173073701, "occurrences_today": 1, "datetimes_today": "2026-08-06 00:01:43", "cumulative_total": 38.0 }, "geometry": { "type": "Polygon", "coordinates": [ [ [ -67.535254717660038, 48.75917241380418 ], [ -67.541616894675144, 48.762186552057528 ], [ -67.540849925684043, 48.767336383629235 ], [ -67.533719423786252, 48.769471918688112 ], [ -67.527356895035823, 48.766457319529344 ], [ -67.528125219839907, 48.761307646285502 ], [ -67.535254717660038, 48.75917241380418 ] ] ] } },
{ "type": "Feature", "properties": { "hex_id": 1113210, "centroid_lon": -67.479575149297162, "centroid_lat": 48.721732701802161, "occurrences_today": 1, "datetimes_today": "2026-08-06 00:01:43", "cumulative_total": 45.0 }, "geometry": { "type": "Polygon", "coordinates": [ [ [ -67.480347144472617, 48.716583554352724 ], [ -67.486700546013012, 48.719600315768197 ], [ -67.485929117581819, 48.724749535962928 ], [ -67.478802935583644, 48.726881835477819 ], [ -67.472449185876499, 48.72386461347412 ], [ -67.473221966255394, 48.71871555261194 ], [ -67.480347144472617, 48.716583554352724 ] ] ] } },
{ "type": "Feature", "properties": { "hex_id": 548282, "centroid_lon": -73.840626322378768, "centroid_lat": 45.603147104965856, "occurrences_today": 1, "datetimes_today": "2026-08-06 00:01:43", "cumulative_total": 113.0 }, "geometry": { "type": "Polygon", "coordinates": [ [ [ -73.840733339848768, 45.597951454213934 ], [ -73.847089805231747, 45.600614158397001 ], [ -73.846983364599737, 45.60580981836889 ], [ -73.840519275645732, 45.608342750775442 ], [ -73.834162262692715, 45.605679678953699 ], [ -73.834269886253907, 45.60048404242881 ], [ -73.840733339848768, 45.597951454213934 ] ] ] } },
{ "type": "Feature", "properties": { "hex_id": 446383, "centroid_lon": -74.909981897033234, "centroid_lat": 46.458593456907671, "occurrences_today": 1, "datetimes_today": "2026-08-06 00:01:43", "cumulative_total": 232.0 }, "geometry": { "type": "Polygon", "coordinates": [ [ [ -74.909990458441783, 46.453397528327798 ], [ -74.916497115777361, 46.456000432088658 ], [ -74.916489172538547, 46.461196359187845 ], [ -74.909973333257796, 46.463789380744196 ], [ -74.903466060119797, 46.461186108936708 ], [ -74.903475242064161, 46.455990183686417 ], [ -74.909990458441783, 46.453397528327798 ] ] ] } },
{ "type": "Feature", "properties": { "hex_id": 1107107, "centroid_lon": -67.542383646445259, "centroid_lat": 48.757036706848332, "occurrences_today": 1, "datetimes_today": "2026-08-06 00:01:43", "cumulative_total": 30.0 }, "geometry": { "type": "Polygon", "coordinates": [ [ [ -67.543150181072917, 48.751886848004979 ], [ -67.54951200611707, 48.754900525510642 ], [ -67.548746040642101, 48.760050456573524 ], [ -67.541616894675144, 48.762186552057528 ], [ -67.535254717660038, 48.75917241380418 ], [ -67.536022038504356, 48.754022640882901 ], [ -67.543150181072917, 48.751886848004979 ] ] ] } },
{ "type": "Feature", "properties": { "hex_id": 1107717, "centroid_lon": -67.536789142058367, "centroid_lat": 48.748872854313184, "occurrences_today": 1, "datetimes_today": "2026-08-06 00:01:43", "cumulative_total": 30.0 }, "geometry": { "type": "Polygon", "coordinates": [ [ [ -67.537556028400573, 48.743723054098417 ], [ -67.543916498636548, 48.746736975530823 ], [ -67.543150181072917, 48.751886848004979 ], [ -67.536022038504356, 48.754022640882901 ], [ -67.529661216740848, 48.751008258792979 ], [ -67.530428888994948, 48.745858544551012 ], [ -67.537556028400573, 48.743723054098417 ] ] ] } },
{ "type": "Feature", "properties": { "hex_id": 1108328, "centroid_lon": -67.528893327048706, "centroid_lat": 48.75615795937226, "occurrences_today": 1, "datetimes_today": "2026-08-06 00:01:43", "cumulative_total": 30.0 }, "geometry": { "type": "Polygon", "coordinates": [ [ [ -67.529661216740848, 48.751008258792979 ], [ -67.536022038504356, 48.754022640882901 ], [ -67.535254717660038, 48.75917241380418 ], [ -67.528125219839907, 48.761307646285502 ], [ -67.521764046784526, 48.758292803380378 ], [ -67.522532722762548, 48.753143188877509 ], [ -67.529661216740848, 48.751008258792979 ] ] ] } },
{ "type": "Feature", "properties": { "hex_id": 543429, "centroid_lon": -73.882272910358807, "centroid_lat": 46.086838621546271, "occurrences_today": 1, "datetimes_today": "2026-08-06 00:01:43", "cumulative_total": 179.0 }, "geometry": { "type": "Polygon", "coordinates": [ [ [ -73.882377838588198, 46.081643337322681 ], [ -73.888791230413318, 46.084304029342086 ], [ -73.888686894550446, 46.089499322467724 ], [ -73.882167953264613, 46.092033900841031 ], [ -73.875753997942695, 46.089372835395324 ], [ -73.87585954739356, 46.084177565068529 ], [ -73.882377838588198, 46.081643337322681 ] ] ] } },
{ "type": "Feature", "properties": { "hex_id": 1112600, "centroid_lon": -67.485157470759589, "centroid_lat": 48.729898742398213, "occurrences_today": 1, "datetimes_today": "2026-08-06 00:01:43", "cumulative_total": 45.0 }, "geometry": { "type": "Polygon", "coordinates": [ [ [ -67.485929117581819, 48.724749535962928 ], [ -67.492283871188235, 48.727766054978638 ], [ -67.491512791483245, 48.732915334119625 ], [ -67.484385605467423, 48.735047935070661 ], [ -67.478030503253123, 48.732030955376324 ], [ -67.478802935583644, 48.726881835477819 ], [ -67.485929117581819, 48.724749535962928 ] ] ] } },
{ "type": "Feature", "properties": { "hex_id": 1108939, "centroid_lon": -67.520995153063467, "centroid_lat": 48.763442404199559, "occurrences_today": 1, "datetimes_today": "2026-08-06 00:01:43", "cumulative_total": 28.0 }, "geometry": { "type": "Polygon", "coordinates": [ [ [ -67.521764046784526, 48.758292803380378 ], [ -67.528125219839907, 48.761307646285502 ], [ -67.527356895035823, 48.766457319529344 ], [ -67.520226041520672, 48.768591991331675 ], [ -67.513864517409445, 48.765576687453688 ], [ -67.514634197790485, 48.760427172814587 ], [ -67.521764046784526, 48.758292803380378 ] ] ] } },
{ "type": "Feature", "properties": { "hex_id": 1109549, "centroid_lon": -67.515403660202054, "centroid_lat": 48.755277644474134, "occurrences_today": 1, "datetimes_today": "2026-08-06 00:01:43", "cumulative_total": 28.0 }, "geometry": { "type": "Polygon", "coordinates": [ [ [ -67.516172904722922, 48.750128102435681 ], [ -67.522532722762548, 48.753143188877509 ], [ -67.521764046784526, 48.758292803380378 ], [ -67.514634197790485, 48.760427172814587 ], [ -67.508274029138079, 48.757411625490185 ], [ -67.509044060013764, 48.752262169682496 ], [ -67.516172904722922, 48.750128102435681 ] ] ] } },
{ "type": "Feature", "properties": { "hex_id": 1109550, "centroid_lon": -67.513094618980119, "centroid_lat": 48.770726188388075, "occurrences_today": 1, "datetimes_today": "2026-08-06 00:01:43", "cumulative_total": 28.0 }, "geometry": { "type": "Polygon", "coordinates": [ [ [ -67.513864517409445, 48.765576687453688 ], [ -67.520226041520672, 48.768591991331675 ], [ -67.519456712077343, 48.773741564773417 ], [ -67.512324502423695, 48.775875675614365 ], [ -67.505962627493034, 48.772859910605746 ], [ -67.506733312956584, 48.767710495955171 ], [ -67.513864517409445, 48.765576687453688 ] ] ] } },
{ "type": "Feature", "properties": { "hex_id": 1110160, "centroid_lon": -67.507503780145313, "centroid_lat": 48.76256106758219, "occurrences_today": 1, "datetimes_today": "2026-08-06 00:01:43", "cumulative_total": 28.0 }, "geometry": { "type": "Polygon", "coordinates": [ [ [ -67.508274029138079, 48.757411625490185 ], [ -67.514634197790485, 48.760427172814587 ], [ -67.513864517409445, 48.765576687453688 ], [ -67.506733312956584, 48.767710495955171 ], [ -67.500372793927838, 48.764694487590582 ], [ -67.501143829649436, 48.759545131833043 ], [ -67.508274029138079, 48.757411625490185 ] ] ] } },
{ "type": "Feature", "properties": { "hex_id": 1110770, "centroid_lon": -67.501914647027476, "centroid_lat": 48.754395762342135, "occurrences_today": 1, "datetimes_today": "2026-08-06 00:01:43", "cumulative_total": 28.0 }, "geometry": { "type": "Polygon", "coordinates": [ [ [ -67.502685246140899, 48.749246379121239 ], [ -67.509044060013764, 48.752262169682496 ], [ -67.508274029138079, 48.757411625490185 ], [ -67.501143829649436, 48.759545131833043 ], [ -67.4947846658429, 48.756528880321973 ], [ -67.495556051379808, 48.751379583486177 ], [ -67.502685246140899, 48.749246379121239 ] ] ] } },
{ "type": "Feature", "properties": { "hex_id": 1111380, "centroid_lon": -67.496327218504632, "centroid_lat": 48.746230272906075, "occurrences_today": 1, "datetimes_today": "2026-08-06 00:01:43", "cumulative_total": 28.0 }, "geometry": { "type": "Polygon", "coordinates": [ [ [ -67.49709816729623, 48.741080948585036 ], [ -67.503455627068519, 48.744096982173737 ], [ -67.502685246140899, 48.749246379121239 ], [ -67.495556051379808, 48.751379583486177 ], [ -67.489198242116203, 48.748363089038072 ], [ -67.489969977026107, 48.743213851152717 ], [ -67.49709816729623, 48.741080948585036 ] ] ] } },
{ "type": "Feature", "properties": { "hex_id": 1111991, "centroid_lon": -67.488426288646792, "centroid_lat": 48.753512313164769, "occurrences_today": 1, "datetimes_today": "2026-08-06 00:01:43", "cumulative_total": 28.0 }, "geometry": { "type": "Polygon", "coordinates": [ [ [ -67.489198242116203, 48.748363089038072 ], [ -67.495556051379808, 48.751379583486177 ], [ -67.4947846658429, 48.756528880321973 ], [ -67.487654116538948, 48.75866152352944 ], [ -67.481295958020795, 48.755644568064461 ], [ -67.482068697982143, 48.75049543047718 ], [ -67.489198242116203, 48.748363089038072 ] ] ] } },
{ "type": "Feature", "properties": { "hex_id": 1112601, "centroid_lon": -67.482841219157677, "centroid_lat": 48.745346279113534, "occurrences_today": 1, "datetimes_today": "2026-08-06 00:01:43", "cumulative_total": 28.0 }, "geometry": { "type": "Polygon", "coordinates": [ [ [ -67.483613521626438, 48.74019711397689 ], [ -67.489969977026107, 48.743213851152717 ], [ -67.489198242116203, 48.748363089038072 ], [ -67.482068697982143, 48.75049543047718 ], [ -67.475711893769883, 48.747478232374952 ], [ -67.476484982425262, 48.742329153828287 ], [ -67.483613521626438, 48.74019711397689 ] ] ] } },
{ "type": "Feature", "properties": { "hex_id": 1113211, "centroid_lon": -67.477257852226671, "centroid_lat": 48.737180061494286, "occurrences_today": 1, "datetimes_today": "2026-08-06 00:01:43", "cumulative_total": 28.0 }, "geometry": { "type": "Polygon", "coordinates": [ [ [ -67.478030503253123, 48.732030955376324 ], [ -67.484385605467423, 48.735047935070661 ], [ -67.483613521626438, 48.74019711397689 ], [ -67.476484982425262, 48.742329153828287 ], [ -67.470129531839945, 48.739311713298044 ], [ -67.470902968747808, 48.734162693820565 ], [ -67.478030503253123, 48.732030955376324 ] ] ] } },
{ "type": "Feature", "properties": { "hex_id": 1113821, "centroid_lon": -67.471676186733632, "centroid_lat": 48.729013660544801, "occurrences_today": 1, "datetimes_today": "2026-08-06 00:01:43", "cumulative_total": 28.0 }, "geometry": { "type": "Polygon", "coordinates": [ [ [ -67.472449185876499, 48.72386461347412 ], [ -67.478802935583644, 48.726881835477819 ], [ -67.478030503253123, 48.732030955376324 ], [ -67.470902968747808, 48.734162693820565 ], [ -67.464548871110807, 48.731145011071412 ], [ -67.465322655829965, 48.725996050691698 ], [ -67.472449185876499, 48.72386461347412 ] ] ] } },
{ "type": "Feature", "properties": { "hex_id": 1114432, "centroid_lon": -67.463774867322613, "centroid_lat": 48.736293957638466, "occurrences_today": 1, "datetimes_today": "2026-08-06 00:01:43", "cumulative_total": 28.0 }, "geometry": { "type": "Polygon", "coordinates": [ [ [ -67.464548871110807, 48.731145011071412 ], [ -67.470902968747808, 48.734162693820565 ], [ -67.470129531839945, 48.739311713298044 ], [ -67.463000644386298, 48.741442890389472 ], [ -67.456646199056692, 48.738424746737614 ], [ -67.457420988794183, 48.733275886965259 ], [ -67.464548871110807, 48.731145011071412 ] ] ] } },
{ "type": "Feature", "properties": { "hex_id": 1115042, "centroid_lon": -67.4581955592366, "centroid_lat": 48.728127013362489, "occurrences_today": 1, "datetimes_today": "2026-08-06 00:01:43", "cumulative_total": 28.0 }, "geometry": { "type": "Polygon", "coordinates": [ [ [ -67.458969910463082, 48.72297812593267 ], [ -67.465322655829965, 48.725996050691698 ], [ -67.464548871110807, 48.731145011071412 ], [ -67.457420988794183, 48.733275886965259 ], [ -67.451067896175488, 48.7302575013941 ], [ -67.451843033046046, 48.725108700809415 ], [ -67.458969910463082, 48.72297812593267 ] ] ] } },
{ "type": "Feature", "properties": { "hex_id": 1115652, "centroid_lon": -67.452617950553886, "centroid_lat": 48.719959886383336, "occurrences_today": 1, "datetimes_today": "2026-08-06 00:01:43", "cumulative_total": 28.0 }, "geometry": { "type": "Polygon", "coordinates": [ [ [ -67.453392648778149, 48.714811058119246 ], [ -67.459744042552771, 48.717829224679228 ], [ -67.458969910463082, 48.72297812593267 ], [ -67.451843033046046, 48.725108700809415 ], [ -67.445491292460005, 48.722090073527838 ], [ -67.446266776023251, 48.716941332159273 ], [ -67.453392648778149, 48.714811058119246 ] ] ] } },
{ "type": "Feature", "properties": { "hex_id": 545870, "centroid_lon": -73.856730481735781, "centroid_lat": 46.070997015324274, "occurrences_today": 1, "datetimes_today": "2026-08-06 00:01:43", "cumulative_total": 95.0 }, "geometry": { "type": "Polygon", "coordinates": [ [ [ -73.856837748212357, 46.06580176240923 ], [ -73.863248064359979, 46.068463866641203 ], [ -73.863141389401477, 46.073659128711171 ], [ -73.856623185757329, 46.076192263302005 ], [ -73.850212307598497, 46.073529785603533 ], [ -73.85032019508499, 46.068334546846579 ], [ -73.856837748212357, 46.06580176240923 ] ] ] } },
{ "type": "Feature", "properties": { "hex_id": 544039, "centroid_lon": -73.875965067817759, "centroid_lat": 46.078982289810789, "occurrences_today": 1, "datetimes_today": "2026-08-06 00:01:43", "cumulative_total": 91.0 }, "geometry": { "type": "Polygon", "coordinates": [ [ [ -73.87607055922517, 46.073787009622137 ], [ -73.882482737962604, 46.076448048170292 ], [ -73.882377838588198, 46.081643337322681 ], [ -73.87585954739356, 46.084177565068529 ], [ -73.869446805644856, 46.081516153134949 ], [ -73.869552918092154, 46.076320886906807 ], [ -73.87607055922517, 46.073787009622137 ] ] ] } },
{ "type": "Feature", "properties": { "hex_id": 1107719, "centroid_lon": -67.532183259808093, "centroid_lat": 48.779771368938242, "occurrences_today": 1, "datetimes_today": "2026-08-06 00:01:43", "cumulative_total": 25.0 }, "geometry": { "type": "Polygon", "coordinates": [ [ [ -67.532951450599541, 48.774621650644079 ], [ -67.539315335724652, 48.777636005846816 ], [ -67.538547714599176, 48.78278579648601 ], [ -67.531414851333182, 48.784921073567254 ], [ -67.525050614264913, 48.781906257210977 ], [ -67.525819592327053, 48.776756624995429 ], [ -67.532951450599541, 48.774621650644079 ] ] ] } },
{ "type": "Feature", "properties": { "hex_id": 1108329, "centroid_lon": -67.526588352557781, "centroid_lat": 48.77160697910044, "occurrences_today": 1, "datetimes_today": "2026-08-06 00:01:43", "cumulative_total": 25.0 }, "geometry": { "type": "Polygon", "coordinates": [ [ [ -67.527356895035823, 48.766457319529344 ], [ -67.533719423786252, 48.769471918688112 ], [ -67.532951450599541, 48.774621650644079 ], [ -67.525819592327053, 48.776756624995429 ], [ -67.519456712077343, 48.773741564773417 ], [ -67.520226041520672, 48.768591991331675 ], [ -67.527356895035823, 48.766457319529344 ] ] ] } },
{ "type": "Feature", "properties": { "hex_id": 1108938, "centroid_lon": -67.523301181076206, "centroid_lat": 48.747993560694312, "occurrences_today": 1, "datetimes_today": "2026-08-06 00:01:43", "cumulative_total": 25.0 }, "geometry": { "type": "Polygon", "coordinates": [ [ [ -67.524069421804157, 48.742843918834147 ], [ -67.530428888994948, 48.745858544551012 ], [ -67.529661216740848, 48.751008258792979 ], [ -67.522532722762548, 48.753143188877509 ], [ -67.516172904722922, 48.750128102435681 ], [ -67.516941931431816, 48.744978546702633 ], [ -67.524069421804157, 48.742843918834147 ] ] ] } },
{ "type": "Feature", "properties": { "hex_id": 1109548, "centroid_lon": -67.517710740407409, "centroid_lat": 48.739828977278293, "occurrences_today": 1, "datetimes_today": "2026-08-06 00:01:43", "cumulative_total": 25.0 }, "geometry": { "type": "Polygon", "coordinates": [ [ [ -67.518479331728344, 48.734679394166072 ], [ -67.524837445024971, 48.737694263300362 ], [ -67.524069421804157, 48.742843918834147 ], [ -67.516941931431816, 48.744978546702633 ], [ -67.51058346772902, 48.74196321693362 ], [ -67.511352844726119, 48.736813719999155 ], [ -67.518479331728344, 48.734679394166072 ] ] ] } },
{ "type": "Feature", "properties": { "hex_id": 1110158, "centroid_lon": -67.512122003921093, "centroid_lat": 48.731664209362521, "occurrences_today": 1, "datetimes_today": "2026-08-06 00:01:43", "cumulative_total": 25.0 }, "geometry": { "type": "Polygon", "coordinates": [ [ [ -67.512890945392627, 48.726514685026999 ], [ -67.519247705473248, 48.729529797369288 ], [ -67.518479331728344, 48.734679394166072 ], [ -67.511352844726119, 48.736813719999155 ], [ -67.504995734681629, 48.733798147112395 ], [ -67.505765461524618, 48.728648709005292 ], [ -67.512890945392627, 48.726514685026999 ] ] ] } },
{ "type": "Feature", "properties": { "hex_id": 1110159, "centroid_lon": -67.509813872851154, "centroid_lat": 48.747112700162518, "occurrences_today": 1, "datetimes_today": "2026-08-06 00:01:43", "cumulative_total": 25.0 }, "geometry": { "type": "Polygon", "coordinates": [ [ [ -67.51058346772902, 48.74196321693362 ], [ -67.516941931431816, 48.744978546702633 ], [ -67.516172904722922, 48.750128102435681 ], [ -67.509044060013764, 48.752262169682496 ], [ -67.502685246140899, 48.749246379121239 ], [ -67.503455627068519, 48.744096982173737 ], [ -67.51058346772902, 48.74196321693362 ] ] ] } },
{ "type": "Feature", "properties": { "hex_id": 1110769, "centroid_lon": -67.504225789889162, "centroid_lat": 48.738947571502997, "occurrences_today": 1, "datetimes_today": "2026-08-06 00:01:43", "cumulative_total": 25.0 }, "geometry": { "type": "Polygon", "coordinates": [ [ [ -67.504995734681629, 48.733798147112395 ], [ -67.511352844726119, 48.736813719999155 ], [ -67.51058346772902, 48.74196321693362 ], [ -67.503455627068519, 48.744096982173737 ], [ -67.49709816729623, 48.741080948585036 ], [ -67.497868897833513, 48.735931610526443 ], [ -67.504995734681629, 48.733798147112395 ] ] ] } },
{ "type": "Feature", "properties": { "hex_id": 1111379, "centroid_lon": -67.498639410195253, "centroid_lat": 48.730782258733683, "occurrences_today": 1, "datetimes_today": "2026-08-06 00:01:43", "cumulative_total": 25.0 }, "geometry": { "type": "Polygon", "coordinates": [ [ [ -67.499409704460248, 48.725632893210097 ], [ -67.505765461524618, 48.728648709005292 ], [ -67.504995734681629, 48.733798147112395 ], [ -67.497868897833513, 48.735931610526443 ], [ -67.491512791483245, 48.732915334119625 ], [ -67.492283871188235, 48.727766054978638 ], [ -67.499409704460248, 48.725632893210097 ] ] ] } },
{ "type": "Feature", "properties": { "hex_id": 1111989, "centroid_lon": -67.493054732649298, "centroid_lat": 48.722616762092542, "occurrences_today": 1, "datetimes_today": "2026-08-06 00:01:43", "cumulative_total": 25.0 }, "geometry": { "type": "Polygon", "coordinates": [ [ [ -67.493825375945192, 48.717467455464671 ], [ -67.500179780707242, 48.720483513959081 ], [ -67.499409704460248, 48.725632893210097 ], [ -67.492283871188235, 48.727766054978638 ], [ -67.485929117581819, 48.724749535962928 ], [ -67.486700546013012, 48.719600315768197 ], [ -67.493825375945192, 48.717467455464671 ] ] ] } },
{ "type": "Feature", "properties": { "hex_id": 1111990, "centroid_lon": -67.490741493455488, "centroid_lat": 48.7380645995121, "occurrences_today": 1, "datetimes_today": "2026-08-06 00:01:43", "cumulative_total": 25.0 }, "geometry": { "type": "Polygon", "coordinates": [ [ [ -67.491512791483245, 48.732915334119625 ], [ -67.497868897833513, 48.735931610526443 ], [ -67.49709816729623, 48.741080948585036 ], [ -67.489969977026107, 48.743213851152717 ], [ -67.483613521626438, 48.74019711397689 ], [ -67.484385605467423, 48.735047935070661 ], [ -67.491512791483245, 48.732915334119625 ] ] ] } },
{ "type": "Feature", "properties": { "hex_id": 1114431, "centroid_lon": -67.466096221559212, "centroid_lat": 48.720847076502743, "occurrences_today": 1, "datetimes_today": "2026-08-06 00:01:43", "cumulative_total": 25.0 }, "geometry": { "type": "Polygon", "coordinates": [ [ [ -67.466869568377575, 48.715698088507899 ], [ -67.473221966255394, 48.71871555261194 ], [ -67.472449185876499, 48.72386461347412 ], [ -67.465322655829965, 48.725996050691698 ], [ -67.458969910463082, 48.72297812593267 ], [ -67.459744042552771, 48.717829224679228 ], [ -67.466869568377575, 48.715698088507899 ] ] ] } }
]
}
