{
"type": "FeatureCollection",
"name": "daily_2026-09-25",
"crs": { "type": "name", "properties": { "name": "urn:ogc:def:crs:OGC:1.3:CRS84" } },
"features": [
{ "type": "Feature", "properties": { "hex_id": 533030, "centroid_lon": -73.997971024892252, "centroid_lat": 45.768330399196984, "occurrences_today": 2, "datetimes_today": "2026-09-25 01:01:59, 2026-09-25 01:17:13", "cumulative_total": 479.0 }, "geometry": { "type": "Polygon", "coordinates": [ [ [ -73.998064054140968, 45.763134629749253 ], [ -74.004446736954549, 45.765788720677385 ], [ -74.004354291721839, 45.770984497808442 ], [ -73.997877970152672, 45.773526163751498 ], [ -73.991494728818239, 45.770871704586703 ], [ -73.9915883675652, 45.7656759477807 ], [ -73.998064054140968, 45.763134629749253 ] ] ] } },
{ "type": "Feature", "properties": { "hex_id": 564797, "centroid_lon": -73.655782689749813, "centroid_lat": 46.092193573486476, "occurrences_today": 1, "datetimes_today": "2026-09-25 00:02:09", "cumulative_total": 204.0 }, "geometry": { "type": "Polygon", "coordinates": [ [ [ -73.655908900084171, 46.086998736074193 ], [ -73.662311729441001, 46.089672022359359 ], [ -73.662186108512969, 46.094866870942433 ], [ -73.655656444696731, 46.097388405888012 ], [ -73.649253060658211, 46.094714743952061 ], [ -73.649379895105795, 46.089519922787197 ], [ -73.655908900084171, 46.086998736074193 ] ] ] } },
{ "type": "Feature", "properties": { "hex_id": 565407, "centroid_lon": -73.649506694673832, "centroid_lat": 46.084325096609028, "occurrences_today": 1, "datetimes_today": "2026-09-25 00:02:09", "cumulative_total": 148.0 }, "geometry": { "type": "Polygon", "coordinates": [ [ [ -73.649633459374201, 46.079130265417653 ], [ -73.656035075711642, 46.081803893651227 ], [ -73.655908900084171, 46.086998736074193 ], [ -73.649379895105795, 46.089519922787197 ], [ -73.64297772456905, 46.086845918945293 ], [ -73.643105113198104, 46.081651104064576 ], [ -73.649633459374201, 46.079130265417653 ] ] ] } },
{ "type": "Feature", "properties": { "hex_id": 566018, "centroid_lon": -73.642850300899667, "centroid_lat": 46.09204072881019, "occurrences_today": 1, "datetimes_today": "2026-09-25 00:02:09", "cumulative_total": 185.0 }, "geometry": { "type": "Polygon", "coordinates": [ [ [ -73.64297772456905, 46.086845918945293 ], [ -73.649379895105795, 46.089519922787197 ], [ -73.649253060658211, 46.094714743952061 ], [ -73.64272284217806, 46.097235533659195 ], [ -73.636320117477737, 46.094561154046289 ], [ -73.636448165409206, 46.089366360563126 ], [ -73.64297772456905, 46.086845918945293 ] ] ] } },
{ "type": "Feature", "properties": { "hex_id": 566628, "centroid_lon": -73.636576178127669, "centroid_lat": 46.08417156206152, "occurrences_today": 1, "datetimes_today": "2026-09-25 00:02:09", "cumulative_total": 170.0 }, "geometry": { "type": "Polygon", "coordinates": [ [ [ -73.63670415564512, 46.07897675854155 ], [ -73.643105113198104, 46.081651104064576 ], [ -73.64297772456905, 46.086845918945293 ], [ -73.636448165409206, 46.089366360563126 ], [ -73.630046654174805, 46.086691639311638 ], [ -73.630175255769672, 46.081496852236619 ], [ -73.63670415564512, 46.07897675854155 ] ] ] } },
{ "type": "Feature", "properties": { "hex_id": 567238, "centroid_lon": -73.630303822002901, "centroid_lat": 46.076302060140648, "occurrences_today": 1, "datetimes_today": "2026-09-25 00:02:09", "cumulative_total": 56.0 }, "geometry": { "type": "Polygon", "coordinates": [ [ [ -73.63043235288653, 46.071107263023819 ], [ -73.636832097973567, 46.073781950003259 ], [ -73.63670415564512, 46.07897675854155 ], [ -73.630175255769672, 46.081496852236619 ], [ -73.62377495748305, 46.078821789571293 ], [ -73.62390411225941, 46.073627008962596 ], [ -73.63043235288653, 46.071107263023819 ] ] ] } },
{ "type": "Feature", "properties": { "hex_id": 567849, "centroid_lon": -73.623645767184485, "centroid_lat": 46.08401656515646, "occurrences_today": 1, "datetimes_today": "2026-09-25 00:02:09", "cumulative_total": 78.0 }, "geometry": { "type": "Polygon", "coordinates": [ [ [ -73.62377495748305, 46.078821789571293 ], [ -73.630175255769672, 46.081496852236619 ], [ -73.630046654174805, 46.086691639311638 ], [ -73.623516541351592, 46.089211335718069 ], [ -73.617115689901624, 46.086535897204257 ], [ -73.617245504426123, 46.081341138198361 ], [ -73.62377495748305, 46.078821789571293 ] ] ] } },
{ "type": "Feature", "properties": { "hex_id": 1150537, "centroid_lon": -66.849747284554482, "centroid_lat": 50.028416783669705, "occurrences_today": 2, "datetimes_today": "2026-09-25 00:02:09, 2026-09-25 00:16:56", "cumulative_total": 69.0 }, "geometry": { "type": "Polygon", "coordinates": [ [ [ -66.850622944790587, 50.02327658964618 ], [ -66.857095111042298, 50.026335031836183 ], [ -66.856220046850339, 50.031475306369714 ], [ -66.848871371517077, 50.033556961876194 ], [ -66.842398862069729, 50.030498035079518 ], [ -66.843275371056919, 50.025357937454061 ], [ -66.850622944790587, 50.02327658964618 ] ] ] } },
{ "type": "Feature", "properties": { "hex_id": 567808, "centroid_lon": -73.639273260191885, "centroid_lat": 45.4450214973767, "occurrences_today": 4, "datetimes_today": "2026-09-25 00:32:00, 2026-09-25 00:47:04, 2026-09-25 01:01:59, 2026-09-25 01:17:13", "cumulative_total": 126.0 }, "geometry": { "type": "Polygon", "coordinates": [ [ [ -73.639398170312177, 45.439826104419105 ], [ -73.645727266168464, 45.442499773154623 ], [ -73.645602925396716, 45.447695177292914 ], [ -73.639148315983675, 45.450216885319499 ], [ -73.632818684872476, 45.447542849052091 ], [ -73.632944198417832, 45.442347472354356 ], [ -73.639398170312177, 45.439826104419105 ] ] ] } },
{ "type": "Feature", "properties": { "hex_id": 798768, "centroid_lon": -71.01153345010286, "centroid_lat": 48.360959348189837, "occurrences_today": 6, "datetimes_today": "2026-09-25 00:02:09, 2026-09-25 00:16:56, 2026-09-25 00:32:00, 2026-09-25 00:47:04, 2026-09-25 01:01:59, 2026-09-25 01:17:13", "cumulative_total": 84.0 }, "geometry": { "type": "Polygon", "coordinates": [ [ [ -71.011938556805248, 48.355777740325991 ], [ -71.018469389533919, 48.358602159784105 ], [ -71.018064905079783, 48.363783806295878 ], [ -71.01112822864124, 48.366140948811548 ], [ -71.004596888444283, 48.363316099179244 ], [ -71.005002732112729, 48.358134537275994 ], [ -71.011938556805248, 48.355777740325991 ] ] ] } },
{ "type": "Feature", "properties": { "hex_id": 799379, "centroid_lon": -71.004190929804693, "centroid_lat": 48.36849765383139, "occurrences_today": 6, "datetimes_today": "2026-09-25 00:02:09, 2026-09-25 00:16:56, 2026-09-25 00:32:00, 2026-09-25 00:47:04, 2026-09-25 01:01:59, 2026-09-25 01:17:13", "cumulative_total": 85.0 }, "geometry": { "type": "Polygon", "coordinates": [ [ [ -71.004596888444283, 48.363316099179244 ], [ -71.01112822864124, 48.366140948811548 ], [ -71.010722892378922, 48.371322542190242 ], [ -71.003784856152464, 48.373679201231553 ], [ -70.997253008611651, 48.370853921255225 ], [ -70.997659704599613, 48.365672412652174 ], [ -71.004596888444283, 48.363316099179244 ] ] ] } },
{ "type": "Feature", "properties": { "hex_id": 776080, "centroid_lon": -71.369535327460895, "centroid_lat": 46.821874405556734, "occurrences_today": 6, "datetimes_today": "2026-09-25 00:02:09, 2026-09-25 00:16:56, 2026-09-25 00:32:00, 2026-09-25 00:47:04, 2026-09-25 01:01:59, 2026-09-25 01:17:13", "cumulative_total": 138.0 }, "geometry": { "type": "Polygon", "coordinates": [ [ [ -71.369884785728217, 46.816689242912169 ], [ -71.376251598844419, 46.819489388973352 ], [ -71.375902718560326, 46.824674585652431 ], [ -71.369185772310146, 46.827059561478144 ], [ -71.362818478110938, 46.824259009844702 ], [ -71.363168611211321, 46.819073888024562 ], [ -71.369884785728217, 46.816689242912169 ] ] ] } },
{ "type": "Feature", "properties": { "hex_id": 776690, "centroid_lon": -71.363518647272414, "centroid_lat": 46.813888759474494, "occurrences_today": 6, "datetimes_today": "2026-09-25 00:02:09, 2026-09-25 00:16:56, 2026-09-25 00:32:00, 2026-09-25 00:47:04, 2026-09-25 01:01:59, 2026-09-25 01:17:13", "cumulative_total": 214.0 }, "geometry": { "type": "Polygon", "coordinates": [ [ [ -71.363868586327854, 46.808703624195189 ], [ -71.370234147145652, 46.811504073545152 ], [ -71.369884785728217, 46.816689242912169 ], [ -71.363168611211321, 46.819073888024562 ], [ -71.356802569777997, 46.816273033161735 ], [ -71.357153183443472, 46.811087938766121 ], [ -71.363868586327854, 46.808703624195189 ] ] ] } },
{ "type": "Feature", "properties": { "hex_id": 795102, "centroid_lon": -71.055542181836884, "centroid_lat": 48.315718260459256, "occurrences_today": 6, "datetimes_today": "2026-09-25 00:02:09, 2026-09-25 00:16:56, 2026-09-25 00:32:00, 2026-09-25 00:47:04, 2026-09-25 01:01:59, 2026-09-25 01:17:13", "cumulative_total": 37.0 }, "geometry": { "type": "Polygon", "coordinates": [ [ [ -71.055942190246441, 48.310536335385244 ], [ -71.062469975568973, 48.313358177363412 ], [ -71.062070588632196, 48.318540140614232 ], [ -71.055142060183542, 48.320900178349547 ], [ -71.048613766652394, 48.318077907215702 ], [ -71.049014509737702, 48.312896027572663 ], [ -71.055942190246441, 48.310536335385244 ] ] ] } },
{ "type": "Feature", "properties": { "hex_id": 795103, "centroid_lon": -71.054341476982231, "centroid_lat": 48.331263992575629, "occurrences_today": 6, "datetimes_today": "2026-09-25 00:02:09, 2026-09-25 00:16:56, 2026-09-25 00:32:00, 2026-09-25 00:47:04, 2026-09-25 01:01:59, 2026-09-25 01:17:13", "cumulative_total": 37.0 }, "geometry": { "type": "Polygon", "coordinates": [ [ [ -71.054741825245628, 48.326082089055291 ], [ -71.061271475497392, 48.328904045587791 ], [ -71.060871749217725, 48.334085987308839 ], [ -71.053941015352507, 48.336445888909701 ], [ -71.047410856503816, 48.333623502986178 ], [ -71.047811940076386, 48.328441644923309 ], [ -71.054741825245628, 48.326082089055291 ] ] ] } },
{ "type": "Feature", "properties": { "hex_id": 795104, "centroid_lon": -71.053139751830344, "centroid_lat": 48.34680966001568, "occurrences_today": 6, "datetimes_today": "2026-09-25 00:02:09, 2026-09-25 00:16:56, 2026-09-25 00:32:00, 2026-09-25 00:47:04, 2026-09-25 01:01:59, 2026-09-25 01:17:13", "cumulative_total": 37.0 }, "geometry": { "type": "Polygon", "coordinates": [ [ [ -71.053540440315516, 48.341627778056662 ], [ -71.060071957029791, 48.344449849215231 ], [ -71.059671891039784, 48.349631769398883 ], [ -71.05273894985605, 48.351991534785888 ], [ -71.046206924156209, 48.349169034000781 ], [ -71.046608348584726, 48.343987197525756 ], [ -71.053540440315516, 48.341627778056662 ] ] ] } },
{ "type": "Feature", "properties": { "hex_id": 795712, "centroid_lon": -71.049415139409078, "centroid_lat": 48.307714140737936, "occurrences_today": 6, "datetimes_today": "2026-09-25 00:02:09, 2026-09-25 00:16:56, 2026-09-25 00:32:00, 2026-09-25 00:47:04, 2026-09-25 01:01:59, 2026-09-25 01:17:13", "cumulative_total": 37.0 }, "geometry": { "type": "Polygon", "coordinates": [ [ [ -71.049815655707434, 48.302532246712374 ], [ -71.056342085453096, 48.305354403128362 ], [ -71.055942190246441, 48.310536335385244 ], [ -71.049014509737702, 48.312896027572663 ], [ -71.042487572293808, 48.310073442066589 ], [ -71.042888823016014, 48.304891593533604 ], [ -71.049815655707434, 48.302532246712374 ] ] ] } },
{ "type": "Feature", "properties": { "hex_id": 795713, "centroid_lon": -71.048212910112255, "centroid_lat": 48.323259779666188, "occurrences_today": 6, "datetimes_today": "2026-09-25 00:02:09, 2026-09-25 00:16:56, 2026-09-25 00:32:00, 2026-09-25 00:47:04, 2026-09-25 01:01:59, 2026-09-25 01:17:13", "cumulative_total": 37.0 }, "geometry": { "type": "Polygon", "coordinates": [ [ [ -71.048613766652394, 48.318077907215702 ], [ -71.055142060183542, 48.320900178349547 ], [ -71.054741825245628, 48.326082089055291 ], [ -71.047811940076386, 48.328441644923309 ], [ -71.041283138459235, 48.325618944464068 ], [ -71.041684730056389, 48.32043711753267 ], [ -71.048613766652394, 48.318077907215702 ] ] ] } },
{ "type": "Feature", "properties": { "hex_id": 795714, "centroid_lon": -71.047009659353591, "centroid_lat": 48.338805353853928, "occurrences_today": 6, "datetimes_today": "2026-09-25 00:02:09, 2026-09-25 00:16:56, 2026-09-25 00:32:00, 2026-09-25 00:47:04, 2026-09-25 01:01:59, 2026-09-25 01:17:13", "cumulative_total": 37.0 }, "geometry": { "type": "Polygon", "coordinates": [ [ [ -71.047410856503816, 48.333623502986178 ], [ -71.053941015352507, 48.336445888909701 ], [ -71.053540440315516, 48.341627778056662 ], [ -71.046608348584726, 48.343987197525756 ], [ -71.040077681261934, 48.341164382041391 ], [ -71.040479614103049, 48.335982576719289 ], [ -71.047410856503816, 48.333623502986178 ] ] ] } },
{ "type": "Feature", "properties": { "hex_id": 795715, "centroid_lon": -71.045805386027041, "centroid_lat": 48.35435086327815, "occurrences_today": 6, "datetimes_today": "2026-09-25 00:02:09, 2026-09-25 00:16:56, 2026-09-25 00:32:00, 2026-09-25 00:47:04, 2026-09-25 01:01:59, 2026-09-25 01:17:13", "cumulative_total": 39.0 }, "geometry": { "type": "Polygon", "coordinates": [ [ [ -71.046206924156209, 48.349169034000781 ], [ -71.05273894985605, 48.351991534785888 ], [ -71.052338034351649, 48.357173402366442 ], [ -71.045403734156139, 48.359532685357017 ], [ -71.038871199593771, 48.356709754775466 ], [ -71.0392734740484, 48.35152797107034 ], [ -71.046206924156209, 48.349169034000781 ] ] ] } },
{ "type": "Feature", "properties": { "hex_id": 796322, "centroid_lon": -71.043289960195139, "centroid_lat": 48.299709737801791, "occurrences_today": 6, "datetimes_today": "2026-09-25 00:02:09, 2026-09-25 00:16:56, 2026-09-25 00:32:00, 2026-09-25 00:47:04, 2026-09-25 01:01:59, 2026-09-25 01:17:13", "cumulative_total": 84.0 }, "geometry": { "type": "Polygon", "coordinates": [ [ [ -71.043690983872125, 48.294527874872024 ], [ -71.050216058673584, 48.297350345496824 ], [ -71.049815655707434, 48.302532246712374 ], [ -71.042888823016014, 48.304891593533604 ], [ -71.036363241026351, 48.302068693884365 ], [ -71.036764998875398, 48.296886876508751 ], [ -71.043690983872125, 48.294527874872024 ] ] ] } },
{ "type": "Feature", "properties": { "hex_id": 796323, "centroid_lon": -71.042086207987595, "centroid_lat": 48.315255283399885, "occurrences_today": 6, "datetimes_today": "2026-09-25 00:02:09, 2026-09-25 00:16:56, 2026-09-25 00:32:00, 2026-09-25 00:47:04, 2026-09-25 01:01:59, 2026-09-25 01:17:13", "cumulative_total": 37.0 }, "geometry": { "type": "Polygon", "coordinates": [ [ [ -71.042487572293808, 48.310073442066589 ], [ -71.049014509737702, 48.312896027572663 ], [ -71.048613766652394, 48.318077907215702 ], [ -71.041684730056389, 48.32043711753267 ], [ -71.035157285037045, 48.31761410276691 ], [ -71.035559384148186, 48.312432307014305 ], [ -71.042487572293808, 48.310073442066589 ] ] ] } },
{ "type": "Feature", "properties": { "hex_id": 796324, "centroid_lon": -71.040881433155135, "centroid_lat": 48.330800764193221, "occurrences_today": 6, "datetimes_today": "2026-09-25 00:02:09, 2026-09-25 00:16:56, 2026-09-25 00:32:00, 2026-09-25 00:47:04, 2026-09-25 01:01:59, 2026-09-25 01:17:13", "cumulative_total": 37.0 }, "geometry": { "type": "Polygon", "coordinates": [ [ [ -71.041283138459235, 48.325618944464068 ], [ -71.047811940076386, 48.328441644923309 ], [ -71.047410856503816, 48.333623502986178 ], [ -71.040479614103049, 48.335982576719289 ], [ -71.033950304522847, 48.333159446764967 ], [ -71.034352745265437, 48.327977672643101 ], [ -71.041283138459235, 48.325618944464068 ] ] ] } },
{ "type": "Feature", "properties": { "hex_id": 796325, "centroid_lon": -71.039675634590751, "centroid_lat": 48.346346180158697, "occurrences_today": 6, "datetimes_today": "2026-09-25 00:02:09, 2026-09-25 00:16:56, 2026-09-25 00:32:00, 2026-09-25 00:47:04, 2026-09-25 01:01:59, 2026-09-25 01:17:13", "cumulative_total": 37.0 }, "geometry": { "type": "Polygon", "coordinates": [ [ [ -71.040077681261934, 48.341164382041391 ], [ -71.046608348584726, 48.343987197525756 ], [ -71.046206924156209, 48.349169034000781 ], [ -71.0392734740484, 48.35152797107034 ], [ -71.032742298374643, 48.348704725855342 ], [ -71.033145081118576, 48.34352297337194 ], [ -71.040077681261934, 48.341164382041391 ] ] ] } },
{ "type": "Feature", "properties": { "hex_id": 796932, "centroid_lon": -71.037166643052387, "centroid_lat": 48.291705051927174, "occurrences_today": 6, "datetimes_today": "2026-09-25 00:02:09, 2026-09-25 00:16:56, 2026-09-25 00:32:00, 2026-09-25 00:47:04, 2026-09-25 01:01:59, 2026-09-25 01:17:13", "cumulative_total": 87.0 }, "geometry": { "type": "Polygon", "coordinates": [ [ [ -71.037568173598274, 48.286523220140488 ], [ -71.044091894087856, 48.289346004745141 ], [ -71.043690983872125, 48.294527874872024 ], [ -71.036764998875398, 48.296886876508751 ], [ -71.030240771707213, 48.294063662945291 ], [ -71.030643036173416, 48.288881876774298 ], [ -71.037568173598274, 48.286523220140488 ] ] ] } },
{ "type": "Feature", "properties": { "hex_id": 796933, "centroid_lon": -71.035961369464275, "centroid_lat": 48.307250504053179, "occurrences_today": 6, "datetimes_today": "2026-09-25 00:02:09, 2026-09-25 00:16:56, 2026-09-25 00:32:00, 2026-09-25 00:47:04, 2026-09-25 01:01:59, 2026-09-25 01:17:13", "cumulative_total": 84.0 }, "geometry": { "type": "Polygon", "coordinates": [ [ [ -71.036363241026351, 48.302068693884365 ], [ -71.042888823016014, 48.304891593533604 ], [ -71.042487572293808, 48.310073442066589 ], [ -71.035559384148186, 48.312432307014305 ], [ -71.029033295093186, 48.309608978171099 ], [ -71.029435901208132, 48.304427213644551 ], [ -71.036363241026351, 48.302068693884365 ] ] ] } },
{ "type": "Feature", "properties": { "hex_id": 796934, "centroid_lon": -71.034755072089808, "centroid_lat": 48.322795891310122, "occurrences_today": 6, "datetimes_today": "2026-09-25 00:02:09, 2026-09-25 00:16:56, 2026-09-25 00:32:00, 2026-09-25 00:47:04, 2026-09-25 01:01:59, 2026-09-25 01:17:13", "cumulative_total": 37.0 }, "geometry": { "type": "Polygon", "coordinates": [ [ [ -71.035157285037045, 48.31761410276691 ], [ -71.041684730056389, 48.32043711753267 ], [ -71.041283138459235, 48.325618944464068 ], [ -71.034352745265437, 48.327977672643101 ], [ -71.027824792793695, 48.325154228448007 ], [ -71.028227740927065, 48.319972485573672 ], [ -71.035157285037045, 48.31761410276691 ] ] ] } },
{ "type": "Feature", "properties": { "hex_id": 796935, "centroid_lon": -71.033547749820926, "centroid_lat": 48.338341213674859, "occurrences_today": 6, "datetimes_today": "2026-09-25 00:02:09, 2026-09-25 00:16:56, 2026-09-25 00:32:00, 2026-09-25 00:47:04, 2026-09-25 01:01:59, 2026-09-25 01:17:13", "cumulative_total": 37.0 }, "geometry": { "type": "Polygon", "coordinates": [ [ [ -71.033950304522847, 48.333159446764967 ], [ -71.040479614103049, 48.335982576719289 ], [ -71.040077681261934, 48.341164382041391 ], [ -71.033145081118576, 48.34352297337194 ], [ -71.026615263698588, 48.340699413752787 ], [ -71.027018554220618, 48.335517692538424 ], [ -71.033950304522847, 48.333159446764967 ] ] ] } },
{ "type": "Feature", "properties": { "hex_id": 796936, "centroid_lon": -71.032339401547958, "centroid_lat": 48.353886471124198, "occurrences_today": 6, "datetimes_today": "2026-09-25 00:02:09, 2026-09-25 00:16:56, 2026-09-25 00:32:00, 2026-09-25 00:47:04, 2026-09-25 01:01:59, 2026-09-25 01:17:13", "cumulative_total": 37.0 }, "geometry": { "type": "Polygon", "coordinates": [ [ [ -71.032742298374643, 48.348704725855342 ], [ -71.0392734740484, 48.35152797107034 ], [ -71.038871199593771, 48.356709754775466 ], [ -71.031936390597352, 48.359068209177657 ], [ -71.025404706696051, 48.356244534062171 ], [ -71.02580833997753, 48.351062834515524 ], [ -71.032742298374643, 48.348704725855342 ] ] ] } },
{ "type": "Feature", "properties": { "hex_id": 797543, "centroid_lon": -71.029838393399132, "centroid_lat": 48.299245441902329, "occurrences_today": 6, "datetimes_today": "2026-09-25 00:02:09, 2026-09-25 00:16:56, 2026-09-25 00:32:00, 2026-09-25 00:47:04, 2026-09-25 01:01:59, 2026-09-25 01:17:13", "cumulative_total": 87.0 }, "geometry": { "type": "Polygon", "coordinates": [ [ [ -71.030240771707213, 48.294063662945291 ], [ -71.036764998875398, 48.296886876508751 ], [ -71.036363241026351, 48.302068693884365 ], [ -71.029435901208132, 48.304427213644551 ], [ -71.022911167484352, 48.301603570952857 ], [ -71.023314280093345, 48.296421837699604 ], [ -71.030240771707213, 48.294063662945291 ] ] ] } },
{ "type": "Feature", "properties": { "hex_id": 797544, "centroid_lon": -71.028630575013196, "centroid_lat": 48.314790735481076, "occurrences_today": 6, "datetimes_today": "2026-09-25 00:02:09, 2026-09-25 00:16:56, 2026-09-25 00:32:00, 2026-09-25 00:47:04, 2026-09-25 01:01:59, 2026-09-25 01:17:13", "cumulative_total": 84.0 }, "geometry": { "type": "Polygon", "coordinates": [ [ [ -71.029033295093186, 48.309608978171099 ], [ -71.035559384148186, 48.312432307014305 ], [ -71.035157285037045, 48.31761410276691 ], [ -71.028227740927065, 48.319972485573672 ], [ -71.021701144929906, 48.31714872736692 ], [ -71.022104599943773, 48.311967015787381 ], [ -71.029033295093186, 48.309608978171099 ] ] ] } },
{ "type": "Feature", "properties": { "hex_id": 797545, "centroid_lon": -71.02742173057193, "centroid_lat": 48.330335964103206, "occurrences_today": 6, "datetimes_today": "2026-09-25 00:02:09, 2026-09-25 00:16:56, 2026-09-25 00:32:00, 2026-09-25 00:47:04, 2026-09-25 01:01:59, 2026-09-25 01:17:13", "cumulative_total": 37.0 }, "geometry": { "type": "Polygon", "coordinates": [ [ [ -71.027824792793695, 48.325154228448007 ], [ -71.034352745265437, 48.327977672643101 ], [ -71.033950304522847, 48.333159446764967 ], [ -71.027018554220618, 48.335517692538424 ], [ -71.020490094419827, 48.332693818744346 ], [ -71.020893892209145, 48.327512128846266 ], [ -71.027824792793695, 48.325154228448007 ] ] ] } },
{ "type": "Feature", "properties": { "hex_id": 797546, "centroid_lon": -71.026211858964629, "centroid_lat": 48.345881127745436, "occurrences_today": 6, "datetimes_today": "2026-09-25 00:02:09, 2026-09-25 00:16:56, 2026-09-25 00:32:00, 2026-09-25 00:47:04, 2026-09-25 01:01:59, 2026-09-25 01:17:13", "cumulative_total": 62.0 }, "geometry": { "type": "Polygon", "coordinates": [ [ [ -71.026615263698588, 48.340699413752787 ], [ -71.033145081118576, 48.34352297337194 ], [ -71.032742298374643, 48.348704725855342 ], [ -71.02580833997753, 48.351062834515524 ], [ -71.019278014841291, 48.348238845061779 ], [ -71.019682155777161, 48.343057176852973 ], [ -71.026615263698588, 48.340699413752787 ] ] ] } },
{ "type": "Feature", "properties": { "hex_id": 797547, "centroid_lon": -71.025000959078938, "centroid_lat": 48.361426226384516, "occurrences_today": 6, "datetimes_today": "2026-09-25 00:02:09, 2026-09-25 00:16:56, 2026-09-25 00:32:00, 2026-09-25 00:47:04, 2026-09-25 01:01:59, 2026-09-25 01:17:13", "cumulative_total": 37.0 }, "geometry": { "type": "Polygon", "coordinates": [ [ [ -71.025404706696051, 48.356244534062171 ], [ -71.031936390597352, 48.359068209177657 ], [ -71.031533265481599, 48.364249940014858 ], [ -71.024597097084879, 48.366607911481701 ], [ -71.018064905079783, 48.363783806295878 ], [ -71.018469389533919, 48.358602159784105 ], [ -71.025404706696051, 48.356244534062171 ] ] ] } },
{ "type": "Feature", "properties": { "hex_id": 798154, "centroid_lon": -71.022507940781537, "centroid_lat": 48.306785296982397, "occurrences_today": 6, "datetimes_today": "2026-09-25 00:02:09, 2026-09-25 00:16:56, 2026-09-25 00:32:00, 2026-09-25 00:47:04, 2026-09-25 01:01:59, 2026-09-25 01:17:13", "cumulative_total": 84.0 }, "geometry": { "type": "Polygon", "coordinates": [ [ [ -71.022911167484352, 48.301603570952857 ], [ -71.029435901208132, 48.304427213644551 ], [ -71.029033295093186, 48.309608978171099 ], [ -71.022104599943773, 48.311967015787381 ], [ -71.015579359787665, 48.309142943797916 ], [ -71.015983321172129, 48.303961263560339 ], [ -71.022911167484352, 48.301603570952857 ] ] ] } },
{ "type": "Feature", "properties": { "hex_id": 798155, "centroid_lon": -71.021297575698767, "centroid_lat": 48.322330431720168, "occurrences_today": 6, "datetimes_today": "2026-09-25 00:02:09, 2026-09-25 00:16:56, 2026-09-25 00:32:00, 2026-09-25 00:47:04, 2026-09-25 01:01:59, 2026-09-25 01:17:13", "cumulative_total": 84.0 }, "geometry": { "type": "Polygon", "coordinates": [ [ [ -71.021701144929906, 48.31714872736692 ], [ -71.028227740927065, 48.319972485573672 ], [ -71.027824792793695, 48.325154228448007 ], [ -71.020893892209145, 48.327512128846266 ], [ -71.014366789393293, 48.324687941106362 ], [ -71.014771093939473, 48.319506282571794 ], [ -71.021701144929906, 48.31714872736692 ] ] ] } },
{ "type": "Feature", "properties": { "hex_id": 798156, "centroid_lon": -71.020086182289589, "centroid_lat": 48.337875501413528, "occurrences_today": 6, "datetimes_today": "2026-09-25 00:02:09, 2026-09-25 00:16:56, 2026-09-25 00:32:00, 2026-09-25 00:47:04, 2026-09-25 01:01:59, 2026-09-25 01:17:13", "cumulative_total": 37.0 }, "geometry": { "type": "Polygon", "coordinates": [ [ [ -71.020490094419827, 48.332693818744346 ], [ -71.027018554220618, 48.335517692538424 ], [ -71.026615263698588, 48.340699413752787 ], [ -71.019682155777161, 48.343057176852973 ], [ -71.013153188770985, 48.340232873290205 ], [ -71.013557836850339, 48.335051236466448 ], [ -71.020490094419827, 48.332693818744346 ] ] ] } },
{ "type": "Feature", "properties": { "hex_id": 798157, "centroid_lon": -71.018873759440638, "centroid_lat": 48.353420506039122, "occurrences_today": 6, "datetimes_today": "2026-09-25 00:02:09, 2026-09-25 00:16:56, 2026-09-25 00:32:00, 2026-09-25 00:47:04, 2026-09-25 01:01:59, 2026-09-25 01:17:13", "cumulative_total": 62.0 }, "geometry": { "type": "Polygon", "coordinates": [ [ [ -71.019278014841291, 48.348238845061779 ], [ -71.02580833997753, 48.351062834515524 ], [ -71.025404706696051, 48.356244534062171 ], [ -71.018469389533919, 48.358602159784105 ], [ -71.011938556805248, 48.355777740325991 ], [ -71.012343548789801, 48.350596125220839 ], [ -71.019278014841291, 48.348238845061779 ] ] ] } },
{ "type": "Feature", "properties": { "hex_id": 798764, "centroid_lon": -71.016387168251811, "centroid_lat": 48.298779576090169, "occurrences_today": 6, "datetimes_today": "2026-09-25 00:02:09, 2026-09-25 00:16:56, 2026-09-25 00:32:00, 2026-09-25 00:47:04, 2026-09-25 01:01:59, 2026-09-25 01:17:13", "cumulative_total": 79.0 }, "geometry": { "type": "Polygon", "coordinates": [ [ [ -71.016790901067893, 48.293597881388266 ], [ -71.023314280093345, 48.296421837699604 ], [ -71.022911167484352, 48.301603570952857 ], [ -71.015983321172129, 48.303961263560339 ], [ -71.009459436223779, 48.301136878017061 ], [ -71.00986390346938, 48.295955229168626 ], [ -71.016790901067893, 48.293597881388266 ] ] ] } },
{ "type": "Feature", "properties": { "hex_id": 798765, "centroid_lon": -71.015175284057179, "centroid_lat": 48.314324616802011, "occurrences_today": 6, "datetimes_today": "2026-09-25 00:02:09, 2026-09-25 00:16:56, 2026-09-25 00:32:00, 2026-09-25 00:47:04, 2026-09-25 01:01:59, 2026-09-25 01:17:13", "cumulative_total": 84.0 }, "geometry": { "type": "Polygon", "coordinates": [ [ [ -71.015579359787665, 48.309142943797916 ], [ -71.022104599943773, 48.311967015787381 ], [ -71.021701144929906, 48.31714872736692 ], [ -71.014771093939473, 48.319506282571794 ], [ -71.008245347474599, 48.316681781115065 ], [ -71.00865015826767, 48.311500153991169 ], [ -71.015579359787665, 48.309142943797916 ] ] ] } },
{ "type": "Feature", "properties": { "hex_id": 798766, "centroid_lon": -71.013962370377342, "centroid_lat": 48.329869592404876, "occurrences_today": 6, "datetimes_today": "2026-09-25 00:02:09, 2026-09-25 00:16:56, 2026-09-25 00:32:00, 2026-09-25 00:47:04, 2026-09-25 01:01:59, 2026-09-25 01:17:13", "cumulative_total": 84.0 }, "geometry": { "type": "Polygon", "coordinates": [ [ [ -71.014366789393293, 48.324687941106362 ], [ -71.020893892209145, 48.327512128846266 ], [ -71.020490094419827, 48.332693818744346 ], [ -71.013557836850339, 48.335051236466448 ], [ -71.007030227339555, 48.332226619023793 ], [ -71.007435382051881, 48.327045013632265 ], [ -71.014366789393293, 48.324687941106362 ] ] ] } },
{ "type": "Feature", "properties": { "hex_id": 798767, "centroid_lon": -71.012748426097914, "centroid_lat": 48.3454145028753, "occurrences_today": 6, "datetimes_today": "2026-09-25 00:02:09, 2026-09-25 00:16:56, 2026-09-25 00:32:00, 2026-09-25 00:47:04, 2026-09-25 01:01:59, 2026-09-25 01:17:13", "cumulative_total": 47.0 }, "geometry": { "type": "Polygon", "coordinates": [ [ [ -71.013153188770985, 48.340232873290205 ], [ -71.019682155777161, 48.343057176852973 ], [ -71.019278014841291, 48.348238845061779 ], [ -71.012343548789801, 48.350596125220839 ], [ -71.005814074702172, 48.347771391719704 ], [ -71.006219573706105, 48.342589808068382 ], [ -71.013153188770985, 48.340232873290205 ] ] ] } },
{ "type": "Feature", "properties": { "hex_id": 799375, "centroid_lon": -71.009054854503631, "centroid_lat": 48.306318519624874, "occurrences_today": 6, "datetimes_today": "2026-09-25 00:02:09, 2026-09-25 00:16:56, 2026-09-25 00:32:00, 2026-09-25 00:47:04, 2026-09-25 01:01:59, 2026-09-25 01:17:13", "cumulative_total": 84.0 }, "geometry": { "type": "Polygon", "coordinates": [ [ [ -71.009459436223779, 48.301136878017061 ], [ -71.015983321172129, 48.303961263560339 ], [ -71.015579359787665, 48.309142943797916 ], [ -71.00865015826767, 48.311500153991169 ], [ -71.002125767520113, 48.308675339046509 ], [ -71.00253108405046, 48.303493743380393 ], [ -71.009459436223779, 48.301136878017061 ] ] ] } },
{ "type": "Feature", "properties": { "hex_id": 799376, "centroid_lon": -71.00784042208312, "centroid_lat": 48.321863400995717, "occurrences_today": 6, "datetimes_today": "2026-09-25 00:02:09, 2026-09-25 00:16:56, 2026-09-25 00:32:00, 2026-09-25 00:47:04, 2026-09-25 01:01:59, 2026-09-25 01:17:13", "cumulative_total": 84.0 }, "geometry": { "type": "Polygon", "coordinates": [ [ [ -71.008245347474599, 48.316681781115065 ], [ -71.014771093939473, 48.319506282571794 ], [ -71.014366789393293, 48.324687941106362 ], [ -71.007435382051881, 48.327045013632265 ], [ -71.000909129402132, 48.324220082538723 ], [ -71.00131479023733, 48.319038508626562 ], [ -71.008245347474599, 48.316681781115065 ] ] ] } },
{ "type": "Feature", "properties": { "hex_id": 799377, "centroid_lon": -71.006624957904762, "centroid_lat": 48.337408217169454, "occurrences_today": 6, "datetimes_today": "2026-09-25 00:02:09, 2026-09-25 00:16:56, 2026-09-25 00:32:00, 2026-09-25 00:47:04, 2026-09-25 01:01:59, 2026-09-25 01:17:13", "cumulative_total": 40.0 }, "geometry": { "type": "Polygon", "coordinates": [ [ [ -71.007030227339555, 48.332226619023793 ], [ -71.013557836850339, 48.335051236466448 ], [ -71.013153188770985, 48.340232873290205 ], [ -71.006219573706105, 48.342589808068382 ], [ -70.999691457624451, 48.339764760753326 ], [ -71.000097463137138, 48.334583208602993 ], [ -71.007030227339555, 48.332226619023793 ] ] ] } },
{ "type": "Feature", "properties": { "hex_id": 799378, "centroid_lon": -71.005408460851527, "centroid_lat": 48.35295296812253, "occurrences_today": 6, "datetimes_today": "2026-09-25 00:02:09, 2026-09-25 00:16:56, 2026-09-25 00:32:00, 2026-09-25 00:47:04, 2026-09-25 01:01:59, 2026-09-25 01:17:13", "cumulative_total": 57.0 }, "geometry": { "type": "Polygon", "coordinates": [ [ [ -71.005814074702172, 48.347771391719704 ], [ -71.012343548789801, 48.350596125220839 ], [ -71.011938556805248, 48.355777740325991 ], [ -71.005002732112729, 48.358134537275994 ], [ -70.998472751067908, 48.355309373666707 ], [ -70.998879101631331, 48.35012784328606 ], [ -71.005814074702172, 48.347771391719704 ] ] ] } },
{ "type": "Feature", "properties": { "hex_id": 799986, "centroid_lon": -71.001720336262849, "centroid_lat": 48.31385692746219, "occurrences_today": 6, "datetimes_today": "2026-09-25 00:02:09, 2026-09-25 00:16:56, 2026-09-25 00:32:00, 2026-09-25 00:47:04, 2026-09-25 01:01:59, 2026-09-25 01:17:13", "cumulative_total": 99.0 }, "geometry": { "type": "Polygon", "coordinates": [ [ [ -71.002125767520113, 48.308675339046509 ], [ -71.00865015826767, 48.311500153991169 ], [ -71.008245347474599, 48.316681781115065 ], [ -71.00131479023733, 48.319038508626562 ], [ -70.994789893814513, 48.31621326411107 ], [ -70.995196060262856, 48.31103172172535 ], [ -71.002125767520113, 48.308675339046509 ] ] ] } },
{ "type": "Feature", "properties": { "hex_id": 799987, "centroid_lon": -71.000503353715885, "centroid_lat": 48.329401649197827, "occurrences_today": 6, "datetimes_today": "2026-09-25 00:02:09, 2026-09-25 00:16:56, 2026-09-25 00:32:00, 2026-09-25 00:47:04, 2026-09-25 01:01:59, 2026-09-25 01:17:13", "cumulative_total": 37.0 }, "geometry": { "type": "Polygon", "coordinates": [ [ [ -71.000909129402132, 48.324220082538723 ], [ -71.007435382051881, 48.327045013632265 ], [ -71.007030227339555, 48.332226619023793 ], [ -71.000097463137138, 48.334583208602993 ], [ -70.993570704426688, 48.331757847703081 ], [ -70.993977215937903, 48.32657632710081 ], [ -71.000909129402132, 48.324220082538723 ] ] ] } },
{ "type": "Feature", "properties": { "hex_id": 799988, "centroid_lon": -70.999285337136342, "centroid_lat": 48.344946305647973, "occurrences_today": 6, "datetimes_today": "2026-09-25 00:02:09, 2026-09-25 00:16:56, 2026-09-25 00:32:00, 2026-09-25 00:47:04, 2026-09-25 01:01:59, 2026-09-25 01:17:13", "cumulative_total": 60.0 }, "geometry": { "type": "Polygon", "coordinates": [ [ [ -70.999691457624451, 48.339764760753326 ], [ -71.006219573706105, 48.342589808068382 ], [ -71.005814074702172, 48.347771391719704 ], [ -70.998879101631331, 48.35012784328606 ], [ -70.99235047910318, 48.347302365928961 ], [ -70.992757336050857, 48.342120867118034 ], [ -70.999691457624451, 48.339764760753326 ] ] ] } },
{ "type": "Feature", "properties": { "hex_id": 799989, "centroid_lon": -70.998066285404519, "centroid_lat": 48.360490896789038, "occurrences_today": 6, "datetimes_today": "2026-09-25 00:02:09, 2026-09-25 00:16:56, 2026-09-25 00:32:00, 2026-09-25 00:47:04, 2026-09-25 01:01:59, 2026-09-25 01:17:13", "cumulative_total": 57.0 }, "geometry": { "type": "Polygon", "coordinates": [ [ [ -70.998472751067908, 48.355309373666707 ], [ -71.005002732112729, 48.358134537275994 ], [ -71.004596888444283, 48.363316099179244 ], [ -70.997659704599613, 48.365672412652174 ], [ -70.991129216722157, 48.362846818764979 ], [ -70.991536419480425, 48.357665341753304 ], [ -70.998472751067908, 48.355309373666707 ] ] ] } },
{ "type": "Feature", "properties": { "hex_id": 800596, "centroid_lon": -70.995602111773167, "centroid_lat": 48.305850172080248, "occurrences_today": 6, "datetimes_today": "2026-09-25 00:02:09, 2026-09-25 00:16:56, 2026-09-25 00:32:00, 2026-09-25 00:47:04, 2026-09-25 01:01:59, 2026-09-25 01:17:13", "cumulative_total": 85.0 }, "geometry": { "type": "Polygon", "coordinates": [ [ [ -70.996008048386841, 48.300668615176612 ], [ -71.00253108405046, 48.303493743380393 ], [ -71.002125767520113, 48.308675339046509 ], [ -70.995196060262856, 48.31103172172535 ], [ -70.988672519433237, 48.308206164016731 ], [ -70.98907919098545, 48.303024653204496 ], [ -70.996008048386841, 48.300668615176612 ] ] ] } },
{ "type": "Feature", "properties": { "hex_id": 800597, "centroid_lon": -70.994383612386684, "centroid_lat": 48.321394799236501, "occurrences_today": 6, "datetimes_today": "2026-09-25 00:02:09, 2026-09-25 00:16:56, 2026-09-25 00:32:00, 2026-09-25 00:47:04, 2026-09-25 01:01:59, 2026-09-25 01:17:13", "cumulative_total": 79.0 }, "geometry": { "type": "Polygon", "coordinates": [ [ [ -70.994789893814513, 48.31621326411107 ], [ -71.00131479023733, 48.319038508626562 ], [ -71.000909129402132, 48.324220082538723 ], [ -70.993977215937903, 48.32657632710081 ], [ -70.987451813964157, 48.323750652844986 ], [ -70.987858830964115, 48.318569163837843 ], [ -70.994789893814513, 48.31621326411107 ] ] ] } },
{ "type": "Feature", "properties": { "hex_id": 800598, "centroid_lon": -70.993164077811514, "centroid_lat": 48.336939361042447, "occurrences_today": 6, "datetimes_today": "2026-09-25 00:02:09, 2026-09-25 00:16:56, 2026-09-25 00:32:00, 2026-09-25 00:47:04, 2026-09-25 01:01:59, 2026-09-25 01:17:13", "cumulative_total": 40.0 }, "geometry": { "type": "Polygon", "coordinates": [ [ [ -70.993570704426688, 48.331757847703081 ], [ -71.000097463137138, 48.334583208602993 ], [ -70.999691457624451, 48.339764760753326 ], [ -70.992757336050857, 48.342120867118034 ], [ -70.986230071404151, 48.339295076242159 ], [ -70.986637434225756, 48.334113609048039 ], [ -70.993570704426688, 48.331757847703081 ] ] ] } },
{ "type": "Feature", "properties": { "hex_id": 801207, "centroid_lon": -70.9882657327733, "centroid_lat": 48.313387667561457, "occurrences_today": 6, "datetimes_today": "2026-09-25 00:02:09, 2026-09-25 00:16:56, 2026-09-25 00:32:00, 2026-09-25 00:47:04, 2026-09-25 01:01:59, 2026-09-25 01:17:13", "cumulative_total": 99.0 }, "geometry": { "type": "Polygon", "coordinates": [ [ [ -70.988672519433237, 48.308206164016731 ], [ -70.995196060262856, 48.31103172172535 ], [ -70.994789893814513, 48.31621326411107 ], [ -70.987858830964115, 48.318569163837843 ], [ -70.981334785092884, 48.315743176454937 ], [ -70.981742307072153, 48.310561719089939 ], [ -70.988672519433237, 48.308206164016731 ] ] ] } },
{ "type": "Feature", "properties": { "hex_id": 801208, "centroid_lon": -70.987044681731888, "centroid_lat": 48.328932134582004, "occurrences_today": 6, "datetimes_today": "2026-09-25 00:02:09, 2026-09-25 00:16:56, 2026-09-25 00:32:00, 2026-09-25 00:47:04, 2026-09-25 01:01:59, 2026-09-25 01:17:13", "cumulative_total": 37.0 }, "geometry": { "type": "Polygon", "coordinates": [ [ [ -70.987451813964157, 48.323750652844986 ], [ -70.993977215937903, 48.32657632710081 ], [ -70.993570704426688, 48.331757847703081 ], [ -70.986637434225756, 48.334113609048039 ], [ -70.980111526825638, 48.331287504882361 ], [ -70.980519395011228, 48.326106069352029 ], [ -70.987451813964157, 48.323750652844986 ] ] ] } },
{ "type": "Feature", "properties": { "hex_id": 759600, "centroid_lon": -71.542692949028847, "centroid_lat": 46.88180228030518, "occurrences_today": 6, "datetimes_today": "2026-09-25 00:02:09, 2026-09-25 00:16:56, 2026-09-25 00:32:00, 2026-09-25 00:47:04, 2026-09-25 01:01:59, 2026-09-25 01:17:13", "cumulative_total": 145.0 }, "geometry": { "type": "Polygon", "coordinates": [ [ [ -71.54302645745247, 46.876616200220141 ], [ -71.549409750543305, 46.879407099939009 ], [ -71.549076824750443, 46.884593212412 ], [ -71.542359348051605, 46.886988353848601 ], [ -71.535975564899701, 46.884197049174013 ], [ -71.536309748475588, 46.879011008085541 ], [ -71.54302645745247, 46.876616200220141 ] ] ] } },
{ "type": "Feature", "properties": { "hex_id": 761432, "centroid_lon": -71.522539048926077, "centroid_lat": 46.888985352036499, "occurrences_today": 2, "datetimes_today": "2026-09-25 00:02:09, 2026-09-25 00:16:56", "cumulative_total": 144.0 }, "geometry": { "type": "Polygon", "coordinates": [ [ [ -71.522874583278963, 46.883799389163649 ], [ -71.529257598188025, 46.88659140644971 ], [ -71.528922646369296, 46.89177740191154 ], [ -71.522203421450271, 46.89417130834628 ], [ -71.515819917146146, 46.891378885838598 ], [ -71.51615612712375, 46.886192962184822 ], [ -71.522874583278963, 46.883799389163649 ] ] ] } },
{ "type": "Feature", "properties": { "hex_id": 605658, "centroid_lon": -73.243517478123934, "centroid_lat": 45.424029381177931, "occurrences_today": 3, "datetimes_today": "2026-09-25 00:02:09, 2026-09-25 00:16:56, 2026-09-25 00:32:00", "cumulative_total": 107.0 }, "geometry": { "type": "Polygon", "coordinates": [ [ [ -73.243678589334536, 45.418834946905541 ], [ -73.249986018070715, 45.421530243020094 ], [ -73.249825470193755, 45.426724692364331 ], [ -73.243356322965411, 45.42922381025862 ], [ -73.237048374850843, 45.426528143225411 ], [ -73.237210093328287, 45.421333729280803 ], [ -73.243678589334536, 45.418834946905541 ] ] ] } },
{ "type": "Feature", "properties": { "hex_id": 737522, "centroid_lon": -71.868064918396556, "centroid_lat": 45.332213209938075, "occurrences_today": 4, "datetimes_today": "2026-09-25 00:02:09, 2026-09-25 00:16:56, 2026-09-25 00:32:00, 2026-09-25 00:47:04", "cumulative_total": 31.0 }, "geometry": { "type": "Polygon", "coordinates": [ [ [ -71.868351176360292, 45.327024020517086 ], [ -71.874579177590419, 45.329793304227351 ], [ -71.874293460779057, 45.334982522007643 ], [ -71.86777858251267, 45.337402393207597 ], [ -71.861550118063292, 45.334632727753011 ], [ -71.861836995073574, 45.329443572906328 ], [ -71.868351176360292, 45.327024020517086 ] ] ] } },
{ "type": "Feature", "properties": { "hex_id": 605692, "centroid_lon": -73.226850643206021, "centroid_lat": 45.953834380024006, "occurrences_today": 6, "datetimes_today": "2026-09-25 00:02:09, 2026-09-25 00:16:56, 2026-09-25 00:32:00, 2026-09-25 00:47:04, 2026-09-25 01:01:59, 2026-09-25 01:17:13", "cumulative_total": 99.0 }, "geometry": { "type": "Polygon", "coordinates": [ [ [ -73.227016314100652, 45.9486404760287 ], [ -73.233381995026591, 45.951337325865772 ], [ -73.233216903241143, 45.956531245259775 ], [ -73.226684926826223, 45.959028278813427 ], [ -73.220318712283955, 45.956331051117665 ], [ -73.220485007757503, 45.951137167792339 ], [ -73.227016314100652, 45.9486404760287 ] ] ] } },
{ "type": "Feature", "properties": { "hex_id": 723101, "centroid_lon": -71.812946236898625, "centroid_lat": 48.931454282388657, "occurrences_today": 6, "datetimes_today": "2026-09-25 00:02:09, 2026-09-25 00:16:56, 2026-09-25 00:32:00, 2026-09-25 00:47:04, 2026-09-25 01:01:59, 2026-09-25 01:17:13", "cumulative_total": 60.0 }, "geometry": { "type": "Polygon", "coordinates": [ [ [ -71.813276593789311, 48.926268638419351 ], [ -71.819927144752057, 48.929049771652444 ], [ -71.819597444337603, 48.9342354466336 ], [ -71.812615785514623, 48.936639920008574 ], [ -71.805964672586299, 48.933858355064054 ], [ -71.806295780411844, 48.928672748528612 ], [ -71.813276593789311, 48.926268638419351 ] ] ] } },
{ "type": "Feature", "properties": { "hex_id": 723711, "centroid_lon": -71.806626793561108, "centroid_lat": 48.923487135637032, "occurrences_today": 6, "datetimes_today": "2026-09-25 00:02:09, 2026-09-25 00:16:56, 2026-09-25 00:32:00, 2026-09-25 00:47:04, 2026-09-25 01:01:59, 2026-09-25 01:17:13", "cumulative_total": 60.0 }, "geometry": { "type": "Polygon", "coordinates": [ [ [ -71.806957712068851, 48.918301516389796 ], [ -71.813606856221355, 48.92108298810119 ], [ -71.813276593789311, 48.926268638419351 ], [ -71.806295780411844, 48.928672748528612 ], [ -71.799646074842528, 48.925890845167729 ], [ -71.799977744032745, 48.920705263419663 ], [ -71.806957712068851, 48.918301516389796 ] ] ] } },
{ "type": "Feature", "properties": { "hex_id": 723712, "centroid_lon": -71.805633470049713, "centroid_lat": 48.939043955242795, "occurrences_today": 6, "datetimes_today": "2026-09-25 00:02:09, 2026-09-25 00:16:56, 2026-09-25 00:32:00, 2026-09-25 00:47:04, 2026-09-25 01:01:59, 2026-09-25 01:17:13", "cumulative_total": 60.0 }, "geometry": { "type": "Polygon", "coordinates": [ [ [ -71.805964672586299, 48.933858355064054 ], [ -71.812615785514623, 48.936639920008574 ], [ -71.812285239602616, 48.941825551278598 ], [ -71.805302172767327, 48.944229549064346 ], [ -71.798650497977633, 48.941447552232063 ], [ -71.798982451849824, 48.936261989574447 ], [ -71.805964672586299, 48.933858355064054 ] ] ] } },
{ "type": "Feature", "properties": { "hex_id": 724322, "centroid_lon": -71.799314310793164, "centroid_lat": 48.931076420552841, "occurrences_today": 6, "datetimes_today": "2026-09-25 00:02:09, 2026-09-25 00:16:56, 2026-09-25 00:32:00, 2026-09-25 00:47:04, 2026-09-25 01:01:59, 2026-09-25 01:17:13", "cumulative_total": 105.0 }, "geometry": { "type": "Polygon", "coordinates": [ [ [ -71.799646074842528, 48.925890845167729 ], [ -71.806295780411844, 48.928672748528612 ], [ -71.805964672586299, 48.933858355064054 ], [ -71.798982451849824, 48.936261989574447 ], [ -71.792332184968089, 48.933479654387781 ], [ -71.792664700100431, 48.928294116589107 ], [ -71.799646074842528, 48.925890845167729 ] ] ] } },
{ "type": "Feature", "properties": { "hex_id": 724933, "centroid_lon": -71.791999574724002, "centroid_lat": 48.938665185815637, "occurrences_today": 6, "datetimes_today": "2026-09-25 00:02:09, 2026-09-25 00:16:56, 2026-09-25 00:32:00, 2026-09-25 00:47:04, 2026-09-25 01:01:59, 2026-09-25 01:17:13", "cumulative_total": 105.0 }, "geometry": { "type": "Polygon", "coordinates": [ [ [ -71.792332184968089, 48.933479654387781 ], [ -71.798982451849824, 48.936261989574447 ], [ -71.798650497977633, 48.941447552232063 ], [ -71.791666869333213, 48.943850710872148 ], [ -71.785016041243722, 48.941067943683414 ], [ -71.785349402971477, 48.935882449929323 ], [ -71.792332184968089, 48.933479654387781 ] ] ] } },
{ "type": "Feature", "properties": { "hex_id": 725543, "centroid_lon": -71.785682669369635, "centroid_lat": 48.930696949797053, "occurrences_today": 6, "datetimes_today": "2026-09-25 00:02:09, 2026-09-25 00:16:56, 2026-09-25 00:32:00, 2026-09-25 00:47:04, 2026-09-25 01:01:59, 2026-09-25 01:17:13", "cumulative_total": 122.0 }, "geometry": { "type": "Polygon", "coordinates": [ [ [ -71.786015840473212, 48.925511443287121 ], [ -71.792664700100431, 48.928294116589107 ], [ -71.792332184968089, 48.933479654387781 ], [ -71.785349402971477, 48.935882449929323 ], [ -71.778699982685126, 48.933099344687349 ], [ -71.779033905019531, 48.927913875916431 ], [ -71.786015840473212, 48.925511443287121 ] ] ] } },
{ "type": "Feature", "properties": { "hex_id": 755327, "centroid_lon": -71.588053020041599, "centroid_lat": 46.890959039200951, "occurrences_today": 6, "datetimes_today": "2026-09-25 00:02:09, 2026-09-25 00:16:56, 2026-09-25 00:32:00, 2026-09-25 00:47:04, 2026-09-25 01:01:59, 2026-09-25 01:17:13", "cumulative_total": 39.0 }, "geometry": { "type": "Polygon", "coordinates": [ [ [ -71.588382263263341, 46.885772720681089 ], [ -71.59476911465714, 46.888561173161236 ], [ -71.594440455078185, 46.893747523632122 ], [ -71.587723685434213, 46.896145351225705 ], [ -71.581336341799144, 46.893356494043708 ], [ -71.581666260017585, 46.888170214037046 ], [ -71.588382263263341, 46.885772720681089 ] ] ] } },
{ "type": "Feature", "properties": { "hex_id": 759602, "centroid_lon": -71.540689953735253, "centroid_lat": 46.912918623419714, "occurrences_today": 2, "datetimes_today": "2026-09-25 00:02:09, 2026-09-25 00:16:56", "cumulative_total": 88.0 }, "geometry": { "type": "Polygon", "coordinates": [ [ [ -71.541024017963139, 46.907732582593667 ], [ -71.547410809203299, 46.91052367673781 ], [ -71.547077328552433, 46.91570974999086 ], [ -71.540355796760622, 46.918104657700454 ], [ -71.533968514706302, 46.915313158159194 ], [ -71.534303255225723, 46.910127156372567 ], [ -71.541024017963139, 46.907732582593667 ] ] ] } },
{ "type": "Feature", "properties": { "hex_id": 760212, "centroid_lon": -71.534637902840572, "centroid_lat": 46.904941148034084, "occurrences_today": 2, "datetimes_today": "2026-09-25 00:02:09, 2026-09-25 00:16:56", "cumulative_total": 43.0 }, "geometry": { "type": "Polygon", "coordinates": [ [ [ -71.534972457583166, 46.899755133144367 ], [ -71.541357989476523, 46.902546535222918 ], [ -71.541024017963139, 46.907732582593667 ], [ -71.534303255225723, 46.910127156372567 ], [ -71.527917232991584, 46.907335348955364 ], [ -71.528252463803369, 46.902149373164974 ], [ -71.534972457583166, 46.899755133144367 ] ] ] } },
{ "type": "Feature", "properties": { "hex_id": 606913, "centroid_lon": -73.213953122485606, "centroid_lat": 45.953633476464525, "occurrences_today": 6, "datetimes_today": "2026-09-25 00:02:09, 2026-09-25 00:16:56, 2026-09-25 00:32:00, 2026-09-25 00:47:04, 2026-09-25 01:01:59, 2026-09-25 01:17:13", "cumulative_total": 63.0 }, "geometry": { "type": "Polygon", "coordinates": [ [ [ -73.214119996880143, 45.948439608665474 ], [ -73.220485007757503, 45.951137167792339 ], [ -73.220318712283955, 45.956331051117665 ], [ -73.213786202275926, 45.958827339050977 ], [ -73.207420658300478, 45.956129401949561 ], [ -73.2075881574156, 45.950935554954803 ], [ -73.214119996880143, 45.948439608665474 ] ] ] } },
{ "type": "Feature", "properties": { "hex_id": 757769, "centroid_lon": -71.561846601827014, "centroid_lat": 46.890174055863689, "occurrences_today": 6, "datetimes_today": "2026-09-25 00:02:09, 2026-09-25 00:16:56, 2026-09-25 00:32:00, 2026-09-25 00:47:04, 2026-09-25 01:01:59, 2026-09-25 01:17:13", "cumulative_total": 53.0 }, "geometry": { "type": "Polygon", "coordinates": [ [ [ -71.562178361789336, 46.884987878796395 ], [ -71.568563680008566, 46.887777757723192 ], [ -71.568232503246051, 46.89296396699681 ], [ -71.56151474978401, 46.895360226408826 ], [ -71.555128940461643, 46.892569942571889 ], [ -71.555461375672479, 46.887383804300121 ], [ -71.562178361789336, 46.884987878796395 ] ] ] } },
{ "type": "Feature", "properties": { "hex_id": 793168, "centroid_lon": -71.192983894552825, "centroid_lat": 46.72259596692971, "occurrences_today": 2, "datetimes_today": "2026-09-25 01:01:59, 2026-09-25 01:17:13", "cumulative_total": 112.0 }, "geometry": { "type": "Polygon", "coordinates": [ [ [ -71.193349054967868, 46.717411753866656 ], [ -71.19969470125092, 46.720221163759675 ], [ -71.199330112905884, 46.72540541250067 ], [ -71.192618633055957, 46.727780173078671 ], [ -71.186272515802159, 46.724970357523915 ], [ -71.186638349334103, 46.719786187119325 ], [ -71.193349054967868, 46.717411753866656 ] ] ] } },
{ "type": "Feature", "properties": { "hex_id": 1046646, "centroid_lon": -68.25563925627074, "centroid_lat": 48.465898180044661, "occurrences_today": 6, "datetimes_today": "2026-09-25 00:02:09, 2026-09-25 00:16:56, 2026-09-25 00:32:00, 2026-09-25 00:47:04, 2026-09-25 01:01:59, 2026-09-25 01:17:13", "cumulative_total": 44.0 }, "geometry": { "type": "Polygon", "coordinates": [ [ [ -68.256325777495746, 48.460740058278184 ], [ -68.262699353547035, 48.463714336439558 ], [ -68.262013406562232, 48.468872523448717 ], [ -68.254952541136873, 48.471056289864393 ], [ -68.248578584789072, 48.468081559770162 ], [ -68.249265874093439, 48.462923515261551 ], [ -68.256325777495746, 48.460740058278184 ] ] ] } },
{ "type": "Feature", "properties": { "hex_id": 1047256, "centroid_lon": -68.249952969338153, "centroid_lat": 48.457765458793283, "occurrences_today": 6, "datetimes_today": "2026-09-25 00:02:09, 2026-09-25 00:16:56, 2026-09-25 00:32:00, 2026-09-25 00:47:04, 2026-09-25 01:01:59, 2026-09-25 01:17:13", "cumulative_total": 44.0 }, "geometry": { "type": "Polygon", "coordinates": [ [ [ -68.250639870592934, 48.452607390368037 ], [ -68.257012104881568, 48.455581924567639 ], [ -68.256325777495746, 48.460740058278184 ], [ -68.249265874093439, 48.462923515261551 ], [ -68.242893259960653, 48.459948529213698 ], [ -68.243580929004594, 48.454790538099118 ], [ -68.250639870592934, 48.452607390368037 ] ] ] } },
{ "type": "Feature", "properties": { "hex_id": 1047257, "centroid_lon": -68.247891101355293, "centroid_lat": 48.473239592316432, "occurrences_today": 6, "datetimes_today": "2026-09-25 00:02:09, 2026-09-25 00:16:56, 2026-09-25 00:32:00, 2026-09-25 00:47:04, 2026-09-25 01:01:59, 2026-09-25 01:17:13", "cumulative_total": 44.0 }, "geometry": { "type": "Polygon", "coordinates": [ [ [ -68.248578584789072, 48.468081559770162 ], [ -68.254952541136873, 48.471056289864393 ], [ -68.254265632024399, 48.476214387734714 ], [ -68.247203423722269, 48.478397612897659 ], [ -68.24082908728731, 48.475422430711127 ], [ -68.241517339171835, 48.470264475522377 ], [ -68.248578584789072, 48.468081559770162 ] ] ] } },
{ "type": "Feature", "properties": { "hex_id": 1047866, "centroid_lon": -68.244268403907967, "centroid_lat": 48.449632535014644, "occurrences_today": 6, "datetimes_today": "2026-09-25 00:02:09, 2026-09-25 00:16:56, 2026-09-25 00:32:00, 2026-09-25 00:47:04, 2026-09-25 01:01:59, 2026-09-25 01:17:13", "cumulative_total": 44.0 }, "geometry": { "type": "Polygon", "coordinates": [ [ [ -68.244955684740489, 48.444474519962966 ], [ -68.251326577927514, 48.447449309988492 ], [ -68.250639870592934, 48.452607390368037 ], [ -68.243580929004594, 48.454790538099118 ], [ -68.237209656425307, 48.451815296309988 ], [ -68.237897704756904, 48.446657358621749 ], [ -68.244955684740489, 48.444474519962966 ] ] ] } },
{ "type": "Feature", "properties": { "hex_id": 1047867, "centroid_lon": -68.242205396706325, "centroid_lat": 48.465106508355674, "occurrences_today": 6, "datetimes_today": "2026-09-25 00:02:09, 2026-09-25 00:16:56, 2026-09-25 00:32:00, 2026-09-25 00:47:04, 2026-09-25 01:01:59, 2026-09-25 01:17:13", "cumulative_total": 44.0 }, "geometry": { "type": "Polygon", "coordinates": [ [ [ -68.242893259960653, 48.459948529213698 ], [ -68.249265874093439, 48.462923515261551 ], [ -68.248578584789072, 48.468081559770162 ], [ -68.241517339171835, 48.470264475522377 ], [ -68.23514434540418, 48.467289037466948 ], [ -68.235832976818784, 48.462131135735277 ], [ -68.242893259960653, 48.459948529213698 ] ] ] } },
{ "type": "Feature", "properties": { "hex_id": 1048477, "centroid_lon": -68.236521413802549, "centroid_lat": 48.456973222015392, "occurrences_today": 6, "datetimes_today": "2026-09-25 00:02:09, 2026-09-25 00:16:56, 2026-09-25 00:32:00, 2026-09-25 00:47:04, 2026-09-25 01:01:59, 2026-09-25 01:17:13", "cumulative_total": 44.0 }, "geometry": { "type": "Polygon", "coordinates": [ [ [ -68.237209656425307, 48.451815296309988 ], [ -68.243580929004594, 48.454790538099118 ], [ -68.242893259960653, 48.459948529213698 ], [ -68.235832976818784, 48.462131135735277 ], [ -68.229461325056604, 48.459155442023238 ], [ -68.230150335549325, 48.453997593780905 ], [ -68.237209656425307, 48.451815296309988 ] ] ] } },
{ "type": "Feature", "properties": { "hex_id": 1048478, "centroid_lon": -68.234455519488819, "centroid_lat": 48.472446927207699, "occurrences_today": 6, "datetimes_today": "2026-09-25 00:02:09, 2026-09-25 00:16:56, 2026-09-25 00:32:00, 2026-09-25 00:47:04, 2026-09-25 01:01:59, 2026-09-25 01:17:13", "cumulative_total": 44.0 }, "geometry": { "type": "Polygon", "coordinates": [ [ [ -68.23514434540418, 48.467289037466948 ], [ -68.241517339171835, 48.470264475522377 ], [ -68.24082908728731, 48.475422430711127 ], [ -68.233766499002755, 48.477604804954865 ], [ -68.227393125809925, 48.47462891473247 ], [ -68.228082720256864, 48.469471102501714 ], [ -68.23514434540418, 48.467289037466948 ] ] ] } },
{ "type": "Feature", "properties": { "hex_id": 760211, "centroid_lon": -71.535641288580479, "centroid_lat": 46.889383083713717, "occurrences_today": 1, "datetimes_today": "2026-09-25 00:02:09", "cumulative_total": 107.0 }, "geometry": { "type": "Polygon", "coordinates": [ [ [ -71.535975564899701, 46.884197049174013 ], [ -71.542359348051605, 46.886988353848601 ], [ -71.542025654488569, 46.89217442084977 ], [ -71.53530691948572, 46.894569111704051 ], [ -71.528922646369296, 46.89177740191154 ], [ -71.529257598188025, 46.88659140644971 ], [ -71.535975564899701, 46.884197049174013 ] ] ] } },
{ "type": "Feature", "properties": { "hex_id": 757771, "centroid_lon": -71.559854107238465, "centroid_lat": 46.921290981281118, "occurrences_today": 2, "datetimes_today": "2026-09-25 00:02:09, 2026-09-25 00:16:56", "cumulative_total": 35.0 }, "geometry": { "type": "Polygon", "coordinates": [ [ [ -71.560186420165067, 46.916104843355804 ], [ -71.566575239950907, 46.918894915617734 ], [ -71.566243511171592, 46.924081085788259 ], [ -71.559521702039021, 46.926477112680644 ], [ -71.553132390394794, 46.923686635067192 ], [ -71.553465379709451, 46.918500535979987 ], [ -71.560186420165067, 46.916104843355804 ] ] ] } },
{ "type": "Feature", "properties": { "hex_id": 758381, "centroid_lon": -71.553798276593227, "centroid_lat": 46.913314430360515, "occurrences_today": 2, "datetimes_today": "2026-09-25 00:02:09, 2026-09-25 00:16:56", "cumulative_total": 35.0 }, "geometry": { "type": "Polygon", "coordinates": [ [ [ -71.554131081078239, 46.908128318209343 ], [ -71.560518640850887, 46.910918698905327 ], [ -71.560186420165067, 46.916104843355804 ], [ -71.553465379709451, 46.918500535979987 ], [ -71.547077328552433, 46.91570974999086 ], [ -71.547410809203299, 46.91052367673781 ], [ -71.554131081078239, 46.908128318209343 ] ] ] } },
{ "type": "Feature", "properties": { "hex_id": 758991, "centroid_lon": -71.547744197297504, "centroid_lat": 46.905337596946573, "occurrences_today": 6, "datetimes_today": "2026-09-25 00:02:09, 2026-09-25 00:16:56, 2026-09-25 00:32:00, 2026-09-25 00:47:04, 2026-09-25 01:01:59, 2026-09-25 01:17:13", "cumulative_total": 38.0 }, "geometry": { "type": "Polygon", "coordinates": [ [ [ -71.548077492867179, 46.900151510617754 ], [ -71.554463793196589, 46.902942199527104 ], [ -71.554131081078239, 46.908128318209343 ], [ -71.547410809203299, 46.91052367673781 ], [ -71.541024017963139, 46.907732582593667 ], [ -71.541357989476523, 46.902546535222918 ], [ -71.548077492867179, 46.900151510617754 ] ] ] } },
{ "type": "Feature", "properties": { "hex_id": 758992, "centroid_lon": -71.546743755312718, "centroid_lat": 46.920895816705105, "occurrences_today": 2, "datetimes_today": "2026-09-25 00:02:09, 2026-09-25 00:16:56", "cumulative_total": 41.0 }, "geometry": { "type": "Polygon", "coordinates": [ [ [ -71.547077328552433, 46.91570974999086 ], [ -71.553465379709451, 46.918500535979987 ], [ -71.553132390394794, 46.923686635067192 ], [ -71.546410089451967, 46.926081876879948 ], [ -71.540021547007015, 46.923290685435227 ], [ -71.540355796760622, 46.918104657700454 ], [ -71.547077328552433, 46.91570974999086 ] ] ] } },
{ "type": "Feature", "properties": { "hex_id": 790109, "centroid_lon": -71.232669167449558, "centroid_lat": 46.622581663666857, "occurrences_today": 2, "datetimes_today": "2026-09-25 00:02:09, 2026-09-25 00:16:56", "cumulative_total": 55.0 }, "geometry": { "type": "Polygon", "coordinates": [ [ [ -71.233029267505088, 46.617397121659018 ], [ -71.239365711638669, 46.62020408245742 ], [ -71.23900618121796, 46.625388659692682 ], [ -71.232308967840893, 46.627766198812054 ], [ -71.225972053642778, 46.624958834031489 ], [ -71.226332822851944, 46.619774334179922 ], [ -71.233029267505088, 46.617397121659018 ] ] ] } },
{ "type": "Feature", "properties": { "hex_id": 1046647, "centroid_lon": -68.253578528863599, "centroid_lat": 48.481372473652925, "occurrences_today": 6, "datetimes_today": "2026-09-25 00:02:09, 2026-09-25 00:16:56, 2026-09-25 00:32:00, 2026-09-25 00:47:04, 2026-09-25 01:01:59, 2026-09-25 01:17:13", "cumulative_total": 27.0 }, "geometry": { "type": "Polygon", "coordinates": [ [ [ -68.254265632024399, 48.476214387734714 ], [ -68.260640931248972, 48.479188861662912 ], [ -68.259954402781119, 48.484347012862571 ], [ -68.25289123158467, 48.486530547616368 ], [ -68.246515551820181, 48.483555621511186 ], [ -68.247203423722269, 48.478397612897659 ], [ -68.254265632024399, 48.476214387734714 ] ] ] } },
{ "type": "Feature", "properties": { "hex_id": 1047258, "centroid_lon": -68.245827485579156, "centroid_lat": 48.4887136181543, "occurrences_today": 6, "datetimes_today": "2026-09-25 00:02:09, 2026-09-25 00:16:56, 2026-09-25 00:32:00, 2026-09-25 00:47:04, 2026-09-25 01:01:59, 2026-09-25 01:17:13", "cumulative_total": 27.0 }, "geometry": { "type": "Polygon", "coordinates": [ [ [ -68.246515551820181, 48.483555621511186 ], [ -68.25289123158467, 48.486530547616368 ], [ -68.252203740117778, 48.491688609622322 ], [ -68.245139224929275, 48.493871602824328 ], [ -68.238763164834481, 48.490896224382666 ], [ -68.239452000188564, 48.485738305143961 ], [ -68.246515551820181, 48.483555621511186 ] ] ] } },
{ "type": "Feature", "properties": { "hex_id": 1047868, "centroid_lon": -68.240140640982858, "centroid_lat": 48.48058037391921, "occurrences_today": 6, "datetimes_today": "2026-09-25 00:02:09, 2026-09-25 00:16:56, 2026-09-25 00:32:00, 2026-09-25 00:47:04, 2026-09-25 01:01:59, 2026-09-25 01:17:13", "cumulative_total": 27.0 }, "geometry": { "type": "Polygon", "coordinates": [ [ [ -68.24082908728731, 48.475422430711127 ], [ -68.247203423722269, 48.478397612897659 ], [ -68.246515551820181, 48.483555621511186 ], [ -68.239452000188564, 48.485738305143961 ], [ -68.233077283876042, 48.482762670705718 ], [ -68.233766499002755, 48.477604804954865 ], [ -68.24082908728731, 48.475422430711127 ] ] ] } },
{ "type": "Feature", "properties": { "hex_id": 1048479, "centroid_lon": -68.232387874038665, "centroid_lat": 48.487920524457586, "occurrences_today": 6, "datetimes_today": "2026-09-25 00:02:09, 2026-09-25 00:16:56, 2026-09-25 00:32:00, 2026-09-25 00:47:04, 2026-09-25 01:01:59, 2026-09-25 01:17:13", "cumulative_total": 27.0 }, "geometry": { "type": "Polygon", "coordinates": [ [ [ -68.233077283876042, 48.482762670705718 ], [ -68.239452000188564, 48.485738305143961 ], [ -68.238763164834481, 48.490896224382666 ], [ -68.231698269420605, 48.49307836620774 ], [ -68.225323173440529, 48.490102279358354 ], [ -68.226013352471824, 48.48494450316349 ], [ -68.233077283876042, 48.482762670705718 ] ] ] } },
{ "type": "Feature", "properties": { "hex_id": 647244, "centroid_lon": -72.764493504811853, "centroid_lat": 46.538099897681654, "occurrences_today": 4, "datetimes_today": "2026-09-25 00:32:00, 2026-09-25 00:47:04, 2026-09-25 01:01:59, 2026-09-25 01:17:13", "cumulative_total": 10.0 }, "geometry": { "type": "Polygon", "coordinates": [ [ [ -72.764706655477994, 46.532907995213804 ], [ -72.771115581273122, 46.535631149741036 ], [ -72.770903021234574, 46.540823072399228 ], [ -72.764280295201104, 46.54329179466243 ], [ -72.757870837733165, 46.540568250407929 ], [ -72.7580846379512, 46.535376373684201 ], [ -72.764706655477994, 46.532907995213804 ] ] ] } },
{ "type": "Feature", "properties": { "hex_id": 789499, "centroid_lon": -71.238646551397181, "centroid_lat": 46.630573230072244, "occurrences_today": 2, "datetimes_today": "2026-09-25 00:02:09, 2026-09-25 00:16:56", "cumulative_total": 27.0 }, "geometry": { "type": "Polygon", "coordinates": [ [ [ -71.23900618121796, 46.625388659692682 ], [ -71.245343864191454, 46.628195322152287 ], [ -71.244984804345933, 46.633379927706933 ], [ -71.238286822142044, 46.635757793595374 ], [ -71.231948668644776, 46.632950727093849 ], [ -71.232308967840893, 46.627766198812054 ], [ -71.23900618121796, 46.625388659692682 ] ] ] } },
{ "type": "Feature", "properties": { "hex_id": 758990, "centroid_lon": -71.548743806561532, "centroid_lat": 46.889779318349852, "occurrences_today": 6, "datetimes_today": "2026-09-25 00:02:09, 2026-09-25 00:16:56, 2026-09-25 00:32:00, 2026-09-25 00:47:04, 2026-09-25 01:01:59, 2026-09-25 01:17:13", "cumulative_total": 116.0 }, "geometry": { "type": "Polygon", "coordinates": [ [ [ -71.549076824750443, 46.884593212412 ], [ -71.555461375672479, 46.887383804300121 ], [ -71.555128940461643, 46.892569942571889 ], [ -71.548410695944483, 46.89496541775199 ], [ -71.542025654488569, 46.89217442084977 ], [ -71.542359348051605, 46.886988353848601 ], [ -71.549076824750443, 46.884593212412 ] ] ] } },
{ "type": "Feature", "properties": { "hex_id": 758380, "centroid_lon": -71.554796412980366, "centroid_lat": 46.897756074314437, "occurrences_today": 6, "datetimes_today": "2026-09-25 00:02:09, 2026-09-25 00:16:56, 2026-09-25 00:32:00, 2026-09-25 00:47:04, 2026-09-25 01:01:59, 2026-09-25 01:17:13", "cumulative_total": 50.0 }, "geometry": { "type": "Polygon", "coordinates": [ [ [ -71.555128940461643, 46.892569942571889 ], [ -71.56151474978401, 46.895360226408826 ], [ -71.561182805628306, 46.900546390431217 ], [ -71.554463793196589, 46.902942199527104 ], [ -71.548077492867179, 46.900151510617754 ], [ -71.548410695944483, 46.89496541775199 ], [ -71.555128940461643, 46.892569942571889 ] ] ] } },
{ "type": "Feature", "properties": { "hex_id": 756549, "centroid_lon": -71.573957617888482, "centroid_lat": 46.906126000904131, "occurrences_today": 1, "datetimes_today": "2026-09-25 00:02:09", "cumulative_total": 33.0 }, "geometry": { "type": "Polygon", "coordinates": [ [ [ -71.574288394823483, 46.900939772503769 ], [ -71.58067623060451, 46.903729034549983 ], [ -71.580346037564638, 46.908915295048388 ], [ -71.573626749124642, 46.911312222794074 ], [ -71.567238421293311, 46.908522555721213 ], [ -71.567569873920348, 46.903336365996417 ], [ -71.574288394823483, 46.900939772503769 ] ] ] } },
{ "type": "Feature", "properties": { "hex_id": 757160, "centroid_lon": -71.566906876647479, "centroid_lat": 46.913708738928527, "occurrences_today": 1, "datetimes_today": "2026-09-25 00:02:09", "cumulative_total": 33.0 }, "geometry": { "type": "Polygon", "coordinates": [ [ [ -71.567238421293311, 46.908522555721213 ], [ -71.573626749124642, 46.911312222794074 ], [ -71.573295788500047, 46.916498438172994 ], [ -71.566575239950907, 46.918894915617734 ], [ -71.560186420165067, 46.916104843355804 ], [ -71.560518640850887, 46.910918698905327 ], [ -71.567238421293311, 46.908522555721213 ] ] ] } },
{ "type": "Feature", "properties": { "hex_id": 755938, "centroid_lon": -71.581006332005387, "centroid_lat": 46.898542767548228, "occurrences_today": 6, "datetimes_today": "2026-09-25 00:02:09, 2026-09-25 00:16:56, 2026-09-25 00:32:00, 2026-09-25 00:47:04, 2026-09-25 01:01:59, 2026-09-25 01:17:13", "cumulative_total": 37.0 }, "geometry": { "type": "Polygon", "coordinates": [ [ [ -71.581336341799144, 46.893356494043708 ], [ -71.587723685434213, 46.896145351225705 ], [ -71.58739425940945, 46.901331656754735 ], [ -71.58067623060451, 46.903729034549983 ], [ -71.574288394823483, 46.900939772503769 ], [ -71.574619079961536, 46.895753537593627 ], [ -71.581336341799144, 46.893356494043708 ] ] ] } },
{ "type": "Feature", "properties": { "hex_id": 756548, "centroid_lon": -71.57494967333453, "centroid_lat": 46.890567296174261, "occurrences_today": 6, "datetimes_today": "2026-09-25 00:02:09, 2026-09-25 00:16:56, 2026-09-25 00:32:00, 2026-09-25 00:47:04, 2026-09-25 01:01:59, 2026-09-25 01:17:13", "cumulative_total": 53.0 }, "geometry": { "type": "Polygon", "coordinates": [ [ [ -71.575280174974353, 46.885381048246288 ], [ -71.581666260017585, 46.888170214037046 ], [ -71.581336341799144, 46.893356494043708 ], [ -71.574619079961536, 46.895753537593627 ], [ -71.568232503246051, 46.89296396699681 ], [ -71.568563680008566, 46.887777757723192 ], [ -71.575280174974353, 46.885381048246288 ] ] ] } },
{ "type": "Feature", "properties": { "hex_id": 757158, "centroid_lon": -71.568894764880085, "centroid_lat": 46.882591541934516, "occurrences_today": 6, "datetimes_today": "2026-09-25 00:02:09, 2026-09-25 00:16:56, 2026-09-25 00:32:00, 2026-09-25 00:47:04, 2026-09-25 01:01:59, 2026-09-25 01:17:13", "cumulative_total": 63.0 }, "geometry": { "type": "Polygon", "coordinates": [ [ [ -71.569225757892539, 46.877405319631372 ], [ -71.575610584912823, 46.880194793810318 ], [ -71.575280174974353, 46.885381048246288 ], [ -71.568563680008566, 46.887777757723192 ], [ -71.562178361789336, 46.884987878796395 ], [ -71.562510029702935, 46.879801695207568 ], [ -71.569225757892539, 46.877405319631372 ] ] ] } },
{ "type": "Feature", "properties": { "hex_id": 757159, "centroid_lon": -71.567901234560622, "centroid_lat": 46.898150169754764, "occurrences_today": 6, "datetimes_today": "2026-09-25 00:02:09, 2026-09-25 00:16:56, 2026-09-25 00:32:00, 2026-09-25 00:47:04, 2026-09-25 01:01:59, 2026-09-25 01:17:13", "cumulative_total": 43.0 }, "geometry": { "type": "Polygon", "coordinates": [ [ [ -71.568232503246051, 46.89296396699681 ], [ -71.574619079961536, 46.895753537593627 ], [ -71.574288394823483, 46.900939772503769 ], [ -71.567569873920348, 46.903336365996417 ], [ -71.561182805628306, 46.900546390431217 ], [ -71.56151474978401, 46.895360226408826 ], [ -71.568232503246051, 46.89296396699681 ] ] ] } },
{ "type": "Feature", "properties": { "hex_id": 757770, "centroid_lon": -71.560850769327956, "centroid_lat": 46.905732547930256, "occurrences_today": 6, "datetimes_today": "2026-09-25 00:02:09, 2026-09-25 00:16:56, 2026-09-25 00:32:00, 2026-09-25 00:47:04, 2026-09-25 01:01:59, 2026-09-25 01:17:13", "cumulative_total": 37.0 }, "geometry": { "type": "Polygon", "coordinates": [ [ [ -71.561182805628306, 46.900546390431217 ], [ -71.567569873920348, 46.903336365996417 ], [ -71.567238421293311, 46.908522555721213 ], [ -71.560518640850887, 46.910918698905327 ], [ -71.554131081078239, 46.908128318209343 ], [ -71.554463793196589, 46.902942199527104 ], [ -71.561182805628306, 46.900546390431217 ] ] ] } },
{ "type": "Feature", "properties": { "hex_id": 758379, "centroid_lon": -71.555793718644907, "centroid_lat": 46.882197659499717, "occurrences_today": 6, "datetimes_today": "2026-09-25 00:02:09, 2026-09-25 00:16:56, 2026-09-25 00:32:00, 2026-09-25 00:47:04, 2026-09-25 01:01:59, 2026-09-25 01:17:13", "cumulative_total": 63.0 }, "geometry": { "type": "Polygon", "coordinates": [ [ [ -71.556125969410957, 46.877011508171293 ], [ -71.562510029702935, 46.879801695207568 ], [ -71.562178361789336, 46.884987878796395 ], [ -71.555461375672479, 46.887383804300121 ], [ -71.549076824750443, 46.884593212412 ], [ -71.549409750543305, 46.879407099939009 ], [ -71.556125969410957, 46.877011508171293 ] ] ] } },
{ "type": "Feature", "properties": { "hex_id": 759601, "centroid_lon": -71.541691868307609, "centroid_lat": 46.897360481308091, "occurrences_today": 6, "datetimes_today": "2026-09-25 00:02:09, 2026-09-25 00:16:56, 2026-09-25 00:32:00, 2026-09-25 00:47:04, 2026-09-25 01:01:59, 2026-09-25 01:17:13", "cumulative_total": 37.0 }, "geometry": { "type": "Polygon", "coordinates": [ [ [ -71.542025654488569, 46.89217442084977 ], [ -71.548410695944483, 46.89496541775199 ], [ -71.548077492867179, 46.900151510617754 ], [ -71.541357989476523, 46.902546535222918 ], [ -71.534972457583166, 46.899755133144367 ], [ -71.53530691948572, 46.894569111704051 ], [ -71.542025654488569, 46.89217442084977 ] ] ] } },
{ "type": "Feature", "properties": { "hex_id": 760822, "centroid_lon": -71.528587601585158, "centroid_lat": 46.896963390816836, "occurrences_today": 2, "datetimes_today": "2026-09-25 00:02:09, 2026-09-25 00:16:56", "cumulative_total": 59.0 }, "geometry": { "type": "Polygon", "coordinates": [ [ [ -71.528922646369296, 46.89177740191154 ], [ -71.53530691948572, 46.894569111704051 ], [ -71.534972457583166, 46.899755133144367 ], [ -71.528252463803369, 46.902149373164974 ], [ -71.5218677008192, 46.899357258092351 ], [ -71.522203421450271, 46.89417130834628 ], [ -71.528922646369296, 46.89177740191154 ] ] ] } },
{ "type": "Feature", "properties": { "hex_id": 760823, "centroid_lon": -71.527581909117472, "centroid_lat": 46.912521318187366, "occurrences_today": 2, "datetimes_today": "2026-09-25 00:02:09, 2026-09-25 00:16:56", "cumulative_total": 33.0 }, "geometry": { "type": "Polygon", "coordinates": [ [ [ -71.527917232991584, 46.907335348955364 ], [ -71.534303255225723, 46.910127156372567 ], [ -71.533968514706302, 46.915313158159194 ], [ -71.527246492148706, 46.917707280860334 ], [ -71.520859979670718, 46.914915067942189 ], [ -71.521195979961803, 46.909729137890942 ], [ -71.527917232991584, 46.907335348955364 ] ] ] } },
{ "type": "Feature", "properties": { "hex_id": 761433, "centroid_lon": -71.521531887000506, "centroid_lat": 46.904543201274123, "occurrences_today": 2, "datetimes_today": "2026-09-25 00:02:09, 2026-09-25 00:16:56", "cumulative_total": 33.0 }, "geometry": { "type": "Polygon", "coordinates": [ [ [ -71.5218677008192, 46.899357258092351 ], [ -71.528252463803369, 46.902149373164974 ], [ -71.527917232991584, 46.907335348955364 ], [ -71.521195979961803, 46.909729137890942 ], [ -71.51481072720695, 46.906936617375919 ], [ -71.515147217220161, 46.901750713434765 ], [ -71.5218677008192, 46.899357258092351 ] ] ] } }
]
}
