{
"type": "FeatureCollection",
"name": "daily_2025-12-04",
"crs": { "type": "name", "properties": { "name": "urn:ogc:def:crs:OGC:1.3:CRS84" } },
"features": [
{ "type": "Feature", "properties": { "hex_id": 16, "count": 2, "date": "2025-12-04", "n_files": 22, "pct": 9.09 }, "geometry": { "type": "Polygon", "coordinates": [ [ [ -74.9916369, 45.7807988 ], [ -74.991633, 45.8067815 ], [ -75.023813, 45.8197707 ], [ -75.0559819, 45.8067681 ], [ -75.0559559, 45.7807855 ], [ -75.0237908, 45.7678053 ], [ -74.9916369, 45.7807988 ] ] ] } },
{ "type": "Feature", "properties": { "hex_id": 80, "count": 2, "date": "2025-12-04", "n_files": 22, "pct": 9.09 }, "geometry": { "type": "Polygon", "coordinates": [ [ [ -74.9595056, 45.7418177 ], [ -74.9594868, 45.7678006 ], [ -74.9916369, 45.7807988 ], [ -75.0237908, 45.7678053 ], [ -75.0237798, 45.7418224 ], [ -74.9916446, 45.7288331 ], [ -74.9595056, 45.7418177 ] ] ] } },
{ "type": "Feature", "properties": { "hex_id": 88, "count": 3, "date": "2025-12-04", "n_files": 22, "pct": 13.64 }, "geometry": { "type": "Polygon", "coordinates": [ [ [ -74.9590472, 46.3653738 ], [ -74.9590278, 46.3913539 ], [ -74.9915421, 46.4043509 ], [ -75.0240604, 46.3913587 ], [ -75.024049, 46.3653786 ], [ -74.9915501, 46.3523908 ], [ -74.9590472, 46.3653738 ] ] ] } },
{ "type": "Feature", "properties": { "hex_id": 151, "count": 3, "date": "2025-12-04", "n_files": 22, "pct": 13.64 }, "geometry": { "type": "Polygon", "coordinates": [ [ [ -74.9265986, 46.3263873 ], [ -74.9265638, 46.3523675 ], [ -74.9590472, 46.3653738 ], [ -74.9915501, 46.3523908 ], [ -74.9915541, 46.3264106 ], [ -74.959086, 46.3134134 ], [ -74.9265986, 46.3263873 ] ] ] } },
{ "type": "Feature", "properties": { "hex_id": 595, "count": 6, "date": "2025-12-04", "n_files": 22, "pct": 27.27 }, "geometry": { "type": "Polygon", "coordinates": [ [ [ -74.7011606, 45.9752758 ], [ -74.7010207, 46.0012572 ], [ -74.7332449, 46.0143279 ], [ -74.7655941, 46.0014079 ], [ -74.7657037, 45.975426299999988 ], [ -74.7334944, 45.9623648 ], [ -74.7011606, 45.9752758 ] ] ] } },
{ "type": "Feature", "properties": { "hex_id": 853, "count": 1, "date": "2025-12-04", "n_files": 22, "pct": 4.55 }, "geometry": { "type": "Polygon", "coordinates": [ [ [ -74.5708704, 46.1307501 ], [ -74.5706685, 46.1567304 ], [ -74.6029521, 46.1698377 ], [ -74.6354227, 46.1569553 ], [ -74.6355942, 46.1309747 ], [ -74.6033254, 46.1178767 ], [ -74.5708704, 46.1307501 ] ] ] } },
{ "type": "Feature", "properties": { "hex_id": 917, "count": 1, "date": "2025-12-04", "n_files": 22, "pct": 4.55 }, "geometry": { "type": "Polygon", "coordinates": [ [ [ -74.538183, 46.1695943 ], [ -74.5379655, 46.1955744 ], [ -74.570263900000015, 46.2086908 ], [ -74.602765, 46.195818 ], [ -74.6029521, 46.1698377 ], [ -74.5706685, 46.1567304 ], [ -74.538183, 46.1695943 ] ] ] } },
{ "type": "Feature", "properties": { "hex_id": 1040, "count": 9, "date": "2025-12-04", "n_files": 22, "pct": 40.91 }, "geometry": { "type": "Polygon", "coordinates": [ [ [ -74.477095800000015, 45.7796026 ], [ -74.4768527, 45.8055842 ], [ -74.5089111, 45.8187178 ], [ -74.541198, 45.8058607 ], [ -74.5414112, 45.7798789 ], [ -74.5093673, 45.7667543 ], [ -74.477095800000015, 45.7796026 ] ] ] } },
{ "type": "Feature", "properties": { "hex_id": 1041, "count": 9, "date": "2025-12-04", "n_files": 22, "pct": 40.91 }, "geometry": { "type": "Polygon", "coordinates": [ [ [ -74.4763656, 45.8575471 ], [ -74.4761216, 45.8835284 ], [ -74.5082245, 45.8966622 ], [ -74.5405568, 45.8838056 ], [ -74.5407709, 45.8578241 ], [ -74.5086825, 45.8446994 ], [ -74.4763656, 45.8575471 ] ] ] } },
{ "type": "Feature", "properties": { "hex_id": 1105, "count": 9, "date": "2025-12-04", "n_files": 22, "pct": 40.91 }, "geometry": { "type": "Polygon", "coordinates": [ [ [ -74.4445513, 45.8184231 ], [ -74.4442928, 45.8444044 ], [ -74.4763656, 45.8575471 ], [ -74.5086825, 45.8446994 ], [ -74.5089111, 45.8187178 ], [ -74.4768527, 45.8055842 ], [ -74.4445513, 45.8184231 ] ] ] } },
{ "type": "Feature", "properties": { "hex_id": 1106, "count": 9, "date": "2025-12-04", "n_files": 22, "pct": 40.91 }, "geometry": { "type": "Polygon", "coordinates": [ [ [ -74.4437747, 45.8963666 ], [ -74.4435151, 45.9223476 ], [ -74.4756325, 45.9354905 ], [ -74.507995, 45.9226434 ], [ -74.5082245, 45.8966622 ], [ -74.4761216, 45.8835284 ], [ -74.4437747, 45.8963666 ] ] ] } },
{ "type": "Feature", "properties": { "hex_id": 1168, "count": 9, "date": "2025-12-04", "n_files": 22, "pct": 40.91 }, "geometry": { "type": "Polygon", "coordinates": [ [ [ -74.4127813, 45.7792902 ], [ -74.4125084, 45.8052715 ], [ -74.4445513, 45.8184231 ], [ -74.4768527, 45.8055842 ], [ -74.477095800000015, 45.7796026 ], [ -74.4450673, 45.766460099999989 ], [ -74.4127813, 45.7792902 ] ] ] } },
{ "type": "Feature", "properties": { "hex_id": 1169, "count": 9, "date": "2025-12-04", "n_files": 22, "pct": 40.91 }, "geometry": { "type": "Polygon", "coordinates": [ [ [ -74.4119614, 45.8572338 ], [ -74.4116874, 45.8832148 ], [ -74.4437747, 45.8963666 ], [ -74.4761216, 45.8835284 ], [ -74.4763656, 45.8575471 ], [ -74.4442928, 45.8444044 ], [ -74.4119614, 45.8572338 ] ] ] } },
{ "type": "Feature", "properties": { "hex_id": 1233, "count": 9, "date": "2025-12-04", "n_files": 22, "pct": 40.91 }, "geometry": { "type": "Polygon", "coordinates": [ [ [ -74.3801926, 45.8180921 ], [ -74.3799041, 45.8440731 ], [ -74.4119614, 45.8572338 ], [ -74.4442928, 45.8444044 ], [ -74.4445513, 45.8184231 ], [ -74.4125084, 45.8052715 ], [ -74.3801926, 45.8180921 ] ] ] } },
{ "type": "Feature", "properties": { "hex_id": 1234, "count": 8, "date": "2025-12-04", "n_files": 22, "pct": 36.36 }, "geometry": { "type": "Polygon", "coordinates": [ [ [ -74.379326, 45.8960348 ], [ -74.37903630000001, 45.9220154 ], [ -74.4111381, 45.9351764 ], [ -74.4435151, 45.9223476 ], [ -74.4437747, 45.8963666 ], [ -74.4116874, 45.8832148 ], [ -74.379326, 45.8960348 ] ] ] } },
{ "type": "Feature", "properties": { "hex_id": 1297, "count": 8, "date": "2025-12-04", "n_files": 22, "pct": 36.36 }, "geometry": { "type": "Polygon", "coordinates": [ [ [ -74.3475583, 45.8568842 ], [ -74.3472543, 45.8828649 ], [ -74.379326, 45.8960348 ], [ -74.4116874, 45.8832148 ], [ -74.4119614, 45.8572338 ], [ -74.3799041, 45.8440731 ], [ -74.3475583, 45.8568842 ] ] ] } },
{ "type": "Feature", "properties": { "hex_id": 1362, "count": 8, "date": "2025-12-04", "n_files": 22, "pct": 36.36 }, "geometry": { "type": "Polygon", "coordinates": [ [ [ -74.3148785, 45.8956665 ], [ -74.3145588, 45.9216468 ], [ -74.3466449, 45.9348259 ], [ -74.37903630000001, 45.9220154 ], [ -74.379326, 45.8960348 ], [ -74.3472543, 45.8828649 ], [ -74.3148785, 45.8956665 ] ] ] } },
{ "type": "Feature", "properties": { "hex_id": 1425, "count": 8, "date": "2025-12-04", "n_files": 22, "pct": 36.36 }, "geometry": { "type": "Polygon", "coordinates": [ [ [ -74.2831565, 45.8564984 ], [ -74.2828224, 45.8824787 ], [ -74.3148785, 45.8956665 ], [ -74.3472543, 45.8828649 ], [ -74.3475583, 45.8568842 ], [ -74.3155166, 45.8437055 ], [ -74.2831565, 45.8564984 ] ] ] } },
{ "type": "Feature", "properties": { "hex_id": 1429, "count": 3, "date": "2025-12-04", "n_files": 22, "pct": 13.64 }, "geometry": { "type": "Polygon", "coordinates": [ [ [ -74.2791172, 46.1682542 ], [ -74.2787776, 46.194233 ], [ -74.3110127, 46.2074223 ], [ -74.3435728, 46.1946235 ], [ -74.3438819, 46.1686443 ], [ -74.3116614, 46.1554642 ], [ -74.2791172, 46.1682542 ] ] ] } },
{ "type": "Feature", "properties": { "hex_id": 1490, "count": 8, "date": "2025-12-04", "n_files": 22, "pct": 36.36 }, "geometry": { "type": "Polygon", "coordinates": [ [ [ -74.2504323, 45.895262 ], [ -74.2500825, 45.9212419 ], [ -74.2821529, 45.9344389 ], [ -74.3145588, 45.9216468 ], [ -74.3148785, 45.8956665 ], [ -74.2828224, 45.8824787 ], [ -74.2504323, 45.895262 ] ] ] } },
{ "type": "Feature", "properties": { "hex_id": 1494, "count": 3, "date": "2025-12-04", "n_files": 22, "pct": 13.64 }, "geometry": { "type": "Polygon", "coordinates": [ [ [ -74.2462029, 46.2070134 ], [ -74.2458473, 46.2329919 ], [ -74.2780969, 46.2461904 ], [ -74.3106876, 46.2334012 ], [ -74.3110127, 46.2074223 ], [ -74.2787776, 46.194233 ], [ -74.2462029, 46.2070134 ] ] ] } },
{ "type": "Feature", "properties": { "hex_id": 1557, "count": 3, "date": "2025-12-04", "n_files": 22, "pct": 13.64 }, "geometry": { "type": "Polygon", "coordinates": [ [ [ -74.2143539, 46.1678274 ], [ -74.2139838, 46.1938059 ], [ -74.2462029, 46.2070134 ], [ -74.2787776, 46.194233 ], [ -74.2791172, 46.1682542 ], [ -74.2469126, 46.155056 ], [ -74.2143539, 46.1678274 ] ] ] } },
{ "type": "Feature", "properties": { "hex_id": 1809, "count": 3, "date": "2025-12-04", "n_files": 22, "pct": 13.64 }, "geometry": { "type": "Polygon", "coordinates": [ [ [ -74.0899597, 45.855123 ], [ -74.0895356, 45.881102 ], [ -74.1215443, 45.8943438 ], [ -74.153963, 45.881597199999987 ], [ -74.154357, 45.8556177 ], [ -74.1223625, 45.8423852 ], [ -74.0899597, 45.855123 ] ] ] } },
{ "type": "Feature", "properties": { "hex_id": 1937, "count": 5, "date": "2025-12-04", "n_files": 22, "pct": 22.73 }, "geometry": { "type": "Polygon", "coordinates": [ [ [ -74.0255641, 45.8545919 ], [ -74.02511, 45.8805705 ], [ -74.0571028, 45.8938302 ], [ -74.0895356, 45.881102 ], [ -74.0899597, 45.855123 ], [ -74.057981, 45.8418725 ], [ -74.0255641, 45.8545919 ] ] ] } },
{ "type": "Feature", "properties": { "hex_id": 2062, "count": 1, "date": "2025-12-04", "n_files": 22, "pct": 4.55 }, "geometry": { "type": "Polygon", "coordinates": [ [ [ -73.9654972, 45.6202163 ], [ -73.9650191, 45.6461955 ], [ -73.9968646, 45.6594713 ], [ -74.0291744, 45.6467588 ], [ -74.0296229, 45.6207791 ], [ -73.9977912, 45.6075124 ], [ -73.9654972, 45.6202163 ] ] ] } },
{ "type": "Feature", "properties": { "hex_id": 2126, "count": 1, "date": "2025-12-04", "n_files": 22, "pct": 4.55 }, "geometry": { "type": "Polygon", "coordinates": [ [ [ -73.9341733, 45.5809528 ], [ -73.9336814, 45.6069319 ], [ -73.9654972, 45.6202163 ], [ -73.9977912, 45.6075124 ], [ -73.9982536, 45.5815328 ], [ -73.9664515, 45.5682576 ], [ -73.9341733, 45.5809528 ] ] ] } },
{ "type": "Feature", "properties": { "hex_id": 2187, "count": 1, "date": "2025-12-04", "n_files": 22, "pct": 4.55 }, "geometry": { "type": "Polygon", "coordinates": [ [ [ -73.9059123, 45.3858042 ], [ -73.9054108, 45.411784 ], [ -73.9371109, 45.4250756 ], [ -73.9692989, 45.4123784 ], [ -73.9697712, 45.3863981 ], [ -73.9380847, 45.3731156 ], [ -73.9059123, 45.3858042 ] ] ] } },
{ "type": "Feature", "properties": { "hex_id": 2190, "count": 1, "date": "2025-12-04", "n_files": 22, "pct": 4.55 }, "geometry": { "type": "Polygon", "coordinates": [ [ [ -73.9013735, 45.6196176 ], [ -73.9008658, 45.6455962 ], [ -73.9326955, 45.6588898 ], [ -73.9650191, 45.6461955 ], [ -73.9654972, 45.6202163 ], [ -73.9336814, 45.6069319 ], [ -73.9013735, 45.6196176 ] ] ] } },
{ "type": "Feature", "properties": { "hex_id": 2381, "count": 1, "date": "2025-12-04", "n_files": 22, "pct": 4.55 }, "geometry": { "type": "Polygon", "coordinates": [ [ [ -73.8076675, 45.5017505 ], [ -73.8071187, 45.5277288 ], [ -73.8388597, 45.5410479 ], [ -73.8711359, 45.5283795 ], [ -73.8716552, 45.5024006 ], [ -73.8399279, 45.4890906 ], [ -73.8076675, 45.5017505 ] ] ] } },
{ "type": "Feature", "properties": { "hex_id": 2383, "count": 4, "date": "2025-12-04", "n_files": 22, "pct": 18.18 }, "geometry": { "type": "Polygon", "coordinates": [ [ [ -73.8043634, 45.6576186 ], [ -73.8038101, 45.6835962 ], [ -73.8356376, 45.6969167 ], [ -73.8680047, 45.6842504 ], [ -73.8685284, 45.6582722 ], [ -73.8367146, 45.6449609 ], [ -73.8043634, 45.6576186 ] ] ] } },
{ "type": "Feature", "properties": { "hex_id": 2445, "count": 3, "date": "2025-12-04", "n_files": 22, "pct": 13.64 }, "geometry": { "type": "Polygon", "coordinates": [ [ [ -73.7748289, 45.540379 ], [ -73.7742642, 45.5663569 ], [ -73.8060188, 45.5796851 ], [ -73.8383245, 45.5670263 ], [ -73.8388597, 45.5410479 ], [ -73.8071187, 45.5277288 ], [ -73.7748289, 45.540379 ] ] ] } },
{ "type": "Feature", "properties": { "hex_id": 2572, "count": 3, "date": "2025-12-04", "n_files": 22, "pct": 13.64 }, "geometry": { "type": "Polygon", "coordinates": [ [ [ -73.7125781, 45.4617419 ], [ -73.7119863, 45.4877195 ], [ -73.743682, 45.5010646 ], [ -73.7759559, 45.488423 ], [ -73.7765183, 45.4624447 ], [ -73.7448361, 45.4491088 ], [ -73.7125781, 45.4617419 ] ] ] } },
{ "type": "Feature", "properties": { "hex_id": 2635, "count": 3, "date": "2025-12-04", "n_files": 22, "pct": 13.64 }, "geometry": { "type": "Polygon", "coordinates": [ [ [ -73.6833275, 45.3444778 ], [ -73.6827248, 45.3704556 ], [ -73.7143484, 45.3838084 ], [ -73.7465614, 45.3711741 ], [ -73.7471349, 45.3451957 ], [ -73.7155247, 45.3318521 ], [ -73.6833275, 45.3444778 ] ] ] } },
{ "type": "Feature", "properties": { "hex_id": 2636, "count": 3, "date": "2025-12-04", "n_files": 22, "pct": 13.64 }, "geometry": { "type": "Polygon", "coordinates": [ [ [ -73.6815169, 45.4224109 ], [ -73.6809117, 45.4483883 ], [ -73.7125781, 45.4617419 ], [ -73.7448361, 45.4491088 ], [ -73.745412, 45.4231307 ], [ -73.7137591, 45.4097863 ], [ -73.6815169, 45.4224109 ] ] ] } },
{ "type": "Feature", "properties": { "hex_id": 2637, "count": 1, "date": "2025-12-04", "n_files": 22, "pct": 4.55 }, "geometry": { "type": "Polygon", "coordinates": [ [ [ -73.6796989, 45.5003429 ], [ -73.6790912, 45.5263199 ], [ -73.7108004, 45.5396742 ], [ -73.7431038, 45.5270423 ], [ -73.743682, 45.5010646 ], [ -73.7119863, 45.4877195 ], [ -73.6796989, 45.5003429 ] ] ] } },
{ "type": "Feature", "properties": { "hex_id": 2700, "count": 5, "date": "2025-12-04", "n_files": 22, "pct": 22.73 }, "geometry": { "type": "Polygon", "coordinates": [ [ [ -73.6486402, 45.4610032 ], [ -73.6480191, 45.4869801 ], [ -73.6796989, 45.5003429 ], [ -73.7119863, 45.4877195 ], [ -73.7125781, 45.4617419 ], [ -73.6809117, 45.4483883 ], [ -73.6486402, 45.4610032 ] ] ] } },
{ "type": "Feature", "properties": { "hex_id": 2701, "count": 4, "date": "2025-12-04", "n_files": 22, "pct": 18.18 }, "geometry": { "type": "Polygon", "coordinates": [ [ [ -73.6467744, 45.5389336 ], [ -73.6461507, 45.5649101 ], [ -73.6778734, 45.5782737 ], [ -73.7102063, 45.5656515 ], [ -73.7108004, 45.5396742 ], [ -73.6790912, 45.5263199 ], [ -73.6467744, 45.5389336 ] ] ] } },
{ "type": "Feature", "properties": { "hex_id": 2707, "count": 1, "date": "2025-12-04", "n_files": 22, "pct": 4.55 }, "geometry": { "type": "Polygon", "coordinates": [ [ [ -73.6354169, 46.0064922 ], [ -73.6347777, 46.0324665 ], [ -73.6667616, 46.045835 ], [ -73.699371, 46.0332199 ], [ -73.69998, 46.0072449 ], [ -73.6680099, 45.9938857 ], [ -73.6354169, 46.0064922 ] ] ] } },
{ "type": "Feature", "properties": { "hex_id": 2708, "count": 1, "date": "2025-12-04", "n_files": 22, "pct": 4.55 }, "geometry": { "type": "Polygon", "coordinates": [ [ [ -73.6334966, 46.0844146 ], [ -73.6328548, 46.1103886 ], [ -73.6648828, 46.1237579 ], [ -73.6975389, 46.111144 ], [ -73.6981504, 46.0851694 ], [ -73.6661362, 46.0718094 ], [ -73.6334966, 46.0844146 ] ] ] } },
{ "type": "Feature", "properties": { "hex_id": 2765, "count": 5, "date": "2025-12-04", "n_files": 22, "pct": 22.73 }, "geometry": { "type": "Polygon", "coordinates": [ [ [ -73.6157183, 45.4995853 ], [ -73.6150812, 45.5255617 ], [ -73.6467744, 45.5389336 ], [ -73.6790912, 45.5263199 ], [ -73.6796989, 45.5003429 ], [ -73.6480191, 45.4869801 ], [ -73.6157183, 45.4995853 ] ] ] } },
{ "type": "Feature", "properties": { "hex_id": 2768, "count": 6, "date": "2025-12-04", "n_files": 22, "pct": 27.27 }, "geometry": { "type": "Polygon", "coordinates": [ [ [ -73.609953, 45.7333682 ], [ -73.609308, 45.7593435 ], [ -73.6411307, 45.772718 ], [ -73.6735847, 45.7601079 ], [ -73.6741999, 45.734132 ], [ -73.6423908, 45.7207668 ], [ -73.609953, 45.7333682 ] ] ] } },
{ "type": "Feature", "properties": { "hex_id": 2772, "count": 1, "date": "2025-12-04", "n_files": 22, "pct": 4.55 }, "geometry": { "type": "Polygon", "coordinates": [ [ [ -73.6021546, 46.045063 ], [ -73.6014989, 46.0710367 ], [ -73.6334966, 46.0844146 ], [ -73.6661362, 46.0718094 ], [ -73.6667616, 46.045835 ], [ -73.6347777, 46.0324665 ], [ -73.6021546, 46.045063 ] ] ] } },
{ "type": "Feature", "properties": { "hex_id": 2773, "count": 3, "date": "2025-12-04", "n_files": 22, "pct": 13.64 }, "geometry": { "type": "Polygon", "coordinates": [ [ [ -73.6001848, 46.1229838 ], [ -73.5995264, 46.1489572 ], [ -73.6315684, 46.162336 ], [ -73.6642549, 46.149732 ], [ -73.6648828, 46.1237579 ], [ -73.6328548, 46.1103886 ], [ -73.6001848, 46.1229838 ] ] ] } },
{ "type": "Feature", "properties": { "hex_id": 2835, "count": 1, "date": "2025-12-04", "n_files": 22, "pct": 4.55 }, "geometry": { "type": "Polygon", "coordinates": [ [ [ -73.5708565, 46.0057029 ], [ -73.5701871, 46.0316765 ], [ -73.6021546, 46.045063 ], [ -73.6347777, 46.0324665 ], [ -73.6354169, 46.0064922 ], [ -73.6034632, 45.9931151 ], [ -73.5708565, 46.0057029 ] ] ] } },
{ "type": "Feature", "properties": { "hex_id": 2836, "count": 1, "date": "2025-12-04", "n_files": 22, "pct": 4.55 }, "geometry": { "type": "Polygon", "coordinates": [ [ [ -73.568845400000015, 46.0836233 ], [ -73.5681732, 46.1095965 ], [ -73.6001848, 46.1229838 ], [ -73.6328548, 46.1103886 ], [ -73.6334966, 46.0844146 ], [ -73.6014989, 46.0710367 ], [ -73.568845400000015, 46.0836233 ] ] ] } },
{ "type": "Feature", "properties": { "hex_id": 2892, "count": 6, "date": "2025-12-04", "n_files": 22, "pct": 27.27 }, "geometry": { "type": "Polygon", "coordinates": [ [ [ -73.5537343, 45.4208641 ], [ -73.5530705, 45.4468402 ], [ -73.584705, 45.4602288 ], [ -73.6169898, 45.4476322 ], [ -73.6176243, 45.4216554 ], [ -73.5860032, 45.408276 ], [ -73.5537343, 45.4208641 ] ] ] } },
{ "type": "Feature", "properties": { "hex_id": 2900, "count": 1, "date": "2025-12-04", "n_files": 22, "pct": 4.55 }, "geometry": { "type": "Polygon", "coordinates": [ [ [ -73.5375502, 46.0442544 ], [ -73.5368642, 46.0702274 ], [ -73.568845400000015, 46.0836233 ], [ -73.6014989, 46.0710367 ], [ -73.6021546, 46.045063 ], [ -73.5701871, 46.0316765 ], [ -73.5375502, 46.0442544 ] ] ] } },
{ "type": "Feature", "properties": { "hex_id": 2963, "count": 1, "date": "2025-12-04", "n_files": 22, "pct": 4.55 }, "geometry": { "type": "Polygon", "coordinates": [ [ [ -73.5062989, 46.0048773 ], [ -73.5055992, 46.0308501 ], [ -73.5375502, 46.0442544 ], [ -73.5701871, 46.0316765 ], [ -73.5708565, 46.0057029 ], [ -73.5389193, 45.992308 ], [ -73.5062989, 46.0048773 ] ] ] } },
{ "type": "Feature", "properties": { "hex_id": 2964, "count": 1, "date": "2025-12-04", "n_files": 22, "pct": 4.55 }, "geometry": { "type": "Polygon", "coordinates": [ [ [ -73.504197, 46.0827954 ], [ -73.5034945, 46.1087678 ], [ -73.5354895, 46.1221731 ], [ -73.5681732, 46.1095965 ], [ -73.568845400000015, 46.0836233 ], [ -73.5368642, 46.0702274 ], [ -73.504197, 46.0827954 ] ] ] } },
{ "type": "Feature", "properties": { "hex_id": 3149, "count": 2, "date": "2025-12-04", "n_files": 22, "pct": 9.09 }, "geometry": { "type": "Polygon", "coordinates": [ [ [ -73.4237925, 45.4970977 ], [ -73.4230672, 45.5230718 ], [ -73.454712, 45.5364964 ], [ -73.487069, 45.5239376 ], [ -73.4877649, 45.4979627 ], [ -73.4561333, 45.4845474 ], [ -73.4237925, 45.4970977 ] ] ] } },
{ "type": "Feature", "properties": { "hex_id": 3150, "count": 6, "date": "2025-12-04", "n_files": 22, "pct": 27.27 }, "geometry": { "type": "Polygon", "coordinates": [ [ [ -73.4216135, 45.5750197 ], [ -73.4208852, 45.6009935 ], [ -73.4525729, 45.6144191 ], [ -73.4849755, 45.6018616 ], [ -73.4856743, 45.5758871 ], [ -73.454, 45.5624708 ], [ -73.4216135, 45.5750197 ] ] ] } },
{ "type": "Feature", "properties": { "hex_id": 3274, "count": 6, "date": "2025-12-04", "n_files": 22, "pct": 27.27 }, "geometry": { "type": "Polygon", "coordinates": [ [ [ -73.3665696, 45.2624311 ], [ -73.3658241, 45.2884056 ], [ -73.397325600000016, 45.3018446 ], [ -73.4295597, 45.2893 ], [ -73.4302762, 45.2633247 ], [ -73.3987877, 45.2498948 ], [ -73.3665696, 45.2624311 ] ] ] } },
{ "type": "Feature", "properties": { "hex_id": 3402, "count": 6, "date": "2025-12-04", "n_files": 22, "pct": 27.27 }, "geometry": { "type": "Polygon", "coordinates": [ [ [ -73.302866, 45.261502 ], [ -73.3020914, 45.2874757 ], [ -73.333576900000011, 45.3009321 ], [ -73.3658241, 45.2884056 ], [ -73.3665696, 45.2624311 ], [ -73.3350971, 45.2489839 ], [ -73.302866, 45.261502 ] ] ] } },
{ "type": "Feature", "properties": { "hex_id": 3476, "count": 1, "date": "2025-12-04", "n_files": 22, "pct": 4.55 }, "geometry": { "type": "Polygon", "coordinates": [ [ [ -73.2456336, 46.0791183 ], [ -73.2448098, 46.105087399999988 ], [ -73.2767378, 46.1185642 ], [ -73.3094762, 46.1060624 ], [ -73.3102697, 46.0800924 ], [ -73.2783552, 46.0666251 ], [ -73.2456336, 46.0791183 ] ] ] } },
{ "type": "Feature", "properties": { "hex_id": 3541, "count": 2, "date": "2025-12-04", "n_files": 22, "pct": 9.09 }, "geometry": { "type": "Polygon", "coordinates": [ [ [ -73.2120579, 46.1175705 ], [ -73.2112172, 46.143539 ], [ -73.2431587, 46.1570253 ], [ -73.2759274, 46.1445336 ], [ -73.2767378, 46.1185642 ], [ -73.2448098, 46.105087399999988 ], [ -73.2120579, 46.1175705 ] ] ] } },
{ "type": "Feature", "properties": { "hex_id": 3604, "count": 1, "date": "2025-12-04", "n_files": 22, "pct": 4.55 }, "geometry": { "type": "Polygon", "coordinates": [ [ [ -73.1810009, 46.0781077 ], [ -73.1801468, 46.1040759 ], [ -73.2120579, 46.1175705 ], [ -73.2448098, 46.105087399999988 ], [ -73.2456336, 46.0791183 ], [ -73.2137359, 46.0656332 ], [ -73.1810009, 46.0781077 ] ] ] } },
{ "type": "Feature", "properties": { "hex_id": 3732, "count": 1, "date": "2025-12-04", "n_files": 22, "pct": 4.55 }, "geometry": { "type": "Polygon", "coordinates": [ [ [ -73.11637180000001, 46.0770605 ], [ -73.1154873, 46.1030278 ], [ -73.1473815, 46.1165402 ], [ -73.1801468, 46.1040759 ], [ -73.1810009, 46.0781077 ], [ -73.1491201, 46.0646047 ], [ -73.11637180000001, 46.0770605 ] ] ] } },
{ "type": "Feature", "properties": { "hex_id": 4040, "count": 2, "date": "2025-12-04", "n_files": 22, "pct": 9.09 }, "geometry": { "type": "Polygon", "coordinates": [ [ [ -72.98989, 45.1005073 ], [ -72.9889777, 45.1264771 ], [ -73.0202989, 45.1400174 ], [ -73.0525198, 45.1275788 ], [ -73.0534033, 45.101608 ], [ -73.022094600000017, 45.0880769 ], [ -72.98989, 45.1005073 ] ] ] } },
{ "type": "Feature", "properties": { "hex_id": 4104, "count": 2, "date": "2025-12-04", "n_files": 22, "pct": 9.09 }, "geometry": { "type": "Polygon", "coordinates": [ [ [ -72.9567443, 45.1388977 ], [ -72.9558158, 45.1648667 ], [ -72.9871495, 45.1784163 ], [ -73.0193993, 45.1659875 ], [ -73.0202989, 45.1400174 ], [ -72.9889777, 45.1264771 ], [ -72.9567443, 45.1388977 ] ] ] } },
{ "type": "Feature", "properties": { "hex_id": 4168, "count": 2, "date": "2025-12-04", "n_files": 22, "pct": 9.09 }, "geometry": { "type": "Polygon", "coordinates": [ [ [ -72.9263804, 45.0993714 ], [ -72.9254393, 45.125340199999989 ], [ -72.9567443, 45.1388977 ], [ -72.9889777, 45.1264771 ], [ -72.98989, 45.1005073 ], [ -72.9585975, 45.0869591 ], [ -72.9263804, 45.0993714 ] ] ] } },
{ "type": "Feature", "properties": { "hex_id": 4181, "count": 1, "date": "2025-12-04", "n_files": 22, "pct": 4.55 }, "geometry": { "type": "Polygon", "coordinates": [ [ [ -72.888713, 46.1120535 ], [ -72.8877205, 46.138017 ], [ -72.9195766, 46.1515923 ], [ -72.9524121, 46.1391946 ], [ -72.9533743, 46.11323 ], [ -72.9215313, 46.0996642 ], [ -72.888713, 46.1120535 ] ] ] } },
{ "type": "Feature", "properties": { "hex_id": 4244, "count": 1, "date": "2025-12-04", "n_files": 22, "pct": 4.55 }, "geometry": { "type": "Polygon", "coordinates": [ [ [ -72.8578929, 46.0725068 ], [ -72.8568872, 46.09847 ], [ -72.888713, 46.1120535 ], [ -72.9215313, 46.0996642 ], [ -72.9225067, 46.0737 ], [ -72.890694, 46.060126 ], [ -72.8578929, 46.0725068 ] ] ] } },
{ "type": "Feature", "properties": { "hex_id": 4309, "count": 1, "date": "2025-12-04", "n_files": 22, "pct": 4.55 }, "geometry": { "type": "Polygon", "coordinates": [ [ [ -72.8240558, 46.1108404 ], [ -72.823033, 46.1368028 ], [ -72.8548718, 46.1503959 ], [ -72.8877205, 46.138017 ], [ -72.888713, 46.1120535 ], [ -72.8568872, 46.09847 ], [ -72.8240558, 46.1108404 ] ] ] } },
{ "type": "Feature", "properties": { "hex_id": 4372, "count": 1, "date": "2025-12-04", "n_files": 22, "pct": 4.55 }, "geometry": { "type": "Polygon", "coordinates": [ [ [ -72.7932832, 46.0712771 ], [ -72.7922473, 46.0972391 ], [ -72.8240558, 46.1108404 ], [ -72.8568872, 46.09847 ], [ -72.8578929, 46.0725068 ], [ -72.8260973, 46.0589151 ], [ -72.7932832, 46.0712771 ] ] ] } },
{ "type": "Feature", "properties": { "hex_id": 4437, "count": 1, "date": "2025-12-04", "n_files": 22, "pct": 4.55 }, "geometry": { "type": "Polygon", "coordinates": [ [ [ -72.7594028, 46.1095907 ], [ -72.7583496, 46.135552 ], [ -72.7901712, 46.1491629 ], [ -72.823033, 46.1368028 ], [ -72.8240558, 46.1108404 ], [ -72.7922473, 46.0972391 ], [ -72.7594028, 46.1095907 ] ] ] } },
{ "type": "Feature", "properties": { "hex_id": 4500, "count": 1, "date": "2025-12-04", "n_files": 22, "pct": 4.55 }, "geometry": { "type": "Polygon", "coordinates": [ [ [ -72.7286778, 46.0700109 ], [ -72.7276116, 46.0959718 ], [ -72.7594028, 46.1095907 ], [ -72.7922473, 46.0972391 ], [ -72.7932832, 46.0712771 ], [ -72.7615049, 46.0576677 ], [ -72.7286778, 46.0700109 ] ] ] } },
{ "type": "Feature", "properties": { "hex_id": 4556, "count": 3, "date": "2025-12-04", "n_files": 22, "pct": 13.64 }, "geometry": { "type": "Polygon", "coordinates": [ [ [ -72.7234548, 45.4073288 ], [ -72.7224106, 45.4332927 ], [ -72.7538321, 45.4469075 ], [ -72.7862852, 45.4345491 ], [ -72.7873002, 45.4085841 ], [ -72.7558912, 45.3949787 ], [ -72.7234548, 45.4073288 ] ] ] } },
{ "type": "Feature", "properties": { "hex_id": 4619, "count": 4, "date": "2025-12-04", "n_files": 22, "pct": 18.18 }, "geometry": { "type": "Polygon", "coordinates": [ [ [ -72.6931192, 45.3677426 ], [ -72.6920626, 45.3937061 ], [ -72.7234548, 45.4073288 ], [ -72.7558912, 45.3949787 ], [ -72.7569187, 45.369014 ], [ -72.7255389, 45.3554007 ], [ -72.6931192, 45.3677426 ] ] ] } },
{ "type": "Feature", "properties": { "hex_id": 4684, "count": 4, "date": "2025-12-04", "n_files": 22, "pct": 18.18 }, "geometry": { "type": "Polygon", "coordinates": [ [ [ -72.6596137, 45.4060379 ], [ -72.6585402, 45.4320006 ], [ -72.6899449, 45.4456327 ], [ -72.7224106, 45.4332927 ], [ -72.7234548, 45.4073288 ], [ -72.6920626, 45.3937061 ], [ -72.6596137, 45.4060379 ] ] ] } },
{ "type": "Feature", "properties": { "hex_id": 5343, "count": 5, "date": "2025-12-04", "n_files": 22, "pct": 22.73 }, "geometry": { "type": "Polygon", "coordinates": [ [ [ -72.2682322, 46.8783319 ], [ -72.2669133, 46.90428 ], [ -72.2990495, 46.918033 ], [ -72.3324915, 46.9058279 ], [ -72.3337787, 46.8798784 ], [ -72.301655600000018, 46.8661354 ], [ -72.2682322, 46.8783319 ] ] ] } },
{ "type": "Feature", "properties": { "hex_id": 5406, "count": 5, "date": "2025-12-04", "n_files": 22, "pct": 22.73 }, "geometry": { "type": "Polygon", "coordinates": [ [ [ -72.2374594, 46.8386232 ], [ -72.2361275, 46.8645708 ], [ -72.2682322, 46.8783319 ], [ -72.301655600000018, 46.8661354 ], [ -72.302956, 46.8401863 ], [ -72.2708643, 46.8264352 ], [ -72.2374594, 46.8386232 ] ] ] } },
{ "type": "Feature", "properties": { "hex_id": 5467, "count": 4, "date": "2025-12-04", "n_files": 22, "pct": 18.18 }, "geometry": { "type": "Polygon", "coordinates": [ [ [ -72.2187504, 46.5653762 ], [ -72.2174223, 46.5913246 ], [ -72.2493631, 46.605088 ], [ -72.2826193, 46.592893 ], [ -72.2839164, 46.5669431 ], [ -72.2519883, 46.5531896 ], [ -72.2187504, 46.5653762 ] ] ] } },
{ "type": "Feature", "properties": { "hex_id": 5471, "count": 5, "date": "2025-12-04", "n_files": 22, "pct": 22.73 }, "geometry": { "type": "Polygon", "coordinates": [ [ [ -72.2026911, 46.8767479 ], [ -72.2013407, 46.9026946 ], [ -72.2334583, 46.9164656 ], [ -72.2669133, 46.90428 ], [ -72.2682322, 46.8783319 ], [ -72.2361275, 46.8645708 ], [ -72.2026911, 46.8767479 ] ] ] } },
{ "type": "Feature", "properties": { "hex_id": 5530, "count": 4, "date": "2025-12-04", "n_files": 22, "pct": 18.18 }, "geometry": { "type": "Polygon", "coordinates": [ [ [ -72.1881814, 46.5256569 ], [ -72.1868406, 46.5516049 ], [ -72.2187504, 46.5653762 ], [ -72.2519883, 46.5531896 ], [ -72.2532982, 46.5272403 ], [ -72.2214011, 46.5134788 ], [ -72.1881814, 46.5256569 ] ] ] } },
{ "type": "Feature", "properties": { "hex_id": 5534, "count": 5, "date": "2025-12-04", "n_files": 22, "pct": 22.73 }, "geometry": { "type": "Polygon", "coordinates": [ [ [ -72.1719683, 46.8370226 ], [ -72.170605, 46.8629688 ], [ -72.2026911, 46.8767479 ], [ -72.2361275, 46.8645708 ], [ -72.2374594, 46.8386232 ], [ -72.2053862, 46.8248541 ], [ -72.1719683, 46.8370226 ] ] ] } },
{ "type": "Feature", "properties": { "hex_id": 5595, "count": 4, "date": "2025-12-04", "n_files": 22, "pct": 18.18 }, "geometry": { "type": "Polygon", "coordinates": [ [ [ -72.15359, 46.5637721 ], [ -72.1522308, 46.5897191 ], [ -72.1841534, 46.6035003 ], [ -72.2174223, 46.5913246 ], [ -72.2187504, 46.5653762 ], [ -72.1868406, 46.5516049 ], [ -72.15359, 46.5637721 ] ] ] } },
{ "type": "Feature", "properties": { "hex_id": 5599, "count": 5, "date": "2025-12-04", "n_files": 22, "pct": 22.73 }, "geometry": { "type": "Polygon", "coordinates": [ [ [ -72.1371556, 46.8751264 ], [ -72.1357737, 46.9010716 ], [ -72.1678727, 46.9148607 ], [ -72.2013407, 46.9026946 ], [ -72.2026911, 46.8767479 ], [ -72.170605, 46.8629688 ], [ -72.1371556, 46.8751264 ] ] ] } },
{ "type": "Feature", "properties": { "hex_id": 6034, "count": 1, "date": "2025-12-04", "n_files": 22, "pct": 4.55 }, "geometry": { "type": "Polygon", "coordinates": [ [ [ -71.962322, 45.8963014 ], [ -71.960905, 45.922247 ], [ -71.9923997, 45.936072599999989 ], [ -72.0252993, 45.9239429 ], [ -72.0266864, 45.8979958 ], [ -71.9952038, 45.8841799 ], [ -71.962322, 45.8963014 ] ] ] } },
{ "type": "Feature", "properties": { "hex_id": 6041, "count": 6, "date": "2025-12-04", "n_files": 22, "pct": 27.27 }, "geometry": { "type": "Polygon", "coordinates": [ [ [ -71.9321527, 46.4411267 ], [ -71.9306942, 46.467069 ], [ -71.9624872, 46.4809093 ], [ -71.9957263, 46.4687973 ], [ -71.997154, 46.4428534 ], [ -71.9653734, 46.429023 ], [ -71.9321527, 46.4411267 ] ] ] } },
{ "type": "Feature", "properties": { "hex_id": 6099, "count": 1, "date": "2025-12-04", "n_files": 22, "pct": 4.55 }, "geometry": { "type": "Polygon", "coordinates": [ [ [ -71.9279933, 45.9343578 ], [ -71.9265584, 45.9603024 ], [ -71.9580652, 45.9741377 ], [ -71.9909948, 45.9620187 ], [ -71.9923997, 45.936072599999989 ], [ -71.960905, 45.922247 ], [ -71.9279933, 45.9343578 ] ] ] } },
{ "type": "Feature", "properties": { "hex_id": 6106, "count": 6, "date": "2025-12-04", "n_files": 22, "pct": 27.27 }, "geometry": { "type": "Polygon", "coordinates": [ [ [ -71.8974427, 46.4791618 ], [ -71.8959658, 46.5051031 ], [ -71.9277711, 46.5189533 ], [ -71.9610411, 46.5068523 ], [ -71.9624872, 46.4809093 ], [ -71.9306942, 46.467069 ], [ -71.8974427, 46.4791618 ] ] ] } },
{ "type": "Feature", "properties": { "hex_id": 6162, "count": 1, "date": "2025-12-04", "n_files": 22, "pct": 4.55 }, "geometry": { "type": "Polygon", "coordinates": [ [ [ -71.8979634, 45.8945708 ], [ -71.8965165, 45.9205148 ], [ -71.9279933, 45.9343578 ], [ -71.960905, 45.922247 ], [ -71.962322, 45.8963014 ], [ -71.9308572, 45.8824681 ], [ -71.8979634, 45.8945708 ] ] ] } },
{ "type": "Feature", "properties": { "hex_id": 6163, "count": 1, "date": "2025-12-04", "n_files": 22, "pct": 4.55 }, "geometry": { "type": "Polygon", "coordinates": [ [ [ -71.8936168, 45.9724024 ], [ -71.8921639, 45.998346 ], [ -71.9236827, 46.0121911 ], [ -71.9566424, 46.0000828 ], [ -71.9580652, 45.9741377 ], [ -71.9265584, 45.9603024 ], [ -71.8936168, 45.9724024 ] ] ] } },
{ "type": "Feature", "properties": { "hex_id": 6227, "count": 1, "date": "2025-12-04", "n_files": 22, "pct": 4.55 }, "geometry": { "type": "Polygon", "coordinates": [ [ [ -71.8635928, 45.9326067 ], [ -71.862128, 45.9585497 ], [ -71.8936168, 45.9724024 ], [ -71.9265584, 45.9603024 ], [ -71.9279933, 45.9343578 ], [ -71.8965165, 45.9205148 ], [ -71.8635928, 45.9326067 ] ] ] } },
{ "type": "Feature", "properties": { "hex_id": 6409, "count": 1, "date": "2025-12-04", "n_files": 22, "pct": 4.55 }, "geometry": { "type": "Polygon", "coordinates": [ [ [ -71.8091758, 45.19054 ], [ -71.8077236, 45.216485 ], [ -71.8387951, 45.2303429 ], [ -71.8713073, 45.2182463 ], [ -71.8727307, 45.1922997 ], [ -71.8416707, 45.1784513 ], [ -71.8091758, 45.19054 ] ] ] } },
{ "type": "Feature", "properties": { "hex_id": 6421, "count": 6, "date": "2025-12-04", "n_files": 22, "pct": 27.27 }, "geometry": { "type": "Polygon", "coordinates": [ [ [ -71.7556295, 46.1244627 ], [ -71.7541041, 46.150402199999988 ], [ -71.785671, 46.164286399999988 ], [ -71.8187513, 46.152221399999988 ], [ -71.8202465, 46.1262804 ], [ -71.7886915, 46.1124059 ], [ -71.7556295, 46.1244627 ] ] ] } },
{ "type": "Feature", "properties": { "hex_id": 6471, "count": 3, "date": "2025-12-04", "n_files": 22, "pct": 13.64 }, "geometry": { "type": "Polygon", "coordinates": [ [ [ -71.7883367, 44.9950603 ], [ -71.7868849, 45.0210057 ], [ -71.8178476, 45.0348666 ], [ -71.8502506, 45.0227727 ], [ -71.8516738, 44.9968257 ], [ -71.8207225, 44.9829742 ], [ -71.7883367, 44.9950603 ] ] ] } },
{ "type": "Feature", "properties": { "hex_id": 6473, "count": 1, "date": "2025-12-04", "n_files": 22, "pct": 4.55 }, "geometry": { "type": "Polygon", "coordinates": [ [ [ -71.7795967, 45.1507303 ], [ -71.7781331, 45.1766747 ], [ -71.8091758, 45.19054 ], [ -71.8416707, 45.1784513 ], [ -71.8431055, 45.1525052 ], [ -71.8120742, 45.1386495 ], [ -71.7795967, 45.1507303 ] ] ] } },
{ "type": "Feature", "properties": { "hex_id": 6485, "count": 6, "date": "2025-12-04", "n_files": 22, "pct": 27.27 }, "geometry": { "type": "Polygon", "coordinates": [ [ [ -71.7256301, 46.0846321 ], [ -71.7240928, 46.1105709 ], [ -71.7556295, 46.1244627 ], [ -71.7886915, 46.1124059 ], [ -71.7901987, 46.086465499999989 ], [ -71.758674, 46.0725835 ], [ -71.7256301, 46.0846321 ] ] ] } },
{ "type": "Feature", "properties": { "hex_id": 6535, "count": 3, "date": "2025-12-04", "n_files": 22, "pct": 13.64 }, "geometry": { "type": "Polygon", "coordinates": [ [ [ -71.7544706, 45.0330812 ], [ -71.7530016, 45.0590256 ], [ -71.7839756, 45.072896 ], [ -71.8164072, 45.0608125 ], [ -71.8178476, 45.0348666 ], [ -71.7868849, 45.0210057 ], [ -71.7544706, 45.0330812 ] ] ] } },
{ "type": "Feature", "properties": { "hex_id": 6536, "count": 1, "date": "2025-12-04", "n_files": 22, "pct": 4.55 }, "geometry": { "type": "Polygon", "coordinates": [ [ [ -71.7500577, 45.1109138 ], [ -71.7485828, 45.1368577 ], [ -71.7795967, 45.1507303 ], [ -71.8120742, 45.1386495 ], [ -71.8135205, 45.112704 ], [ -71.7825179, 45.0988409 ], [ -71.7500577, 45.1109138 ] ] ] } },
{ "type": "Feature", "properties": { "hex_id": 6537, "count": 1, "date": "2025-12-04", "n_files": 22, "pct": 4.55 }, "geometry": { "type": "Polygon", "coordinates": [ [ [ -71.7456268, 45.188745 ], [ -71.7441459, 45.2146884 ], [ -71.7752, 45.2285632 ], [ -71.8077236, 45.216485 ], [ -71.8091758, 45.19054 ], [ -71.7781331, 45.1766747 ], [ -71.7456268, 45.188745 ] ] ] } },
{ "type": "Feature", "properties": { "hex_id": 6549, "count": 6, "date": "2025-12-04", "n_files": 22, "pct": 27.27 }, "geometry": { "type": "Polygon", "coordinates": [ [ [ -71.6910187, 46.1226087 ], [ -71.6894631, 46.1485464 ], [ -71.7210117, 46.1624481 ], [ -71.7541041, 46.150402199999988 ], [ -71.7556295, 46.1244627 ], [ -71.7240928, 46.1105709 ], [ -71.6910187, 46.1226087 ] ] ] } },
{ "type": "Feature", "properties": { "hex_id": 6599, "count": 3, "date": "2025-12-04", "n_files": 22, "pct": 13.64 }, "geometry": { "type": "Polygon", "coordinates": [ [ [ -71.7250054, 44.9932598 ], [ -71.7235252, 45.0192036 ], [ -71.7544706, 45.0330812 ], [ -71.7868849, 45.0210057 ], [ -71.7883367, 44.9950603 ], [ -71.7574025, 44.9811921 ], [ -71.7250054, 44.9932598 ] ] ] } },
{ "type": "Feature", "properties": { "hex_id": 6601, "count": 1, "date": "2025-12-04", "n_files": 22, "pct": 4.55 }, "geometry": { "type": "Polygon", "coordinates": [ [ [ -71.7160939, 45.1489201 ], [ -71.7146015, 45.1748629 ], [ -71.7456268, 45.188745 ], [ -71.7781331, 45.1766747 ], [ -71.7795967, 45.1507303 ], [ -71.7485828, 45.1368577 ], [ -71.7160939, 45.1489201 ] ] ] } },
{ "type": "Feature", "properties": { "hex_id": 6602, "count": 1, "date": "2025-12-04", "n_files": 22, "pct": 4.55 }, "geometry": { "type": "Polygon", "coordinates": [ [ [ -71.7116108, 45.2267481 ], [ -71.7101124, 45.2526904 ], [ -71.7411779, 45.2665747 ], [ -71.7737304, 45.2545072 ], [ -71.7752, 45.2285632 ], [ -71.7441459, 45.2146884 ], [ -71.7116108, 45.2267481 ] ] ] } },
{ "type": "Feature", "properties": { "hex_id": 6663, "count": 3, "date": "2025-12-04", "n_files": 22, "pct": 13.64 }, "geometry": { "type": "Polygon", "coordinates": [ [ [ -71.6910996, 45.0312608 ], [ -71.6896021, 45.0572035 ], [ -71.7205587, 45.0710906 ], [ -71.7530016, 45.0590256 ], [ -71.7544706, 45.0330812 ], [ -71.7235252, 45.0192036 ], [ -71.6910996, 45.0312608 ] ] ] } },
{ "type": "Feature", "properties": { "hex_id": 6664, "count": 1, "date": "2025-12-04", "n_files": 22, "pct": 4.55 }, "geometry": { "type": "Polygon", "coordinates": [ [ [ -71.6866009, 45.1090884 ], [ -71.6850973, 45.1350307 ], [ -71.7160939, 45.1489201 ], [ -71.7485828, 45.1368577 ], [ -71.7500577, 45.1109138 ], [ -71.7190724, 45.0970339 ], [ -71.6866009, 45.1090884 ] ] ] } },
{ "type": "Feature", "properties": { "hex_id": 6665, "count": 1, "date": "2025-12-04", "n_files": 22, "pct": 4.55 }, "geometry": { "type": "Polygon", "coordinates": [ [ [ -71.6820839, 45.1869147 ], [ -71.6805741, 45.2128564 ], [ -71.7116108, 45.2267481 ], [ -71.7441459, 45.2146884 ], [ -71.7456268, 45.188745 ], [ -71.7146015, 45.1748629 ], [ -71.6820839, 45.1869147 ] ] ] } },
{ "type": "Feature", "properties": { "hex_id": 6729, "count": 1, "date": "2025-12-04", "n_files": 22, "pct": 4.55 }, "geometry": { "type": "Polygon", "coordinates": [ [ [ -71.6525971, 45.1470746 ], [ -71.651076, 45.1730158 ], [ -71.6820839, 45.1869147 ], [ -71.7146015, 45.1748629 ], [ -71.7160939, 45.1489201 ], [ -71.6850973, 45.1350307 ], [ -71.6525971, 45.1470746 ] ] ] } },
{ "type": "Feature", "properties": { "hex_id": 7197, "count": 7, "date": "2025-12-04", "n_files": 22, "pct": 31.82 }, "geometry": { "type": "Polygon", "coordinates": [ [ [ -71.3264475, 46.7350387 ], [ -71.3246833, 46.7609636 ], [ -71.3564796, 46.7749724 ], [ -71.390028, 46.7630462 ], [ -71.3917609, 46.7371195 ], [ -71.3599766, 46.7231208 ], [ -71.3264475, 46.7350387 ] ] ] } },
{ "type": "Feature", "properties": { "hex_id": 7283, "count": 4, "date": "2025-12-04", "n_files": 22, "pct": 18.18 }, "geometry": { "type": "Polygon", "coordinates": [ [ [ -71.1737627, 48.4057243 ], [ -71.1718148, 48.431637 ], [ -71.2045708, 48.4457124 ], [ -71.2392618, 48.4338642 ], [ -71.2411757, 48.4079495 ], [ -71.2084326, 48.3938849 ], [ -71.1737627, 48.4057243 ] ] ] } },
{ "type": "Feature", "properties": { "hex_id": 7346, "count": 4, "date": "2025-12-04", "n_files": 22, "pct": 18.18 }, "geometry": { "type": "Polygon", "coordinates": [ [ [ -71.1430017, 48.365729 ], [ -71.1410408, 48.391641 ], [ -71.1737627, 48.4057243 ], [ -71.2084326, 48.3938849 ], [ -71.2103594, 48.3679708 ], [ -71.1776504, 48.3538983 ], [ -71.1430017, 48.365729 ] ] ] } },
{ "type": "Feature", "properties": { "hex_id": 7411, "count": 4, "date": "2025-12-04", "n_files": 22, "pct": 18.18 }, "geometry": { "type": "Polygon", "coordinates": [ [ [ -71.1063581, 48.4034597 ], [ -71.104376, 48.4293704 ], [ -71.1371108, 48.4434644 ], [ -71.1718148, 48.431637 ], [ -71.1737627, 48.4057243 ], [ -71.1410408, 48.391641 ], [ -71.1063581, 48.4034597 ] ] ] } },
{ "type": "Feature", "properties": { "hex_id": 7474, "count": 4, "date": "2025-12-04", "n_files": 22, "pct": 18.18 }, "geometry": { "type": "Polygon", "coordinates": [ [ [ -71.0756523, 48.3634478 ], [ -71.0736574, 48.3893577 ], [ -71.1063581, 48.4034597 ], [ -71.1410408, 48.391641 ], [ -71.1430017, 48.365729 ], [ -71.1103139, 48.3516378 ], [ -71.0756523, 48.3634478 ] ] ] } },
{ "type": "Feature", "properties": { "hex_id": 7604, "count": 3, "date": "2025-12-04", "n_files": 22, "pct": 13.64 }, "geometry": { "type": "Polygon", "coordinates": [ [ [ -70.9960947, 48.5165715 ], [ -70.9940485, 48.5424782 ], [ -71.0268218, 48.5566047 ], [ -71.0616285, 48.5448135 ], [ -71.0636404, 48.5189047 ], [ -71.03088, 48.5047891 ], [ -70.9960947, 48.5165715 ] ] ] } },
{ "type": "Feature", "properties": { "hex_id": 7669, "count": 3, "date": "2025-12-04", "n_files": 22, "pct": 13.64 }, "geometry": { "type": "Polygon", "coordinates": [ [ [ -70.9592289, 48.5542485 ], [ -70.9571612, 48.5801539 ], [ -70.9899473, 48.5942912 ], [ -71.0247884, 48.5825122 ], [ -71.0268218, 48.5566047 ], [ -70.9940485, 48.5424782 ], [ -70.9592289, 48.5542485 ] ] ] } },
{ "type": "Feature", "properties": { "hex_id": 7732, "count": 3, "date": "2025-12-04", "n_files": 22, "pct": 13.64 }, "geometry": { "type": "Polygon", "coordinates": [ [ [ -70.9285577, 48.5141988 ], [ -70.9264772, 48.5401034 ], [ -70.9592289, 48.5542485 ], [ -70.9940485, 48.5424782 ], [ -70.9960947, 48.5165715 ], [ -70.9633557, 48.5024372 ], [ -70.9285577, 48.5141988 ] ] ] } },
{ "type": "Feature", "properties": { "hex_id": 7797, "count": 3, "date": "2025-12-04", "n_files": 22, "pct": 13.64 }, "geometry": { "type": "Polygon", "coordinates": [ [ [ -70.8916449, 48.5518528 ], [ -70.8895428, 48.577756 ], [ -70.9223073, 48.591912 ], [ -70.9571612, 48.5801539 ], [ -70.9592289, 48.5542485 ], [ -70.9264772, 48.5401034 ], [ -70.8916449, 48.5518528 ] ] ] } },
{ "type": "Feature", "properties": { "hex_id": 7860, "count": 3, "date": "2025-12-04", "n_files": 22, "pct": 13.64 }, "geometry": { "type": "Polygon", "coordinates": [ [ [ -70.8610296, 48.5117865 ], [ -70.8589148, 48.5376889 ], [ -70.8916449, 48.5518528 ], [ -70.9264772, 48.5401034 ], [ -70.9285577, 48.5141988 ], [ -70.8958402, 48.5000458 ], [ -70.8610296, 48.5117865 ] ] ] } },
{ "type": "Feature", "properties": { "hex_id": 7861, "count": 14, "date": "2025-12-04", "n_files": 22, "pct": 63.64 }, "geometry": { "type": "Polygon", "coordinates": [ [ [ -70.8546762, 48.5894932 ], [ -70.8525523, 48.615395 ], [ -70.8853295, 48.6295619 ], [ -70.9202179, 48.617816 ], [ -70.9223073, 48.591912 ], [ -70.8895428, 48.577756 ], [ -70.8546762, 48.5894932 ] ] ] } },
{ "type": "Feature", "properties": { "hex_id": 7925, "count": 3, "date": "2025-12-04", "n_files": 22, "pct": 13.64 }, "geometry": { "type": "Polygon", "coordinates": [ [ [ -70.8240698, 48.5494174 ], [ -70.8219334, 48.5753185 ], [ -70.8546762, 48.5894932 ], [ -70.8895428, 48.577756 ], [ -70.8916449, 48.5518528 ], [ -70.8589148, 48.5376889 ], [ -70.8240698, 48.5494174 ] ] ] } },
{ "type": "Feature", "properties": { "hex_id": 7926, "count": 14, "date": "2025-12-04", "n_files": 22, "pct": 63.64 }, "geometry": { "type": "Polygon", "coordinates": [ [ [ -70.8176513, 48.6271199 ], [ -70.8155057, 48.6530204 ], [ -70.8482956, 48.6671981 ], [ -70.8832184, 48.6554645 ], [ -70.8853295, 48.6295619 ], [ -70.8525523, 48.615395 ], [ -70.8176513, 48.6271199 ] ] ] } },
{ "type": "Feature", "properties": { "hex_id": 7985, "count": 3, "date": "2025-12-04", "n_files": 22, "pct": 13.64 }, "geometry": { "type": "Polygon", "coordinates": [ [ [ -70.8127153, 48.2762246 ], [ -70.81059350000001, 48.3021265 ], [ -70.8431623, 48.3162998 ], [ -70.8778404, 48.3045606 ], [ -70.8799284, 48.2786565 ], [ -70.847372100000015, 48.2644939 ], [ -70.8127153, 48.2762246 ] ] ] } },
{ "type": "Feature", "properties": { "hex_id": 7988, "count": 4, "date": "2025-12-04", "n_files": 22, "pct": 18.18 }, "geometry": { "type": "Polygon", "coordinates": [ [ [ -70.7935104, 48.5093347 ], [ -70.7913614, 48.5352349 ], [ -70.8240698, 48.5494174 ], [ -70.8589148, 48.5376889 ], [ -70.8610296, 48.5117865 ], [ -70.8283337, 48.4976148 ], [ -70.7935104, 48.5093347 ] ] ] } },
{ "type": "Feature", "properties": { "hex_id": 7989, "count": 14, "date": "2025-12-04", "n_files": 22, "pct": 63.64 }, "geometry": { "type": "Polygon", "coordinates": [ [ [ -70.7870541, 48.5870347 ], [ -70.7848959, 48.6129343 ], [ -70.8176513, 48.6271199 ], [ -70.8525523, 48.615395 ], [ -70.8546762, 48.5894932 ], [ -70.8219334, 48.5753185 ], [ -70.7870541, 48.5870347 ] ] ] } },
{ "type": "Feature", "properties": { "hex_id": 8050, "count": 3, "date": "2025-12-04", "n_files": 22, "pct": 13.64 }, "geometry": { "type": "Polygon", "coordinates": [ [ [ -70.775903, 48.313845 ], [ -70.7737597, 48.3397455 ], [ -70.8063409, 48.3539297 ], [ -70.8410529, 48.3422025 ], [ -70.8431623, 48.3162998 ], [ -70.81059350000001, 48.3021265 ], [ -70.775903, 48.313845 ] ] ] } },
{ "type": "Feature", "properties": { "hex_id": 8054, "count": 14, "date": "2025-12-04", "n_files": 22, "pct": 63.64 }, "geometry": { "type": "Polygon", "coordinates": [ [ [ -70.7499822, 48.6246383 ], [ -70.7478022, 48.6505365 ], [ -70.7805702, 48.664733 ], [ -70.8155057, 48.6530204 ], [ -70.8176513, 48.6271199 ], [ -70.7848959, 48.6129343 ], [ -70.7499822, 48.6246383 ] ] ] } },
{ "type": "Feature", "properties": { "hex_id": 8113, "count": 3, "date": "2025-12-04", "n_files": 22, "pct": 13.64 }, "geometry": { "type": "Polygon", "coordinates": [ [ [ -70.7455113, 48.2737535 ], [ -70.7433557, 48.2996532 ], [ -70.775903, 48.313845 ], [ -70.81059350000001, 48.3021265 ], [ -70.8127153, 48.2762246 ], [ -70.7801804, 48.2620435 ], [ -70.7455113, 48.2737535 ] ] ] } },
{ "type": "Feature", "properties": { "hex_id": 8397, "count": 4, "date": "2025-12-04", "n_files": 22, "pct": 18.18 }, "geometry": { "type": "Polygon", "coordinates": [ [ [ -70.8048525, 45.430869 ], [ -70.8029279, 45.4567835 ], [ -70.8338618, 45.4709106 ], [ -70.8667097, 45.4591133 ], [ -70.8686052, 45.4331967 ], [ -70.837682, 45.4190794 ], [ -70.8048525, 45.430869 ] ] ] } },
{ "type": "Feature", "properties": { "hex_id": 8461, "count": 4, "date": "2025-12-04", "n_files": 22, "pct": 18.18 }, "geometry": { "type": "Polygon", "coordinates": [ [ [ -70.7700694, 45.4685619 ], [ -70.7681264, 45.4944751 ], [ -70.7990709, 45.508612 ], [ -70.8319478, 45.4968259 ], [ -70.8338618, 45.4709106 ], [ -70.8029279, 45.4567835 ], [ -70.7700694, 45.4685619 ] ] ] } },
{ "type": "Feature", "properties": { "hex_id": 8525, "count": 4, "date": "2025-12-04", "n_files": 22, "pct": 18.18 }, "geometry": { "type": "Polygon", "coordinates": [ [ [ -70.7411077, 45.4285057 ], [ -70.739154, 45.4544181 ], [ -70.7700694, 45.4685619 ], [ -70.8029279, 45.4567835 ], [ -70.8048525, 45.430869 ], [ -70.7739477, 45.416735 ], [ -70.7411077, 45.4285057 ] ] ] } },
{ "type": "Feature", "properties": { "hex_id": 8539, "count": 2, "date": "2025-12-04", "n_files": 22, "pct": 9.09 }, "geometry": { "type": "Polygon", "coordinates": [ [ [ -70.6567123, 46.5166672 ], [ -70.6546429, 46.5425717 ], [ -70.6861285, 46.5567573 ], [ -70.7196723, 46.5450281 ], [ -70.7217109, 46.5191213 ], [ -70.6902365, 46.5049459 ], [ -70.6567123, 46.5166672 ] ] ] } },
{ "type": "Feature", "properties": { "hex_id": 8602, "count": 2, "date": "2025-12-04", "n_files": 22, "pct": 9.09 }, "geometry": { "type": "Polygon", "coordinates": [ [ [ -70.6273378, 46.4765707 ], [ -70.6252574, 46.5024745 ], [ -70.6567123, 46.5166672 ], [ -70.6902365, 46.5049459 ], [ -70.6922862, 46.47904 ], [ -70.6608424, 46.4648574 ], [ -70.6273378, 46.4765707 ] ] ] } },
{ "type": "Feature", "properties": { "hex_id": 9064, "count": 3, "date": "2025-12-04", "n_files": 22, "pct": 13.64 }, "geometry": { "type": "Polygon", "coordinates": [ [ [ -70.3090216, 47.516256 ], [ -70.3067075, 47.5421436 ], [ -70.3386682, 47.5564411 ], [ -70.3729316, 47.5448404 ], [ -70.3752133, 47.5189503 ], [ -70.343264, 47.5046634 ], [ -70.3090216, 47.516256 ] ] ] } },
{ "type": "Feature", "properties": { "hex_id": 9128, "count": 3, "date": "2025-12-04", "n_files": 22, "pct": 13.64 }, "geometry": { "type": "Polygon", "coordinates": [ [ [ -70.2724327, 47.553724 ], [ -70.270097600000014, 47.5796101 ], [ -70.3020696, 47.5939182 ], [ -70.3363655, 47.5823296 ], [ -70.3386682, 47.5564411 ], [ -70.3067075, 47.5421436 ], [ -70.2724327, 47.553724 ] ] ] } },
{ "type": "Feature", "properties": { "hex_id": 9193, "count": 3, "date": "2025-12-04", "n_files": 22, "pct": 13.64 }, "geometry": { "type": "Polygon", "coordinates": [ [ [ -70.2357904, 47.5911784 ], [ -70.2334341, 47.6170629 ], [ -70.2654175, 47.6313816 ], [ -70.2997458, 47.6198052 ], [ -70.3020696, 47.5939182 ], [ -70.270097600000014, 47.5796101 ], [ -70.2357904, 47.5911784 ] ] ] } },
{ "type": "Feature", "properties": { "hex_id": 9256, "count": 3, "date": "2025-12-04", "n_files": 22, "pct": 13.64 }, "geometry": { "type": "Polygon", "coordinates": [ [ [ -70.206207, 47.5509688 ], [ -70.2038394, 47.5768524 ], [ -70.2357904, 47.5911784 ], [ -70.270097600000014, 47.5796101 ], [ -70.2724327, 47.553724 ], [ -70.2404931, 47.5394087 ], [ -70.206207, 47.5509688 ] ] ] } },
{ "type": "Feature", "properties": { "hex_id": 9321, "count": 1, "date": "2025-12-04", "n_files": 22, "pct": 4.55 }, "geometry": { "type": "Polygon", "coordinates": [ [ [ -70.169521, 47.5884003 ], [ -70.1671322, 47.6142824 ], [ -70.1990944, 47.628619 ], [ -70.2334341, 47.6170629 ], [ -70.2357904, 47.5911784 ], [ -70.2038394, 47.5768524 ], [ -70.169521, 47.5884003 ] ] ] } },
{ "type": "Feature", "properties": { "hex_id": 10813, "count": 12, "date": "2025-12-04", "n_files": 22, "pct": 54.55 }, "geometry": { "type": "Polygon", "coordinates": [ [ [ -69.2309497, 49.1430842 ], [ -69.2279383, 49.1689198 ], [ -69.2605633, 49.1835446 ], [ -69.2961885, 49.1723224 ], [ -69.2991648, 49.1464836 ], [ -69.266551, 49.131870199999987 ], [ -69.2309497, 49.1430842 ] ] ] } },
{ "type": "Feature", "properties": { "hex_id": 10878, "count": 12, "date": "2025-12-04", "n_files": 22, "pct": 54.55 }, "geometry": { "type": "Polygon", "coordinates": [ [ [ -69.192302, 49.1801205 ], [ -69.189266500000016, 49.2059542 ], [ -69.2219026, 49.2205904 ], [ -69.257563, 49.2093814 ], [ -69.2605633, 49.1835446 ], [ -69.2279383, 49.1689198 ], [ -69.192302, 49.1801205 ] ] ] } },
{ "type": "Feature", "properties": { "hex_id": 10941, "count": 12, "date": "2025-12-04", "n_files": 22, "pct": 54.55 }, "geometry": { "type": "Polygon", "coordinates": [ [ [ -69.1627476, 49.1396447 ], [ -69.1597011, 49.1654772 ], [ -69.192302, 49.1801205 ], [ -69.2279383, 49.1689198 ], [ -69.2309497, 49.1430842 ], [ -69.1983599, 49.1284523 ], [ -69.1627476, 49.1396447 ] ] ] } }
]
}
