{
"type": "FeatureCollection",
"name": "daily_2026-06-16",
"crs": { "type": "name", "properties": { "name": "urn:ogc:def:crs:OGC:1.3:CRS84" } },
"features": [
{ "type": "Feature", "properties": { "hex_id": 513503, "centroid_lon": -74.201719742596381, "centroid_lat": 45.910241525045819, "occurrences_today": 5, "datetimes_today": "2026-06-16 00:01:22, 2026-06-16 00:16:22, 2026-06-16 00:31:22, 2026-06-16 00:46:40, 2026-06-16 01:01:28", "cumulative_total": 132.0 }, "geometry": { "type": "Polygon", "coordinates": [ [ [ -74.201794224576261, 45.905045594462848 ], [ -74.208202902439766, 45.907688407514755 ], [ -74.208129011618254, 45.912884343762215 ], [ -74.201645240170691, 45.915437450789263 ], [ -74.195235991598082, 45.912794269660488 ], [ -74.19531108517522, 45.907598349647067 ], [ -74.201794224576261, 45.905045594462848 ] ] ] } },
{ "type": "Feature", "properties": { "hex_id": 515335, "centroid_lon": -74.182266716164705, "centroid_lat": 45.917898639752032, "occurrences_today": 5, "datetimes_today": "2026-06-16 00:01:22, 2026-06-16 00:16:22, 2026-06-16 00:31:22, 2026-06-16 00:46:40, 2026-06-16 01:01:28", "cumulative_total": 101.0 }, "geometry": { "type": "Polygon", "coordinates": [ [ [ -74.18234303342085, 45.91270274107881 ], [ -74.188751649451845, 45.915346641261614 ], [ -74.188675923333093, 45.920542545795882 ], [ -74.182190377957056, 45.923094533581128 ], [ -74.175781191743724, 45.920450265034582 ], [ -74.17585812108166, 45.915254377132094 ], [ -74.18234303342085, 45.91270274107881 ] ] ] } },
{ "type": "Feature", "properties": { "hex_id": 370634, "centroid_lon": -75.707913667086999, "centroid_lat": 45.723762045775629, "occurrences_today": 3, "datetimes_today": "2026-06-16 00:01:22, 2026-06-16 00:16:22, 2026-06-16 00:31:22", "cumulative_total": 144.0 }, "geometry": { "type": "Polygon", "coordinates": [ [ [ -75.70784804412105, 45.718565836980872 ], [ -75.714305410454983, 45.721123954307707 ], [ -75.714371637943529, 45.726320153485027 ], [ -75.707979308025742, 45.728958249750093 ], [ -75.701521319193361, 45.726399781945965 ], [ -75.701456282783298, 45.721203568419163 ], [ -75.70784804412105, 45.718565836980872 ] ] ] } },
{ "type": "Feature", "properties": { "hex_id": 547676, "centroid_lon": -73.845596984139121, "centroid_lat": 45.673352948426583, "occurrences_today": 5, "datetimes_today": "2026-06-16 00:01:22, 2026-06-16 00:16:22, 2026-06-16 00:31:22, 2026-06-16 00:46:40, 2026-06-16 01:01:28", "cumulative_total": 121.0 }, "geometry": { "type": "Polygon", "coordinates": [ [ [ -73.845703803918553, 45.668157352681135 ], [ -73.852068388543358, 45.670819826903525 ], [ -73.851962147810681, 45.676015431833719 ], [ -73.845490135125686, 45.678548539231208 ], [ -73.839125000693087, 45.675885696526151 ], [ -73.839232428743387, 45.670690114971187 ], [ -73.845703803918553, 45.668157352681135 ] ] ] } },
{ "type": "Feature", "properties": { "hex_id": 698452, "centroid_lon": -72.274451833997844, "centroid_lat": 45.373824752482165, "occurrences_today": 5, "datetimes_today": "2026-06-16 00:01:22, 2026-06-16 00:16:22, 2026-06-16 00:31:22, 2026-06-16 00:46:40, 2026-06-16 01:01:28", "cumulative_total": 142.0 }, "geometry": { "type": "Polygon", "coordinates": [ [ [ -72.274701339815977, 45.368633714722236 ], [ -72.280954699873163, 45.371381358668579 ], [ -72.28070574229308, 45.376572420907003 ], [ -72.274202260205342, 45.379015784429249 ], [ -72.267948419895816, 45.37626776163679 ], [ -72.268198541903672, 45.371076754232 ], [ -72.274701339815977, 45.368633714722236 ] ] ] } },
{ "type": "Feature", "properties": { "hex_id": 699673, "centroid_lon": -72.261695195934138, "centroid_lat": 45.373519409059675, "occurrences_today": 5, "datetimes_today": "2026-06-16 00:01:22, 2026-06-16 00:16:22, 2026-06-16 00:31:22, 2026-06-16 00:46:40, 2026-06-16 01:01:28", "cumulative_total": 104.0 }, "geometry": { "type": "Polygon", "coordinates": [ [ [ -72.261945865987869, 45.368328426256177 ], [ -72.268198541903672, 45.371076754232 ], [ -72.267948419895816, 45.37626776163679 ], [ -72.261444457589832, 45.378710386040346 ], [ -72.255191301930097, 45.375961679113139 ], [ -72.255442588297484, 45.370770726797559 ], [ -72.261945865987869, 45.368328426256177 ] ] ] } },
{ "type": "Feature", "properties": { "hex_id": 587385, "centroid_lon": -73.41677436990615, "centroid_lat": 46.081337760381828, "occurrences_today": 2, "datetimes_today": "2026-06-16 00:46:40, 2026-06-16 01:01:28", "cumulative_total": 9.0 }, "geometry": { "type": "Polygon", "coordinates": [ [ [ -73.41692295953267, 46.076143467568009 ], [ -73.423312644175212, 46.078829984379581 ], [ -73.42316464027563, 46.084024290744992 ], [ -73.416625739414641, 46.086532048082169 ], [ -73.410235509917086, 46.083845153517544 ], [ -73.41038472612162, 46.078650879434591 ], [ -73.41692295953267, 46.076143467568009 ] ] ] } },
{ "type": "Feature", "properties": { "hex_id": 559877, "centroid_lon": -73.720429256700598, "centroid_lat": 45.531707442766816, "occurrences_today": 5, "datetimes_today": "2026-06-16 00:01:22, 2026-06-16 00:16:22, 2026-06-16 00:31:22, 2026-06-16 00:46:40, 2026-06-16 01:01:28", "cumulative_total": 242.0 }, "geometry": { "type": "Polygon", "coordinates": [ [ [ -73.720547073648163, 45.526511959135199 ], [ -73.72688973496173, 45.529181237183487 ], [ -73.726772491067123, 45.534376731212667 ], [ -73.720311407566243, 45.536902921414082 ], [ -73.713968205391893, 45.534233275497762 ], [ -73.714086627568392, 45.529037807312633 ], [ -73.720547073648163, 45.526511959135199 ] ] ] } },
{ "type": "Feature", "properties": { "hex_id": 586735, "centroid_lon": -73.440495151482224, "centroid_lat": 45.465865980228372, "occurrences_today": 2, "datetimes_today": "2026-06-16 00:46:40, 2026-06-16 01:01:28", "cumulative_total": 203.0 }, "geometry": { "type": "Polygon", "coordinates": [ [ [ -73.440638408595774, 45.460671066428631 ], [ -73.44696012217554, 45.463355648115872 ], [ -73.446817432339415, 45.468550575062693 ], [ -73.440351855267522, 45.471060888929813 ], [ -73.434029613518007, 45.468375937600669 ], [ -73.434173476997032, 45.463181042110676 ], [ -73.440638408595774, 45.460671066428631 ] ] ] } },
{ "type": "Feature", "properties": { "hex_id": 520178, "centroid_lon": -74.140504815096165, "centroid_lat": 45.278394378434854, "occurrences_today": 5, "datetimes_today": "2026-06-16 00:01:22, 2026-06-16 00:16:22, 2026-06-16 00:31:22, 2026-06-16 00:46:40, 2026-06-16 01:01:28", "cumulative_total": 20.0 }, "geometry": { "type": "Polygon", "coordinates": [ [ [ -74.14058326143757, 45.27319795108987 ], [ -74.146917932434093, 45.27584395367041 ], [ -74.146840057088767, 45.281040387199234 ], [ -74.1404263473855, 45.283590800924962 ], [ -74.134091126765753, 45.280944437650504 ], [ -74.134170165465363, 45.27574802140829 ], [ -74.14058326143757, 45.27319795108987 ] ] ] } },
{ "type": "Feature", "properties": { "hex_id": 868871, "centroid_lon": -70.382747888910728, "centroid_lat": 46.708307714730317, "occurrences_today": 5, "datetimes_today": "2026-06-16 00:01:22, 2026-06-16 00:16:22, 2026-06-16 00:31:22, 2026-06-16 00:46:40, 2026-06-16 01:01:28", "cumulative_total": 8.0 }, "geometry": { "type": "Polygon", "coordinates": [ [ [ -70.383190391823433, 46.703128892759331 ], [ -70.38948885190436, 46.705981743039175 ], [ -70.389046907360779, 46.711160608435925 ], [ -70.382305263657713, 46.713486528766694 ], [ -70.376006367569062, 46.71063326665243 ], [ -70.376449551149037, 46.705454496107691 ], [ -70.383190391823433, 46.703128892759331 ] ] ] } },
{ "type": "Feature", "properties": { "hex_id": 869482, "centroid_lon": -70.375563061457953, "centroid_lat": 46.715812029252994, "occurrences_today": 5, "datetimes_today": "2026-06-16 00:01:22, 2026-06-16 00:16:22, 2026-06-16 00:31:22, 2026-06-16 00:46:40, 2026-06-16 01:01:28", "cumulative_total": 34.0 }, "geometry": { "type": "Polygon", "coordinates": [ [ [ -70.376006367569062, 46.71063326665243 ], [ -70.382305263657713, 46.713486528766694 ], [ -70.381862516022196, 46.718665334867325 ], [ -70.375119632773476, 46.72099078390827 ], [ -70.36882030080379, 46.718137109802122 ], [ -70.369264287921567, 46.712958398712814 ], [ -70.376006367569062, 46.71063326665243 ] ] ] } },
{ "type": "Feature", "properties": { "hex_id": 870093, "centroid_lon": -70.36837619092168, "centroid_lat": 46.723315812936569, "occurrences_today": 5, "datetimes_today": "2026-06-16 00:01:22, 2026-06-16 00:16:22, 2026-06-16 00:31:22, 2026-06-16 00:46:40, 2026-06-16 01:01:28", "cumulative_total": 8.0 }, "geometry": { "type": "Polygon", "coordinates": [ [ [ -70.36882030080379, 46.718137109802122 ], [ -70.375119632773476, 46.72099078390827 ], [ -70.374676081473311, 46.726169530617106 ], [ -70.367931958232887, 46.728494508115006 ], [ -70.361632190509113, 46.725640421859516 ], [ -70.362076981737474, 46.720461770321364 ], [ -70.36882030080379, 46.718137109802122 ] ] ] } },
{ "type": "Feature", "properties": { "hex_id": 558046, "centroid_lon": -73.739460775546291, "centroid_lat": 45.539714266684513, "occurrences_today": 1, "datetimes_today": "2026-06-16 00:01:22", "cumulative_total": 370.0 }, "geometry": { "type": "Polygon", "coordinates": [ [ [ -73.739576872836366, 45.534518752047056 ], [ -73.745921349418822, 45.537186988665013 ], [ -73.745805825680335, 45.542382513513175 ], [ -73.73934464653594, 45.544909776344511 ], [ -73.732999628127502, 45.542241171936155 ], [ -73.733116330678783, 45.537045672551464 ], [ -73.739576872836366, 45.534518752047056 ] ] ] } },
{ "type": "Feature", "properties": { "hex_id": 558656, "centroid_lon": -73.733233001354222, "centroid_lat": 45.531850168186992, "occurrences_today": 5, "datetimes_today": "2026-06-16 00:01:22, 2026-06-16 00:16:22, 2026-06-16 00:31:22, 2026-06-16 00:46:40, 2026-06-16 01:01:28", "cumulative_total": 79.0 }, "geometry": { "type": "Polygon", "coordinates": [ [ [ -73.733349640164533, 45.526654658842851 ], [ -73.739692938416809, 45.529323232432205 ], [ -73.739576872836366, 45.534518752047056 ], [ -73.733116330678783, 45.537045672551464 ], [ -73.726772491067123, 45.534376731212667 ], [ -73.72688973496173, 45.529181237183487 ], [ -73.733349640164533, 45.526654658842851 ] ] ] } },
{ "type": "Feature", "properties": { "hex_id": 558657, "centroid_lon": -73.732882893689691, "centroid_lat": 45.547436666341021, "occurrences_today": 1, "datetimes_today": "2026-06-16 00:01:22", "cumulative_total": 191.0 }, "geometry": { "type": "Polygon", "coordinates": [ [ [ -73.732999628127502, 45.542241171936155 ], [ -73.73934464653594, 45.544909776344511 ], [ -73.739228485794655, 45.550105281026987 ], [ -73.732766127354608, 45.552632155766005 ], [ -73.726420567152246, 45.549963183407513 ], [ -73.726537907173139, 45.544767704324734 ], [ -73.732999628127502, 45.542241171936155 ] ] ] } },
{ "type": "Feature", "properties": { "hex_id": 559267, "centroid_lon": -73.726655215141179, "centroid_lat": 45.539572220259771, "occurrences_today": 5, "datetimes_today": "2026-06-16 00:01:22, 2026-06-16 00:16:22, 2026-06-16 00:31:22, 2026-06-16 00:46:40, 2026-06-16 01:01:28", "cumulative_total": 212.0 }, "geometry": { "type": "Polygon", "coordinates": [ [ [ -73.726772491067123, 45.534376731212667 ], [ -73.733116330678783, 45.537045672551464 ], [ -73.732999628127502, 45.542241171936155 ], [ -73.726537907173139, 45.544767704324734 ], [ -73.720193526234297, 45.542098395076856 ], [ -73.720311407566243, 45.536902921414082 ], [ -73.726772491067123, 45.534376731212667 ] ] ] } },
{ "type": "Feature", "properties": { "hex_id": 514724, "centroid_lon": -74.188827354787733, "centroid_lat": 45.910150731884777, "occurrences_today": 5, "datetimes_today": "2026-06-16 00:01:22, 2026-06-16 00:16:22, 2026-06-16 00:31:22, 2026-06-16 00:46:40, 2026-06-16 01:01:28", "cumulative_total": 129.0 }, "geometry": { "type": "Polygon", "coordinates": [ [ [ -74.188903039347792, 45.904954817665342 ], [ -74.19531108517522, 45.907598349647067 ], [ -74.195235991598082, 45.912794269660488 ], [ -74.188751649451845, 45.915346641261614 ], [ -74.18234303342085, 45.91270274107881 ], [ -74.182419329732625, 45.907506837561506 ], [ -74.188903039347792, 45.904954817665342 ] ] ] } },
{ "type": "Feature", "properties": { "hex_id": 710035, "centroid_lon": -72.166085298352542, "centroid_lat": 45.113929438176591, "occurrences_today": 5, "datetimes_today": "2026-06-16 00:01:22, 2026-06-16 00:16:22, 2026-06-16 00:31:22, 2026-06-16 00:46:40, 2026-06-16 01:01:28", "cumulative_total": 74.0 }, "geometry": { "type": "Polygon", "coordinates": [ [ [ -72.166342377639779, 45.108738640813606 ], [ -72.172562355129912, 45.111491513467229 ], [ -72.172305815073742, 45.116682336229871 ], [ -72.165828149247645, 45.119120229650349 ], [ -72.159607702355643, 45.116366980541024 ], [ -72.159865390668458, 45.111176214530126 ], [ -72.166342377639779, 45.108738640813606 ] ] ] } },
{ "type": "Feature", "properties": { "hex_id": 784630, "centroid_lon": -71.274728718134611, "centroid_lat": 46.865590451581163, "occurrences_today": 5, "datetimes_today": "2026-06-16 00:01:22, 2026-06-16 00:16:22, 2026-06-16 00:31:22, 2026-06-16 00:46:40, 2026-06-16 01:01:28", "cumulative_total": 106.0 }, "geometry": { "type": "Polygon", "coordinates": [ [ [ -71.275087837356196, 46.860405880901183 ], [ -71.281454432250683, 46.863211299401272 ], [ -71.281095890847496, 46.868395905064666 ], [ -71.27436949930312, 46.870775015430418 ], [ -71.268002426217393, 46.867969189984102 ], [ -71.268362222832721, 46.862784661185074 ], [ -71.275087837356196, 46.860405880901183 ] ] ] } },
{ "type": "Feature", "properties": { "hex_id": 500666, "centroid_lon": -74.340134819905387, "centroid_lat": 45.653894982757208, "occurrences_today": 2, "datetimes_today": "2026-06-16 00:01:22, 2026-06-16 00:16:22", "cumulative_total": 142.0 }, "geometry": { "type": "Polygon", "coordinates": [ [ [ -74.340195840237641, 45.648698658043621 ], [ -74.346581973729329, 45.651333702466211 ], [ -74.346521538426018, 45.656530031421504 ], [ -74.340073782874995, 45.659091302659832 ], [ -74.333687081055302, 45.656455894762253 ], [ -74.333748703109009, 45.651259579166293 ], [ -74.340195840237641, 45.648698658043621 ] ] ] } },
{ "type": "Feature", "properties": { "hex_id": 501277, "centroid_lon": -74.333625442138313, "centroid_lat": 45.661652205546055, "occurrences_today": 2, "datetimes_today": "2026-06-16 00:01:22, 2026-06-16 00:16:22", "cumulative_total": 216.0 }, "geometry": { "type": "Polygon", "coordinates": [ [ [ -74.333687081055302, 45.656455894762253 ], [ -74.340073782874995, 45.659091302659832 ], [ -74.340012729140867, 45.664287617751512 ], [ -74.333563786352343, 45.666848511517642 ], [ -74.327176516221613, 45.664212739983611 ], [ -74.327238757184745, 45.65901643838486 ], [ -74.333687081055302, 45.656455894762253 ] ] ] } },
{ "type": "Feature", "properties": { "hex_id": 656330, "centroid_lon": -72.713102661094396, "centroid_lat": 45.422432854988422, "occurrences_today": 5, "datetimes_today": "2026-06-16 00:01:22, 2026-06-16 00:16:22, 2026-06-16 00:31:22, 2026-06-16 00:46:40, 2026-06-16 01:01:28", "cumulative_total": 81.0 }, "geometry": { "type": "Polygon", "coordinates": [ [ [ -72.713312389567278, 45.417240119089648 ], [ -72.719593246014441, 45.419964220080537 ], [ -72.719384073441887, 45.42515697623169 ], [ -72.712892875431621, 45.427625585387943 ], [ -72.706611520283587, 45.424901108741807 ], [ -72.706821861827549, 45.419708398658749 ], [ -72.713312389567278, 45.417240119089648 ] ] ] } },
{ "type": "Feature", "properties": { "hex_id": 657551, "centroid_lon": -72.700330778365654, "centroid_lat": 45.422176297048701, "occurrences_today": 5, "datetimes_today": "2026-06-16 00:01:22, 2026-06-16 00:16:22, 2026-06-16 00:31:22, 2026-06-16 00:46:40, 2026-06-16 01:01:28", "cumulative_total": 84.0 }, "geometry": { "type": "Polygon", "coordinates": [ [ [ -72.700541675622219, 45.416983607342083 ], [ -72.706821861827549, 45.419708398658749 ], [ -72.706611520283587, 45.424901108741807 ], [ -72.700119823601185, 45.427368981247668 ], [ -72.693839139200776, 45.424643814166473 ], [ -72.694050649658607, 45.419451150408008 ], [ -72.700541675622219, 45.416983607342083 ] ] ] } },
{ "type": "Feature", "properties": { "hex_id": 814555, "centroid_lon": -70.941711099531972, "centroid_lat": 47.017936979010926, "occurrences_today": 1, "datetimes_today": "2026-06-16 00:01:22", "cumulative_total": 39.0 }, "geometry": { "type": "Polygon", "coordinates": [ [ [ -70.942104357610575, 47.012754599067378 ], [ -70.948469883308618, 47.015578532300736 ], [ -70.948077202360466, 47.020760950557502 ], [ -70.941317732191592, 47.023119351722031 ], [ -70.934951738643889, 47.020295006759603 ], [ -70.935345683076704, 47.015112672428721 ], [ -70.942104357610575, 47.012754599067378 ] ] ] } },
{ "type": "Feature", "properties": { "hex_id": 716198, "centroid_lon": -72.055761918765555, "centroid_lat": 46.015393177072511, "occurrences_today": 3, "datetimes_today": "2026-06-16 00:31:22, 2026-06-16 00:46:40, 2026-06-16 01:01:28", "cumulative_total": 30.0 }, "geometry": { "type": "Polygon", "coordinates": [ [ [ -72.056037522297956, 46.010203706720901 ], [ -72.062349961995238, 46.012964562165166 ], [ -72.062074922417167, 46.018154059420851 ], [ -72.055486239571223, 46.020582641408843 ], [ -72.049173311594416, 46.017821396931275 ], [ -72.049449554717398, 46.012631959564182 ], [ -72.056037522297956, 46.010203706720901 ] ] ] } },
{ "type": "Feature", "properties": { "hex_id": 601390, "centroid_lon": -73.285639131852449, "centroid_lat": 45.510417928902974, "occurrences_today": 2, "datetimes_today": "2026-06-16 00:46:40, 2026-06-16 01:01:28", "cumulative_total": 194.0 }, "geometry": { "type": "Polygon", "coordinates": [ [ [ -73.285796854812816, 45.505223457630599 ], [ -73.292115884134205, 45.507916557039366 ], [ -73.291958727661495, 45.51311104299554 ], [ -73.285481365822889, 45.515612395003686 ], [ -73.279161813090298, 45.512918923963554 ], [ -73.279320145593047, 45.507724472611073 ], [ -73.285796854812816, 45.505223457630599 ] ] ] } },
{ "type": "Feature", "properties": { "hex_id": 602001, "centroid_lon": -73.27900343735071, "centroid_lat": 45.518113370141144, "occurrences_today": 2, "datetimes_today": "2026-06-16 00:46:40, 2026-06-16 01:01:28", "cumulative_total": 132.0 }, "geometry": { "type": "Polygon", "coordinates": [ [ [ -73.279161813090298, 45.512918923963554 ], [ -73.285481365822889, 45.515612395003686 ], [ -73.285323556709656, 45.520806855932612 ], [ -73.278845018359803, 45.52330781114371 ], [ -73.272524942259437, 45.520613968313576 ], [ -73.272683927862175, 45.515419542126786 ], [ -73.279161813090298, 45.512918923963554 ] ] ] } },
{ "type": "Feature", "properties": { "hex_id": 785851, "centroid_lon": -71.26163603069844, "centroid_lat": 46.8651630276714, "occurrences_today": 5, "datetimes_today": "2026-06-16 00:01:22, 2026-06-16 00:16:22, 2026-06-16 00:31:22, 2026-06-16 00:46:40, 2026-06-16 01:01:28", "cumulative_total": 85.0 }, "geometry": { "type": "Polygon", "coordinates": [ [ [ -71.261996404907279, 46.859978533982471 ], [ -71.268362222832721, 46.862784661185074 ], [ -71.268002426217393, 46.867969189984102 ], [ -71.261275556533661, 46.870347514514933 ], [ -71.254909260987958, 46.867540980264984 ], [ -71.255270312711588, 46.862356528598333 ], [ -71.261996404907279, 46.859978533982471 ] ] ] } },
{ "type": "Feature", "properties": { "hex_id": 586124, "centroid_lon": -73.447102773077049, "centroid_lat": 45.458160716073628, "occurrences_today": 2, "datetimes_today": "2026-06-16 00:46:40, 2026-06-16 01:01:28", "cumulative_total": 138.0 }, "geometry": { "type": "Polygon", "coordinates": [ [ [ -73.447245385056974, 45.45296577893609 ], [ -73.453566570427768, 45.455649991140149 ], [ -73.453424525584893, 45.460844941357614 ], [ -73.44696012217554, 45.463355648115872 ], [ -73.440638408595774, 45.460671066428631 ], [ -73.440781626621302, 45.455476147530639 ], [ -73.447245385056974, 45.45296577893609 ] ] ] } },
{ "type": "Feature", "properties": { "hex_id": 656931, "centroid_lon": -72.712688215150379, "centroid_lat": 45.274310282920119, "occurrences_today": 5, "datetimes_today": "2026-06-16 00:01:22, 2026-06-16 00:16:22, 2026-06-16 00:31:22, 2026-06-16 00:46:40, 2026-06-16 01:01:28", "cumulative_total": 41.0 }, "geometry": { "type": "Polygon", "coordinates": [ [ [ -72.712896901606555, 45.269117413344993 ], [ -72.719161645121247, 45.271841282258855 ], [ -72.718953510232623, 45.277034172033233 ], [ -72.712479471888386, 45.27950314699914 ], [ -72.706214233621409, 45.276778904311918 ], [ -72.706423528432012, 45.271586060495906 ], [ -72.712896901606555, 45.269117413344993 ] ] ] } },
{ "type": "Feature", "properties": { "hex_id": 658152, "centroid_lon": -72.699949603866358, "centroid_lat": 45.27405432835279, "occurrences_today": 5, "datetimes_today": "2026-06-16 00:01:22, 2026-06-16 00:16:22, 2026-06-16 00:31:22, 2026-06-16 00:46:40, 2026-06-16 01:01:28", "cumulative_total": 41.0 }, "geometry": { "type": "Polygon", "coordinates": [ [ [ -72.700159450058578, 45.268861504859437 ], [ -72.706423528432012, 45.271586060495906 ], [ -72.706214233621409, 45.276778904311918 ], [ -72.699739700553323, 45.27924714634166 ], [ -72.693475127928593, 45.276522216823089 ], [ -72.693685582604203, 45.271329419220621 ], [ -72.700159450058578, 45.268861504859437 ] ] ] } },
{ "type": "Feature", "properties": { "hex_id": 877379, "centroid_lon": -70.343429607870789, "centroid_lat": 46.098682236835479, "occurrences_today": 1, "datetimes_today": "2026-06-16 01:01:28", "cumulative_total": 102.0 }, "geometry": { "type": "Polygon", "coordinates": [ [ [ -70.343866479406742, 46.09350315011374 ], [ -70.35009518041953, 46.096355725013012 ], [ -70.349658848620052, 46.101534855044015 ], [ -70.342992616511935, 46.103861315631427 ], [ -70.336763495605879, 46.101008336853319 ], [ -70.337201026660551, 46.095829301431003 ], [ -70.343866479406742, 46.09350315011374 ] ] ] } },
{ "type": "Feature", "properties": { "hex_id": 877990, "centroid_lon": -70.33632584454503, "centroid_lat": 46.106187364340478, "occurrences_today": 1, "datetimes_today": "2026-06-16 01:01:28", "cumulative_total": 102.0 }, "geometry": { "type": "Polygon", "coordinates": [ [ [ -70.336763495605879, 46.101008336853319 ], [ -70.342992616511935, 46.103861315631427 ], [ -70.342555505289567, 46.109040386500446 ], [ -70.335888073437303, 46.111366383891394 ], [ -70.329658532760021, 46.108513001080567 ], [ -70.330096843665473, 46.103334024975936 ], [ -70.336763495605879, 46.101008336853319 ] ] ] } },
{ "type": "Feature", "properties": { "hex_id": 879211, "centroid_lon": -70.323429652090354, "centroid_lat": 46.105659301112766, "occurrences_today": 5, "datetimes_today": "2026-06-16 00:01:22, 2026-06-16 00:16:22, 2026-06-16 00:31:22, 2026-06-16 00:46:40, 2026-06-16 01:01:28", "cumulative_total": 114.0 }, "geometry": { "type": "Polygon", "coordinates": [ [ [ -70.323868502610154, 46.100480368510631 ], [ -70.330096843665473, 46.103334024975936 ], [ -70.329658532760021, 46.108513001080567 ], [ -70.322990681197666, 46.110838225761078 ], [ -70.316761920921294, 46.107984165173235 ], [ -70.317201431387488, 46.102805284091822 ], [ -70.323868502610154, 46.100480368510631 ] ] ] } },
{ "type": "Feature", "properties": { "hex_id": 879822, "centroid_lon": -70.316322289898821, "centroid_lat": 46.113163038291404, "occurrences_today": 5, "datetimes_today": "2026-06-16 00:01:22, 2026-06-16 00:16:22, 2026-06-16 00:31:22, 2026-06-16 00:46:40, 2026-06-16 01:01:28", "cumulative_total": 114.0 }, "geometry": { "type": "Polygon", "coordinates": [ [ [ -70.316761920921294, 46.107984165173235 ], [ -70.322990681197666, 46.110838225761078 ], [ -70.322551589891262, 46.116017142454375 ], [ -70.315882538279112, 46.118341903445213 ], [ -70.309653358904356, 46.115487438580978 ], [ -70.310093650199192, 46.110308617066742 ], [ -70.316761920921294, 46.107984165173235 ] ] ] } },
{ "type": "Feature", "properties": { "hex_id": 881043, "centroid_lon": -70.303424839964975, "centroid_lat": 46.112632656702736, "occurrences_today": 1, "datetimes_today": "2026-06-16 01:01:28", "cumulative_total": 102.0 }, "geometry": { "type": "Polygon", "coordinates": [ [ [ -70.303865670751449, 46.107453878884236 ], [ -70.310093650199192, 46.110308617066742 ], [ -70.309653358904356, 46.115487438580978 ], [ -70.302983888255255, 46.11781142653922 ], [ -70.29675549025967, 46.114956283990665 ], [ -70.297196981419987, 46.109777557914349 ], [ -70.303865670751449, 46.107453878884236 ] ] ] } },
{ "type": "Feature", "properties": { "hex_id": 881654, "centroid_lon": -70.296313877992517, "centroid_lat": 46.120135002075521, "occurrences_today": 1, "datetimes_today": "2026-06-16 01:01:28", "cumulative_total": 102.0 }, "geometry": { "type": "Polygon", "coordinates": [ [ [ -70.29675549025967, 46.114956283990665 ], [ -70.302983888255255, 46.11781142653922 ], [ -70.302542815581191, 46.122990188392492 ], [ -70.295872144577416, 46.125313712167767 ], [ -70.28964332815724, 46.12245816509936 ], [ -70.290085601124318, 46.11727949883997 ], [ -70.29675549025967, 46.114956283990665 ] ] ] } },
{ "type": "Feature", "properties": { "hex_id": 882264, "centroid_lon": -70.290527752800955, "centroid_lat": 46.11210082457967, "occurrences_today": 1, "datetimes_today": "2026-06-16 01:01:28", "cumulative_total": 102.0 }, "geometry": { "type": "Polygon", "coordinates": [ [ [ -70.29096978322832, 46.10692214231964 ], [ -70.297196981419987, 46.109777557914349 ], [ -70.29675549025967, 46.114956283990665 ], [ -70.290085601124318, 46.11727949883997 ], [ -70.283857984935466, 46.114423678789692 ], [ -70.284300675837997, 46.109245048410081 ], [ -70.29096978322832, 46.10692214231964 ] ] ] } },
{ "type": "Feature", "properties": { "hex_id": 882875, "centroid_lon": -70.283415172600058, "centroid_lat": 46.119602301160086, "occurrences_today": 1, "datetimes_today": "2026-06-16 01:01:28", "cumulative_total": 102.0 }, "geometry": { "type": "Polygon", "coordinates": [ [ [ -70.283857984935466, 46.114423678789692 ], [ -70.290085601124318, 46.11727949883997 ], [ -70.28964332815724, 46.12245816509936 ], [ -70.282972238790592, 46.124780915520134 ], [ -70.276744204728104, 46.121924690860517 ], [ -70.277187677864674, 46.116746120453875 ], [ -70.283857984935466, 46.114423678789692 ] ] ] } },
{ "type": "Feature", "properties": { "hex_id": 883486, "centroid_lon": -70.27630060993377, "centroid_lat": 46.12710325324732, "occurrences_today": 1, "datetimes_today": "2026-06-16 01:01:28", "cumulative_total": 102.0 }, "geometry": { "type": "Polygon", "coordinates": [ [ [ -70.276744204728104, 46.121924690860517 ], [ -70.282972238790592, 46.124780915520134 ], [ -70.282529183465797, 46.129959521868656 ], [ -70.275856893440363, 46.132281807613118 ], [ -70.269628441628058, 46.129425178190345 ], [ -70.270072697549693, 46.124246667850691 ], [ -70.276744204728104, 46.121924690860517 ] ] ] } },
{ "type": "Feature", "properties": { "hex_id": 884707, "centroid_lon": -70.263400651106167, "centroid_lat": 46.126568232040114, "occurrences_today": 1, "datetimes_today": "2026-06-16 01:01:28", "cumulative_total": 102.0 }, "geometry": { "type": "Polygon", "coordinates": [ [ [ -70.263845446272256, 46.121389765782688 ], [ -70.270072697549693, 46.124246667850691 ], [ -70.269628441628058, 46.129425178190345 ], [ -70.262955733914808, 46.131746690258701 ], [ -70.256728065438921, 46.12888938333824 ], [ -70.257173521833295, 46.12371096926632 ], [ -70.263845446272256, 46.121389765782688 ] ] ] } },
{ "type": "Feature", "properties": { "hex_id": 885318, "centroid_lon": -70.256282486835417, "centroid_lat": 46.134067789361836, "occurrences_today": 1, "datetimes_today": "2026-06-16 01:01:28", "cumulative_total": 102.0 }, "geometry": { "type": "Polygon", "coordinates": [ [ [ -70.256728065438921, 46.12888938333824 ], [ -70.262955733914808, 46.131746690258701 ], [ -70.262510694656726, 46.136925140437278 ], [ -70.255836785981316, 46.139246187335864 ], [ -70.249608700431367, 46.136388475409184 ], [ -70.250054940589379, 46.131210121654583 ], [ -70.256728065438921, 46.12888938333824 ] ] ] } },
{ "type": "Feature", "properties": { "hex_id": 886539, "centroid_lon": -70.243381276599081, "centroid_lat": 46.133530446898639, "occurrences_today": 1, "datetimes_today": "2026-06-16 01:01:28", "cumulative_total": 102.0 }, "geometry": { "type": "Polygon", "coordinates": [ [ [ -70.243828055877088, 46.128352137419526 ], [ -70.250054940589379, 46.131210121654583 ], [ -70.249608700431367, 46.136388475409184 ], [ -70.242934374744209, 46.138708748310307 ], [ -70.236707073509621, 46.135850358979887 ], [ -70.237154514442878, 46.130672101908154 ], [ -70.243828055877088, 46.128352137419526 ] ] ] } },
{ "type": "Feature", "properties": { "hex_id": 656941, "centroid_lon": -72.70640112138112, "centroid_lat": 45.430093813321299, "occurrences_today": 5, "datetimes_today": "2026-06-16 00:01:22, 2026-06-16 00:16:22, 2026-06-16 00:31:22, 2026-06-16 00:46:40, 2026-06-16 01:01:28", "cumulative_total": 96.0 }, "geometry": { "type": "Polygon", "coordinates": [ [ [ -72.706611520283587, 45.424901108741807 ], [ -72.712892875431621, 45.427625585387943 ], [ -72.712683032559809, 45.432818310287914 ], [ -72.706190665100962, 45.435286512396921 ], [ -72.699908811309555, 45.432561659938706 ], [ -72.700119823601185, 45.427368981247668 ], [ -72.706611520283587, 45.424901108741807 ] ] ] } },
{ "type": "Feature", "properties": { "hex_id": 602611, "centroid_lon": -73.272842870060458, "centroid_lat": 45.510225110761859, "occurrences_today": 5, "datetimes_today": "2026-06-16 00:01:22, 2026-06-16 00:16:22, 2026-06-16 00:31:22, 2026-06-16 00:46:40, 2026-06-16 01:01:28", "cumulative_total": 110.0 }, "geometry": { "type": "Polygon", "coordinates": [ [ [ -73.273001768868809, 45.505030674218951 ], [ -73.279320145593047, 45.507724472611073 ], [ -73.279161813090298, 45.512918923963554 ], [ -73.272683927862175, 45.515419542126786 ], [ -73.266365028229529, 45.512725371988651 ], [ -73.266524536718833, 45.507530955497735 ], [ -73.273001768868809, 45.505030674218951 ] ] ] } },
{ "type": "Feature", "properties": { "hex_id": 515945, "centroid_lon": -74.175935029306586, "centroid_lat": 45.910058484383931, "occurrences_today": 5, "datetimes_today": "2026-06-16 00:01:22, 2026-06-16 00:16:22, 2026-06-16 00:31:22, 2026-06-16 00:46:40, 2026-06-16 01:01:28", "cumulative_total": 119.0 }, "geometry": { "type": "Polygon", "coordinates": [ [ [ -74.176011916425651, 45.904862586790131 ], [ -74.182419329732625, 45.907506837561506 ], [ -74.18234303342085, 45.91270274107881 ], [ -74.17585812108166, 45.915254377132094 ], [ -74.169450138076797, 45.912609758035522 ], [ -74.169527637101893, 45.907413871276404 ], [ -74.176011916425651, 45.904862586790131 ] ] ] } },
{ "type": "Feature", "properties": { "hex_id": 516556, "centroid_lon": -74.16937261777727, "centroid_lat": 45.917805639947424, "occurrences_today": 5, "datetimes_today": "2026-06-16 00:01:22, 2026-06-16 00:16:22, 2026-06-16 00:31:22, 2026-06-16 00:46:40, 2026-06-16 01:01:28", "cumulative_total": 67.0 }, "geometry": { "type": "Polygon", "coordinates": [ [ [ -74.169450138076797, 45.912609758035522 ], [ -74.17585812108166, 45.915254377132094 ], [ -74.175781191743724, 45.920450265034582 ], [ -74.169295076196036, 45.923001517012125 ], [ -74.162886523514871, 45.920356529427728 ], [ -74.162964656050477, 45.915160658419161 ], [ -74.169450138076797, 45.912609758035522 ] ] ] } },
{ "type": "Feature", "properties": { "hex_id": 517166, "centroid_lon": -74.163042767142969, "centroid_lat": 45.909964782561801, "occurrences_today": 5, "datetimes_today": "2026-06-16 00:01:22, 2026-06-16 00:16:22, 2026-06-16 00:31:22, 2026-06-16 00:46:40, 2026-06-16 01:01:28", "cumulative_total": 78.0 }, "geometry": { "type": "Polygon", "coordinates": [ [ [ -74.163120856799594, 45.904768901855661 ], [ -74.169527637101893, 45.907413871276404 ], [ -74.169450138076797, 45.912609758035522 ], [ -74.162964656050477, 45.915160658419161 ], [ -74.156557306556124, 45.912515320549225 ], [ -74.156636008272883, 45.90731945081037 ], [ -74.163120856799594, 45.904768901855661 ] ] ] } },
{ "type": "Feature", "properties": { "hex_id": 547065, "centroid_lon": -73.852174600209295, "centroid_lat": 45.665624217034676, "occurrences_today": 5, "datetimes_today": "2026-06-16 00:01:22, 2026-06-16 00:16:22, 2026-06-16 00:31:22, 2026-06-16 00:46:40, 2026-06-16 01:01:28", "cumulative_total": 180.0 }, "geometry": { "type": "Polygon", "coordinates": [ [ [ -73.852280782818269, 45.660428602227228 ], [ -73.858644817605821, 45.663090708127598 ], [ -73.85853921389598, 45.66828633205278 ], [ -73.852068388543358, 45.670819826903525 ], [ -73.845703803918553, 45.668157352681135 ], [ -73.845810594473804, 45.662961751994914 ], [ -73.852280782818269, 45.660428602227228 ] ] ] } },
{ "type": "Feature", "properties": { "hex_id": 577023, "centroid_lon": -73.519778245111539, "centroid_lat": 46.339931752879004, "occurrences_today": 5, "datetimes_today": "2026-06-16 00:01:22, 2026-06-16 00:16:22, 2026-06-16 00:31:22, 2026-06-16 00:46:40, 2026-06-16 01:01:28", "cumulative_total": 99.0 }, "geometry": { "type": "Polygon", "coordinates": [ [ [ -73.519918428430344, 46.334737445969637 ], [ -73.526343032146372, 46.337418502454355 ], [ -73.526203444132776, 46.342612821958504 ], [ -73.519638023109991, 46.345126054720396 ], [ -73.513212862778133, 46.342444618079952 ], [ -73.513353680071603, 46.337250328899749 ], [ -73.519918428430344, 46.334737445969637 ] ] ] } },
{ "type": "Feature", "properties": { "hex_id": 578244, "centroid_lon": -73.506788336590361, "centroid_lat": 46.339762826577953, "occurrences_today": 5, "datetimes_today": "2026-06-16 00:01:22, 2026-06-16 00:16:22, 2026-06-16 00:31:22, 2026-06-16 00:46:40, 2026-06-16 01:01:28", "cumulative_total": 108.0 }, "geometry": { "type": "Polygon", "coordinates": [ [ [ -73.506929748999696, 46.334568550122555 ], [ -73.513353680071603, 46.337250328899749 ], [ -73.513212862778133, 46.342444618079952 ], [ -73.506646885159441, 46.344957097959622 ], [ -73.500222397999948, 46.342274938906655 ], [ -73.500364444533346, 46.337080680316198 ], [ -73.506929748999696, 46.334568550122555 ] ] ] } },
{ "type": "Feature", "properties": { "hex_id": 867650, "centroid_lon": -70.395787992525001, "centroid_lat": 46.708834268353449, "occurrences_today": 5, "datetimes_today": "2026-06-16 00:01:22, 2026-06-16 00:16:22, 2026-06-16 00:31:22, 2026-06-16 00:46:40, 2026-06-16 01:01:28", "cumulative_total": 7.0 }, "geometry": { "type": "Polygon", "coordinates": [ [ [ -70.39622925650778, 46.703655351671735 ], [ -70.402528519108273, 46.706507508611985 ], [ -70.402087813727491, 46.711686468596106 ], [ -70.395346606541366, 46.714013177118503 ], [ -70.389046907360779, 46.711160608435925 ], [ -70.38948885190436, 46.705981743039175 ], [ -70.39622925650778, 46.703655351671735 ] ] ] } },
{ "type": "Feature", "properties": { "hex_id": 868261, "centroid_lon": -70.388604840625547, "centroid_lat": 46.716339465906486, "occurrences_today": 5, "datetimes_today": "2026-06-16 00:01:22, 2026-06-16 00:16:22, 2026-06-16 00:31:22, 2026-06-16 00:46:40, 2026-06-16 01:01:28", "cumulative_total": 7.0 }, "geometry": { "type": "Polygon", "coordinates": [ [ [ -70.389046907360779, 46.711160608435925 ], [ -70.395346606541366, 46.714013177118503 ], [ -70.394905098514741, 46.719192077965737 ], [ -70.388162651656486, 46.721518315449707 ], [ -70.381862516022196, 46.718665334867325 ], [ -70.382305263657713, 46.713486528766694 ], [ -70.389046907360779, 46.711160608435925 ] ] ] } },
{ "type": "Feature", "properties": { "hex_id": 657541, "centroid_lon": -72.706632766288777, "centroid_lat": 45.266393211179746, "occurrences_today": 5, "datetimes_today": "2026-06-16 00:01:22, 2026-06-16 00:16:22, 2026-06-16 00:31:22, 2026-06-16 00:46:40, 2026-06-16 01:01:28", "cumulative_total": 36.0 }, "geometry": { "type": "Polygon", "coordinates": [ [ [ -72.706841947210719, 45.261200356363695 ], [ -72.713105531275858, 45.263924538274026 ], [ -72.712896901606555, 45.269117413344993 ], [ -72.706423528432012, 45.271586060495906 ], [ -72.700159450058578, 45.268861504859437 ], [ -72.700369239149012, 45.263668675861936 ], [ -72.706841947210719, 45.261200356363695 ] ] ] } },
{ "type": "Feature", "properties": { "hex_id": 643722, "centroid_lon": -72.709540757917665, "centroid_lat": 48.734597692131864, "occurrences_today": 3, "datetimes_today": "2026-06-16 00:01:22, 2026-06-16 00:16:22, 2026-06-16 00:31:22", "cumulative_total": 26.0 }, "geometry": { "type": "Polygon", "coordinates": [ [ [ -72.709776598395848, 48.729407982274978 ], [ -72.716452835654039, 48.73213774828173 ], [ -72.71621765974831, 48.737327479851231 ], [ -72.709304850137613, 48.73978739643735 ], [ -72.702628015621144, 48.737057209727261 ], [ -72.702864587949037, 48.731867527206859 ], [ -72.709776598395848, 48.729407982274978 ] ] ] } },
{ "type": "Feature", "properties": { "hex_id": 695466, "centroid_lon": -72.255774561065806, "centroid_lat": 46.410104860745335, "occurrences_today": 5, "datetimes_today": "2026-06-16 00:01:22, 2026-06-16 00:16:22, 2026-06-16 00:31:22, 2026-06-16 00:46:40, 2026-06-16 01:01:28", "cumulative_total": 17.0 }, "geometry": { "type": "Polygon", "coordinates": [ [ [ -72.256035017671067, 46.404914848657235 ], [ -72.26240252830975, 46.40766569998047 ], [ -72.262142650706295, 46.412855737219182 ], [ -72.255514032582241, 46.415294866972445 ], [ -72.249146014832377, 46.412543623120435 ], [ -72.249407122293064, 46.407353642110124 ], [ -72.256035017671067, 46.404914848657235 ] ] ] } },
{ "type": "Feature", "properties": { "hex_id": 1261061, "centroid_lon": -65.530650137058785, "centroid_lat": 50.294449240799175, "occurrences_today": 5, "datetimes_today": "2026-06-16 00:01:22, 2026-06-16 00:16:22, 2026-06-16 00:31:22, 2026-06-16 00:46:40, 2026-06-16 01:01:28", "cumulative_total": 16.0 }, "geometry": { "type": "Polygon", "coordinates": [ [ [ -65.531675944137106, 50.289327608676594 ], [ -65.538086740035652, 50.292457346721775 ], [ -65.53706150744479, 50.297579071747961 ], [ -65.529624033547648, 50.299570853105408 ], [ -65.523212959649882, 50.296440619321721 ], [ -65.524239637537619, 50.291319099988868 ], [ -65.531675944137106, 50.289327608676594 ] ] ] } },
{ "type": "Feature", "properties": { "hex_id": 702335, "centroid_lon": -72.052974033262515, "centroid_lat": 48.797586879629549, "occurrences_today": 5, "datetimes_today": "2026-06-16 00:01:22, 2026-06-16 00:16:22, 2026-06-16 00:31:22, 2026-06-16 00:46:40, 2026-06-16 01:01:28", "cumulative_total": 14.0 }, "geometry": { "type": "Polygon", "coordinates": [ [ [ -72.053278097812253, 48.792399949234962 ], [ -72.059925165904644, 48.795167190678505 ], [ -72.059621757129648, 48.800354149554899 ], [ -72.052669881902418, 48.802773803917042 ], [ -72.046022244861575, 48.800006134857291 ], [ -72.04632705196461, 48.794819239123989 ], [ -72.053278097812253, 48.792399949234962 ] ] ] } },
{ "type": "Feature", "properties": { "hex_id": 703556, "centroid_lon": -72.03937535057284, "centroid_lat": 48.797238095264589, "occurrences_today": 5, "datetimes_today": "2026-06-16 00:01:22, 2026-06-16 00:16:22, 2026-06-16 00:31:22, 2026-06-16 00:46:40, 2026-06-16 01:01:28", "cumulative_total": 14.0 }, "geometry": { "type": "Polygon", "coordinates": [ [ [ -72.039680813204143, 48.792051228151571 ], [ -72.04632705196461, 48.794819239123989 ], [ -72.046022244861575, 48.800006134857291 ], [ -72.039069800733586, 48.802424956257575 ], [ -72.032422993668803, 48.799656517552663 ], [ -72.032729199004379, 48.794469685252331 ], [ -72.039680813204143, 48.792051228151571 ] ] ] } },
{ "type": "Feature", "properties": { "hex_id": 663060, "centroid_lon": -72.633399349071922, "centroid_lat": 45.646871579245527, "occurrences_today": 5, "datetimes_today": "2026-06-16 00:01:22, 2026-06-16 00:16:22, 2026-06-16 00:31:22, 2026-06-16 00:46:40, 2026-06-16 01:01:28", "cumulative_total": 7.0 }, "geometry": { "type": "Polygon", "coordinates": [ [ [ -72.633618087315469, 45.641679342081375 ], [ -72.639919527018023, 45.644408152482143 ], [ -72.639701350171833, 45.649600410763597 ], [ -72.633180551023273, 45.652063810851828 ], [ -72.626878609738554, 45.649334621215999 ], [ -72.627097969164424, 45.644142410791545 ], [ -72.633618087315469, 45.641679342081375 ] ] ] } }
]
}
