{
"type": "FeatureCollection",
"name": "daily_2025-11-15",
"crs": { "type": "name", "properties": { "name": "urn:ogc:def:crs:OGC:1.3:CRS84" } },
"features": [
{ "type": "Feature", "properties": { "hex_id": 1099, "count": 2, "date": "2025-11-15", "n_files": 59, "pct": 3.39 }, "geometry": { "type": "Polygon", "coordinates": [ [ [ -74.4491446, 45.3507392 ], [ -74.4488923, 45.3767226 ], [ -74.4807017, 45.389864 ], [ -74.512749200000016, 45.3770129 ], [ -74.5129722, 45.3510292 ], [ -74.481177, 45.3378968 ], [ -74.4491446, 45.3507392 ] ] ] } },
{ "type": "Feature", "properties": { "hex_id": 1162, "count": 2, "date": "2025-11-15", "n_files": 59, "pct": 3.39 }, "geometry": { "type": "Polygon", "coordinates": [ [ [ -74.4176307, 45.3116056 ], [ -74.4173644, 45.3375891 ], [ -74.4491446, 45.3507392 ], [ -74.481177, 45.3378968 ], [ -74.4814141, 45.311913 ], [ -74.449648, 45.2987719 ], [ -74.4176307, 45.3116056 ] ] ] } },
{ "type": "Feature", "properties": { "hex_id": 1163, "count": 2, "date": "2025-11-15", "n_files": 59, "pct": 3.39 }, "geometry": { "type": "Polygon", "coordinates": [ [ [ -74.4168307, 45.3895557 ], [ -74.4165634, 45.4155388 ], [ -74.4483869, 45.4286892 ], [ -74.4804636, 45.4158474 ], [ -74.4807017, 45.389864 ], [ -74.4488923, 45.3767226 ], [ -74.4168307, 45.3895557 ] ] ] } },
{ "type": "Feature", "properties": { "hex_id": 1227, "count": 2, "date": "2025-11-15", "n_files": 59, "pct": 3.39 }, "geometry": { "type": "Polygon", "coordinates": [ [ [ -74.385318, 45.3504135 ], [ -74.3850365, 45.3763967 ], [ -74.4168307, 45.3895557 ], [ -74.4488923, 45.3767226 ], [ -74.4491446, 45.3507392 ], [ -74.4173644, 45.3375891 ], [ -74.385318, 45.3504135 ] ] ] } },
{ "type": "Feature", "properties": { "hex_id": 1228, "count": 2, "date": "2025-11-15", "n_files": 59, "pct": 3.39 }, "geometry": { "type": "Polygon", "coordinates": [ [ [ -74.3844725, 45.4283626 ], [ -74.3841899, 45.4543454 ], [ -74.4160275, 45.4675048 ], [ -74.4481336, 45.4546723 ], [ -74.4483869, 45.4286892 ], [ -74.4165634, 45.4155388 ], [ -74.3844725, 45.4283626 ] ] ] } },
{ "type": "Feature", "properties": { "hex_id": 1290, "count": 2, "date": "2025-11-15", "n_files": 59, "pct": 3.39 }, "geometry": { "type": "Polygon", "coordinates": [ [ [ -74.3538484, 45.3112625 ], [ -74.353553, 45.3372457 ], [ -74.385318, 45.3504135 ], [ -74.4173644, 45.3375891 ], [ -74.4176307, 45.3116056 ], [ -74.3858797, 45.2984468 ], [ -74.3538484, 45.3112625 ] ] ] } },
{ "type": "Feature", "properties": { "hex_id": 1291, "count": 2, "date": "2025-11-15", "n_files": 59, "pct": 3.39 }, "geometry": { "type": "Polygon", "coordinates": [ [ [ -74.3529609, 45.3892117 ], [ -74.3526642, 45.4151946 ], [ -74.3844725, 45.4283626 ], [ -74.4165634, 45.4155388 ], [ -74.4168307, 45.3895557 ], [ -74.3850365, 45.3763967 ], [ -74.3529609, 45.3892117 ] ] ] } },
{ "type": "Feature", "properties": { "hex_id": 1292, "count": 2, "date": "2025-11-15", "n_files": 59, "pct": 3.39 }, "geometry": { "type": "Polygon", "coordinates": [ [ [ -74.3520696, 45.4671599 ], [ -74.3517718, 45.4931423 ], [ -74.383623500000013, 45.5063107 ], [ -74.415759, 45.4934875 ], [ -74.4160275, 45.4675048 ], [ -74.3841899, 45.4543454 ], [ -74.3520696, 45.4671599 ] ] ] } },
{ "type": "Feature", "properties": { "hex_id": 1355, "count": 2, "date": "2025-11-15", "n_files": 59, "pct": 3.39 }, "geometry": { "type": "Polygon", "coordinates": [ [ [ -74.3214925, 45.3500522 ], [ -74.3211819, 45.376035 ], [ -74.3529609, 45.3892117 ], [ -74.3850365, 45.3763967 ], [ -74.385318, 45.3504135 ], [ -74.353553, 45.3372457 ], [ -74.3214925, 45.3500522 ] ] ] } },
{ "type": "Feature", "properties": { "hex_id": 1356, "count": 2, "date": "2025-11-15", "n_files": 59, "pct": 3.39 }, "geometry": { "type": "Polygon", "coordinates": [ [ [ -74.3205592, 45.4280003 ], [ -74.3202473, 45.4539828 ], [ -74.3520696, 45.4671599 ], [ -74.3841899, 45.4543454 ], [ -74.3844725, 45.4283626 ], [ -74.3526642, 45.4151946 ], [ -74.3205592, 45.4280003 ] ] ] } },
{ "type": "Feature", "properties": { "hex_id": 1418, "count": 2, "date": "2025-11-15", "n_files": 59, "pct": 3.39 }, "geometry": { "type": "Polygon", "coordinates": [ [ [ -74.2900674, 45.3108839 ], [ -74.2897427, 45.3368667 ], [ -74.3214925, 45.3500522 ], [ -74.353553, 45.3372457 ], [ -74.3538484, 45.3112625 ], [ -74.3221126, 45.2980861 ], [ -74.2900674, 45.3108839 ] ] ] } },
{ "type": "Feature", "properties": { "hex_id": 1419, "count": 2, "date": "2025-11-15", "n_files": 59, "pct": 3.39 }, "geometry": { "type": "Polygon", "coordinates": [ [ [ -74.2890922, 45.3888321 ], [ -74.2887662, 45.4148146 ], [ -74.3205592, 45.4280003 ], [ -74.3526642, 45.4151946 ], [ -74.3529609, 45.3892117 ], [ -74.3211819, 45.376035 ], [ -74.2890922, 45.3888321 ] ] ] } },
{ "type": "Feature", "properties": { "hex_id": 1420, "count": 2, "date": "2025-11-15", "n_files": 59, "pct": 3.39 }, "geometry": { "type": "Polygon", "coordinates": [ [ [ -74.288113, 45.4667792 ], [ -74.2877857, 45.4927613 ], [ -74.3196221, 45.5059474 ], [ -74.3517718, 45.4931423 ], [ -74.3520696, 45.4671599 ], [ -74.3202473, 45.4539828 ], [ -74.288113, 45.4667792 ] ] ] } },
{ "type": "Feature", "properties": { "hex_id": 1483, "count": 2, "date": "2025-11-15", "n_files": 59, "pct": 3.39 }, "geometry": { "type": "Polygon", "coordinates": [ [ [ -74.2576683, 45.3496552 ], [ -74.2573285, 45.3756376 ], [ -74.2890922, 45.3888321 ], [ -74.3211819, 45.376035 ], [ -74.3214925, 45.3500522 ], [ -74.2897427, 45.3368667 ], [ -74.2576683, 45.3496552 ] ] ] } },
{ "type": "Feature", "properties": { "hex_id": 1484, "count": 2, "date": "2025-11-15", "n_files": 59, "pct": 3.39 }, "geometry": { "type": "Polygon", "coordinates": [ [ [ -74.2566473, 45.4276023 ], [ -74.256306, 45.4535844 ], [ -74.288113, 45.4667792 ], [ -74.3202473, 45.4539828 ], [ -74.3205592, 45.4280003 ], [ -74.2887662, 45.4148146 ], [ -74.2566473, 45.4276023 ] ] ] } },
{ "type": "Feature", "properties": { "hex_id": 1547, "count": 2, "date": "2025-11-15", "n_files": 59, "pct": 3.39 }, "geometry": { "type": "Polygon", "coordinates": [ [ [ -74.2252248, 45.3884167 ], [ -74.2248696, 45.4143988 ], [ -74.2566473, 45.4276023 ], [ -74.2887662, 45.4148146 ], [ -74.2890922, 45.3888321 ], [ -74.2573285, 45.3756376 ], [ -74.2252248, 45.3884167 ] ] ] } },
{ "type": "Feature", "properties": { "hex_id": 1611, "count": 2, "date": "2025-11-15", "n_files": 59, "pct": 3.39 }, "geometry": { "type": "Polygon", "coordinates": [ [ [ -74.1938456, 45.3492225 ], [ -74.1934765, 45.3752046 ], [ -74.2252248, 45.3884167 ], [ -74.2573285, 45.3756376 ], [ -74.2576683, 45.3496552 ], [ -74.2259338, 45.3364521 ], [ -74.1938456, 45.3492225 ] ] ] } },
{ "type": "Feature", "properties": { "hex_id": 1740, "count": 15, "date": "2025-11-15", "n_files": 59, "pct": 25.42 }, "geometry": { "type": "Polygon", "coordinates": [ [ [ -74.1288277, 45.4266989 ], [ -74.1284277, 45.4526802 ], [ -74.1602039, 45.4659103 ], [ -74.1923661, 45.4531502 ], [ -74.1927367, 45.4271684 ], [ -74.1609745, 45.4139473 ], [ -74.1288277, 45.4266989 ] ] ] } },
{ "type": "Feature", "properties": { "hex_id": 1803, "count": 15, "date": "2025-11-15", "n_files": 59, "pct": 25.42 }, "geometry": { "type": "Polygon", "coordinates": [ [ [ -74.0974946, 45.3874788 ], [ -74.0970809, 45.4134601 ], [ -74.1288277, 45.4266989 ], [ -74.1609745, 45.4139473 ], [ -74.161359, 45.3879656 ], [ -74.129626, 45.3747359 ], [ -74.0974946, 45.3874788 ] ] ] } },
{ "type": "Feature", "properties": { "hex_id": 1866, "count": 14, "date": "2025-11-15", "n_files": 59, "pct": 23.73 }, "geometry": { "type": "Polygon", "coordinates": [ [ [ -74.0674837, 45.2703059 ], [ -74.0670579, 45.2962874 ], [ -74.0987326, 45.309534299999989 ], [ -74.1308193, 45.2967905 ], [ -74.131216, 45.2708085 ], [ -74.099555, 45.2575707 ], [ -74.0674837, 45.2703059 ] ] ] } },
{ "type": "Feature", "properties": { "hex_id": 1867, "count": 15, "date": "2025-11-15", "n_files": 59, "pct": 25.42 }, "geometry": { "type": "Polygon", "coordinates": [ [ [ -74.0662046, 45.3482502 ], [ -74.0657771, 45.3742315 ], [ -74.0974946, 45.3874788 ], [ -74.129626, 45.3747359 ], [ -74.1300243, 45.3487542 ], [ -74.0983205, 45.3355159 ], [ -74.0662046, 45.3482502 ] ] ] } },
{ "type": "Feature", "properties": { "hex_id": 1868, "count": 15, "date": "2025-11-15", "n_files": 59, "pct": 25.42 }, "geometry": { "type": "Polygon", "coordinates": [ [ [ -74.0649203, 45.4261935 ], [ -74.064491, 45.4521744 ], [ -74.0962516, 45.4654222 ], [ -74.1284277, 45.4526802 ], [ -74.1288277, 45.4266989 ], [ -74.0970809, 45.4134601 ], [ -74.0649203, 45.4261935 ] ] ] } },
{ "type": "Feature", "properties": { "hex_id": 1931, "count": 22, "date": "2025-11-15", "n_files": 59, "pct": 37.29 }, "geometry": { "type": "Polygon", "coordinates": [ [ [ -74.033632, 45.3869563 ], [ -74.033189, 45.4129371 ], [ -74.0649203, 45.4261935 ], [ -74.0970809, 45.4134601 ], [ -74.0974946, 45.3874788 ], [ -74.0657771, 45.3742315 ], [ -74.033632, 45.3869563 ] ] ] } },
{ "type": "Feature", "properties": { "hex_id": 2059, "count": 22, "date": "2025-11-15", "n_files": 59, "pct": 37.29 }, "geometry": { "type": "Polygon", "coordinates": [ [ [ -73.9697712, 45.3863981 ], [ -73.9692989, 45.4123784 ], [ -74.0010146, 45.4256524 ], [ -74.033189, 45.4129371 ], [ -74.033632, 45.3869563 ], [ -74.00193, 45.3736914 ], [ -73.9697712, 45.3863981 ] ] ] } },
{ "type": "Feature", "properties": { "hex_id": 2320, "count": 18, "date": "2025-11-15", "n_files": 59, "pct": 30.51 }, "geometry": { "type": "Polygon", "coordinates": [ [ [ -73.8340166, 45.7748495 ], [ -73.8334748, 45.8008268 ], [ -73.8653757, 45.8141395 ], [ -73.8978046, 45.8014655 ], [ -73.8983165, 45.7754876 ], [ -73.8664295, 45.7621842 ], [ -73.8340166, 45.7748495 ] ] ] } },
{ "type": "Feature", "properties": { "hex_id": 2384, "count": 2, "date": "2025-11-15", "n_files": 59, "pct": 3.39 }, "geometry": { "type": "Polygon", "coordinates": [ [ [ -73.8027011, 45.735551 ], [ -73.8021455, 45.7615283 ], [ -73.8340166, 45.7748495 ], [ -73.8664295, 45.7621842 ], [ -73.8669553, 45.7362064 ], [ -73.835098, 45.7228944 ], [ -73.8027011, 45.735551 ] ] ] } },
{ "type": "Feature", "properties": { "hex_id": 2448, "count": 18, "date": "2025-11-15", "n_files": 59, "pct": 30.51 }, "geometry": { "type": "Polygon", "coordinates": [ [ [ -73.7697189, 45.7741751 ], [ -73.7691472, 45.8001519 ], [ -73.8010321, 45.8134823 ], [ -73.8334748, 45.8008268 ], [ -73.8340166, 45.7748495 ], [ -73.8021455, 45.7615283 ], [ -73.7697189, 45.7741751 ] ] ] } },
{ "type": "Feature", "properties": { "hex_id": 2511, "count": 31, "date": "2025-11-15", "n_files": 59, "pct": 52.54 }, "geometry": { "type": "Polygon", "coordinates": [ [ [ -73.7402007, 45.656929 ], [ -73.7396177, 45.682906 ], [ -73.7714292, 45.6962442 ], [ -73.8038101, 45.6835962 ], [ -73.8043634, 45.6576186 ], [ -73.7725656, 45.6442896 ], [ -73.7402007, 45.656929 ] ] ] } },
{ "type": "Feature", "properties": { "hex_id": 2513, "count": 5, "date": "2025-11-15", "n_files": 59, "pct": 8.47 }, "geometry": { "type": "Polygon", "coordinates": [ [ [ -73.7366907, 45.812789 ], [ -73.7361029, 45.8387652 ], [ -73.7680015, 45.852105 ], [ -73.8004742, 45.8394592 ], [ -73.8010321, 45.8134823 ], [ -73.7691472, 45.8001519 ], [ -73.7366907, 45.812789 ] ] ] } },
{ "type": "Feature", "properties": { "hex_id": 2576, "count": 5, "date": "2025-11-15", "n_files": 59, "pct": 8.47 }, "geometry": { "type": "Polygon", "coordinates": [ [ [ -73.7054235, 45.7734646 ], [ -73.704822, 45.7994407 ], [ -73.7366907, 45.812789 ], [ -73.7691472, 45.8001519 ], [ -73.7697189, 45.7741751 ], [ -73.7378639, 45.7608362 ], [ -73.7054235, 45.7734646 ] ] ] } },
{ "type": "Feature", "properties": { "hex_id": 2640, "count": 5, "date": "2025-11-15", "n_files": 59, "pct": 8.47 }, "geometry": { "type": "Polygon", "coordinates": [ [ [ -73.6741999, 45.734132 ], [ -73.6735847, 45.7601079 ], [ -73.7054235, 45.7734646 ], [ -73.7378639, 45.7608362 ], [ -73.7384493, 45.7348596 ], [ -73.7066241, 45.7215121 ], [ -73.6741999, 45.734132 ] ] ] } },
{ "type": "Feature", "properties": { "hex_id": 2700, "count": 4, "date": "2025-11-15", "n_files": 59, "pct": 6.78 }, "geometry": { "type": "Polygon", "coordinates": [ [ [ -73.6486402, 45.4610032 ], [ -73.6480191, 45.4869801 ], [ -73.6796989, 45.5003429 ], [ -73.7119863, 45.4877195 ], [ -73.7125781, 45.4617419 ], [ -73.6809117, 45.4483883 ], [ -73.6486402, 45.4610032 ] ] ] } },
{ "type": "Feature", "properties": { "hex_id": 2829, "count": 5, "date": "2025-11-15", "n_files": 59, "pct": 8.47 }, "geometry": { "type": "Polygon", "coordinates": [ [ [ -73.5827509, 45.5381571 ], [ -73.5820977, 45.5641329 ], [ -73.6138044, 45.5775141 ], [ -73.6461507, 45.5649101 ], [ -73.6467744, 45.5389336 ], [ -73.6150812, 45.5255617 ], [ -73.5827509, 45.5381571 ] ] ] } },
{ "type": "Feature", "properties": { "hex_id": 2830, "count": 1, "date": "2025-11-15", "n_files": 59, "pct": 1.69 }, "geometry": { "type": "Polygon", "coordinates": [ [ [ -73.5807888, 45.6160842 ], [ -73.580133, 45.6420597 ], [ -73.6118826, 45.6554417 ], [ -73.6442746, 45.642839 ], [ -73.6449009, 45.6168628 ], [ -73.6131647, 45.6034901 ], [ -73.5807888, 45.6160842 ] ] ] } },
{ "type": "Feature", "properties": { "hex_id": 2895, "count": 5, "date": "2025-11-15", "n_files": 59, "pct": 8.47 }, "geometry": { "type": "Polygon", "coordinates": [ [ [ -73.5477275, 45.654644 ], [ -73.5470555, 45.6806189 ], [ -73.5788186, 45.6940102 ], [ -73.6112403, 45.6814173 ], [ -73.6118826, 45.6554417 ], [ -73.580133, 45.6420597 ], [ -73.5477275, 45.654644 ] ] ] } },
{ "type": "Feature", "properties": { "hex_id": 2958, "count": 5, "date": "2025-11-15", "n_files": 59, "pct": 8.47 }, "geometry": { "type": "Polygon", "coordinates": [ [ [ -73.5166794, 45.6152696 ], [ -73.515994, 45.6412444 ], [ -73.5477275, 45.654644 ], [ -73.580133, 45.6420597 ], [ -73.5807888, 45.6160842 ], [ -73.5490687, 45.6026938 ], [ -73.5166794, 45.6152696 ] ] ] } },
{ "type": "Feature", "properties": { "hex_id": 3023, "count": 1, "date": "2025-11-15", "n_files": 59, "pct": 1.69 }, "geometry": { "type": "Polygon", "coordinates": [ [ [ -73.4835751, 45.6538103 ], [ -73.4828734, 45.6797845 ], [ -73.5146203, 45.6931934 ], [ -73.5470555, 45.6806189 ], [ -73.5477275, 45.654644 ], [ -73.515994, 45.6412444 ], [ -73.4835751, 45.6538103 ] ] ] } },
{ "type": "Feature", "properties": { "hex_id": 3024, "count": 12, "date": "2025-11-15", "n_files": 59, "pct": 20.34 }, "geometry": { "type": "Polygon", "coordinates": [ [ [ -73.4814672, 45.7317324 ], [ -73.4807627, 45.7577062 ], [ -73.5125528, 45.7711161 ], [ -73.545034, 45.7585429 ], [ -73.5457087, 45.7325684 ], [ -73.5139321, 45.7191678 ], [ -73.4814672, 45.7317324 ] ] ] } },
{ "type": "Feature", "properties": { "hex_id": 4751, "count": 4, "date": "2025-11-15", "n_files": 59, "pct": 6.78 }, "geometry": { "type": "Polygon", "coordinates": [ [ [ -72.6161961, 45.6779741 ], [ -72.6150923, 45.7039348 ], [ -72.6466354, 45.717581 ], [ -72.6792697, 45.7052572 ], [ -72.6803438, 45.6792953 ], [ -72.6488133, 45.6656586 ], [ -72.6161961, 45.6779741 ] ] ] } },
{ "type": "Feature", "properties": { "hex_id": 5080, "count": 48, "date": "2025-11-15", "n_files": 59, "pct": 81.36 }, "geometry": { "type": "Polygon", "coordinates": [ [ [ -72.425303, 46.336386 ], [ -72.4240832, 46.3623399 ], [ -72.4559472, 46.3760443 ], [ -72.489018, 46.3637851 ], [ -72.4902071, 46.337829899999988 ], [ -72.458356, 46.3241352 ], [ -72.425303, 46.336386 ] ] ] } },
{ "type": "Feature", "properties": { "hex_id": 5143, "count": 48, "date": "2025-11-15", "n_files": 59, "pct": 81.36 }, "geometry": { "type": "Polygon", "coordinates": [ [ [ -72.3947022, 46.2967201 ], [ -72.3934697, 46.322673599999987 ], [ -72.425303, 46.336386 ], [ -72.458356, 46.3241352 ], [ -72.4595579, 46.2981805 ], [ -72.4277374, 46.2844778 ], [ -72.3947022, 46.2967201 ] ] ] } },
{ "type": "Feature", "properties": { "hex_id": 5722, "count": 2, "date": "2025-11-15", "n_files": 59, "pct": 3.39 }, "geometry": { "type": "Polygon", "coordinates": [ [ [ -72.092594, 46.4842935 ], [ -72.0912096, 46.5102395 ], [ -72.1230702, 46.5240365 ], [ -72.156302600000018, 46.5118777 ], [ -72.1576561, 46.4859302 ], [ -72.1258081, 46.4721431 ], [ -72.092594, 46.4842935 ] ] ] } },
{ "type": "Feature", "properties": { "hex_id": 5786, "count": 2, "date": "2025-11-15", "n_files": 59, "pct": 3.39 }, "geometry": { "type": "Polygon", "coordinates": [ [ [ -72.0579647, 46.5223791 ], [ -72.056562, 46.5483241 ], [ -72.0884351, 46.562131 ], [ -72.1216984, 46.549983 ], [ -72.1230702, 46.5240365 ], [ -72.0912096, 46.5102395 ], [ -72.0579647, 46.5223791 ] ] ] } },
{ "type": "Feature", "properties": { "hex_id": 5850, "count": 2, "date": "2025-11-15", "n_files": 59, "pct": 3.39 }, "geometry": { "type": "Polygon", "coordinates": [ [ [ -72.0275377, 46.4826199 ], [ -72.0261224, 46.5085644 ], [ -72.0579647, 46.5223791 ], [ -72.0912096, 46.5102395 ], [ -72.092594, 46.4842935 ], [ -72.0607643, 46.4704887 ], [ -72.0275377, 46.4826199 ] ] ] } },
{ "type": "Feature", "properties": { "hex_id": 5851, "count": 2, "date": "2025-11-15", "n_files": 59, "pct": 3.39 }, "geometry": { "type": "Polygon", "coordinates": [ [ [ -72.0232861, 46.5604529 ], [ -72.0218649, 46.5863969 ], [ -72.0537507, 46.6002137 ], [ -72.087045, 46.5880766 ], [ -72.0884351, 46.562131 ], [ -72.056562, 46.5483241 ], [ -72.0232861, 46.5604529 ] ] ] } },
{ "type": "Feature", "properties": { "hex_id": 5914, "count": 2, "date": "2025-11-15", "n_files": 59, "pct": 3.39 }, "geometry": { "type": "Polygon", "coordinates": [ [ [ -71.992864900000015, 46.5206847 ], [ -71.9914313, 46.5466282 ], [ -72.0232861, 46.5604529 ], [ -72.056562, 46.5483241 ], [ -72.0579647, 46.5223791 ], [ -72.0261224, 46.5085644 ], [ -71.992864900000015, 46.5206847 ] ] ] } },
{ "type": "Feature", "properties": { "hex_id": 5978, "count": 2, "date": "2025-11-15", "n_files": 59, "pct": 3.39 }, "geometry": { "type": "Polygon", "coordinates": [ [ [ -71.9624872, 46.4809093 ], [ -71.9610411, 46.5068523 ], [ -71.992864900000015, 46.5206847 ], [ -72.0261224, 46.5085644 ], [ -72.0275377, 46.4826199 ], [ -71.9957263, 46.4687973 ], [ -71.9624872, 46.4809093 ] ] ] } },
{ "type": "Feature", "properties": { "hex_id": 5979, "count": 2, "date": "2025-11-15", "n_files": 59, "pct": 3.39 }, "geometry": { "type": "Polygon", "coordinates": [ [ [ -71.9581429, 46.5587377 ], [ -71.9566908, 46.5846801 ], [ -71.9885581, 46.598514699999988 ], [ -72.0218649, 46.5863969 ], [ -72.0232861, 46.5604529 ], [ -71.9914313, 46.5466282 ], [ -71.9581429, 46.5587377 ] ] ] } },
{ "type": "Feature", "properties": { "hex_id": 6042, "count": 2, "date": "2025-11-15", "n_files": 59, "pct": 3.39 }, "geometry": { "type": "Polygon", "coordinates": [ [ [ -71.9277711, 46.5189533 ], [ -71.9263066, 46.5448953 ], [ -71.9581429, 46.5587377 ], [ -71.9914313, 46.5466282 ], [ -71.992864900000015, 46.5206847 ], [ -71.9610411, 46.5068523 ], [ -71.9277711, 46.5189533 ] ] ] } },
{ "type": "Feature", "properties": { "hex_id": 6043, "count": 2, "date": "2025-11-15", "n_files": 59, "pct": 3.39 }, "geometry": { "type": "Polygon", "coordinates": [ [ [ -71.9233714, 46.5967786 ], [ -71.9219007, 46.6227201 ], [ -71.9537805, 46.6365646 ], [ -71.9871185, 46.6244577 ], [ -71.9885581, 46.598514699999988 ], [ -71.9566908, 46.5846801 ], [ -71.9233714, 46.5967786 ] ] ] } },
{ "type": "Feature", "properties": { "hex_id": 6107, "count": 2, "date": "2025-11-15", "n_files": 59, "pct": 3.39 }, "geometry": { "type": "Polygon", "coordinates": [ [ [ -71.8930057, 46.5569854 ], [ -71.8915226, 46.5829263 ], [ -71.9233714, 46.5967786 ], [ -71.9566908, 46.5846801 ], [ -71.9581429, 46.5587377 ], [ -71.9263066, 46.5448953 ], [ -71.8930057, 46.5569854 ] ] ] } },
{ "type": "Feature", "properties": { "hex_id": 6108, "count": 2, "date": "2025-11-15", "n_files": 59, "pct": 3.39 }, "geometry": { "type": "Polygon", "coordinates": [ [ [ -71.8885503, 46.6348076 ], [ -71.8870611, 46.660748 ], [ -71.918953300000013, 46.6746025 ], [ -71.9523224, 46.6625066 ], [ -71.9537805, 46.6365646 ], [ -71.9219007, 46.6227201 ], [ -71.8885503, 46.6348076 ] ] ] } },
{ "type": "Feature", "properties": { "hex_id": 6167, "count": 2, "date": "2025-11-15", "n_files": 59, "pct": 3.39 }, "geometry": { "type": "Polygon", "coordinates": [ [ [ -71.8760501, 46.2837151 ], [ -71.8745731, 46.3096568 ], [ -71.9062617, 46.323510399999989 ], [ -71.9394151, 46.3114125 ], [ -71.9408616, 46.2854692 ], [ -71.9091852, 46.2716254 ], [ -71.8760501, 46.2837151 ] ] ] } },
{ "type": "Feature", "properties": { "hex_id": 6170, "count": 2, "date": "2025-11-15", "n_files": 59, "pct": 3.39 }, "geometry": { "type": "Polygon", "coordinates": [ [ [ -71.8626834, 46.5171849 ], [ -71.8611879, 46.5431253 ], [ -71.8930057, 46.5569854 ], [ -71.9263066, 46.5448953 ], [ -71.9277711, 46.5189533 ], [ -71.8959658, 46.5051031 ], [ -71.8626834, 46.5171849 ] ] ] } },
{ "type": "Feature", "properties": { "hex_id": 6171, "count": 2, "date": "2025-11-15", "n_files": 59, "pct": 3.39 }, "geometry": { "type": "Polygon", "coordinates": [ [ [ -71.8581908, 46.5950055 ], [ -71.8566891, 46.6209453 ], [ -71.8885503, 46.6348076 ], [ -71.9219007, 46.6227201 ], [ -71.9233714, 46.5967786 ], [ -71.8915226, 46.5829263 ], [ -71.8581908, 46.5950055 ] ] ] } },
{ "type": "Feature", "properties": { "hex_id": 6197, "count": 4, "date": "2025-11-15", "n_files": 59, "pct": 6.78 }, "geometry": { "type": "Polygon", "coordinates": [ [ [ -71.7345331, 48.6178426 ], [ -71.7328578, 48.6437701 ], [ -71.7659121, 48.6576914 ], [ -71.8006279, 48.6456744 ], [ -71.8022685, 48.6197452 ], [ -71.769228, 48.605834599999987 ], [ -71.7345331, 48.6178426 ] ] ] } },
{ "type": "Feature", "properties": { "hex_id": 6230, "count": 10, "date": "2025-11-15", "n_files": 59, "pct": 16.95 }, "geometry": { "type": "Polygon", "coordinates": [ [ [ -71.8503365, 46.1660882 ], [ -71.8488535, 46.1920298 ], [ -71.880469, 46.205889 ], [ -71.9135554, 46.1937967 ], [ -71.9150082, 46.1678535 ], [ -71.8834048, 46.1540042 ], [ -71.8503365, 46.1660882 ] ] ] } },
{ "type": "Feature", "properties": { "hex_id": 6235, "count": 2, "date": "2025-11-15", "n_files": 59, "pct": 3.39 }, "geometry": { "type": "Polygon", "coordinates": [ [ [ -71.8278747, 46.5551961 ], [ -71.8263607, 46.5811354 ], [ -71.8581908, 46.5950055 ], [ -71.8915226, 46.5829263 ], [ -71.8930057, 46.5569854 ], [ -71.8611879, 46.5431253 ], [ -71.8278747, 46.5551961 ] ] ] } },
{ "type": "Feature", "properties": { "hex_id": 6236, "count": 2, "date": "2025-11-15", "n_files": 59, "pct": 3.39 }, "geometry": { "type": "Polygon", "coordinates": [ [ [ -71.8233263, 46.6330135 ], [ -71.8218059, 46.6589523 ], [ -71.8536795, 46.6728246 ], [ -71.8870611, 46.660748 ], [ -71.8885503, 46.6348076 ], [ -71.8566891, 46.6209453 ], [ -71.8233263, 46.6330135 ] ] ] } },
{ "type": "Feature", "properties": { "hex_id": 6261, "count": 4, "date": "2025-11-15", "n_files": 59, "pct": 6.78 }, "geometry": { "type": "Polygon", "coordinates": [ [ [ -71.7032024, 48.5779861 ], [ -71.7015134, 48.603913 ], [ -71.7345331, 48.6178426 ], [ -71.769228, 48.605834599999987 ], [ -71.7708824, 48.5799059 ], [ -71.7378765, 48.565987 ], [ -71.7032024, 48.5779861 ] ] ] } },
{ "type": "Feature", "properties": { "hex_id": 6298, "count": 2, "date": "2025-11-15", "n_files": 59, "pct": 3.39 }, "geometry": { "type": "Polygon", "coordinates": [ [ [ -71.7976019, 46.5153796 ], [ -71.7960755, 46.5413183 ], [ -71.8278747, 46.5551961 ], [ -71.8611879, 46.5431253 ], [ -71.8626834, 46.5171849 ], [ -71.8308965, 46.5033171 ], [ -71.7976019, 46.5153796 ] ] ] } },
{ "type": "Feature", "properties": { "hex_id": 6299, "count": 2, "date": "2025-11-15", "n_files": 59, "pct": 3.39 }, "geometry": { "type": "Polygon", "coordinates": [ [ [ -71.7930165, 46.5931952 ], [ -71.7914838, 46.6191334 ], [ -71.8233263, 46.6330135 ], [ -71.8566891, 46.6209453 ], [ -71.8581908, 46.5950055 ], [ -71.8263607, 46.5811354 ], [ -71.7930165, 46.5931952 ] ] ] } },
{ "type": "Feature", "properties": { "hex_id": 6358, "count": 10, "date": "2025-11-15", "n_files": 59, "pct": 16.95 }, "geometry": { "type": "Polygon", "coordinates": [ [ [ -71.785671, 46.164286399999988 ], [ -71.7841576, 46.1902264 ], [ -71.815754900000016, 46.204103 ], [ -71.8488535, 46.1920298 ], [ -71.8503365, 46.1660882 ], [ -71.8187513, 46.152221399999988 ], [ -71.785671, 46.164286399999988 ] ] ] } },
{ "type": "Feature", "properties": { "hex_id": 6363, "count": 2, "date": "2025-11-15", "n_files": 59, "pct": 3.39 }, "geometry": { "type": "Polygon", "coordinates": [ [ [ -71.76275, 46.5533698 ], [ -71.761205, 46.5793074 ], [ -71.7930165, 46.5931952 ], [ -71.8263607, 46.5811354 ], [ -71.8278747, 46.5551961 ], [ -71.7960755, 46.5413183 ], [ -71.76275, 46.5533698 ] ] ] } },
{ "type": "Feature", "properties": { "hex_id": 6364, "count": 2, "date": "2025-11-15", "n_files": 59, "pct": 3.39 }, "geometry": { "type": "Polygon", "coordinates": [ [ [ -71.7581086, 46.6311822 ], [ -71.7565571, 46.6571194 ], [ -71.788412, 46.671009399999988 ], [ -71.8218059, 46.6589523 ], [ -71.8233263, 46.6330135 ], [ -71.7914838, 46.6191334 ], [ -71.7581086, 46.6311822 ] ] ] } },
{ "type": "Feature", "properties": { "hex_id": 6422, "count": 10, "date": "2025-11-15", "n_files": 59, "pct": 16.95 }, "geometry": { "type": "Polygon", "coordinates": [ [ [ -71.751047, 46.2022805 ], [ -71.7495153, 46.2282194 ], [ -71.7811246, 46.2421059 ], [ -71.8142536, 46.2300436 ], [ -71.815754900000016, 46.204103 ], [ -71.7841576, 46.1902264 ], [ -71.751047, 46.2022805 ] ] ] } },
{ "type": "Feature", "properties": { "hex_id": 6794, "count": 3, "date": "2025-11-15", "n_files": 59, "pct": 5.08 }, "geometry": { "type": "Polygon", "coordinates": [ [ [ -71.6139252, 45.2628689 ], [ -71.6123804, 45.2888085 ], [ -71.6434397, 45.3027192 ], [ -71.6760325, 45.2906808 ], [ -71.677548500000015, 45.2647395 ], [ -71.6465005, 45.2508383 ], [ -71.6139252, 45.2628689 ] ] ] } },
{ "type": "Feature", "properties": { "hex_id": 6859, "count": 3, "date": "2025-11-15", "n_files": 59, "pct": 5.08 }, "geometry": { "type": "Polygon", "coordinates": [ [ [ -71.5797763, 45.3008283 ], [ -71.5782138, 45.3267669 ], [ -71.6092844, 45.3406872 ], [ -71.6419062, 45.3286594 ], [ -71.6434397, 45.3027192 ], [ -71.6123804, 45.2888085 ], [ -71.5797763, 45.3008283 ] ] ] } },
{ "type": "Feature", "properties": { "hex_id": 6922, "count": 3, "date": "2025-11-15", "n_files": 59, "pct": 5.08 }, "geometry": { "type": "Polygon", "coordinates": [ [ [ -71.550308300000012, 45.260962899999988 ], [ -71.5487346, 45.2869007 ], [ -71.5797763, 45.3008283 ], [ -71.6123804, 45.2888085 ], [ -71.6139252, 45.2628689 ], [ -71.5828948, 45.2489508 ], [ -71.550308300000012, 45.260962899999988 ] ] ] } },
{ "type": "Feature", "properties": { "hex_id": 6923, "count": 3, "date": "2025-11-15", "n_files": 59, "pct": 5.08 }, "geometry": { "type": "Polygon", "coordinates": [ [ [ -71.5455807, 45.338776 ], [ -71.5440006, 45.3647134 ], [ -71.5750825, 45.3786434 ], [ -71.6077333, 45.3666263 ], [ -71.6092844, 45.3406872 ], [ -71.5782138, 45.3267669 ], [ -71.5455807, 45.338776 ] ] ] } },
{ "type": "Feature", "properties": { "hex_id": 6987, "count": 3, "date": "2025-11-15", "n_files": 59, "pct": 5.08 }, "geometry": { "type": "Polygon", "coordinates": [ [ [ -71.5161192, 45.2989021 ], [ -71.5145278, 45.3248388 ], [ -71.5455807, 45.338776 ], [ -71.5782138, 45.3267669 ], [ -71.5797763, 45.3008283 ], [ -71.5487346, 45.2869007 ], [ -71.5161192, 45.2989021 ] ] ] } },
{ "type": "Feature", "properties": { "hex_id": 7050, "count": 3, "date": "2025-11-15", "n_files": 59, "pct": 5.08 }, "geometry": { "type": "Polygon", "coordinates": [ [ [ -71.4866978, 45.2590215 ], [ -71.4850952, 45.2849576 ], [ -71.5161192, 45.2989021 ], [ -71.5487346, 45.2869007 ], [ -71.550308300000012, 45.260962899999988 ], [ -71.5192955, 45.247028 ], [ -71.4866978, 45.2590215 ] ] ] } },
{ "type": "Feature", "properties": { "hex_id": 7051, "count": 3, "date": "2025-11-15", "n_files": 59, "pct": 5.08 }, "geometry": { "type": "Polygon", "coordinates": [ [ [ -71.4818835, 45.3368294 ], [ -71.4802743, 45.3627651 ], [ -71.5113385, 45.3767119 ], [ -71.5440006, 45.3647134 ], [ -71.5455807, 45.338776 ], [ -71.5145278, 45.3248388 ], [ -71.4818835, 45.3368294 ] ] ] } },
{ "type": "Feature", "properties": { "hex_id": 7115, "count": 3, "date": "2025-11-15", "n_files": 59, "pct": 5.08 }, "geometry": { "type": "Polygon", "coordinates": [ [ [ -71.4524686, 45.2969404 ], [ -71.4508483, 45.3228754 ], [ -71.4818835, 45.3368294 ], [ -71.5145278, 45.3248388 ], [ -71.5161192, 45.2989021 ], [ -71.4850952, 45.2849576 ], [ -71.4524686, 45.2969404 ] ] ] } },
{ "type": "Feature", "properties": { "hex_id": 7178, "count": 3, "date": "2025-11-15", "n_files": 59, "pct": 5.08 }, "geometry": { "type": "Polygon", "coordinates": [ [ [ -71.4230938, 45.2570447 ], [ -71.4214623, 45.2829791 ], [ -71.4524686, 45.2969404 ], [ -71.4850952, 45.2849576 ], [ -71.4866978, 45.2590215 ], [ -71.4557026, 45.2450698 ], [ -71.4230938, 45.2570447 ] ] ] } },
{ "type": "Feature", "properties": { "hex_id": 7179, "count": 3, "date": "2025-11-15", "n_files": 59, "pct": 5.08 }, "geometry": { "type": "Polygon", "coordinates": [ [ [ -71.4181928, 45.3348473 ], [ -71.4165546, 45.3607812 ], [ -71.447601, 45.3747449 ], [ -71.4802743, 45.3627651 ], [ -71.4818835, 45.3368294 ], [ -71.4508483, 45.3228754 ], [ -71.4181928, 45.3348473 ] ] ] } },
{ "type": "Feature", "properties": { "hex_id": 7243, "count": 3, "date": "2025-11-15", "n_files": 59, "pct": 5.08 }, "geometry": { "type": "Polygon", "coordinates": [ [ [ -71.3888246, 45.2949432 ], [ -71.3871754, 45.3208765 ], [ -71.4181928, 45.3348473 ], [ -71.4508483, 45.3228754 ], [ -71.4524686, 45.2969404 ], [ -71.4214623, 45.2829791 ], [ -71.3888246, 45.2949432 ] ] ] } },
{ "type": "Feature", "properties": { "hex_id": 7307, "count": 3, "date": "2025-11-15", "n_files": 59, "pct": 5.08 }, "geometry": { "type": "Polygon", "coordinates": [ [ [ -71.3545087, 45.3328298 ], [ -71.3528417, 45.3587619 ], [ -71.3838702, 45.3727424 ], [ -71.4165546, 45.3607812 ], [ -71.4181928, 45.3348473 ], [ -71.3871754, 45.3208765 ], [ -71.3545087, 45.3328298 ] ] ] } },
{ "type": "Feature", "properties": { "hex_id": 7371, "count": 3, "date": "2025-11-15", "n_files": 59, "pct": 5.08 }, "geometry": { "type": "Polygon", "coordinates": [ [ [ -71.3251873, 45.2929108 ], [ -71.3235092, 45.3188421 ], [ -71.3545087, 45.3328298 ], [ -71.3871754, 45.3208765 ], [ -71.3888246, 45.2949432 ], [ -71.3578361, 45.2809652 ], [ -71.3251873, 45.2929108 ] ] ] } },
{ "type": "Feature", "properties": { "hex_id": 7476, "count": 3, "date": "2025-11-15", "n_files": 59, "pct": 5.08 }, "geometry": { "type": "Polygon", "coordinates": [ [ [ -71.0636404, 48.5189047 ], [ -71.0616285, 48.5448135 ], [ -71.0944233, 48.5589212 ], [ -71.1292171, 48.5471092 ], [ -71.1311947, 48.5211983 ], [ -71.0984128, 48.5071014 ], [ -71.0636404, 48.5189047 ] ] ] } },
{ "type": "Feature", "properties": { "hex_id": 7499, "count": 3, "date": "2025-11-15", "n_files": 59, "pct": 5.08 }, "geometry": { "type": "Polygon", "coordinates": [ [ [ -71.2615569, 45.2908429 ], [ -71.2598499, 45.3167724 ], [ -71.2908315, 45.3307769 ], [ -71.3235092, 45.3188421 ], [ -71.3251873, 45.2929108 ], [ -71.2942167, 45.2789159 ], [ -71.2615569, 45.2908429 ] ] ] } },
{ "type": "Feature", "properties": { "hex_id": 7540, "count": 3, "date": "2025-11-15", "n_files": 59, "pct": 5.08 }, "geometry": { "type": "Polygon", "coordinates": [ [ [ -71.0329047, 48.478881 ], [ -71.03088, 48.5047891 ], [ -71.0636404, 48.5189047 ], [ -71.0984128, 48.5071014 ], [ -71.1004034, 48.4811913 ], [ -71.067655800000011, 48.4670864 ], [ -71.0329047, 48.478881 ] ] ] } },
{ "type": "Feature", "properties": { "hex_id": 7713, "count": 13, "date": "2025-11-15", "n_files": 59, "pct": 22.03 }, "geometry": { "type": "Polygon", "coordinates": [ [ [ -71.0424291, 47.0373364 ], [ -71.0405086, 47.0632513 ], [ -71.07240010000001, 47.0773418 ], [ -71.1062003, 47.0655071 ], [ -71.1080891, 47.0395901 ], [ -71.0762094, 47.02551 ], [ -71.0424291, 47.0373364 ] ] ] } },
{ "type": "Feature", "properties": { "hex_id": 7777, "count": 13, "date": "2025-11-15", "n_files": 59, "pct": 22.03 }, "geometry": { "type": "Polygon", "coordinates": [ [ [ -71.0125014, 46.9973243 ], [ -71.0105692, 47.0232385 ], [ -71.0424291, 47.0373364 ], [ -71.0762094, 47.02551 ], [ -71.0781101, 46.9995938 ], [ -71.046262, 46.9855061 ], [ -71.0125014, 46.9973243 ] ] ] } },
{ "type": "Feature", "properties": { "hex_id": 7778, "count": 13, "date": "2025-11-15", "n_files": 59, "pct": 22.03 }, "geometry": { "type": "Polygon", "coordinates": [ [ [ -71.0066966, 47.075066199999988 ], [ -71.0047562, 47.1009798 ], [ -71.0366596, 47.1150806 ], [ -71.0704915, 47.1032575 ], [ -71.07240010000001, 47.0773418 ], [ -71.0405086, 47.0632513 ], [ -71.0066966, 47.075066199999988 ] ] ] } },
{ "type": "Feature", "properties": { "hex_id": 7840, "count": 13, "date": "2025-11-15", "n_files": 59, "pct": 22.03 }, "geometry": { "type": "Polygon", "coordinates": [ [ [ -70.9826172, 46.9573056 ], [ -70.9806732, 46.9832189 ], [ -71.0125014, 46.9973243 ], [ -71.046262, 46.9855061 ], [ -71.0481745, 46.9595907 ], [ -71.0163579, 46.9454955 ], [ -70.9826172, 46.9573056 ] ] ] } },
{ "type": "Feature", "properties": { "hex_id": 7841, "count": 13, "date": "2025-11-15", "n_files": 59, "pct": 22.03 }, "geometry": { "type": "Polygon", "coordinates": [ [ [ -70.976777, 47.0350452 ], [ -70.9748249, 47.060958 ], [ -71.0066966, 47.075066199999988 ], [ -71.0405086, 47.0632513 ], [ -71.0424291, 47.0373364 ], [ -71.0105692, 47.0232385 ], [ -70.976777, 47.0350452 ] ] ] } }
]
}
