{
"type": "FeatureCollection",
"name": "daily_2026-04-14",
"crs": { "type": "name", "properties": { "name": "urn:ogc:def:crs:OGC:1.3:CRS84" } },
"features": [
{ "type": "Feature", "properties": { "hex_id": 586737, "centroid_lon": -73.439634787218154, "centroid_lat": 45.497035355958289, "occurrences_today": 1, "datetimes_today": "2026-04-14 00:16:39", "cumulative_total": 76.0 }, "geometry": { "type": "Polygon", "coordinates": [ [ [ -73.439778279135226, 45.491840472750113 ], [ -73.446103398682595, 45.494525133361861 ], [ -73.445960474964494, 45.499720029733957 ], [ -73.439491256121215, 45.502230234067483 ], [ -73.433165607561293, 45.499545203410555 ], [ -73.433309706844071, 45.494350338529706 ], [ -73.439778279135226, 45.491840472750113 ] ] ] } },
{ "type": "Feature", "properties": { "hex_id": 736310, "centroid_lon": -71.873080734943471, "centroid_lat": 45.472669750348906, "occurrences_today": 1, "datetimes_today": "2026-04-14 00:16:39", "cumulative_total": 16.0 }, "geometry": { "type": "Polygon", "coordinates": [ [ [ -71.873367937297004, 45.467480664082707 ], [ -71.879611302248421, 45.470250033772103 ], [ -71.87932464515724, 45.475439148422979 ], [ -71.872793454281322, 45.477858830461713 ], [ -71.866549622389257, 45.475089077262567 ], [ -71.866837448287555, 45.469900025598285 ], [ -71.873367937297004, 45.467480664082707 ] ] ] } },
{ "type": "Feature", "properties": { "hex_id": 568418, "centroid_lon": -73.63306967772111, "centroid_lat": 45.437152090639373, "occurrences_today": 1, "datetimes_today": "2026-04-14 00:16:39", "cumulative_total": 42.0 }, "geometry": { "type": "Polygon", "coordinates": [ [ [ -73.633195122793779, 45.431956703907211 ], [ -73.639523046355933, 45.434630706446804 ], [ -73.639398170312177, 45.439826104419105 ], [ -73.632944198417832, 45.442347472354356 ], [ -73.626615740063116, 45.43967310232437 ], [ -73.626741788383825, 45.434477731913866 ], [ -73.633195122793779, 45.431956703907211 ] ] ] } },
{ "type": "Feature", "properties": { "hex_id": 569028, "centroid_lon": -73.626867802319879, "centroid_lat": 45.429282356483697, "occurrences_today": 1, "datetimes_today": "2026-04-14 00:16:39", "cumulative_total": 73.0 }, "geometry": { "type": "Polygon", "coordinates": [ [ [ -73.626993781882803, 45.424086976033955 ], [ -73.633320533647279, 45.426761312157936 ], [ -73.633195122793779, 45.431956703907211 ], [ -73.626741788383825, 45.434477731913866 ], [ -73.620414502288838, 45.431803028341051 ], [ -73.620541084922792, 45.426607664274734 ], [ -73.626993781882803, 45.424086976033955 ] ] ] } },
{ "type": "Feature", "properties": { "hex_id": 569639, "centroid_lon": -73.620287885116241, "centroid_lat": 45.436998387385216, "occurrences_today": 1, "datetimes_today": "2026-04-14 00:16:39", "cumulative_total": 106.0 }, "geometry": { "type": "Polygon", "coordinates": [ [ [ -73.620414502288838, 45.431803028341051 ], [ -73.626741788383825, 45.434477731913866 ], [ -73.626615740063116, 45.43967310232437 ], [ -73.620161233393461, 45.442193741407166 ], [ -73.613833413002567, 45.439518670226605 ], [ -73.613960633565682, 45.434323327635333 ], [ -73.620414502288838, 45.431803028341051 ] ] ] } },
{ "type": "Feature", "properties": { "hex_id": 586126, "centroid_lon": -73.44624628338768, "centroid_lat": 45.489330231893703, "occurrences_today": 1, "datetimes_today": "2026-04-14 00:16:39", "cumulative_total": 78.0 }, "geometry": { "type": "Polygon", "coordinates": [ [ [ -73.446389129092836, 45.484135325329618 ], [ -73.452713719588317, 45.486819616055037 ], [ -73.452571441941515, 45.492014535715811 ], [ -73.446103398682595, 45.494525133361861 ], [ -73.439778279135226, 45.491840472750113 ], [ -73.439921731885576, 45.486645584443075 ], [ -73.446389129092836, 45.484135325329618 ] ] ] } },
{ "type": "Feature", "properties": { "hex_id": 804155, "centroid_lon": -71.077740136651755, "centroid_lat": 46.687519533869747, "occurrences_today": 1, "datetimes_today": "2026-04-14 00:16:39", "cumulative_total": 38.0 }, "geometry": { "type": "Polygon", "coordinates": [ [ [ -71.078115873703098, 46.682335994272229 ], [ -71.084451118836753, 46.685151513520296 ], [ -71.084075950919654, 46.690335089882943 ], [ -71.077364295653609, 46.692703066422183 ], [ -71.071028585350447, 46.689887141059678 ], [ -71.071404995446969, 46.684703645338665 ], [ -71.078115873703098, 46.682335994272229 ] ] ] } },
{ "type": "Feature", "properties": { "hex_id": 585516, "centroid_lon": -73.452429125448489, "centroid_lat": 45.497209450283449, "occurrences_today": 1, "datetimes_today": "2026-04-14 00:16:39", "cumulative_total": 66.0 }, "geometry": { "type": "Polygon", "coordinates": [ [ [ -73.452571441941515, 45.492014535715811 ], [ -73.458897207560142, 45.494698495810518 ], [ -73.458755459445996, 45.499893423415983 ], [ -73.452286770096251, 45.502404359757804 ], [ -73.445960474964494, 45.499720029733957 ], [ -73.446103398682595, 45.494525133361861 ], [ -73.452571441941515, 45.492014535715811 ] ] ] } },
{ "type": "Feature", "properties": { "hex_id": 729003, "centroid_lon": -71.933633693328773, "centroid_lat": 45.770533428562842, "occurrences_today": 1, "datetimes_today": "2026-04-14 00:16:39", "cumulative_total": 112.0 }, "geometry": { "type": "Polygon", "coordinates": [ [ [ -71.933918278579512, 45.76534431664475 ], [ -71.940197227266609, 45.768111177782764 ], [ -71.939913196862534, 45.773300317659533 ], [ -71.93334903019695, 45.775722534368548 ], [ -71.927069604557403, 45.77295528636634 ], [ -71.927354822509614, 45.767766208583851 ], [ -71.933918278579512, 45.76534431664475 ] ] ] } },
{ "type": "Feature", "properties": { "hex_id": 674016, "centroid_lon": -72.54041494692116, "centroid_lat": 45.130406349371029, "occurrences_today": 1, "datetimes_today": "2026-04-14 00:16:39", "cumulative_total": 65.0 }, "geometry": { "type": "Polygon", "coordinates": [ [ [ -72.540638219286336, 45.12521399661351 ], [ -72.546878844257634, 45.127946875357672 ], [ -72.546656116888911, 45.133139249923772 ], [ -72.540191613889675, 45.135598696519835 ], [ -72.533950504598295, 45.1328654443207 ], [ -72.53417438260611, 45.127673119043841 ], [ -72.540638219286336, 45.12521399661351 ] ] ] } },
{ "type": "Feature", "properties": { "hex_id": 674627, "centroid_lon": -72.533726565758172, "centroid_lat": 45.138057763984236, "occurrences_today": 1, "datetimes_today": "2026-04-14 00:16:39", "cumulative_total": 65.0 }, "geometry": { "type": "Polygon", "coordinates": [ [ [ -72.533950504598295, 45.1328654443207 ], [ -72.540191613889675, 45.135598696519835 ], [ -72.539968220171758, 45.140791038059596 ], [ -72.53350256606555, 45.143250078034143 ], [ -72.527260972514583, 45.140516452225164 ], [ -72.527485517309216, 45.135324160114834 ], [ -72.533950504598295, 45.1328654443207 ] ] ] } },
{ "type": "Feature", "properties": { "hex_id": 675237, "centroid_lon": -72.527710001105461, "centroid_lat": 45.130131862386598, "occurrences_today": 1, "datetimes_today": "2026-04-14 00:16:39", "cumulative_total": 65.0 }, "geometry": { "type": "Polygon", "coordinates": [ [ [ -72.527934423923611, 45.12493955904074 ], [ -72.53417438260611, 45.127673119043841 ], [ -72.533950504598295, 45.1328654443207 ], [ -72.527485517309216, 45.135324160114834 ], [ -72.521245074804611, 45.132590226549993 ], [ -72.521470103390953, 45.127397950816125 ], [ -72.527934423923611, 45.12493955904074 ] ] ] } }
]
}
