{
"type": "FeatureCollection",
"name": "daily_2026-06-05",
"crs": { "type": "name", "properties": { "name": "urn:ogc:def:crs:OGC:1.3:CRS84" } },
"features": [
{ "type": "Feature", "properties": { "hex_id": 594676, "centroid_lon": -73.355339696509674, "centroid_lat": 45.534828711737944, "occurrences_today": 3, "datetimes_today": "2026-06-05 04:46:22, 2026-06-05 05:01:21, 2026-06-05 05:16:32", "cumulative_total": 356.0 }, "geometry": { "type": "Polygon", "coordinates": [ [ [ -73.355491137521824, 45.529634077183168 ], [ -73.361816302809217, 45.532323392529044 ], [ -73.361665429974465, 45.537518041088717 ], [ -73.355188214130081, 45.540023341154523 ], [ -73.348862522039695, 45.53733365450627 ], [ -73.349014572582789, 45.532139039159127 ], [ -73.355491137521824, 45.529634077183168 ] ] ] } },
{ "type": "Feature", "properties": { "hex_id": 612349, "centroid_lon": -73.185442706406931, "centroid_lat": 45.041136611380345, "occurrences_today": 21, "datetimes_today": "2026-06-05 00:01:39, 2026-06-05 00:16:26, 2026-06-05 00:31:21, 2026-06-05 00:46:17, 2026-06-05 01:01:29, 2026-06-05 01:16:35, 2026-06-05 01:31:15, 2026-06-05 01:46:25, 2026-06-05 02:01:59, 2026-06-05 02:16:23, 2026-06-05 02:46:42, 2026-06-05 03:01:26, 2026-06-05 03:17:32, 2026-06-05 03:31:20, 2026-06-05 03:46:41, 2026-06-05 04:01:28, 2026-06-05 04:16:42, 2026-06-05 04:31:25, 2026-06-05 04:46:22, 2026-06-05 05:01:21, 2026-06-05 05:16:32", "cumulative_total": 247.0 }, "geometry": { "type": "Polygon", "coordinates": [ [ [ -73.185606936711821, 45.035941991867013 ], [ -73.191869858800516, 45.038639966760826 ], [ -73.191706179809273, 45.043834601798352 ], [ -73.185278431505651, 45.04633122567764 ], [ -73.179015002707089, 45.04363288416463 ], [ -73.179179828907237, 45.038438285454902 ], [ -73.185606936711821, 45.035941991867013 ] ] ] } },
{ "type": "Feature", "properties": { "hex_id": 613570, "centroid_lon": -73.17275216995931, "centroid_lat": 45.0409342071816, "occurrences_today": 21, "datetimes_today": "2026-06-05 00:01:39, 2026-06-05 00:16:26, 2026-06-05 00:31:21, 2026-06-05 00:46:17, 2026-06-05 01:01:29, 2026-06-05 01:16:35, 2026-06-05 01:31:15, 2026-06-05 01:46:25, 2026-06-05 02:01:59, 2026-06-05 02:16:23, 2026-06-05 02:46:42, 2026-06-05 03:01:26, 2026-06-05 03:17:32, 2026-06-05 03:31:20, 2026-06-05 03:46:41, 2026-06-05 04:01:28, 2026-06-05 04:16:42, 2026-06-05 04:31:25, 2026-06-05 04:46:22, 2026-06-05 05:01:21, 2026-06-05 05:16:32", "cumulative_total": 290.0 }, "geometry": { "type": "Polygon", "coordinates": [ [ [ -73.172917547295398, 45.0357396241196 ], [ -73.179179828907237, 45.038438285454902 ], [ -73.179015002707089, 45.04363288416463 ], [ -73.172586747715783, 45.046128785021025 ], [ -73.166323959882888, 45.043429756954495 ], [ -73.166489933247462, 45.038235194826179 ], [ -73.172917547295398, 45.0357396241196 ] ] ] } },
{ "type": "Feature", "properties": { "hex_id": 680977, "centroid_lon": -72.282990279342712, "centroid_lat": 48.951286398085564, "occurrences_today": 11, "datetimes_today": "2026-06-05 01:16:35, 2026-06-05 01:31:15, 2026-06-05 01:46:25, 2026-06-05 02:01:59, 2026-06-05 02:16:23, 2026-06-05 02:46:42, 2026-06-05 03:01:26, 2026-06-05 03:17:32, 2026-06-05 03:31:20, 2026-06-05 03:46:41, 2026-06-05 04:01:28", "cumulative_total": 21.0 }, "geometry": { "type": "Polygon", "coordinates": [ [ [ -72.283272149509216, 48.946098575206726 ], [ -72.289952526037482, 48.948853065212994 ], [ -72.289671321216048, 48.954040914308905 ], [ -72.282708328492419, 48.956474215064702 ], [ -72.27602736731771, 48.953719297262815 ], [ -72.276309983483387, 48.948531506573666 ], [ -72.283272149509216, 48.946098575206726 ] ] ] } },
{ "type": "Feature", "properties": { "hex_id": 681587, "centroid_lon": -72.27659251877887, "centroid_lat": 48.943343709978997, "occurrences_today": 11, "datetimes_today": "2026-06-05 01:16:35, 2026-06-05 01:31:15, 2026-06-05 01:46:25, 2026-06-05 02:01:59, 2026-06-05 02:16:23, 2026-06-05 02:46:42, 2026-06-05 03:01:26, 2026-06-05 03:17:32, 2026-06-05 03:31:20, 2026-06-05 03:46:41, 2026-06-05 04:01:28", "cumulative_total": 21.0 }, "geometry": { "type": "Polygon", "coordinates": [ [ [ -72.276874973233831, 48.938155907479114 ], [ -72.283553939021587, 48.940910746428536 ], [ -72.283272149509216, 48.946098575206726 ], [ -72.276309983483387, 48.948531506573666 ], [ -72.269630433608398, 48.945776239887053 ], [ -72.269913633816756, 48.940588469643565 ], [ -72.276874973233831, 48.938155907479114 ] ] ] } },
{ "type": "Feature", "properties": { "hex_id": 682196, "centroid_lon": -72.271045624679957, "centroid_lat": 48.919837329562583, "occurrences_today": 11, "datetimes_today": "2026-06-05 01:16:35, 2026-06-05 01:31:15, 2026-06-05 01:46:25, 2026-06-05 02:01:59, 2026-06-05 02:16:23, 2026-06-05 02:46:42, 2026-06-05 03:01:26, 2026-06-05 03:17:32, 2026-06-05 03:31:20, 2026-06-05 03:46:41, 2026-06-05 04:01:28", "cumulative_total": 21.0 }, "geometry": { "type": "Polygon", "coordinates": [ [ [ -72.271328420051901, 48.91464952976731 ], [ -72.278003983242556, 48.917404638434562 ], [ -72.277721851852704, 48.922592464551755 ], [ -72.270762748400188, 48.925025123448187 ], [ -72.264086602150101, 48.922269587338349 ], [ -72.264370142382248, 48.917081819847496 ], [ -72.271328420051901, 48.91464952976731 ] ] ] } },
{ "type": "Feature", "properties": { "hex_id": 682197, "centroid_lon": -72.270196752998345, "centroid_lat": 48.935400693489044, "occurrences_today": 11, "datetimes_today": "2026-06-05 01:16:35, 2026-06-05 01:31:15, 2026-06-05 01:46:25, 2026-06-05 02:01:59, 2026-06-05 02:16:23, 2026-06-05 02:46:42, 2026-06-05 03:01:26, 2026-06-05 03:17:32, 2026-06-05 03:31:20, 2026-06-05 03:46:41, 2026-06-05 04:01:28", "cumulative_total": 21.0 }, "geometry": { "type": "Polygon", "coordinates": [ [ [ -72.270479791182893, 48.930212911423794 ], [ -72.277157346878013, 48.932968099074373 ], [ -72.276874973233831, 48.938155907479114 ], [ -72.269913633816756, 48.940588469643565 ], [ -72.263235494593161, 48.937832854314273 ], [ -72.263519278285358, 48.932645104572082 ], [ -72.270479791182893, 48.930212911423794 ] ] ] } },
{ "type": "Feature", "properties": { "hex_id": 682806, "centroid_lon": -72.264653601520664, "centroid_lat": 48.911894046441127, "occurrences_today": 11, "datetimes_today": "2026-06-05 01:16:35, 2026-06-05 01:31:15, 2026-06-05 01:46:25, 2026-06-05 02:01:59, 2026-06-05 02:16:23, 2026-06-05 02:46:42, 2026-06-05 03:01:26, 2026-06-05 03:17:32, 2026-06-05 03:31:20, 2026-06-05 03:46:41, 2026-06-05 04:01:28", "cumulative_total": 21.0 }, "geometry": { "type": "Polygon", "coordinates": [ [ [ -72.264936979595106, 48.90670626711961 ], [ -72.271611134545765, 48.909461724062766 ], [ -72.271328420051901, 48.91464952976731 ], [ -72.264370142382248, 48.917081819847496 ], [ -72.257695404929862, 48.914325935520189 ], [ -72.257979527619085, 48.909138188569678 ], [ -72.264936979595106, 48.90670626711961 ] ] ] } },
{ "type": "Feature", "properties": { "hex_id": 682807, "centroid_lon": -72.263802980794409, "centroid_lat": 48.927457348913315, "occurrences_today": 11, "datetimes_today": "2026-06-05 01:16:35, 2026-06-05 01:31:15, 2026-06-05 01:46:25, 2026-06-05 02:01:59, 2026-06-05 02:16:23, 2026-06-05 02:46:42, 2026-06-05 03:01:26, 2026-06-05 03:17:32, 2026-06-05 03:31:20, 2026-06-05 03:46:41, 2026-06-05 04:01:28", "cumulative_total": 21.0 }, "geometry": { "type": "Polygon", "coordinates": [ [ [ -72.264086602150101, 48.922269587338349 ], [ -72.270762748400188, 48.925025123448187 ], [ -72.270479791182893, 48.930212911423794 ], [ -72.263519278285358, 48.932645104572082 ], [ -72.256842549065112, 48.929889140842022 ], [ -72.257126915682747, 48.924701411656713 ], [ -72.264086602150101, 48.922269587338349 ] ] ] } },
{ "type": "Feature", "properties": { "hex_id": 682808, "centroid_lon": -72.262951629687976, "centroid_lat": 48.943020598139526, "occurrences_today": 11, "datetimes_today": "2026-06-05 01:16:35, 2026-06-05 01:31:15, 2026-06-05 01:46:25, 2026-06-05 02:01:59, 2026-06-05 02:16:23, 2026-06-05 02:46:42, 2026-06-05 03:01:26, 2026-06-05 03:17:32, 2026-06-05 03:31:20, 2026-06-05 03:46:41, 2026-06-05 04:01:28", "cumulative_total": 21.0 }, "geometry": { "type": "Polygon", "coordinates": [ [ [ -72.263235494593161, 48.937832854314273 ], [ -72.269913633816756, 48.940588469643565 ], [ -72.269630433608398, 48.945776239887053 ], [ -72.262667683539931, 48.948208336047507 ], [ -72.255988960877289, 48.945452292861745 ], [ -72.25627357169229, 48.940264581444886 ], [ -72.263235494593161, 48.937832854314273 ] ] ] } },
{ "type": "Feature", "properties": { "hex_id": 683416, "centroid_lon": -72.258263569058528, "centroid_lat": 48.903950435698114, "occurrences_today": 11, "datetimes_today": "2026-06-05 01:16:35, 2026-06-05 01:31:15, 2026-06-05 01:46:25, 2026-06-05 02:01:59, 2026-06-05 02:16:23, 2026-06-05 02:46:42, 2026-06-05 03:01:26, 2026-06-05 03:17:32, 2026-06-05 03:31:20, 2026-06-05 03:46:41, 2026-06-05 04:01:28", "cumulative_total": 21.0 }, "geometry": { "type": "Polygon", "coordinates": [ [ [ -72.258547529278033, 48.898762676905875 ], [ -72.265220276635304, 48.901518481883279 ], [ -72.264936979595106, 48.90670626711961 ], [ -72.257979527619085, 48.909138188569678 ], [ -72.25130619831738, 48.906381956266586 ], [ -72.251590902906287, 48.901194229911901 ], [ -72.258547529278033, 48.898762676905875 ] ] ] } },
{ "type": "Feature", "properties": { "hex_id": 683417, "centroid_lon": -72.25741120096103, "centroid_lat": 48.919513676549322, "occurrences_today": 11, "datetimes_today": "2026-06-05 01:16:35, 2026-06-05 01:31:15, 2026-06-05 01:46:25, 2026-06-05 02:01:59, 2026-06-05 02:16:23, 2026-06-05 02:46:42, 2026-06-05 03:01:26, 2026-06-05 03:17:32, 2026-06-05 03:31:20, 2026-06-05 03:46:41, 2026-06-05 04:01:28", "cumulative_total": 21.0 }, "geometry": { "type": "Polygon", "coordinates": [ [ [ -72.257695404929862, 48.914325935520189 ], [ -72.264370142382248, 48.917081819847496 ], [ -72.264086602150101, 48.922269587338349 ], [ -72.257126915682747, 48.924701411656713 ], [ -72.250451595818078, 48.921945099767704 ], [ -72.250736544803189, 48.916757391194842 ], [ -72.257695404929862, 48.914325935520189 ] ] ] } },
{ "type": "Feature", "properties": { "hex_id": 683418, "centroid_lon": -72.256558101078269, "centroid_lat": 48.935076864104865, "occurrences_today": 11, "datetimes_today": "2026-06-05 01:16:35, 2026-06-05 01:31:15, 2026-06-05 01:46:25, 2026-06-05 02:01:59, 2026-06-05 02:16:23, 2026-06-05 02:46:42, 2026-06-05 03:01:26, 2026-06-05 03:17:32, 2026-06-05 03:31:20, 2026-06-05 03:46:41, 2026-06-05 04:01:28", "cumulative_total": 21.0 }, "geometry": { "type": "Polygon", "coordinates": [ [ [ -72.256842549065112, 48.929889140842022 ], [ -72.263519278285358, 48.932645104572082 ], [ -72.263235494593161, 48.937832854314273 ], [ -72.25627357169229, 48.940264581444886 ], [ -72.24959625959147, 48.937508189916919 ], [ -72.249881453242182, 48.932320499129091 ], [ -72.256842549065112, 48.929889140842022 ] ] ] } },
{ "type": "Feature", "properties": { "hex_id": 684026, "centroid_lon": -72.251875526089592, "centroid_lat": 48.896006497630651, "occurrences_today": 16, "datetimes_today": "2026-06-05 00:01:39, 2026-06-05 00:16:26, 2026-06-05 00:31:21, 2026-06-05 00:46:17, 2026-06-05 01:01:29, 2026-06-05 01:16:35, 2026-06-05 01:31:15, 2026-06-05 01:46:25, 2026-06-05 02:01:59, 2026-06-05 02:16:23, 2026-06-05 02:46:42, 2026-06-05 03:01:26, 2026-06-05 03:17:32, 2026-06-05 03:31:20, 2026-06-05 03:46:41, 2026-06-05 04:01:28", "cumulative_total": 48.0 }, "geometry": { "type": "Polygon", "coordinates": [ [ [ -72.252160067897165, 48.890818759423183 ], [ -72.258831408307387, 48.893574912193301 ], [ -72.258547529278033, 48.898762676905875 ], [ -72.251590902906287, 48.901194229911901 ], [ -72.244918981108512, 48.898437649874595 ], [ -72.24520426704018, 48.893249944171188 ], [ -72.252160067897165, 48.890818759423183 ] ] ] } },
{ "type": "Feature", "properties": { "hex_id": 684027, "centroid_lon": -72.251021412292971, "centroid_lat": 48.911569676694342, "occurrences_today": 11, "datetimes_today": "2026-06-05 01:16:35, 2026-06-05 01:31:15, 2026-06-05 01:46:25, 2026-06-05 02:01:59, 2026-06-05 02:16:23, 2026-06-05 02:46:42, 2026-06-05 03:01:26, 2026-06-05 03:17:32, 2026-06-05 03:31:20, 2026-06-05 03:46:41, 2026-06-05 04:01:28", "cumulative_total": 21.0 }, "geometry": { "type": "Polygon", "coordinates": [ [ [ -72.25130619831738, 48.906381956266586 ], [ -72.257979527619085, 48.909138188569678 ], [ -72.257695404929862, 48.914325935520189 ], [ -72.250736544803189, 48.916757391194842 ], [ -72.244062633646649, 48.91400073138859 ], [ -72.244348164441703, 48.908813043483654 ], [ -72.25130619831738, 48.906381956266586 ] ] ] } },
{ "type": "Feature", "properties": { "hex_id": 684028, "centroid_lon": -72.250166565307737, "centroid_lat": 48.927132802412572, "occurrences_today": 11, "datetimes_today": "2026-06-05 01:16:35, 2026-06-05 01:31:15, 2026-06-05 01:46:25, 2026-06-05 02:01:59, 2026-06-05 02:16:23, 2026-06-05 02:46:42, 2026-06-05 03:01:26, 2026-06-05 03:17:32, 2026-06-05 03:31:20, 2026-06-05 03:46:41, 2026-06-05 04:01:28", "cumulative_total": 21.0 }, "geometry": { "type": "Polygon", "coordinates": [ [ [ -72.250451595818078, 48.921945099767704 ], [ -72.257126915682747, 48.924701411656713 ], [ -72.256842549065112, 48.929889140842022 ], [ -72.249881453242182, 48.932320499129091 ], [ -72.24320555105497, 48.929563759500788 ], [ -72.243491326983289, 48.924376089397512 ], [ -72.250451595818078, 48.921945099767704 ] ] ] } },
{ "type": "Feature", "properties": { "hex_id": 684636, "centroid_lon": -72.245489471410622, "centroid_lat": 48.888062232535688, "occurrences_today": 16, "datetimes_today": "2026-06-05 00:01:39, 2026-06-05 00:16:26, 2026-06-05 00:31:21, 2026-06-05 00:46:17, 2026-06-05 01:01:29, 2026-06-05 01:16:35, 2026-06-05 01:31:15, 2026-06-05 01:46:25, 2026-06-05 02:01:59, 2026-06-05 02:16:23, 2026-06-05 02:46:42, 2026-06-05 03:01:26, 2026-06-05 03:17:32, 2026-06-05 03:31:20, 2026-06-05 03:46:41, 2026-06-05 04:01:28", "cumulative_total": 71.0 }, "geometry": { "type": "Polygon", "coordinates": [ [ [ -72.245774594249767, 48.882874514968449 ], [ -72.252444528358907, 48.88563101528986 ], [ -72.252160067897165, 48.890818759423183 ], [ -72.24520426704018, 48.893249944171188 ], [ -72.238533752099869, 48.890493016641116 ], [ -72.238819618817828, 48.88530533164441 ], [ -72.245774594249767, 48.882874514968449 ] ] ] } },
{ "type": "Feature", "properties": { "hex_id": 684637, "centroid_lon": -72.244633613585663, "centroid_lat": 48.903625349645516, "occurrences_today": 11, "datetimes_today": "2026-06-05 01:16:35, 2026-06-05 01:31:15, 2026-06-05 01:46:25, 2026-06-05 02:01:59, 2026-06-05 02:16:23, 2026-06-05 02:46:42, 2026-06-05 03:01:26, 2026-06-05 03:17:32, 2026-06-05 03:31:20, 2026-06-05 03:46:41, 2026-06-05 04:01:28", "cumulative_total": 21.0 }, "geometry": { "type": "Polygon", "coordinates": [ [ [ -72.244918981108512, 48.898437649874595 ], [ -72.251590902906287, 48.901194229911901 ], [ -72.25130619831738, 48.906381956266586 ], [ -72.244348164441703, 48.908813043483654 ], [ -72.237675661346103, 48.90605603600175 ], [ -72.237961773394019, 48.900868368820142 ], [ -72.244918981108512, 48.898437649874595 ] ] ] } },
{ "type": "Feature", "properties": { "hex_id": 684638, "centroid_lon": -72.243777021170501, "centroid_lat": 48.919188413360004, "occurrences_today": 11, "datetimes_today": "2026-06-05 01:16:35, 2026-06-05 01:31:15, 2026-06-05 01:46:25, 2026-06-05 02:01:59, 2026-06-05 02:16:23, 2026-06-05 02:46:42, 2026-06-05 03:01:26, 2026-06-05 03:17:32, 2026-06-05 03:31:20, 2026-06-05 03:46:41, 2026-06-05 04:01:28", "cumulative_total": 21.0 }, "geometry": { "type": "Polygon", "coordinates": [ [ [ -72.244062633646649, 48.91400073138859 ], [ -72.250736544803189, 48.916757391194842 ], [ -72.250451595818078, 48.921945099767704 ], [ -72.243491326983289, 48.924376089397512 ], [ -72.236816834061798, 48.921619001910599 ], [ -72.237103191710034, 48.916431352547335 ], [ -72.244062633646649, 48.91400073138859 ] ] ] } },
{ "type": "Feature", "properties": { "hex_id": 685247, "centroid_lon": -72.238247803635275, "centroid_lat": 48.895680695699816, "occurrences_today": 11, "datetimes_today": "2026-06-05 01:16:35, 2026-06-05 01:31:15, 2026-06-05 01:46:25, 2026-06-05 02:01:59, 2026-06-05 02:16:23, 2026-06-05 02:46:42, 2026-06-05 03:01:26, 2026-06-05 03:17:32, 2026-06-05 03:31:20, 2026-06-05 03:46:41, 2026-06-05 04:01:28", "cumulative_total": 21.0 }, "geometry": { "type": "Polygon", "coordinates": [ [ [ -72.238533752099869, 48.890493016641116 ], [ -72.24520426704018, 48.893249944171188 ], [ -72.244918981108512, 48.898437649874595 ], [ -72.237961773394019, 48.900868368820142 ], [ -72.231290677712465, 48.898111013904071 ], [ -72.23157737045662, 48.89292336750119 ], [ -72.238533752099869, 48.890493016641116 ] ] ] } },
{ "type": "Feature", "properties": { "hex_id": 371241, "centroid_lon": -75.70080689706306, "centroid_lat": 45.669241168107597, "occurrences_today": 5, "datetimes_today": "2026-06-05 00:01:39, 2026-06-05 00:16:26, 2026-06-05 00:31:21, 2026-06-05 00:46:17, 2026-06-05 01:01:29", "cumulative_total": 345.0 }, "geometry": { "type": "Polygon", "coordinates": [ [ [ -75.700742056197157, 45.66404490157209 ], [ -75.707192801632758, 45.666603483917648 ], [ -75.707258245203818, 45.671799740915262 ], [ -75.700871755675749, 45.67443742982416 ], [ -75.694420389785236, 45.671878497602407 ], [ -75.694356133883673, 45.666682226412917 ], [ -75.700742056197157, 45.66404490157209 ] ] ] } },
{ "type": "Feature", "properties": { "hex_id": 376123, "centroid_lon": -75.64909713752759, "centroid_lat": 45.638366628099533, "occurrences_today": 1, "datetimes_today": "2026-06-05 02:16:23", "cumulative_total": 132.0 }, "geometry": { "type": "Polygon", "coordinates": [ [ [ -75.649037145395042, 45.633170278027038 ], [ -75.655482009888075, 45.635731826250577 ], [ -75.65554260312004, 45.640928167317242 ], [ -75.64915714607379, 45.643562973363075 ], [ -75.642711664064876, 45.641001075103368 ], [ -75.642652256623634, 45.635804720898903 ], [ -75.649037145395042, 45.633170278027038 ] ] ] } },
{ "type": "Feature", "properties": { "hex_id": 554993, "centroid_lon": -73.77164480502752, "centroid_lat": 45.532269735743192, "occurrences_today": 1, "datetimes_today": "2026-06-05 05:46:29", "cumulative_total": 147.0 }, "geometry": { "type": "Polygon", "coordinates": [ [ [ -73.771757909234779, 45.527074150811643 ], [ -73.778103115504265, 45.529740610165533 ], [ -73.777990585056642, 45.534936204987119 ], [ -73.771531669920151, 45.537465315708886 ], [ -73.765185920796313, 45.534798488962004 ], [ -73.765299629652944, 45.529602918950921 ], [ -73.771757909234779, 45.527074150811643 ] ] ] } },
{ "type": "Feature", "properties": { "hex_id": 611160, "centroid_lon": -73.18226900626, "centroid_lat": 45.540000275298496, "occurrences_today": 4, "datetimes_today": "2026-06-05 03:17:32, 2026-06-05 03:31:20, 2026-06-05 03:46:41, 2026-06-05 04:01:28", "cumulative_total": 82.0 }, "geometry": { "type": "Polygon", "coordinates": [ [ [ -73.182436408798836, 45.534806120424584 ], [ -73.188753596951159, 45.537504901731289 ], [ -73.188586760355975, 45.542699072313873 ], [ -73.182101557994983, 45.545194424947837 ], [ -73.17578384963285, 45.542495270689564 ], [ -73.175951863826171, 45.537301136813376 ], [ -73.182436408798836, 45.534806120424584 ] ] ] } },
{ "type": "Feature", "properties": { "hex_id": 611770, "centroid_lon": -73.176119832140415, "centroid_lat": 45.532106997709313, "occurrences_today": 4, "datetimes_today": "2026-06-05 03:17:32, 2026-06-05 03:31:20, 2026-06-05 03:46:41, 2026-06-05 04:01:28", "cumulative_total": 53.0 }, "geometry": { "type": "Polygon", "coordinates": [ [ [ -73.17628775459103, 45.526912853377567 ], [ -73.182603765626865, 45.52961196032625 ], [ -73.182436408798836, 45.534806120424584 ], [ -73.175951863826171, 45.537301136813376 ], [ -73.169635333039096, 45.534601656957825 ], [ -73.169803866960549, 45.529407533684804 ], [ -73.17628775459103, 45.526912853377567 ] ] ] } },
{ "type": "Feature", "properties": { "hex_id": 445158, "centroid_lon": -74.92309213453639, "centroid_lat": 46.396251488283923, "occurrences_today": 5, "datetimes_today": "2026-06-05 00:01:39, 2026-06-05 00:16:26, 2026-06-05 00:31:21, 2026-06-05 00:46:17, 2026-06-05 01:01:29", "cumulative_total": 150.0 }, "geometry": { "type": "Polygon", "coordinates": [ [ [ -74.923099433169668, 46.391055501069175 ], [ -74.929599306098282, 46.393657683778159 ], [ -74.929592623760996, 46.398853669376692 ], [ -74.923084833886961, 46.401447470755102 ], [ -74.916584346678889, 46.398844920936227 ], [ -74.916592263623585, 46.393648936915532 ], [ -74.923099433169668, 46.391055501069175 ] ] ] } },
{ "type": "Feature", "properties": { "hex_id": 445769, "centroid_lon": -74.916576427547142, "centroid_lat": 46.40404090021319, "occurrences_today": 5, "datetimes_today": "2026-06-05 00:01:39, 2026-06-05 00:16:26, 2026-06-05 00:31:21, 2026-06-05 00:46:17, 2026-06-05 01:01:29", "cumulative_total": 154.0 }, "geometry": { "type": "Polygon", "coordinates": [ [ [ -74.916584346678889, 46.398844920936227 ], [ -74.923084833886961, 46.401447470755102 ], [ -74.923077531220684, 46.406643448482733 ], [ -74.916568506227605, 46.409236874746469 ], [ -74.910067404742222, 46.406633957650961 ], [ -74.910075942526447, 46.401437981635091 ], [ -74.916584346678889, 46.398844920936227 ] ] ] } },
{ "type": "Feature", "properties": { "hex_id": 534260, "centroid_lon": -73.982558299546128, "centroid_lat": 45.908500264351119, "occurrences_today": 1, "datetimes_today": "2026-06-05 00:01:39", "cumulative_total": 42.0 }, "geometry": { "type": "Polygon", "coordinates": [ [ [ -73.982653222285663, 45.903304647584463 ], [ -73.989051089784525, 45.905959663286062 ], [ -73.988956755198714, 45.911155287915463 ], [ -73.982463350751814, 45.913695876220132 ], [ -73.976064921158425, 45.911040490345101 ], [ -73.976160458097624, 45.905844886404346 ], [ -73.982653222285663, 45.903304647584463 ] ] ] } },
{ "type": "Feature", "properties": { "hex_id": 582462, "centroid_lon": -73.485042379359768, "centroid_lat": 45.474260915435998, "occurrences_today": 3, "datetimes_today": "2026-06-05 05:16:32, 2026-06-05 05:31:27, 2026-06-05 05:46:29", "cumulative_total": 244.0 }, "geometry": { "type": "Polygon", "coordinates": [ [ [ -73.485181586021014, 45.469065900742869 ], [ -73.491506406977535, 45.471748051688806 ], [ -73.491367768451909, 45.476943079092166 ], [ -73.484903134698314, 45.479455925050424 ], [ -73.478577783612749, 45.476773404768124 ], [ -73.478717596397075, 45.471578407928341 ], [ -73.485181586021014, 45.469065900742869 ] ] ] } },
{ "type": "Feature", "properties": { "hex_id": 576361, "centroid_lon": -73.547387901920814, "centroid_lat": 45.537432894051406, "occurrences_today": 1, "datetimes_today": "2026-06-05 05:16:32", "cumulative_total": 112.0 }, "geometry": { "type": "Polygon", "coordinates": [ [ [ -73.547521675212622, 45.532237790398767 ], [ -73.553856548334949, 45.534916582719113 ], [ -73.553723345924837, 45.540111698482782 ], [ -73.547254092083151, 45.542627992651511 ], [ -73.540918684631094, 45.539948830772239 ], [ -73.541053065338176, 45.534753744347739 ], [ -73.547521675212622, 45.532237790398767 ] ] ] } },
{ "type": "Feature", "properties": { "hex_id": 572674, "centroid_lon": -73.595087586934397, "centroid_lat": 45.163848412428543, "occurrences_today": 16, "datetimes_today": "2026-06-05 00:01:39, 2026-06-05 00:16:26, 2026-06-05 00:31:21, 2026-06-05 00:46:17, 2026-06-05 01:01:29, 2026-06-05 01:16:35, 2026-06-05 01:31:15, 2026-06-05 01:46:25, 2026-06-05 02:01:59, 2026-06-05 02:16:23, 2026-06-05 02:46:42, 2026-06-05 03:01:26, 2026-06-05 03:17:32, 2026-06-05 03:31:20, 2026-06-05 03:46:41, 2026-06-05 04:01:28", "cumulative_total": 69.0 }, "geometry": { "type": "Polygon", "coordinates": [ [ [ -73.5952152948649, 45.158652859515371 ], [ -73.601511358632834, 45.161328705293975 ], [ -73.601384211102996, 45.166524269756849 ], [ -73.594959844268686, 45.169043960311342 ], [ -73.588663254841052, 45.166367750125922 ], [ -73.588791557895888, 45.161172213856524 ], [ -73.5952152948649, 45.158652859515371 ] ] ] } },
{ "type": "Feature", "properties": { "hex_id": 529366, "centroid_lon": -74.036816536791832, "centroid_lat": 45.753074734503386, "occurrences_today": 1, "datetimes_today": "2026-06-05 05:46:29", "cumulative_total": 128.0 }, "geometry": { "type": "Polygon", "coordinates": [ [ [ -74.036905912392172, 45.747878890612576 ], [ -74.043288744605547, 45.750530819227919 ], [ -74.043199953071721, 45.755726670411207 ], [ -74.036727136706105, 45.758270573512078 ], [ -74.030343744915754, 45.755618277227128 ], [ -74.030433729059709, 45.750422445576049 ], [ -74.036905912392172, 45.747878890612576 ] ] ] } },
{ "type": "Feature", "properties": { "hex_id": 574528, "centroid_lon": -73.567187876321697, "centroid_lat": 45.51429735666629, "occurrences_today": 3, "datetimes_today": "2026-06-05 00:01:39, 2026-06-05 00:16:26, 2026-06-05 00:31:21", "cumulative_total": 220.0 }, "geometry": { "type": "Polygon", "coordinates": [ [ [ -73.567319720232248, 45.509102186600096 ], [ -73.573652990145789, 45.511779871199337 ], [ -73.573521716689626, 45.516975053175138 ], [ -73.567055996402132, 45.519492521688299 ], [ -73.560722192049255, 45.516814468007944 ], [ -73.560854642411101, 45.511619314960058 ], [ -73.567319720232248, 45.509102186600096 ] ] ] } },
{ "type": "Feature", "properties": { "hex_id": 500063, "centroid_lon": -74.345187767595192, "centroid_lat": 45.770848051582675, "occurrences_today": 4, "datetimes_today": "2026-06-05 00:01:39, 2026-06-05 00:16:26, 2026-06-05 00:31:21, 2026-06-05 00:46:17", "cumulative_total": 201.0 }, "geometry": { "type": "Polygon", "coordinates": [ [ [ -74.345248568039182, 45.765651828440554 ], [ -74.351648214313911, 45.768286610097981 ], [ -74.351588002587462, 45.773482837444803 ], [ -74.345126950489345, 45.776044269915161 ], [ -74.338726732161746, 45.773409123353211 ], [ -74.338788137979478, 45.768212909290661 ], [ -74.345248568039182, 45.765651828440554 ] ] ] } },
{ "type": "Feature", "properties": { "hex_id": 753489, "centroid_lon": -71.614075633612302, "centroid_lat": 46.790407412839258, "occurrences_today": 2, "datetimes_today": "2026-06-05 00:01:39, 2026-06-05 00:16:26", "cumulative_total": 33.0 }, "geometry": { "type": "Polygon", "coordinates": [ [ [ -71.614401223464171, 46.785220862791327 ], [ -71.620777867510611, 46.788007626943681 ], [ -71.620452858561322, 46.793194208626872 ], [ -71.613749953508758, 46.79559395642368 ], [ -71.607372818827031, 46.792806789155847 ], [ -71.607699079801918, 46.787620277273483 ], [ -71.614401223464171, 46.785220862791327 ] ] ] } },
{ "type": "Feature", "properties": { "hex_id": 785238, "centroid_lon": -71.270878007639169, "centroid_lat": 46.826492768177509, "occurrences_today": 2, "datetimes_today": "2026-06-05 05:31:27, 2026-06-05 05:46:29", "cumulative_total": 21.0 }, "geometry": { "type": "Polygon", "coordinates": [ [ [ -71.271237007097426, 46.821308184697337 ], [ -71.277598885730043, 46.824113694942319 ], [ -71.277240462811335, 46.829298313417006 ], [ -71.270518908657166, 46.831677344825053 ], [ -71.264156553026041, 46.82887142813636 ], [ -71.264516228513116, 46.823686886550036 ], [ -71.271237007097426, 46.821308184697337 ] ] ] } },
{ "type": "Feature", "properties": { "hex_id": 785848, "centroid_lon": -71.264875804321122, "centroid_lat": 46.818502338124162, "occurrences_today": 2, "datetimes_today": "2026-06-05 05:31:27, 2026-06-05 05:46:29", "cumulative_total": 79.0 }, "geometry": { "type": "Polygon", "coordinates": [ [ [ -71.265235280484589, 46.813317782859428 ], [ -71.27159590706637, 46.816123594385289 ], [ -71.271237007097426, 46.821308184697337 ], [ -71.264516228513116, 46.823686886550036 ], [ -71.258155125398588, 46.820880668640513 ], [ -71.258515277366598, 46.815696155328638 ], [ -71.265235280484589, 46.813317782859428 ] ] ] } },
{ "type": "Feature", "properties": { "hex_id": 575140, "centroid_lon": -73.560192028724018, "centroid_lat": 45.537595029730163, "occurrences_today": 1, "datetimes_today": "2026-06-05 05:16:32", "cumulative_total": 184.0 }, "geometry": { "type": "Polygon", "coordinates": [ [ [ -73.560324623861291, 45.532399896870196 ], [ -73.566660140468528, 45.53507798648856 ], [ -73.566528116392021, 45.540273131333066 ], [ -73.560059397362508, 45.542790157542946 ], [ -73.553723345924837, 45.540111698482782 ], [ -73.553856548334949, 45.534916582719113 ], [ -73.560324623861291, 45.532399896870196 ] ] ] } },
{ "type": "Feature", "properties": { "hex_id": 561099, "centroid_lon": -73.707268428355889, "centroid_lat": 45.547149625656758, "occurrences_today": 1, "datetimes_today": "2026-06-05 00:01:39", "cumulative_total": 281.0 }, "geometry": { "type": "Polygon", "coordinates": [ [ [ -73.707387520966307, 45.5419541829636 ], [ -73.71373126396891, 45.544624196907577 ], [ -73.713612744700725, 45.549819650132122 ], [ -73.707149303204289, 45.55234506336059 ], [ -73.700805019406118, 45.549674681229291 ], [ -73.700924717888981, 45.544479254121448 ], [ -73.707387520966307, 45.5419541829636 ] ] ] } },
{ "type": "Feature", "properties": { "hex_id": 585534, "centroid_lon": -73.44468598471326, "centroid_lat": 45.777727270714514, "occurrences_today": 12, "datetimes_today": "2026-06-05 00:01:39, 2026-06-05 00:16:26, 2026-06-05 00:31:21, 2026-06-05 00:46:17, 2026-06-05 01:01:29, 2026-06-05 01:16:35, 2026-06-05 01:31:15, 2026-06-05 01:46:25, 2026-06-05 02:01:59, 2026-06-05 02:16:23, 2026-06-05 02:46:42, 2026-06-05 03:01:26", "cumulative_total": 112.0 }, "geometry": { "type": "Polygon", "coordinates": [ [ [ -73.444830418415307, 45.772532631331316 ], [ -73.451187097886574, 45.775217299488446 ], [ -73.45104324094325, 45.780411952061705 ], [ -73.44454151143907, 45.782921904998908 ], [ -73.438184294787931, 45.780236863262964 ], [ -73.438329344807471, 45.77504224223371 ], [ -73.444830418415307, 45.772532631331316 ] ] ] } },
{ "type": "Feature", "properties": { "hex_id": 586145, "centroid_lon": -73.438039205026286, "centroid_lat": 45.785431479190429, "occurrences_today": 12, "datetimes_today": "2026-06-05 00:01:39, 2026-06-05 00:16:26, 2026-06-05 00:31:21, 2026-06-05 00:46:17, 2026-06-05 01:01:29, 2026-06-05 01:16:35, 2026-06-05 01:31:15, 2026-06-05 01:46:25, 2026-06-05 02:01:59, 2026-06-05 02:16:23, 2026-06-05 02:46:42, 2026-06-05 03:01:26", "cumulative_total": 110.0 }, "geometry": { "type": "Polygon", "coordinates": [ [ [ -73.438184294787931, 45.780236863262964 ], [ -73.44454151143907, 45.782921904998908 ], [ -73.44439699857935, 45.788116534184368 ], [ -73.437894075509064, 45.790626090016026 ], [ -73.431536321718269, 45.787940674540792 ], [ -73.431682028123973, 45.782746077038304 ], [ -73.438184294787931, 45.780236863262964 ] ] ] } },
{ "type": "Feature", "properties": { "hex_id": 254652, "centroid_lon": -76.935259285326282, "centroid_lat": 45.912229469022051, "occurrences_today": 4, "datetimes_today": "2026-06-05 02:01:59, 2026-06-05 02:16:23, 2026-06-05 02:46:42, 2026-06-05 03:01:26", "cumulative_total": 174.0 }, "geometry": { "type": "Polygon", "coordinates": [ [ [ -76.935078735569661, 45.907036003482233 ], [ -76.941612068655687, 45.909523405891555 ], [ -76.941793243476056, 45.914716849085856 ], [ -76.935439884622767, 45.917422929268632 ], [ -76.928905876924759, 45.914935187389965 ], [ -76.928725902708806, 45.909741704863194 ], [ -76.935078735569661, 45.907036003482233 ] ] ] } },
{ "type": "Feature", "properties": { "hex_id": 574526, "centroid_lon": -73.567978400072576, "centroid_lat": 45.483126260609851, "occurrences_today": 4, "datetimes_today": "2026-06-05 00:01:39, 2026-06-05 00:16:26, 2026-06-05 00:31:21, 2026-06-05 00:46:17", "cumulative_total": 185.0 }, "geometry": { "type": "Polygon", "coordinates": [ [ [ -73.568110028182602, 45.477931060280547 ], [ -73.574439878612466, 45.480608673476389 ], [ -73.574308820030609, 45.485803885699788 ], [ -73.567846736025942, 45.488321455895523 ], [ -73.561516352010528, 45.485643474020932 ], [ -73.561648585573295, 45.480448290693793 ], [ -73.568110028182602, 45.477931060280547 ] ] ] } },
{ "type": "Feature", "properties": { "hex_id": 573299, "centroid_lon": -73.583113055512399, "centroid_lat": 45.38977104732637, "occurrences_today": 1, "datetimes_today": "2026-06-05 05:46:29", "cumulative_total": 124.0 }, "geometry": { "type": "Polygon", "coordinates": [ [ [ -73.583242869729844, 45.384575727556076 ], [ -73.589563132687857, 45.387252427776019 ], [ -73.589433885407971, 45.392447759268173 ], [ -73.582983205892887, 45.39496636205984 ], [ -73.57666241140528, 45.392289294482268 ], [ -73.576792827950541, 45.387093991534883 ], [ -73.583242869729844, 45.384575727556076 ] ] ] } },
{ "type": "Feature", "properties": { "hex_id": 574520, "centroid_lon": -73.570342219404765, "centroid_lat": 45.38961188309171, "occurrences_today": 1, "datetimes_today": "2026-06-05 05:46:29", "cumulative_total": 135.0 }, "geometry": { "type": "Polygon", "coordinates": [ [ [ -73.570473202710517, 45.384416591992093 ], [ -73.576792827950541, 45.387093991534883 ], [ -73.57666241140528, 45.392289294482268 ], [ -73.570211200378367, 45.394807169149281 ], [ -73.563891044104437, 45.392129402132113 ], [ -73.564022629879389, 45.386934127986521 ], [ -73.570473202710517, 45.384416591992093 ] ] ] } },
{ "type": "Feature", "properties": { "hex_id": 554388, "centroid_lon": -73.776185909619997, "centroid_lat": 45.618065047036033, "occurrences_today": 12, "datetimes_today": "2026-06-05 03:01:26, 2026-06-05 03:17:32, 2026-06-05 03:31:20, 2026-06-05 03:46:41, 2026-06-05 04:01:28, 2026-06-05 04:16:42, 2026-06-05 04:31:25, 2026-06-05 04:46:22, 2026-06-05 05:01:21, 2026-06-05 05:16:32, 2026-06-05 05:31:27, 2026-06-05 05:46:29", "cumulative_total": 122.0 }, "geometry": { "type": "Polygon", "coordinates": [ [ [ -73.776298933220275, 45.612869531639809 ], [ -73.782653945517481, 45.615535800918522 ], [ -73.78254149834099, 45.620731326178024 ], [ -73.77607285510949, 45.623260557467688 ], [ -73.769717297303941, 45.620593919751379 ], [ -73.769830928227833, 45.615398419247782 ], [ -73.776298933220275, 45.612869531639809 ] ] ] } },
{ "type": "Feature", "properties": { "hex_id": 573308, "centroid_lon": -73.579594650744994, "centroid_lat": 45.530042776917789, "occurrences_today": 1, "datetimes_today": "2026-06-05 05:46:29", "cumulative_total": 223.0 }, "geometry": { "type": "Polygon", "coordinates": [ [ [ -73.579725424991892, 45.52484759317236 ], [ -73.586061049252862, 45.527524610778421 ], [ -73.585930846102869, 45.532719806314745 ], [ -73.579463840774253, 45.535237955624083 ], [ -73.573127681146204, 45.532560568852801 ], [ -73.573259062201871, 45.527365402001962 ], [ -73.579725424991892, 45.52484759317236 ] ] ] } },
{ "type": "Feature", "properties": { "hex_id": 560489, "centroid_lon": -73.713494193046884, "centroid_lat": 45.55501509836968, "occurrences_today": 1, "datetimes_today": "2026-06-05 00:01:39", "cumulative_total": 258.0 }, "geometry": { "type": "Polygon", "coordinates": [ [ [ -73.713612744700725, 45.549819650132122 ], [ -73.719957666934377, 45.552489327448797 ], [ -73.719839688944759, 45.557684786157822 ], [ -73.713375608996515, 45.560210541620201 ], [ -73.707030145500596, 45.557540496075021 ], [ -73.707149303204289, 45.55234506336059 ], [ -73.713612744700725, 45.549819650132122 ] ] ] } },
{ "type": "Feature", "properties": { "hex_id": 586144, "centroid_lon": -73.438474355098307, "centroid_lat": 45.769847616102801, "occurrences_today": 12, "datetimes_today": "2026-06-05 00:01:39, 2026-06-05 00:16:26, 2026-06-05 00:31:21, 2026-06-05 00:46:17, 2026-06-05 01:01:29, 2026-06-05 01:16:35, 2026-06-05 01:31:15, 2026-06-05 01:46:25, 2026-06-05 02:01:59, 2026-06-05 02:16:23, 2026-06-05 02:46:42, 2026-06-05 03:01:26", "cumulative_total": 209.0 }, "geometry": { "type": "Polygon", "coordinates": [ [ [ -73.438619325673869, 45.764652984870288 ], [ -73.444974812558556, 45.767337986849412 ], [ -73.444830418415307, 45.772532631331316 ], [ -73.438329344807471, 45.77504224223371 ], [ -73.431973321212453, 45.77235686671915 ], [ -73.432118907922188, 45.767162253902718 ], [ -73.438619325673869, 45.764652984870288 ] ] ] } },
{ "type": "Feature", "properties": { "hex_id": 586754, "centroid_lon": -73.432264454760201, "centroid_lat": 45.761967635981833, "occurrences_today": 12, "datetimes_today": "2026-06-05 00:01:39, 2026-06-05 00:16:26, 2026-06-05 00:31:21, 2026-06-05 00:46:17, 2026-06-05 01:01:29, 2026-06-05 01:16:35, 2026-06-05 01:31:15, 2026-06-05 01:46:25, 2026-06-05 02:01:59, 2026-06-05 02:16:23, 2026-06-05 02:46:42, 2026-06-05 03:01:26", "cumulative_total": 169.0 }, "geometry": { "type": "Polygon", "coordinates": [ [ [ -73.432409961740007, 45.756773012956593 ], [ -73.438764256547572, 45.759458348536327 ], [ -73.438619325673869, 45.764652984870288 ], [ -73.432118907922188, 45.767162253902718 ], [ -73.425764076873492, 45.764476544830906 ], [ -73.42591019980415, 45.759281940283806 ], [ -73.432409961740007, 45.756773012956593 ] ] ] } },
{ "type": "Feature", "properties": { "hex_id": 547661, "centroid_lon": -73.85037508132514, "centroid_lat": 45.43954624917977, "occurrences_today": 17, "datetimes_today": "2026-06-05 00:46:17, 2026-06-05 01:01:29, 2026-06-05 01:16:35, 2026-06-05 01:31:15, 2026-06-05 01:46:25, 2026-06-05 02:01:59, 2026-06-05 02:16:23, 2026-06-05 02:46:42, 2026-06-05 03:01:26, 2026-06-05 03:17:32, 2026-06-05 03:31:20, 2026-06-05 03:46:41, 2026-06-05 04:01:28, 2026-06-05 04:16:42, 2026-06-05 04:31:25, 2026-06-05 04:46:22, 2026-06-05 05:01:21", "cumulative_total": 195.0 }, "geometry": { "type": "Polygon", "coordinates": [ [ [ -73.850480595699665, 45.434350431146186 ], [ -73.85681928534855, 45.437012494232555 ], [ -73.856714342988852, 45.442208321356482 ], [ -73.850269538155317, 45.444742062274699 ], [ -73.843930305291721, 45.442079633709774 ], [ -73.844036420466708, 45.436883829769592 ], [ -73.850480595699665, 45.434350431146186 ] ] ] } },
{ "type": "Feature", "properties": { "hex_id": 548272, "centroid_lon": -73.843824161156647, "centroid_lat": 45.447275432709162, "occurrences_today": 17, "datetimes_today": "2026-06-05 00:46:17, 2026-06-05 01:01:29, 2026-06-05 01:16:35, 2026-06-05 01:31:15, 2026-06-05 01:46:25, 2026-06-05 02:01:59, 2026-06-05 02:16:23, 2026-06-05 02:46:42, 2026-06-05 03:01:26, 2026-06-05 03:17:32, 2026-06-05 03:31:20, 2026-06-05 03:46:41, 2026-06-05 04:01:28, 2026-06-05 04:16:42, 2026-06-05 04:31:25, 2026-06-05 04:46:22, 2026-06-05 05:01:21", "cumulative_total": 188.0 }, "geometry": { "type": "Polygon", "coordinates": [ [ [ -73.843930305291721, 45.442079633709774 ], [ -73.850269538155317, 45.444742062274699 ], [ -73.850163966180546, 45.449937870430894 ], [ -73.843717988051836, 45.452471226767685 ], [ -73.837378212002562, 45.449808432564865 ], [ -73.837484957257971, 45.444612647727574 ], [ -73.843930305291721, 45.442079633709774 ] ] ] } },
{ "type": "Feature", "properties": { "hex_id": 548882, "centroid_lon": -73.837591673388488, "centroid_lat": 45.439416857947315, "occurrences_today": 18, "datetimes_today": "2026-06-05 00:46:17, 2026-06-05 01:01:29, 2026-06-05 01:16:35, 2026-06-05 01:31:15, 2026-06-05 01:46:25, 2026-06-05 02:01:59, 2026-06-05 02:16:23, 2026-06-05 02:46:42, 2026-06-05 03:01:26, 2026-06-05 03:17:32, 2026-06-05 03:31:20, 2026-06-05 03:46:41, 2026-06-05 04:01:28, 2026-06-05 04:16:42, 2026-06-05 04:31:25, 2026-06-05 04:46:22, 2026-06-05 05:01:21, 2026-06-05 05:16:32", "cumulative_total": 166.0 }, "geometry": { "type": "Polygon", "coordinates": [ [ [ -73.837698360403891, 45.43422106322415 ], [ -73.844036420466708, 45.436883829769592 ], [ -73.843930305291721, 45.442079633709774 ], [ -73.837484957257971, 45.444612647727574 ], [ -73.831146354474754, 45.441949515584355 ], [ -73.831253642435939, 45.43675373508551 ], [ -73.837698360403891, 45.43422106322415 ] ] ] } },
{ "type": "Feature", "properties": { "hex_id": 567205, "centroid_lon": -73.642858822996573, "centroid_lat": 45.561992800078059, "occurrences_today": 1, "datetimes_today": "2026-06-05 05:31:27", "cumulative_total": 92.0 }, "geometry": { "type": "Polygon", "coordinates": [ [ [ -73.642983912945596, 45.556797506228868 ], [ -73.649326177100832, 45.559471075000623 ], [ -73.649201660071341, 45.564666380022558 ], [ -73.642733698862386, 45.567188088913241 ], [ -73.636390895978494, 45.564514151161866 ], [ -73.63651659302073, 45.55931887356406 ], [ -73.642983912945596, 45.556797506228868 ] ] ] } },
{ "type": "Feature", "properties": { "hex_id": 567816, "centroid_lon": -73.636265164584259, "centroid_lat": 45.569709423743113, "occurrences_today": 1, "datetimes_today": "2026-06-05 05:31:27", "cumulative_total": 50.0 }, "geometry": { "type": "Polygon", "coordinates": [ [ [ -73.636390895978494, 45.564514151161866 ], [ -73.642733698862386, 45.567188088913241 ], [ -73.642608540531555, 45.572383372734343 ], [ -73.636139398826444, 45.574904691307744 ], [ -73.62979605724847, 45.572230384417104 ], [ -73.629922396058163, 45.567035128156988 ], [ -73.636390895978494, 45.564514151161866 ] ] ] } },
{ "type": "Feature", "properties": { "hex_id": 568426, "centroid_lon": -73.630048700348922, "centroid_lat": 45.561839866877733, "occurrences_today": 1, "datetimes_today": "2026-06-05 05:31:27", "cumulative_total": 55.0 }, "geometry": { "type": "Polygon", "coordinates": [ [ [ -73.630174970132344, 45.556644600579439 ], [ -73.63651659302073, 45.55931887356406 ], [ -73.636390895978494, 45.564514151161866 ], [ -73.629922396058163, 45.567035128156988 ], [ -73.623580234941699, 45.564360486074818 ], [ -73.623707111962048, 45.559165236159707 ], [ -73.630174970132344, 45.556644600579439 ] ] ] } },
{ "type": "Feature", "properties": { "hex_id": 569037, "centroid_lon": -73.623453323247105, "centroid_lat": 45.569555730968297, "occurrences_today": 1, "datetimes_today": "2026-06-05 05:31:27", "cumulative_total": 110.0 }, "geometry": { "type": "Polygon", "coordinates": [ [ [ -73.623580234941699, 45.564360486074818 ], [ -73.629922396058163, 45.567035128156988 ], [ -73.62979605724847, 45.572230384417104 ], [ -73.623326376866615, 45.574750970840078 ], [ -73.616983677556973, 45.572075959500729 ], [ -73.617111196810725, 45.566880731060223 ], [ -73.623580234941699, 45.564360486074818 ] ] ] } },
{ "type": "Feature", "properties": { "hex_id": 569647, "centroid_lon": -73.617238681223256, "centroid_lat": 45.561685497595519, "occurrences_today": 1, "datetimes_today": "2026-06-05 05:31:27", "cumulative_total": 40.0 }, "geometry": { "type": "Polygon", "coordinates": [ [ [ -73.617366130806289, 45.556490259106681 ], [ -73.623707111962048, 45.559165236159707 ], [ -73.623580234941699, 45.564360486074818 ], [ -73.617111196810725, 45.566880731060223 ], [ -73.610769677927635, 45.56420538479184 ], [ -73.610897734891154, 45.559010162818019 ], [ -73.617366130806289, 45.556490259106681 ] ] ] } },
{ "type": "Feature", "properties": { "hex_id": 786456, "centroid_lon": -71.261033548685504, "centroid_lat": 46.7794043705034, "occurrences_today": 3, "datetimes_today": "2026-06-05 05:16:32, 2026-06-05 05:31:27, 2026-06-05 05:46:29", "cumulative_total": 177.0 }, "geometry": { "type": "Polygon", "coordinates": [ [ [ -71.261392903222799, 46.774219802445401 ], [ -71.267748826479277, 46.777025704579657 ], [ -71.267390046862019, 46.782210307695962 ], [ -71.260674094590101, 46.784588931720712 ], [ -71.254317695988902, 46.781782623704537 ], [ -71.254677724969881, 46.776598097612123 ], [ -71.261392903222799, 46.774219802445401 ] ] ] } },
{ "type": "Feature", "properties": { "hex_id": 669210, "centroid_lon": -72.538390750783705, "centroid_lat": 46.346392511801668, "occurrences_today": 5, "datetimes_today": "2026-06-05 00:01:39, 2026-06-05 00:16:26, 2026-06-05 00:31:21, 2026-06-05 00:46:17, 2026-06-05 01:01:29", "cumulative_total": 145.0 }, "geometry": { "type": "Polygon", "coordinates": [ [ [ -72.538623882670052, 46.341201276047272 ], [ -72.544998957039013, 46.343936534419932 ], [ -72.544766406415462, 46.349127792518139 ], [ -72.538157554598627, 46.351583741914872 ], [ -72.531781963276657, 46.34884809433786 ], [ -72.532015740702462, 46.343656886634626 ], [ -72.538623882670052, 46.341201276047272 ] ] ] } },
{ "type": "Feature", "properties": { "hex_id": 561710, "centroid_lon": -73.700685288215595, "centroid_lat": 45.554870103345351, "occurrences_today": 1, "datetimes_today": "2026-06-05 00:01:39", "cumulative_total": 356.0 }, "geometry": { "type": "Polygon", "coordinates": [ [ [ -73.700805019406118, 45.549674681229291 ], [ -73.707149303204289, 45.55234506336059 ], [ -73.707030145500596, 45.557540496075021 ], [ -73.700565524306455, 45.5600655204696 ], [ -73.694220699745586, 45.557394769991276 ], [ -73.694341037130556, 45.552199363530001 ], [ -73.700805019406118, 45.549674681229291 ] ] ] } },
{ "type": "Feature", "properties": { "hex_id": 631290, "centroid_lon": -72.98023696251343, "centroid_lat": 45.279357311184192, "occurrences_today": 20, "datetimes_today": "2026-06-05 00:46:17, 2026-06-05 01:01:29, 2026-06-05 01:16:35, 2026-06-05 01:31:15, 2026-06-05 01:46:25, 2026-06-05 02:01:59, 2026-06-05 02:16:23, 2026-06-05 02:46:42, 2026-06-05 03:01:26, 2026-06-05 03:17:32, 2026-06-05 03:31:20, 2026-06-05 03:46:41, 2026-06-05 04:01:28, 2026-06-05 04:16:42, 2026-06-05 04:31:25, 2026-06-05 04:46:22, 2026-06-05 05:01:21, 2026-06-05 05:16:32, 2026-06-05 05:31:27, 2026-06-05 05:46:29", "cumulative_total": 138.0 }, "geometry": { "type": "Polygon", "coordinates": [ [ [ -72.980421281881718, 45.274163532863014 ], [ -72.986699890479713, 45.276872945545406 ], [ -72.986516126550043, 45.282066741466593 ], [ -72.980052592960405, 45.284551084173593 ], [ -72.9737734791169, 45.281841300027864 ], [ -72.973958404091803, 45.276647544702307 ], [ -72.980421281881718, 45.274163532863014 ] ] ] } },
{ "type": "Feature", "properties": { "hex_id": 671036, "centroid_lon": -72.522783987441414, "centroid_lat": 46.260316484445866, "occurrences_today": 16, "datetimes_today": "2026-06-05 00:01:39, 2026-06-05 00:16:26, 2026-06-05 00:31:21, 2026-06-05 00:46:17, 2026-06-05 01:01:29, 2026-06-05 01:16:35, 2026-06-05 01:31:15, 2026-06-05 01:46:25, 2026-06-05 02:01:59, 2026-06-05 02:16:23, 2026-06-05 02:46:42, 2026-06-05 03:01:26, 2026-06-05 03:17:32, 2026-06-05 03:31:20, 2026-06-05 03:46:41, 2026-06-05 04:01:28", "cumulative_total": 42.0 }, "geometry": { "type": "Polygon", "coordinates": [ [ [ -72.523017893121164, 46.25512523130255 ], [ -72.529382339459417, 46.257861185159257 ], [ -72.529149012146362, 46.263052460762054 ], [ -72.522550017321834, 46.265507731938627 ], [ -72.516185057067716, 46.262771389876576 ], [ -72.516419605531951, 46.25758016490925 ], [ -72.523017893121164, 46.25512523130255 ] ] ] } },
{ "type": "Feature", "properties": { "hex_id": 500674, "centroid_lon": -74.338665309515761, "centroid_lat": 45.778605332604897, "occurrences_today": 4, "datetimes_today": "2026-06-05 00:01:39, 2026-06-05 00:16:26, 2026-06-05 00:31:21, 2026-06-05 00:46:17", "cumulative_total": 189.0 }, "geometry": { "type": "Polygon", "coordinates": [ [ [ -74.338726732161746, 45.773409123353211 ], [ -74.345126950489345, 45.776044269915161 ], [ -74.34506611671604, 45.781240483438005 ], [ -74.33860387003584, 45.783801537045726 ], [ -74.332203079672325, 45.781166025417136 ], [ -74.332265108019243, 45.775969825312721 ], [ -74.338726732161746, 45.773409123353211 ] ] ] } },
{ "type": "Feature", "properties": { "hex_id": 501284, "centroid_lon": -74.332327119371442, "centroid_lat": 45.770773620396199, "occurrences_today": 4, "datetimes_today": "2026-06-05 00:01:39, 2026-06-05 00:16:26, 2026-06-05 00:31:21, 2026-06-05 00:46:17", "cumulative_total": 212.0 }, "geometry": { "type": "Polygon", "coordinates": [ [ [ -74.332389113734678, 45.765577410667547 ], [ -74.338788137979478, 45.768212909290661 ], [ -74.338726732161746, 45.773409123353211 ], [ -74.332265108019243, 45.775969825312721 ], [ -74.325865512220773, 45.773333961660207 ], [ -74.325928112112734, 45.76813776114281 ], [ -74.332389113734678, 45.765577410667547 ] ] ] } },
{ "type": "Feature", "properties": { "hex_id": 543396, "centroid_lon": -73.89252235389867, "centroid_lat": 45.572481578926343, "occurrences_today": 4, "datetimes_today": "2026-06-05 02:16:23, 2026-06-05 02:46:42, 2026-06-05 03:01:26, 2026-06-05 03:17:32", "cumulative_total": 206.0 }, "geometry": { "type": "Polygon", "coordinates": [ [ [ -73.892624472443259, 45.567285806915208 ], [ -73.898980012542594, 45.569945627900474 ], [ -73.898878470599342, 45.575141408609618 ], [ -73.892420207440495, 45.577677346012187 ], [ -73.886064118658098, 45.575017158269155 ], [ -73.886166841708231, 45.569821399946008 ], [ -73.892624472443259, 45.567285806915208 ] ] ] } },
{ "type": "Feature", "properties": { "hex_id": 538500, "centroid_lon": -73.947267559325581, "centroid_lat": 45.38591300526403, "occurrences_today": 1, "datetimes_today": "2026-06-05 05:46:29", "cumulative_total": 97.0 }, "geometry": { "type": "Polygon", "coordinates": [ [ [ -73.947364001368101, 45.380716969078165 ], [ -73.953701387611559, 45.383373666373345 ], [ -73.953605517256577, 45.388569710678567 ], [ -73.947171090979623, 45.39110903654197 ], [ -73.94083315935643, 45.388451975361598 ], [ -73.940930199381143, 45.383255952267319 ], [ -73.947364001368101, 45.380716969078165 ] ] ] } },
{ "type": "Feature", "properties": { "hex_id": 587365, "centroid_lon": -73.425617913914763, "centroid_lat": 45.769671144270689, "occurrences_today": 12, "datetimes_today": "2026-06-05 00:01:39, 2026-06-05 00:16:26, 2026-06-05 00:31:21, 2026-06-05 00:46:17, 2026-06-05 01:01:29, 2026-06-05 01:16:35, 2026-06-05 01:31:15, 2026-06-05 01:46:25, 2026-06-05 02:01:59, 2026-06-05 02:16:23, 2026-06-05 02:46:42, 2026-06-05 03:01:26", "cumulative_total": 247.0 }, "geometry": { "type": "Polygon", "coordinates": [ [ [ -73.425764076873492, 45.764476544830906 ], [ -73.432118907922188, 45.767162253902718 ], [ -73.431973321212453, 45.77235686671915 ], [ -73.425471710914437, 45.774865738603033 ], [ -73.41911634366511, 45.772179655878787 ], [ -73.419263122900901, 45.766985074988177 ], [ -73.425764076873492, 45.764476544830906 ] ] ] } },
{ "type": "Feature", "properties": { "hex_id": 586755, "centroid_lon": -73.431827694617539, "centroid_lat": 45.777551474431057, "occurrences_today": 12, "datetimes_today": "2026-06-05 00:01:39, 2026-06-05 00:16:26, 2026-06-05 00:31:21, 2026-06-05 00:46:17, 2026-06-05 01:01:29, 2026-06-05 01:16:35, 2026-06-05 01:31:15, 2026-06-05 01:46:25, 2026-06-05 02:01:59, 2026-06-05 02:16:23, 2026-06-05 02:46:42, 2026-06-05 03:01:26", "cumulative_total": 153.0 }, "geometry": { "type": "Polygon", "coordinates": [ [ [ -73.431973321212453, 45.77235686671915 ], [ -73.438329344807471, 45.77504224223371 ], [ -73.438184294787931, 45.780236863262964 ], [ -73.431682028123973, 45.782746077038304 ], [ -73.425325467858983, 45.780060327827861 ], [ -73.425471710914437, 45.774865738603033 ], [ -73.431973321212453, 45.77235686671915 ] ] ] } },
{ "type": "Feature", "properties": { "hex_id": 587366, "centroid_lon": -73.425179184734858, "centroid_lat": 45.785254911945039, "occurrences_today": 12, "datetimes_today": "2026-06-05 00:01:39, 2026-06-05 00:16:26, 2026-06-05 00:31:21, 2026-06-05 00:46:17, 2026-06-05 01:01:29, 2026-06-05 01:16:35, 2026-06-05 01:31:15, 2026-06-05 01:46:25, 2026-06-05 02:01:59, 2026-06-05 02:16:23, 2026-06-05 02:46:42, 2026-06-05 03:01:26", "cumulative_total": 98.0 }, "geometry": { "type": "Polygon", "coordinates": [ [ [ -73.425325467858983, 45.780060327827861 ], [ -73.431682028123973, 45.782746077038304 ], [ -73.431536321718269, 45.787940674540792 ], [ -73.425032861528521, 45.790449490954479 ], [ -73.418675764634088, 45.787763367887692 ], [ -73.418822664545303, 45.782568802328676 ], [ -73.425325467858983, 45.780060327827861 ] ] ] } },
{ "type": "Feature", "properties": { "hex_id": 588587, "centroid_lon": -73.412319284690057, "centroid_lat": 45.785076897838003, "occurrences_today": 1, "datetimes_today": "2026-06-05 00:01:39", "cumulative_total": 173.0 }, "geometry": { "type": "Polygon", "coordinates": [ [ [ -73.412466761136017, 45.77988234579157 ], [ -73.418822664545303, 45.782568802328676 ], [ -73.418675764634088, 45.787763367887692 ], [ -73.412171767835247, 45.790271444770788 ], [ -73.4058153283069, 45.787584614260417 ], [ -73.405963421682799, 45.782390080905344 ], [ -73.412466761136017, 45.77988234579157 ] ] ] } },
{ "type": "Feature", "properties": { "hex_id": 845605, "centroid_lon": -70.712502437818699, "centroid_lat": 45.676611514504948, "occurrences_today": 6, "datetimes_today": "2026-06-05 02:46:42, 2026-06-05 03:01:26, 2026-06-05 03:17:32, 2026-06-05 03:31:20, 2026-06-05 03:46:41, 2026-06-05 04:01:28", "cumulative_total": 35.0 }, "geometry": { "type": "Polygon", "coordinates": [ [ [ -70.712898874109214, 45.671429430355182 ], [ -70.719102375391586, 45.674260977897461 ], [ -70.718706472611032, 45.679443101573284 ], [ -70.712105893310934, 45.681793591249338 ], [ -70.705901966754055, 45.67896164823248 ], [ -70.706299044735445, 45.673779611077805 ], [ -70.712898874109214, 45.671429430355182 ] ] ] } },
{ "type": "Feature", "properties": { "hex_id": 561721, "centroid_lon": -73.69671573773573, "centroid_lat": 45.726316232365257, "occurrences_today": 7, "datetimes_today": "2026-06-05 00:31:21, 2026-06-05 00:46:17, 2026-06-05 01:01:29, 2026-06-05 01:16:35, 2026-06-05 01:31:15, 2026-06-05 01:46:25, 2026-06-05 02:01:59", "cumulative_total": 160.0 }, "geometry": { "type": "Polygon", "coordinates": [ [ [ -73.696836554475325, 45.721120975014188 ], [ -73.703199845767472, 45.7237917081425 ], [ -73.703079607676216, 45.72898697617029 ], [ -73.696594887911871, 45.731511484722347 ], [ -73.690231051061247, 45.728840381029364 ], [ -73.690352479522261, 45.723645139414018 ], [ -73.696836554475325, 45.721120975014188 ] ] ] } },
{ "type": "Feature", "properties": { "hex_id": 562942, "centroid_lon": -73.683867826094868, "centroid_lat": 45.72616892822699, "occurrences_today": 7, "datetimes_today": "2026-06-05 00:31:21, 2026-06-05 00:46:17, 2026-06-05 01:01:29, 2026-06-05 01:16:35, 2026-06-05 01:31:15, 2026-06-05 01:46:25, 2026-06-05 02:01:59", "cumulative_total": 143.0 }, "geometry": { "type": "Polygon", "coordinates": [ [ [ -73.683989833024583, 45.720973697416007 ], [ -73.690352479522261, 45.723645139414018 ], [ -73.690231051061247, 45.728840381029364 ], [ -73.683745785755193, 45.731364154039099 ], [ -73.677382594204389, 45.728692341357345 ], [ -73.677505213001496, 45.723497126414607 ], [ -73.683989833024583, 45.720973697416007 ] ] ] } },
{ "type": "Feature", "properties": { "hex_id": 445121, "centroid_lon": -74.923890130050722, "centroid_lat": 45.819467938011421, "occurrences_today": 8, "datetimes_today": "2026-06-05 04:01:28, 2026-06-05 04:16:42, 2026-06-05 04:31:25, 2026-06-05 04:46:22, 2026-06-05 05:01:21, 2026-06-05 05:16:32, 2026-06-05 05:31:27, 2026-06-05 05:46:29", "cumulative_total": 56.0 }, "geometry": { "type": "Polygon", "coordinates": [ [ [ -74.923897209122259, 45.814271423999521 ], [ -74.930329717542378, 45.816873787113174 ], [ -74.930323236233619, 45.822070299491195 ], [ -74.923883049037968, 45.82466444727541 ], [ -74.917449944796644, 45.822061724400335 ], [ -74.917457623571508, 45.816865213567837 ], [ -74.923897209122259, 45.814271423999521 ] ] ] } },
{ "type": "Feature", "properties": { "hex_id": 445732, "centroid_lon": -74.917442263916001, "centroid_lat": 45.827258230484823, "occurrences_today": 8, "datetimes_today": "2026-06-05 04:01:28, 2026-06-05 04:16:42, 2026-06-05 04:31:25, 2026-06-05 04:46:22, 2026-06-05 05:01:21, 2026-06-05 05:16:32, 2026-06-05 05:31:27, 2026-06-05 05:46:29", "cumulative_total": 56.0 }, "geometry": { "type": "Polygon", "coordinates": [ [ [ -74.917449944796644, 45.822061724400335 ], [ -74.923883049037968, 45.82466444727541 ], [ -74.923875966083287, 45.829860951791559 ], [ -74.917434580928855, 45.832454731821322 ], [ -74.911000880868414, 45.829851649021535 ], [ -74.911009161780797, 45.82465514618206 ], [ -74.917449944796644, 45.822061724400335 ] ] ] } },
{ "type": "Feature", "properties": { "hex_id": 446343, "centroid_lon": -74.91099259768491, "centroid_lat": 45.83504814711285, "occurrences_today": 8, "datetimes_today": "2026-06-05 04:01:28, 2026-06-05 04:16:42, 2026-06-05 04:31:25, 2026-06-05 04:46:22, 2026-06-05 05:01:21, 2026-06-05 05:16:32, 2026-06-05 05:31:27, 2026-06-05 05:46:29", "cumulative_total": 56.0 }, "geometry": { "type": "Polygon", "coordinates": [ [ [ -74.911000880868414, 45.829851649021535 ], [ -74.917434580928855, 45.832454731821322 ], [ -74.917426895834538, 45.837651228409854 ], [ -74.910984312229544, 45.840244640456071 ], [ -74.904550016352189, 45.837641197568189 ], [ -74.904558899895974, 45.832444702787562 ], [ -74.911000880868414, 45.829851649021535 ] ] ] } },
{ "type": "Feature", "properties": { "hex_id": 600781, "centroid_lon": -73.291329672466006, "centroid_lat": 45.533888935133149, "occurrences_today": 1, "datetimes_today": "2026-06-05 00:01:39", "cumulative_total": 139.0 }, "geometry": { "type": "Polygon", "coordinates": [ [ [ -73.291487000689401, 45.528694469852077 ], [ -73.29780890694758, 45.531387285532027 ], [ -73.297652145992544, 45.536581765447814 ], [ -73.291172301268929, 45.5390833952451 ], [ -73.28484987072332, 45.536390207687241 ], [ -73.285007809174331, 45.531195762274521 ], [ -73.291487000689401, 45.528694469852077 ] ] ] } },
{ "type": "Feature", "properties": { "hex_id": 446342, "centroid_lon": -74.911017440422839, "centroid_lat": 45.819458638594433, "occurrences_today": 8, "datetimes_today": "2026-06-05 04:01:28, 2026-06-05 04:16:42, 2026-06-05 04:31:25, 2026-06-05 04:46:22, 2026-06-05 05:01:21, 2026-06-05 05:16:32, 2026-06-05 05:31:27, 2026-06-05 05:46:29", "cumulative_total": 21.0 }, "geometry": { "type": "Polygon", "coordinates": [ [ [ -74.911025716795308, 45.814262126258591 ], [ -74.917457623571508, 45.816865213567837 ], [ -74.917449944796644, 45.822061724400335 ], [ -74.911009161780797, 45.82465514618206 ], [ -74.904576659676962, 45.822051698981383 ], [ -74.904585535915814, 45.816855189955788 ], [ -74.911025716795308, 45.814262126258591 ] ] ] } },
{ "type": "Feature", "properties": { "hex_id": 446953, "centroid_lon": -74.904567781003962, "centroid_lat": 45.827248203258648, "occurrences_today": 8, "datetimes_today": "2026-06-05 04:01:28, 2026-06-05 04:16:42, 2026-06-05 04:31:25, 2026-06-05 04:46:22, 2026-06-05 05:01:21, 2026-06-05 05:16:32, 2026-06-05 05:31:27, 2026-06-05 05:46:29", "cumulative_total": 21.0 }, "geometry": { "type": "Polygon", "coordinates": [ [ [ -74.904576659676962, 45.822051698981383 ], [ -74.911009161780797, 45.82465514618206 ], [ -74.911000880868414, 45.829851649021535 ], [ -74.904558899895974, 45.832444702787562 ], [ -74.898125802466893, 45.829840895532193 ], [ -74.898135281334675, 45.824644394630866 ], [ -74.904576659676962, 45.822051698981383 ] ] ] } },
{ "type": "Feature", "properties": { "hex_id": 608113, "centroid_lon": -73.211555169960619, "centroid_lat": 45.626209556019354, "occurrences_today": 8, "datetimes_today": "2026-06-05 00:01:39, 2026-06-05 00:16:26, 2026-06-05 00:31:21, 2026-06-05 00:46:17, 2026-06-05 01:01:29, 2026-06-05 01:16:35, 2026-06-05 01:31:15, 2026-06-05 01:46:25", "cumulative_total": 207.0 }, "geometry": { "type": "Polygon", "coordinates": [ [ [ -73.211720371927939, 45.621015396144351 ], [ -73.218048566730161, 45.623712684845856 ], [ -73.217883933697607, 45.628906860168435 ], [ -73.211389922820317, 45.631403710683976 ], [ -73.205061204263913, 45.628706048197166 ], [ -73.205227020323775, 45.623511909044801 ], [ -73.211720371927939, 45.621015396144351 ] ] ] } },
{ "type": "Feature", "properties": { "hex_id": 554362, "centroid_lon": -73.784909742130239, "centroid_lat": 45.212799942103636, "occurrences_today": 6, "datetimes_today": "2026-06-05 04:31:25, 2026-06-05 04:46:22, 2026-06-05 05:01:21, 2026-06-05 05:16:32, 2026-06-05 05:31:27, 2026-06-05 05:46:29", "cumulative_total": 152.0 }, "geometry": { "type": "Polygon", "coordinates": [ [ [ -73.785020386390855, 45.207604039651329 ], [ -73.791330915808416, 45.210269546405193 ], [ -73.791220835916917, 45.215465458549218 ], [ -73.78479906775604, 45.217995839596036 ], [ -73.778488004087961, 45.215329969593803 ], [ -73.778599242821244, 45.210134081856985 ], [ -73.785020386390855, 45.207604039651329 ] ] ] } },
{ "type": "Feature", "properties": { "hex_id": 529976, "centroid_lon": -74.030523688559171, "centroid_lat": 45.745226609041033, "occurrences_today": 1, "datetimes_today": "2026-06-05 05:46:29", "cumulative_total": 45.0 }, "geometry": { "type": "Polygon", "coordinates": [ [ [ -74.03061362342244, 45.740030767622073 ], [ -74.036995263515379, 45.742683041839641 ], [ -74.036905912392172, 45.747878890612576 ], [ -74.030433729059709, 45.750422445576049 ], [ -74.024051529867052, 45.747769803728197 ], [ -74.024142073098247, 45.742573974612299 ], [ -74.03061362342244, 45.740030767622073 ] ] ] } },
{ "type": "Feature", "properties": { "hex_id": 754099, "centroid_lon": -71.608025250368158, "centroid_lat": 46.782433758921279, "occurrences_today": 2, "datetimes_today": "2026-06-05 00:01:39, 2026-06-05 00:16:26", "cumulative_total": 13.0 }, "geometry": { "type": "Polygon", "coordinates": [ [ [ -71.608351330557014, 46.777247234099796 ], [ -71.614726723095643, 46.780034306280477 ], [ -71.614401223464171, 46.785220862791327 ], [ -71.607699079801918, 46.787620277273483 ], [ -71.601323197098893, 46.784832802034991 ], [ -71.601649948191223, 46.779646315438931 ], [ -71.608351330557014, 46.777247234099796 ] ] ] } },
{ "type": "Feature", "properties": { "hex_id": 445768, "centroid_lon": -74.916600178382026, "centroid_lat": 46.388452948151091, "occurrences_today": 5, "datetimes_today": "2026-06-05 00:01:39, 2026-06-05 00:16:26, 2026-06-05 00:31:21, 2026-06-05 00:46:17, 2026-06-05 01:01:29", "cumulative_total": 148.0 }, "geometry": { "type": "Polygon", "coordinates": [ [ [ -74.916608090954924, 46.383256954642839 ], [ -74.923106729787463, 46.38585950911078 ], [ -74.923099433169668, 46.391055501069175 ], [ -74.916592263623585, 46.393648936915532 ], [ -74.910093011021857, 46.3910460153717 ], [ -74.910101541734619, 46.385850025124093 ], [ -74.916608090954924, 46.383256954642839 ] ] ] } },
{ "type": "Feature", "properties": { "hex_id": 446379, "centroid_lon": -74.910084477952722, "centroid_lat": 46.396242000875333, "occurrences_today": 5, "datetimes_today": "2026-06-05 00:01:39, 2026-06-05 00:16:26, 2026-06-05 00:31:21, 2026-06-05 00:46:17, 2026-06-05 01:01:29", "cumulative_total": 136.0 }, "geometry": { "type": "Polygon", "coordinates": [ [ [ -74.910093011021857, 46.3910460153717 ], [ -74.916592263623585, 46.393648936915532 ], [ -74.916584346678889, 46.398844920936227 ], [ -74.910075942526447, 46.401437981635091 ], [ -74.903576076157862, 46.398834692848659 ], [ -74.903585227707723, 46.393638710672668 ], [ -74.910093011021857, 46.3910460153717 ] ] ] } },
{ "type": "Feature", "properties": { "hex_id": 577002, "centroid_lon": -73.528534795491808, "centroid_lat": 46.012680522991353, "occurrences_today": 3, "datetimes_today": "2026-06-05 05:16:32, 2026-06-05 05:31:27, 2026-06-05 05:46:29", "cumulative_total": 56.0 }, "geometry": { "type": "Polygon", "coordinates": [ [ [ -73.528672568278736, 46.007485896953867 ], [ -73.535059993640473, 46.010166165577068 ], [ -73.534922806010385, 46.015360804034742 ], [ -73.5283969848456, 46.01787514396576 ], [ -73.522009012192768, 46.015194499522146 ], [ -73.522147407982928, 46.009999891033594 ], [ -73.528672568278736, 46.007485896953867 ] ] ] } },
{ "type": "Feature", "properties": { "hex_id": 592838, "centroid_lon": -73.377454611919134, "centroid_lat": 45.433806388649252, "occurrences_today": 14, "datetimes_today": "2026-06-05 00:01:39, 2026-06-05 00:16:26, 2026-06-05 00:31:21, 2026-06-05 00:46:17, 2026-06-05 01:01:29, 2026-06-05 01:16:35, 2026-06-05 01:31:15, 2026-06-05 01:46:25, 2026-06-05 02:01:59, 2026-06-05 02:16:23, 2026-06-05 02:46:42, 2026-06-05 03:01:26, 2026-06-05 03:17:32, 2026-06-05 03:31:20", "cumulative_total": 146.0 }, "geometry": { "type": "Polygon", "coordinates": [ [ [ -73.377603492030957, 45.428611604575693 ], [ -73.383918578692459, 45.431299600278663 ], [ -73.383770264040393, 45.436494398111087 ], [ -73.377305691188255, 45.43900116759599 ], [ -73.370990079692845, 45.436312802076621 ], [ -73.371139565869882, 45.431118036953038 ], [ -73.377603492030957, 45.428611604575693 ] ] ] } },
{ "type": "Feature", "properties": { "hex_id": 1079629, "centroid_lon": -67.858203031740643, "centroid_lat": 48.69136186779334, "occurrences_today": 3, "datetimes_today": "2026-06-05 01:46:25, 2026-06-05 02:01:59, 2026-06-05 02:16:23", "cumulative_total": 17.0 }, "geometry": { "type": "Polygon", "coordinates": [ [ [ -67.858935583366446, 48.686208308401106 ], [ -67.865310382363475, 48.689204927699265 ], [ -67.864578404233683, 48.694358556313162 ], [ -67.85747027266342, 48.696515414305416 ], [ -67.851095107659276, 48.693518337179128 ], [ -67.851828440157561, 48.688364859957304 ], [ -67.858935583366446, 48.686208308401106 ] ] ] } },
{ "type": "Feature", "properties": { "hex_id": 1080240, "centroid_lon": -67.850361567484754, "centroid_lat": 48.698671801504041, "occurrences_today": 3, "datetimes_today": "2026-06-05 01:46:25, 2026-06-05 02:01:59, 2026-06-05 02:16:23", "cumulative_total": 17.0 }, "geometry": { "type": "Polygon", "coordinates": [ [ [ -67.851095107659276, 48.693518337179128 ], [ -67.85747027266342, 48.696515414305416 ], [ -67.856737306059827, 48.701668947934294 ], [ -67.849627819558933, 48.703825252928951 ], [ -67.843252288772661, 48.700827717815613 ], [ -67.843986610194364, 48.69567433576325 ], [ -67.851095107659276, 48.693518337179128 ] ] ] } },
{ "type": "Feature", "properties": { "hex_id": 1080850, "centroid_lon": -67.844720723714943, "centroid_lat": 48.690520940797171, "occurrences_today": 3, "datetimes_today": "2026-06-05 01:46:25, 2026-06-05 02:01:59, 2026-06-05 02:16:23", "cumulative_total": 17.0 }, "geometry": { "type": "Polygon", "coordinates": [ [ [ -67.845454629409474, 48.685367532920431 ], [ -67.851828440157561, 48.688364859957304 ], [ -67.851095107659276, 48.693518337179128 ], [ -67.843986610194364, 48.69567433576325 ], [ -67.837612434113581, 48.692676550827379 ], [ -67.838347120755344, 48.687523225274958 ], [ -67.845454629409474, 48.685367532920431 ] ] ] } },
{ "type": "Feature", "properties": { "hex_id": 1081461, "centroid_lon": -67.836877539420954, "centroid_lat": 48.697829863452334, "occurrences_today": 3, "datetimes_today": "2026-06-05 01:46:25, 2026-06-05 02:01:59, 2026-06-05 02:16:23", "cumulative_total": 17.0 }, "geometry": { "type": "Polygon", "coordinates": [ [ [ -67.837612434113581, 48.692676550827379 ], [ -67.843986610194364, 48.69567433576325 ], [ -67.843252288772661, 48.700827717815613 ], [ -67.836142436602273, 48.702983163146776 ], [ -67.829767895414179, 48.699984920153042 ], [ -67.830503571428622, 48.69483168995459 ], [ -67.837612434113581, 48.692676550827379 ] ] ] } },
{ "type": "Feature", "properties": { "hex_id": 845633, "centroid_lon": -70.678811829201919, "centroid_lat": 46.111880051507597, "occurrences_today": 8, "datetimes_today": "2026-06-05 02:01:59, 2026-06-05 02:16:23, 2026-06-05 02:46:42, 2026-06-05 03:01:26, 2026-06-05 03:17:32, 2026-06-05 03:31:20, 2026-06-05 03:46:41, 2026-06-05 04:01:28", "cumulative_total": 38.0 }, "geometry": { "type": "Polygon", "coordinates": [ [ [ -70.679217484085697, 46.106698592747087 ], [ -70.685466296033852, 46.109533486611689 ], [ -70.685061186661258, 46.114714985531343 ], [ -70.678406062987335, 46.117061502781972 ], [ -70.672156816877674, 46.114226207418383 ], [ -70.672563128565642, 46.109044796367805 ], [ -70.679217484085697, 46.106698592747087 ] ] ] } },
{ "type": "Feature", "properties": { "hex_id": 668545, "centroid_lon": -72.582063251120061, "centroid_lat": 45.497686335985755, "occurrences_today": 21, "datetimes_today": "2026-06-05 00:01:39, 2026-06-05 00:16:26, 2026-06-05 00:31:21, 2026-06-05 00:46:17, 2026-06-05 01:01:29, 2026-06-05 01:16:35, 2026-06-05 01:31:15, 2026-06-05 01:46:25, 2026-06-05 02:01:59, 2026-06-05 02:16:23, 2026-06-05 02:46:42, 2026-06-05 03:01:26, 2026-06-05 03:17:32, 2026-06-05 03:31:20, 2026-06-05 03:46:41, 2026-06-05 04:01:28, 2026-06-05 04:16:42, 2026-06-05 04:31:25, 2026-06-05 04:46:22, 2026-06-05 05:01:21, 2026-06-05 05:16:32", "cumulative_total": 53.0 }, "geometry": { "type": "Polygon", "coordinates": [ [ [ -72.582285572452676, 45.492494157358387 ], [ -72.588568032235443, 45.495225477503112 ], [ -72.588346267156524, 45.500417677686293 ], [ -72.581840869114686, 45.502878509023496 ], [ -72.575557913761159, 45.50014681110968 ], [ -72.575780851999909, 45.494954659691963 ], [ -72.582285572452676, 45.492494157358387 ] ] ] } },
{ "type": "Feature", "properties": { "hex_id": 641656, "centroid_lon": -72.87918084332172, "centroid_lat": 45.082632821689977, "occurrences_today": 5, "datetimes_today": "2026-06-05 00:01:39, 2026-06-05 00:16:26, 2026-06-05 00:31:21, 2026-06-05 00:46:17, 2026-06-05 01:01:29", "cumulative_total": 124.0 }, "geometry": { "type": "Polygon", "coordinates": [ [ [ -72.879373058556837, 45.077439195444555 ], [ -72.885625415349125, 45.08015377066998 ], [ -72.885433748444726, 45.085347415429482 ], [ -72.878988575875539, 45.087826442547872 ], [ -72.872735722972266, 45.085111497442227 ], [ -72.872928538731841, 45.079917895161771 ], [ -72.879373058556837, 45.077439195444555 ] ] ] } },
{ "type": "Feature", "properties": { "hex_id": 606337, "centroid_lon": -73.202942877211527, "centroid_lat": 46.491273107971409, "occurrences_today": 20, "datetimes_today": "2026-06-05 00:46:17, 2026-06-05 01:01:29, 2026-06-05 01:16:35, 2026-06-05 01:31:15, 2026-06-05 01:46:25, 2026-06-05 02:01:59, 2026-06-05 02:16:23, 2026-06-05 02:46:42, 2026-06-05 03:01:26, 2026-06-05 03:17:32, 2026-06-05 03:31:20, 2026-06-05 03:46:41, 2026-06-05 04:01:28, 2026-06-05 04:16:42, 2026-06-05 04:31:25, 2026-06-05 04:46:22, 2026-06-05 05:01:21, 2026-06-05 05:16:32, 2026-06-05 05:31:27, 2026-06-05 05:46:29", "cumulative_total": 30.0 }, "geometry": { "type": "Polygon", "coordinates": [ [ [ -73.203113958214487, 46.486079761910403 ], [ -73.209540075966586, 46.488778584406369 ], [ -73.209369590538088, 46.493971946276197 ], [ -73.202771748914188, 46.496466448809421 ], [ -73.196345082890133, 46.493767241211273 ], [ -73.196516806745663, 46.488573916248818 ], [ -73.203113958214487, 46.486079761910403 ] ] ] } },
{ "type": "Feature", "properties": { "hex_id": 693591, "centroid_lon": -72.308423558080321, "centroid_lat": 45.733214528620174, "occurrences_today": 7, "datetimes_today": "2026-06-05 00:16:26, 2026-06-05 00:31:21, 2026-06-05 00:46:17, 2026-06-05 01:01:29, 2026-06-05 01:16:35, 2026-06-05 01:31:15, 2026-06-05 01:46:25", "cumulative_total": 21.0 }, "geometry": { "type": "Polygon", "coordinates": [ [ [ -72.308673062046296, 45.728023672797633 ], [ -72.314967383144449, 45.730770245255506 ], [ -72.314718438443435, 45.735961125393104 ], [ -72.308173985842643, 45.738405378644558 ], [ -72.301879173762757, 45.735658423002789 ], [ -72.302129305242374, 45.730467597358079 ], [ -72.308673062046296, 45.728023672797633 ] ] ] } },
{ "type": "Feature", "properties": { "hex_id": 694202, "centroid_lon": -72.301628973838035, "centroid_lat": 45.740849242844156, "occurrences_today": 7, "datetimes_today": "2026-06-05 00:16:26, 2026-06-05 00:31:21, 2026-06-05 00:46:17, 2026-06-05 01:01:29, 2026-06-05 01:16:35, 2026-06-05 01:31:15, 2026-06-05 01:46:25", "cumulative_total": 12.0 }, "geometry": { "type": "Polygon", "coordinates": [ [ [ -72.301879173762757, 45.735658423002789 ], [ -72.308173985842643, 45.738405378644558 ], [ -72.307924345310212, 45.743596222870444 ], [ -72.301378705445131, 45.746040056881817 ], [ -72.295083402452676, 45.743292717898498 ], [ -72.295334230214806, 45.738101928309995 ], [ -72.301879173762757, 45.735658423002789 ] ] ] } },
{ "type": "Feature", "properties": { "hex_id": 791966, "centroid_lon": -71.185130242162941, "centroid_lat": 47.018523413389794, "occurrences_today": 1, "datetimes_today": "2026-06-05 00:01:39", "cumulative_total": 8.0 }, "geometry": { "type": "Polygon", "coordinates": [ [ [ -71.185499955716068, 47.013339516593341 ], [ -71.191879243553558, 47.016150260023224 ], [ -71.191510111147693, 47.021334192776656 ], [ -71.184760425858684, 47.023707303243825 ], [ -71.178380659642954, 47.020896150039768 ], [ -71.178751057058705, 47.015712296209877 ], [ -71.185499955716068, 47.013339516593341 ] ] ] } },
{ "type": "Feature", "properties": { "hex_id": 793187, "centroid_lon": -71.172001577464513, "centroid_lat": 47.018084659089403, "occurrences_today": 1, "datetimes_today": "2026-06-05 00:01:39", "cumulative_total": 8.0 }, "geometry": { "type": "Polygon", "coordinates": [ [ [ -71.172372555799171, 47.012900841343601 ], [ -71.178751057058705, 47.015712296209877 ], [ -71.178380659642954, 47.020896150039768 ], [ -71.171630496029408, 47.023268469877607 ], [ -71.165251516969363, 47.020456605136388 ], [ -71.165623179287451, 47.015272830499413 ], [ -71.172372555799171, 47.012900841343601 ] ] ] } },
{ "type": "Feature", "properties": { "hex_id": 712506, "centroid_lon": -72.117852755573153, "centroid_lat": 45.564862748508546, "occurrences_today": 17, "datetimes_today": "2026-06-05 00:01:39, 2026-06-05 00:16:26, 2026-06-05 00:31:21, 2026-06-05 00:46:17, 2026-06-05 01:01:29, 2026-06-05 01:16:35, 2026-06-05 01:31:15, 2026-06-05 01:46:25, 2026-06-05 02:01:59, 2026-06-05 02:16:23, 2026-06-05 02:46:42, 2026-06-05 03:01:26, 2026-06-05 03:17:32, 2026-06-05 03:31:20, 2026-06-05 03:46:41, 2026-06-05 04:01:28, 2026-06-05 04:16:42", "cumulative_total": 66.0 }, "geometry": { "type": "Polygon", "coordinates": [ [ [ -72.118118347694548, 45.559672580838424 ], [ -72.124384389628787, 45.562429055850359 ], [ -72.124119349034046, 45.56761924959892 ], [ -72.117587090938628, 45.570052910232896 ], [ -72.111320570003059, 45.567296052583011 ], [ -72.111586786139881, 45.562105917001254 ], [ -72.118118347694548, 45.559672580838424 ] ] ] } },
{ "type": "Feature", "properties": { "hex_id": 698443, "centroid_lon": -72.281164706209879, "centroid_lat": 45.233664693873585, "occurrences_today": 10, "datetimes_today": "2026-06-05 00:01:39, 2026-06-05 00:16:26, 2026-06-05 00:31:21, 2026-06-05 00:46:17, 2026-06-05 01:01:29, 2026-06-05 01:16:35, 2026-06-05 01:31:15, 2026-06-05 01:46:25, 2026-06-05 02:01:59, 2026-06-05 02:16:23", "cumulative_total": 49.0 }, "geometry": { "type": "Polygon", "coordinates": [ [ [ -72.281412385263224, 45.228473499307327 ], [ -72.287650998207667, 45.231220484134305 ], [ -72.287403863446798, 45.236411703050692 ], [ -72.280916959791142, 45.238855882637004 ], [ -72.274677869930812, 45.236108520810916 ], [ -72.274926160619628, 45.230917356461113 ], [ -72.281412385263224, 45.228473499307327 ] ] ] } },
{ "type": "Feature", "properties": { "hex_id": 685224, "centroid_lon": -72.257788028317037, "centroid_lat": 48.537716928937016, "occurrences_today": 23, "datetimes_today": "2026-06-05 00:01:39, 2026-06-05 00:16:26, 2026-06-05 00:31:21, 2026-06-05 00:46:17, 2026-06-05 01:01:29, 2026-06-05 01:16:35, 2026-06-05 01:31:15, 2026-06-05 01:46:25, 2026-06-05 02:01:59, 2026-06-05 02:16:23, 2026-06-05 02:46:42, 2026-06-05 03:01:26, 2026-06-05 03:17:32, 2026-06-05 03:31:20, 2026-06-05 03:46:41, 2026-06-05 04:01:28, 2026-06-05 04:16:42, 2026-06-05 04:31:25, 2026-06-05 04:46:22, 2026-06-05 05:01:21, 2026-06-05 05:16:32, 2026-06-05 05:31:27, 2026-06-05 05:46:29", "cumulative_total": 54.0 }, "geometry": { "type": "Polygon", "coordinates": [ [ [ -72.258068405830784, 48.532528840998694 ], [ -72.264693650239238, 48.535283944177365 ], [ -72.264413922616271, 48.540472058358382 ], [ -72.25750757106178, 48.54290501096169 ], [ -72.250881756518581, 48.540149485783616 ], [ -72.251162863635585, 48.534961430073373 ], [ -72.258068405830784, 48.532528840998694 ] ] ] } },
{ "type": "Feature", "properties": { "hex_id": 686445, "centroid_lon": -72.244256671774139, "centroid_lat": 48.537393591209351, "occurrences_today": 23, "datetimes_today": "2026-06-05 00:01:39, 2026-06-05 00:16:26, 2026-06-05 00:31:21, 2026-06-05 00:46:17, 2026-06-05 01:01:29, 2026-06-05 01:16:35, 2026-06-05 01:31:15, 2026-06-05 01:46:25, 2026-06-05 02:01:59, 2026-06-05 02:16:23, 2026-06-05 02:46:42, 2026-06-05 03:01:26, 2026-06-05 03:17:32, 2026-06-05 03:31:20, 2026-06-05 03:46:41, 2026-06-05 04:01:28, 2026-06-05 04:16:42, 2026-06-05 04:31:25, 2026-06-05 04:46:22, 2026-06-05 05:01:21, 2026-06-05 05:16:32, 2026-06-05 05:31:27, 2026-06-05 05:46:29", "cumulative_total": 54.0 }, "geometry": { "type": "Polygon", "coordinates": [ [ [ -72.24453842854291, 48.532205561879472 ], [ -72.251162863635585, 48.534961430073373 ], [ -72.250881756518581, 48.540149485783616 ], [ -72.243974834872873, 48.542581614613646 ], [ -72.237349830275477, 48.539825324303052 ], [ -72.237632316799377, 48.53463732735085 ], [ -72.24453842854291, 48.532205561879472 ] ] ] } },
{ "type": "Feature", "properties": { "hex_id": 1112600, "centroid_lon": -67.485157470759589, "centroid_lat": 48.729898742398213, "occurrences_today": 15, "datetimes_today": "2026-06-05 00:01:39, 2026-06-05 00:16:26, 2026-06-05 00:31:21, 2026-06-05 00:46:17, 2026-06-05 01:01:29, 2026-06-05 01:16:35, 2026-06-05 01:31:15, 2026-06-05 01:46:25, 2026-06-05 02:01:59, 2026-06-05 02:16:23, 2026-06-05 02:46:42, 2026-06-05 03:01:26, 2026-06-05 03:17:32, 2026-06-05 03:31:20, 2026-06-05 03:46:41", "cumulative_total": 20.0 }, "geometry": { "type": "Polygon", "coordinates": [ [ [ -67.485929117581819, 48.724749535962928 ], [ -67.492283871188235, 48.727766054978638 ], [ -67.491512791483245, 48.732915334119625 ], [ -67.484385605467423, 48.735047935070661 ], [ -67.478030503253123, 48.732030955376324 ], [ -67.478802935583644, 48.726881835477819 ], [ -67.485929117581819, 48.724749535962928 ] ] ] } },
{ "type": "Feature", "properties": { "hex_id": 687058, "centroid_lon": -72.235370173379991, "centroid_lat": 48.576141136861068, "occurrences_today": 16, "datetimes_today": "2026-06-05 00:46:17, 2026-06-05 01:01:29, 2026-06-05 01:16:35, 2026-06-05 01:31:15, 2026-06-05 01:46:25, 2026-06-05 02:01:59, 2026-06-05 02:16:23, 2026-06-05 02:46:42, 2026-06-05 03:01:26, 2026-06-05 03:17:32, 2026-06-05 03:31:20, 2026-06-05 03:46:41, 2026-06-05 04:01:28, 2026-06-05 04:16:42, 2026-06-05 04:31:25, 2026-06-05 04:46:22", "cumulative_total": 16.0 }, "geometry": { "type": "Polygon", "coordinates": [ [ [ -72.235653222915658, 48.570953181438256 ], [ -72.242282129050679, 48.573709630583181 ], [ -72.24199973040551, 48.578897612498672 ], [ -72.235087043296971, 48.581329086349655 ], [ -72.228457566833427, 48.578572214447618 ], [ -72.228741347777628, 48.573384291523539 ], [ -72.235653222915658, 48.570953181438256 ] ] ] } },
{ "type": "Feature", "properties": { "hex_id": 681586, "centroid_lon": -72.277439639741075, "centroid_lat": 48.927780284765134, "occurrences_today": 11, "datetimes_today": "2026-06-05 01:16:35, 2026-06-05 01:31:15, 2026-06-05 01:46:25, 2026-06-05 02:01:59, 2026-06-05 02:16:23, 2026-06-05 02:46:42, 2026-06-05 03:01:26, 2026-06-05 03:17:32, 2026-06-05 03:31:20, 2026-06-05 03:46:41, 2026-06-05 04:01:28", "cumulative_total": 11.0 }, "geometry": { "type": "Polygon", "coordinates": [ [ [ -72.277721851852704, 48.922592464551755 ], [ -72.284398823930204, 48.925347224701326 ], [ -72.284117276202466, 48.930535071175498 ], [ -72.277157346878013, 48.932968099074373 ], [ -72.270479791182893, 48.930212911423794 ], [ -72.270762748400188, 48.925025123448187 ], [ -72.277721851852704, 48.922592464551755 ] ] ] } },
{ "type": "Feature", "properties": { "hex_id": 682198, "centroid_lon": -72.269347152343471, "centroid_lat": 48.950964004219124, "occurrences_today": 11, "datetimes_today": "2026-06-05 01:16:35, 2026-06-05 01:31:15, 2026-06-05 01:46:25, 2026-06-05 02:01:59, 2026-06-05 02:16:23, 2026-06-05 02:46:42, 2026-06-05 03:01:26, 2026-06-05 03:17:32, 2026-06-05 03:31:20, 2026-06-05 03:46:41, 2026-06-05 04:01:28", "cumulative_total": 11.0 }, "geometry": { "type": "Polygon", "coordinates": [ [ [ -72.269630433608398, 48.945776239887053 ], [ -72.276309983483387, 48.948531506573666 ], [ -72.27602736731771, 48.953719297262815 ], [ -72.26906378999216, 48.956151762639472 ], [ -72.262383656119198, 48.953396068037847 ], [ -72.262667683539931, 48.948208336047507 ], [ -72.269630433608398, 48.945776239887053 ] ] ] } }
]
}
