{
"type": "FeatureCollection",
"name": "daily_2025-11-23",
"crs": { "type": "name", "properties": { "name": "urn:ogc:def:crs:OGC:1.3:CRS84" } },
"features": [
{ "type": "Feature", "properties": { "hex_id": 2003, "count": 7, "date": "2025-11-23", "n_files": 22, "pct": 31.82 }, "geometry": { "type": "Polygon", "coordinates": [ [ [ -73.9912511, 45.9712144 ], [ -73.9907791, 45.9971922 ], [ -74.0228303, 46.0104617 ], [ -74.0553393, 45.9977441 ], [ -74.0557811, 45.9717658 ], [ -74.023744, 45.9585056 ], [ -73.9912511, 45.9712144 ] ] ] } },
{ "type": "Feature", "properties": { "hex_id": 2509, "count": 7, "date": "2025-11-23", "n_files": 22, "pct": 31.82 }, "geometry": { "type": "Polygon", "coordinates": [ [ [ -73.743682, 45.5010646 ], [ -73.7431038, 45.5270423 ], [ -73.7748289, 45.540379 ], [ -73.8071187, 45.5277288 ], [ -73.8076675, 45.5017505 ], [ -73.7759559, 45.488423 ], [ -73.743682, 45.5010646 ] ] ] } },
{ "type": "Feature", "properties": { "hex_id": 2577, "count": 7, "date": "2025-11-23", "n_files": 22, "pct": 31.82 }, "geometry": { "type": "Polygon", "coordinates": [ [ [ -73.7036165, 45.8513925 ], [ -73.7030125, 45.8773682 ], [ -73.7349249, 45.8907173 ], [ -73.7674275, 45.8780813 ], [ -73.7680015, 45.852105 ], [ -73.7361029, 45.8387652 ], [ -73.7036165, 45.8513925 ] ] ] } },
{ "type": "Feature", "properties": { "hex_id": 2893, "count": 2, "date": "2025-11-23", "n_files": 22, "pct": 9.09 }, "geometry": { "type": "Polygon", "coordinates": [ [ [ -73.5517402, 45.4987919 ], [ -73.5510737, 45.5247676 ], [ -73.5827509, 45.5381571 ], [ -73.6150812, 45.5255617 ], [ -73.6157183, 45.4995853 ], [ -73.5840545, 45.486205 ], [ -73.5517402, 45.4987919 ] ] ] } },
{ "type": "Feature", "properties": { "hex_id": 3023, "count": 1, "date": "2025-11-23", "n_files": 22, "pct": 4.55 }, "geometry": { "type": "Polygon", "coordinates": [ [ [ -73.4835751, 45.6538103 ], [ -73.4828734, 45.6797845 ], [ -73.5146203, 45.6931934 ], [ -73.5470555, 45.6806189 ], [ -73.5477275, 45.654644 ], [ -73.515994, 45.6412444 ], [ -73.4835751, 45.6538103 ] ] ] } },
{ "type": "Feature", "properties": { "hex_id": 3156, "count": 4, "date": "2025-11-23", "n_files": 22, "pct": 18.18 }, "geometry": { "type": "Polygon", "coordinates": [ [ [ -73.40835, 46.0425278 ], [ -73.4076035, 46.0684993 ], [ -73.4395515, 46.0819309 ], [ -73.4722324, 46.0693816 ], [ -73.4729486, 46.0434094 ], [ -73.4410143, 46.0299872 ], [ -73.40835, 46.0425278 ] ] ] } },
{ "type": "Feature", "properties": { "hex_id": 3220, "count": 4, "date": "2025-11-23", "n_files": 22, "pct": 18.18 }, "geometry": { "type": "Polygon", "coordinates": [ [ [ -73.374909, 46.0810299 ], [ -73.3741458, 46.1070008 ], [ -73.4061074, 46.1204418 ], [ -73.4388186, 46.1079026 ], [ -73.4395515, 46.0819309 ], [ -73.4076035, 46.0684993 ], [ -73.374909, 46.0810299 ] ] ] } },
{ "type": "Feature", "properties": { "hex_id": 3284, "count": 4, "date": "2025-11-23", "n_files": 22, "pct": 18.18 }, "geometry": { "type": "Polygon", "coordinates": [ [ [ -73.3437545, 46.041609799999989 ], [ -73.3429778, 46.0675804 ], [ -73.374909, 46.0810299 ], [ -73.4076035, 46.0684993 ], [ -73.40835, 46.0425278 ], [ -73.3764323, 46.0290878 ], [ -73.3437545, 46.041609799999989 ] ] ] } },
{ "type": "Feature", "properties": { "hex_id": 3348, "count": 4, "date": "2025-11-23", "n_files": 22, "pct": 18.18 }, "geometry": { "type": "Polygon", "coordinates": [ [ [ -73.3102697, 46.0800924 ], [ -73.3094762, 46.1060624 ], [ -73.341421, 46.1195213 ], [ -73.3741458, 46.1070008 ], [ -73.374909, 46.0810299 ], [ -73.3429778, 46.0675804 ], [ -73.3102697, 46.0800924 ] ] ] } },
{ "type": "Feature", "properties": { "hex_id": 3412, "count": 4, "date": "2025-11-23", "n_files": 22, "pct": 18.18 }, "geometry": { "type": "Polygon", "coordinates": [ [ [ -73.2791622, 46.0406553 ], [ -73.2783552, 46.0666251 ], [ -73.3102697, 46.0800924 ], [ -73.3429778, 46.0675804 ], [ -73.3437545, 46.041609799999989 ], [ -73.3118535, 46.028152 ], [ -73.2791622, 46.0406553 ] ] ] } },
{ "type": "Feature", "properties": { "hex_id": 3482, "count": 2, "date": "2025-11-23", "n_files": 22, "pct": 9.09 }, "geometry": { "type": "Polygon", "coordinates": [ [ [ -73.2306293, 46.5465428 ], [ -73.2297847, 46.5725096 ], [ -73.261979, 46.5859932 ], [ -73.295004, 46.5735005 ], [ -73.2958175, 46.5475328 ], [ -73.263637, 46.5340588 ], [ -73.2306293, 46.5465428 ] ] ] } },
{ "type": "Feature", "properties": { "hex_id": 3546, "count": 2, "date": "2025-11-23", "n_files": 22, "pct": 9.09 }, "geometry": { "type": "Polygon", "coordinates": [ [ [ -73.1993244, 46.5070841 ], [ -73.1984661, 46.5330506 ], [ -73.2306293, 46.5465428 ], [ -73.263637, 46.5340588 ], [ -73.2644643, 46.5080913 ], [ -73.2323149, 46.494608799999988 ], [ -73.1993244, 46.5070841 ] ] ] } },
{ "type": "Feature", "properties": { "hex_id": 3609, "count": 2, "date": "2025-11-23", "n_files": 22, "pct": 9.09 }, "geometry": { "type": "Polygon", "coordinates": [ [ [ -73.1680642, 46.4676173 ], [ -73.1671922, 46.4935835 ], [ -73.1993244, 46.5070841 ], [ -73.2323149, 46.494608799999988 ], [ -73.2331559, 46.4686416 ], [ -73.2010374, 46.4551507 ], [ -73.1680642, 46.4676173 ] ] ] } },
{ "type": "Feature", "properties": { "hex_id": 3674, "count": 2, "date": "2025-11-23", "n_files": 22, "pct": 9.09 }, "geometry": { "type": "Polygon", "coordinates": [ [ [ -73.134188, 46.5060398 ], [ -73.1332987, 46.5320054 ], [ -73.1654446, 46.5455156 ], [ -73.1984661, 46.5330506 ], [ -73.1993244, 46.5070841 ], [ -73.1671922, 46.4935835 ], [ -73.134188, 46.5060398 ] ] ] } },
{ "type": "Feature", "properties": { "hex_id": 3737, "count": 2, "date": "2025-11-23", "n_files": 22, "pct": 9.09 }, "geometry": { "type": "Polygon", "coordinates": [ [ [ -73.102976, 46.4665559 ], [ -73.1020731, 46.4925212 ], [ -73.134188, 46.5060398 ], [ -73.1671922, 46.4935835 ], [ -73.1680642, 46.4676173 ], [ -73.1359629, 46.4541082 ], [ -73.102976, 46.4665559 ] ] ] } },
{ "type": "Feature", "properties": { "hex_id": 5067, "count": 2, "date": "2025-11-23", "n_files": 22, "pct": 9.09 }, "geometry": { "type": "Polygon", "coordinates": [ [ [ -72.4715907, 45.3240733 ], [ -72.4704344, 45.3500328 ], [ -72.501747, 45.3637149 ], [ -72.5342037, 45.3514281 ], [ -72.5353309, 45.3254674 ], [ -72.5040305, 45.3117947 ], [ -72.4715907, 45.3240733 ] ] ] } },
{ "type": "Feature", "properties": { "hex_id": 6411, "count": 3, "date": "2025-11-23", "n_files": 22, "pct": 13.64 }, "geometry": { "type": "Polygon", "coordinates": [ [ [ -71.8004331, 45.3462078 ], [ -71.798969, 45.3721519 ], [ -71.8301214, 45.3860141 ], [ -71.8627263, 45.3739227 ], [ -71.8641614, 45.347977 ], [ -71.8330205, 45.3341243 ], [ -71.8004331, 45.3462078 ] ] ] } },
{ "type": "Feature", "properties": { "hex_id": 6900, "count": 4, "date": "2025-11-23", "n_files": 22, "pct": 18.18 }, "geometry": { "type": "Polygon", "coordinates": [ [ [ -71.3704812, 48.490037099999988 ], [ -71.3686277, 48.5159553 ], [ -71.4014946, 48.529977 ], [ -71.4362016, 48.5180698 ], [ -71.4380207, 48.4921497 ], [ -71.4051671, 48.4781387 ], [ -71.3704812, 48.490037099999988 ] ] ] } },
{ "type": "Feature", "properties": { "hex_id": 6963, "count": 4, "date": "2025-11-23", "n_files": 22, "pct": 18.18 }, "geometry": { "type": "Polygon", "coordinates": [ [ [ -71.3395153, 48.4500899 ], [ -71.3376487, 48.4760073 ], [ -71.3704812, 48.490037099999988 ], [ -71.4051671, 48.4781387 ], [ -71.4069995, 48.4522193 ], [ -71.3741802, 48.4382003 ], [ -71.3395153, 48.4500899 ] ] ] } },
{ "type": "Feature", "properties": { "hex_id": 7391, "count": 8, "date": "2025-11-23", "n_files": 22, "pct": 36.36 }, "geometry": { "type": "Polygon", "coordinates": [ [ [ -71.2203222, 46.8484954 ], [ -71.2185, 46.8744166 ], [ -71.2503321, 46.8884559 ], [ -71.2839745, 46.8765638 ], [ -71.2857653, 46.8506406 ], [ -71.2539452, 46.8366115 ], [ -71.2203222, 46.8484954 ] ] ] } },
{ "type": "Feature", "properties": { "hex_id": 7862, "count": 6, "date": "2025-11-23", "n_files": 22, "pct": 27.27 }, "geometry": { "type": "Polygon", "coordinates": [ [ [ -70.8482956, 48.6671981 ], [ -70.8461627, 48.6930994 ], [ -70.8789872, 48.7072693 ], [ -70.9139318, 48.695527 ], [ -70.9160301, 48.6696235 ], [ -70.8832184, 48.6554645 ], [ -70.8482956, 48.6671981 ] ] ] } },
{ "type": "Feature", "properties": { "hex_id": 7927, "count": 6, "date": "2025-11-23", "n_files": 22, "pct": 27.27 }, "geometry": { "type": "Polygon", "coordinates": [ [ [ -70.8112054, 48.7048207 ], [ -70.8090506, 48.7307206 ], [ -70.8418878, 48.7449014 ], [ -70.876867, 48.7331714 ], [ -70.8789872, 48.7072693 ], [ -70.8461627, 48.6930994 ], [ -70.8112054, 48.7048207 ] ] ] } },
{ "type": "Feature", "properties": { "hex_id": 7990, "count": 6, "date": "2025-11-23", "n_files": 22, "pct": 27.27 }, "geometry": { "type": "Polygon", "coordinates": [ [ [ -70.7805702, 48.664733 ], [ -70.7784028, 48.6906321 ], [ -70.8112054, 48.7048207 ], [ -70.8461627, 48.6930994 ], [ -70.8482956, 48.6671981 ], [ -70.8155057, 48.6530204 ], [ -70.7805702, 48.664733 ] ] ] } }
]
}
