{
"type": "FeatureCollection",
"name": "daily_2026-04-08",
"crs": { "type": "name", "properties": { "name": "urn:ogc:def:crs:OGC:1.3:CRS84" } },
"features": [
{ "type": "Feature", "properties": { "hex_id": 548886, "centroid_lon": -73.836309155430286, "centroid_lat": 45.50176600906358, "occurrences_today": 4, "datetimes_today": "2026-04-08 07:46:33, 2026-04-08 08:01:18, 2026-04-08 08:16:50, 2026-04-08 08:32:02", "cumulative_total": 103.0 }, "geometry": { "type": "Polygon", "coordinates": [ [ [ -73.8364161924721, 45.496570273658726 ], [ -73.842761124865575, 45.49923315094739 ], [ -73.842654661528371, 45.504428895594543 ], [ -73.836202089155961, 45.506961739524897 ], [ -73.829856612295274, 45.504298495839635 ], [ -73.829964252264404, 45.499102774685149 ], [ -73.8364161924721, 45.496570273658726 ] ] ] } },
{ "type": "Feature", "properties": { "hex_id": 594676, "centroid_lon": -73.355339696509674, "centroid_lat": 45.534828711737944, "occurrences_today": 4, "datetimes_today": "2026-04-08 07:46:33, 2026-04-08 08:01:18, 2026-04-08 08:16:50, 2026-04-08 08:32:02", "cumulative_total": 267.0 }, "geometry": { "type": "Polygon", "coordinates": [ [ [ -73.355491137521824, 45.529634077183168 ], [ -73.361816302809217, 45.532323392529044 ], [ -73.361665429974465, 45.537518041088717 ], [ -73.355188214130081, 45.540023341154523 ], [ -73.348862522039695, 45.53733365450627 ], [ -73.349014572582789, 45.532139039159127 ], [ -73.355491137521824, 45.529634077183168 ] ] ] } },
{ "type": "Feature", "properties": { "hex_id": 595287, "centroid_lon": -73.3487104299615, "centroid_lat": 45.542528264712125, "occurrences_today": 4, "datetimes_today": "2026-04-08 07:46:33, 2026-04-08 08:01:18, 2026-04-08 08:16:50, 2026-04-08 08:32:02", "cumulative_total": 179.0 }, "geometry": { "type": "Polygon", "coordinates": [ [ [ -73.348862522039695, 45.53733365450627 ], [ -73.355188214130081, 45.540023341154523 ], [ -73.355036690369118, 45.545217965432769 ], [ -73.348558296334289, 45.547722869776564 ], [ -73.342232077482677, 45.545032811667006 ], [ -73.342384779413166, 45.539838220739483 ], [ -73.348862522039695, 45.53733365450627 ] ] ] } },
{ "type": "Feature", "properties": { "hex_id": 580642, "centroid_lon": -73.499461672302445, "centroid_lat": 45.653740266372743, "occurrences_today": 1, "datetimes_today": "2026-04-08 08:32:02", "cumulative_total": 87.0 }, "geometry": { "type": "Polygon", "coordinates": [ [ [ -73.499600419516426, 45.648545381113323 ], [ -73.505945904944227, 45.651226914856906 ], [ -73.505807731471762, 45.656421812731026 ], [ -73.499322887131086, 45.65893514655842 ], [ -73.492976865925542, 45.656253241330326 ], [ -73.493116224825627, 45.651058373824149 ], [ -73.499600419516426, 45.648545381113323 ] ] ] } },
{ "type": "Feature", "properties": { "hex_id": 581863, "centroid_lon": -73.486631456568077, "centroid_lat": 45.653570989949245, "occurrences_today": 1, "datetimes_today": "2026-04-08 08:32:02", "cumulative_total": 55.0 }, "geometry": { "type": "Polygon", "coordinates": [ [ [ -73.48677138902849, 45.648376135184641 ], [ -73.493116224825627, 45.651058373824149 ], [ -73.492976865925542, 45.656253241330326 ], [ -73.486491485826321, 45.658765839634526 ], [ -73.480146114756622, 45.656083229393438 ], [ -73.480286659045817, 45.650888392514531 ], [ -73.48677138902849, 45.648376135184641 ] ] ] } },
{ "type": "Feature", "properties": { "hex_id": 573920, "centroid_lon": -73.57260179789715, "centroid_lat": 45.55334118583702, "occurrences_today": 3, "datetimes_today": "2026-04-08 08:01:18, 2026-04-08 08:16:50, 2026-04-08 08:32:02", "cumulative_total": 60.0 }, "geometry": { "type": "Polygon", "coordinates": [ [ [ -73.572733322587496, 45.548146039154012 ], [ -73.579071196399056, 45.550823461507107 ], [ -73.578940243412958, 45.556018620055909 ], [ -73.572470237267979, 45.558536327477874 ], [ -73.566131827697021, 45.555858535598688 ], [ -73.566263960018389, 45.550663405888223 ], [ -73.572733322587496, 45.548146039154012 ] ] ] } },
{ "type": "Feature", "properties": { "hex_id": 575141, "centroid_lon": -73.559794025918066, "centroid_lat": 45.55318039802652, "occurrences_today": 3, "datetimes_today": "2026-04-08 08:01:18, 2026-04-08 08:16:50, 2026-04-08 08:32:02", "cumulative_total": 140.0 }, "geometry": { "type": "Polygon", "coordinates": [ [ [ -73.55992672976457, 45.547985280308424 ], [ -73.566263960018389, 45.550663405888223 ], [ -73.566131827697021, 45.555858535598688 ], [ -73.55966128581079, 45.558375510697175 ], [ -73.55332352029869, 45.55569701547401 ], [ -73.553456831918936, 45.550501914860313 ], [ -73.55992672976457, 45.547985280308424 ] ] ] } },
{ "type": "Feature", "properties": { "hex_id": 585518, "centroid_lon": -73.45157440998986, "centroid_lat": 45.528378830727107, "occurrences_today": 2, "datetimes_today": "2026-04-08 00:31:45, 2026-04-08 00:46:33", "cumulative_total": 334.0 }, "geometry": { "type": "Polygon", "coordinates": [ [ [ -73.451716959833988, 45.523183946720621 ], [ -73.458046138034305, 45.525867985084204 ], [ -73.457904157492777, 45.531062882145321 ], [ -73.451431821208175, 45.533573709639747 ], [ -73.445102112649337, 45.530889300943329 ], [ -73.445245270720562, 45.525694435149816 ], [ -73.451716959833988, 45.523183946720621 ] ] ] } },
{ "type": "Feature", "properties": { "hex_id": 612397, "centroid_lon": -73.161320477220499, "centroid_lat": 45.789107286158817, "occurrences_today": 14, "datetimes_today": "2026-04-08 00:31:45, 2026-04-08 00:46:33, 2026-04-08 01:13:10, 2026-04-08 01:31:32, 2026-04-08 01:51:18, 2026-04-08 02:16:45, 2026-04-08 02:31:32, 2026-04-08 02:55:25, 2026-04-08 03:16:47, 2026-04-08 03:46:33, 2026-04-08 04:17:27, 2026-04-08 04:31:33, 2026-04-08 04:46:37, 2026-04-08 05:02:25", "cumulative_total": 274.0 }, "geometry": { "type": "Polygon", "coordinates": [ [ [ -73.161491285015032, 45.783913419392995 ], [ -73.16783514560197, 45.786613663031403 ], [ -73.167664910962586, 45.791807545791002 ], [ -73.161149622628074, 45.794301147685999 ], [ -73.15480523569174, 45.791600527714266 ], [ -73.154976663423511, 45.786406682245911 ], [ -73.161491285015032, 45.783913419392995 ] ] ] } },
{ "type": "Feature", "properties": { "hex_id": 613007, "centroid_lon": -73.155148044202164, "centroid_lat": 45.781212831535541, "occurrences_today": 14, "datetimes_today": "2026-04-08 00:31:45, 2026-04-08 00:46:33, 2026-04-08 01:13:10, 2026-04-08 01:31:32, 2026-04-08 01:51:18, 2026-04-08 02:16:45, 2026-04-08 02:31:32, 2026-04-08 02:55:25, 2026-04-08 03:16:47, 2026-04-08 03:46:33, 2026-04-08 04:17:27, 2026-04-08 04:31:33, 2026-04-08 04:46:37, 2026-04-08 05:02:25", "cumulative_total": 173.0 }, "geometry": { "type": "Polygon", "coordinates": [ [ [ -73.155319378043558, 45.776018975583291 ], [ -73.16166204602753, 45.778719547388675 ], [ -73.161491285015032, 45.783913419392995 ], [ -73.154976663423511, 45.786406682245911 ], [ -73.148633469555847, 45.783705734152505 ], [ -73.148805423147536, 45.778511899559241 ], [ -73.155319378043558, 45.776018975583291 ] ] ] } },
{ "type": "Feature", "properties": { "hex_id": 613618, "centroid_lon": -73.148461468855828, "centroid_lat": 45.788899563500372, "occurrences_today": 14, "datetimes_today": "2026-04-08 00:31:45, 2026-04-08 00:46:33, 2026-04-08 01:13:10, 2026-04-08 01:31:32, 2026-04-08 01:51:18, 2026-04-08 02:16:45, 2026-04-08 02:31:32, 2026-04-08 02:55:25, 2026-04-08 03:16:47, 2026-04-08 03:46:33, 2026-04-08 04:17:27, 2026-04-08 04:31:33, 2026-04-08 04:46:37, 2026-04-08 05:02:25", "cumulative_total": 137.0 }, "geometry": { "type": "Polygon", "coordinates": [ [ [ -73.148633469555847, 45.783705734152505 ], [ -73.154976663423511, 45.786406682245911 ], [ -73.15480523569174, 45.791600527714266 ], [ -73.148289421031592, 45.7940933876027 ], [ -73.141945701327884, 45.791392063061366 ], [ -73.142118322104437, 45.786198255144541 ], [ -73.148633469555847, 45.783705734152505 ] ] ] } },
{ "type": "Feature", "properties": { "hex_id": 746155, "centroid_lon": -71.700166534315784, "centroid_lat": 46.668215960259836, "occurrences_today": 2, "datetimes_today": "2026-04-08 08:16:50, 2026-04-08 08:32:02", "cumulative_total": 29.0 }, "geometry": { "type": "Polygon", "coordinates": [ [ [ -71.700482504209148, 46.663028843204216 ], [ -71.706849780343234, 46.665810598159688 ], [ -71.706534388901005, 46.670997745937726 ], [ -71.699850476972472, 46.673403070944119 ], [ -71.69348270985229, 46.670620915250183 ], [ -71.693799345616526, 46.665433835354897 ], [ -71.700482504209148, 46.663028843204216 ] ] ] } },
{ "type": "Feature", "properties": { "hex_id": 580011, "centroid_lon": -73.514303505593844, "centroid_lat": 45.334328559053866, "occurrences_today": 3, "datetimes_today": "2026-04-08 07:16:36, 2026-04-08 07:31:25, 2026-04-08 08:32:02", "cumulative_total": 11.0 }, "geometry": { "type": "Polygon", "coordinates": [ [ [ -73.514439359981651, 45.329133346964447 ], [ -73.520750176431505, 45.331813761488064 ], [ -73.520614886401518, 45.337008985963458 ], [ -73.514167614182284, 45.33952376607828 ], [ -73.507856270404559, 45.33684298425792 ], [ -73.507992726161561, 45.331647789683593 ], [ -73.514439359981651, 45.329133346964447 ] ] ] } },
{ "type": "Feature", "properties": { "hex_id": 565976, "centroid_lon": -73.658633570047556, "centroid_lat": 45.437455207449233, "occurrences_today": 7, "datetimes_today": "2026-04-08 06:31:22, 2026-04-08 06:46:55, 2026-04-08 07:01:18, 2026-04-08 07:16:36, 2026-04-08 07:31:25, 2026-04-08 07:46:33, 2026-04-08 08:01:18", "cumulative_total": 80.0 }, "geometry": { "type": "Polygon", "coordinates": [ [ [ -73.658756670817525, 45.432259766113376 ], [ -73.665085867927473, 45.434932366155294 ], [ -73.664963336539998, 45.440127818478786 ], [ -73.65851043568621, 45.44265064377786 ], [ -73.652180702790801, 45.439977676480559 ], [ -73.652304406523371, 45.434782251203934 ], [ -73.658756670817525, 45.432259766113376 ] ] ] } },
{ "type": "Feature", "properties": { "hex_id": 782185, "centroid_lon": -71.304120911963054, "centroid_lat": 46.819778056178563, "occurrences_today": 4, "datetimes_today": "2026-04-08 00:31:45, 2026-04-08 00:46:33, 2026-04-08 01:13:10, 2026-04-08 01:31:32", "cumulative_total": 137.0 }, "geometry": { "type": "Polygon", "coordinates": [ [ [ -71.304476632182315, 46.814593271139238 ], [ -71.310839582213205, 46.817396959442704 ], [ -71.310484438860371, 46.822581779149829 ], [ -71.303765093134288, 46.82496283442277 ], [ -71.297401664863543, 46.822158740038979 ], [ -71.297758060524558, 46.816973996529271 ], [ -71.304476632182315, 46.814593271139238 ] ] ] } },
{ "type": "Feature", "properties": { "hex_id": 567200, "centroid_lon": -73.644731589212739, "centroid_lat": 45.484062865911191, "occurrences_today": 3, "datetimes_today": "2026-04-08 08:01:18, 2026-04-08 08:16:50, 2026-04-08 08:32:02", "cumulative_total": 444.0 }, "geometry": { "type": "Polygon", "coordinates": [ [ [ -73.644856167759627, 45.478867496860872 ], [ -73.651189856732543, 45.481540898336519 ], [ -73.651065848780647, 45.48673627852272 ], [ -73.644606976652412, 45.489258229948611 ], [ -73.638272751103656, 45.486584460498399 ], [ -73.638397934247578, 45.481389107661329 ], [ -73.644856167759627, 45.478867496860872 ] ] ] } },
{ "type": "Feature", "properties": { "hex_id": 568421, "centroid_lon": -73.631939130312219, "centroid_lat": 45.483910345446489, "occurrences_today": 3, "datetimes_today": "2026-04-08 08:01:18, 2026-04-08 08:16:50, 2026-04-08 08:32:02", "cumulative_total": 157.0 }, "geometry": { "type": "Polygon", "coordinates": [ [ [ -73.63206488387371, 45.478715003871748 ], [ -73.638397934247578, 45.481389107661329 ], [ -73.638272751103656, 45.486584460498399 ], [ -73.63181334241672, 45.489105682003341 ], [ -73.62547975596506, 45.486431210121559 ], [ -73.625606114266603, 45.48123588489149 ], [ -73.63206488387371, 45.478715003871748 ] ] ] } },
{ "type": "Feature", "properties": { "hex_id": 574534, "centroid_lon": -73.564808516657095, "centroid_lat": 45.607809555222303, "occurrences_today": 5, "datetimes_today": "2026-04-08 01:51:18, 2026-04-08 02:16:45, 2026-04-08 02:31:32, 2026-04-08 02:55:25, 2026-04-08 03:16:47", "cumulative_total": 73.0 }, "geometry": { "type": "Polygon", "coordinates": [ [ [ -73.564941010583766, 45.602614475964224 ], [ -73.571284572363425, 45.605292375333832 ], [ -73.571152651680791, 45.610487466548314 ], [ -73.564675986502962, 45.613004629434656 ], [ -73.558331887712825, 45.610326359774035 ], [ -73.558464991098802, 45.605131297582794 ], [ -73.564941010583766, 45.602614475964224 ] ] ] } },
{ "type": "Feature", "properties": { "hex_id": 549496, "centroid_lon": -73.830071862845401, "centroid_lat": 45.493907048585001, "occurrences_today": 4, "datetimes_today": "2026-04-08 07:46:33, 2026-04-08 08:01:18, 2026-04-08 08:16:50, 2026-04-08 08:32:02", "cumulative_total": 205.0 }, "geometry": { "type": "Polygon", "coordinates": [ [ [ -73.830179444048142, 45.48871131753927 ], [ -73.836523200291239, 45.491374533310413 ], [ -73.8364161924721, 45.496570273658726 ], [ -73.829964252264404, 45.499102774685149 ], [ -73.823619952020906, 45.496439192557688 ], [ -73.823728135975642, 45.491243475824646 ], [ -73.830179444048142, 45.48871131753927 ] ] ] } },
{ "type": "Feature", "properties": { "hex_id": 583684, "centroid_lon": -73.471831666614406, "centroid_lat": 45.48967546217569, "occurrences_today": 1, "datetimes_today": "2026-04-08 08:32:02", "cumulative_total": 100.0 }, "geometry": { "type": "Polygon", "coordinates": [ [ [ -73.471972162354874, 45.484480493425416 ], [ -73.478298043531183, 45.487163383202933 ], [ -73.478158116208334, 45.492358364797752 ], [ -73.471691132514962, 45.49487042584137 ], [ -73.465364721286434, 45.492187166409764 ], [ -73.465505823790636, 45.486992215653046 ], [ -73.471972162354874, 45.484480493425416 ] ] ] } },
{ "type": "Feature", "properties": { "hex_id": 570252, "centroid_lon": -73.612941896366664, "centroid_lat": 45.475885927666702, "occurrences_today": 6, "datetimes_today": "2026-04-08 00:31:45, 2026-04-08 00:46:33, 2026-04-08 01:13:10, 2026-04-08 01:31:32, 2026-04-08 01:51:18, 2026-04-08 02:16:45", "cumulative_total": 281.0 }, "geometry": { "type": "Polygon", "coordinates": [ [ [ -73.613069360184824, 45.4706906202507 ], [ -73.619400596853893, 45.473365760067843 ], [ -73.619273702955297, 45.478561078932024 ], [ -73.61281439775118, 45.481081230057342 ], [ -73.606482625965725, 45.478405722072168 ], [ -73.606610694489092, 45.473210431194154 ], [ -73.613069360184824, 45.4706906202507 ] ] ] } },
{ "type": "Feature", "properties": { "hex_id": 787069, "centroid_lon": -71.251794698261065, "centroid_lat": 46.818074114554761, "occurrences_today": 15, "datetimes_today": "2026-04-08 00:31:45, 2026-04-08 00:46:33, 2026-04-08 01:13:10, 2026-04-08 01:31:32, 2026-04-08 01:51:18, 2026-04-08 02:16:45, 2026-04-08 02:31:32, 2026-04-08 02:55:25, 2026-04-08 03:16:47, 2026-04-08 03:46:33, 2026-04-08 04:17:27, 2026-04-08 04:31:33, 2026-04-08 04:46:37, 2026-04-08 05:02:25, 2026-04-08 05:27:19", "cumulative_total": 62.0 }, "geometry": { "type": "Polygon", "coordinates": [ [ [ -71.252155426199323, 46.812889636416621 ], [ -71.258515277366598, 46.815696155328638 ], [ -71.258155125398588, 46.820880668640513 ], [ -71.251433870333358, 46.823258585839348 ], [ -71.245073543202594, 46.820451660442821 ], [ -71.245434947065917, 46.815267224398646 ], [ -71.252155426199323, 46.812889636416621 ] ] ] } },
{ "type": "Feature", "properties": { "hex_id": 571477, "centroid_lon": -73.598605057310706, "centroid_lat": 45.53807282815665, "occurrences_today": 3, "datetimes_today": "2026-04-08 07:31:25, 2026-04-08 07:46:33, 2026-04-08 08:01:18", "cumulative_total": 115.0 }, "geometry": { "type": "Polygon", "coordinates": [ [ [ -73.598734117766739, 45.532877609224492 ], [ -73.605071562043435, 45.535553589866872 ], [ -73.604943073184458, 45.540748820403948 ], [ -73.598475961595298, 45.543268042057356 ], [ -73.592137980986863, 45.540591692325208 ], [ -73.592267648287475, 45.535396490093994 ], [ -73.598734117766739, 45.532877609224492 ] ] ] } },
{ "type": "Feature", "properties": { "hex_id": 572698, "centroid_lon": -73.585800607383803, "centroid_lat": 45.537914996814479, "occurrences_today": 4, "datetimes_today": "2026-04-08 06:16:44, 2026-04-08 06:31:22, 2026-04-08 06:46:55, 2026-04-08 07:01:18", "cumulative_total": 69.0 }, "geometry": { "type": "Polygon", "coordinates": [ [ [ -73.585930846102869, 45.532719806314745 ], [ -73.592267648287475, 45.535396490093994 ], [ -73.592137980986863, 45.540591692325208 ], [ -73.585670333083741, 45.543110182277566 ], [ -73.579332995067688, 45.540433129291102 ], [ -73.579463840774253, 45.535237955624083 ], [ -73.585930846102869, 45.532719806314745 ] ] ] } },
{ "type": "Feature", "properties": { "hex_id": 782174, "centroid_lon": -71.315807817040579, "centroid_lat": 46.648676566323722, "occurrences_today": 4, "datetimes_today": "2026-04-08 07:46:33, 2026-04-08 08:01:18, 2026-04-08 08:16:50, 2026-04-08 08:32:02", "cumulative_total": 31.0 }, "geometry": { "type": "Polygon", "coordinates": [ [ [ -71.316160302212282, 46.6434915574443 ], [ -71.32250430255057, 46.646294105562262 ], [ -71.32215238914246, 46.651479148883347 ], [ -71.315455234378007, 46.65386156843141 ], [ -71.30911075978382, 46.651058616654694 ], [ -71.309463914176348, 46.645873649055005 ], [ -71.316160302212282, 46.6434915574443 ] ] ] } },
{ "type": "Feature", "properties": { "hex_id": 567807, "centroid_lon": -73.639647888334594, "centroid_lat": 45.429435303459861, "occurrences_today": 2, "datetimes_today": "2026-04-08 08:16:50, 2026-04-08 08:32:02", "cumulative_total": 25.0 }, "geometry": { "type": "Polygon", "coordinates": [ [ [ -73.639772696259527, 45.424239895458356 ], [ -73.646100084994842, 45.426913530666496 ], [ -73.645975845956158, 45.432108949841343 ], [ -73.639523046355933, 45.434630706446804 ], [ -73.633195122793779, 45.431956703907211 ], [ -73.633320533647279, 45.426761312157936 ], [ -73.639772696259527, 45.424239895458356 ] ] ] } },
{ "type": "Feature", "properties": { "hex_id": 568418, "centroid_lon": -73.63306967772111, "centroid_lat": 45.437152090639373, "occurrences_today": 2, "datetimes_today": "2026-04-08 08:16:50, 2026-04-08 08:32:02", "cumulative_total": 30.0 }, "geometry": { "type": "Polygon", "coordinates": [ [ [ -73.633195122793779, 45.431956703907211 ], [ -73.639523046355933, 45.434630706446804 ], [ -73.639398170312177, 45.439826104419105 ], [ -73.632944198417832, 45.442347472354356 ], [ -73.626615740063116, 45.43967310232437 ], [ -73.626741788383825, 45.434477731913866 ], [ -73.633195122793779, 45.431956703907211 ] ] ] } },
{ "type": "Feature", "properties": { "hex_id": 560491, "centroid_lon": -73.712782202415568, "centroid_lat": 45.586187683064658, "occurrences_today": 11, "datetimes_today": "2026-04-08 06:01:31, 2026-04-08 06:16:44, 2026-04-08 06:31:22, 2026-04-08 06:46:55, 2026-04-08 07:01:18, 2026-04-08 07:16:36, 2026-04-08 07:31:25, 2026-04-08 07:46:33, 2026-04-08 08:01:18, 2026-04-08 08:16:50, 2026-04-08 08:32:02", "cumulative_total": 241.0 }, "geometry": { "type": "Polygon", "coordinates": [ [ [ -73.712900948611974, 45.580992264750392 ], [ -73.71924931516665, 45.583662004930879 ], [ -73.719131143569101, 45.588857433730638 ], [ -73.712663423757235, 45.591383096391475 ], [ -73.706314515071099, 45.588712987580436 ], [ -73.706433868317362, 45.583517584803822 ], [ -73.712900948611974, 45.580992264750392 ] ] ] } },
{ "type": "Feature", "properties": { "hex_id": 571478, "centroid_lon": -73.598217664338975, "centroid_lat": 45.553658454763983, "occurrences_today": 5, "datetimes_today": "2026-04-08 07:31:25, 2026-04-08 07:46:33, 2026-04-08 08:01:18, 2026-04-08 08:16:50, 2026-04-08 08:32:02", "cumulative_total": 135.0 }, "geometry": { "type": "Polygon", "coordinates": [ [ [ -73.598346830608662, 45.548463250926488 ], [ -73.604685990141363, 45.551139266391189 ], [ -73.604557395933639, 45.556334481841219 ], [ -73.598088462774342, 45.558853653569749 ], [ -73.591748766480507, 45.55617726881389 ], [ -73.59187854009528, 45.550982081685241 ], [ -73.598346830608662, 45.548463250926488 ] ] ] } },
{ "type": "Feature", "properties": { "hex_id": 575755, "centroid_lon": -73.551988398543514, "centroid_lat": 45.607647743836957, "occurrences_today": 5, "datetimes_today": "2026-04-08 01:51:18, 2026-04-08 02:16:45, 2026-04-08 02:31:32, 2026-04-08 02:55:25, 2026-04-08 03:16:47", "cumulative_total": 24.0 }, "geometry": { "type": "Polygon", "coordinates": [ [ [ -73.552122074993676, 45.602452693728928 ], [ -73.558464991098802, 45.605131297582794 ], [ -73.558331887712825, 45.610326359774035 ], [ -73.55185468554285, 45.612842788893921 ], [ -73.545511232930195, 45.610163814631591 ], [ -73.545645518982752, 45.604968781722548 ], [ -73.552122074993676, 45.602452693728928 ] ] ] } },
{ "type": "Feature", "properties": { "hex_id": 466518, "centroid_lon": -74.696108267126718, "centroid_lat": 46.278962534114306, "occurrences_today": 2, "datetimes_today": "2026-04-08 08:16:50, 2026-04-08 08:32:02", "cumulative_total": 140.0 }, "geometry": { "type": "Polygon", "coordinates": [ [ [ -74.696136988872709, 46.273766508335846 ], [ -74.702612178608291, 46.276381585269903 ], [ -74.70258406634035, 46.281577611747132 ], [ -74.696079537458829, 46.284158555135377 ], [ -74.689603746168459, 46.281543110297108 ], [ -74.689633085311669, 46.276347090041263 ], [ -74.696136988872709, 46.273766508335846 ] ] ] } },
{ "type": "Feature", "properties": { "hex_id": 467739, "centroid_lon": -74.68312857244446, "centroid_lat": 46.27892729905281, "occurrences_today": 2, "datetimes_today": "2026-04-08 08:16:50, 2026-04-08 08:32:02", "cumulative_total": 120.0 }, "geometry": { "type": "Polygon", "coordinates": [ [ [ -74.683158520892491, 46.273731279627995 ], [ -74.689633085311669, 46.276347090041263 ], [ -74.689603746168459, 46.281543110297108 ], [ -74.683098615736228, 46.284123313719029 ], [ -74.67662345027388, 46.281507135271362 ], [ -74.67665401628409, 46.276311121502637 ], [ -74.683158520892491, 46.273731279627995 ] ] ] } },
{ "type": "Feature", "properties": { "hex_id": 860344, "centroid_lon": -70.447785566210683, "centroid_lat": 47.022716905173326, "occurrences_today": 1, "datetimes_today": "2026-04-08 08:32:02", "cumulative_total": 80.0 }, "geometry": { "type": "Polygon", "coordinates": [ [ [ -70.448226665708987, 47.017537896337501 ], [ -70.454564599646673, 47.02038845773999 ], [ -70.454124069185141, 47.025567509637952 ], [ -70.447344344230103, 47.027895906132898 ], [ -70.441005963759196, 47.025044929063164 ], [ -70.441447754733957, 47.019865971232406 ], [ -70.448226665708987, 47.017537896337501 ] ] ] } },
{ "type": "Feature", "properties": { "hex_id": 558659, "centroid_lon": -73.732181816845113, "centroid_lat": 45.578609528190441, "occurrences_today": 2, "datetimes_today": "2026-04-08 08:16:50, 2026-04-08 08:32:02", "cumulative_total": 84.0 }, "geometry": { "type": "Polygon", "coordinates": [ [ [ -73.732298742827325, 45.573414063665837 ], [ -73.73864720575088, 45.576082729774356 ], [ -73.738530854399926, 45.581278204590383 ], [ -73.732064858901254, 45.583804987734801 ], [ -73.725715853313432, 45.581135953274369 ], [ -73.725833385877806, 45.575940504086148 ], [ -73.732298742827325, 45.573414063665837 ] ] ] } },
{ "type": "Feature", "properties": { "hex_id": 468960, "centroid_lon": -74.670148902542877, "centroid_lat": 46.278890590552081, "occurrences_today": 2, "datetimes_today": "2026-04-08 08:16:50, 2026-04-08 08:32:02", "cumulative_total": 385.0 }, "geometry": { "type": "Polygon", "coordinates": [ [ [ -74.670180077684435, 46.27369457774661 ], [ -74.67665401628409, 46.276311121502637 ], [ -74.67662345027388, 46.281507135271362 ], [ -74.670117718802786, 46.284086598597703 ], [ -74.663643179671809, 46.281469686677212 ], [ -74.663674972540321, 46.276273679661294 ], [ -74.670180077684435, 46.27369457774661 ] ] ] } },
{ "type": "Feature", "properties": { "hex_id": 580022, "centroid_lon": -73.509799466178009, "centroid_lat": 45.505767715940202, "occurrences_today": 5, "datetimes_today": "2026-04-08 07:31:25, 2026-04-08 07:46:33, 2026-04-08 08:01:18, 2026-04-08 08:16:50, 2026-04-08 08:32:02", "cumulative_total": 49.0 }, "geometry": { "type": "Polygon", "coordinates": [ [ [ -73.509936548912648, 45.500572671048289 ], [ -73.516266069977704, 45.503253495717246 ], [ -73.516129556660758, 45.508448553083319 ], [ -73.509662346008369, 45.510962755763856 ], [ -73.503332292966931, 45.508281561588518 ], [ -73.503469982541702, 45.503086534303513 ], [ -73.509936548912648, 45.500572671048289 ] ] ] } },
{ "type": "Feature", "properties": { "hex_id": 576967, "centroid_lon": -73.542796679267425, "centroid_lat": 45.467217160841194, "occurrences_today": 2, "datetimes_today": "2026-04-08 08:16:50, 2026-04-08 08:32:02", "cumulative_total": 101.0 }, "geometry": { "type": "Polygon", "coordinates": [ [ [ -73.542930547287142, 45.462022003652528 ], [ -73.549257407910233, 45.464700983174694 ], [ -73.549124108599827, 45.469896152502095 ], [ -73.542662774706969, 45.472412312975884 ], [ -73.536335381921461, 45.469732964742271 ], [ -73.536469855178979, 45.464537824810705 ], [ -73.542930547287142, 45.462022003652528 ] ] ] } },
{ "type": "Feature", "properties": { "hex_id": 1644904, "centroid_lon": -61.888045180978558, "centroid_lat": 47.409722167664064, "occurrences_today": 2, "datetimes_today": "2026-04-08 08:16:50, 2026-04-08 08:32:02", "cumulative_total": 10.0 }, "geometry": { "type": "Polygon", "coordinates": [ [ [ -61.889323181303943, 47.404662717601205 ], [ -61.895138602232308, 47.407943632519746 ], [ -61.893861012320912, 47.413003199474808 ], [ -61.886766832088171, 47.414781586986663 ], [ -61.880951349369838, 47.411500208342048 ], [ -61.882230108556143, 47.406440905967891 ], [ -61.889323181303943, 47.404662717601205 ] ] ] } },
{ "type": "Feature", "properties": { "hex_id": 510408, "centroid_lon": -74.24290813301603, "centroid_lat": 45.247936958556402, "occurrences_today": 2, "datetimes_today": "2026-04-08 08:16:50, 2026-04-08 08:32:02", "cumulative_total": 68.0 }, "geometry": { "type": "Polygon", "coordinates": [ [ [ -74.242977160255833, 45.242740372144752 ], [ -74.249313293481222, 45.245380717904794 ], [ -74.24924483765399, 45.250577309478572 ], [ -74.242839086979032, 45.253133540136808 ], [ -74.236502401141408, 45.250492835047417 ], [ -74.236572018584695, 45.245296258693152 ], [ -74.242977160255833, 45.242740372144752 ] ] ] } },
{ "type": "Feature", "properties": { "hex_id": 570868, "centroid_lon": -73.604428766586096, "centroid_lat": 45.561529692262042, "occurrences_today": 5, "datetimes_today": "2026-04-08 07:31:25, 2026-04-08 07:46:33, 2026-04-08 08:01:18, 2026-04-08 08:16:50, 2026-04-08 08:32:02", "cumulative_total": 64.0 }, "geometry": { "type": "Polygon", "coordinates": [ [ [ -73.604557395933639, 45.556334481841219 ], [ -73.610897734891154, 45.559010162818019 ], [ -73.610769677927635, 45.56420538479184 ], [ -73.60430010208691, 45.566724897653614 ], [ -73.597959225902926, 45.56404884734372 ], [ -73.598088462774342, 45.558853653569749 ], [ -73.604557395933639, 45.556334481841219 ] ] ] } },
{ "type": "Feature", "properties": { "hex_id": 805297, "centroid_lon": -71.151198684322082, "centroid_lat": 45.458395457431472, "occurrences_today": 27, "datetimes_today": "2026-04-08 00:31:45, 2026-04-08 00:46:33, 2026-04-08 01:13:10, 2026-04-08 01:31:32, 2026-04-08 01:51:18, 2026-04-08 02:16:45, 2026-04-08 02:31:32, 2026-04-08 02:55:25, 2026-04-08 03:16:47, 2026-04-08 03:46:33, 2026-04-08 04:17:27, 2026-04-08 04:31:33, 2026-04-08 04:46:37, 2026-04-08 05:02:25, 2026-04-08 05:27:19, 2026-04-08 05:46:26, 2026-04-08 06:01:31, 2026-04-08 06:16:44, 2026-04-08 06:31:22, 2026-04-08 06:46:55, 2026-04-08 07:01:18, 2026-04-08 07:16:36, 2026-04-08 07:31:25, 2026-04-08 07:46:33, 2026-04-08 08:01:18, 2026-04-08 08:16:50, 2026-04-08 08:32:02", "cumulative_total": 307.0 }, "geometry": { "type": "Polygon", "coordinates": [ [ [ -71.151551924669818, 45.453210347631845 ], [ -71.157755759066518, 45.456018024169715 ], [ -71.157403052790585, 45.461203169214819 ], [ -71.150845347750376, 45.463580560356363 ], [ -71.144641075521932, 45.46077249461981 ], [ -71.144994946133309, 45.455587427003863 ], [ -71.151551924669818, 45.453210347631845 ] ] ] } },
{ "type": "Feature", "properties": { "hex_id": 805907, "centroid_lon": -71.145348720379204, "centroid_lat": 45.450402352506536, "occurrences_today": 27, "datetimes_today": "2026-04-08 00:31:45, 2026-04-08 00:46:33, 2026-04-08 01:13:10, 2026-04-08 01:31:32, 2026-04-08 01:51:18, 2026-04-08 02:16:45, 2026-04-08 02:31:32, 2026-04-08 02:55:25, 2026-04-08 03:16:47, 2026-04-08 03:46:33, 2026-04-08 04:17:27, 2026-04-08 04:31:33, 2026-04-08 04:46:37, 2026-04-08 05:02:25, 2026-04-08 05:27:19, 2026-04-08 05:46:26, 2026-04-08 06:01:31, 2026-04-08 06:16:44, 2026-04-08 06:31:22, 2026-04-08 06:46:55, 2026-04-08 07:01:18, 2026-04-08 07:16:36, 2026-04-08 07:31:25, 2026-04-08 07:46:33, 2026-04-08 08:01:18, 2026-04-08 08:16:50, 2026-04-08 08:32:02", "cumulative_total": 140.0 }, "geometry": { "type": "Polygon", "coordinates": [ [ [ -71.145702398291803, 45.445217271128584 ], [ -71.151905068825698, 45.448025230958251 ], [ -71.151551924669818, 45.453210347631845 ], [ -71.144994946133309, 45.455587427003863 ], [ -71.138791838192091, 45.452779078032904 ], [ -71.139146146162531, 45.447594038894657 ], [ -71.145702398291803, 45.445217271128584 ] ] ] } },
{ "type": "Feature", "properties": { "hex_id": 807128, "centroid_lon": -71.132589360466199, "centroid_lat": 45.449970410619507, "occurrences_today": 27, "datetimes_today": "2026-04-08 00:31:45, 2026-04-08 00:46:33, 2026-04-08 01:13:10, 2026-04-08 01:31:32, 2026-04-08 01:51:18, 2026-04-08 02:16:45, 2026-04-08 02:31:32, 2026-04-08 02:55:25, 2026-04-08 03:16:47, 2026-04-08 03:46:33, 2026-04-08 04:17:27, 2026-04-08 04:31:33, 2026-04-08 04:46:37, 2026-04-08 05:02:25, 2026-04-08 05:27:19, 2026-04-08 05:46:26, 2026-04-08 06:01:31, 2026-04-08 06:16:44, 2026-04-08 06:31:22, 2026-04-08 06:46:55, 2026-04-08 07:01:18, 2026-04-08 07:16:36, 2026-04-08 07:31:25, 2026-04-08 07:46:33, 2026-04-08 08:01:18, 2026-04-08 08:16:50, 2026-04-08 08:32:02", "cumulative_total": 140.0 }, "geometry": { "type": "Polygon", "coordinates": [ [ [ -71.132944201987584, 45.444785406897111 ], [ -71.139146146162531, 45.447594038894657 ], [ -71.138791838192091, 45.452779078032904 ], [ -71.132234422296534, 45.45515540744718 ], [ -71.126032041235064, 45.45234638621293 ], [ -71.126387512923387, 45.447161424864532 ], [ -71.132944201987584, 45.444785406897111 ] ] ] } },
{ "type": "Feature", "properties": { "hex_id": 819944, "centroid_lon": -71.003580569812414, "centroid_lat": 45.375362251538945, "occurrences_today": 2, "datetimes_today": "2026-04-08 07:16:36, 2026-04-08 07:31:25", "cumulative_total": 54.0 }, "geometry": { "type": "Polygon", "coordinates": [ [ [ -71.003946277216869, 45.370177983526702 ], [ -71.010133409145809, 45.372993168558949 ], [ -71.009768231229998, 45.378177473154537 ], [ -71.003214762904221, 45.380546512516929 ], [ -70.997027201006929, 45.377730938199846 ], [ -70.997393537370627, 45.372546713868417 ], [ -71.003946277216869, 45.370177983526702 ] ] ] } },
{ "type": "Feature", "properties": { "hex_id": 468350, "centroid_lon": -74.676592875832853, "centroid_lat": 46.286703144280892, "occurrences_today": 2, "datetimes_today": "2026-04-08 08:16:50, 2026-04-08 08:32:02", "cumulative_total": 262.0 }, "geometry": { "type": "Polygon", "coordinates": [ [ [ -74.67662345027388, 46.281507135271362 ], [ -74.683098615736228, 46.284123313719029 ], [ -74.683068650764923, 46.289319323626671 ], [ -74.676562292958081, 46.291899148531286 ], [ -74.670086526461176, 46.289282601883521 ], [ -74.670117718802786, 46.284086598597703 ], [ -74.67662345027388, 46.281507135271362 ] ] ] } },
{ "type": "Feature", "properties": { "hex_id": 469571, "centroid_lon": -74.663611378034091, "centroid_lat": 46.286665688932665, "occurrences_today": 2, "datetimes_today": "2026-04-08 08:16:50, 2026-04-08 08:32:02", "cumulative_total": 262.0 }, "geometry": { "type": "Polygon", "coordinates": [ [ [ -74.663643179671809, 46.281469686677212 ], [ -74.670117718802786, 46.284086598597703 ], [ -74.670086526461176, 46.289282601883521 ], [ -74.66357956762414, 46.29186168642768 ], [ -74.657104427970779, 46.289244406177048 ], [ -74.65713684767384, 46.284048409778848 ], [ -74.663643179671809, 46.281469686677212 ] ] ] } },
{ "type": "Feature", "properties": { "hex_id": 470181, "centroid_lon": -74.657169258436952, "centroid_lat": 46.278852408619535, "occurrences_today": 2, "datetimes_today": "2026-04-08 08:16:50, 2026-04-08 08:32:02", "cumulative_total": 262.0 }, "geometry": { "type": "Polygon", "coordinates": [ [ [ -74.657201660263198, 46.273656402699089 ], [ -74.663674972540321, 46.276273679661294 ], [ -74.663643179671809, 46.281469686677212 ], [ -74.65713684767384, 46.284048409778848 ], [ -74.650662935377383, 46.281430764522206 ], [ -74.650695955095188, 46.276234764524823 ], [ -74.657201660263198, 46.273656402699089 ] ] ] } },
{ "type": "Feature", "properties": { "hex_id": 563546, "centroid_lon": -73.679828605280036, "centroid_lat": 45.624787092335026, "occurrences_today": 1, "datetimes_today": "2026-04-08 08:32:02", "cumulative_total": 89.0 }, "geometry": { "type": "Polygon", "coordinates": [ [ [ -73.67995055488062, 45.619591777379355 ], [ -73.686301631762376, 45.622263362312253 ], [ -73.686180257485645, 45.627458688088979 ], [ -73.679706622326592, 45.629982402290693 ], [ -73.673355003479429, 45.62731044792725 ], [ -73.673477561745486, 45.622115148857411 ], [ -73.67995055488062, 45.619591777379355 ] ] ] } },
{ "type": "Feature", "properties": { "hex_id": 463466, "centroid_lon": -74.728519109884459, "centroid_lat": 46.286838227260745, "occurrences_today": 2, "datetimes_today": "2026-04-08 08:16:50, 2026-04-08 08:32:02", "cumulative_total": 85.0 }, "geometry": { "type": "Polygon", "coordinates": [ [ [ -74.728544775455518, 46.28164219389248 ], [ -74.735022441208258, 46.284255437084781 ], [ -74.734997385799645, 46.289451470821867 ], [ -74.728493437233695, 46.292034255874441 ], [ -74.722015168399409, 46.289420645003354 ], [ -74.722041451210202, 46.284224616824936 ], [ -74.728544775455518, 46.28164219389248 ] ] ] } },
{ "type": "Feature", "properties": { "hex_id": 464076, "centroid_lon": -74.722067726773304, "centroid_lat": 46.279028583891382, "occurrences_today": 2, "datetimes_today": "2026-04-08 08:16:50, 2026-04-08 08:32:02", "cumulative_total": 85.0 }, "geometry": { "type": "Polygon", "coordinates": [ [ [ -74.722093995091157, 46.273832546202655 ], [ -74.728570433949329, 46.276446155769584 ], [ -74.728544775455518, 46.28164219389248 ], [ -74.722041451210202, 46.284224616824936 ], [ -74.71556440977443, 46.281610639614485 ], [ -74.715591295159115, 46.276414607181565 ], [ -74.722093995091157, 46.273832546202655 ] ] ] } },
{ "type": "Feature", "properties": { "hex_id": 464077, "centroid_lon": -74.721988878338394, "centroid_lat": 46.29461666842667, "occurrences_today": 2, "datetimes_today": "2026-04-08 08:16:50, 2026-04-08 08:32:02", "cumulative_total": 85.0 }, "geometry": { "type": "Polygon", "coordinates": [ [ [ -74.722015168399409, 46.289420645003354 ], [ -74.728493437233695, 46.292034255874441 ], [ -74.728467757500809, 46.297230279733576 ], [ -74.721962581024727, 46.299812687094928 ], [ -74.715483709116242, 46.29719870837927 ], [ -74.715510616755552, 46.292002690213302 ], [ -74.722015168399409, 46.289420645003354 ] ] ] } },
{ "type": "Feature", "properties": { "hex_id": 464686, "centroid_lon": -74.715618173130665, "centroid_lat": 46.27121856999289, "occurrences_today": 2, "datetimes_today": "2026-04-08 08:16:50, 2026-04-08 08:32:02", "cumulative_total": 85.0 }, "geometry": { "type": "Polygon", "coordinates": [ [ [ -74.715645043691637, 46.266022528048445 ], [ -74.722120256166278, 46.268636503758714 ], [ -74.722093995091157, 46.273832546202655 ], [ -74.715591295159115, 46.276414607181565 ], [ -74.709115480610478, 46.273800263863002 ], [ -74.709142968065336, 46.268604227240253 ], [ -74.715645043691637, 46.266022528048445 ] ] ] } },
{ "type": "Feature", "properties": { "hex_id": 464687, "centroid_lon": -74.715537516974095, "centroid_lat": 46.286806667291714, "occurrences_today": 2, "datetimes_today": "2026-04-08 08:16:50, 2026-04-08 08:32:02", "cumulative_total": 85.0 }, "geometry": { "type": "Polygon", "coordinates": [ [ [ -74.71556440977443, 46.281610639614485 ], [ -74.722041451210202, 46.284224616824936 ], [ -74.722015168399409, 46.289420645003354 ], [ -74.715510616755552, 46.292002690213302 ], [ -74.709032972749725, 46.289388345193572 ], [ -74.70906048295528, 46.28419232283963 ], [ -74.71556440977443, 46.281610639614485 ] ] ] } },
{ "type": "Feature", "properties": { "hex_id": 464688, "centroid_lon": -74.715456794053651, "centroid_lat": 46.302394721789653, "occurrences_today": 2, "datetimes_today": "2026-04-08 08:16:50, 2026-04-08 08:32:02", "cumulative_total": 85.0 }, "geometry": { "type": "Polygon", "coordinates": [ [ [ -74.715483709116242, 46.29719870837927 ], [ -74.721962581024727, 46.299812687094928 ], [ -74.721936276455878, 46.30500870100817 ], [ -74.715429871565206, 46.307590730444517 ], [ -74.708950396590083, 46.304976383718433 ], [ -74.708977929569727, 46.299780375632942 ], [ -74.715483709116242, 46.29719870837927 ] ] ] } },
{ "type": "Feature", "properties": { "hex_id": 465296, "centroid_lon": -74.709170447941844, "centroid_lat": 46.263408185861152, "occurrences_today": 2, "datetimes_today": "2026-04-08 08:16:50, 2026-04-08 08:32:02", "cumulative_total": 85.0 }, "geometry": { "type": "Polygon", "coordinates": [ [ [ -74.709197920242559, 46.258212139725671 ], [ -74.715671906844562, 46.260826481348182 ], [ -74.715645043691637, 46.266022528048445 ], [ -74.709142968065336, 46.268604227240253 ], [ -74.702668379892614, 46.265989518044798 ], [ -74.702696468914311, 46.260793477296872 ], [ -74.709197920242559, 46.258212139725671 ] ] ] } },
{ "type": "Feature", "properties": { "hex_id": 465297, "centroid_lon": -74.709087985574655, "centroid_lat": 46.278996295729442, "occurrences_today": 2, "datetimes_today": "2026-04-08 08:16:50, 2026-04-08 08:32:02", "cumulative_total": 85.0 }, "geometry": { "type": "Polygon", "coordinates": [ [ [ -74.709115480610478, 46.273800263863002 ], [ -74.715591295159115, 46.276414607181565 ], [ -74.71556440977443, 46.281610639614485 ], [ -74.70906048295528, 46.28419232283963 ], [ -74.70258406634035, 46.281577611747132 ], [ -74.702612178608291, 46.276381585269903 ], [ -74.709115480610478, 46.273800263863002 ] ] ] } },
{ "type": "Feature", "properties": { "hex_id": 465298, "centroid_lon": -74.709005454955403, "centroid_lat": 46.294584362791326, "occurrences_today": 2, "datetimes_today": "2026-04-08 08:16:50, 2026-04-08 08:32:02", "cumulative_total": 85.0 }, "geometry": { "type": "Polygon", "coordinates": [ [ [ -74.709032972749725, 46.289388345193572 ], [ -74.715510616755552, 46.292002690213302 ], [ -74.715483709116242, 46.29719870837927 ], [ -74.708977929569727, 46.299780375632942 ], [ -74.702499683001548, 46.297165662638157 ], [ -74.702527818539636, 46.29196965043122 ], [ -74.709032972749725, 46.289388345193572 ] ] ] } },
{ "type": "Feature", "properties": { "hex_id": 465906, "centroid_lon": -74.702724550192571, "centroid_lat": 46.255597431791976, "occurrences_today": 2, "datetimes_today": "2026-04-08 08:16:50, 2026-04-08 08:32:02", "cumulative_total": 85.0 }, "geometry": { "type": "Polygon", "coordinates": [ [ [ -74.702752623730035, 46.250401381530068 ], [ -74.709225384970082, 46.253016088833753 ], [ -74.709197920242559, 46.258212139725671 ], [ -74.702696468914311, 46.260793477296872 ], [ -74.696223106606439, 46.258178402455563 ], [ -74.696251796691953, 46.252982357647056 ], [ -74.702752623730035, 46.250401381530068 ] ] ] } },
{ "type": "Feature", "properties": { "hex_id": 465907, "centroid_lon": -74.702640283124822, "centroid_lat": 46.271185554035789, "occurrences_today": 2, "datetimes_today": "2026-04-08 08:16:50, 2026-04-08 08:32:02", "cumulative_total": 85.0 }, "geometry": { "type": "Polygon", "coordinates": [ [ [ -74.702668379892614, 46.265989518044798 ], [ -74.709142968065336, 46.268604227240253 ], [ -74.709115480610478, 46.273800263863002 ], [ -74.702612178608291, 46.276381585269903 ], [ -74.696136988872709, 46.273766508335846 ], [ -74.696165702699517, 46.268570477799933 ], [ -74.702668379892614, 46.265989518044798 ] ] ] } },
{ "type": "Feature", "properties": { "hex_id": 465908, "centroid_lon": -74.702555946318355, "centroid_lat": 46.286773633467554, "occurrences_today": 2, "datetimes_today": "2026-04-08 08:16:50, 2026-04-08 08:32:02", "cumulative_total": 85.0 }, "geometry": { "type": "Polygon", "coordinates": [ [ [ -74.70258406634035, 46.281577611747132 ], [ -74.70906048295528, 46.28419232283963 ], [ -74.709032972749725, 46.289388345193572 ], [ -74.702527818539636, 46.29196965043122 ], [ -74.696050799866327, 46.289354571399066 ], [ -74.696079537458829, 46.284158555135377 ], [ -74.70258406634035, 46.281577611747132 ] ] ] } },
{ "type": "Feature", "properties": { "hex_id": 465909, "centroid_lon": -74.702471539701435, "centroid_lat": 46.302361670088381, "occurrences_today": 2, "datetimes_today": "2026-04-08 08:16:50, 2026-04-08 08:32:02", "cumulative_total": 85.0 }, "geometry": { "type": "Polygon", "coordinates": [ [ [ -74.702499683001548, 46.297165662638157 ], [ -74.708977929569727, 46.299780375632942 ], [ -74.708950396590083, 46.304976383718433 ], [ -74.70244338863661, 46.307557672781961 ], [ -74.695964539513994, 46.304942591646302 ], [ -74.695993300896632, 46.299746589654497 ], [ -74.702499683001548, 46.297165662638157 ] ] ] } },
{ "type": "Feature", "properties": { "hex_id": 466517, "centroid_lon": -74.696194408609855, "centroid_lat": 46.26337444250651, "occurrences_today": 2, "datetimes_today": "2026-04-08 08:16:50, 2026-04-08 08:32:02", "cumulative_total": 85.0 }, "geometry": { "type": "Polygon", "coordinates": [ [ [ -74.696223106606439, 46.258178402455563 ], [ -74.702696468914311, 46.260793477296872 ], [ -74.702668379892614, 46.265989518044798 ], [ -74.696165702699517, 46.268570477799933 ], [ -74.689691739331863, 46.265955035255466 ], [ -74.689721054214388, 46.260759000725429 ], [ -74.696223106606439, 46.258178402455563 ] ] ] } },
{ "type": "Feature", "properties": { "hex_id": 466519, "centroid_lon": -74.6960220543465, "centroid_lat": 46.294550582905423, "occurrences_today": 2, "datetimes_today": "2026-04-08 08:16:50, 2026-04-08 08:32:02", "cumulative_total": 85.0 }, "geometry": { "type": "Polygon", "coordinates": [ [ [ -74.696050799866327, 46.289354571399066 ], [ -74.702527818539636, 46.29196965043122 ], [ -74.702499683001548, 46.297165662638157 ], [ -74.695993300896632, 46.299746589654497 ], [ -74.689515680172974, 46.297131142516918 ], [ -74.689545043601868, 46.291935136534882 ], [ -74.696050799866327, 46.289354571399066 ] ] ] } },
{ "type": "Feature", "properties": { "hex_id": 467127, "centroid_lon": -74.689750361015527, "centroid_lat": 46.255562961437263, "occurrences_today": 2, "datetimes_today": "2026-04-08 08:16:50, 2026-04-08 08:32:02", "cumulative_total": 104.0 }, "geometry": { "type": "Polygon", "coordinates": [ [ [ -74.689779659738065, 46.250366917390934 ], [ -74.696251796691953, 46.252982357647056 ], [ -74.696223106606439, 46.258178402455563 ], [ -74.689721054214388, 46.260759000725429 ], [ -74.683248316703455, 46.258143192801548 ], [ -74.683278232138861, 46.252947154341946 ], [ -74.689779659738065, 46.250366917390934 ] ] ] } },
{ "type": "Feature", "properties": { "hex_id": 467128, "centroid_lon": -74.689662416365223, "centroid_lat": 46.271151065027389, "occurrences_today": 2, "datetimes_today": "2026-04-08 08:16:50, 2026-04-08 08:32:02", "cumulative_total": 104.0 }, "geometry": { "type": "Polygon", "coordinates": [ [ [ -74.689691739331863, 46.265955035255466 ], [ -74.696165702699517, 46.268570477799933 ], [ -74.696136988872709, 46.273766508335846 ], [ -74.689633085311669, 46.276347090041263 ], [ -74.683158520892491, 46.273731279627995 ], [ -74.683188461083105, 46.268535255444554 ], [ -74.689691739331863, 46.265955035255466 ] ] ] } },
{ "type": "Feature", "properties": { "hex_id": 467129, "centroid_lon": -74.689574398932763, "centroid_lat": 46.286739125794952, "occurrences_today": 2, "datetimes_today": "2026-04-08 08:16:50, 2026-04-08 08:32:02", "cumulative_total": 85.0 }, "geometry": { "type": "Polygon", "coordinates": [ [ [ -74.689603746168459, 46.281543110297108 ], [ -74.696079537458829, 46.284158555135377 ], [ -74.696050799866327, 46.289354571399066 ], [ -74.689545043601868, 46.291935136534882 ], [ -74.683068650764923, 46.289319323626671 ], [ -74.683098615736228, 46.284123313719029 ], [ -74.689603746168459, 46.281543110297108 ] ] ] } },
{ "type": "Feature", "properties": { "hex_id": 467737, "centroid_lon": -74.683308139328162, "centroid_lat": 46.247751111123556, "occurrences_today": 2, "datetimes_today": "2026-04-08 08:16:50, 2026-04-08 08:32:02", "cumulative_total": 104.0 }, "geometry": { "type": "Polygon", "coordinates": [ [ [ -74.683338038274201, 46.242555063146298 ], [ -74.689808950384787, 46.245170868586378 ], [ -74.689779659738065, 46.250366917390934 ], [ -74.683278232138861, 46.252947154341946 ], [ -74.676806719973612, 46.25033098126962 ], [ -74.676837235459431, 46.245134938944879 ], [ -74.683338038274201, 46.242555063146298 ] ] ] } },
{ "type": "Feature", "properties": { "hex_id": 467738, "centroid_lon": -74.683218393019146, "centroid_lat": 46.263339226502417, "occurrences_today": 2, "datetimes_today": "2026-04-08 08:16:50, 2026-04-08 08:32:02", "cumulative_total": 107.0 }, "geometry": { "type": "Polygon", "coordinates": [ [ [ -74.683248316703455, 46.258143192801548 ], [ -74.689721054214388, 46.260759000725429 ], [ -74.689691739331863, 46.265955035255466 ], [ -74.683188461083105, 46.268535255444554 ], [ -74.676715123023541, 46.2659190796874 ], [ -74.676745663758567, 46.260723051640838 ], [ -74.683248316703455, 46.258143192801548 ] ] ] } },
{ "type": "Feature", "properties": { "hex_id": 467740, "centroid_lon": -74.683038677527733, "centroid_lat": 46.294515328775802, "occurrences_today": 2, "datetimes_today": "2026-04-08 08:16:50, 2026-04-08 08:32:02", "cumulative_total": 85.0 }, "geometry": { "type": "Polygon", "coordinates": [ [ [ -74.683068650764923, 46.289319323626671 ], [ -74.689545043601868, 46.291935136534882 ], [ -74.689515680172974, 46.297131142516918 ], [ -74.683008696021815, 46.299711329166428 ], [ -74.676531701646724, 46.297095148022542 ], [ -74.676562292958081, 46.291899148531286 ], [ -74.683068650764923, 46.289319323626671 ] ] ] } },
{ "type": "Feature", "properties": { "hex_id": 468348, "centroid_lon": -74.6767761960743, "centroid_lat": 46.255527018834918, "occurrences_today": 2, "datetimes_today": "2026-04-08 08:16:50, 2026-04-08 08:32:02", "cumulative_total": 107.0 }, "geometry": { "type": "Polygon", "coordinates": [ [ [ -74.676806719973612, 46.25033098126962 ], [ -74.683278232138861, 46.252947154341946 ], [ -74.683248316703455, 46.258143192801548 ], [ -74.676745663758567, 46.260723051640838 ], [ -74.67027355154724, 46.258106510770745 ], [ -74.670304692324024, 46.252910478925514 ], [ -74.676806719973612, 46.25033098126962 ] ] ] } },
{ "type": "Feature", "properties": { "hex_id": 468349, "centroid_lon": -74.676684573866339, "centroid_lat": 46.271115102974662, "occurrences_today": 2, "datetimes_today": "2026-04-08 08:16:50, 2026-04-08 08:32:02", "cumulative_total": 169.0 }, "geometry": { "type": "Polygon", "coordinates": [ [ [ -74.676715123023541, 46.2659190796874 ], [ -74.683188461083105, 46.268535255444554 ], [ -74.683158520892491, 46.273731279627995 ], [ -74.67665401628409, 46.276311121502637 ], [ -74.670180077684435, 46.27369457774661 ], [ -74.670211244230387, 46.268498560181264 ], [ -74.676715123023541, 46.2659190796874 ] ] ] } },
{ "type": "Feature", "properties": { "hex_id": 468959, "centroid_lon": -74.670242402183675, "centroid_lat": 46.263302537855992, "occurrences_today": 2, "datetimes_today": "2026-04-08 08:16:50, 2026-04-08 08:32:02", "cumulative_total": 169.0 }, "geometry": { "type": "Polygon", "coordinates": [ [ [ -74.67027355154724, 46.258106510770745 ], [ -74.676745663758567, 46.260723051640838 ], [ -74.676715123023541, 46.2659190796874 ], [ -74.670211244230387, 46.268498560181264 ], [ -74.663738531981707, 46.265881651347904 ], [ -74.663770298560593, 46.260685630050361 ], [ -74.67027355154724, 46.258106510770745 ] ] ] } },
{ "type": "Feature", "properties": { "hex_id": 469570, "centroid_lon": -74.663706756642625, "centroid_lat": 46.271077667884875, "occurrences_today": 2, "datetimes_today": "2026-04-08 08:16:50, 2026-04-08 08:32:02", "cumulative_total": 222.0 }, "geometry": { "type": "Polygon", "coordinates": [ [ [ -74.663738531981707, 46.265881651347904 ], [ -74.670211244230387, 46.268498560181264 ], [ -74.670180077684435, 46.27369457774661 ], [ -74.663674972540321, 46.276273679661294 ], [ -74.657201660263198, 46.273656402699089 ], [ -74.657234053155648, 46.268460392017481 ], [ -74.663738531981707, 46.265881651347904 ] ] ] } },
{ "type": "Feature", "properties": { "hex_id": 470180, "centroid_lon": -74.657266437117329, "centroid_lat": 46.263264376574647, "occurrences_today": 2, "datetimes_today": "2026-04-08 08:16:50, 2026-04-08 08:32:02", "cumulative_total": 104.0 }, "geometry": { "type": "Polygon", "coordinates": [ [ [ -74.657298812151339, 46.258068356370558 ], [ -74.663770298560593, 46.260685630050361 ], [ -74.663738531981707, 46.265881651347904 ], [ -74.657234053155648, 46.268460392017481 ], [ -74.650761967220504, 46.265842750244531 ], [ -74.65079495963424, 46.260646735961558 ], [ -74.657298812151339, 46.258068356370558 ] ] ] } },
{ "type": "Feature", "properties": { "hex_id": 725967, "centroid_lon": -71.951705040045184, "centroid_lat": 46.028252493740915, "occurrences_today": 4, "datetimes_today": "2026-04-08 05:27:19, 2026-04-08 05:46:26, 2026-04-08 06:01:31, 2026-04-08 06:16:44", "cumulative_total": 15.0 }, "geometry": { "type": "Polygon", "coordinates": [ [ [ -71.951990503088439, 46.023063529125828 ], [ -71.958298895673877, 46.025830040672659 ], [ -71.958013995409345, 46.031019033207407 ], [ -71.951419498627985, 46.033441452248994 ], [ -71.945110621651054, 46.030674550616006 ], [ -71.945396725820387, 46.025485620092773 ], [ -71.951990503088439, 46.023063529125828 ] ] ] } },
{ "type": "Feature", "properties": { "hex_id": 663720, "centroid_lon": -72.593741015414693, "centroid_lat": 46.417720285304831, "occurrences_today": 5, "datetimes_today": "2026-04-08 07:31:25, 2026-04-08 07:46:33, 2026-04-08 08:01:18, 2026-04-08 08:16:50, 2026-04-08 08:32:02", "cumulative_total": 26.0 }, "geometry": { "type": "Polygon", "coordinates": [ [ [ -72.593969476134291, 46.412528901087427 ], [ -72.60035561145348, 46.415261251590522 ], [ -72.600127735041184, 46.420452657637263 ], [ -72.593512491623713, 46.42291166391945 ], [ -72.587125835079434, 46.420178923758456 ], [ -72.587354943156043, 46.414987567039475 ], [ -72.593969476134291, 46.412528901087427 ] ] ] } },
{ "type": "Feature", "properties": { "hex_id": 561102, "centroid_lon": -73.706195129196033, "centroid_lat": 45.5939083853672, "occurrences_today": 11, "datetimes_today": "2026-04-08 06:01:31, 2026-04-08 06:16:44, 2026-04-08 06:31:22, 2026-04-08 06:46:55, 2026-04-08 07:01:18, 2026-04-08 07:16:36, 2026-04-08 07:31:25, 2026-04-08 07:46:33, 2026-04-08 08:01:18, 2026-04-08 08:16:50, 2026-04-08 08:32:02", "cumulative_total": 110.0 }, "geometry": { "type": "Polygon", "coordinates": [ [ [ -73.706314515071099, 45.588712987580436 ], [ -73.712663423757235, 45.591383096391475 ], [ -73.712544612626061, 45.5965785047308 ], [ -73.706075710681205, 45.599103778164043 ], [ -73.699726259896423, 45.596433300562502 ], [ -73.699846253144159, 45.591237918382923 ], [ -73.706314515071099, 45.588712987580436 ] ] ] } },
{ "type": "Feature", "properties": { "hex_id": 504929, "centroid_lon": -74.297261032164386, "centroid_lat": 45.489941677103253, "occurrences_today": 21, "datetimes_today": "2026-04-08 00:31:45, 2026-04-08 00:46:33, 2026-04-08 01:13:10, 2026-04-08 01:31:32, 2026-04-08 01:51:18, 2026-04-08 02:16:45, 2026-04-08 02:31:32, 2026-04-08 02:55:25, 2026-04-08 03:16:47, 2026-04-08 03:46:33, 2026-04-08 04:17:27, 2026-04-08 04:31:33, 2026-04-08 04:46:37, 2026-04-08 05:02:25, 2026-04-08 05:27:19, 2026-04-08 05:46:26, 2026-04-08 06:01:31, 2026-04-08 06:16:44, 2026-04-08 06:31:22, 2026-04-08 06:46:55, 2026-04-08 07:01:18", "cumulative_total": 33.0 }, "geometry": { "type": "Polygon", "coordinates": [ [ [ -74.297325646727884, 45.484745248910819 ], [ -74.303691285374342, 45.487382644590433 ], [ -74.30362725024942, 45.49257907743398 ], [ -74.29719639995443, 45.495138100475977 ], [ -74.290830199518794, 45.492500342967318 ], [ -74.290895411161429, 45.487303924310275 ], [ -74.297325646727884, 45.484745248910819 ] ] ] } },
{ "type": "Feature", "properties": { "hex_id": 529972, "centroid_lon": -74.031601283306472, "centroid_lat": 45.682876189681792, "occurrences_today": 27, "datetimes_today": "2026-04-08 00:31:45, 2026-04-08 00:46:33, 2026-04-08 01:13:10, 2026-04-08 01:31:32, 2026-04-08 01:51:18, 2026-04-08 02:16:45, 2026-04-08 02:31:32, 2026-04-08 02:55:25, 2026-04-08 03:16:47, 2026-04-08 03:46:33, 2026-04-08 04:17:27, 2026-04-08 04:31:33, 2026-04-08 04:46:37, 2026-04-08 05:02:25, 2026-04-08 05:27:19, 2026-04-08 05:46:26, 2026-04-08 06:01:31, 2026-04-08 06:16:44, 2026-04-08 06:31:22, 2026-04-08 06:46:55, 2026-04-08 07:01:18, 2026-04-08 07:16:36, 2026-04-08 07:31:25, 2026-04-08 07:46:33, 2026-04-08 08:01:18, 2026-04-08 08:16:50, 2026-04-08 08:32:02", "cumulative_total": 92.0 }, "geometry": { "type": "Polygon", "coordinates": [ [ [ -74.031690923183248, 45.67768028965763 ], [ -74.03806557078299, 45.680332475766654 ], [ -74.037976512741665, 45.685528383123355 ], [ -74.031511618893092, 45.688072084822302 ], [ -74.025136413998652, 45.685419531885053 ], [ -74.025226660239227, 45.680223644142067 ], [ -74.031690923183248, 45.67768028965763 ] ] ] } },
{ "type": "Feature", "properties": { "hex_id": 788292, "centroid_lon": -71.236539906276505, "centroid_lat": 46.848750659226731, "occurrences_today": 3, "datetimes_today": "2026-04-08 04:46:37, 2026-04-08 05:02:25, 2026-04-08 05:27:19", "cumulative_total": 57.0 }, "geometry": { "type": "Polygon", "coordinates": [ [ [ -71.236902488413349, 46.843566299703419 ], [ -71.243265020502847, 46.846373737729934 ], [ -71.242903015043012, 46.851558132595457 ], [ -71.236177223596457, 46.85393501187734 ], [ -71.229814215390547, 46.851127166823098 ], [ -71.230177474712747, 46.845942849581469 ], [ -71.236902488413349, 46.843566299703419 ] ] ] } },
{ "type": "Feature", "properties": { "hex_id": 653887, "centroid_lon": -72.739268942922195, "centroid_lat": 45.40736319088257, "occurrences_today": 4, "datetimes_today": "2026-04-08 07:46:33, 2026-04-08 08:01:18, 2026-04-08 08:16:50, 2026-04-08 08:32:02", "cumulative_total": 30.0 }, "geometry": { "type": "Polygon", "coordinates": [ [ [ -72.739476164108041, 45.402170346922652 ], [ -72.745756691764868, 45.404893006813403 ], [ -72.745550026405837, 45.410085870765442 ], [ -72.739061665239277, 45.41255602936063 ], [ -72.732780638262128, 45.409832994237831 ], [ -72.732988471752947, 45.404640175815963 ], [ -72.739476164108041, 45.402170346922652 ] ] ] } },
{ "type": "Feature", "properties": { "hex_id": 348056, "centroid_lon": -75.948396637189916, "centroid_lat": 45.885710098343694, "occurrences_today": 9, "datetimes_today": "2026-04-08 00:31:45, 2026-04-08 00:46:33, 2026-04-08 01:13:10, 2026-04-08 01:31:32, 2026-04-08 01:51:18, 2026-04-08 02:16:45, 2026-04-08 02:31:32, 2026-04-08 02:55:25, 2026-04-08 03:16:47", "cumulative_total": 54.0 }, "geometry": { "type": "Polygon", "coordinates": [ [ [ -75.948308225712594, 45.880514353183756 ], [ -75.95479523266772, 45.883058570829711 ], [ -75.95488425677469, 45.888254303879258 ], [ -75.94848507292842, 45.890905838625741 ], [ -75.941997429078398, 45.888361271039663 ], [ -75.94190960597777, 45.88316551871268 ], [ -75.948308225712594, 45.880514353183756 ] ] ] } },
{ "type": "Feature", "properties": { "hex_id": 348057, "centroid_lon": -75.948662017221778, "centroid_lat": 45.901297304556188, "occurrences_today": 9, "datetimes_today": "2026-04-08 00:31:45, 2026-04-08 00:46:33, 2026-04-08 01:13:10, 2026-04-08 01:31:32, 2026-04-08 01:51:18, 2026-04-08 02:16:45, 2026-04-08 02:31:32, 2026-04-08 02:55:25, 2026-04-08 03:16:47", "cumulative_total": 54.0 }, "geometry": { "type": "Polygon", "coordinates": [ [ [ -75.948573532936294, 45.896101574029927 ], [ -75.955062378286911, 45.898645755339331 ], [ -75.955151475708746, 45.903841473749821 ], [ -75.948750525793116, 45.90649303020453 ], [ -75.942261043016202, 45.903948498763981 ], [ -75.942173147589429, 45.898752761065332 ], [ -75.948573532936294, 45.896101574029927 ] ] ] } },
{ "type": "Feature", "properties": { "hex_id": 348667, "centroid_lon": -75.94208527627957, "centroid_lat": 45.893557018490576, "occurrences_today": 9, "datetimes_today": "2026-04-08 00:31:45, 2026-04-08 00:46:33, 2026-04-08 01:13:10, 2026-04-08 01:31:32, 2026-04-08 01:51:18, 2026-04-08 02:16:45, 2026-04-08 02:31:32, 2026-04-08 02:55:25, 2026-04-08 03:16:47", "cumulative_total": 54.0 }, "geometry": { "type": "Polygon", "coordinates": [ [ [ -75.941997429078398, 45.888361271039663 ], [ -75.94848507292842, 45.890905838625741 ], [ -75.948573532936294, 45.896101574029927 ], [ -75.942173147589429, 45.898752761065332 ], [ -75.935684866819898, 45.896207843374164 ], [ -75.935597608324912, 45.89101208881813 ], [ -75.941997429078398, 45.888361271039663 ] ] ] } },
{ "type": "Feature", "properties": { "hex_id": 348668, "centroid_lon": -75.942348962568033, "centroid_lat": 45.90914423158646, "occurrences_today": 9, "datetimes_today": "2026-04-08 00:31:45, 2026-04-08 00:46:33, 2026-04-08 01:13:10, 2026-04-08 01:31:32, 2026-04-08 01:51:18, 2026-04-08 02:16:45, 2026-04-08 02:31:32, 2026-04-08 02:55:25, 2026-04-08 03:16:47", "cumulative_total": 55.0 }, "geometry": { "type": "Polygon", "coordinates": [ [ [ -75.942261043016202, 45.903948498763981 ], [ -75.948750525793116, 45.90649303020453 ], [ -75.94883905865855, 45.911688750974932 ], [ -75.942436906253107, 45.914339959532796 ], [ -75.935946786025255, 45.911795077796029 ], [ -75.935859455661955, 45.906599337863128 ], [ -75.942261043016202, 45.903948498763981 ] ] ] } },
{ "type": "Feature", "properties": { "hex_id": 349277, "centroid_lon": -75.935510373769787, "centroid_lat": 45.885816329387751, "occurrences_today": 9, "datetimes_today": "2026-04-08 00:31:45, 2026-04-08 00:46:33, 2026-04-08 01:13:10, 2026-04-08 01:31:32, 2026-04-08 01:51:18, 2026-04-08 02:16:45, 2026-04-08 02:31:32, 2026-04-08 02:55:25, 2026-04-08 03:16:47", "cumulative_total": 54.0 }, "geometry": { "type": "Polygon", "coordinates": [ [ [ -75.935423163146396, 45.880620565083042 ], [ -75.94190960597777, 45.88316551871268 ], [ -75.941997429078398, 45.888361271039663 ], [ -75.935597608324912, 45.89101208881813 ], [ -75.929110529080489, 45.888466785109507 ], [ -75.92902390701073, 45.883271013766873 ], [ -75.935423163146396, 45.880620565083042 ] ] ] } },
{ "type": "Feature", "properties": { "hex_id": 349278, "centroid_lon": -75.935772149262874, "centroid_lat": 45.901403593055825, "occurrences_today": 9, "datetimes_today": "2026-04-08 00:31:45, 2026-04-08 00:46:33, 2026-04-08 01:13:10, 2026-04-08 01:31:32, 2026-04-08 01:51:18, 2026-04-08 02:16:45, 2026-04-08 02:31:32, 2026-04-08 02:55:25, 2026-04-08 03:16:47", "cumulative_total": 81.0 }, "geometry": { "type": "Polygon", "coordinates": [ [ [ -75.935684866819898, 45.896207843374164 ], [ -75.942173147589429, 45.898752761065332 ], [ -75.942261043016202, 45.903948498763981 ], [ -75.935859455661955, 45.906599337863128 ], [ -75.929370537948458, 45.904054069901868 ], [ -75.929283844541303, 45.898858313177023 ], [ -75.935684866819898, 45.896207843374164 ] ] ] } },
{ "type": "Feature", "properties": { "hex_id": 349888, "centroid_lon": -75.929197174921342, "centroid_lat": 45.893662551579595, "occurrences_today": 9, "datetimes_today": "2026-04-08 00:31:45, 2026-04-08 00:46:33, 2026-04-08 01:13:10, 2026-04-08 01:31:32, 2026-04-08 01:51:18, 2026-04-08 02:16:45, 2026-04-08 02:31:32, 2026-04-08 02:55:25, 2026-04-08 03:16:47", "cumulative_total": 54.0 }, "geometry": { "type": "Polygon", "coordinates": [ [ [ -75.929110529080489, 45.888466785109507 ], [ -75.935597608324912, 45.89101208881813 ], [ -75.935684866819898, 45.896207843374164 ], [ -75.929283844541303, 45.898858313177023 ], [ -75.922796128859559, 45.896312659224456 ], [ -75.922710071901804, 45.891116885778438 ], [ -75.929110529080489, 45.888466785109507 ] ] ] } },
{ "type": "Feature", "properties": { "hex_id": 349889, "centroid_lon": -75.929457255150894, "centroid_lat": 45.909249821754081, "occurrences_today": 9, "datetimes_today": "2026-04-08 00:31:45, 2026-04-08 00:46:33, 2026-04-08 01:13:10, 2026-04-08 01:31:32, 2026-04-08 01:51:18, 2026-04-08 02:16:45, 2026-04-08 02:31:32, 2026-04-08 02:55:25, 2026-04-08 03:16:47", "cumulative_total": 54.0 }, "geometry": { "type": "Polygon", "coordinates": [ [ [ -75.929370537948458, 45.904054069901868 ], [ -75.935859455661955, 45.906599337863128 ], [ -75.935946786025255, 45.911795077796029 ], [ -75.929543996156653, 45.914445568733662 ], [ -75.923054441474903, 45.911899950337251 ], [ -75.922968313638094, 45.90670419150387 ], [ -75.929370537948458, 45.904054069901868 ] ] ] } },
{ "type": "Feature", "properties": { "hex_id": 1195658, "centroid_lon": -66.49129928074548, "centroid_lat": 49.128487730630404, "occurrences_today": 4, "datetimes_today": "2026-04-08 07:46:33, 2026-04-08 08:01:18, 2026-04-08 08:16:50, 2026-04-08 08:32:02", "cumulative_total": 15.0 }, "geometry": { "type": "Polygon", "coordinates": [ [ [ -66.492184602325338, 49.123351449915674 ], [ -66.49851981292413, 49.126422578076927 ], [ -66.4976350500732, 49.131558941099456 ], [ -66.490413707552989, 49.133623994891408 ], [ -66.484078189883661, 49.130552394347575 ], [ -66.484964321713591, 49.125416212462355 ], [ -66.492184602325338, 49.123351449915674 ] ] ] } },
{ "type": "Feature", "properties": { "hex_id": 562345, "centroid_lon": -73.68534652517927, "centroid_lat": 45.93664594789346, "occurrences_today": 4, "datetimes_today": "2026-04-08 06:16:44, 2026-04-08 06:31:22, 2026-04-08 06:46:55, 2026-04-08 07:01:18", "cumulative_total": 18.0 }, "geometry": { "type": "Polygon", "coordinates": [ [ [ -73.685469292558523, 45.931450906184395 ], [ -73.691855819461907, 45.934122430689897 ], [ -73.691733637052366, 45.939317483237623 ], [ -73.685223724094058, 45.941840984603644 ], [ -73.678836645932677, 45.939169086732583 ], [ -73.678960031976146, 45.933974060926552 ], [ -73.685469292558523, 45.931450906184395 ] ] ] } },
{ "type": "Feature", "properties": { "hex_id": 901937, "centroid_lon": -69.883439844867056, "centroid_lat": 48.230472787936343, "occurrences_today": 2, "datetimes_today": "2026-04-08 00:31:45, 2026-04-08 00:46:33", "cumulative_total": 23.0 }, "geometry": { "type": "Polygon", "coordinates": [ [ [ -69.883956889604789, 48.225299189384835 ], [ -69.890404101133626, 48.228184980394957 ], [ -69.889887653981759, 48.233358628504938 ], [ -69.882922654176468, 48.235646377633877 ], [ -69.876474991040766, 48.232760149501338 ], [ -69.876992779264853, 48.227586609431626 ], [ -69.883956889604789, 48.225299189384835 ] ] ] } },
{ "type": "Feature", "properties": { "hex_id": 902547, "centroid_lon": -69.877510421375277, "centroid_lat": 48.2224130604979, "occurrences_today": 2, "datetimes_today": "2026-04-08 00:31:45, 2026-04-08 00:46:33", "cumulative_total": 23.0 }, "geometry": { "type": "Polygon", "coordinates": [ [ [ -69.878027917424447, 48.217239502701673 ], [ -69.884473788442079, 48.220125581980838 ], [ -69.883956889604789, 48.225299189384835 ], [ -69.876992779264853, 48.227586609431626 ], [ -69.870546457122799, 48.224700093103394 ], [ -69.871064696392693, 48.219526593846759 ], [ -69.878027917424447, 48.217239502701673 ] ] ] } },
{ "type": "Feature", "properties": { "hex_id": 902548, "centroid_lon": -69.875957056650577, "centroid_lat": 48.237933680705545, "occurrences_today": 2, "datetimes_today": "2026-04-08 00:31:45, 2026-04-08 00:46:33", "cumulative_total": 23.0 }, "geometry": { "type": "Polygon", "coordinates": [ [ [ -69.876474991040766, 48.232760149501338 ], [ -69.882922654176468, 48.235646377633877 ], [ -69.882405317480675, 48.240819958475974 ], [ -69.875438976041792, 48.243107203042776 ], [ -69.868990861456496, 48.240220537622946 ], [ -69.869509539707195, 48.235047064992976 ], [ -69.876474991040766, 48.232760149501338 ] ] ] } },
{ "type": "Feature", "properties": { "hex_id": 903157, "centroid_lon": -69.871582789440637, "centroid_lat": 48.214353085717569, "occurrences_today": 2, "datetimes_today": "2026-04-08 00:31:45, 2026-04-08 00:46:33", "cumulative_total": 23.0 }, "geometry": { "type": "Polygon", "coordinates": [ [ [ -69.872100736319041, 48.209179568717317 ], [ -69.878545267464759, 48.212065936044411 ], [ -69.878027917424447, 48.217239502701673 ], [ -69.871064696392693, 48.219526593846759 ], [ -69.864619714604615, 48.21663978954394 ], [ -69.865138404438227, 48.211466331141061 ], [ -69.872100736319041, 48.209179568717317 ] ] ] } },
{ "type": "Feature", "properties": { "hex_id": 903158, "centroid_lon": -69.87002807157846, "centroid_lat": 48.229873583485976, "occurrences_today": 2, "datetimes_today": "2026-04-08 00:31:45, 2026-04-08 00:46:33", "cumulative_total": 23.0 }, "geometry": { "type": "Polygon", "coordinates": [ [ [ -69.870546457122799, 48.224700093103394 ], [ -69.876992779264853, 48.227586609431626 ], [ -69.876474991040766, 48.232760149501338 ], [ -69.869509539707195, 48.235047064992976 ], [ -69.863062766598077, 48.232160111450867 ], [ -69.863581895737056, 48.226986679700339 ], [ -69.870546457122799, 48.224700093103394 ] ] ] } },
{ "type": "Feature", "properties": { "hex_id": 903767, "centroid_lon": -69.865656947941758, "centroid_lat": 48.206292863857087, "occurrences_today": 2, "datetimes_today": "2026-04-08 00:31:45, 2026-04-08 00:46:33", "cumulative_total": 23.0 }, "geometry": { "type": "Polygon", "coordinates": [ [ [ -69.866175345167633, 48.201119387693467 ], [ -69.872618537080342, 48.204006042847503 ], [ -69.872100736319041, 48.209179568717317 ], [ -69.865138404438227, 48.211466331141061 ], [ -69.858694762364806, 48.208579239084671 ], [ -69.859213902280445, 48.203405821576183 ], [ -69.866175345167633, 48.201119387693467 ] ] ] } },
{ "type": "Feature", "properties": { "hex_id": 903768, "centroid_lon": -69.864100878388399, "centroid_lat": 48.221813239064204, "occurrences_today": 2, "datetimes_today": "2026-04-08 00:31:45, 2026-04-08 00:46:33", "cumulative_total": 23.0 }, "geometry": { "type": "Polygon", "coordinates": [ [ [ -69.864619714604615, 48.21663978954394 ], [ -69.871064696392693, 48.219526593846759 ], [ -69.870546457122799, 48.224700093103394 ], [ -69.863581895737056, 48.226986679700339 ], [ -69.857136463464059, 48.224099438257063 ], [ -69.857656043009172, 48.218926047426613 ], [ -69.864619714604615, 48.21663978954394 ] ] ] } },
{ "type": "Feature", "properties": { "hex_id": 903769, "centroid_lon": -69.862543490918853, "centroid_lat": 48.237333534314267, "occurrences_today": 2, "datetimes_today": "2026-04-08 00:31:45, 2026-04-08 00:46:33", "cumulative_total": 23.0 }, "geometry": { "type": "Polygon", "coordinates": [ [ [ -69.863062766598077, 48.232160111450867 ], [ -69.869509539707195, 48.235047064992976 ], [ -69.868990861456496, 48.240220537622946 ], [ -69.862024068646789, 48.242506948289055 ], [ -69.855576844728276, 48.23961955736825 ], [ -69.856096864376241, 48.234446193229374 ], [ -69.863062766598077, 48.232160111450867 ] ] ] } },
{ "type": "Feature", "properties": { "hex_id": 904378, "centroid_lon": -69.858175475958561, "centroid_lat": 48.213752647701973, "occurrences_today": 2, "datetimes_today": "2026-04-08 00:31:45, 2026-04-08 00:46:33", "cumulative_total": 23.0 }, "geometry": { "type": "Polygon", "coordinates": [ [ [ -69.858694762364806, 48.208579239084671 ], [ -69.865138404438227, 48.211466331141061 ], [ -69.864619714604615, 48.21663978954394 ], [ -69.857656043009172, 48.218926047426613 ], [ -69.851211950932552, 48.216038518303193 ], [ -69.851731980402008, 48.210865168433415 ], [ -69.858694762364806, 48.208579239084671 ] ] ] } },
{ "type": "Feature", "properties": { "hex_id": 904379, "centroid_lon": -69.856616737270627, "centroid_lat": 48.229272820191831, "occurrences_today": 2, "datetimes_today": "2026-04-08 00:31:45, 2026-04-08 00:46:33", "cumulative_total": 23.0 }, "geometry": { "type": "Polygon", "coordinates": [ [ [ -69.857136463464059, 48.224099438257063 ], [ -69.863581895737056, 48.226986679700339 ], [ -69.863062766598077, 48.232160111450867 ], [ -69.856096864376241, 48.234446193229374 ], [ -69.849650981776051, 48.231558514480895 ], [ -69.850171451672239, 48.226385191328447 ], [ -69.857136463464059, 48.224099438257063 ] ] ] } },
{ "type": "Feature", "properties": { "hex_id": 904380, "centroid_lon": -69.855056678274025, "centroid_lat": 48.244792912606904, "occurrences_today": 2, "datetimes_today": "2026-04-08 00:31:45, 2026-04-08 00:46:33", "cumulative_total": 23.0 }, "geometry": { "type": "Polygon", "coordinates": [ [ [ -69.855576844728276, 48.23961955736825 ], [ -69.862024068646789, 48.242506948289055 ], [ -69.861504499729278, 48.247680353373717 ], [ -69.854536364960794, 48.24996625894385 ], [ -69.848088690390881, 48.24707843047949 ], [ -69.848609601188116, 48.24190513405793 ], [ -69.855576844728276, 48.23961955736825 ] ] ] } },
{ "type": "Feature", "properties": { "hex_id": 904990, "centroid_lon": -69.849130364965603, "centroid_lat": 48.236731828724565, "occurrences_today": 2, "datetimes_today": "2026-04-08 00:31:45, 2026-04-08 00:46:33", "cumulative_total": 23.0 }, "geometry": { "type": "Polygon", "coordinates": [ [ [ -69.849650981776051, 48.231558514480895 ], [ -69.856096864376241, 48.234446193229374 ], [ -69.855576844728276, 48.23961955736825 ], [ -69.848609601188116, 48.24190513405793 ], [ -69.84216326841883, 48.23901701783948 ], [ -69.842684629306049, 48.233843762470663 ], [ -69.849650981776051, 48.231558514480895 ] ] ] } },
{ "type": "Feature", "properties": { "hex_id": 132111, "centroid_lon": -78.393791405008358, "centroid_lat": 48.520336110883655, "occurrences_today": 7, "datetimes_today": "2026-04-08 07:01:18, 2026-04-08 07:16:36, 2026-04-08 07:31:25, 2026-04-08 07:46:33, 2026-04-08 08:01:18, 2026-04-08 08:16:50, 2026-04-08 08:32:02", "cumulative_total": 7.0 }, "geometry": { "type": "Polygon", "coordinates": [ [ [ -78.39344468853966, 48.515151172350407 ], [ -78.400376950408628, 48.517543964064664 ], [ -78.400724403528088, 48.522728863145709 ], [ -78.394138219999533, 48.525521042864703 ], [ -78.387205122939449, 48.523127895941244 ], [ -78.386859044634775, 48.517942924579351 ], [ -78.39344468853966, 48.515151172350407 ] ] ] } },
{ "type": "Feature", "properties": { "hex_id": 72258, "centroid_lon": -79.026319132244268, "centroid_lat": 48.125829562664627, "occurrences_today": 2, "datetimes_today": "2026-04-08 08:16:50, 2026-04-08 08:32:02", "cumulative_total": 2.0 }, "geometry": { "type": "Polygon", "coordinates": [ [ [ -79.02591354553438, 48.120647982280389 ], [ -79.032818512892078, 48.123003405198489 ], [ -79.033224827643139, 48.128184939400732 ], [ -79.026724833440142, 48.131011135775239 ], [ -79.019819023534751, 48.128655370795009 ], [ -79.019414050421105, 48.123473751572277 ], [ -79.02591354553438, 48.120647982280389 ] ] ] } },
{ "type": "Feature", "properties": { "hex_id": 730899, "centroid_lon": -71.857450233656905, "centroid_lat": 46.773973455662947, "occurrences_today": 2, "datetimes_today": "2026-04-08 08:16:50, 2026-04-08 08:32:02", "cumulative_total": 2.0 }, "geometry": { "type": "Polygon", "coordinates": [ [ [ -71.857752271566255, 46.768785632274302 ], [ -71.86414028499324, 46.771559078527574 ], [ -71.863838831307589, 46.776746931163345 ], [ -71.857148112022486, 46.779161272827565 ], [ -71.850759598111381, 46.776387425735336 ], [ -71.851062303940495, 46.771199637884735 ], [ -71.857752271566255, 46.768785632274302 ] ] ] } }
]
}
