{
"type": "FeatureCollection",
"name": "daily_2026-06-08",
"crs": { "type": "name", "properties": { "name": "urn:ogc:def:crs:OGC:1.3:CRS84" } },
"features": [
{ "type": "Feature", "properties": { "hex_id": 600207, "centroid_lon": -73.280305351119935, "centroid_lat": 46.102749078092479, "occurrences_today": 4, "datetimes_today": "2026-06-08 03:01:32, 2026-06-08 03:16:41, 2026-06-08 03:31:41, 2026-06-08 03:46:47", "cumulative_total": 69.0 }, "geometry": { "type": "Polygon", "coordinates": [ [ [ -73.280466865574624, 46.097555162028442 ], [ -73.286852146513709, 46.10024924192755 ], [ -73.28669121652554, 46.105443172906384 ], [ -73.2801437922367, 46.107942988976674 ], [ -73.273757971267216, 46.105248529780305 ], [ -73.273920114601836, 46.100054633876724 ], [ -73.280466865574624, 46.097555162028442 ] ] ] } },
{ "type": "Feature", "properties": { "hex_id": 600817, "centroid_lon": -73.274082213348862, "centroid_lat": 46.094860732790103, "occurrences_today": 4, "datetimes_today": "2026-06-08 03:01:32, 2026-06-08 03:16:41, 2026-06-08 03:31:41, 2026-06-08 03:46:47", "cumulative_total": 71.0 }, "geometry": { "type": "Polygon", "coordinates": [ [ [ -73.274244267523486, 46.089666826520549 ], [ -73.280628335615916, 46.092361240784697 ], [ -73.280466865574624, 46.097555162028442 ], [ -73.273920114601836, 46.100054633876724 ], [ -73.267535506956079, 46.097359840360376 ], [ -73.26769818982126, 46.092165954313721 ], [ -73.274244267523486, 46.089666826520549 ] ] ] } },
{ "type": "Feature", "properties": { "hex_id": 601428, "centroid_lon": -73.267372779344313, "centroid_lat": 46.102553721220751, "occurrences_today": 4, "datetimes_today": "2026-06-08 03:01:32, 2026-06-08 03:16:41, 2026-06-08 03:31:41, 2026-06-08 03:46:47", "cumulative_total": 68.0 }, "geometry": { "type": "Polygon", "coordinates": [ [ [ -73.267535506956079, 46.097359840360376 ], [ -73.273920114601836, 46.100054633876724 ], [ -73.273757971267216, 46.105248529780305 ], [ -73.2672100069707, 46.107747596894747 ], [ -73.260824859817291, 46.105052423964196 ], [ -73.260988216452773, 46.099858563399216 ], [ -73.267535506956079, 46.097359840360376 ] ] ] } },
{ "type": "Feature", "properties": { "hex_id": 602038, "centroid_lon": -73.261151528167431, "centroid_lat": 46.094664697644589, "occurrences_today": 4, "datetimes_today": "2026-06-08 03:01:32, 2026-06-08 03:16:41, 2026-06-08 03:31:41, 2026-06-08 03:46:47", "cumulative_total": 71.0 }, "geometry": { "type": "Polygon", "coordinates": [ [ [ -73.261314794976585, 46.08947082670047 ], [ -73.26769818982126, 46.092165954313721 ], [ -73.267535506956079, 46.097359840360376 ], [ -73.260988216452773, 46.099858563399216 ], [ -73.25460428257729, 46.097163056416925 ], [ -73.254768178220615, 46.091969205830608 ], [ -73.261314794976585, 46.08947082670047 ] ] ] } },
{ "type": "Feature", "properties": { "hex_id": 603259, "centroid_lon": -73.248220977702559, "centroid_lat": 46.094467200375085, "occurrences_today": 4, "datetimes_today": "2026-06-08 03:01:32, 2026-06-08 03:16:41, 2026-06-08 03:31:41, 2026-06-08 03:46:47", "cumulative_total": 69.0 }, "geometry": { "type": "Polygon", "coordinates": [ [ [ -73.248385457100326, 46.089273365019615 ], [ -73.254768178220615, 46.091969205830608 ], [ -73.25460428257729, 46.097163056416925 ], [ -73.24805645306617, 46.099661030534428 ], [ -73.241673193437748, 46.096964810237672 ], [ -73.241838301813161, 46.091770995374937 ], [ -73.248385457100326, 46.089273365019615 ] ] ] } },
{ "type": "Feature", "properties": { "hex_id": 699058, "centroid_lon": -72.271443937252911, "centroid_lat": 45.303593128701188, "occurrences_today": 13, "datetimes_today": "2026-06-08 00:01:28, 2026-06-08 00:16:29, 2026-06-08 00:31:45, 2026-06-08 00:46:19, 2026-06-08 01:01:25, 2026-06-08 01:16:51, 2026-06-08 01:31:35, 2026-06-08 01:46:22, 2026-06-08 02:01:35, 2026-06-08 02:17:08, 2026-06-08 02:31:37, 2026-06-08 02:46:32, 2026-06-08 03:01:32", "cumulative_total": 138.0 }, "geometry": { "type": "Polygon", "coordinates": [ [ [ -72.271693107630895, 45.298402039883534 ], [ -72.277938740095479, 45.30114969504357 ], [ -72.277690115882876, 45.306340808336635 ], [ -72.271194699048621, 45.308784211706069 ], [ -72.26494858825626, 45.306036178572079 ], [ -72.265198372603351, 45.300845120106267 ], [ -72.271693107630895, 45.298402039883534 ] ] ] } },
{ "type": "Feature", "properties": { "hex_id": 708826, "centroid_lon": -72.169522948673588, "centroid_lat": 45.301110885292374, "occurrences_today": 16, "datetimes_today": "2026-06-08 00:01:28, 2026-06-08 00:16:29, 2026-06-08 00:31:45, 2026-06-08 00:46:19, 2026-06-08 01:01:25, 2026-06-08 01:16:51, 2026-06-08 01:31:35, 2026-06-08 01:46:22, 2026-06-08 02:01:35, 2026-06-08 02:17:08, 2026-06-08 02:31:37, 2026-06-08 02:46:32, 2026-06-08 03:01:32, 2026-06-08 03:16:41, 2026-06-08 03:31:41, 2026-06-08 03:46:47", "cumulative_total": 85.0 }, "geometry": { "type": "Polygon", "coordinates": [ [ [ -72.169781396672064, 45.295920243209203 ], [ -72.176021562701408, 45.298673352311901 ], [ -72.175763659333811, 45.303864019849641 ], [ -72.169264430331495, 45.306301521482027 ], [ -72.1630237900266, 45.303548033568418 ], [ -72.16328285297611, 45.298357422896935 ], [ -72.169781396672064, 45.295920243209203 ] ] ] } },
{ "type": "Feature", "properties": { "hex_id": 281510, "centroid_lon": -76.649869459409047, "centroid_lat": 45.854349368669247, "occurrences_today": 13, "datetimes_today": "2026-06-08 00:01:28, 2026-06-08 00:16:29, 2026-06-08 00:31:45, 2026-06-08 00:46:19, 2026-06-08 01:01:25, 2026-06-08 01:16:51, 2026-06-08 01:31:35, 2026-06-08 01:46:22, 2026-06-08 02:01:35, 2026-06-08 02:17:08, 2026-06-08 02:31:37, 2026-06-08 02:46:32, 2026-06-08 03:01:32", "cumulative_total": 610.0 }, "geometry": { "type": "Polygon", "coordinates": [ [ [ -76.649715837404486, 45.849155039433825 ], [ -76.65623002847137, 45.851659055417727 ], [ -76.656384270376478, 45.856853365296359 ], [ -76.650023123541146, 45.859543692761193 ], [ -76.643508270439028, 45.857039334843208 ], [ -76.643355226221729, 45.851844991459714 ], [ -76.649715837404486, 45.849155039433825 ] ] ] } },
{ "type": "Feature", "properties": { "hex_id": 282121, "centroid_lon": -76.643661356626978, "centroid_lat": 45.862233673086266, "occurrences_today": 6, "datetimes_today": "2026-06-08 01:46:22, 2026-06-08 02:01:35, 2026-06-08 02:17:08, 2026-06-08 02:31:37, 2026-06-08 02:46:32, 2026-06-08 03:01:32", "cumulative_total": 524.0 }, "geometry": { "type": "Polygon", "coordinates": [ [ [ -76.643508270439028, 45.857039334843208 ], [ -76.650023123541146, 45.859543692761193 ], [ -76.650176829815081, 45.864738011709569 ], [ -76.643814484799776, 45.867428006188788 ], [ -76.637298969619707, 45.864923306171356 ], [ -76.637146461547118, 45.859728953839394 ], [ -76.643508270439028, 45.857039334843208 ] ] ] } },
{ "type": "Feature", "properties": { "hex_id": 282731, "centroid_lon": -76.636993995288194, "centroid_lat": 45.854534596370051, "occurrences_today": 13, "datetimes_today": "2026-06-08 00:01:28, 2026-06-08 00:16:29, 2026-06-08 00:31:45, 2026-06-08 00:46:19, 2026-06-08 01:01:25, 2026-06-08 01:16:51, 2026-06-08 01:31:35, 2026-06-08 01:46:22, 2026-06-08 02:01:35, 2026-06-08 02:17:08, 2026-06-08 02:31:37, 2026-06-08 02:46:32, 2026-06-08 03:01:32", "cumulative_total": 610.0 }, "geometry": { "type": "Polygon", "coordinates": [ [ [ -76.636841570828778, 45.849340233763385 ], [ -76.643355226221729, 45.851844991459714 ], [ -76.643508270439028, 45.857039334843208 ], [ -76.637146461547118, 45.859728953839394 ], [ -76.630632144589697, 45.857223854064578 ], [ -76.63048029810281, 45.852029477437299 ], [ -76.636841570828778, 45.849340233763385 ] ] ] } },
{ "type": "Feature", "properties": { "hex_id": 369394, "centroid_lon": -75.716983988172572, "centroid_lat": 45.427490928567522, "occurrences_today": 16, "datetimes_today": "2026-06-08 00:01:28, 2026-06-08 00:16:29, 2026-06-08 00:31:45, 2026-06-08 00:46:19, 2026-06-08 01:01:25, 2026-06-08 01:16:51, 2026-06-08 01:31:35, 2026-06-08 01:46:22, 2026-06-08 02:01:35, 2026-06-08 02:17:08, 2026-06-08 02:31:37, 2026-06-08 02:46:32, 2026-06-08 03:01:32, 2026-06-08 03:16:41, 2026-06-08 03:31:41, 2026-06-08 03:46:47", "cumulative_total": 405.0 }, "geometry": { "type": "Polygon", "coordinates": [ [ [ -75.716918207218569, 45.422294459348002 ], [ -75.723341947927821, 45.424852400445488 ], [ -75.723408324179601, 45.430048859992297 ], [ -75.717049787078082, 45.432687392964347 ], [ -75.710625433116533, 45.430129105140971 ], [ -75.710560229514826, 45.424932631135874 ], [ -75.716918207218569, 45.422294459348002 ] ] ] } },
{ "type": "Feature", "properties": { "hex_id": 552549, "centroid_lon": -73.797917171652628, "centroid_lat": 45.50136839471088, "occurrences_today": 16, "datetimes_today": "2026-06-08 00:01:28, 2026-06-08 00:16:29, 2026-06-08 00:31:45, 2026-06-08 00:46:19, 2026-06-08 01:01:25, 2026-06-08 01:16:51, 2026-06-08 01:31:35, 2026-06-08 01:46:22, 2026-06-08 02:01:35, 2026-06-08 02:17:08, 2026-06-08 02:31:37, 2026-06-08 02:46:32, 2026-06-08 03:01:32, 2026-06-08 03:16:41, 2026-06-08 03:31:41, 2026-06-08 03:46:47", "cumulative_total": 139.0 }, "geometry": { "type": "Polygon", "coordinates": [ [ [ -73.798027737974778, 45.496172730939158 ], [ -73.804370772518354, 45.498837722317873 ], [ -73.804260779374474, 45.50403339571259 ], [ -73.797806575134672, 45.506564053525985 ], [ -73.791462997613692, 45.503898695392927 ], [ -73.791574167299771, 45.498703046265327 ], [ -73.798027737974778, 45.496172730939158 ] ] ] } },
{ "type": "Feature", "properties": { "hex_id": 551938, "centroid_lon": -73.804480735632026, "centroid_lat": 45.493642043968805, "occurrences_today": 11, "datetimes_today": "2026-06-08 01:16:51, 2026-06-08 01:31:35, 2026-06-08 01:46:22, 2026-06-08 02:01:35, 2026-06-08 02:17:08, 2026-06-08 02:31:37, 2026-06-08 02:46:32, 2026-06-08 03:01:32, 2026-06-08 03:16:41, 2026-06-08 03:31:41, 2026-06-08 03:46:47", "cumulative_total": 199.0 }, "geometry": { "type": "Polygon", "coordinates": [ [ [ -73.804590668725538, 45.488446360665442 ], [ -73.810933160261428, 45.491110985449403 ], [ -73.810823800200808, 45.496306678309082 ], [ -73.804370772518354, 45.498837722317873 ], [ -73.798027737974778, 45.496172730939158 ], [ -73.798138274111253, 45.490977062210924 ], [ -73.804590668725538, 45.488446360665442 ] ] ] } },
{ "type": "Feature", "properties": { "hex_id": 808386, "centroid_lon": -71.079703529655959, "centroid_lat": 46.025020689635937, "occurrences_today": 8, "datetimes_today": "2026-06-08 00:01:28, 2026-06-08 00:16:29, 2026-06-08 00:31:45, 2026-06-08 00:46:19, 2026-06-08 01:01:25, 2026-06-08 01:16:51, 2026-06-08 01:31:35, 2026-06-08 01:46:22", "cumulative_total": 62.0 }, "geometry": { "type": "Polygon", "coordinates": [ [ [ -71.080070498798179, 46.019836535454345 ], [ -71.086331790068996, 46.022649825328621 ], [ -71.085965370231236, 46.02783401580384 ], [ -71.079336459859874, 46.030204836821881 ], [ -71.073074719955528, 46.027391149746549 ], [ -71.073442339021938, 46.022207038918957 ], [ -71.080070498798179, 46.019836535454345 ] ] ] } },
{ "type": "Feature", "properties": { "hex_id": 808996, "centroid_lon": -71.073809857288182, "centroid_lat": 46.017022921088731, "occurrences_today": 8, "datetimes_today": "2026-06-08 00:01:28, 2026-06-08 00:16:29, 2026-06-08 00:31:45, 2026-06-08 00:46:19, 2026-06-08 01:01:25, 2026-06-08 01:16:51, 2026-06-08 01:31:35, 2026-06-08 01:46:22", "cumulative_total": 62.0 }, "geometry": { "type": "Polygon", "coordinates": [ [ [ -71.074177274788468, 46.011838796256669 ], [ -71.080437367320641, 46.014652374277908 ], [ -71.080070498798179, 46.019836535454345 ], [ -71.073442339021938, 46.022207038918957 ], [ -71.067181798295024, 46.019393063755871 ], [ -71.067549865504915, 46.014208982334715 ], [ -71.074177274788468, 46.011838796256669 ] ] ] } },
{ "type": "Feature", "properties": { "hex_id": 808997, "centroid_lon": -71.072707000054763, "centroid_lat": 46.032575253570734, "occurrences_today": 8, "datetimes_today": "2026-06-08 00:01:28, 2026-06-08 00:16:29, 2026-06-08 00:31:45, 2026-06-08 00:46:19, 2026-06-08 01:01:25, 2026-06-08 01:16:51, 2026-06-08 01:31:35, 2026-06-08 01:46:22", "cumulative_total": 62.0 }, "geometry": { "type": "Polygon", "coordinates": [ [ [ -71.073074719955528, 46.027391149746549 ], [ -71.079336459859874, 46.030204836821881 ], [ -71.078969289375777, 46.035388977011394 ], [ -71.072339179285464, 46.037759350390708 ], [ -71.066076990850121, 46.034945265958477 ], [ -71.066445361001854, 46.029761205568548 ], [ -71.073074719955528, 46.027391149746549 ] ] ] } },
{ "type": "Feature", "properties": { "hex_id": 809607, "centroid_lon": -71.066813630138739, "centroid_lat": 46.024577138167409, "occurrences_today": 8, "datetimes_today": "2026-06-08 00:01:28, 2026-06-08 00:16:29, 2026-06-08 00:31:45, 2026-06-08 00:46:19, 2026-06-08 01:01:25, 2026-06-08 01:16:51, 2026-06-08 01:31:35, 2026-06-08 01:46:22", "cumulative_total": 62.0 }, "geometry": { "type": "Polygon", "coordinates": [ [ [ -71.067181798295024, 46.019393063755871 ], [ -71.073442339021938, 46.022207038918957 ], [ -71.073074719955528, 46.027391149746549 ], [ -71.066445361001854, 46.029761205568548 ], [ -71.060184372182817, 46.026946833107857 ], [ -71.06055319037533, 46.021762802187496 ], [ -71.067181798295024, 46.019393063755871 ] ] ] } },
{ "type": "Feature", "properties": { "hex_id": 810217, "centroid_lon": -71.060921907441013, "centroid_lat": 46.016578764249687, "occurrences_today": 8, "datetimes_today": "2026-06-08 00:01:28, 2026-06-08 00:16:29, 2026-06-08 00:31:45, 2026-06-08 00:46:19, 2026-06-08 01:01:25, 2026-06-08 01:16:51, 2026-06-08 01:31:35, 2026-06-08 01:46:22", "cumulative_total": 62.0 }, "geometry": { "type": "Polygon", "coordinates": [ [ [ -71.061290523414172, 46.011394719295311 ], [ -71.067549865504915, 46.014208982334715 ], [ -71.067181798295024, 46.019393063755871 ], [ -71.06055319037533, 46.021762802187496 ], [ -71.054293400630996, 46.018948141909732 ], [ -71.054662666425656, 46.01376414050339 ], [ -71.061290523414172, 46.011394719295311 ] ] ] } },
{ "type": "Feature", "properties": { "hex_id": 810218, "centroid_lon": -71.059815452829199, "centroid_lat": 46.03213085701001, "occurrences_today": 8, "datetimes_today": "2026-06-08 00:01:28, 2026-06-08 00:16:29, 2026-06-08 00:31:45, 2026-06-08 00:46:19, 2026-06-08 01:01:25, 2026-06-08 01:16:51, 2026-06-08 01:31:35, 2026-06-08 01:46:22", "cumulative_total": 62.0 }, "geometry": { "type": "Polygon", "coordinates": [ [ [ -71.060184372182817, 46.026946833107857 ], [ -71.066445361001854, 46.029761205568548 ], [ -71.066076990850121, 46.034945265958477 ], [ -71.05944643228014, 46.037314873893159 ], [ -71.05318499547181, 46.034500103979049 ], [ -71.053554565188421, 46.029316123648371 ], [ -71.060184372182817, 46.026946833107857 ] ] ] } },
{ "type": "Feature", "properties": { "hex_id": 810828, "centroid_lon": -71.053924033563362, "centroid_lat": 46.024132136291662, "occurrences_today": 8, "datetimes_today": "2026-06-08 00:01:28, 2026-06-08 00:16:29, 2026-06-08 00:31:45, 2026-06-08 00:46:19, 2026-06-08 01:01:25, 2026-06-08 01:16:51, 2026-06-08 01:31:35, 2026-06-08 01:46:22", "cumulative_total": 62.0 }, "geometry": { "type": "Polygon", "coordinates": [ [ [ -71.054293400630996, 46.018948141909732 ], [ -71.06055319037533, 46.021762802187496 ], [ -71.060184372182817, 46.026946833107857 ], [ -71.053554565188421, 46.029316123648371 ], [ -71.047294327893454, 46.026501065976582 ], [ -71.047664345109155, 46.021317115223013 ], [ -71.054293400630996, 46.018948141909732 ] ] ] } },
{ "type": "Feature", "properties": { "hex_id": 811438, "centroid_lon": -71.048034260871447, "centroid_lat": 46.016133157437203, "occurrences_today": 8, "datetimes_today": "2026-06-08 00:01:28, 2026-06-08 00:16:29, 2026-06-08 00:31:45, 2026-06-08 00:46:19, 2026-06-08 01:01:25, 2026-06-08 01:16:51, 2026-06-08 01:31:35, 2026-06-08 01:46:22", "cumulative_total": 62.0 }, "geometry": { "type": "Polygon", "coordinates": [ [ [ -71.048404075214677, 46.010949192619954 ], [ -71.054662666425656, 46.01376414050339 ], [ -71.054293400630996, 46.018948141909732 ], [ -71.047664345109155, 46.021317115223013 ], [ -71.041405306785848, 46.018501770004896 ], [ -71.041775771062305, 46.013317848872852 ], [ -71.048404075214677, 46.010949192619954 ] ] ] } },
{ "type": "Feature", "properties": { "hex_id": 812048, "centroid_lon": -71.042146133773699, "centroid_lat": 46.008133920702342, "occurrences_today": 8, "datetimes_today": "2026-06-08 00:01:28, 2026-06-08 00:16:29, 2026-06-08 00:31:45, 2026-06-08 00:46:19, 2026-06-08 01:01:25, 2026-06-08 01:16:51, 2026-06-08 01:31:35, 2026-06-08 01:46:22", "cumulative_total": 62.0 }, "geometry": { "type": "Polygon", "coordinates": [ [ [ -71.042516394954461, 46.002949985494212 ], [ -71.048773788173236, 46.005765220772098 ], [ -71.048404075214677, 46.010949192619954 ], [ -71.041775771062305, 46.013317848872852 ], [ -71.035517931169196, 46.010502216319686 ], [ -71.03588884206836, 46.005318324853562 ], [ -71.042516394954461, 46.002949985494212 ] ] ] } },
{ "type": "Feature", "properties": { "hex_id": 812049, "centroid_lon": -71.041034740909879, "centroid_lat": 46.023685684097657, "occurrences_today": 8, "datetimes_today": "2026-06-08 00:01:28, 2026-06-08 00:16:29, 2026-06-08 00:31:45, 2026-06-08 00:46:19, 2026-06-08 01:01:25, 2026-06-08 01:16:51, 2026-06-08 01:31:35, 2026-06-08 01:46:22", "cumulative_total": 62.0 }, "geometry": { "type": "Polygon", "coordinates": [ [ [ -71.041405306785848, 46.018501770004896 ], [ -71.047664345109155, 46.021317115223013 ], [ -71.047294327893454, 46.026501065976582 ], [ -71.040664073399981, 46.028869591150347 ], [ -71.034404588067602, 46.026053848441869 ], [ -71.034775804203292, 46.020869978114661 ], [ -71.041405306785848, 46.018501770004896 ] ] ] } },
{ "type": "Feature", "properties": { "hex_id": 812659, "centroid_lon": -71.035146918558993, "centroid_lat": 46.015686100740325, "occurrences_today": 8, "datetimes_today": "2026-06-08 00:01:28, 2026-06-08 00:16:29, 2026-06-08 00:31:45, 2026-06-08 00:46:19, 2026-06-08 01:01:25, 2026-06-08 01:16:51, 2026-06-08 01:31:35, 2026-06-08 01:46:22", "cumulative_total": 62.0 }, "geometry": { "type": "Polygon", "coordinates": [ [ [ -71.035517931169196, 46.010502216319686 ], [ -71.041775771062305, 46.013317848872852 ], [ -71.041405306785848, 46.018501770004896 ], [ -71.034775804203292, 46.020869978114661 ], [ -71.028517517739189, 46.018053948130579 ], [ -71.028889180394131, 46.012870107532294 ], [ -71.035517931169196, 46.010502216319686 ] ] ] } },
{ "type": "Feature", "properties": { "hex_id": 813269, "centroid_lon": -71.029260741157628, "centroid_lat": 46.007686259880664, "occurrences_today": 8, "datetimes_today": "2026-06-08 00:01:28, 2026-06-08 00:16:29, 2026-06-08 00:31:45, 2026-06-08 00:46:19, 2026-06-08 01:01:25, 2026-06-08 01:16:51, 2026-06-08 01:31:35, 2026-06-08 01:46:22", "cumulative_total": 62.0 }, "geometry": { "type": "Polygon", "coordinates": [ [ [ -71.029632200064228, 46.002502405176514 ], [ -71.03588884206836, 46.005318324853562 ], [ -71.035517931169196, 46.010502216319686 ], [ -71.028889180394131, 46.012870107532294 ], [ -71.022632092256742, 46.010053790483816 ], [ -71.023004200993142, 46.0048699796588 ], [ -71.029632200064228, 46.002502405176514 ] ] ] } },
{ "type": "Feature", "properties": { "hex_id": 813270, "centroid_lon": -71.028145753158256, "centroid_lat": 46.023237781674673, "occurrences_today": 8, "datetimes_today": "2026-06-08 00:01:28, 2026-06-08 00:16:29, 2026-06-08 00:31:45, 2026-06-08 00:46:19, 2026-06-08 01:01:25, 2026-06-08 01:16:51, 2026-06-08 01:31:35, 2026-06-08 01:46:22", "cumulative_total": 62.0 }, "geometry": { "type": "Polygon", "coordinates": [ [ [ -71.028517517739189, 46.018053948130579 ], [ -71.034775804203292, 46.020869978114661 ], [ -71.034404588067602, 46.026053848441869 ], [ -71.027773886616771, 46.028421608163796 ], [ -71.021515153685272, 46.025605180593139 ], [ -71.021887568637425, 46.020421390951817 ], [ -71.028517517739189, 46.018053948130579 ] ] ] } },
{ "type": "Feature", "properties": { "hex_id": 813879, "centroid_lon": -71.023376207726784, "centroid_lat": 45.999686161774171, "occurrences_today": 8, "datetimes_today": "2026-06-08 00:01:28, 2026-06-08 00:16:29, 2026-06-08 00:31:45, 2026-06-08 00:46:19, 2026-06-08 01:01:25, 2026-06-08 01:16:51, 2026-06-08 01:31:35, 2026-06-08 01:46:22", "cumulative_total": 62.0 }, "geometry": { "type": "Polygon", "coordinates": [ [ [ -71.023748112492243, 45.994502336830791 ], [ -71.03000355714839, 45.997318543420619 ], [ -71.029632200064228, 46.002502405176514 ], [ -71.023004200993142, 46.0048699796588 ], [ -71.016748310641162, 46.002053375757015 ], [ -71.017120865021539, 45.996869594749512 ], [ -71.023748112492243, 45.994502336830791 ] ] ] } },
{ "type": "Feature", "properties": { "hex_id": 813880, "centroid_lon": -71.022259881483038, "centroid_lat": 46.015237594248418, "occurrences_today": 8, "datetimes_today": "2026-06-08 00:01:28, 2026-06-08 00:16:29, 2026-06-08 00:31:45, 2026-06-08 00:46:19, 2026-06-08 01:01:25, 2026-06-08 01:16:51, 2026-06-08 01:31:35, 2026-06-08 01:46:22", "cumulative_total": 62.0 }, "geometry": { "type": "Polygon", "coordinates": [ [ [ -71.022632092256742, 46.010053790483816 ], [ -71.028889180394131, 46.012870107532294 ], [ -71.028517517739189, 46.018053948130579 ], [ -71.021887568637425, 46.020421390951817 ], [ -71.015630034470476, 46.017604676376294 ], [ -71.016002895400263, 46.012420916571223 ], [ -71.022632092256742, 46.010053790483816 ] ] ] } },
{ "type": "Feature", "properties": { "hex_id": 814490, "centroid_lon": -71.016375654112281, "centroid_lat": 46.007237149697858, "occurrences_today": 13, "datetimes_today": "2026-06-08 00:01:28, 2026-06-08 00:16:29, 2026-06-08 00:31:45, 2026-06-08 00:46:19, 2026-06-08 01:01:25, 2026-06-08 01:16:51, 2026-06-08 01:31:35, 2026-06-08 01:46:22, 2026-06-08 02:01:35, 2026-06-08 02:17:08, 2026-06-08 02:31:37, 2026-06-08 02:46:32, 2026-06-08 03:01:32", "cumulative_total": 67.0 }, "geometry": { "type": "Polygon", "coordinates": [ [ [ -71.016748310641162, 46.002053375757015 ], [ -71.023004200993142, 46.0048699796588 ], [ -71.022632092256742, 46.010053790483816 ], [ -71.016002895400263, 46.012420916571223 ], [ -71.009746559456246, 46.009603915201971 ], [ -71.010119865926129, 46.004420185277418 ], [ -71.016748310641162, 46.002053375757015 ] ] ] } },
{ "type": "Feature", "properties": { "hex_id": 815100, "centroid_lon": -71.010493070067128, "centroid_lat": 45.99923644827831, "occurrences_today": 8, "datetimes_today": "2026-06-08 00:01:28, 2026-06-08 00:16:29, 2026-06-08 00:31:45, 2026-06-08 00:46:19, 2026-06-08 01:01:25, 2026-06-08 01:16:51, 2026-06-08 01:31:35, 2026-06-08 01:46:22", "cumulative_total": 62.0 }, "geometry": { "type": "Polygon", "coordinates": [ [ [ -71.010866171913904, 45.994052704205458 ], [ -71.017120865021539, 45.996869594749512 ], [ -71.016748310641162, 46.002053375757015 ], [ -71.010119865926129, 46.004420185277418 ], [ -71.003864727663625, 46.001602897325455 ], [ -71.004238479236378, 45.996419197325615 ], [ -71.010866171913904, 45.994052704205458 ] ] ] } },
{ "type": "Feature", "properties": { "hex_id": 815101, "centroid_lon": -71.009373150622793, "centroid_lat": 46.01478763805116, "occurrences_today": 8, "datetimes_today": "2026-06-08 00:01:28, 2026-06-08 00:16:29, 2026-06-08 00:31:45, 2026-06-08 00:46:19, 2026-06-08 01:01:25, 2026-06-08 01:16:51, 2026-06-08 01:31:35, 2026-06-08 01:46:22", "cumulative_total": 62.0 }, "geometry": { "type": "Polygon", "coordinates": [ [ [ -71.009746559456246, 46.009603915201971 ], [ -71.016002895400263, 46.012420916571223 ], [ -71.015630034470476, 46.017604676376294 ], [ -71.008999639391078, 46.019971353824154 ], [ -71.002742857959035, 46.017153954831876 ], [ -71.0031169170597, 46.01197027607941 ], [ -71.009746559456246, 46.009603915201971 ] ] ] } },
{ "type": "Feature", "properties": { "hex_id": 815711, "centroid_lon": -71.003490873616315, "centroid_lat": 46.006786590243657, "occurrences_today": 8, "datetimes_today": "2026-06-08 00:01:28, 2026-06-08 00:16:29, 2026-06-08 00:31:45, 2026-06-08 00:46:19, 2026-06-08 01:01:25, 2026-06-08 01:16:51, 2026-06-08 01:31:35, 2026-06-08 01:46:22", "cumulative_total": 62.0 }, "geometry": { "type": "Polygon", "coordinates": [ [ [ -71.003864727663625, 46.001602897325455 ], [ -71.010119865926129, 46.004420185277418 ], [ -71.009746559456246, 46.009603915201971 ], [ -71.0031169170597, 46.01197027607941 ], [ -70.996861333746452, 46.009152590564057 ], [ -70.99723583784575, 46.0039689417993 ], [ -71.003864727663625, 46.001602897325455 ] ] ] } },
{ "type": "Feature", "properties": { "hex_id": 816321, "centroid_lon": -70.997610239290083, "centroid_lat": 45.998785285944962, "occurrences_today": 8, "datetimes_today": "2026-06-08 00:01:28, 2026-06-08 00:16:29, 2026-06-08 00:31:45, 2026-06-08 00:46:19, 2026-06-08 01:01:25, 2026-06-08 01:16:51, 2026-06-08 01:31:35, 2026-06-08 01:46:22", "cumulative_total": 62.0 }, "geometry": { "type": "Polygon", "coordinates": [ [ [ -70.997984538114238, 45.993601623001901 ], [ -71.004238479236378, 45.996419197325615 ], [ -71.003864727663625, 46.001602897325455 ], [ -70.99723583784575, 46.0039689417993 ], [ -70.990981452109807, 46.001150969971832 ], [ -70.991356400770755, 45.995967351238882 ], [ -70.997984538114238, 45.993601623001901 ] ] ] } },
{ "type": "Feature", "properties": { "hex_id": 816932, "centroid_lon": -70.990606400648247, "centroid_lat": 46.006334581608108, "occurrences_today": 8, "datetimes_today": "2026-06-08 00:01:28, 2026-06-08 00:16:29, 2026-06-08 00:31:45, 2026-06-08 00:46:19, 2026-06-08 01:01:25, 2026-06-08 01:16:51, 2026-06-08 01:31:35, 2026-06-08 01:46:22", "cumulative_total": 66.0 }, "geometry": { "type": "Polygon", "coordinates": [ [ [ -70.990981452109807, 46.001150969971832 ], [ -70.99723583784575, 46.0039689417993 ], [ -70.996861333746452, 46.009152590564057 ], [ -70.990231246351271, 46.011518186146908 ], [ -70.983976416105918, 46.008699816660268 ], [ -70.984352117730282, 46.003516249314586 ], [ -70.990981452109807, 46.001150969971832 ] ] ] } },
{ "type": "Feature", "properties": { "hex_id": 524451, "centroid_lon": -74.096009761950484, "centroid_lat": 45.270255321211359, "occurrences_today": 2, "datetimes_today": "2026-06-08 03:31:41, 2026-06-08 03:46:47", "cumulative_total": 43.0 }, "geometry": { "type": "Polygon", "coordinates": [ [ [ -74.096092245641501, 45.265058948634518 ], [ -74.10242391127089, 45.267707399813617 ], [ -74.102341997751523, 45.272903779014719 ], [ -74.095927255792787, 45.275451688922132 ], [ -74.08959504246215, 45.272802876724526 ], [ -74.089678118783993, 45.26760651570207 ], [ -74.096092245641501, 45.265058948634518 ] ] ] } },
{ "type": "Feature", "properties": { "hex_id": 595876, "centroid_lon": -73.352071568271327, "centroid_lat": 45.207373706444983, "occurrences_today": 7, "datetimes_today": "2026-06-08 00:01:28, 2026-06-08 00:16:29, 2026-06-08 00:31:45, 2026-06-08 00:46:19, 2026-06-08 01:01:25, 2026-06-08 01:16:51, 2026-06-08 01:31:35", "cumulative_total": 64.0 }, "geometry": { "type": "Polygon", "coordinates": [ [ [ -73.352221588354311, 45.202178781390963 ], [ -73.358510626625801, 45.204867912824007 ], [ -73.35836116495831, 45.210062851823018 ], [ -73.351921507368317, 45.212568626362653 ], [ -73.345631951508139, 45.209879127738603 ], [ -73.345782570813043, 45.204684221829694 ], [ -73.352221588354311, 45.202178781390963 ] ] ] } },
{ "type": "Feature", "properties": { "hex_id": 596487, "centroid_lon": -73.345481291219087, "centroid_lat": 45.215074028508127, "occurrences_today": 7, "datetimes_today": "2026-06-08 00:01:28, 2026-06-08 00:16:29, 2026-06-08 00:31:45, 2026-06-08 00:46:19, 2026-06-08 01:01:25, 2026-06-08 01:16:51, 2026-06-08 01:31:35", "cumulative_total": 109.0 }, "geometry": { "type": "Polygon", "coordinates": [ [ [ -73.345631951508139, 45.209879127738603 ], [ -73.351921507368317, 45.212568626362653 ], [ -73.351771405631723, 45.21776354114386 ], [ -73.345330589932288, 45.220268924138125 ], [ -73.33904051652425, 45.217579058165988 ], [ -73.339191776349864, 45.212384176611458 ], [ -73.345631951508139, 45.209879127738603 ] ] ] } },
{ "type": "Feature", "properties": { "hex_id": 597097, "centroid_lon": -73.339342995027181, "centroid_lat": 45.207189289914467, "occurrences_today": 7, "datetimes_today": "2026-06-08 00:01:28, 2026-06-08 00:16:29, 2026-06-08 00:31:45, 2026-06-08 00:46:19, 2026-06-08 01:01:25, 2026-06-08 01:16:51, 2026-06-08 01:31:35", "cumulative_total": 64.0 }, "geometry": { "type": "Polygon", "coordinates": [ [ [ -73.339494172569886, 45.201994398075144 ], [ -73.345782570813043, 45.204684221829694 ], [ -73.345631951508139, 45.209879127738603 ], [ -73.339191776349864, 45.212384176611458 ], [ -73.332902861010339, 45.20969398555188 ], [ -73.333054637911758, 45.204499112988238 ], [ -73.339494172569886, 45.201994398075144 ] ] ] } },
{ "type": "Feature", "properties": { "hex_id": 780919, "centroid_lon": -71.364181328040118, "centroid_lat": 46.120183019096999, "occurrences_today": 3, "datetimes_today": "2026-06-08 00:01:28, 2026-06-08 00:16:29, 2026-06-08 00:31:45", "cumulative_total": 39.0 }, "geometry": { "type": "Polygon", "coordinates": [ [ [ -71.364522836260761, 46.11499724901352 ], [ -71.370810059833445, 46.117795628189704 ], [ -71.37046910815846, 46.122981431909771 ], [ -71.363839726005494, 46.125368782493297 ], [ -71.357552039717049, 46.122570007140773 ], [ -71.357894198265441, 46.117384277446142 ], [ -71.364522836260761, 46.11499724901352 ] ] ] } },
{ "type": "Feature", "properties": { "hex_id": 781530, "centroid_lon": -71.357209787173915, "centroid_lat": 46.127755730141004, "occurrences_today": 3, "datetimes_today": "2026-06-08 00:01:28, 2026-06-08 00:16:29, 2026-06-08 00:31:45", "cumulative_total": 39.0 }, "geometry": { "type": "Polygon", "coordinates": [ [ [ -71.357552039717049, 46.122570007140773 ], [ -71.363839726005494, 46.125368782493297 ], [ -71.363498030125001, 46.130554539201754 ], [ -71.35686744060402, 46.132941446446154 ], [ -71.350579291695681, 46.130142274760026 ], [ -71.350922194896228, 46.124956592228202 ], [ -71.357552039717049, 46.122570007140773 ] ] ] } },
{ "type": "Feature", "properties": { "hex_id": 782140, "centroid_lon": -71.351265003921171, "centroid_lat": 46.119770902994723, "occurrences_today": 3, "datetimes_today": "2026-06-08 00:01:28, 2026-06-08 00:16:29, 2026-06-08 00:31:45", "cumulative_total": 39.0 }, "geometry": { "type": "Polygon", "coordinates": [ [ [ -71.351607718802498, 46.114585207060301 ], [ -71.357894198265441, 46.117384277446142 ], [ -71.357552039717049, 46.122570007140773 ], [ -71.350922194896228, 46.124956592228202 ], [ -71.344635253259952, 46.122157125566503 ], [ -71.344978618585813, 46.116971470158312 ], [ -71.351607718802498, 46.114585207060301 ] ] ] } },
{ "type": "Feature", "properties": { "hex_id": 782750, "centroid_lon": -71.345321889619342, "centroid_lat": 46.111785808042605, "occurrences_today": 3, "datetimes_today": "2026-06-08 00:01:28, 2026-06-08 00:16:29, 2026-06-08 00:31:45", "cumulative_total": 39.0 }, "geometry": { "type": "Polygon", "coordinates": [ [ [ -71.34566506639257, 46.106600139220056 ], [ -71.351950339572269, 46.109399504425596 ], [ -71.351607718802498, 46.114585207060301 ], [ -71.344978618585813, 46.116971470158312 ], [ -71.338692883678959, 46.114171708734666 ], [ -71.339036710683914, 46.108986080496166 ], [ -71.34566506639257, 46.106600139220056 ] ] ] } },
{ "type": "Feature", "properties": { "hex_id": 783361, "centroid_lon": -71.338348962232971, "centroid_lat": 46.119357330259064, "occurrences_today": 3, "datetimes_today": "2026-06-08 00:01:28, 2026-06-08 00:16:29, 2026-06-08 00:31:45", "cumulative_total": 39.0 }, "geometry": { "type": "Polygon", "coordinates": [ [ [ -71.338692883678959, 46.114171708734666 ], [ -71.344978618585813, 46.116971470158312 ], [ -71.344635253259952, 46.122157125566503 ], [ -71.338004946313816, 46.12454294506869 ], [ -71.331718749776087, 46.121742787269802 ], [ -71.332063321783238, 46.116557206409027 ], [ -71.338692883678959, 46.114171708734666 ] ] ] } },
{ "type": "Feature", "properties": { "hex_id": 783971, "centroid_lon": -71.332407799168521, "centroid_lat": 46.111371618826901, "occurrences_today": 3, "datetimes_today": "2026-06-08 00:01:28, 2026-06-08 00:16:29, 2026-06-08 00:31:45", "cumulative_total": 39.0 }, "geometry": { "type": "Polygon", "coordinates": [ [ [ -71.332752181964125, 46.106186024524092 ], [ -71.339036710683914, 46.108986080496166 ], [ -71.338692883678959, 46.114171708734666 ], [ -71.332063321783238, 46.116557206409027 ], [ -71.325778331878567, 46.113756754119542 ], [ -71.32612336502234, 46.108571200538151 ], [ -71.332752181964125, 46.106186024524092 ] ] ] } },
{ "type": "Feature", "properties": { "hex_id": 785192, "centroid_lon": -71.319493992486755, "centroid_lat": 46.110955973493752, "occurrences_today": 3, "datetimes_today": "2026-06-08 00:01:28, 2026-06-08 00:16:29, 2026-06-08 00:31:45", "cumulative_total": 45.0 }, "geometry": { "type": "Polygon", "coordinates": [ [ [ -71.319839581208242, 46.10577045397153 ], [ -71.32612336502234, 46.108571200538151 ], [ -71.325778331878567, 46.113756754119542 ], [ -71.319148308846223, 46.116141486281393 ], [ -71.312864064389572, 46.113340343298177 ], [ -71.313210303575545, 46.108154864634756 ], [ -71.319839581208242, 46.10577045397153 ] ] ] } },
{ "type": "Feature", "properties": { "hex_id": 599596, "centroid_lon": -73.287013032247515, "centroid_lat": 46.095055305772185, "occurrences_today": 4, "datetimes_today": "2026-06-08 03:01:32, 2026-06-08 03:16:41, 2026-06-08 03:31:41, 2026-06-08 03:46:47", "cumulative_total": 66.0 }, "geometry": { "type": "Polygon", "coordinates": [ [ [ -73.287173873742077, 46.089861364440445 ], [ -73.293558614605416, 46.092555065204294 ], [ -73.293398357433404, 46.097749021381865 ], [ -73.286852146513709, 46.10024924192755 ], [ -73.280466865574624, 46.097555162028442 ], [ -73.280628335615916, 46.092361240784697 ], [ -73.287173873742077, 46.089861364440445 ] ] ] } },
{ "type": "Feature", "properties": { "hex_id": 781531, "centroid_lon": -71.356182465255998, "centroid_lat": 46.143312858968464, "occurrences_today": 3, "datetimes_today": "2026-06-08 00:01:28, 2026-06-08 00:16:29, 2026-06-08 00:31:45", "cumulative_total": 48.0 }, "geometry": { "type": "Polygon", "coordinates": [ [ [ -71.356524999975377, 46.138127156055532 ], [ -71.362814356698621, 46.140926032552358 ], [ -71.362472379088828, 46.146111769193155 ], [ -71.355839836413821, 46.148498555184275 ], [ -71.349550016719789, 46.14569928213885 ], [ -71.349893202639521, 46.140513619716032 ], [ -71.356524999975377, 46.138127156055532 ] ] ] } },
{ "type": "Feature", "properties": { "hex_id": 565384, "centroid_lon": -73.658172304479578, "centroid_lat": 45.725869986821131, "occurrences_today": 16, "datetimes_today": "2026-06-08 00:01:28, 2026-06-08 00:16:29, 2026-06-08 00:31:45, 2026-06-08 00:46:19, 2026-06-08 01:01:25, 2026-06-08 01:16:51, 2026-06-08 01:31:35, 2026-06-08 01:46:22, 2026-06-08 02:01:35, 2026-06-08 02:17:08, 2026-06-08 02:31:37, 2026-06-08 02:46:32, 2026-06-08 03:01:32, 2026-06-08 03:16:41, 2026-06-08 03:31:41, 2026-06-08 03:46:47", "cumulative_total": 133.0 }, "geometry": { "type": "Polygon", "coordinates": [ [ [ -73.658296691687767, 45.720674809870609 ], [ -73.664658047182058, 45.723347669173691 ], [ -73.664534238082879, 45.728542857183719 ], [ -73.658047883210131, 45.731065158762874 ], [ -73.651685983673843, 45.728391928538272 ], [ -73.651810983040789, 45.723196767721049 ], [ -73.658296691687767, 45.720674809870609 ] ] ] } },
{ "type": "Feature", "properties": { "hex_id": 158366, "centroid_lon": -78.106410669919839, "centroid_lat": 48.583005152360293, "occurrences_today": 16, "datetimes_today": "2026-06-08 00:01:28, 2026-06-08 00:16:29, 2026-06-08 00:31:45, 2026-06-08 00:46:19, 2026-06-08 01:01:25, 2026-06-08 01:16:51, 2026-06-08 01:31:35, 2026-06-08 01:46:22, 2026-06-08 02:01:35, 2026-06-08 02:17:08, 2026-06-08 02:31:37, 2026-06-08 02:46:32, 2026-06-08 03:01:32, 2026-06-08 03:16:41, 2026-06-08 03:31:41, 2026-06-08 03:46:47", "cumulative_total": 45.0 }, "geometry": { "type": "Polygon", "coordinates": [ [ [ -78.106092583622726, 48.57781879174722 ], [ -78.113020815457162, 48.580228993816441 ], [ -78.113339637549657, 48.585415318132711 ], [ -78.106728846716521, 48.588191506717585 ], [ -78.099799788570721, 48.585780945014612 ], [ -78.099482347602333, 48.580594554432196 ], [ -78.106092583622726, 48.57781879174722 ] ] ] } },
{ "type": "Feature", "properties": { "hex_id": 158976, "centroid_lon": -78.099164996921445, "centroid_lat": 48.575408157600926, "occurrences_today": 16, "datetimes_today": "2026-06-08 00:01:28, 2026-06-08 00:16:29, 2026-06-08 00:31:45, 2026-06-08 00:46:19, 2026-06-08 01:01:25, 2026-06-08 01:16:51, 2026-06-08 01:31:35, 2026-06-08 01:46:22, 2026-06-08 02:01:35, 2026-06-08 02:17:08, 2026-06-08 02:31:37, 2026-06-08 02:46:32, 2026-06-08 03:01:32, 2026-06-08 03:16:41, 2026-06-08 03:31:41, 2026-06-08 03:46:47", "cumulative_total": 60.0 }, "geometry": { "type": "Polygon", "coordinates": [ [ [ -78.09884773649523, 48.570221754521313 ], [ -78.105774587792212, 48.572632424878819 ], [ -78.106092583622726, 48.57781879174722 ], [ -78.099482347602333, 48.580594554432196 ], [ -78.092554670629994, 48.578183524451312 ], [ -78.092238055386218, 48.572997091480516 ], [ -78.09884773649523, 48.570221754521313 ] ] ] } },
{ "type": "Feature", "properties": { "hex_id": 159587, "centroid_lon": -78.092871375949287, "centroid_lat": 48.583369951180224, "occurrences_today": 16, "datetimes_today": "2026-06-08 00:01:28, 2026-06-08 00:16:29, 2026-06-08 00:31:45, 2026-06-08 00:46:19, 2026-06-08 01:01:25, 2026-06-08 01:16:51, 2026-06-08 01:31:35, 2026-06-08 01:46:22, 2026-06-08 02:01:35, 2026-06-08 02:17:08, 2026-06-08 02:31:37, 2026-06-08 02:46:32, 2026-06-08 03:01:32, 2026-06-08 03:16:41, 2026-06-08 03:31:41, 2026-06-08 03:46:47", "cumulative_total": 45.0 }, "geometry": { "type": "Polygon", "coordinates": [ [ [ -78.092554670629994, 48.578183524451312 ], [ -78.099482347602333, 48.580594554432196 ], [ -78.099799788570721, 48.585780945014612 ], [ -78.09318817137688, 48.588556371666769 ], [ -78.086259668630788, 48.586144981878803 ], [ -78.085943608885046, 48.580958525317449 ], [ -78.092554670629994, 48.578183524451312 ] ] ] } },
{ "type": "Feature", "properties": { "hex_id": 520178, "centroid_lon": -74.140504815096165, "centroid_lat": 45.278394378434854, "occurrences_today": 2, "datetimes_today": "2026-06-08 03:31:41, 2026-06-08 03:46:47", "cumulative_total": 5.0 }, "geometry": { "type": "Polygon", "coordinates": [ [ [ -74.14058326143757, 45.27319795108987 ], [ -74.146917932434093, 45.27584395367041 ], [ -74.146840057088767, 45.281040387199234 ], [ -74.1404263473855, 45.283590800924962 ], [ -74.134091126765753, 45.280944437650504 ], [ -74.134170165465363, 45.27574802140829 ], [ -74.14058326143757, 45.27319795108987 ] ] ] } },
{ "type": "Feature", "properties": { "hex_id": 520788, "centroid_lon": -74.134249182640886, "centroid_lat": 45.270551600309652, "occurrences_today": 2, "datetimes_today": "2026-06-08 03:31:41, 2026-06-08 03:46:47", "cumulative_total": 21.0 }, "geometry": { "type": "Polygon", "coordinates": [ [ [ -74.134328178299526, 45.26535517435461 ], [ -74.14066168641682, 45.268001518890053 ], [ -74.14058326143757, 45.27319795108987 ], [ -74.134170165465363, 45.27574802140829 ], [ -74.127836108189143, 45.273101316216845 ], [ -74.127915696036908, 45.267904901427045 ], [ -74.134328178299526, 45.26535517435461 ] ] ] } },
{ "type": "Feature", "properties": { "hex_id": 521399, "centroid_lon": -74.127756498662606, "centroid_lat": 45.278297726148651, "occurrences_today": 2, "datetimes_today": "2026-06-08 03:31:41, 2026-06-08 03:46:47", "cumulative_total": 16.0 }, "geometry": { "type": "Polygon", "coordinates": [ [ [ -74.127836108189143, 45.273101316216845 ], [ -74.134170165465363, 45.27574802140829 ], [ -74.134091126765753, 45.280944437650504 ], [ -74.127676867450006, 45.283494131222426 ], [ -74.121342261036503, 45.280847065216037 ], [ -74.121422463068825, 45.275650666516725 ], [ -74.127836108189143, 45.273101316216845 ] ] ] } },
{ "type": "Feature", "properties": { "hex_id": 522009, "centroid_lon": -74.121502643260357, "centroid_lat": 45.270454262957799, "occurrences_today": 2, "datetimes_today": "2026-06-08 03:31:41, 2026-06-08 03:46:47", "cumulative_total": 21.0 }, "geometry": { "type": "Polygon", "coordinates": [ [ [ -74.121582801618402, 45.2652578545393 ], [ -74.127915696036908, 45.267904901427045 ], [ -74.127836108189143, 45.273101316216845 ], [ -74.121422463068825, 45.275650666516725 ], [ -74.115089019977162, 45.273003258852022 ], [ -74.115169770671727, 45.267806861728459 ], [ -74.121582801618402, 45.2652578545393 ] ] ] } },
{ "type": "Feature", "properties": { "hex_id": 693564, "centroid_lon": -72.328414197926477, "centroid_lat": 45.312736452713267, "occurrences_today": 16, "datetimes_today": "2026-06-08 00:01:28, 2026-06-08 00:16:29, 2026-06-08 00:31:45, 2026-06-08 00:46:19, 2026-06-08 01:01:25, 2026-06-08 01:16:51, 2026-06-08 01:31:35, 2026-06-08 01:46:22, 2026-06-08 02:01:35, 2026-06-08 02:17:08, 2026-06-08 02:31:37, 2026-06-08 02:46:32, 2026-06-08 03:01:32, 2026-06-08 03:16:41, 2026-06-08 03:31:41, 2026-06-08 03:46:47", "cumulative_total": 99.0 }, "geometry": { "type": "Polygon", "coordinates": [ [ [ -72.328658247348159, 45.307545128429801 ], [ -72.33490776295605, 45.310289747204386 ], [ -72.334664260778652, 45.315481095418605 ], [ -72.328170082062172, 45.317927771227573 ], [ -72.32192008566372, 45.315182774850456 ], [ -72.32216474875014, 45.309991480330581 ], [ -72.328658247348159, 45.307545128429801 ] ] ] } },
{ "type": "Feature", "properties": { "hex_id": 581856, "centroid_lon": -73.489562018966623, "centroid_lat": 45.544477973385213, "occurrences_today": 7, "datetimes_today": "2026-06-08 00:01:28, 2026-06-08 00:16:29, 2026-06-08 00:31:45, 2026-06-08 00:46:19, 2026-06-08 01:01:25, 2026-06-08 01:16:51, 2026-06-08 01:31:35", "cumulative_total": 223.0 }, "geometry": { "type": "Polygon", "coordinates": [ [ [ -73.489701150487662, 45.539283011977375 ], [ -73.496033977358906, 45.541964983678284 ], [ -73.495895416143497, 45.547159957770084 ], [ -73.489422849433694, 45.549672929715776 ], [ -73.483089490275091, 45.546990587829349 ], [ -73.483229230100889, 45.541795644247323 ], [ -73.489701150487662, 45.539283011977375 ] ] ] } },
{ "type": "Feature", "properties": { "hex_id": 490315, "centroid_lon": -74.444973886172903, "centroid_lat": 46.083161886195946, "occurrences_today": 1, "datetimes_today": "2026-06-08 00:01:28", "cumulative_total": 154.0 }, "geometry": { "type": "Polygon", "coordinates": [ [ [ -74.445025985840275, 46.077965852603676 ], [ -74.4514662835374, 46.080595085649598 ], [ -74.451414783729689, 46.085791122474895 ], [ -74.444921772171966, 46.088357914997644 ], [ -74.438480888951148, 46.0857283140517 ], [ -74.438533602806871, 46.08053228854898 ], [ -74.445025985840275, 46.077965852603676 ] ] ] } },
{ "type": "Feature", "properties": { "hex_id": 490926, "centroid_lon": -74.438428160592466, "centroid_lat": 46.090924334762803, "occurrences_today": 1, "datetimes_today": "2026-06-08 00:01:28", "cumulative_total": 120.0 }, "geometry": { "type": "Polygon", "coordinates": [ [ [ -74.438480888951148, 46.0857283140517 ], [ -74.444921772171966, 46.088357914997644 ], [ -74.444869643832618, 46.093553939008807 ], [ -74.438375417725865, 46.096120350682313 ], [ -74.431933948996104, 46.093490381672211 ], [ -74.431987291877078, 46.088294369118735 ], [ -74.438480888951148, 46.0857283140517 ] ] ] } },
{ "type": "Feature", "properties": { "hex_id": 491536, "centroid_lon": -74.432040620085616, "centroid_lat": 46.083098351772584, "occurrences_today": 1, "datetimes_today": "2026-06-08 00:01:28", "cumulative_total": 166.0 }, "geometry": { "type": "Polygon", "coordinates": [ [ [ -74.432093933626689, 46.077902329633723 ], [ -74.438533602806871, 46.08053228854898 ], [ -74.438480888951148, 46.0857283140517 ], [ -74.431987291877078, 46.088294369118735 ], [ -74.425547037681511, 46.085664042176347 ], [ -74.425600965570396, 46.080468028259986 ], [ -74.432093933626689, 46.077902329633723 ] ] ] } },
{ "type": "Feature", "properties": { "hex_id": 492757, "centroid_lon": -74.419107398000691, "centroid_lat": 46.083033354035372, "occurrences_today": 1, "datetimes_today": "2026-06-08 00:01:28", "cumulative_total": 156.0 }, "geometry": { "type": "Polygon", "coordinates": [ [ [ -74.419161925400459, 46.07783734361368 ], [ -74.425600965570396, 46.080468028259986 ], [ -74.425547037681511, 46.085664042176347 ], [ -74.419052855599574, 46.088229359662179 ], [ -74.412613230922673, 46.085598306861741 ], [ -74.412668372829572, 46.080402304795555 ], [ -74.419161925400459, 46.07783734361368 ] ] ] } },
{ "type": "Feature", "properties": { "hex_id": 669210, "centroid_lon": -72.538390750783705, "centroid_lat": 46.346392511801668, "occurrences_today": 3, "datetimes_today": "2026-06-08 00:01:28, 2026-06-08 00:16:29, 2026-06-08 00:31:45", "cumulative_total": 217.0 }, "geometry": { "type": "Polygon", "coordinates": [ [ [ -72.538623882670052, 46.341201276047272 ], [ -72.544998957039013, 46.343936534419932 ], [ -72.544766406415462, 46.349127792518139 ], [ -72.538157554598627, 46.351583741914872 ], [ -72.531781963276657, 46.34884809433786 ], [ -72.532015740702462, 46.343656886634626 ], [ -72.538623882670052, 46.341201276047272 ] ] ] } },
{ "type": "Feature", "properties": { "hex_id": 851800, "centroid_lon": -70.535720961861017, "centroid_lat": 47.072954526044562, "occurrences_today": 16, "datetimes_today": "2026-06-08 00:01:28, 2026-06-08 00:16:29, 2026-06-08 00:31:45, 2026-06-08 00:46:19, 2026-06-08 01:01:25, 2026-06-08 01:16:51, 2026-06-08 01:31:35, 2026-06-08 01:46:22, 2026-06-08 02:01:35, 2026-06-08 02:17:08, 2026-06-08 02:31:37, 2026-06-08 02:46:32, 2026-06-08 03:01:32, 2026-06-08 03:16:41, 2026-06-08 03:31:41, 2026-06-08 03:46:47", "cumulative_total": 113.0 }, "geometry": { "type": "Polygon", "coordinates": [ [ [ -70.536154317851214, 47.067774935166774 ], [ -70.542503078160124, 47.070620957952194 ], [ -70.542070294240887, 47.075800591091244 ], [ -70.535287485441302, 47.078134109161319 ], [ -70.528938273511912, 47.075287670691026 ], [ -70.529372321960651, 47.070108129902422 ], [ -70.536154317851214, 47.067774935166774 ] ] ] } },
{ "type": "Feature", "properties": { "hex_id": 852411, "centroid_lon": -70.528504104438497, "centroid_lat": 47.080467203709198, "occurrences_today": 16, "datetimes_today": "2026-06-08 00:01:28, 2026-06-08 00:16:29, 2026-06-08 00:31:45, 2026-06-08 00:46:19, 2026-06-08 01:01:25, 2026-06-08 01:16:51, 2026-06-08 01:31:35, 2026-06-08 01:46:22, 2026-06-08 02:01:35, 2026-06-08 02:17:08, 2026-06-08 02:31:37, 2026-06-08 02:46:32, 2026-06-08 03:01:32, 2026-06-08 03:16:41, 2026-06-08 03:31:41, 2026-06-08 03:46:47", "cumulative_total": 113.0 }, "geometry": { "type": "Polygon", "coordinates": [ [ [ -70.528938273511912, 47.075287670691026 ], [ -70.535287485441302, 47.078134109161319 ], [ -70.534853888550103, 47.083313684515957 ], [ -70.528069814698327, 47.085646728955844 ], [ -70.521720151274479, 47.082799874640557 ], [ -70.52215501315483, 47.077620391797268 ], [ -70.528938273511912, 47.075287670691026 ] ] ] } },
{ "type": "Feature", "properties": { "hex_id": 853021, "centroid_lon": -70.522589754215247, "centroid_lat": 47.072440901174112, "occurrences_today": 16, "datetimes_today": "2026-06-08 00:01:28, 2026-06-08 00:16:29, 2026-06-08 00:31:45, 2026-06-08 00:46:19, 2026-06-08 01:01:25, 2026-06-08 01:16:51, 2026-06-08 01:31:35, 2026-06-08 01:46:22, 2026-06-08 02:01:35, 2026-06-08 02:17:08, 2026-06-08 02:31:37, 2026-06-08 02:46:32, 2026-06-08 03:01:32, 2026-06-08 03:16:41, 2026-06-08 03:31:41, 2026-06-08 03:46:47", "cumulative_total": 94.0 }, "geometry": { "type": "Polygon", "coordinates": [ [ [ -70.523024374497822, 47.067261402772175 ], [ -70.529372321960651, 47.070108129902422 ], [ -70.528938273511912, 47.075287670691026 ], [ -70.52215501315483, 47.077620391797268 ], [ -70.515806614657038, 47.074773248887581 ], [ -70.516241927509228, 47.069593800717968 ], [ -70.523024374497822, 47.067261402772175 ] ] ] } },
{ "type": "Feature", "properties": { "hex_id": 853632, "centroid_lon": -70.515371180831778, "centroid_lat": 47.079952689268985, "occurrences_today": 16, "datetimes_today": "2026-06-08 00:01:28, 2026-06-08 00:16:29, 2026-06-08 00:31:45, 2026-06-08 00:46:19, 2026-06-08 01:01:25, 2026-06-08 01:16:51, 2026-06-08 01:31:35, 2026-06-08 01:46:22, 2026-06-08 02:01:35, 2026-06-08 02:17:08, 2026-06-08 02:31:37, 2026-06-08 02:46:32, 2026-06-08 03:01:32, 2026-06-08 03:16:41, 2026-06-08 03:31:41, 2026-06-08 03:46:47", "cumulative_total": 194.0 }, "geometry": { "type": "Polygon", "coordinates": [ [ [ -70.515806614657038, 47.074773248887581 ], [ -70.52215501315483, 47.077620391797268 ], [ -70.521720151274479, 47.082799874640557 ], [ -70.514935625991328, 47.085132121861079 ], [ -70.50858677658492, 47.082284563011882 ], [ -70.509022903328116, 47.077105172948549 ], [ -70.515806614657038, 47.074773248887581 ] ] ] } },
{ "type": "Feature", "properties": { "hex_id": 505541, "centroid_lon": -74.290569174788033, "centroid_lat": 45.513285969385201, "occurrences_today": 5, "datetimes_today": "2026-06-08 00:01:28, 2026-06-08 00:16:29, 2026-06-08 00:31:45, 2026-06-08 00:46:19, 2026-06-08 01:01:25", "cumulative_total": 209.0 }, "geometry": { "type": "Polygon", "coordinates": [ [ [ -74.29063445770673, 45.508089570012288 ], [ -74.297002397386564, 45.510727341675732 ], [ -74.296937694531522, 45.515923745769499 ], [ -74.29050387403538, 45.518482363937068 ], [ -74.284135372128844, 45.515844230086458 ], [ -74.28420125293917, 45.510647840320054 ], [ -74.29063445770673, 45.508089570012288 ] ] ] } },
{ "type": "Feature", "properties": { "hex_id": 551328, "centroid_lon": -73.810714410275466, "centroid_lat": 45.501502366216634, "occurrences_today": 11, "datetimes_today": "2026-06-08 01:16:51, 2026-06-08 01:31:35, 2026-06-08 01:46:22, 2026-06-08 02:01:35, 2026-06-08 02:17:08, 2026-06-08 02:31:37, 2026-06-08 02:46:32, 2026-06-08 03:01:32, 2026-06-08 03:16:41, 2026-06-08 03:31:41, 2026-06-08 03:46:47", "cumulative_total": 148.0 }, "geometry": { "type": "Polygon", "coordinates": [ [ [ -73.810823800200808, 45.496306678309082 ], [ -73.817167467827602, 45.498970965133282 ], [ -73.817058651256147, 45.504166662536953 ], [ -73.810604990475426, 45.506698049171973 ], [ -73.804260779374474, 45.50403339571259 ], [ -73.804370772518354, 45.498837722317873 ], [ -73.810823800200808, 45.496306678309082 ] ] ] } },
{ "type": "Feature", "properties": { "hex_id": 564163, "centroid_lon": -73.671020014683805, "centroid_lat": 45.726020179702402, "occurrences_today": 16, "datetimes_today": "2026-06-08 00:01:28, 2026-06-08 00:16:29, 2026-06-08 00:31:45, 2026-06-08 00:46:19, 2026-06-08 01:01:25, 2026-06-08 01:16:51, 2026-06-08 01:31:35, 2026-06-08 01:46:22, 2026-06-08 02:01:35, 2026-06-08 02:17:08, 2026-06-08 02:31:37, 2026-06-08 02:46:32, 2026-06-08 03:01:32, 2026-06-08 03:16:41, 2026-06-08 03:31:41, 2026-06-08 03:46:47", "cumulative_total": 202.0 }, "geometry": { "type": "Polygon", "coordinates": [ [ [ -73.671143211769831, 45.720824975691599 ], [ -73.677505213001496, 45.723497126414607 ], [ -73.677382594204389, 45.728692341357345 ], [ -73.670896783862176, 45.7312153787094 ], [ -73.664534238082879, 45.728542857183719 ], [ -73.664658047182058, 45.723347669173691 ], [ -73.671143211769831, 45.720824975691599 ] ] ] } },
{ "type": "Feature", "properties": { "hex_id": 781532, "centroid_lon": -71.355154296232953, "centroid_lat": 46.158869927521764, "occurrences_today": 3, "datetimes_today": "2026-06-08 00:01:28, 2026-06-08 00:16:29, 2026-06-08 00:31:45", "cumulative_total": 46.0 }, "geometry": { "type": "Polygon", "coordinates": [ [ [ -71.355497113416831, 46.153684244702269 ], [ -71.361788141916151, 46.156483222402372 ], [ -71.36144588228926, 46.16166893896942 ], [ -71.354811384830143, 46.16405560364209 ], [ -71.348519893008827, 46.161256229178242 ], [ -71.348863361936566, 46.156070586870634 ], [ -71.355497113416831, 46.153684244702269 ] ] ] } },
{ "type": "Feature", "properties": { "hex_id": 782142, "centroid_lon": -71.349206736496171, "centroid_lat": 46.150884937857271, "occurrences_today": 3, "datetimes_today": "2026-06-08 00:01:28, 2026-06-08 00:16:29, 2026-06-08 00:31:45", "cumulative_total": 46.0 }, "geometry": { "type": "Polygon", "coordinates": [ [ [ -71.349550016719789, 46.14569928213885 ], [ -71.355839836413821, 46.148498555184275 ], [ -71.355497113416831, 46.153684244702269 ], [ -71.348863361936566, 46.156070586870634 ], [ -71.342573079367938, 46.153270917119251 ], [ -71.342917011122069, 46.14808530197061 ], [ -71.349550016719789, 46.14569928213885 ] ] ] } },
{ "type": "Feature", "properties": { "hex_id": 786421, "centroid_lon": -71.29822875214515, "centroid_lat": 46.234987513495746, "occurrences_today": 16, "datetimes_today": "2026-06-08 00:01:28, 2026-06-08 00:16:29, 2026-06-08 00:31:45, 2026-06-08 00:46:19, 2026-06-08 01:01:25, 2026-06-08 01:16:51, 2026-06-08 01:31:35, 2026-06-08 01:46:22, 2026-06-08 02:01:35, 2026-06-08 02:17:08, 2026-06-08 02:31:37, 2026-06-08 02:46:32, 2026-06-08 03:01:32, 2026-06-08 03:16:41, 2026-06-08 03:31:41, 2026-06-08 03:46:47", "cumulative_total": 192.0 }, "geometry": { "type": "Polygon", "coordinates": [ [ [ -71.298577841627903, 46.229802231173316 ], [ -71.304874249918484, 46.232604490379487 ], [ -71.304525719377054, 46.237789807044265 ], [ -71.297879566632332, 46.240172789052757 ], [ -71.291582695446891, 46.237370131606859 ], [ -71.291932439868262, 46.232184890457518 ], [ -71.298577841627903, 46.229802231173316 ] ] ] } },
{ "type": "Feature", "properties": { "hex_id": 698529, "centroid_lon": -72.214946615585902, "centroid_lat": 46.572797947250898, "occurrences_today": 16, "datetimes_today": "2026-06-08 00:01:28, 2026-06-08 00:16:29, 2026-06-08 00:31:45, 2026-06-08 00:46:19, 2026-06-08 01:01:25, 2026-06-08 01:16:51, 2026-06-08 01:31:35, 2026-06-08 01:46:22, 2026-06-08 02:01:35, 2026-06-08 02:17:08, 2026-06-08 02:31:37, 2026-06-08 02:46:32, 2026-06-08 03:01:32, 2026-06-08 03:16:41, 2026-06-08 03:31:41, 2026-06-08 03:46:47", "cumulative_total": 35.0 }, "geometry": { "type": "Polygon", "coordinates": [ [ [ -72.215212449031753, 46.567608262189651 ], [ -72.221596449823451, 46.570361691380533 ], [ -72.221331199823084, 46.575551402073856 ], [ -72.214680708623916, 46.577987626412629 ], [ -72.20829619791553, 46.575233802166856 ], [ -72.208562688297661, 46.570044148703779 ], [ -72.215212449031753, 46.567608262189651 ] ] ] } },
{ "type": "Feature", "properties": { "hex_id": 699139, "centroid_lon": -72.208829105005421, "centroid_lat": 46.56485448933595, "occurrences_today": 16, "datetimes_today": "2026-06-08 00:01:28, 2026-06-08 00:16:29, 2026-06-08 00:31:45, 2026-06-08 00:46:19, 2026-06-08 01:01:25, 2026-06-08 01:16:51, 2026-06-08 01:31:35, 2026-06-08 01:46:22, 2026-06-08 02:01:35, 2026-06-08 02:17:08, 2026-06-08 02:31:37, 2026-06-08 02:46:32, 2026-06-08 03:01:32, 2026-06-08 03:16:41, 2026-06-08 03:31:41, 2026-06-08 03:46:47", "cumulative_total": 39.0 }, "geometry": { "type": "Polygon", "coordinates": [ [ [ -72.209095448064218, 46.559664824063773 ], [ -72.215478208986823, 46.562418571229294 ], [ -72.215212449031753, 46.567608262189651 ], [ -72.208562688297661, 46.570044148703779 ], [ -72.202179417932967, 46.567290006536538 ], [ -72.202446417719088, 46.562100372923467 ], [ -72.209095448064218, 46.559664824063773 ] ] ] } },
{ "type": "Feature", "properties": { "hex_id": 715018, "centroid_lon": -72.034329288290891, "centroid_lat": 46.653991363704883, "occurrences_today": 7, "datetimes_today": "2026-06-08 00:01:28, 2026-06-08 00:16:29, 2026-06-08 00:31:45, 2026-06-08 00:46:19, 2026-06-08 01:01:25, 2026-06-08 01:16:51, 2026-06-08 01:31:35", "cumulative_total": 34.0 }, "geometry": { "type": "Polygon", "coordinates": [ [ [ -72.034613150072786, 46.648802575352612 ], [ -72.040996850365971, 46.651566067775697 ], [ -72.04071357179653, 46.656754883575267 ], [ -72.034045347935219, 46.659180145999748 ], [ -72.027661143016914, 46.656416255870347 ], [ -72.027945666557898, 46.65122750108948 ], [ -72.034613150072786, 46.648802575352612 ] ] ] } },
{ "type": "Feature", "properties": { "hex_id": 715629, "centroid_lon": -72.027376540716915, "centroid_lat": 46.661605004587791, "occurrences_today": 7, "datetimes_today": "2026-06-08 00:01:28, 2026-06-08 00:16:29, 2026-06-08 00:31:45, 2026-06-08 00:46:19, 2026-06-08 01:01:25, 2026-06-08 01:16:51, 2026-06-08 01:31:35", "cumulative_total": 35.0 }, "geometry": { "type": "Polygon", "coordinates": [ [ [ -72.027661143016914, 46.656416255870347 ], [ -72.034045347935219, 46.659180145999748 ], [ -72.033761328978628, 46.664368922236761 ], [ -72.027091859630715, 46.666793747241378 ], [ -72.020707150168818, 46.664029459243444 ], [ -72.020992414571211, 46.658840744176132 ], [ -72.027661143016914, 46.656416255870347 ] ] ] } },
{ "type": "Feature", "properties": { "hex_id": 716239, "centroid_lon": -72.021277600029322, "centroid_lat": 46.653652023039349, "occurrences_today": 7, "datetimes_today": "2026-06-08 00:01:28, 2026-06-08 00:16:29, 2026-06-08 00:31:45, 2026-06-08 00:46:19, 2026-06-08 01:01:25, 2026-06-08 01:16:51, 2026-06-08 01:31:35", "cumulative_total": 34.0 }, "geometry": { "type": "Polygon", "coordinates": [ [ [ -72.021562706570407, 46.648463295833572 ], [ -72.027945666557898, 46.65122750108948 ], [ -72.027661143016914, 46.656416255870347 ], [ -72.020992414571211, 46.658840744176132 ], [ -72.014608950514287, 46.656076141106311 ], [ -72.014894718945243, 46.650887447611325 ], [ -72.021562706570407, 46.648463295833572 ] ] ] } },
{ "type": "Feature", "properties": { "hex_id": 716850, "centroid_lon": -72.014323102981038, "centroid_lat": 46.661264828526249, "occurrences_today": 7, "datetimes_today": "2026-06-08 00:01:28, 2026-06-08 00:16:29, 2026-06-08 00:31:45, 2026-06-08 00:46:19, 2026-06-08 01:01:25, 2026-06-08 01:16:51, 2026-06-08 01:31:35", "cumulative_total": 35.0 }, "geometry": { "type": "Polygon", "coordinates": [ [ [ -72.014608950514287, 46.656076141106311 ], [ -72.020992414571211, 46.658840744176132 ], [ -72.020707150168818, 46.664029459243444 ], [ -72.014037176318155, 46.666453509870678 ], [ -72.00765320827368, 46.663688508824769 ], [ -72.007939718040078, 46.658499855194414 ], [ -72.014608950514287, 46.656076141106311 ] ] ] } },
{ "type": "Feature", "properties": { "hex_id": 644109, "centroid_lon": -72.847337597201872, "centroid_lat": 45.253542020426281, "occurrences_today": 16, "datetimes_today": "2026-06-08 00:01:28, 2026-06-08 00:16:29, 2026-06-08 00:31:45, 2026-06-08 00:46:19, 2026-06-08 01:01:25, 2026-06-08 01:16:51, 2026-06-08 01:31:35, 2026-06-08 01:46:22, 2026-06-08 02:01:35, 2026-06-08 02:17:08, 2026-06-08 02:31:37, 2026-06-08 02:46:32, 2026-06-08 03:01:32, 2026-06-08 03:16:41, 2026-06-08 03:31:41, 2026-06-08 03:46:47", "cumulative_total": 206.0 }, "geometry": { "type": "Polygon", "coordinates": [ [ [ -72.847533862547465, 45.248348658053565 ], [ -72.853803074236723, 45.251065222180834 ], [ -72.853607361733353, 45.2562586034378 ], [ -72.84714127843975, 45.258735377388589 ], [ -72.840871567333679, 45.256018440940828 ], [ -72.841068438920203, 45.250825102926498 ], [ -72.847533862547465, 45.248348658053565 ] ] ] } },
{ "type": "Feature", "properties": { "hex_id": 907385, "centroid_lon": -69.894656927158692, "centroid_lat": 47.506029509755606, "occurrences_today": 9, "datetimes_today": "2026-06-08 01:46:22, 2026-06-08 02:01:35, 2026-06-08 02:17:08, 2026-06-08 02:31:37, 2026-06-08 02:46:32, 2026-06-08 03:01:32, 2026-06-08 03:16:41, 2026-06-08 03:31:41, 2026-06-08 03:46:47", "cumulative_total": 39.0 }, "geometry": { "type": "Polygon", "coordinates": [ [ [ -69.895159916374496, 47.500855166093402 ], [ -69.901521474020115, 47.50373732286608 ], [ -69.90101905931553, 47.508911715288669 ], [ -69.894153797446691, 47.51120384467319 ], [ -69.887791805810735, 47.508321261285374 ], [ -69.888295509984516, 47.503146975195662 ], [ -69.895159916374496, 47.500855166093402 ] ] ] } },
{ "type": "Feature", "properties": { "hex_id": 782762, "centroid_lon": -71.332904498299698, "centroid_lat": 46.298465413555412, "occurrences_today": 11, "datetimes_today": "2026-06-08 00:01:28, 2026-06-08 00:16:29, 2026-06-08 00:31:45, 2026-06-08 00:46:19, 2026-06-08 01:01:25, 2026-06-08 01:16:51, 2026-06-08 01:31:35, 2026-06-08 01:46:22, 2026-06-08 02:01:35, 2026-06-08 02:17:08, 2026-06-08 02:31:37", "cumulative_total": 50.0 }, "geometry": { "type": "Polygon", "coordinates": [ [ [ -71.333251088751709, 46.293279986612809 ], [ -71.33955647208866, 46.29608057320759 ], [ -71.339210443024101, 46.30126603420014 ], [ -71.332557812423488, 46.303650833766341 ], [ -71.326251963139583, 46.300849848365658 ], [ -71.326599210370645, 46.29566446227016 ], [ -71.333251088751709, 46.293279986612809 ] ] ] } },
{ "type": "Feature", "properties": { "hex_id": 722311, "centroid_lon": -71.984477611524426, "centroid_lat": 46.138250037403289, "occurrences_today": 9, "datetimes_today": "2026-06-08 01:46:22, 2026-06-08 02:01:35, 2026-06-08 02:17:08, 2026-06-08 02:31:37, 2026-06-08 02:46:32, 2026-06-08 03:01:32, 2026-06-08 03:16:41, 2026-06-08 03:31:41, 2026-06-08 03:46:47", "cumulative_total": 146.0 }, "geometry": { "type": "Polygon", "coordinates": [ [ [ -71.984761093636138, 46.133061015568863 ], [ -71.991083505029906, 46.135826017177145 ], [ -71.99080058950257, 46.141015066671457 ], [ -71.984194051471817, 46.14343905315544 ], [ -71.977871151447843, 46.14067366028921 ], [ -71.978155278058296, 46.135484672262372 ], [ -71.984761093636138, 46.133061015568863 ] ] ] } },
{ "type": "Feature", "properties": { "hex_id": 832817, "centroid_lon": -70.809003194382441, "centroid_lat": 46.186892898371248, "occurrences_today": 6, "datetimes_today": "2026-06-08 01:46:22, 2026-06-08 02:01:35, 2026-06-08 02:17:08, 2026-06-08 02:31:37, 2026-06-08 02:46:32, 2026-06-08 03:01:32", "cumulative_total": 76.0 }, "geometry": { "type": "Polygon", "coordinates": [ [ [ -70.809397680110223, 46.181710630253207 ], [ -70.815661938648233, 46.18453887483426 ], [ -70.815268002707711, 46.189721181932363 ], [ -70.808608600267391, 46.192075159159302 ], [ -70.802343900347822, 46.189246513087795 ], [ -70.802739044213254, 46.184064291344725 ], [ -70.809397680110223, 46.181710630253207 ] ] ] } },
{ "type": "Feature", "properties": { "hex_id": 721640, "centroid_lon": -72.041036021826557, "centroid_lat": 45.196508420109474, "occurrences_today": 5, "datetimes_today": "2026-06-08 00:01:28, 2026-06-08 00:16:29, 2026-06-08 00:31:45, 2026-06-08 00:46:19, 2026-06-08 01:01:25", "cumulative_total": 159.0 }, "geometry": { "type": "Polygon", "coordinates": [ [ [ -72.041305208672071, 45.191318272118913 ], [ -72.047527605741266, 45.194078003792747 ], [ -72.047258958683656, 45.1992681784197 ], [ -72.040766761812932, 45.201698562104653 ], [ -72.034543898136093, 45.198938451869488 ], [ -72.034813697913307, 45.193748336573989 ], [ -72.041305208672071, 45.191318272118913 ] ] ] } },
{ "type": "Feature", "properties": { "hex_id": 559257, "centroid_lon": -73.730159602809834, "centroid_lat": 45.383705381907561, "occurrences_today": 11, "datetimes_today": "2026-06-08 00:01:28, 2026-06-08 00:16:29, 2026-06-08 00:31:45, 2026-06-08 00:46:19, 2026-06-08 01:01:25, 2026-06-08 01:16:51, 2026-06-08 01:31:35, 2026-06-08 01:46:22, 2026-06-08 02:01:35, 2026-06-08 02:17:08, 2026-06-08 02:31:37", "cumulative_total": 70.0 }, "geometry": { "type": "Polygon", "coordinates": [ [ [ -73.730275922453032, 45.378509743426534 ], [ -73.736602632901835, 45.381178375708153 ], [ -73.736486881990587, 45.386374024457822 ], [ -73.730043251445124, 45.3889010154084 ], [ -73.723716003991214, 45.386232017219335 ], [ -73.723832924077257, 45.381036394051392 ], [ -73.730275922453032, 45.378509743426534 ] ] ] } },
{ "type": "Feature", "properties": { "hex_id": 819422, "centroid_lon": -70.909387995970107, "centroid_lat": 46.751767934189587, "occurrences_today": 15, "datetimes_today": "2026-06-08 00:01:28, 2026-06-08 00:16:29, 2026-06-08 00:31:45, 2026-06-08 00:46:19, 2026-06-08 01:01:25, 2026-06-08 01:16:51, 2026-06-08 01:31:35, 2026-06-08 01:46:22, 2026-06-08 02:01:35, 2026-06-08 02:17:08, 2026-06-08 02:31:37, 2026-06-08 02:46:32, 2026-06-08 03:01:32, 2026-06-08 03:16:41, 2026-06-08 03:31:41", "cumulative_total": 105.0 }, "geometry": { "type": "Polygon", "coordinates": [ [ [ -70.909780713596817, 46.746585521093031 ], [ -70.916113872030223, 46.749410316729403 ], [ -70.915721722773029, 46.754592768256039 ], [ -70.90899516962817, 46.756950340034322 ], [ -70.902661551559248, 46.754125136063855 ], [ -70.903054946233141, 46.74894276871553 ], [ -70.909780713596817, 46.746585521093031 ] ] ] } },
{ "type": "Feature", "properties": { "hex_id": 820033, "centroid_lon": -70.902268047980215, "centroid_lat": 46.759307496151884, "occurrences_today": 15, "datetimes_today": "2026-06-08 00:01:28, 2026-06-08 00:16:29, 2026-06-08 00:31:45, 2026-06-08 00:46:19, 2026-06-08 01:01:25, 2026-06-08 01:16:51, 2026-06-08 01:31:35, 2026-06-08 01:46:22, 2026-06-08 02:01:35, 2026-06-08 02:17:08, 2026-06-08 02:31:37, 2026-06-08 02:46:32, 2026-06-08 03:01:32, 2026-06-08 03:16:41, 2026-06-08 03:31:41", "cumulative_total": 105.0 }, "geometry": { "type": "Polygon", "coordinates": [ [ [ -70.902661551559248, 46.754125136063855 ], [ -70.90899516962817, 46.756950340034322 ], [ -70.908602234533419, 46.762132738626299 ], [ -70.901874435458353, 46.764489848978748 ], [ -70.895540357866778, 46.761664236514733 ], [ -70.895934538835277, 46.75648192225816 ], [ -70.902661551559248, 46.754125136063855 ] ] ] } },
{ "type": "Feature", "properties": { "hex_id": 647155, "centroid_lon": -72.819373977146014, "centroid_lat": 45.151667811903927, "occurrences_today": 14, "datetimes_today": "2026-06-08 00:01:28, 2026-06-08 00:16:29, 2026-06-08 00:31:45, 2026-06-08 00:46:19, 2026-06-08 01:01:25, 2026-06-08 01:16:51, 2026-06-08 01:31:35, 2026-06-08 01:46:22, 2026-06-08 02:01:35, 2026-06-08 02:17:08, 2026-06-08 02:31:37, 2026-06-08 02:46:32, 2026-06-08 03:01:32, 2026-06-08 03:16:41", "cumulative_total": 60.0 }, "geometry": { "type": "Polygon", "coordinates": [ [ [ -72.819572086267641, 45.146474452585998 ], [ -72.825828906169633, 45.149192362330112 ], [ -72.825631346545819, 45.154385740766799 ], [ -72.819175814171345, 45.156861165796364 ], [ -72.812918498633536, 45.154142884772405 ], [ -72.813117211088112, 45.148949550062191 ], [ -72.819572086267641, 45.146474452585998 ] ] ] } },
{ "type": "Feature", "properties": { "hex_id": 929336, "centroid_lon": -69.698795821247757, "centroid_lat": 47.076163483491378, "occurrences_today": 3, "datetimes_today": "2026-06-08 00:01:28, 2026-06-08 00:16:29, 2026-06-08 00:31:45", "cumulative_total": 39.0 }, "geometry": { "type": "Polygon", "coordinates": [ [ [ -69.699310264249959, 47.070990363624709 ], [ -69.705610687608058, 47.073881111939379 ], [ -69.705096802436785, 47.079054282017402 ], [ -69.698281235454232, 47.081336594359229 ], [ -69.691980397081323, 47.078445424046073 ], [ -69.692495540656111, 47.073272363455828 ], [ -69.699310264249959, 47.070990363624709 ] ] ] } },
{ "type": "Feature", "properties": { "hex_id": 523841, "centroid_lon": -74.102260061920077, "centroid_lat": 45.27810015335141, "occurrences_today": 2, "datetimes_today": "2026-06-08 03:31:41, 2026-06-08 03:46:47", "cumulative_total": 19.0 }, "geometry": { "type": "Polygon", "coordinates": [ [ [ -74.102341997751523, 45.272903779014719 ], [ -74.108674826194601, 45.275551889014849 ], [ -74.108593460851438, 45.280748269914994 ], [ -74.102178103769077, 45.283296522823605 ], [ -74.095844727160951, 45.280648051766818 ], [ -74.095927255792787, 45.275451688922132 ], [ -74.102341997751523, 45.272903779014719 ] ] ] } },
{ "type": "Feature", "properties": { "hex_id": 647848, "centroid_lon": -72.762135635210015, "centroid_lat": 46.436729672845097, "occurrences_today": 9, "datetimes_today": "2026-06-08 00:01:28, 2026-06-08 00:16:29, 2026-06-08 00:31:45, 2026-06-08 00:46:19, 2026-06-08 01:01:25, 2026-06-08 01:16:51, 2026-06-08 01:31:35, 2026-06-08 01:46:22, 2026-06-08 02:01:35", "cumulative_total": 37.0 }, "geometry": { "type": "Polygon", "coordinates": [ [ [ -72.762348257175233, 46.431537686338586 ], [ -72.768745345609062, 46.434260806082357 ], [ -72.768533311043186, 46.439452812761502 ], [ -72.761922954524465, 46.441921653864625 ], [ -72.755525337421687, 46.4391981457171 ], [ -72.7557386054864, 46.434006184936685 ], [ -72.762348257175233, 46.431537686338586 ] ] ] } },
{ "type": "Feature", "properties": { "hex_id": 835908, "centroid_lon": -70.730039231649755, "centroid_lat": 46.784179184456782, "occurrences_today": 1, "datetimes_today": "2026-06-08 00:01:28", "cumulative_total": 32.0 }, "geometry": { "type": "Polygon", "coordinates": [ [ [ -70.730449600614548, 46.778997987966285 ], [ -70.736776356640974, 46.781832534739813 ], [ -70.736366554097174, 46.787013771404574 ], [ -70.729628749060055, 46.789360373467915 ], [ -70.723301540257168, 46.786525416502954 ], [ -70.723712589228583, 46.781344267732379 ], [ -70.730449600614548, 46.778997987966285 ] ] ] } },
{ "type": "Feature", "properties": { "hex_id": 1185962, "centroid_lon": -66.404928100851734, "centroid_lat": 50.245850386075482, "occurrences_today": 12, "datetimes_today": "2026-06-08 00:01:28, 2026-06-08 00:16:29, 2026-06-08 00:31:45, 2026-06-08 00:46:19, 2026-06-08 01:01:25, 2026-06-08 01:16:51, 2026-06-08 01:31:35, 2026-06-08 01:46:22, 2026-06-08 02:01:35, 2026-06-08 02:17:08, 2026-06-08 02:31:37, 2026-06-08 02:46:32", "cumulative_total": 127.0 }, "geometry": { "type": "Polygon", "coordinates": [ [ [ -66.405858339579865, 50.240716260213858 ], [ -66.412326676540061, 50.24379975181494 ], [ -66.411397031120487, 50.248933962626083 ], [ -66.403997592878582, 50.250984494789762 ], [ -66.397528931905327, 50.247900512633485 ], [ -66.398460033086081, 50.242766488939722 ], [ -66.405858339579865, 50.240716260213858 ] ] ] } },
{ "type": "Feature", "properties": { "hex_id": 1186573, "centroid_lon": -66.396597561225718, "centroid_lat": 50.253034519157751, "occurrences_today": 12, "datetimes_today": "2026-06-08 00:01:28, 2026-06-08 00:16:29, 2026-06-08 00:31:45, 2026-06-08 00:46:19, 2026-06-08 01:01:25, 2026-06-08 01:16:51, 2026-06-08 01:31:35, 2026-06-08 01:46:22, 2026-06-08 02:01:35, 2026-06-08 02:17:08, 2026-06-08 02:31:37, 2026-06-08 02:46:32", "cumulative_total": 127.0 }, "geometry": { "type": "Polygon", "coordinates": [ [ [ -66.397528931905327, 50.247900512633485 ], [ -66.403997592878582, 50.250984494789762 ], [ -66.403066815559441, 50.25611858635196 ], [ -66.3956659209462, 50.258168508507708 ], [ -66.389196936262934, 50.255084035635107 ], [ -66.390129169801838, 50.249950131394051 ], [ -66.397528931905327, 50.247900512633485 ] ] ] } },
{ "type": "Feature", "properties": { "hex_id": 627105, "centroid_lon": -72.975188122907227, "centroid_lat": 46.658934726256376, "occurrences_today": 9, "datetimes_today": "2026-06-08 00:01:28, 2026-06-08 00:16:29, 2026-06-08 00:31:45, 2026-06-08 00:46:19, 2026-06-08 01:01:25, 2026-06-08 01:16:51, 2026-06-08 01:31:35, 2026-06-08 01:46:22, 2026-06-08 02:01:35", "cumulative_total": 32.0 }, "geometry": { "type": "Polygon", "coordinates": [ [ [ -72.975382008992867, 46.653742222728496 ], [ -72.981815957533669, 46.656453903839733 ], [ -72.98162266904049, 46.661646425508827 ], [ -72.974994183111349, 46.664127224429699 ], [ -72.968559690697589, 46.661415153896755 ], [ -72.968754228067354, 46.656222673931694 ], [ -72.975382008992867, 46.653742222728496 ] ] ] } },
{ "type": "Feature", "properties": { "hex_id": 628326, "centroid_lon": -72.96212584974063, "centroid_lat": 46.658702730332045, "occurrences_today": 9, "datetimes_today": "2026-06-08 00:01:28, 2026-06-08 00:16:29, 2026-06-08 00:31:45, 2026-06-08 00:46:19, 2026-06-08 01:01:25, 2026-06-08 01:16:51, 2026-06-08 01:31:35, 2026-06-08 01:46:22, 2026-06-08 02:01:35", "cumulative_total": 32.0 }, "geometry": { "type": "Polygon", "coordinates": [ [ [ -72.962320984502327, 46.653510268638435 ], [ -72.968754228067354, 46.656222673931694 ], [ -72.968559690697589, 46.661415153896755 ], [ -72.9619306609234, 46.663895186663169 ], [ -72.955496874031311, 46.661182391831801 ], [ -72.955692660221786, 46.655989953839182 ], [ -72.962320984502327, 46.653510268638435 ] ] ] } },
{ "type": "Feature", "properties": { "hex_id": 730900, "centroid_lon": -71.856543617462393, "centroid_lat": 46.789536888482793, "occurrences_today": 16, "datetimes_today": "2026-06-08 00:01:28, 2026-06-08 00:16:29, 2026-06-08 00:31:45, 2026-06-08 00:46:19, 2026-06-08 01:01:25, 2026-06-08 01:16:51, 2026-06-08 01:31:35, 2026-06-08 01:46:22, 2026-06-08 02:01:35, 2026-06-08 02:17:08, 2026-06-08 02:31:37, 2026-06-08 02:46:32, 2026-06-08 03:01:32, 2026-06-08 03:16:41, 2026-06-08 03:31:41, 2026-06-08 03:46:47", "cumulative_total": 121.0 }, "geometry": { "type": "Polygon", "coordinates": [ [ [ -71.856845906633993, 46.784349083767694 ], [ -71.863235673207114, 46.787122617780064 ], [ -71.862933968734353, 46.792310451760031 ], [ -71.856241244478653, 46.794724686972387 ], [ -71.84985097703337, 46.791950751902533 ], [ -71.850153934686901, 46.786762982744747 ], [ -71.856845906633993, 46.784349083767694 ] ] ] } },
{ "type": "Feature", "properties": { "hex_id": 881730, "centroid_lon": -70.192380101292002, "centroid_lat": 47.300671730202062, "occurrences_today": 16, "datetimes_today": "2026-06-08 00:01:28, 2026-06-08 00:16:29, 2026-06-08 00:31:45, 2026-06-08 00:46:19, 2026-06-08 01:01:25, 2026-06-08 01:16:51, 2026-06-08 01:31:35, 2026-06-08 01:46:22, 2026-06-08 02:01:35, 2026-06-08 02:17:08, 2026-06-08 02:31:37, 2026-06-08 02:46:32, 2026-06-08 03:01:32, 2026-06-08 03:16:41, 2026-06-08 03:31:41, 2026-06-08 03:46:47", "cumulative_total": 54.0 }, "geometry": { "type": "Polygon", "coordinates": [ [ [ -70.192850439137075, 47.295494865298267 ], [ -70.199205642777287, 47.298360207251477 ], [ -70.198735878224497, 47.303537117891821 ], [ -70.191909632391145, 47.305848586837435 ], [ -70.185553986537329, 47.302982823393755 ], [ -70.186025028684597, 47.297806012562113 ], [ -70.192850439137075, 47.295494865298267 ] ] ] } },
{ "type": "Feature", "properties": { "hex_id": 780920, "centroid_lon": -71.363156240366692, "centroid_lat": 46.135740289221658, "occurrences_today": 3, "datetimes_today": "2026-06-08 00:01:28, 2026-06-08 00:16:29, 2026-06-08 00:31:45", "cumulative_total": 36.0 }, "geometry": { "type": "Polygon", "coordinates": [ [ [ -71.363498030125001, 46.130554539201754 ], [ -71.369786923781447, 46.133353019307279 ], [ -71.369445691015656, 46.138538802983398 ], [ -71.362814356698621, 46.140926032552358 ], [ -71.356524999975377, 46.138127156055532 ], [ -71.35686744060402, 46.132941446446154 ], [ -71.363498030125001, 46.130554539201754 ] ] ] } },
{ "type": "Feature", "properties": { "hex_id": 782141, "centroid_lon": -71.35023629428747, "centroid_lat": 46.135327950589542, "occurrences_today": 3, "datetimes_today": "2026-06-08 00:01:28, 2026-06-08 00:16:29, 2026-06-08 00:31:45", "cumulative_total": 36.0 }, "geometry": { "type": "Polygon", "coordinates": [ [ [ -71.350579291695681, 46.130142274760026 ], [ -71.35686744060402, 46.132941446446154 ], [ -71.356524999975377, 46.138127156055532 ], [ -71.349893202639521, 46.140513619716032 ], [ -71.343604591207367, 46.137714051539092 ], [ -71.34394823960281, 46.132528416257571 ], [ -71.350579291695681, 46.130142274760026 ] ] ] } },
{ "type": "Feature", "properties": { "hex_id": 782751, "centroid_lon": -71.344291793609642, "centroid_lat": 46.127342774266488, "occurrences_today": 3, "datetimes_today": "2026-06-08 00:01:28, 2026-06-08 00:16:29, 2026-06-08 00:31:45", "cumulative_total": 36.0 }, "geometry": { "type": "Polygon", "coordinates": [ [ [ -71.344635253259952, 46.122157125566503 ], [ -71.350922194896228, 46.124956592228202 ], [ -71.350579291695681, 46.130142274760026 ], [ -71.34394823960281, 46.132528416257571 ], [ -71.337660835889338, 46.129728553162835 ], [ -71.338004946313816, 46.12454294506869 ], [ -71.344635253259952, 46.122157125566503 ] ] ] } },
{ "type": "Feature", "properties": { "hex_id": 782752, "centroid_lon": -71.343260848391154, "centroid_lat": 46.142899680110318, "occurrences_today": 3, "datetimes_today": "2026-06-08 00:01:28, 2026-06-08 00:16:29, 2026-06-08 00:31:45", "cumulative_total": 36.0 }, "geometry": { "type": "Polygon", "coordinates": [ [ [ -71.343604591207367, 46.137714051539092 ], [ -71.349893202639521, 46.140513619716032 ], [ -71.349550016719789, 46.14569928213885 ], [ -71.342917011122069, 46.14808530197061 ], [ -71.336627937262392, 46.145285337145559 ], [ -71.336972331395813, 46.140099749201958 ], [ -71.343604591207367, 46.137714051539092 ] ] ] } },
{ "type": "Feature", "properties": { "hex_id": 783362, "centroid_lon": -71.33731663092739, "centroid_lat": 46.13491415454083, "occurrences_today": 3, "datetimes_today": "2026-06-08 00:01:28, 2026-06-08 00:16:29, 2026-06-08 00:31:45", "cumulative_total": 36.0 }, "geometry": { "type": "Polygon", "coordinates": [ [ [ -71.337660835889338, 46.129728553162835 ], [ -71.34394823960281, 46.132528416257571 ], [ -71.343604591207367, 46.137714051539092 ], [ -71.336972331395813, 46.140099749201958 ], [ -71.330684465701566, 46.13729948951697 ], [ -71.331029321767474, 46.132113928824452 ], [ -71.337660835889338, 46.129728553162835 ] ] ] } },
{ "type": "Feature", "properties": { "hex_id": 783972, "centroid_lon": -71.331374083114909, "centroid_lat": 46.126928361408503, "occurrences_today": 3, "datetimes_today": "2026-06-08 00:01:28, 2026-06-08 00:16:29, 2026-06-08 00:31:45", "cumulative_total": 36.0 }, "geometry": { "type": "Polygon", "coordinates": [ [ [ -71.331718749776087, 46.121742787269802 ], [ -71.338004946313816, 46.12454294506869 ], [ -71.337660835889338, 46.129728553162835 ], [ -71.331029321767474, 46.132113928824452 ], [ -71.324742663695389, 46.129313374493186 ], [ -71.325087981247336, 46.12412784109776 ], [ -71.331718749776087, 46.121742787269802 ] ] ] } },
{ "type": "Feature", "properties": { "hex_id": 784582, "centroid_lon": -71.325433203964295, "centroid_lat": 46.118942300972975, "occurrences_today": 3, "datetimes_today": "2026-06-08 00:01:28, 2026-06-08 00:16:29, 2026-06-08 00:31:45", "cumulative_total": 36.0 }, "geometry": { "type": "Polygon", "coordinates": [ [ [ -71.325778331878567, 46.113756754119542 ], [ -71.332063321783238, 46.116557206409027 ], [ -71.331718749776087, 46.121742787269802 ], [ -71.325087981247336, 46.12412784109776 ], [ -71.318802530254359, 46.121326992333778 ], [ -71.319148308846223, 46.116141486281393 ], [ -71.325778331878567, 46.113756754119542 ] ] ] } },
{ "type": "Feature", "properties": { "hex_id": 785193, "centroid_lon": -71.318456656678904, "centroid_lat": 46.126512491650203, "occurrences_today": 3, "datetimes_today": "2026-06-08 00:01:28, 2026-06-08 00:16:29, 2026-06-08 00:31:45", "cumulative_total": 36.0 }, "geometry": { "type": "Polygon", "coordinates": [ [ [ -71.318802530254359, 46.121326992333778 ], [ -71.325087981247336, 46.12412784109776 ], [ -71.324742663695389, 46.129313374493186 ], [ -71.318110688087515, 46.131697984229952 ], [ -71.311824776103123, 46.128896738834371 ], [ -71.312171300685705, 46.123711280398695 ], [ -71.318802530254359, 46.121326992333778 ] ] ] } },
{ "type": "Feature", "properties": { "hex_id": 809038, "centroid_lon": -71.026697461254045, "centroid_lat": 46.670166360230532, "occurrences_today": 5, "datetimes_today": "2026-06-08 00:01:28, 2026-06-08 00:16:29, 2026-06-08 00:31:45, 2026-06-08 00:46:19, 2026-06-08 01:01:25", "cumulative_total": 11.0 }, "geometry": { "type": "Polygon", "coordinates": [ [ [ -71.027077849758413, 46.66498312398091 ], [ -71.033408280529471, 46.667801337183803 ], [ -71.033028459803418, 46.672984610677567 ], [ -71.026316967546833, 46.675349589376026 ], [ -71.019986074218437, 46.672530969885607 ], [ -71.020367135667684, 46.667347778050448 ], [ -71.027077849758413, 46.66498312398091 ] ] ] } },
{ "type": "Feature", "properties": { "hex_id": 829744, "centroid_lon": -70.865189412023128, "centroid_lat": 45.869338820190407, "occurrences_today": 1, "datetimes_today": "2026-06-08 00:01:28", "cumulative_total": 3.0 }, "geometry": { "type": "Polygon", "coordinates": [ [ [ -70.865574332527927, 45.864155892878102 ], [ -70.871806939291034, 45.866980057866961 ], [ -70.871422560203158, 45.872163023401995 ], [ -70.864804386173972, 45.87452174026717 ], [ -70.858571343356061, 45.871697178448116 ], [ -70.858956910586585, 45.866514296658281 ], [ -70.865574332527927, 45.864155892878102 ] ] ] } },
{ "type": "Feature", "properties": { "hex_id": 829745, "centroid_lon": -70.864034018300359, "centroid_lat": 45.884887558710567, "occurrences_today": 1, "datetimes_today": "2026-06-08 00:01:28", "cumulative_total": 3.0 }, "geometry": { "type": "Polygon", "coordinates": [ [ [ -70.86441925494492, 45.879704653107524 ], [ -70.870653486389813, 45.882528932786329 ], [ -70.870268791593276, 45.88771187663388 ], [ -70.86364867620469, 45.890070457075417 ], [ -70.857414008380687, 45.887245780351911 ], [ -70.857799892288753, 45.882062920295802 ], [ -70.86441925494492, 45.879704653107524 ] ] ] } },
{ "type": "Feature", "properties": { "hex_id": 830352, "centroid_lon": -70.861652929530322, "centroid_lat": 45.830233921380803, "occurrences_today": 1, "datetimes_today": "2026-06-08 00:01:28", "cumulative_total": 3.0 }, "geometry": { "type": "Polygon", "coordinates": [ [ [ -70.86203765385315, 45.825050981673435 ], [ -70.868265829404208, 45.827875199171253 ], [ -70.867881645315279, 45.833058177107567 ], [ -70.861268099968385, 45.835416853851626 ], [ -70.855039489440259, 45.832592240012282 ], [ -70.855424859200625, 45.827409345834511 ], [ -70.86203765385315, 45.825050981673435 ] ] ] } },
{ "type": "Feature", "properties": { "hex_id": 830353, "centroid_lon": -70.860498124985199, "centroid_lat": 45.845782697079891, "occurrences_today": 1, "datetimes_today": "2026-06-08 00:01:28", "cumulative_total": 3.0 }, "geometry": { "type": "Polygon", "coordinates": [ [ [ -70.860883165131838, 45.840599779084933 ], [ -70.867112961814499, 45.843424111291228 ], [ -70.866728462331722, 45.84860706753684 ], [ -70.860112979492897, 45.850965607835583 ], [ -70.853882747509772, 45.848140879073597 ], [ -70.854268433630409, 45.842958006632699 ], [ -70.860883165131838, 45.840599779084933 ] ] ] } },
{ "type": "Feature", "properties": { "hex_id": 830354, "centroid_lon": -70.859342372329166, "centroid_lat": 45.861331407625684, "occurrences_today": 1, "datetimes_today": "2026-06-08 00:01:28", "cumulative_total": 3.0 }, "geometry": { "type": "Polygon", "coordinates": [ [ [ -70.859727728619418, 45.856148511351144 ], [ -70.865959147723942, 45.858972958331158 ], [ -70.865574332527927, 45.864155892878102 ], [ -70.858956910586585, 45.866514296658281 ], [ -70.852725055857945, 45.863689452908233 ], [ -70.853111058659167, 45.858506602212252 ], [ -70.859727728619418, 45.856148511351144 ] ] ] } },
{ "type": "Feature", "properties": { "hex_id": 830355, "centroid_lon": -70.858185670602012, "centroid_lat": 45.876880052994245, "occurrences_today": 1, "datetimes_today": "2026-06-08 00:01:28", "cumulative_total": 3.0 }, "geometry": { "type": "Polygon", "coordinates": [ [ [ -70.858571343356061, 45.871697178448116 ], [ -70.864804386173972, 45.87452174026717 ], [ -70.86441925494492, 45.879704653107524 ], [ -70.857799892288753, 45.882062920295802 ], [ -70.851566413522846, 45.87923796149223 ], [ -70.851952733325462, 45.874055132549117 ], [ -70.858571343356061, 45.871697178448116 ] ] ] } },
{ "type": "Feature", "properties": { "hex_id": 830962, "centroid_lon": -70.855810123578678, "centroid_lat": 45.822226444412912, "occurrences_today": 1, "datetimes_today": "2026-06-08 00:01:28", "cumulative_total": 3.0 }, "geometry": { "type": "Polygon", "coordinates": [ [ [ -70.856195282609931, 45.817043535748319 ], [ -70.862422272972353, 45.819868034730312 ], [ -70.86203765385315, 45.825050981673435 ], [ -70.855424859200625, 45.827409345834511 ], [ -70.849197434290701, 45.824584450571095 ], [ -70.849583238545264, 45.819401587492109 ], [ -70.856195282609931, 45.817043535748319 ] ] ] } },
{ "type": "Feature", "properties": { "hex_id": 830963, "centroid_lon": -70.854654014262039, "centroid_lat": 45.837775126945296, "occurrences_today": 1, "datetimes_today": "2026-06-08 00:01:28", "cumulative_total": 3.0 }, "geometry": { "type": "Polygon", "coordinates": [ [ [ -70.855039489440259, 45.832592240012282 ], [ -70.861268099968385, 45.835416853851626 ], [ -70.860883165131838, 45.840599779084933 ], [ -70.854268433630409, 45.842958006632699 ], [ -70.848039388231797, 45.840132996297768 ], [ -70.848425509169559, 45.834950154974813 ], [ -70.855039489440259, 45.832592240012282 ] ] ] } },
{ "type": "Feature", "properties": { "hex_id": 830964, "centroid_lon": -70.853496955864571, "centroid_lat": 45.853323744267058, "occurrences_today": 1, "datetimes_today": "2026-06-08 00:01:28", "cumulative_total": 3.0 }, "geometry": { "type": "Polygon", "coordinates": [ [ [ -70.853882747509772, 45.848140879073597 ], [ -70.860112979492897, 45.850965607835583 ], [ -70.859727728619418, 45.856148511351144 ], [ -70.853111058659167, 45.858506602212252 ], [ -70.846880391482344, 45.855681476740351 ], [ -70.847266829423845, 45.85049865718144 ], [ -70.853882747509772, 45.848140879073597 ] ] ] } },
{ "type": "Feature", "properties": { "hex_id": 830965, "centroid_lon": -70.852338947425267, "centroid_lat": 45.868872296354155, "occurrences_today": 1, "datetimes_today": "2026-06-08 00:01:28", "cumulative_total": 3.0 }, "geometry": { "type": "Polygon", "coordinates": [ [ [ -70.852725055857945, 45.863689452908233 ], [ -70.858956910586585, 45.866514296658281 ], [ -70.858571343356061, 45.871697178448116 ], [ -70.851952733325462, 45.874055132549117 ], [ -70.8457204430796, 45.871229891874755 ], [ -70.846107198345919, 45.866047094087904 ], [ -70.852725055857945, 45.863689452908233 ] ] ] } },
{ "type": "Feature", "properties": { "hex_id": 830966, "centroid_lon": -70.851179987981737, "centroid_lat": 45.884420783182598, "occurrences_today": 1, "datetimes_today": "2026-06-08 00:01:28", "cumulative_total": 3.0 }, "geometry": { "type": "Polygon", "coordinates": [ [ [ -70.851566413522846, 45.87923796149223 ], [ -70.857799892288753, 45.882062920295802 ], [ -70.857414008380687, 45.887245780351911 ], [ -70.850793456666452, 45.88960359761932 ], [ -70.844559542059571, 45.886778241676893 ], [ -70.844946614972173, 45.881595465670138 ], [ -70.851566413522846, 45.87923796149223 ] ] ] } },
{ "type": "Feature", "properties": { "hex_id": 831573, "centroid_lon": -70.848811524510651, "centroid_lat": 45.829767306398942, "occurrences_today": 1, "datetimes_today": "2026-06-08 00:01:28", "cumulative_total": 3.0 }, "geometry": { "type": "Polygon", "coordinates": [ [ [ -70.849197434290701, 45.824584450571095 ], [ -70.855424859200625, 45.827409345834511 ], [ -70.855039489440259, 45.832592240012282 ], [ -70.848425509169559, 45.834950154974813 ], [ -70.842197649818786, 45.832124863275936 ], [ -70.842584205143979, 45.826942053114095 ], [ -70.849197434290701, 45.824584450571095 ] ] ] } },
{ "type": "Feature", "properties": { "hex_id": 831574, "centroid_lon": -70.847653161661782, "centroid_lat": 45.845315830366935, "occurrences_today": 1, "datetimes_today": "2026-06-08 00:01:28", "cumulative_total": 3.0 }, "geometry": { "type": "Polygon", "coordinates": [ [ [ -70.848039388231797, 45.840132996297768 ], [ -70.854268433630409, 45.842958006632699 ], [ -70.853882747509772, 45.848140879073597 ], [ -70.847266829423845, 45.85049865718144 ], [ -70.841037349261583, 45.847673250196813 ], [ -70.841424221913272, 45.842490461818187 ], [ -70.848039388231797, 45.840132996297768 ] ] ] } },
{ "type": "Feature", "properties": { "hex_id": 831575, "centroid_lon": -70.846493847801597, "centroid_lat": 45.860864289042809, "occurrences_today": 1, "datetimes_today": "2026-06-08 00:01:28", "cumulative_total": 3.0 }, "geometry": { "type": "Polygon", "coordinates": [ [ [ -70.846880391482344, 45.855681476740351 ], [ -70.853111058659167, 45.858506602212252 ], [ -70.852725055857945, 45.863689452908233 ], [ -70.846107198345919, 45.866047094087904 ], [ -70.839876096082335, 45.86322157175195 ], [ -70.840263286381827, 45.85803880516459 ], [ -70.846880391482344, 45.855681476740351 ] ] ] } },
{ "type": "Feature", "properties": { "hex_id": 831576, "centroid_lon": -70.845333581966926, "centroid_lat": 45.876412682402474, "occurrences_today": 1, "datetimes_today": "2026-06-08 00:01:28", "cumulative_total": 3.0 }, "geometry": { "type": "Polygon", "coordinates": [ [ [ -70.8457204430796, 45.871229891874755 ], [ -70.851952733325462, 45.874055132549117 ], [ -70.851566413522846, 45.87923796149223 ], [ -70.844946614972173, 45.881595465670138 ], [ -70.838713889316239, 45.87876982791721 ], [ -70.83910139758531, 45.873587083129152 ], [ -70.8457204430796, 45.871229891874755 ] ] ] } },
{ "type": "Feature", "properties": { "hex_id": 832184, "centroid_lon": -70.841810988753778, "centroid_lat": 45.837307666177587, "occurrences_today": 1, "datetimes_today": "2026-06-08 00:01:28", "cumulative_total": 3.0 }, "geometry": { "type": "Polygon", "coordinates": [ [ [ -70.842197649818786, 45.832124863275936 ], [ -70.848425509169559, 45.834950154974813 ], [ -70.848039388231797, 45.840132996297768 ], [ -70.841424221913272, 45.842490461818187 ], [ -70.835195928228572, 45.83966477352979 ], [ -70.835583235160684, 45.83448201637465 ], [ -70.842197649818786, 45.832124863275936 ] ] ] } },
{ "type": "Feature", "properties": { "hex_id": 832185, "centroid_lon": -70.840650370763001, "centroid_lat": 45.852856031312577, "occurrences_today": 1, "datetimes_today": "2026-06-08 00:01:28", "cumulative_total": 3.0 }, "geometry": { "type": "Polygon", "coordinates": [ [ [ -70.841037349261583, 45.847673250196813 ], [ -70.847266829423845, 45.85049865718144 ], [ -70.846880391482344, 45.855681476740351 ], [ -70.840263286381827, 45.85803880516459 ], [ -70.834033371562953, 45.855213001376129 ], [ -70.834420996465468, 45.850030266031446 ], [ -70.841037349261583, 45.847673250196813 ] ] ] } },
{ "type": "Feature", "properties": { "hex_id": 832186, "centroid_lon": -70.839488799828743, "centroid_lat": 45.868404331073776, "occurrences_today": 1, "datetimes_today": "2026-06-08 00:01:28", "cumulative_total": 3.0 }, "geometry": { "type": "Polygon", "coordinates": [ [ [ -70.839876096082335, 45.86322157175195 ], [ -70.846107198345919, 45.866047094087904 ], [ -70.8457204430796, 45.871229891874755 ], [ -70.83910139758531, 45.873587083129152 ], [ -70.832869860342186, 45.870761163774915 ], [ -70.833257803537123, 45.865578450248762 ], [ -70.839876096082335, 45.86322157175195 ] ] ] } },
{ "type": "Feature", "properties": { "hex_id": 832187, "centroid_lon": -70.838326274985732, "centroid_lat": 45.883952565437035, "occurrences_today": 1, "datetimes_today": "2026-06-08 00:01:28", "cumulative_total": 3.0 }, "geometry": { "type": "Polygon", "coordinates": [ [ [ -70.838713889316239, 45.87876982791721 ], [ -70.844946614972173, 45.881595465670138 ], [ -70.844559542059571, 45.886778241676893 ], [ -70.837938554557979, 45.889135295687723 ], [ -70.831705393599307, 45.886309260701928 ], [ -70.832093655409139, 45.881126569002404 ], [ -70.838713889316239, 45.87876982791721 ] ] ] } },
{ "type": "Feature", "properties": { "hex_id": 832795, "centroid_lon": -70.83480851534209, "centroid_lat": 45.844847523415694, "occurrences_today": 1, "datetimes_today": "2026-06-08 00:01:28", "cumulative_total": 3.0 }, "geometry": { "type": "Polygon", "coordinates": [ [ [ -70.835195928228572, 45.83966477352979 ], [ -70.841424221913272, 45.842490461818187 ], [ -70.841037349261583, 45.847673250196813 ], [ -70.834420996465468, 45.850030266031446 ], [ -70.828192268554005, 45.847204180999505 ], [ -70.828580327629666, 45.84202147694063 ], [ -70.835195928228572, 45.83966477352979 ] ] ] } },
{ "type": "Feature", "properties": { "hex_id": 832796, "centroid_lon": -70.833645640598775, "centroid_lat": 45.860395729448882, "occurrences_today": 1, "datetimes_today": "2026-06-08 00:01:28", "cumulative_total": 3.0 }, "geometry": { "type": "Polygon", "coordinates": [ [ [ -70.834033371562953, 45.855213001376129 ], [ -70.840263286381827, 45.85803880516459 ], [ -70.839876096082335, 45.86322157175195 ], [ -70.833257803537123, 45.865578450248762 ], [ -70.827027454168942, 45.862752249502343 ], [ -70.827415831859469, 45.85756956728126 ], [ -70.834033371562953, 45.855213001376129 ] ] ] } },
{ "type": "Feature", "properties": { "hex_id": 832797, "centroid_lon": -70.832481810978138, "centroid_lat": 45.875943870026447, "occurrences_today": 1, "datetimes_today": "2026-06-08 00:01:28", "cumulative_total": 3.0 }, "geometry": { "type": "Polygon", "coordinates": [ [ [ -70.832869860342186, 45.870761163774915 ], [ -70.83910139758531, 45.873587083129152 ], [ -70.838713889316239, 45.87876982791721 ], [ -70.832093655409139, 45.881126569002404 ], [ -70.825861683293923, 45.878300252475654 ], [ -70.826250379922044, 45.873117592100449 ], [ -70.832869860342186, 45.870761163774915 ] ] ] } },
{ "type": "Feature", "properties": { "hex_id": 833406, "centroid_lon": -70.827804103309219, "centroid_lat": 45.852386877780006, "occurrences_today": 1, "datetimes_today": "2026-06-08 00:01:28", "cumulative_total": 3.0 }, "geometry": { "type": "Polygon", "coordinates": [ [ [ -70.828192268554005, 45.847204180999505 ], [ -70.834420996465468, 45.850030266031446 ], [ -70.834033371562953, 45.855213001376129 ], [ -70.827415831859469, 45.85756956728126 ], [ -70.821186669828606, 45.854743085351664 ], [ -70.821575481584773, 45.849560434478761 ], [ -70.828192268554005, 45.847204180999505 ] ] ] } },
{ "type": "Feature", "properties": { "hex_id": 833407, "centroid_lon": -70.826638970201756, "centroid_lat": 45.867934924442373, "occurrences_today": 1, "datetimes_today": "2026-06-08 00:01:28", "cumulative_total": 3.0 }, "geometry": { "type": "Polygon", "coordinates": [ [ [ -70.827027454168942, 45.862752249502343 ], [ -70.833257803537123, 45.865578450248762 ], [ -70.832869860342186, 45.870761163774915 ], [ -70.826250379922044, 45.873117592100449 ], [ -70.82001959611209, 45.870290994241891 ], [ -70.820408727128168, 45.865108365234128 ], [ -70.827027454168942, 45.862752249502343 ] ] ] } },
{ "type": "Feature", "properties": { "hex_id": 834017, "centroid_lon": -70.82079775168836, "centroid_lat": 45.859925728937093, "occurrences_today": 1, "datetimes_today": "2026-06-08 00:01:28", "cumulative_total": 3.0 }, "geometry": { "type": "Polygon", "coordinates": [ [ [ -70.821186669828606, 45.854743085351664 ], [ -70.827415831859469, 45.85756956728126 ], [ -70.827027454168942, 45.862752249502343 ], [ -70.820408727128168, 45.865108365234128 ], [ -70.814179131085481, 45.862281486252797 ], [ -70.814568696059482, 45.857098888655599 ], [ -70.821186669828606, 45.854743085351664 ] ] ] } },
{ "type": "Feature", "properties": { "hex_id": 834018, "centroid_lon": -70.819630358604186, "centroid_lat": 45.87547361595945, "occurrences_today": 1, "datetimes_today": "2026-06-08 00:01:28", "cumulative_total": 3.0 }, "geometry": { "type": "Polygon", "coordinates": [ [ [ -70.82001959611209, 45.870290994241891 ], [ -70.826250379922044, 45.873117592100449 ], [ -70.825861683293923, 45.878300252475654 ], [ -70.819241014568533, 45.880656230385924 ], [ -70.813009796424552, 45.877829235261039 ], [ -70.81339968130402, 45.872646659556423 ], [ -70.82001959611209, 45.870290994241891 ] ] ] } },
{ "type": "Feature", "properties": { "hex_id": 834628, "centroid_lon": -70.813789459512336, "centroid_lat": 45.867464076553375, "occurrences_today": 1, "datetimes_today": "2026-06-08 00:01:28", "cumulative_total": 3.0 }, "geometry": { "type": "Polygon", "coordinates": [ [ [ -70.814179131085481, 45.862281486252797 ], [ -70.820408727128168, 45.865108365234128 ], [ -70.82001959611209, 45.870290994241891 ], [ -70.81339968130402, 45.872646659556423 ], [ -70.807169651357427, 45.869819383369219 ], [ -70.807559970086814, 45.864636839137532 ], [ -70.814179131085481, 45.862281486252797 ] ] ] } },
{ "type": "Feature", "properties": { "hex_id": 522620, "centroid_lon": -74.11500824728715, "centroid_lat": 45.278199651114399, "occurrences_today": 2, "datetimes_today": "2026-06-08 03:31:41, 2026-06-08 03:46:47", "cumulative_total": 2.0 }, "geometry": { "type": "Polygon", "coordinates": [ [ [ -74.115089019977162, 45.273003258852022 ], [ -74.121422463068825, 45.275650666516725 ], [ -74.121342261036503, 45.280847065216037 ], [ -74.114927452594344, 45.283396038515541 ], [ -74.108593460851438, 45.280748269914994 ], [ -74.108674826194601, 45.275551889014849 ], [ -74.115089019977162, 45.273003258852022 ] ] ] } },
{ "type": "Feature", "properties": { "hex_id": 523230, "centroid_lon": -74.1087561693803, "centroid_lat": 45.270355503251885, "occurrences_today": 2, "datetimes_today": "2026-06-08 03:31:41, 2026-06-08 03:46:47", "cumulative_total": 2.0 }, "geometry": { "type": "Polygon", "coordinates": [ [ [ -74.108837490415922, 45.265159112626122 ], [ -74.115169770671727, 45.267806861728459 ], [ -74.115089019977162, 45.273003258852022 ], [ -74.108674826194601, 45.275551889014849 ], [ -74.102341997751523, 45.272903779014719 ], [ -74.10242391127089, 45.267707399813617 ], [ -74.108837490415922, 45.265159112626122 ] ] ] } }
]
}
