{
"type": "FeatureCollection",
"name": "daily_2026-07-06",
"crs": { "type": "name", "properties": { "name": "urn:ogc:def:crs:OGC:1.3:CRS84" } },
"features": [
{ "type": "Feature", "properties": { "hex_id": 752857, "centroid_lon": -71.641392460618292, "centroid_lat": 46.456052994986628, "occurrences_today": 2, "datetimes_today": "2026-07-06 00:02:02, 2026-07-06 00:16:59", "cumulative_total": 47.0 }, "geometry": { "type": "Polygon", "coordinates": [ [ [ -71.641711679668219, 46.450865994835674 ], [ -71.648051558362255, 46.453650380283136 ], [ -71.647732910299993, 46.458837411602083 ], [ -71.641073153471041, 46.461239988718127 ], [ -71.634732791901769, 46.458455204895678 ], [ -71.635052670006431, 46.453268242398181 ], [ -71.641711679668219, 46.450865994835674 ] ] ] } },
{ "type": "Feature", "properties": { "hex_id": 563544, "centroid_lon": -73.680559802983581, "centroid_lat": 45.593615127603208, "occurrences_today": 5, "datetimes_today": "2026-07-06 00:02:02, 2026-07-06 00:16:59, 2026-07-06 00:31:44, 2026-07-06 00:47:07, 2026-07-06 01:01:41", "cumulative_total": 160.0 }, "geometry": { "type": "Polygon", "coordinates": [ [ [ -73.680681552702637, 45.588419782648913 ], [ -73.687029180918231, 45.591091302706012 ], [ -73.686908005587014, 45.596286658466937 ], [ -73.680438019978951, 45.598810467557911 ], [ -73.674089850666704, 45.596138578473209 ], [ -73.674212208047962, 45.590943249389845 ], [ -73.680681552702637, 45.588419782648913 ] ] ] } },
{ "type": "Feature", "properties": { "hex_id": 550728, "centroid_lon": -73.813670547195528, "centroid_lat": 45.665230826576199, "occurrences_today": 5, "datetimes_today": "2026-07-06 00:02:02, 2026-07-06 00:16:59, 2026-07-06 00:31:44, 2026-07-06 00:47:07, 2026-07-06 01:01:41", "cumulative_total": 320.0 }, "geometry": { "type": "Polygon", "coordinates": [ [ [ -73.813780289720313, 45.660035282647598 ], [ -73.820142412112077, 45.662699515305768 ], [ -73.820033247954953, 45.667895068735078 ], [ -73.813560774640152, 45.670426365553183 ], [ -73.807198103916363, 45.667761764212834 ], [ -73.807308454829283, 45.662566234801453 ], [ -73.813780289720313, 45.660035282647598 ] ] ] } },
{ "type": "Feature", "properties": { "hex_id": 551339, "centroid_lon": -73.80708772280552, "centroid_lat": 45.672957288670368, "occurrences_today": 5, "datetimes_today": "2026-07-06 00:02:02, 2026-07-06 00:16:59, 2026-07-06 00:31:44, 2026-07-06 00:47:07, 2026-07-06 01:01:41", "cumulative_total": 302.0 }, "geometry": { "type": "Polygon", "coordinates": [ [ [ -73.807198103916363, 45.667761764212834 ], [ -73.813560774640152, 45.670426365553183 ], [ -73.81345097204408, 45.675621899578495 ], [ -73.806977311486563, 45.678152808173991 ], [ -73.800614092461188, 45.675487837990886 ], [ -73.800725082284728, 45.670292328119956 ], [ -73.807198103916363, 45.667761764212834 ] ] ] } },
{ "type": "Feature", "properties": { "hex_id": 551939, "centroid_lon": -73.804150756190268, "centroid_lat": 45.509229064152869, "occurrences_today": 5, "datetimes_today": "2026-07-06 00:02:02, 2026-07-06 00:16:59, 2026-07-06 00:31:44, 2026-07-06 00:47:07, 2026-07-06 01:01:41", "cumulative_total": 498.0 }, "geometry": { "type": "Polygon", "coordinates": [ [ [ -73.804260779374474, 45.50403339571259 ], [ -73.810604990475426, 45.506698049171973 ], [ -73.810495540790626, 45.511893727175078 ], [ -73.804040702955703, 45.514424727638684 ], [ -73.797695948410777, 45.511759707384449 ], [ -73.797806575134672, 45.506564053525985 ], [ -73.804260779374474, 45.50403339571259 ] ] ] } },
{ "type": "Feature", "properties": { "hex_id": 573917, "centroid_lon": -73.573784227759532, "centroid_lat": 45.506584684182052, "occurrences_today": 1, "datetimes_today": "2026-07-06 00:02:02", "cumulative_total": 449.0 }, "geometry": { "type": "Polygon", "coordinates": [ [ [ -73.573915429542865, 45.501389492123373 ], [ -73.580248164980915, 45.504066807800697 ], [ -73.580117533509494, 45.509262011701921 ], [ -73.573652990145789, 45.511779871199337 ], [ -73.567319720232248, 45.509102186600096 ], [ -73.567451528145881, 45.503907011489844 ], [ -73.573915429542865, 45.501389492123373 ] ] ] } },
{ "type": "Feature", "properties": { "hex_id": 61313, "centroid_lon": -79.203132815549353, "centroid_lat": 48.805333435818369, "occurrences_today": 3, "datetimes_today": "2026-07-06 00:31:44, 2026-07-06 00:47:07, 2026-07-06 01:01:41", "cumulative_total": 42.0 }, "geometry": { "type": "Polygon", "coordinates": [ [ [ -79.202699228827655, 48.800153620732978 ], [ -79.209706745818622, 48.802495284084074 ], [ -79.210141089959677, 48.8076750504027 ], [ -79.203566525905188, 48.810513243347728 ], [ -79.196558127838131, 48.808171231451091 ], [ -79.196125174946786, 48.802991375226604 ], [ -79.202699228827655, 48.800153620732978 ] ] ] } },
{ "type": "Feature", "properties": { "hex_id": 737565, "centroid_lon": -71.830474844600161, "centroid_lat": 46.001566886892483, "occurrences_today": 5, "datetimes_today": "2026-07-06 00:02:02, 2026-07-06 00:16:59, 2026-07-06 00:31:44, 2026-07-06 00:47:07, 2026-07-06 01:01:41", "cumulative_total": 57.0 }, "geometry": { "type": "Polygon", "coordinates": [ [ [ -71.830771373119092, 45.996378495133804 ], [ -71.837070390545563, 45.99915148282026 ], [ -71.836774422179076, 46.004339903657005 ], [ -71.830178234705969, 46.006755272435029 ], [ -71.823878738516129, 46.00398189399192 ], [ -71.824175908535125, 45.998793537592469 ], [ -71.830771373119092, 45.996378495133804 ] ] ] } },
{ "type": "Feature", "properties": { "hex_id": 583702, "centroid_lon": -73.464187593923796, "centroid_lat": 45.770196221385405, "occurrences_today": 4, "datetimes_today": "2026-07-06 00:02:02, 2026-07-06 00:16:59, 2026-07-06 00:31:44, 2026-07-06 00:47:07", "cumulative_total": 365.0 }, "geometry": { "type": "Polygon", "coordinates": [ [ [ -73.464330179612617, 45.765001527348467 ], [ -73.470686976761186, 45.767685114699425 ], [ -73.470544967870836, 45.772879821731181 ], [ -73.464044969172392, 45.775390910332327 ], [ -73.457687634294501, 45.772706949680249 ], [ -73.457830835831189, 45.767512273793237 ], [ -73.464330179612617, 45.765001527348467 ] ] ] } },
{ "type": "Feature", "properties": { "hex_id": 584313, "centroid_lon": -73.457544393525453, "centroid_lat": 45.777901620474339, "occurrences_today": 5, "datetimes_today": "2026-07-06 00:02:02, 2026-07-06 00:16:59, 2026-07-06 00:31:44, 2026-07-06 00:47:07, 2026-07-06 01:01:41", "cumulative_total": 141.0 }, "geometry": { "type": "Polygon", "coordinates": [ [ [ -73.457687634294501, 45.772706949680249 ], [ -73.464044969172392, 45.775390910332327 ], [ -73.463902305345229, 45.780585594189148 ], [ -73.457401113510755, 45.783096286175414 ], [ -73.45104324094325, 45.780411952061705 ], [ -73.451187097886574, 45.775217299488446 ], [ -73.457687634294501, 45.772706949680249 ] ] ] } },
{ "type": "Feature", "properties": { "hex_id": 584923, "centroid_lon": -73.451330915427661, "centroid_lat": 45.770022641819331, "occurrences_today": 5, "datetimes_today": "2026-07-06 00:02:02, 2026-07-06 00:16:59, 2026-07-06 00:31:44, 2026-07-06 00:47:07, 2026-07-06 01:01:41", "cumulative_total": 240.0 }, "geometry": { "type": "Polygon", "coordinates": [ [ [ -73.451474693579812, 45.764827979054438 ], [ -73.457830835831189, 45.767512273793237 ], [ -73.457687634294501, 45.772706949680249 ], [ -73.451187097886574, 45.775217299488446 ], [ -73.444830418415307, 45.772532631331316 ], [ -73.444974812558556, 45.767337986849412 ], [ -73.451474693579812, 45.764827979054438 ] ] ] } },
{ "type": "Feature", "properties": { "hex_id": 583092, "centroid_lon": -73.470402920074548, "centroid_lat": 45.778074523675755, "occurrences_today": 5, "datetimes_today": "2026-07-06 00:02:02, 2026-07-06 00:16:59, 2026-07-06 00:31:44, 2026-07-06 00:47:07, 2026-07-06 01:01:41", "cumulative_total": 147.0 }, "geometry": { "type": "Polygon", "coordinates": [ [ [ -73.470544967870836, 45.772879821731181 ], [ -73.47690295768551, 45.775563074730734 ], [ -73.47676148701413, 45.780757789610675 ], [ -73.470260833359134, 45.783269220533015 ], [ -73.463902305345229, 45.780585594189148 ], [ -73.464044969172392, 45.775390910332327 ], [ -73.470544967870836, 45.772879821731181 ] ] ] } },
{ "type": "Feature", "properties": { "hex_id": 583703, "centroid_lon": -73.463759602429093, "centroid_lat": 45.785780272955762, "occurrences_today": 5, "datetimes_today": "2026-07-06 00:02:02, 2026-07-06 00:16:59, 2026-07-06 00:31:44, 2026-07-06 00:47:07, 2026-07-06 01:01:41", "cumulative_total": 83.0 }, "geometry": { "type": "Polygon", "coordinates": [ [ [ -73.463902305345229, 45.780585594189148 ], [ -73.470260833359134, 45.783269220533015 ], [ -73.470118707711478, 45.788463912302902 ], [ -73.463616860410767, 45.790974946632062 ], [ -73.457257794237165, 45.788290946783334 ], [ -73.457401113510755, 45.783096286175414 ], [ -73.463902305345229, 45.780585594189148 ] ] ] } },
{ "type": "Feature", "properties": { "hex_id": 584924, "centroid_lon": -73.450899344584357, "centroid_lat": 45.785606599538987, "occurrences_today": 5, "datetimes_today": "2026-07-06 00:02:02, 2026-07-06 00:16:59, 2026-07-06 00:31:44, 2026-07-06 00:47:07, 2026-07-06 01:01:41", "cumulative_total": 195.0 }, "geometry": { "type": "Polygon", "coordinates": [ [ [ -73.45104324094325, 45.780411952061705 ], [ -73.457401113510755, 45.783096286175414 ], [ -73.457257794237165, 45.788290946783334 ], [ -73.45075540879661, 45.7908012419202 ], [ -73.44439699857935, 45.788116534184368 ], [ -73.44454151143907, 45.782921904998908 ], [ -73.45104324094325, 45.780411952061705 ] ] ] } },
{ "type": "Feature", "properties": { "hex_id": 585535, "centroid_lon": -73.444252446120728, "centroid_lat": 45.793311158270818, "occurrences_today": 5, "datetimes_today": "2026-07-06 00:02:02, 2026-07-06 00:16:59, 2026-07-06 00:31:44, 2026-07-06 00:47:07, 2026-07-06 01:01:41", "cumulative_total": 119.0 }, "geometry": { "type": "Polygon", "coordinates": [ [ [ -73.44439699857935, 45.788116534184368 ], [ -73.45075540879661, 45.7908012419202 ], [ -73.450611433566635, 45.795995879205265 ], [ -73.44410785404979, 45.798505777258157 ], [ -73.437748906222879, 45.79582069573965 ], [ -73.437894075509064, 45.790626090016026 ], [ -73.44439699857935, 45.788116534184368 ] ] ] } },
{ "type": "Feature", "properties": { "hex_id": 586146, "centroid_lon": -73.437603697154231, "centroid_lat": 45.801015296361172, "occurrences_today": 5, "datetimes_today": "2026-07-06 00:02:02, 2026-07-06 00:16:59, 2026-07-06 00:31:44, 2026-07-06 00:47:07, 2026-07-06 01:01:41", "cumulative_total": 231.0 }, "geometry": { "type": "Polygon", "coordinates": [ [ [ -73.437748906222879, 45.79582069573965 ], [ -73.44410785404979, 45.798505777258157 ], [ -73.443963222353162, 45.803700391146286 ], [ -73.437458448289689, 45.806209891880528 ], [ -73.431098962893373, 45.803524436418769 ], [ -73.431244789116477, 45.798329854231135 ], [ -73.437748906222879, 45.79582069573965 ] ] ] } },
{ "type": "Feature", "properties": { "hex_id": 532420, "centroid_lon": -74.004261821157442, "centroid_lat": 45.776180270048165, "occurrences_today": 5, "datetimes_today": "2026-07-06 00:02:02, 2026-07-06 00:16:59, 2026-07-06 00:31:44, 2026-07-06 00:47:07, 2026-07-06 01:01:41", "cumulative_total": 193.0 }, "geometry": { "type": "Polygon", "coordinates": [ [ [ -74.004354291721839, 45.770984497808442 ], [ -74.010738168062574, 45.77363824351594 ], [ -74.010646281841119, 45.778834023377506 ], [ -74.004169325252789, 45.78137603739647 ], [ -73.99778488991366, 45.778721923412768 ], [ -73.997877970152672, 45.773526163751498 ], [ -74.004354291721839, 45.770984497808442 ] ] ] } },
{ "type": "Feature", "properties": { "hex_id": 585533, "centroid_lon": -73.445119167156378, "centroid_lat": 45.762143337268888, "occurrences_today": 2, "datetimes_today": "2026-07-06 00:47:07, 2026-07-06 01:01:41", "cumulative_total": 202.0 }, "geometry": { "type": "Polygon", "coordinates": [ [ [ -73.445263482222146, 45.756948682589844 ], [ -73.451618432356341, 45.759633311193902 ], [ -73.451474693579812, 45.764827979054438 ], [ -73.444974812558556, 45.767337986849412 ], [ -73.438619325673869, 45.764652984870288 ], [ -73.438764256547572, 45.759458348536327 ], [ -73.445263482222146, 45.756948682589844 ] ] ] } },
{ "type": "Feature", "properties": { "hex_id": 784013, "centroid_lon": -71.288247868410281, "centroid_lat": 46.764702496243117, "occurrences_today": 5, "datetimes_today": "2026-07-06 00:02:02, 2026-07-06 00:16:59, 2026-07-06 00:31:44, 2026-07-06 00:47:07, 2026-07-06 01:01:41", "cumulative_total": 94.0 }, "geometry": { "type": "Polygon", "coordinates": [ [ [ -71.288604427953345, 46.759517754255953 ], [ -71.294960172579579, 46.762322138782906 ], [ -71.294604187938887, 46.767506915555074 ], [ -71.2878912100999, 46.76988723142091 ], [ -71.281534989355734, 46.767082441434326 ], [ -71.28189222253431, 46.761897741108086 ], [ -71.288604427953345, 46.759517754255953 ] ] ] } },
{ "type": "Feature", "properties": { "hex_id": 564154, "centroid_lon": -73.674334531987839, "centroid_lat": 45.585747915304466, "occurrences_today": 5, "datetimes_today": "2026-07-06 00:02:02, 2026-07-06 00:16:59, 2026-07-06 00:31:44, 2026-07-06 00:47:07, 2026-07-06 01:01:41", "cumulative_total": 259.0 }, "geometry": { "type": "Polygon", "coordinates": [ [ [ -73.674456822497561, 45.580552576217158 ], [ -73.68080326914729, 45.583224432695104 ], [ -73.680681552702637, 45.588419782648913 ], [ -73.674212208047962, 45.590943249389845 ], [ -73.667865220768945, 45.588271023925778 ], [ -73.667988118762636, 45.583075700771616 ], [ -73.674456822497561, 45.580552576217158 ] ] ] } },
{ "type": "Feature", "properties": { "hex_id": 570238, "centroid_lon": -73.618265559488236, "centroid_lat": 45.257678690372508, "occurrences_today": 2, "datetimes_today": "2026-07-06 00:47:07, 2026-07-06 01:01:41", "cumulative_total": 129.0 }, "geometry": { "type": "Polygon", "coordinates": [ [ [ -73.618391572282917, 45.252483171965963 ], [ -73.624699011066497, 45.255157833207477 ], [ -73.624573561752996, 45.260353362957922 ], [ -73.61813951238139, 45.262874203757193 ], [ -73.611831544434537, 45.260199177147818 ], [ -73.611958155011138, 45.255003675170961 ], [ -73.618391572282917, 45.252483171965963 ] ] ] } },
{ "type": "Feature", "properties": { "hex_id": 670433, "centroid_lon": -72.523999508606522, "centroid_lat": 46.377259095067558, "occurrences_today": 5, "datetimes_today": "2026-07-06 00:02:02, 2026-07-06 00:16:59, 2026-07-06 00:31:44, 2026-07-06 00:47:07, 2026-07-06 01:01:41", "cumulative_total": 68.0 }, "geometry": { "type": "Polygon", "coordinates": [ [ [ -72.524234255242973, 46.372067943744241 ], [ -72.530612108527578, 46.374804048157223 ], [ -72.530377943898841, 46.379995221979726 ], [ -72.523764697200761, 46.38245024073845 ], [ -72.517386326688836, 46.379713746585146 ], [ -72.517621720080115, 46.374522623479642 ], [ -72.524234255242973, 46.372067943744241 ] ] ] } },
{ "type": "Feature", "properties": { "hex_id": 568407, "centroid_lon": -73.637191359691016, "centroid_lat": 45.265701679888956, "occurrences_today": 2, "datetimes_today": "2026-07-06 00:47:07, 2026-07-06 01:01:41", "cumulative_total": 13.0 }, "geometry": { "type": "Polygon", "coordinates": [ [ [ -73.637315681551186, 45.260506127635182 ], [ -73.643624913274977, 45.263179760625675 ], [ -73.643501155386971, 45.26837532403885 ], [ -73.637067003975631, 45.270897227128245 ], [ -73.630757242140547, 45.268223228845287 ], [ -73.6308821618168, 45.263027692829361 ], [ -73.637315681551186, 45.260506127635182 ] ] ] } },
{ "type": "Feature", "properties": { "hex_id": 569017, "centroid_lon": -73.631007047485454, "centroid_lat": 45.257832151796499, "occurrences_today": 2, "datetimes_today": "2026-07-06 00:47:07, 2026-07-06 01:01:41", "cumulative_total": 35.0 }, "geometry": { "type": "Polygon", "coordinates": [ [ [ -73.63113189915785, 45.252636605746773 ], [ -73.63743996956741, 45.25531057036698 ], [ -73.637315681551186, 45.260506127635182 ], [ -73.6308821618168, 45.263027692829361 ], [ -73.624573561752996, 45.260353362957922 ], [ -73.624699011066497, 45.255157833207477 ], [ -73.63113189915785, 45.252636605746773 ] ] ] } },
{ "type": "Feature", "properties": { "hex_id": 569628, "centroid_lon": -73.624448078279585, "centroid_lat": 45.265548887688979, "occurrences_today": 2, "datetimes_today": "2026-07-06 00:47:07, 2026-07-06 01:01:41", "cumulative_total": 84.0 }, "geometry": { "type": "Polygon", "coordinates": [ [ [ -73.624573561752996, 45.260353362957922 ], [ -73.6308821618168, 45.263027692829361 ], [ -73.630757242140547, 45.268223228845287 ], [ -73.62432256063488, 45.270744407400542 ], [ -73.61801343095091, 45.268069712119939 ], [ -73.61813951238139, 45.262874203757193 ], [ -73.624573561752996, 45.260353362957922 ] ] ] } },
{ "type": "Feature", "properties": { "hex_id": 655107, "centroid_lon": -72.727125220771526, "centroid_lat": 45.391531212584042, "occurrences_today": 5, "datetimes_today": "2026-07-06 00:02:02, 2026-07-06 00:16:59, 2026-07-06 00:31:44, 2026-07-06 00:47:07, 2026-07-06 01:01:41", "cumulative_total": 19.0 }, "geometry": { "type": "Polygon", "coordinates": [ [ [ -72.72733343957141, 45.386338397809389 ], [ -72.733611632422367, 45.389061687636001 ], [ -72.73340396881413, 45.394254522514792 ], [ -72.726916945213773, 45.396724021869325 ], [ -72.720638253938517, 45.394000356905352 ], [ -72.720847084668932, 45.388807567788206 ], [ -72.72733343957141, 45.386338397809389 ] ] ] } },
{ "type": "Feature", "properties": { "hex_id": 671044, "centroid_lon": -72.517150868348082, "centroid_lat": 46.384904864033302, "occurrences_today": 5, "datetimes_today": "2026-07-06 00:02:02, 2026-07-06 00:16:59, 2026-07-06 00:31:44, 2026-07-06 00:47:07, 2026-07-06 01:01:41", "cumulative_total": 49.0 }, "geometry": { "type": "Polygon", "coordinates": [ [ [ -72.517386326688836, 46.379713746585146 ], [ -72.523764697200761, 46.38245024073845 ], [ -72.523529821003464, 46.387641380756634 ], [ -72.516915345035542, 46.390095975823819 ], [ -72.510536457363074, 46.387359091768325 ], [ -72.510772562796802, 46.382168002614073 ], [ -72.517386326688836, 46.379713746585146 ] ] ] } },
{ "type": "Feature", "properties": { "hex_id": 553776, "centroid_lon": -73.783103426893717, "centroid_lat": 45.594753650258305, "occurrences_today": 5, "datetimes_today": "2026-07-06 00:02:02, 2026-07-06 00:16:59, 2026-07-06 00:31:44, 2026-07-06 00:47:07, 2026-07-06 01:01:41", "cumulative_total": 405.0 }, "geometry": { "type": "Polygon", "coordinates": [ [ [ -73.783215720457008, 45.589558100187986 ], [ -73.789568459320591, 45.592223971813745 ], [ -73.78945674156563, 45.597419531673701 ], [ -73.782991102628429, 45.599949195366577 ], [ -73.776637818663659, 45.597282955664326 ], [ -73.776750718726944, 45.592087420410422 ], [ -73.783215720457008, 45.589558100187986 ] ] ] } },
{ "type": "Feature", "properties": { "hex_id": 857862, "centroid_lon": -70.525793132750408, "centroid_lat": 46.402199739382326, "occurrences_today": 3, "datetimes_today": "2026-07-06 00:02:02, 2026-07-06 00:16:59, 2026-07-06 00:31:44", "cumulative_total": 152.0 }, "geometry": { "type": "Polygon", "coordinates": [ [ [ -70.526217398364551, 46.397019610002516 ], [ -70.532489709119901, 46.399863689627907 ], [ -70.532065995086427, 46.405043860834461 ], [ -70.525368750286731, 46.407379861051091 ], [ -70.519096004820227, 46.404535374848727 ], [ -70.519520938824598, 46.399355295071928 ], [ -70.526217398364551, 46.397019610002516 ] ] ] } },
{ "type": "Feature", "properties": { "hex_id": 784624, "centroid_lon": -71.281177657220809, "centroid_lat": 46.77226713494354, "occurrences_today": 4, "datetimes_today": "2026-07-06 00:16:59, 2026-07-06 00:31:44, 2026-07-06 00:47:07, 2026-07-06 01:01:41", "cumulative_total": 163.0 }, "geometry": { "type": "Polygon", "coordinates": [ [ [ -71.281534989355734, 46.767082441434326 ], [ -71.2878912100999, 46.76988723142091 ], [ -71.287534452987984, 46.775071959788633 ], [ -71.280820226095287, 46.777451821635054 ], [ -71.274463529335847, 46.774646626028066 ], [ -71.274821535450101, 46.769461974261652 ], [ -71.281534989355734, 46.767082441434326 ] ] ] } },
{ "type": "Feature", "properties": { "hex_id": 653886, "centroid_lon": -72.739890437064119, "centroid_lat": 45.391784642558179, "occurrences_today": 5, "datetimes_today": "2026-07-06 00:02:02, 2026-07-06 00:16:59, 2026-07-06 00:31:44, 2026-07-06 00:47:07, 2026-07-06 01:01:41", "cumulative_total": 86.0 }, "geometry": { "type": "Polygon", "coordinates": [ [ [ -72.740097488872109, 45.386591782154156 ], [ -72.746376349944839, 45.389314382092529 ], [ -72.746169853515539, 45.394507262476694 ], [ -72.739683328815715, 45.396977497481103 ], [ -72.73340396881413, 45.394254522514792 ], [ -72.733611632422367, 45.389061687636001 ], [ -72.740097488872109, 45.386591782154156 ] ] ] } },
{ "type": "Feature", "properties": { "hex_id": 543395, "centroid_lon": -73.89282862582921, "centroid_lat": 45.55689424811721, "occurrences_today": 2, "datetimes_today": "2026-07-06 00:02:02, 2026-07-06 00:16:59", "cumulative_total": 316.0 }, "geometry": { "type": "Polygon", "coordinates": [ [ [ -73.892930660689302, 45.551698461330453 ], [ -73.89928447192402, 45.554358256233826 ], [ -73.899183013195611, 45.559554051712546 ], [ -73.892726563083642, 45.562090029978812 ], [ -73.886372203607365, 45.559429868517789 ], [ -73.886474842475252, 45.554234095412795 ], [ -73.892930660689302, 45.551698461330453 ] ] ] } },
{ "type": "Feature", "properties": { "hex_id": 533031, "centroid_lon": -73.997691784166548, "centroid_lat": 45.783917678180757, "occurrences_today": 5, "datetimes_today": "2026-07-06 00:02:02, 2026-07-06 00:16:59, 2026-07-06 00:31:44, 2026-07-06 00:47:07, 2026-07-06 01:01:41", "cumulative_total": 280.0 }, "geometry": { "type": "Polygon", "coordinates": [ [ [ -73.99778488991366, 45.778721923412768 ], [ -74.004169325252789, 45.78137603739647 ], [ -74.004076803999311, 45.786571799853384 ], [ -73.997598652902767, 45.789113428055458 ], [ -73.991213658591008, 45.786458945633953 ], [ -73.991307374339812, 45.781263203513362 ], [ -73.99778488991366, 45.778721923412768 ] ] ] } },
{ "type": "Feature", "properties": { "hex_id": 60703, "centroid_lon": -79.210575557954257, "centroid_lat": 48.812854809155603, "occurrences_today": 3, "datetimes_today": "2026-07-06 00:31:44, 2026-07-06 00:47:07, 2026-07-06 01:01:41", "cumulative_total": 26.0 }, "geometry": { "type": "Polygon", "coordinates": [ [ [ -79.210141089959677, 48.8076750504027 ], [ -79.217149998132584, 48.810016218878168 ], [ -79.217585223940077, 48.815195928773271 ], [ -79.21101014984761, 48.8180345603418 ], [ -79.204000359940366, 48.815693043320074 ], [ -79.203566525905188, 48.810513243347728 ], [ -79.210141089959677, 48.8076750504027 ] ] ] } },
{ "type": "Feature", "properties": { "hex_id": 457364, "centroid_lon": -74.793251366168562, "centroid_lat": 46.333738225853502, "occurrences_today": 1, "datetimes_today": "2026-07-06 00:02:02", "cumulative_total": 79.0 }, "geometry": { "type": "Polygon", "coordinates": [ [ [ -74.793270944041339, 46.328542210765015 ], [ -74.799757229101388, 46.331151779204582 ], [ -74.799738263770536, 46.336347794003409 ], [ -74.793231782892036, 46.338934236192394 ], [ -74.78674489069472, 46.336324300125796 ], [ -74.786765086511309, 46.331128289563821 ], [ -74.793270944041339, 46.328542210765015 ] ] ] } },
{ "type": "Feature", "properties": { "hex_id": 457974, "centroid_lon": -74.78678527675531, "centroid_lat": 46.325932274251805, "occurrences_today": 1, "datetimes_today": "2026-07-06 00:02:02", "cumulative_total": 79.0 }, "geometry": { "type": "Polygon", "coordinates": [ [ [ -74.786805461428671, 46.320736254189704 ], [ -74.793290516512215, 46.32334619092687 ], [ -74.793270944041339, 46.328542210765015 ], [ -74.786765086511309, 46.331128289563821 ], [ -74.780279424796888, 46.32851798523447 ], [ -74.78030022724144, 46.323321969765075 ], [ -74.786805461428671, 46.320736254189704 ] ] ] } },
{ "type": "Feature", "properties": { "hex_id": 457975, "centroid_lon": -74.786724689303668, "centroid_lat": 46.341520305937784, "occurrences_today": 1, "datetimes_today": "2026-07-06 00:02:02", "cumulative_total": 79.0 }, "geometry": { "type": "Polygon", "coordinates": [ [ [ -74.78674489069472, 46.336324300125796 ], [ -74.793231782892036, 46.338934236192394 ], [ -74.793212194209943, 46.34413024178172 ], [ -74.786704482336219, 46.346716306999809 ], [ -74.780216983007293, 46.34410600314002 ], [ -74.780237802681782, 46.338910001921917 ], [ -74.78674489069472, 46.336324300125796 ] ] ] } },
{ "type": "Feature", "properties": { "hex_id": 563520, "centroid_lon": -73.689241395193108, "centroid_lat": 45.219537516321211, "occurrences_today": 2, "datetimes_today": "2026-07-06 00:47:07, 2026-07-06 01:01:41", "cumulative_total": 48.0 }, "geometry": { "type": "Polygon", "coordinates": [ [ [ -73.689360777436761, 45.214341811583608 ], [ -73.695667456053343, 45.21701255981305 ], [ -73.695548637108558, 45.222208275186865 ], [ -73.689121980456335, 45.224733216064458 ], [ -73.682814771039418, 45.222062103606824 ], [ -73.682934749064216, 45.21686641456364 ], [ -73.689360777436761, 45.214341811583608 ] ] ] } },
{ "type": "Feature", "properties": { "hex_id": 564130, "centroid_lon": -73.683054694443726, "centroid_lat": 45.21167072052377, "occurrences_today": 2, "datetimes_today": "2026-07-06 00:47:07, 2026-07-06 01:01:41", "cumulative_total": 48.0 }, "geometry": { "type": "Polygon", "coordinates": [ [ [ -73.683174607188803, 45.206475021487257 ], [ -73.689480127198081, 45.209146101851708 ], [ -73.689360777436761, 45.214341811583608 ], [ -73.682934749064216, 45.21686641456364 ], [ -73.676628698711056, 45.214194970011818 ], [ -73.676749207063438, 45.208999286731171 ], [ -73.683174607188803, 45.206475021487257 ] ] ] } },
{ "type": "Feature", "properties": { "hex_id": 565351, "centroid_lon": -73.670323244122713, "centroid_lat": 45.211523182763393, "occurrences_today": 2, "datetimes_today": "2026-07-06 00:47:07, 2026-07-06 01:01:41", "cumulative_total": 3.0 }, "geometry": { "type": "Polygon", "coordinates": [ [ [ -73.67044431528501, 45.206327510303446 ], [ -73.676749207063438, 45.208999286731171 ], [ -73.676628698711056, 45.214194970011818 ], [ -73.670202140010957, 45.216718850221881 ], [ -73.663896718377572, 45.214046709489899 ], [ -73.664018385288259, 45.208851052915961 ], [ -73.67044431528501, 45.206327510303446 ] ] ] } },
{ "type": "Feature", "properties": { "hex_id": 565961, "centroid_lon": -73.664140019097488, "centroid_lat": 45.203655391338231, "occurrences_today": 2, "datetimes_today": "2026-07-06 00:47:07, 2026-07-06 01:01:41", "cumulative_total": 20.0 }, "geometry": { "type": "Polygon", "coordinates": [ [ [ -73.664261619816273, 45.198459724756759 ], [ -73.670565353508806, 45.201131832842179 ], [ -73.67044431528501, 45.206327510303446 ], [ -73.664018385288259, 45.208851052915961 ], [ -73.65771412219668, 45.206178580567205 ], [ -73.657836318489885, 45.200982929933105 ], [ -73.664261619816273, 45.198459724756759 ] ] ] } },
{ "type": "Feature", "properties": { "hex_id": 565962, "centroid_lon": -73.663775018354386, "centroid_lat": 45.219242361059969, "occurrences_today": 2, "datetimes_today": "2026-07-06 00:47:07, 2026-07-06 01:01:41", "cumulative_total": 3.0 }, "geometry": { "type": "Polygon", "coordinates": [ [ [ -73.663896718377572, 45.214046709489899 ], [ -73.670202140010957, 45.216718850221881 ], [ -73.670081002938758, 45.221914512678886 ], [ -73.663653285207687, 45.22443800762607 ], [ -73.657347333752341, 45.221765502432078 ], [ -73.657469629838985, 45.216569866816769 ], [ -73.663896718377572, 45.214046709489899 ] ] ] } },
{ "type": "Feature", "properties": { "hex_id": 566572, "centroid_lon": -73.657591892650089, "centroid_lat": 45.211374226195126, "occurrences_today": 2, "datetimes_today": "2026-07-06 00:47:07, 2026-07-06 01:01:41", "cumulative_total": 3.0 }, "geometry": { "type": "Polygon", "coordinates": [ [ [ -73.65771412219668, 45.206178580567205 ], [ -73.664018385288259, 45.208851052915961 ], [ -73.663896718377572, 45.214046709489899 ], [ -73.657469629838985, 45.216569866816769 ], [ -73.651164837381529, 45.213897030046986 ], [ -73.651287662817467, 45.208701400435203 ], [ -73.65771412219668, 45.206178580567205 ] ] ] } },
{ "type": "Feature", "properties": { "hex_id": 566573, "centroid_lon": -73.657225004379029, "centroid_lat": 45.226961133040945, "occurrences_today": 2, "datetimes_today": "2026-07-06 00:47:07, 2026-07-06 01:01:41", "cumulative_total": 11.0 }, "geometry": { "type": "Polygon", "coordinates": [ [ [ -73.657347333752341, 45.221765502432078 ], [ -73.663653285207687, 45.22443800762607 ], [ -73.663531518926433, 45.229633649188138 ], [ -73.657102641708008, 45.232156758643306 ], [ -73.650796160463869, 45.229483888829527 ], [ -73.650919086215879, 45.224288274244216 ], [ -73.657347333752341, 45.221765502432078 ] ] ] } },
{ "type": "Feature", "properties": { "hex_id": 567182, "centroid_lon": -73.651410454836963, "centroid_lat": 45.203505765814754, "occurrences_today": 2, "datetimes_today": "2026-07-06 00:47:07, 2026-07-06 01:01:41", "cumulative_total": 20.0 }, "geometry": { "type": "Polygon", "coordinates": [ [ [ -73.65153321345116, 45.198310126185724 ], [ -73.657836318489885, 45.200982929933105 ], [ -73.65771412219668, 45.206178580567205 ], [ -73.651287662817467, 45.208701400435203 ], [ -73.644984028868606, 45.206028232307787 ], [ -73.645107383197995, 45.200832608756237 ], [ -73.65153321345116, 45.198310126185724 ] ] ] } },
{ "type": "Feature", "properties": { "hex_id": 567183, "centroid_lon": -73.651041978518052, "centroid_lat": 45.219092654650026, "occurrences_today": 2, "datetimes_today": "2026-07-06 00:47:07, 2026-07-06 01:01:41", "cumulative_total": 3.0 }, "geometry": { "type": "Polygon", "coordinates": [ [ [ -73.651164837381529, 45.213897030046986 ], [ -73.657469629838985, 45.216569866816769 ], [ -73.657347333752341, 45.221765502432078 ], [ -73.650919086215879, 45.224288274244216 ], [ -73.644613764425841, 45.221615072895673 ], [ -73.644737219493706, 45.216419464377587 ], [ -73.651164837381529, 45.213897030046986 ] ] ] } },
{ "type": "Feature", "properties": { "hex_id": 567184, "centroid_lon": -73.65067320125091, "centroid_lat": 45.234679498405796, "occurrences_today": 2, "datetimes_today": "2026-07-06 00:47:07, 2026-07-06 01:01:41", "cumulative_total": 30.0 }, "geometry": { "type": "Polygon", "coordinates": [ [ [ -73.650796160463869, 45.229483888829527 ], [ -73.657102641708008, 45.232156758643306 ], [ -73.656980245728136, 45.237352379239056 ], [ -73.650550208565818, 45.239875102973024 ], [ -73.644243197566283, 45.237201868381618 ], [ -73.644366753473321, 45.23200627489777 ], [ -73.650796160463869, 45.229483888829527 ] ] ] } },
{ "type": "Feature", "properties": { "hex_id": 567793, "centroid_lon": -73.644860640970904, "centroid_lat": 45.21122385084827, "occurrences_today": 2, "datetimes_today": "2026-07-06 00:47:07, 2026-07-06 01:01:41", "cumulative_total": 3.0 }, "geometry": { "type": "Polygon", "coordinates": [ [ [ -73.644984028868606, 45.206028232307787 ], [ -73.651287662817467, 45.208701400435203 ], [ -73.651164837381529, 45.213897030046986 ], [ -73.644737219493706, 45.216419464377587 ], [ -73.638433056668177, 45.213745931712467 ], [ -73.638557040595956, 45.208550329318292 ], [ -73.644984028868606, 45.206028232307787 ] ] ] } },
{ "type": "Feature", "properties": { "hex_id": 567794, "centroid_lon": -73.644490275756112, "centroid_lat": 45.226810676402422, "occurrences_today": 2, "datetimes_today": "2026-07-06 00:47:07, 2026-07-06 01:01:41", "cumulative_total": 3.0 }, "geometry": { "type": "Polygon", "coordinates": [ [ [ -73.644613764425841, 45.221615072895673 ], [ -73.650919086215879, 45.224288274244216 ], [ -73.650796160463869, 45.229483888829527 ], [ -73.644366753473321, 45.23200627489777 ], [ -73.638060902384211, 45.229332708812692 ], [ -73.638184987573538, 45.224137121459755 ], [ -73.644613764425841, 45.221615072895673 ] ] ] } },
{ "type": "Feature", "properties": { "hex_id": 567795, "centroid_lon": -73.644119608023772, "centroid_lat": 45.242397456853908, "occurrences_today": 2, "datetimes_today": "2026-07-06 00:47:07, 2026-07-06 01:01:41", "cumulative_total": 20.0 }, "geometry": { "type": "Polygon", "coordinates": [ [ [ -73.644243197566283, 45.237201868381618 ], [ -73.650550208565818, 45.239875102973024 ], [ -73.650427182397465, 45.245070702531081 ], [ -73.643995984834618, 45.247593040314527 ], [ -73.637688444113209, 45.244919440787662 ], [ -73.637812630665309, 45.239723868476723 ], [ -73.644243197566283, 45.237201868381618 ] ] ] } },
{ "type": "Feature", "properties": { "hex_id": 568404, "centroid_lon": -73.638309038997775, "centroid_lat": 45.218941529092994, "occurrences_today": 2, "datetimes_today": "2026-07-06 00:47:07, 2026-07-06 01:01:41", "cumulative_total": 3.0 }, "geometry": { "type": "Polygon", "coordinates": [ [ [ -73.638433056668177, 45.213745931712467 ], [ -73.644737219493706, 45.216419464377587 ], [ -73.644613764425841, 45.221615072895673 ], [ -73.638184987573538, 45.224137121459755 ], [ -73.631880295904935, 45.221463224099217 ], [ -73.632004909920454, 45.216267642933886 ], [ -73.638433056668177, 45.213745931712467 ] ] ] } },
{ "type": "Feature", "properties": { "hex_id": 568405, "centroid_lon": -73.637936783418553, "centroid_lat": 45.234528291151697, "occurrences_today": 2, "datetimes_today": "2026-07-06 00:47:07, 2026-07-06 01:01:41", "cumulative_total": 3.0 }, "geometry": { "type": "Polygon", "coordinates": [ [ [ -73.638060902384211, 45.229332708812692 ], [ -73.644366753473321, 45.23200627489777 ], [ -73.644243197566283, 45.237201868381618 ], [ -73.637812630665309, 45.239723868476723 ], [ -73.631506250310792, 45.237049937497325 ], [ -73.631630966111388, 45.231854371381033 ], [ -73.638060902384211, 45.229332708812692 ] ] ] } },
{ "type": "Feature", "properties": { "hex_id": 568406, "centroid_lon": -73.637564223750999, "centroid_lat": 45.250115008084443, "occurrences_today": 2, "datetimes_today": "2026-07-06 00:47:07, 2026-07-06 01:01:41", "cumulative_total": 3.0 }, "geometry": { "type": "Polygon", "coordinates": [ [ [ -73.637688444113209, 45.244919440787662 ], [ -73.643995984834618, 45.247593040314527 ], [ -73.64387232798758, 45.252788618763418 ], [ -73.63743996956741, 45.25531057036698 ], [ -73.63113189915785, 45.252636605746773 ], [ -73.631256716845328, 45.24744105468028 ], [ -73.637688444113209, 45.244919440787662 ] ] ] } },
{ "type": "Feature", "properties": { "hex_id": 569015, "centroid_lon": -73.631755647972355, "centroid_lat": 45.226658800248295, "occurrences_today": 2, "datetimes_today": "2026-07-06 00:47:07, 2026-07-06 01:01:41", "cumulative_total": 6.0 }, "geometry": { "type": "Polygon", "coordinates": [ [ [ -73.631880295904935, 45.221463224099217 ], [ -73.638184987573538, 45.224137121459755 ], [ -73.638060902384211, 45.229332708812692 ], [ -73.631630966111388, 45.231854371381033 ], [ -73.625325745633546, 45.229180109167366 ], [ -73.625450990226454, 45.223984549302358 ], [ -73.631880295904935, 45.221463224099217 ] ] ] } },
{ "type": "Feature", "properties": { "hex_id": 569016, "centroid_lon": -73.631381500559201, "centroid_lat": 45.242245498597107, "occurrences_today": 2, "datetimes_today": "2026-07-06 00:47:07, 2026-07-06 01:01:41", "cumulative_total": 3.0 }, "geometry": { "type": "Polygon", "coordinates": [ [ [ -73.631506250310792, 45.237049937497325 ], [ -73.637812630665309, 45.239723868476723 ], [ -73.637688444113209, 45.244919440787662 ], [ -73.631256716845328, 45.24744105468028 ], [ -73.62494980725927, 45.244766758648744 ], [ -73.625075154161308, 45.239571213840641 ], [ -73.631506250310792, 45.237049937497325 ] ] ] } },
{ "type": "Feature", "properties": { "hex_id": 569627, "centroid_lon": -73.624824426231456, "centroid_lat": 45.249962298437723, "occurrences_today": 2, "datetimes_today": "2026-07-06 00:47:07, 2026-07-06 01:01:41", "cumulative_total": 3.0 }, "geometry": { "type": "Polygon", "coordinates": [ [ [ -73.62494980725927, 45.244766758648744 ], [ -73.631256716845328, 45.24744105468028 ], [ -73.63113189915785, 45.252636605746773 ], [ -73.624699011066497, 45.255157833207477 ], [ -73.618391572282917, 45.252483171965963 ], [ -73.618517550776858, 45.247287648537643 ], [ -73.62494980725927, 45.244766758648744 ] ] ] } },
{ "type": "Feature", "properties": { "hex_id": 570239, "centroid_lon": -73.617887315185385, "centroid_lat": 45.273265215460661, "occurrences_today": 2, "datetimes_today": "2026-07-06 00:47:07, 2026-07-06 01:01:41", "cumulative_total": 72.0 }, "geometry": { "type": "Polygon", "coordinates": [ [ [ -73.61801343095091, 45.268069712119939 ], [ -73.62432256063488, 45.270744407400542 ], [ -73.624197008807457, 45.275939922092569 ], [ -73.617761165073318, 45.278460713779268 ], [ -73.611451505803487, 45.275785652931525 ], [ -73.611578219842201, 45.270590166028171 ], [ -73.61801343095091, 45.268069712119939 ] ] ] } },
{ "type": "Feature", "properties": { "hex_id": 570849, "centroid_lon": -73.611704899382062, "centroid_lat": 45.26539467410025, "occurrences_today": 2, "datetimes_today": "2026-07-06 00:47:07, 2026-07-06 01:01:41", "cumulative_total": 112.0 }, "geometry": { "type": "Polygon", "coordinates": [ [ [ -73.611831544434537, 45.260199177147818 ], [ -73.61813951238139, 45.262874203757193 ], [ -73.61801343095091, 45.268069712119939 ], [ -73.611578219842201, 45.270590166028171 ], [ -73.605269722766465, 45.267914773893018 ], [ -73.605396965916825, 45.262719293439361 ], [ -73.611831544434537, 45.260199177147818 ] ] ] } },
{ "type": "Feature", "properties": { "hex_id": 670432, "centroid_lon": -72.524703554296849, "centroid_lat": 46.361685624141522, "occurrences_today": 5, "datetimes_today": "2026-07-06 00:02:02, 2026-07-06 00:16:59, 2026-07-06 00:31:44, 2026-07-06 00:47:07, 2026-07-06 01:01:41", "cumulative_total": 33.0 }, "geometry": { "type": "Polygon", "coordinates": [ [ [ -72.52493810675864, 46.356494455862702 ], [ -72.531314214967395, 46.359230492805821 ], [ -72.531080244039714, 46.364421683569979 ], [ -72.524468937132355, 46.366876786768785 ], [ -72.518092312103278, 46.364140360297817 ], [ -72.518327510779699, 46.358949220222087 ], [ -72.52493810675864, 46.356494455862702 ] ] ] } },
{ "type": "Feature", "properties": { "hex_id": 818145, "centroid_lon": -70.986723814298841, "centroid_lat": 45.881474440451946, "occurrences_today": 5, "datetimes_today": "2026-07-06 00:02:02, 2026-07-06 00:16:59, 2026-07-06 00:31:44, 2026-07-06 00:47:07, 2026-07-06 01:01:41", "cumulative_total": 13.0 }, "geometry": { "type": "Polygon", "coordinates": [ [ [ -70.987097597641039, 45.87629073990577 ], [ -70.99333814244055, 45.879108503551393 ], [ -70.99296490276528, 45.884292241177882 ], [ -70.98634992862938, 45.886658133905577 ], [ -70.980108942507485, 45.88383997422261 ], [ -70.980483371809328, 45.878656317913617 ], [ -70.987097597641039, 45.87629073990577 ] ] ] } },
{ "type": "Feature", "properties": { "hex_id": 603830, "centroid_lon": -73.261006530968515, "centroid_lat": 45.478864372731344, "occurrences_today": 5, "datetimes_today": "2026-07-06 00:02:02, 2026-07-06 00:16:59, 2026-07-06 00:31:44, 2026-07-06 00:47:07, 2026-07-06 01:01:41", "cumulative_total": 127.0 }, "geometry": { "type": "Polygon", "coordinates": [ [ [ -73.261166343625348, 45.473669940072348 ], [ -73.267480673763728, 45.476364347753623 ], [ -73.267321426313174, 45.481558795329157 ], [ -73.260846674688963, 45.484058800206782 ], [ -73.254531822974343, 45.4813640210701 ], [ -73.25469224444555, 45.476169608575567 ], [ -73.261166343625348, 45.473669940072348 ] ] ] } },
{ "type": "Feature", "properties": { "hex_id": 457976, "centroid_lon": -74.786664051664488, "centroid_lat": 46.357108294874216, "occurrences_today": 1, "datetimes_today": "2026-07-06 00:02:02", "cumulative_total": 65.0 }, "geometry": { "type": "Polygon", "coordinates": [ [ [ -74.786684269790456, 46.351912303311941 ], [ -74.79317300062155, 46.354522238711823 ], [ -74.793153395711556, 46.3597182300527 ], [ -74.786643827956368, 46.362304281686662 ], [ -74.780154489492404, 46.359693978292462 ], [ -74.780175326414579, 46.354497991325246 ], [ -74.786684269790456, 46.351912303311941 ] ] ] } },
{ "type": "Feature", "properties": { "hex_id": 458584, "centroid_lon": -74.780321023946641, "centroid_lat": 46.318125949545149, "occurrences_today": 1, "datetimes_today": "2026-07-06 00:02:02", "cumulative_total": 52.0 }, "geometry": { "type": "Polygon", "coordinates": [ [ [ -74.780341814914422, 46.312929924574675 ], [ -74.78682564053328, 46.31554022937749 ], [ -74.786805461428671, 46.320736254189704 ], [ -74.78030022724144, 46.323321969765075 ], [ -74.773815795497811, 46.320711297404934 ], [ -74.773837204064193, 46.315515277093283 ], [ -74.780341814914422, 46.312929924574675 ] ] ] } },
{ "type": "Feature", "properties": { "hex_id": 458585, "centroid_lon": -74.780258616610993, "centroid_lat": 46.333713995953403, "occurrences_today": 1, "datetimes_today": "2026-07-06 00:02:02", "cumulative_total": 52.0 }, "geometry": { "type": "Polygon", "coordinates": [ [ [ -74.780279424796888, 46.32851798523447 ], [ -74.786765086511309, 46.331128289563821 ], [ -74.78674489069472, 46.336324300125796 ], [ -74.780237802681782, 46.338910001921917 ], [ -74.773751534342338, 46.336299329834269 ], [ -74.773772960638894, 46.33110332377538 ], [ -74.780279424796888, 46.32851798523447 ] ] ] } },
{ "type": "Feature", "properties": { "hex_id": 458586, "centroid_lon": -74.78019615758555, "centroid_lat": 46.349301999607782, "occurrences_today": 1, "datetimes_today": "2026-07-06 00:02:02", "cumulative_total": 52.0 }, "geometry": { "type": "Polygon", "coordinates": [ [ [ -74.780216983007293, 46.34410600314002 ], [ -74.786704482336219, 46.346716306999809 ], [ -74.786684269790456, 46.351912303311941 ], [ -74.780175326414579, 46.354497991325246 ], [ -74.773687219959882, 46.351887319506041 ], [ -74.773708664004857, 46.346691327699546 ], [ -74.780216983007293, 46.34410600314002 ] ] ] } },
{ "type": "Feature", "properties": { "hex_id": 459194, "centroid_lon": -74.773858606724602, "centroid_lat": 46.310319252030624, "occurrences_today": 1, "datetimes_today": "2026-07-06 00:02:02", "cumulative_total": 52.0 }, "geometry": { "type": "Polygon", "coordinates": [ [ [ -74.773880003481025, 46.305123222216899 ], [ -74.780362600146773, 46.307733894853591 ], [ -74.780341814914422, 46.312929924574675 ], [ -74.773837204064193, 46.315515277093283 ], [ -74.767354001779367, 46.312904236934209 ], [ -74.767376015961801, 46.30770821184543 ], [ -74.773880003481025, 46.305123222216899 ] ] ] } },
{ "type": "Feature", "properties": { "hex_id": 459195, "centroid_lon": -74.773794381023379, "centroid_lat": 46.325907312965619, "occurrences_today": 1, "datetimes_today": "2026-07-06 00:02:02", "cumulative_total": 52.0 }, "geometry": { "type": "Polygon", "coordinates": [ [ [ -74.773815795497811, 46.320711297404934 ], [ -74.78030022724144, 46.323321969765075 ], [ -74.780279424796888, 46.32851798523447 ], [ -74.773772960638894, 46.33110332377538 ], [ -74.767287922776461, 46.328492283691872 ], [ -74.767309955188779, 46.323296272857384 ], [ -74.773815795497811, 46.320711297404934 ] ] ] } },
{ "type": "Feature", "properties": { "hex_id": 459196, "centroid_lon": -74.773730102131665, "centroid_lat": 46.341495331142298, "occurrences_today": 1, "datetimes_today": "2026-07-06 00:02:02", "cumulative_total": 52.0 }, "geometry": { "type": "Polygon", "coordinates": [ [ [ -74.773751534342338, 46.336299329834269 ], [ -74.780237802681782, 46.338910001921917 ], [ -74.780216983007293, 46.34410600314002 ], [ -74.773708664004857, 46.346691327699546 ], [ -74.767221789046388, 46.344080287687433 ], [ -74.767243839707362, 46.338884291106858 ], [ -74.773751534342338, 46.336299329834269 ] ] ] } },
{ "type": "Feature", "properties": { "hex_id": 459197, "centroid_lon": -74.773665769994693, "centroid_lat": 46.357083306561812, "occurrences_today": 1, "datetimes_today": "2026-07-06 00:02:02", "cumulative_total": 67.0 }, "geometry": { "type": "Polygon", "coordinates": [ [ [ -74.773687219959882, 46.351887319506041 ], [ -74.780175326414579, 46.354497991325246 ], [ -74.780154489492404, 46.359693978292462 ], [ -74.773644314107273, 46.362279288866937 ], [ -74.767155600532803, 46.359668248922048 ], [ -74.767177669461205, 46.354472266594996 ], [ -74.773687219959882, 46.351887319506041 ] ] ] } },
{ "type": "Feature", "properties": { "hex_id": 459804, "centroid_lon": -74.767398024071795, "centroid_lat": 46.302512182005124, "occurrences_today": 1, "datetimes_today": "2026-07-06 00:02:02", "cumulative_total": 52.0 }, "geometry": { "type": "Polygon", "coordinates": [ [ [ -74.767420026111409, 46.297316147413262 ], [ -74.773901394335496, 46.299927187652081 ], [ -74.773880003481025, 46.305123222216899 ], [ -74.767376015961801, 46.30770821184543 ], [ -74.760894042623988, 46.305096804119138 ], [ -74.760916661917037, 46.299900774318303 ], [ -74.767420026111409, 46.297316147413262 ] ] ] } },
{ "type": "Feature", "properties": { "hex_id": 459805, "centroid_lon": -74.767331981522375, "centroid_lat": 46.31810025727151, "occurrences_today": 1, "datetimes_today": "2026-07-06 00:02:02", "cumulative_total": 52.0 }, "geometry": { "type": "Polygon", "coordinates": [ [ [ -74.767354001779367, 46.312904236934209 ], [ -74.773837204064193, 46.315515277093283 ], [ -74.773815795497811, 46.320711297404934 ], [ -74.767309955188779, 46.323296272857384 ], [ -74.760826147291013, 46.320684865009902 ], [ -74.760848785313129, 46.315488849464899 ], [ -74.767354001779367, 46.312904236934209 ] ] ] } },
{ "type": "Feature", "properties": { "hex_id": 459806, "centroid_lon": -74.767265884283347, "centroid_lat": 46.333688289775019, "occurrences_today": 1, "datetimes_today": "2026-07-06 00:02:02", "cumulative_total": 52.0 }, "geometry": { "type": "Polygon", "coordinates": [ [ [ -74.767287922776461, 46.328492283691872 ], [ -74.773772960638894, 46.33110332377538 ], [ -74.773751534342338, 46.336299329834269 ], [ -74.767243839707362, 46.338884291106858 ], [ -74.760758195732294, 46.33627288313388 ], [ -74.760780852502748, 46.331076881844346 ], [ -74.767287922776461, 46.328492283691872 ] ] ] } },
{ "type": "Feature", "properties": { "hex_id": 459807, "centroid_lon": -74.76719973229838, "centroid_lat": 46.349276279516801, "occurrences_today": 1, "datetimes_today": "2026-07-06 00:02:02", "cumulative_total": 53.0 }, "geometry": { "type": "Polygon", "coordinates": [ [ [ -74.767221789046388, 46.344080287687433 ], [ -74.773708664004857, 46.346691327699546 ], [ -74.773687219959882, 46.351887319506041 ], [ -74.767177669461205, 46.354472266594996 ], [ -74.760690187889892, 46.35186085849223 ], [ -74.760712863428012, 46.346664871457769 ], [ -74.767221789046388, 46.344080287687433 ] ] ] } },
{ "type": "Feature", "properties": { "hex_id": 460415, "centroid_lon": -74.760871417090073, "centroid_lat": 46.310292829168013, "occurrences_today": 1, "datetimes_today": "2026-07-06 00:02:02", "cumulative_total": 52.0 }, "geometry": { "type": "Polygon", "coordinates": [ [ [ -74.760894042623988, 46.305096804119138 ], [ -74.767376015961801, 46.30770821184543 ], [ -74.767354001779367, 46.312904236934209 ], [ -74.760848785313129, 46.315488849464899 ], [ -74.754366206867928, 46.312877074085243 ], [ -74.754389449994207, 46.307681053894783 ], [ -74.760894042623988, 46.305096804119138 ] ] ] } },
{ "type": "Feature", "properties": { "hex_id": 460416, "centroid_lon": -74.760803503021606, "centroid_lat": 46.32588087580303, "occurrences_today": 1, "datetimes_today": "2026-07-06 00:02:02", "cumulative_total": 52.0 }, "geometry": { "type": "Polygon", "coordinates": [ [ [ -74.760826147291013, 46.320684865009902 ], [ -74.767309955188779, 46.323296272857384 ], [ -74.767287922776461, 46.328492283691872 ], [ -74.760780852502748, 46.331076881844346 ], [ -74.754296438998409, 46.328465106142403 ], [ -74.754319701372225, 46.323269100209004 ], [ -74.760826147291013, 46.320684865009902 ] ] ] } },
{ "type": "Feature", "properties": { "hex_id": 460417, "centroid_lon": -74.760735532708097, "centroid_lat": 46.341468879671666, "occurrences_today": 1, "datetimes_today": "2026-07-06 00:02:02", "cumulative_total": 53.0 }, "geometry": { "type": "Polygon", "coordinates": [ [ [ -74.760758195732294, 46.33627288313388 ], [ -74.767243839707362, 46.338884291106858 ], [ -74.767221789046388, 46.344080287687433 ], [ -74.760712863428012, 46.346664871457769 ], [ -74.754226613346674, 46.344053095429182 ], [ -74.754249894987836, 46.338857103752446 ], [ -74.760758195732294, 46.33627288313388 ] ] ] } },
{ "type": "Feature", "properties": { "hex_id": 460418, "centroid_lon": -74.760667506091607, "centroid_lat": 46.357056840775073, "occurrences_today": 1, "datetimes_today": "2026-07-06 00:02:02", "cumulative_total": 67.0 }, "geometry": { "type": "Polygon", "coordinates": [ [ [ -74.760690187889892, 46.35186085849223 ], [ -74.767177669461205, 46.354472266594996 ], [ -74.767155600532803, 46.359668248922048 ], [ -74.760644818030968, 46.362252818306352 ], [ -74.754156729853165, 46.359641041946695 ], [ -74.754180030781541, 46.35444506452626 ], [ -74.760690187889892, 46.35186085849223 ] ] ] } },
{ "type": "Feature", "properties": { "hex_id": 461026, "centroid_lon": -74.754342957328006, "centroid_lat": 46.318073089523295, "occurrences_today": 1, "datetimes_today": "2026-07-06 00:02:02", "cumulative_total": 52.0 }, "geometry": { "type": "Polygon", "coordinates": [ [ [ -74.754366206867928, 46.312877074085243 ], [ -74.760848785313129, 46.315488849464899 ], [ -74.760826147291013, 46.320684865009902 ], [ -74.754319701372225, 46.323269100209004 ], [ -74.747836517826158, 46.320656957009952 ], [ -74.747860385297543, 46.315460946497716 ], [ -74.754366206867928, 46.312877074085243 ] ] ] } },
{ "type": "Feature", "properties": { "hex_id": 461027, "centroid_lon": -74.754273170204357, "centroid_lat": 46.333661107323536, "occurrences_today": 1, "datetimes_today": "2026-07-06 00:02:02", "cumulative_total": 52.0 }, "geometry": { "type": "Polygon", "coordinates": [ [ [ -74.754296438998409, 46.328465106142403 ], [ -74.760780852502748, 46.331076881844346 ], [ -74.760758195732294, 46.33627288313388 ], [ -74.754249894987836, 46.338857103752446 ], [ -74.747764875883462, 46.336244960029994 ], [ -74.747788763121378, 46.331048963776048 ], [ -74.754296438998409, 46.328465106142403 ] ] ] } },
{ "type": "Feature", "properties": { "hex_id": 461028, "centroid_lon": -74.754203325278638, "centroid_lat": 46.349249082353765, "occurrences_today": 1, "datetimes_today": "2026-07-06 00:02:02", "cumulative_total": 121.0 }, "geometry": { "type": "Polygon", "coordinates": [ [ [ -74.754226613346674, 46.344053095429182 ], [ -74.760712863428012, 46.346664871457769 ], [ -74.760690187889892, 46.35186085849223 ], [ -74.754180030781541, 46.35444506452626 ], [ -74.747693174600457, 46.351832920275875 ], [ -74.747717081625254, 46.346636938279858 ], [ -74.754226613346674, 46.344053095429182 ] ] ] } },
{ "type": "Feature", "properties": { "hex_id": 461637, "centroid_lon": -74.747812643768185, "centroid_lat": 46.325852962769389, "occurrences_today": 1, "datetimes_today": "2026-07-06 00:02:02", "cumulative_total": 52.0 }, "geometry": { "type": "Polygon", "coordinates": [ [ [ -74.747836517826158, 46.320656957009952 ], [ -74.754319701372225, 46.323269100209004 ], [ -74.754296438998409, 46.328465106142403 ], [ -74.747788763121378, 46.331048963776048 ], [ -74.74130497448111, 46.328436452591582 ], [ -74.741329466809816, 46.323240451825441 ], [ -74.747836517826158, 46.320656957009952 ] ] ] } },
{ "type": "Feature", "properties": { "hex_id": 461638, "centroid_lon": -74.747740982052179, "centroid_lat": 46.341440951531233, "occurrences_today": 1, "datetimes_today": "2026-07-06 00:02:02", "cumulative_total": 52.0 }, "geometry": { "type": "Polygon", "coordinates": [ [ [ -74.747764875883462, 46.336244960029994 ], [ -74.754249894987836, 46.338857103752446 ], [ -74.754226613346674, 46.344053095429182 ], [ -74.747717081625254, 46.346636938279858 ], [ -74.741231456927537, 46.344024426370744 ], [ -74.74125596954228, 46.338828439864194 ], [ -74.747764875883462, 46.336244960029994 ] ] ] } },
{ "type": "Feature", "properties": { "hex_id": 461639, "centroid_lon": -74.747669260975499, "centroid_lat": 46.357028897519342, "occurrences_today": 1, "datetimes_today": "2026-07-06 00:02:02", "cumulative_total": 67.0 }, "geometry": { "type": "Polygon", "coordinates": [ [ [ -74.747693174600457, 46.351832920275875 ], [ -74.754180030781541, 46.35444506452626 ], [ -74.754156729853165, 46.359641041946695 ], [ -74.747645340748122, 46.362224870010287 ], [ -74.741157878473999, 46.359612357371908 ], [ -74.741182411395712, 46.354416385124559 ], [ -74.747693174600457, 46.351832920275875 ] ] ] } },
{ "type": "Feature", "properties": { "hex_id": 462248, "centroid_lon": -74.741280475392699, "centroid_lat": 46.333632448604483, "occurrences_today": 1, "datetimes_today": "2026-07-06 00:02:02", "cumulative_total": 52.0 }, "geometry": { "type": "Polygon", "coordinates": [ [ [ -74.74130497448111, 46.328436452591582 ], [ -74.747788763121378, 46.331048963776048 ], [ -74.747764875883462, 46.336244960029994 ], [ -74.74125596954228, 46.338828439864194 ], [ -74.734771575814705, 46.33621556052826 ], [ -74.734796693513303, 46.331019569576149 ], [ -74.74130497448111, 46.328436452591582 ] ] ] } },
{ "type": "Feature", "properties": { "hex_id": 462249, "centroid_lon": -74.741206937546096, "centroid_lat": 46.349220408124189, "occurrences_today": 1, "datetimes_today": "2026-07-06 00:02:02", "cumulative_total": 52.0 }, "geometry": { "type": "Polygon", "coordinates": [ [ [ -74.741231456927537, 46.344024426370744 ], [ -74.747717081625254, 46.346636938279858 ], [ -74.747693174600457, 46.351832920275875 ], [ -74.741182411395712, 46.354416385124559 ], [ -74.734696181111502, 46.351803504862644 ], [ -74.734721319616185, 46.346607528171461 ], [ -74.741231456927537, 46.344024426370744 ] ] ] } },
{ "type": "Feature", "properties": { "hex_id": 564131, "centroid_lon": -73.682694760358459, "centroid_lat": 45.227257787653222, "occurrences_today": 2, "datetimes_today": "2026-07-06 00:47:07, 2026-07-06 01:01:41", "cumulative_total": 13.0 }, "geometry": { "type": "Polygon", "coordinates": [ [ [ -73.682814771039418, 45.222062103606824 ], [ -73.689121980456335, 45.224733216064458 ], [ -73.689002533215628, 45.229928910813278 ], [ -73.682574717010439, 45.232453466702758 ], [ -73.676266976825744, 45.229781989859113 ], [ -73.67638758360313, 45.224586321575863 ], [ -73.682814771039418, 45.222062103606824 ] ] ] } },
{ "type": "Feature", "properties": { "hex_id": 564132, "centroid_lon": -73.682334532269763, "centroid_lat": 45.242844809810947, "occurrences_today": 2, "datetimes_today": "2026-07-06 00:47:07, 2026-07-06 01:01:41", "cumulative_total": 13.0 }, "geometry": { "type": "Polygon", "coordinates": [ [ [ -73.682454640984503, 45.237649140755344 ], [ -73.688763541179043, 45.240320285327293 ], [ -73.688643996361506, 45.245515965092338 ], [ -73.682214390855307, 45.248040473869452 ], [ -73.675904959468724, 45.245368964712753 ], [ -73.676025664769497, 45.240173311427625 ], [ -73.682454640984503, 45.237649140755344 ] ] ] } },
{ "type": "Feature", "properties": { "hex_id": 564741, "centroid_lon": -73.676508157561258, "centroid_lat": 45.219390648293412, "occurrences_today": 2, "datetimes_today": "2026-07-06 00:47:07, 2026-07-06 01:01:41", "cumulative_total": 13.0 }, "geometry": { "type": "Polygon", "coordinates": [ [ [ -73.676628698711056, 45.214194970011818 ], [ -73.682934749064216, 45.21686641456364 ], [ -73.682814771039418, 45.222062103606824 ], [ -73.67638758360313, 45.224586321575863 ], [ -73.670081002938758, 45.221914512678886 ], [ -73.670202140010957, 45.216718850221881 ], [ -73.676628698711056, 45.214194970011818 ] ] ] } },
{ "type": "Feature", "properties": { "hex_id": 564742, "centroid_lon": -73.676146337218185, "centroid_lat": 45.234977653143048, "occurrences_today": 2, "datetimes_today": "2026-07-06 00:47:07, 2026-07-06 01:01:41", "cumulative_total": 13.0 }, "geometry": { "type": "Polygon", "coordinates": [ [ [ -73.676266976825744, 45.229781989859113 ], [ -73.682574717010439, 45.232453466702758 ], [ -73.682454640984503, 45.237649140755344 ], [ -73.676025664769497, 45.240173311427625 ], [ -73.669717393849766, 45.23750147004008 ], [ -73.669838629869147, 45.232305822588067 ], [ -73.676266976825744, 45.229781989859113 ] ] ] } },
{ "type": "Feature", "properties": { "hex_id": 565352, "centroid_lon": -73.669959832895145, "centroid_lat": 45.22711017013431, "occurrences_today": 2, "datetimes_today": "2026-07-06 00:47:07, 2026-07-06 01:01:41", "cumulative_total": 10.0 }, "geometry": { "type": "Polygon", "coordinates": [ [ [ -73.670081002938758, 45.221914512678886 ], [ -73.67638758360313, 45.224586321575863 ], [ -73.676266976825744, 45.229781989859113 ], [ -73.669838629869147, 45.232305822588067 ], [ -73.663531518926433, 45.229633649188138 ], [ -73.663653285207687, 45.22443800762607 ], [ -73.670081002938758, 45.221914512678886 ] ] ] } },
{ "type": "Feature", "properties": { "hex_id": 565353, "centroid_lon": -73.669596124826001, "centroid_lat": 45.242697112490276, "occurrences_today": 2, "datetimes_today": "2026-07-06 00:47:07, 2026-07-06 01:01:41", "cumulative_total": 10.0 }, "geometry": { "type": "Polygon", "coordinates": [ [ [ -73.669717393849766, 45.23750147004008 ], [ -73.676025664769497, 45.240173311427625 ], [ -73.675904959468724, 45.245368964712753 ], [ -73.669474822786853, 45.247892749938586 ], [ -73.663166021164997, 45.245220543849271 ], [ -73.663287886916137, 45.240024917299813 ], [ -73.669717393849766, 45.23750147004008 ] ] ] } },
{ "type": "Feature", "properties": { "hex_id": 565963, "centroid_lon": -73.663409719499597, "centroid_lat": 45.234829285746059, "occurrences_today": 2, "datetimes_today": "2026-07-06 00:47:07, 2026-07-06 01:01:41", "cumulative_total": 10.0 }, "geometry": { "type": "Polygon", "coordinates": [ [ [ -73.663531518926433, 45.229633649188138 ], [ -73.669838629869147, 45.232305822588067 ], [ -73.669717393849766, 45.23750147004008 ], [ -73.663287886916137, 45.240024917299813 ], [ -73.656980245728136, 45.237352379239056 ], [ -73.657102641708008, 45.232156758643306 ], [ -73.663531518926433, 45.229633649188138 ] ] ] } },
{ "type": "Feature", "properties": { "hex_id": 566574, "centroid_lon": -73.656857816428357, "centroid_lat": 45.242547994828165, "occurrences_today": 2, "datetimes_today": "2026-07-06 00:47:07, 2026-07-06 01:01:41", "cumulative_total": 15.0 }, "geometry": { "type": "Polygon", "coordinates": [ [ [ -73.656980245728136, 45.237352379239056 ], [ -73.663287886916137, 45.240024917299813 ], [ -73.663166021164997, 45.245220543849271 ], [ -73.656735353797544, 45.247743605410506 ], [ -73.650427182397465, 45.245070702531081 ], [ -73.650550208565818, 45.239875102973024 ], [ -73.656980245728136, 45.237352379239056 ] ] ] } },
{ "type": "Feature", "properties": { "hex_id": 567185, "centroid_lon": -73.650304122734681, "centroid_lat": 45.250266297079904, "occurrences_today": 2, "datetimes_today": "2026-07-06 00:47:07, 2026-07-06 01:01:41", "cumulative_total": 13.0 }, "geometry": { "type": "Polygon", "coordinates": [ [ [ -73.650427182397465, 45.245070702531081 ], [ -73.656735353797544, 45.247743605410506 ], [ -73.656612857824584, 45.252939210986007 ], [ -73.650181029566298, 45.255461886619415 ], [ -73.64387232798758, 45.252788618763418 ], [ -73.643995984834618, 45.247593040314527 ], [ -73.650427182397465, 45.245070702531081 ] ] ] } },
{ "type": "Feature", "properties": { "hex_id": 669822, "centroid_lon": -72.530846208567155, "centroid_lat": 46.369612868687213, "occurrences_today": 5, "datetimes_today": "2026-07-06 00:02:02, 2026-07-06 00:16:59, 2026-07-06 00:31:44, 2026-07-06 00:47:07, 2026-07-06 01:01:41", "cumulative_total": 56.0 }, "geometry": { "type": "Polygon", "coordinates": [ [ [ -72.531080244039714, 46.364421683569979 ], [ -72.537457580030448, 46.367157398404501 ], [ -72.537224126429834, 46.372348605950094 ], [ -72.530612108527578, 46.374804048157223 ], [ -72.524234255242973, 46.372067943744241 ], [ -72.524468937132355, 46.366876786768785 ], [ -72.531080244039714, 46.364421683569979 ] ] ] } },
{ "type": "Feature", "properties": { "hex_id": 671043, "centroid_lon": -72.517857048544172, "centroid_lat": 46.369331494717102, "occurrences_today": 5, "datetimes_today": "2026-07-06 00:02:02, 2026-07-06 00:16:59, 2026-07-06 00:31:44, 2026-07-06 00:47:07, 2026-07-06 01:01:41", "cumulative_total": 26.0 }, "geometry": { "type": "Polygon", "coordinates": [ [ [ -72.518092312103278, 46.364140360297817 ], [ -72.524468937132355, 46.366876786768785 ], [ -72.524234255242973, 46.372067943744241 ], [ -72.517621720080115, 46.374522623479642 ], [ -72.511244578297379, 46.371785807319029 ], [ -72.511480488408921, 46.366594701178848 ], [ -72.518092312103278, 46.364140360297817 ] ] ] } },
{ "type": "Feature", "properties": { "hex_id": 724117, "centroid_lon": -71.9866854088244, "centroid_lat": 45.740765655773046, "occurrences_today": 5, "datetimes_today": "2026-07-06 00:02:02, 2026-07-06 00:16:59, 2026-07-06 00:31:44, 2026-07-06 00:47:07, 2026-07-06 01:01:41", "cumulative_total": 66.0 }, "geometry": { "type": "Polygon", "coordinates": [ [ [ -71.986964784928546, 45.735576261177087 ], [ -71.993243240603263, 45.738340197522753 ], [ -71.992964419256211, 45.743529619550259 ], [ -71.986405956288962, 45.745955044304608 ], [ -71.980127022301303, 45.743190721929786 ], [ -71.980407029568099, 45.738001360894316 ], [ -71.986964784928546, 45.735576261177087 ] ] ] } },
{ "type": "Feature", "properties": { "hex_id": 851150, "centroid_lon": -70.592738720664002, "centroid_lat": 46.459370112341823, "occurrences_today": 5, "datetimes_today": "2026-07-06 00:02:02, 2026-07-06 00:16:59, 2026-07-06 00:31:44, 2026-07-06 00:47:07, 2026-07-06 01:01:41", "cumulative_total": 221.0 }, "geometry": { "type": "Polygon", "coordinates": [ [ [ -70.593157485190062, 46.454189564144677 ], [ -70.599439918673269, 46.457030292102054 ], [ -70.599021708517839, 46.462210881535086 ], [ -70.592319840707034, 46.464550652910646 ], [ -70.586036968303887, 46.461709518117473 ], [ -70.586456402591949, 46.45652901884992 ], [ -70.593157485190062, 46.454189564144677 ] ] ] } },
{ "type": "Feature", "properties": { "hex_id": 671654, "centroid_lon": -72.511008603100791, "centroid_lat": 46.376976907797548, "occurrences_today": 5, "datetimes_today": "2026-07-06 00:02:02, 2026-07-06 00:16:59, 2026-07-06 00:31:44, 2026-07-06 00:47:07, 2026-07-06 01:01:41", "cumulative_total": 23.0 }, "geometry": { "type": "Polygon", "coordinates": [ [ [ -72.511244578297379, 46.371785807319029 ], [ -72.517621720080115, 46.374522623479642 ], [ -72.517386326688836, 46.379713746585146 ], [ -72.510772562796802, 46.382168002614073 ], [ -72.504394904327299, 46.379430796602009 ], [ -72.504631526414286, 46.374239724478684 ], [ -72.511244578297379, 46.371785807319029 ] ] ] } },
{ "type": "Feature", "properties": { "hex_id": 710657, "centroid_lon": -72.15080450637555, "centroid_lat": 45.292849514989506, "occurrences_today": 5, "datetimes_today": "2026-07-06 00:02:02, 2026-07-06 00:16:59, 2026-07-06 00:31:44, 2026-07-06 00:47:07, 2026-07-06 01:01:41", "cumulative_total": 33.0 }, "geometry": { "type": "Polygon", "coordinates": [ [ [ -72.151064587252947, 45.287658949621829 ], [ -72.157302908971303, 45.290413041764673 ], [ -72.157043372217942, 45.295603632762813 ], [ -72.150544354718164, 45.298040074448771 ], [ -72.144305559667558, 45.295285603441755 ], [ -72.144566255425389, 45.290095069676518 ], [ -72.151064587252947, 45.287658949621829 ] ] ] } },
{ "type": "Feature", "properties": { "hex_id": 711878, "centroid_lon": -72.138067379654544, "centroid_lat": 45.292530804935957, "occurrences_today": 5, "datetimes_today": "2026-07-06 00:02:02, 2026-07-06 00:16:59, 2026-07-06 00:31:44, 2026-07-06 00:47:07, 2026-07-06 01:01:41", "cumulative_total": 23.0 }, "geometry": { "type": "Polygon", "coordinates": [ [ [ -72.138328619343852, 45.287340296923354 ], [ -72.144566255425389, 45.290095069676518 ], [ -72.144305559667558, 45.295285603441755 ], [ -72.137806068870916, 45.297721307029775 ], [ -72.131567959964045, 45.294966155308515 ], [ -72.131829814655461, 45.289775679030882 ], [ -72.138328619343852, 45.287340296923354 ] ] ] } },
{ "type": "Feature", "properties": { "hex_id": 813912, "centroid_lon": -70.986047239943588, "centroid_lat": 46.512849757001362, "occurrences_today": 5, "datetimes_today": "2026-07-06 00:02:02, 2026-07-06 00:16:59, 2026-07-06 00:31:44, 2026-07-06 00:47:07, 2026-07-06 01:01:41", "cumulative_total": 23.0 }, "geometry": { "type": "Polygon", "coordinates": [ [ [ -70.986429409823899, 46.507666634883392 ], [ -70.992739789483409, 46.510486520531821 ], [ -70.992358181945463, 46.515669680173289 ], [ -70.985664964592388, 46.518032871978399 ], [ -70.979354128079535, 46.515212581851259 ], [ -70.979736965736876, 46.510029504463517 ], [ -70.986429409823899, 46.507666634883392 ] ] ] } },
{ "type": "Feature", "properties": { "hex_id": 812723, "centroid_lon": -70.961985719375591, "centroid_lat": 47.010860382375803, "occurrences_today": 5, "datetimes_today": "2026-07-06 00:02:02, 2026-07-06 00:16:59, 2026-07-06 00:31:44, 2026-07-06 00:47:07, 2026-07-06 01:01:41", "cumulative_total": 22.0 }, "geometry": { "type": "Polygon", "coordinates": [ [ [ -70.962376919322963, 47.005677866047002 ], [ -70.968742771590144, 47.008500679351087 ], [ -70.968352148886922, 47.013683233792086 ], [ -70.961594410746045, 47.016042891497499 ], [ -70.955228089935787, 47.013219666724019 ], [ -70.955619975771668, 47.008037195781526 ], [ -70.962376919322963, 47.005677866047002 ] ] ] } },
{ "type": "Feature", "properties": { "hex_id": 565964, "centroid_lon": -73.663044122235121, "centroid_lat": 45.25041616539437, "occurrences_today": 2, "datetimes_today": "2026-07-06 00:47:07, 2026-07-06 01:01:41", "cumulative_total": 2.0 }, "geometry": { "type": "Polygon", "coordinates": [ [ [ -73.663166021164997, 45.245220543849271 ], [ -73.669474822786853, 45.247892749938586 ], [ -73.669353487721324, 45.253088382384909 ], [ -73.662922190115466, 45.255611781935031 ], [ -73.656612857824584, 45.252939210986007 ], [ -73.656735353797544, 45.247743605410506 ], [ -73.663166021164997, 45.245220543849271 ] ] ] } },
{ "type": "Feature", "properties": { "hex_id": 566575, "centroid_lon": -73.656490328498379, "centroid_lat": 45.258134811554612, "occurrences_today": 2, "datetimes_today": "2026-07-06 00:47:07, 2026-07-06 01:01:41", "cumulative_total": 2.0 }, "geometry": { "type": "Polygon", "coordinates": [ [ [ -73.656612857824584, 45.252939210986007 ], [ -73.662922190115466, 45.255611781935031 ], [ -73.66280022479495, 45.260807393471175 ], [ -73.656367765807815, 45.263330407116207 ], [ -73.650057902881159, 45.260657471149507 ], [ -73.650181029566298, 45.255461886619415 ], [ -73.656612857824584, 45.252939210986007 ] ] ] } },
{ "type": "Feature", "properties": { "hex_id": 567796, "centroid_lon": -73.643748637471433, "centroid_lat": 45.257984192200503, "occurrences_today": 2, "datetimes_today": "2026-07-06 00:47:07, 2026-07-06 01:01:41", "cumulative_total": 2.0 }, "geometry": { "type": "Polygon", "coordinates": [ [ [ -73.64387232798758, 45.252788618763418 ], [ -73.650181029566298, 45.255461886619415 ], [ -73.650057902881159, 45.260657471149507 ], [ -73.643624913274977, 45.263179760625675 ], [ -73.637315681551186, 45.260506127635182 ], [ -73.63743996956741, 45.25531057036698 ], [ -73.64387232798758, 45.252788618763418 ] ] ] } },
{ "type": "Feature", "properties": { "hex_id": 569018, "centroid_lon": -73.630632288445355, "centroid_lat": 45.273418759844198, "occurrences_today": 2, "datetimes_today": "2026-07-06 00:47:07, 2026-07-06 01:01:41", "cumulative_total": 2.0 }, "geometry": { "type": "Polygon", "coordinates": [ [ [ -73.630757242140547, 45.268223228845287 ], [ -73.637067003975631, 45.270897227128245 ], [ -73.636942614393732, 45.276092769352957 ], [ -73.630507300719884, 45.278614285825974 ], [ -73.624197008807457, 45.275939922092569 ], [ -73.62432256063488, 45.270744407400542 ], [ -73.630757242140547, 45.268223228845287 ] ] ] } }
]
}
