{
"type": "FeatureCollection",
"name": "daily_2026-05-14",
"crs": { "type": "name", "properties": { "name": "urn:ogc:def:crs:OGC:1.3:CRS84" } },
"features": [
{ "type": "Feature", "properties": { "hex_id": 699710, "centroid_lon": -72.23344105970115, "centroid_lat": 45.94968221996632, "occurrences_today": 7, "datetimes_today": "2026-05-14 03:37:53, 2026-05-14 04:01:54, 2026-05-14 04:16:32, 2026-05-14 04:36:54, 2026-05-14 04:49:31, 2026-05-14 05:01:14, 2026-05-14 05:16:29", "cumulative_total": 212.0 }, "geometry": { "type": "Polygon", "coordinates": [ [ [ -72.233699451675477, 45.944491885791884 ], [ -72.240013867012493, 45.947242974225283 ], [ -72.239756039662936, 45.952433333545116 ], [ -72.233182596837509, 45.954872548276121 ], [ -72.226867687777073, 45.952121073193403 ], [ -72.227126715241454, 45.946930770094092 ], [ -72.233699451675477, 45.944491885791884 ] ] ] } },
{ "type": "Feature", "properties": { "hex_id": 553173, "centroid_lon": -73.786991204675232, "centroid_lat": 45.71172059366021, "occurrences_today": 1, "datetimes_today": "2026-05-14 05:16:29", "cumulative_total": 184.0 }, "geometry": { "type": "Polygon", "coordinates": [ [ [ -73.787103596814987, 45.706525142928882 ], [ -73.793469649691701, 45.709190880593638 ], [ -73.793357836980348, 45.71438634110087 ], [ -73.786878781762653, 45.716916039430565 ], [ -73.780512180235561, 45.714249932239497 ], [ -73.780625182566155, 45.709054496310038 ], [ -73.787103596814987, 45.706525142928882 ] ] ] } },
{ "type": "Feature", "properties": { "hex_id": 377954, "centroid_lon": -75.629764248903243, "centroid_lat": 45.630679802934679, "occurrences_today": 21, "datetimes_today": "2026-05-14 00:01:38, 2026-05-14 00:16:25, 2026-05-14 00:31:25, 2026-05-14 00:48:06, 2026-05-14 01:01:27, 2026-05-14 01:16:30, 2026-05-14 01:31:30, 2026-05-14 01:46:23, 2026-05-14 02:02:01, 2026-05-14 02:16:25, 2026-05-14 02:33:09, 2026-05-14 02:46:33, 2026-05-14 03:01:37, 2026-05-14 03:17:14, 2026-05-14 03:37:53, 2026-05-14 04:01:54, 2026-05-14 04:16:32, 2026-05-14 04:36:54, 2026-05-14 04:49:31, 2026-05-14 05:01:14, 2026-05-14 05:16:29", "cumulative_total": 96.0 }, "geometry": { "type": "Polygon", "coordinates": [ [ [ -75.629706059112806, 45.62548342624126 ], [ -75.636149170001943, 45.628046077925944 ], [ -75.636207960413699, 45.633242445811803 ], [ -75.629822454612849, 45.635876174822705 ], [ -75.623378727180565, 45.63331317299469 ], [ -75.62332112209765, 45.628116792363997 ], [ -75.629706059112806, 45.62548342624126 ] ] ] } },
{ "type": "Feature", "properties": { "hex_id": 441497, "centroid_lon": -74.962093543729878, "centroid_lat": 46.427446918298507, "occurrences_today": 7, "datetimes_today": "2026-05-14 00:01:38, 2026-05-14 00:16:25, 2026-05-14 00:31:25, 2026-05-14 00:48:06, 2026-05-14 01:01:27, 2026-05-14 01:16:30, 2026-05-14 01:31:30", "cumulative_total": 43.0 }, "geometry": { "type": "Polygon", "coordinates": [ [ [ -74.962097145008656, 46.422250956008291 ], [ -74.968602579269259, 46.424850909311914 ], [ -74.96859959582315, 46.430046869586484 ], [ -74.962089941455901, 46.432642875846106 ], [ -74.955583890358028, 46.430042555430219 ], [ -74.955588110464319, 46.424846595933772 ], [ -74.962097145008656, 46.422250956008291 ] ] ] } },
{ "type": "Feature", "properties": { "hex_id": 442108, "centroid_lon": -74.955579669085466, "centroid_lat": 46.435238510183986, "occurrences_today": 7, "datetimes_today": "2026-05-14 00:01:38, 2026-05-14 00:16:25, 2026-05-14 00:31:25, 2026-05-14 00:48:06, 2026-05-14 01:01:27, 2026-05-14 01:16:30, 2026-05-14 01:31:30", "cumulative_total": 87.0 }, "geometry": { "type": "Polygon", "coordinates": [ [ [ -74.955583890358028, 46.430042555430219 ], [ -74.962089941455901, 46.432642875846106 ], [ -74.962086338186367, 46.43783882865111 ], [ -74.955575446646236, 46.440434460195085 ], [ -74.949068778712217, 46.43783377249995 ], [ -74.949073619154063, 46.432637820606914 ], [ -74.955583890358028, 46.430042555430219 ] ] ] } },
{ "type": "Feature", "properties": { "hex_id": 442718, "centroid_lon": -74.949078458258526, "centroid_lat": 46.427441863971119, "occurrences_today": 7, "datetimes_today": "2026-05-14 00:01:38, 2026-05-14 00:16:25, 2026-05-14 00:31:25, 2026-05-14 00:48:06, 2026-05-14 01:01:27, 2026-05-14 01:16:30, 2026-05-14 01:31:30", "cumulative_total": 43.0 }, "geometry": { "type": "Polygon", "coordinates": [ [ [ -74.949083296026075, 46.422245902592522 ], [ -74.955588110464319, 46.424846595933772 ], [ -74.955583890358028, 46.430042555430219 ], [ -74.949073619154063, 46.432637820606914 ], [ -74.942568188391704, 46.430036760020187 ], [ -74.942573645156969, 46.424840801569047 ], [ -74.949083296026075, 46.422245902592522 ] ] ] } },
{ "type": "Feature", "properties": { "hex_id": 564773, "centroid_lon": -73.664781822388534, "centroid_lat": 45.718152476157414, "occurrences_today": 3, "datetimes_today": "2026-05-14 03:37:53, 2026-05-14 04:01:54, 2026-05-14 04:16:32", "cumulative_total": 44.0 }, "geometry": { "type": "Polygon", "coordinates": [ [ [ -73.664905563713702, 45.712957278134979 ], [ -73.671266375131637, 45.715629766677111 ], [ -73.671143211769831, 45.720824975691599 ], [ -73.664658047182058, 45.723347669173691 ], [ -73.658296691687767, 45.720674809870609 ], [ -73.658421044846179, 45.715479627911407 ], [ -73.664905563713702, 45.712957278134979 ] ] ] } },
{ "type": "Feature", "properties": { "hex_id": 565384, "centroid_lon": -73.658172304479578, "centroid_lat": 45.725869986821131, "occurrences_today": 3, "datetimes_today": "2026-05-14 03:37:53, 2026-05-14 04:01:54, 2026-05-14 04:16:32", "cumulative_total": 62.0 }, "geometry": { "type": "Polygon", "coordinates": [ [ [ -73.658296691687767, 45.720674809870609 ], [ -73.664658047182058, 45.723347669173691 ], [ -73.664534238082879, 45.728542857183719 ], [ -73.658047883210131, 45.731065158762874 ], [ -73.651685983673843, 45.728391928538272 ], [ -73.651810983040789, 45.723196767721049 ], [ -73.658296691687767, 45.720674809870609 ] ] ] } },
{ "type": "Feature", "properties": { "hex_id": 631935, "centroid_lon": -72.954453433081994, "centroid_lat": 45.816769485139226, "occurrences_today": 4, "datetimes_today": "2026-05-14 00:01:38, 2026-05-14 00:16:25, 2026-05-14 00:31:25, 2026-05-14 00:48:06", "cumulative_total": 152.0 }, "geometry": { "type": "Polygon", "coordinates": [ [ [ -72.954643633813106, 45.811576280416467 ], [ -72.960980194323398, 45.814287885313476 ], [ -72.960790564664322, 45.819481108075934 ], [ -72.95426318022831, 45.821962684506154 ], [ -72.947926100777352, 45.81925070104316 ], [ -72.948116924685451, 45.814057519780981 ], [ -72.954643633813106, 45.811576280416467 ] ] ] } },
{ "type": "Feature", "properties": { "hex_id": 552551, "centroid_lon": -73.797253139252973, "centroid_lat": 45.532542273250669, "occurrences_today": 21, "datetimes_today": "2026-05-14 00:01:38, 2026-05-14 00:16:25, 2026-05-14 00:31:25, 2026-05-14 00:48:06, 2026-05-14 01:01:27, 2026-05-14 01:16:30, 2026-05-14 01:31:30, 2026-05-14 01:46:23, 2026-05-14 02:02:01, 2026-05-14 02:16:25, 2026-05-14 02:33:09, 2026-05-14 02:46:33, 2026-05-14 03:01:37, 2026-05-14 03:17:14, 2026-05-14 03:37:53, 2026-05-14 04:01:54, 2026-05-14 04:16:32, 2026-05-14 04:36:54, 2026-05-14 04:49:31, 2026-05-14 05:01:14, 2026-05-14 05:16:29", "cumulative_total": 284.0 }, "geometry": { "type": "Polygon", "coordinates": [ [ [ -73.797363886902062, 45.527346639219381 ], [ -73.803710362848776, 45.530011688368795 ], [ -73.803600189311723, 45.535207332036187 ], [ -73.797142361347213, 45.537737902325077 ], [ -73.790795341550222, 45.535072486020844 ], [ -73.790906693557872, 45.529876866647157 ], [ -73.797363886902062, 45.527346639219381 ] ] ] } },
{ "type": "Feature", "properties": { "hex_id": 552552, "centroid_lon": -73.796920714725005, "centroid_lat": 45.548129145602836, "occurrences_today": 21, "datetimes_today": "2026-05-14 00:01:38, 2026-05-14 00:16:25, 2026-05-14 00:31:25, 2026-05-14 00:48:06, 2026-05-14 01:01:27, 2026-05-14 01:16:30, 2026-05-14 01:31:30, 2026-05-14 01:46:23, 2026-05-14 02:02:01, 2026-05-14 02:16:25, 2026-05-14 02:33:09, 2026-05-14 02:46:33, 2026-05-14 03:01:37, 2026-05-14 03:17:14, 2026-05-14 03:37:53, 2026-05-14 04:01:54, 2026-05-14 04:16:32, 2026-05-14 04:36:54, 2026-05-14 04:49:31, 2026-05-14 05:01:14, 2026-05-14 05:16:29", "cumulative_total": 68.0 }, "geometry": { "type": "Polygon", "coordinates": [ [ [ -73.797031553174605, 45.542933526442468 ], [ -73.80337975192495, 45.545598604506708 ], [ -73.80326948805498, 45.550794233309738 ], [ -73.796809845988207, 45.553324759806124 ], [ -73.790461102950488, 45.550659314386671 ], [ -73.790572546256755, 45.545463709890669 ], [ -73.797031553174605, 45.542933526442468 ] ] ] } },
{ "type": "Feature", "properties": { "hex_id": 553162, "centroid_lon": -73.790683959119917, "centroid_lat": 45.540268100435362, "occurrences_today": 21, "datetimes_today": "2026-05-14 00:01:38, 2026-05-14 00:16:25, 2026-05-14 00:31:25, 2026-05-14 00:48:06, 2026-05-14 01:01:27, 2026-05-14 01:16:30, 2026-05-14 01:31:30, 2026-05-14 01:46:23, 2026-05-14 02:02:01, 2026-05-14 02:16:25, 2026-05-14 02:33:09, 2026-05-14 02:46:33, 2026-05-14 03:01:37, 2026-05-14 03:17:14, 2026-05-14 03:37:53, 2026-05-14 04:01:54, 2026-05-14 04:16:32, 2026-05-14 04:36:54, 2026-05-14 04:49:31, 2026-05-14 05:01:14, 2026-05-14 05:16:29", "cumulative_total": 126.0 }, "geometry": { "type": "Polygon", "coordinates": [ [ [ -73.790795341550222, 45.535072486020844 ], [ -73.797142361347213, 45.537737902325077 ], [ -73.797031553174605, 45.542933526442468 ], [ -73.790572546256755, 45.545463709890669 ], [ -73.78422498264004, 45.542797926271852 ], [ -73.784336969750669, 45.537602326584057 ], [ -73.790795341550222, 45.535072486020844 ] ] ] } },
{ "type": "Feature", "properties": { "hex_id": 777304, "centroid_lon": -71.353291081831188, "centroid_lat": 46.868123606483941, "occurrences_today": 5, "datetimes_today": "2026-05-14 04:16:32, 2026-05-14 04:36:54, 2026-05-14 04:49:31, 2026-05-14 05:01:14, 2026-05-14 05:16:29", "cumulative_total": 191.0 }, "geometry": { "type": "Polygon", "coordinates": [ [ [ -71.353642668965136, 46.862938579486652 ], [ -71.360013915853997, 46.865739742046081 ], [ -71.359662907884498, 46.870924803265986 ], [ -71.352939397164562, 46.87330862673759 ], [ -71.346567668660839, 46.870507057841252 ], [ -71.346919932458064, 46.865322071877088 ], [ -71.353642668965136, 46.862938579486652 ] ] ] } },
{ "type": "Feature", "properties": { "hex_id": 774861, "centroid_lon": -71.380527824742785, "centroid_lat": 46.853400480816802, "occurrences_today": 8, "datetimes_today": "2026-05-14 00:01:38, 2026-05-14 00:16:25, 2026-05-14 00:31:25, 2026-05-14 00:48:06, 2026-05-14 01:01:27, 2026-05-14 01:16:30, 2026-05-14 01:31:30, 2026-05-14 01:46:23", "cumulative_total": 114.0 }, "geometry": { "type": "Polygon", "coordinates": [ [ [ -71.380876610046954, 46.848215283717856 ], [ -71.387247665956082, 46.851014924349045 ], [ -71.386899459794748, 46.856200155396358 ], [ -71.380178942699487, 46.858585671202803 ], [ -71.373807404403422, 46.855785624659816 ], [ -71.374156865556003, 46.850600468289024 ], [ -71.380876610046954, 46.848215283717856 ] ] ] } },
{ "type": "Feature", "properties": { "hex_id": 777305, "centroid_lon": -71.352235735097892, "centroid_lat": 46.883678647011259, "occurrences_today": 5, "datetimes_today": "2026-05-14 04:16:32, 2026-05-14 04:36:54, 2026-05-14 04:49:31, 2026-05-14 05:01:14, 2026-05-14 05:16:29", "cumulative_total": 9.0 }, "geometry": { "type": "Polygon", "coordinates": [ [ [ -71.352587614931409, 46.878493640246937 ], [ -71.358960599782563, 46.881294905494691 ], [ -71.358609299582511, 46.886479946502135 ], [ -71.351883757630091, 46.888863647029879 ], [ -71.345510290796668, 46.886061975223996 ], [ -71.345862847864069, 46.880877009515402 ], [ -71.352587614931409, 46.878493640246937 ] ] ] } },
{ "type": "Feature", "properties": { "hex_id": 777915, "centroid_lon": -71.346215307140795, "centroid_lat": 46.875692037054257, "occurrences_today": 5, "datetimes_today": "2026-05-14 04:16:32, 2026-05-14 04:36:54, 2026-05-14 04:49:31, 2026-05-14 05:01:14, 2026-05-14 05:16:29", "cumulative_total": 9.0 }, "geometry": { "type": "Polygon", "coordinates": [ [ [ -71.346567668660839, 46.870507057841252 ], [ -71.352939397164562, 46.87330862673759 ], [ -71.352587614931409, 46.878493640246937 ], [ -71.345862847864069, 46.880877009515402 ], [ -71.339490637847121, 46.878075034120606 ], [ -71.339843676376816, 46.87289009602268 ], [ -71.346567668660839, 46.870507057841252 ] ] ] } },
{ "type": "Feature", "properties": { "hex_id": 778525, "centroid_lon": -71.340196616993552, "centroid_lat": 46.867705151166049, "occurrences_today": 5, "datetimes_today": "2026-05-14 04:16:32, 2026-05-14 04:36:54, 2026-05-14 04:49:31, 2026-05-14 05:01:14, 2026-05-14 05:16:29", "cumulative_total": 66.0 }, "geometry": { "type": "Polygon", "coordinates": [ [ [ -71.340549459731292, 46.86252019955139 ], [ -71.346919932458064, 46.865322071877088 ], [ -71.346567668660839, 46.870507057841252 ], [ -71.339843676376816, 46.87289009602268 ], [ -71.333472722605521, 46.870087817258209 ], [ -71.333826242128794, 46.864902906817946 ], [ -71.340549459731292, 46.86252019955139 ] ] ] } },
{ "type": "Feature", "properties": { "hex_id": 778526, "centroid_lon": -71.339137501370459, "centroid_lat": 46.883259965459125, "occurrences_today": 5, "datetimes_today": "2026-05-14 04:16:32, 2026-05-14 04:36:54, 2026-05-14 04:49:31, 2026-05-14 05:01:14, 2026-05-14 05:16:29", "cumulative_total": 51.0 }, "geometry": { "type": "Polygon", "coordinates": [ [ [ -71.339490637847121, 46.878075034120606 ], [ -71.345862847864069, 46.880877009515402 ], [ -71.345510290796668, 46.886061975223996 ], [ -71.338784266912853, 46.888444890037533 ], [ -71.332411575484613, 46.885642507982709 ], [ -71.332765389317487, 46.880457617841273 ], [ -71.339490637847121, 46.878075034120606 ] ] ] } },
{ "type": "Feature", "properties": { "hex_id": 779136, "centroid_lon": -71.333119105013097, "centroid_lat": 46.875272720932877, "occurrences_today": 5, "datetimes_today": "2026-05-14 04:16:32, 2026-05-14 04:36:54, 2026-05-14 04:49:31, 2026-05-14 05:01:14, 2026-05-14 05:16:29", "cumulative_total": 82.0 }, "geometry": { "type": "Polygon", "coordinates": [ [ [ -71.333472722605521, 46.870087817258209 ], [ -71.339843676376816, 46.87289009602268 ], [ -71.339490637847121, 46.878075034120606 ], [ -71.332765389317487, 46.880457617841273 ], [ -71.326393954603674, 46.87765493247651 ], [ -71.326748249327977, 46.872470070058235 ], [ -71.333472722605521, 46.870087817258209 ] ] ] } },
{ "type": "Feature", "properties": { "hex_id": 587369, "centroid_lon": -73.423860831290909, "centroid_lat": 45.832005939139044, "occurrences_today": 4, "datetimes_today": "2026-05-14 04:36:54, 2026-05-14 04:49:31, 2026-05-14 05:01:14, 2026-05-14 05:16:29", "cumulative_total": 72.0 }, "geometry": { "type": "Polygon", "coordinates": [ [ [ -73.424007475643279, 45.826811400995226 ], [ -73.430369232015252, 45.829497270777466 ], [ -73.430223165792384, 45.834691822332601 ], [ -73.423714146734142, 45.837200472174196 ], [ -73.417351852443872, 45.834514227923194 ], [ -73.417499115116541, 45.829319708364572 ], [ -73.424007475643279, 45.826811400995226 ] ] ] } },
{ "type": "Feature", "properties": { "hex_id": 777914, "centroid_lon": -71.347272098566421, "centroid_lat": 46.860137079162449, "occurrences_today": 5, "datetimes_today": "2026-05-14 04:16:32, 2026-05-14 04:36:54, 2026-05-14 04:49:31, 2026-05-14 05:01:14, 2026-05-14 05:16:29", "cumulative_total": 112.0 }, "geometry": { "type": "Polygon", "coordinates": [ [ [ -71.34762416701976, 46.854952079698059 ], [ -71.353994158600258, 46.857753545746434 ], [ -71.353642668965136, 46.862938579486652 ], [ -71.346919932458064, 46.865322071877088 ], [ -71.340549459731292, 46.86252019955139 ], [ -71.340902204623987, 46.857335241179427 ], [ -71.34762416701976, 46.854952079698059 ] ] ] } },
{ "type": "Feature", "properties": { "hex_id": 372449, "centroid_lon": -75.685499980188084, "centroid_lat": 45.466660684332531, "occurrences_today": 20, "datetimes_today": "2026-05-14 00:01:38, 2026-05-14 00:16:25, 2026-05-14 00:31:25, 2026-05-14 00:48:06, 2026-05-14 01:01:27, 2026-05-14 01:16:30, 2026-05-14 01:31:30, 2026-05-14 01:46:23, 2026-05-14 02:02:01, 2026-05-14 02:16:25, 2026-05-14 02:33:09, 2026-05-14 02:46:33, 2026-05-14 03:01:37, 2026-05-14 03:17:14, 2026-05-14 03:37:53, 2026-05-14 04:01:54, 2026-05-14 04:16:32, 2026-05-14 04:36:54, 2026-05-14 04:49:31, 2026-05-14 05:01:14", "cumulative_total": 146.0 }, "geometry": { "type": "Polygon", "coordinates": [ [ [ -75.685437001736858, 45.461464215897941 ], [ -75.691863808885742, 45.464023892245734 ], [ -75.691927383479822, 45.469220351323457 ], [ -75.685562975834202, 45.471857147950814 ], [ -75.6791355553447, 45.469297124066493 ], [ -75.67907315584722, 45.464100651155832 ], [ -75.685437001736858, 45.461464215897941 ] ] ] } },
{ "type": "Feature", "properties": { "hex_id": 564163, "centroid_lon": -73.671020014683805, "centroid_lat": 45.726020179702402, "occurrences_today": 3, "datetimes_today": "2026-05-14 03:37:53, 2026-05-14 04:01:54, 2026-05-14 04:16:32", "cumulative_total": 120.0 }, "geometry": { "type": "Polygon", "coordinates": [ [ [ -73.671143211769831, 45.720824975691599 ], [ -73.677505213001496, 45.723497126414607 ], [ -73.677382594204389, 45.728692341357345 ], [ -73.670896783862176, 45.7312153787094 ], [ -73.664534238082879, 45.728542857183719 ], [ -73.664658047182058, 45.723347669173691 ], [ -73.671143211769831, 45.720824975691599 ] ] ] } },
{ "type": "Feature", "properties": { "hex_id": 779746, "centroid_lon": -71.327102445792903, "centroid_lat": 46.86728520086681, "occurrences_today": 5, "datetimes_today": "2026-05-14 04:16:32, 2026-05-14 04:36:54, 2026-05-14 04:49:31, 2026-05-14 05:01:14, 2026-05-14 05:16:29", "cumulative_total": 14.0 }, "geometry": { "type": "Polygon", "coordinates": [ [ [ -71.327456544032557, 46.862100324902933 ], [ -71.333826242128794, 46.864902906817946 ], [ -71.333472722605521, 46.870087817258209 ], [ -71.326748249327977, 46.872470070058235 ], [ -71.32037807075767, 46.869667081602685 ], [ -71.320732845904899, 46.864482246954488 ], [ -71.327456544032557, 46.862100324902933 ] ] ] } },
{ "type": "Feature", "properties": { "hex_id": 586147, "centroid_lon": -73.437167831119083, "centroid_lat": 45.81659906761228, "occurrences_today": 4, "datetimes_today": "2026-05-14 04:36:54, 2026-05-14 04:49:31, 2026-05-14 05:01:14, 2026-05-14 05:16:29", "cumulative_total": 14.0 }, "geometry": { "type": "Polygon", "coordinates": [ [ [ -73.437313159615798, 45.81140448229759 ], [ -73.44367384002922, 45.814089603624474 ], [ -73.443529089375076, 45.819284202214355 ], [ -73.437022462786075, 45.821793647824485 ], [ -73.430661244373127, 45.819108152350282 ], [ -73.430807190535219, 45.813913585478439 ], [ -73.437313159615798, 45.81140448229759 ] ] ] } },
{ "type": "Feature", "properties": { "hex_id": 550110, "centroid_lon": -73.822536485932545, "centroid_lat": 45.54839608775147, "occurrences_today": 21, "datetimes_today": "2026-05-14 00:01:38, 2026-05-14 00:16:25, 2026-05-14 00:31:25, 2026-05-14 00:48:06, 2026-05-14 01:01:27, 2026-05-14 01:16:30, 2026-05-14 01:31:30, 2026-05-14 01:46:23, 2026-05-14 02:02:01, 2026-05-14 02:16:25, 2026-05-14 02:33:09, 2026-05-14 02:46:33, 2026-05-14 03:01:37, 2026-05-14 03:17:14, 2026-05-14 03:37:53, 2026-05-14 04:01:54, 2026-05-14 04:16:32, 2026-05-14 04:36:54, 2026-05-14 04:49:31, 2026-05-14 05:01:14, 2026-05-14 05:16:29", "cumulative_total": 100.0 }, "geometry": { "type": "Polygon", "coordinates": [ [ [ -73.822644965770991, 45.543200420498586 ], [ -73.828994433385162, 45.54586408702604 ], [ -73.828886528478506, 45.551059763667396 ], [ -73.822427976451038, 45.553591750056043 ], [ -73.816077963553099, 45.550927716412126 ], [ -73.816187047956433, 45.545732063560664 ], [ -73.822644965770991, 45.543200420498586 ] ] ] } },
{ "type": "Feature", "properties": { "hex_id": 550720, "centroid_lon": -73.816296102560685, "centroid_lat": 45.540536405758736, "occurrences_today": 21, "datetimes_today": "2026-05-14 00:01:38, 2026-05-14 00:16:25, 2026-05-14 00:31:25, 2026-05-14 00:48:06, 2026-05-14 01:01:27, 2026-05-14 01:16:30, 2026-05-14 01:31:30, 2026-05-14 01:46:23, 2026-05-14 02:02:01, 2026-05-14 02:16:25, 2026-05-14 02:33:09, 2026-05-14 02:46:33, 2026-05-14 03:01:37, 2026-05-14 03:17:14, 2026-05-14 03:37:53, 2026-05-14 04:01:54, 2026-05-14 04:16:32, 2026-05-14 04:36:54, 2026-05-14 04:49:31, 2026-05-14 05:01:14, 2026-05-14 05:16:29", "cumulative_total": 41.0 }, "geometry": { "type": "Polygon", "coordinates": [ [ [ -73.816405127375859, 45.535340743006408 ], [ -73.822753415976337, 45.538004748297475 ], [ -73.822644965770991, 45.543200420498586 ], [ -73.816187047956433, 45.545732063560664 ], [ -73.809838214540207, 45.543067691193578 ], [ -73.809947843744268, 45.537872042905072 ], [ -73.816405127375859, 45.535340743006408 ] ] ] } },
{ "type": "Feature", "properties": { "hex_id": 551331, "centroid_lon": -73.809728555381085, "centroid_lat": 45.548263334529473, "occurrences_today": 21, "datetimes_today": "2026-05-14 00:01:38, 2026-05-14 00:16:25, 2026-05-14 00:31:25, 2026-05-14 00:48:06, 2026-05-14 01:01:27, 2026-05-14 01:16:30, 2026-05-14 01:31:30, 2026-05-14 01:46:23, 2026-05-14 02:02:01, 2026-05-14 02:16:25, 2026-05-14 02:33:09, 2026-05-14 02:46:33, 2026-05-14 03:01:37, 2026-05-14 03:17:14, 2026-05-14 03:37:53, 2026-05-14 04:01:54, 2026-05-14 04:16:32, 2026-05-14 04:36:54, 2026-05-14 04:49:31, 2026-05-14 05:01:14, 2026-05-14 05:16:29", "cumulative_total": 41.0 }, "geometry": { "type": "Polygon", "coordinates": [ [ [ -73.809838214540207, 45.543067691193578 ], [ -73.816187047956433, 45.545732063560664 ], [ -73.816077963553099, 45.550927716412126 ], [ -73.809618866256827, 45.553458972912701 ], [ -73.80326948805498, 45.550794233309738 ], [ -73.80337975192495, 45.545598604506708 ], [ -73.809838214540207, 45.543067691193578 ] ] ] } },
{ "type": "Feature", "properties": { "hex_id": 551941, "centroid_lon": -73.803489985673835, "centroid_lat": 45.540402970748843, "occurrences_today": 21, "datetimes_today": "2026-05-14 00:01:38, 2026-05-14 00:16:25, 2026-05-14 00:31:25, 2026-05-14 00:48:06, 2026-05-14 01:01:27, 2026-05-14 01:16:30, 2026-05-14 01:31:30, 2026-05-14 01:46:23, 2026-05-14 02:02:01, 2026-05-14 02:16:25, 2026-05-14 02:33:09, 2026-05-14 02:46:33, 2026-05-14 03:01:37, 2026-05-14 03:17:14, 2026-05-14 03:37:53, 2026-05-14 04:01:54, 2026-05-14 04:16:32, 2026-05-14 04:36:54, 2026-05-14 04:49:31, 2026-05-14 05:01:14, 2026-05-14 05:16:29", "cumulative_total": 95.0 }, "geometry": { "type": "Polygon", "coordinates": [ [ [ -73.803600189311723, 45.535207332036187 ], [ -73.809947843744268, 45.537872042905072 ], [ -73.809838214540207, 45.543067691193578 ], [ -73.80337975192495, 45.545598604506708 ], [ -73.797031553174605, 45.542933526442468 ], [ -73.797142361347213, 45.537737902325077 ], [ -73.803600189311723, 45.535207332036187 ] ] ] } },
{ "type": "Feature", "properties": { "hex_id": 742407, "centroid_lon": -71.816222580392747, "centroid_lat": 45.346369572832998, "occurrences_today": 7, "datetimes_today": "2026-05-14 03:37:53, 2026-05-14 04:01:54, 2026-05-14 04:16:32, 2026-05-14 04:36:54, 2026-05-14 04:49:31, 2026-05-14 05:01:14, 2026-05-14 05:16:29", "cumulative_total": 17.0 }, "geometry": { "type": "Polygon", "coordinates": [ [ [ -71.816513715509259, 45.341180655754151 ], [ -71.822740547914535, 45.34395273778162 ], [ -71.822449953596802, 45.349141683722635 ], [ -71.815931366019186, 45.351558483712942 ], [ -71.809704072085381, 45.348786019328486 ], [ -71.809995827231305, 45.343597137374253 ], [ -71.816513715509259, 45.341180655754151 ] ] ] } },
{ "type": "Feature", "properties": { "hex_id": 585537, "centroid_lon": -73.443384299041583, "centroid_lat": 45.824478795704607, "occurrences_today": 4, "datetimes_today": "2026-05-14 04:36:54, 2026-05-14 04:49:31, 2026-05-14 05:01:14, 2026-05-14 05:16:29", "cumulative_total": 27.0 }, "geometry": { "type": "Polygon", "coordinates": [ [ [ -73.443529089375076, 45.819284202214355 ], [ -73.449890965316627, 45.821968989184619 ], [ -73.449746753153107, 45.82716359589061 ], [ -73.443239469015353, 45.829673384095159 ], [ -73.436877054603315, 45.826988222934105 ], [ -73.437022462786075, 45.821793647824485 ], [ -73.443529089375076, 45.819284202214355 ] ] ] } },
{ "type": "Feature", "properties": { "hex_id": 586758, "centroid_lon": -73.430515258204309, "centroid_lat": 45.824302714116648, "occurrences_today": 4, "datetimes_today": "2026-05-14 04:36:54, 2026-05-14 04:49:31, 2026-05-14 05:01:14, 2026-05-14 05:16:29", "cumulative_total": 45.0 }, "geometry": { "type": "Polygon", "coordinates": [ [ [ -73.430661244373127, 45.819108152350282 ], [ -73.437022462786075, 45.821793647824485 ], [ -73.436877054603315, 45.826988222934105 ], [ -73.430369232015252, 45.829497270777466 ], [ -73.424007475643279, 45.826811400995226 ], [ -73.42415407980485, 45.821616857742839 ], [ -73.430661244373127, 45.819108152350282 ] ] ] } },
{ "type": "Feature", "properties": { "hex_id": 587979, "centroid_lon": -73.417646337427797, "centroid_lat": 45.82412518369437, "occurrences_today": 4, "datetimes_today": "2026-05-14 04:36:54, 2026-05-14 04:49:31, 2026-05-14 05:01:14, 2026-05-14 05:16:29", "cumulative_total": 55.0 }, "geometry": { "type": "Polygon", "coordinates": [ [ [ -73.417793519391338, 45.818930653912716 ], [ -73.42415407980485, 45.821616857742839 ], [ -73.424007475643279, 45.826811400995226 ], [ -73.417499115116541, 45.829319708364572 ], [ -73.41113801725561, 45.826633130109272 ], [ -73.411285817355193, 45.82143861897498 ], [ -73.417793519391338, 45.818930653912716 ] ] ] } },
{ "type": "Feature", "properties": { "hex_id": 158367, "centroid_lon": -78.10736547194017, "centroid_lat": 48.598564196662799, "occurrences_today": 11, "datetimes_today": "2026-05-14 00:01:38, 2026-05-14 00:16:25, 2026-05-14 00:31:25, 2026-05-14 00:48:06, 2026-05-14 01:01:27, 2026-05-14 01:16:30, 2026-05-14 01:31:30, 2026-05-14 01:46:23, 2026-05-14 02:02:01, 2026-05-14 02:16:25, 2026-05-14 02:33:09", "cumulative_total": 54.0 }, "geometry": { "type": "Polygon", "coordinates": [ [ [ -78.107047114045642, 48.593377854818584 ], [ -78.113977553902544, 48.595787947976412 ], [ -78.114296648228972, 48.600974253502848 ], [ -78.107683920433061, 48.603750532249769 ], [ -78.100752653529398, 48.601340079264006 ], [ -78.100434941501391, 48.596153707431007 ], [ -78.107047114045642, 48.593377854818584 ] ] ] } },
{ "type": "Feature", "properties": { "hex_id": 725362, "centroid_lon": -71.953444934801098, "centroid_lat": 46.114042083641962, "occurrences_today": 21, "datetimes_today": "2026-05-14 00:01:38, 2026-05-14 00:16:25, 2026-05-14 00:31:25, 2026-05-14 00:48:06, 2026-05-14 01:01:27, 2026-05-14 01:16:30, 2026-05-14 01:31:30, 2026-05-14 01:46:23, 2026-05-14 02:02:01, 2026-05-14 02:16:25, 2026-05-14 02:33:09, 2026-05-14 02:46:33, 2026-05-14 03:01:37, 2026-05-14 03:17:14, 2026-05-14 03:37:53, 2026-05-14 04:01:54, 2026-05-14 04:16:32, 2026-05-14 04:36:54, 2026-05-14 04:49:31, 2026-05-14 05:01:14, 2026-05-14 05:16:29", "cumulative_total": 115.0 }, "geometry": { "type": "Polygon", "coordinates": [ [ [ -71.953731089823435, 46.108853188787158 ], [ -71.960049148896985, 46.111619812531117 ], [ -71.959763559259372, 46.116808735334196 ], [ -71.953158701129411, 46.119230972387811 ], [ -71.946840155333845, 46.1164639574421 ], [ -71.947126954363497, 46.111275096709896 ], [ -71.953731089823435, 46.108853188787158 ] ] ] } },
{ "type": "Feature", "properties": { "hex_id": 586759, "centroid_lon": -73.430077059522162, "centroid_lat": 45.839886368781976, "occurrences_today": 4, "datetimes_today": "2026-05-14 04:36:54, 2026-05-14 04:49:31, 2026-05-14 05:01:14, 2026-05-14 05:16:29", "cumulative_total": 48.0 }, "geometry": { "type": "Polygon", "coordinates": [ [ [ -73.430223165792384, 45.834691822332601 ], [ -73.436586118634509, 45.837377357845178 ], [ -73.436440590821505, 45.842571917646438 ], [ -73.429930913191043, 45.845080910125461 ], [ -73.42356742195939, 45.842395000100574 ], [ -73.423714146734142, 45.837200472174196 ], [ -73.430223165792384, 45.834691822332601 ] ] ] } },
{ "type": "Feature", "properties": { "hex_id": 387105, "centroid_lon": -75.532589235185384, "centroid_lat": 45.52983776378489, "occurrences_today": 6, "datetimes_today": "2026-05-14 04:01:54, 2026-05-14 04:16:32, 2026-05-14 04:36:54, 2026-05-14 04:49:31, 2026-05-14 05:01:14, 2026-05-14 05:16:29", "cumulative_total": 50.0 }, "geometry": { "type": "Polygon", "coordinates": [ [ [ -75.532540196678497, 45.524641205422313 ], [ -75.538967372858551, 45.52720945513996 ], [ -75.539017007632154, 45.532406005695748 ], [ -75.532638287091714, 45.53503431735809 ], [ -75.526210501243241, 45.532465717731377 ], [ -75.526162045608118, 45.527269156416061 ], [ -75.532540196678497, 45.524641205422313 ] ] ] } },
{ "type": "Feature", "properties": { "hex_id": 388326, "centroid_lon": -75.519783298427598, "centroid_lat": 45.529896752677288, "occurrences_today": 6, "datetimes_today": "2026-05-14 04:01:54, 2026-05-14 04:16:32, 2026-05-14 04:36:54, 2026-05-14 04:49:31, 2026-05-14 05:01:14, 2026-05-14 05:16:29", "cumulative_total": 50.0 }, "geometry": { "type": "Polygon", "coordinates": [ [ [ -75.51973543890486, 45.524700183685468 ], [ -75.526162045608118, 45.527269156416061 ], [ -75.526210501243241, 45.532465717731377 ], [ -75.519831171027661, 45.535093316881671 ], [ -75.513403955132503, 45.53252399410831 ], [ -75.513356678649203, 45.527327422292103 ], [ -75.51973543890486, 45.524700183685468 ] ] ] } },
{ "type": "Feature", "properties": { "hex_id": 726583, "centroid_lon": -71.940522253711094, "centroid_lat": 46.113696607299353, "occurrences_today": 21, "datetimes_today": "2026-05-14 00:01:38, 2026-05-14 00:16:25, 2026-05-14 00:31:25, 2026-05-14 00:48:06, 2026-05-14 01:01:27, 2026-05-14 01:16:30, 2026-05-14 01:31:30, 2026-05-14 01:46:23, 2026-05-14 02:02:01, 2026-05-14 02:16:25, 2026-05-14 02:33:09, 2026-05-14 02:46:33, 2026-05-14 03:01:37, 2026-05-14 03:17:14, 2026-05-14 03:37:53, 2026-05-14 04:01:54, 2026-05-14 04:16:32, 2026-05-14 04:36:54, 2026-05-14 04:49:31, 2026-05-14 05:01:14, 2026-05-14 05:16:29", "cumulative_total": 129.0 }, "geometry": { "type": "Polygon", "coordinates": [ [ [ -71.940809617919768, 46.108507774640579 ], [ -71.947126954363497, 46.111275096709896 ], [ -71.946840155333845, 46.1164639574421 ], [ -71.940234810522057, 46.118885433837583 ], [ -71.933916987893141, 46.116117720461581 ], [ -71.934204996234328, 46.110928922062143 ], [ -71.940809617919768, 46.108507774640579 ] ] ] } },
{ "type": "Feature", "properties": { "hex_id": 684467, "centroid_lon": -72.380199116958849, "centroid_lat": 46.257136151569988, "occurrences_today": 14, "datetimes_today": "2026-05-14 00:01:38, 2026-05-14 00:16:25, 2026-05-14 00:31:25, 2026-05-14 00:48:06, 2026-05-14 01:01:27, 2026-05-14 01:16:30, 2026-05-14 01:31:30, 2026-05-14 01:46:23, 2026-05-14 02:02:01, 2026-05-14 02:16:25, 2026-05-14 02:33:09, 2026-05-14 02:46:33, 2026-05-14 03:01:37, 2026-05-14 03:17:14", "cumulative_total": 60.0 }, "geometry": { "type": "Polygon", "coordinates": [ [ [ -72.380446449381651, 46.251945471334743 ], [ -72.386803090685476, 46.254689213118446 ], [ -72.386556334411679, 46.259879917211364 ], [ -72.379951716407547, 46.262326826047449 ], [ -72.373594567094841, 46.259582694847495 ], [ -72.373842543771843, 46.254392044293581 ], [ -72.380446449381651, 46.251945471334743 ] ] ] } },
{ "type": "Feature", "properties": { "hex_id": 685077, "centroid_lon": -72.374090452164481, "centroid_lat": 46.249201387977003, "occurrences_today": 14, "datetimes_today": "2026-05-14 00:01:38, 2026-05-14 00:16:25, 2026-05-14 00:31:25, 2026-05-14 00:48:06, 2026-05-14 01:01:27, 2026-05-14 01:16:30, 2026-05-14 01:31:30, 2026-05-14 01:46:23, 2026-05-14 02:02:01, 2026-05-14 02:16:25, 2026-05-14 02:33:09, 2026-05-14 02:46:33, 2026-05-14 03:01:37, 2026-05-14 03:17:14", "cumulative_total": 60.0 }, "geometry": { "type": "Polygon", "coordinates": [ [ [ -72.374338292296073, 46.244010725898121 ], [ -72.380693713699273, 46.246754785342013 ], [ -72.380446449381651, 46.251945471334743 ], [ -72.373842543771843, 46.254392044293581 ], [ -72.367486614827357, 46.25164759548484 ], [ -72.367735099010645, 46.246456963147992 ], [ -72.374338292296073, 46.244010725898121 ] ] ] } },
{ "type": "Feature", "properties": { "hex_id": 685688, "centroid_lon": -72.367238062203867, "centroid_lat": 46.256838222054185, "occurrences_today": 14, "datetimes_today": "2026-05-14 00:01:38, 2026-05-14 00:16:25, 2026-05-14 00:31:25, 2026-05-14 00:48:06, 2026-05-14 01:01:27, 2026-05-14 01:16:30, 2026-05-14 01:31:30, 2026-05-14 01:46:23, 2026-05-14 02:02:01, 2026-05-14 02:16:25, 2026-05-14 02:33:09, 2026-05-14 02:46:33, 2026-05-14 03:01:37, 2026-05-14 03:17:14", "cumulative_total": 60.0 }, "geometry": { "type": "Polygon", "coordinates": [ [ [ -72.367486614827357, 46.25164759548484 ], [ -72.373842543771843, 46.254392044293581 ], [ -72.373594567094841, 46.259582694847495 ], [ -72.366989441116786, 46.262028842855678 ], [ -72.360633004701143, 46.259284004521326 ], [ -72.36088220171132, 46.254093407770277 ], [ -72.367486614827357, 46.25164759548484 ] ] ] } },
{ "type": "Feature", "properties": { "hex_id": 686298, "centroid_lon": -72.361131330102054, "centroid_lat": 46.248902805246495, "occurrences_today": 14, "datetimes_today": "2026-05-14 00:01:38, 2026-05-14 00:16:25, 2026-05-14 00:31:25, 2026-05-14 00:48:06, 2026-05-14 01:01:27, 2026-05-14 01:16:30, 2026-05-14 01:31:30, 2026-05-14 01:46:23, 2026-05-14 02:02:01, 2026-05-14 02:16:25, 2026-05-14 02:33:09, 2026-05-14 02:46:33, 2026-05-14 03:01:37, 2026-05-14 03:17:14", "cumulative_total": 111.0 }, "geometry": { "type": "Polygon", "coordinates": [ [ [ -72.361380389896809, 46.243712196950327 ], [ -72.367735099010645, 46.246456963147992 ], [ -72.367486614827357, 46.25164759548484 ], [ -72.36088220171132, 46.254093407770277 ], [ -72.354526985593708, 46.251348252098481 ], [ -72.354776689572475, 46.24615767368126 ], [ -72.361380389896809, 46.243712196950327 ] ] ] } },
{ "type": "Feature", "properties": { "hex_id": 686299, "centroid_lon": -72.360383739048061, "centroid_lat": 46.26447459549933, "occurrences_today": 14, "datetimes_today": "2026-05-14 00:01:38, 2026-05-14 00:16:25, 2026-05-14 00:31:25, 2026-05-14 00:48:06, 2026-05-14 01:01:27, 2026-05-14 01:16:30, 2026-05-14 01:31:30, 2026-05-14 01:46:23, 2026-05-14 02:02:01, 2026-05-14 02:16:25, 2026-05-14 02:33:09, 2026-05-14 02:46:33, 2026-05-14 03:01:37, 2026-05-14 03:17:14", "cumulative_total": 60.0 }, "geometry": { "type": "Polygon", "coordinates": [ [ [ -72.360633004701143, 46.259284004521326 ], [ -72.366989441116786, 46.262028842855678 ], [ -72.36674075154265, 46.267219457888991 ], [ -72.360134404728626, 46.269665180703917 ], [ -72.353777460912156, 46.266919952683182 ], [ -72.354027371287074, 46.261729391599779 ], [ -72.360633004701143, 46.259284004521326 ] ] ] } },
{ "type": "Feature", "properties": { "hex_id": 686909, "centroid_lon": -72.354277212839747, "centroid_lat": 46.256538824738101, "occurrences_today": 14, "datetimes_today": "2026-05-14 00:01:38, 2026-05-14 00:16:25, 2026-05-14 00:31:25, 2026-05-14 00:48:06, 2026-05-14 01:01:27, 2026-05-14 01:16:30, 2026-05-14 01:31:30, 2026-05-14 01:46:23, 2026-05-14 02:02:01, 2026-05-14 02:16:25, 2026-05-14 02:33:09, 2026-05-14 02:46:33, 2026-05-14 03:01:37, 2026-05-14 03:17:14", "cumulative_total": 89.0 }, "geometry": { "type": "Polygon", "coordinates": [ [ [ -72.354526985593708, 46.251348252098481 ], [ -72.36088220171132, 46.254093407770277 ], [ -72.360633004701143, 46.259284004521326 ], [ -72.354027371287074, 46.261729391599779 ], [ -72.347671648236144, 46.258983846293141 ], [ -72.347922065509096, 46.253793303608759 ], [ -72.354526985593708, 46.251348252098481 ] ] ] } },
{ "type": "Feature", "properties": { "hex_id": 686910, "centroid_lon": -72.353527481691458, "centroid_lat": 46.272110507987954, "occurrences_today": 14, "datetimes_today": "2026-05-14 00:01:38, 2026-05-14 00:16:25, 2026-05-14 00:31:25, 2026-05-14 00:48:06, 2026-05-14 01:01:27, 2026-05-14 01:16:30, 2026-05-14 01:31:30, 2026-05-14 01:46:23, 2026-05-14 02:02:01, 2026-05-14 02:16:25, 2026-05-14 02:33:09, 2026-05-14 02:46:33, 2026-05-14 03:01:37, 2026-05-14 03:17:14", "cumulative_total": 73.0 }, "geometry": { "type": "Polygon", "coordinates": [ [ [ -72.353777460912156, 46.266919952683182 ], [ -72.360134404728626, 46.269665180703917 ], [ -72.359885001719306, 46.274855760134756 ], [ -72.353277433601448, 46.277301057513746 ], [ -72.346919982454693, 46.27455543964583 ], [ -72.347170606732547, 46.269364914312014 ], [ -72.353777460912156, 46.266919952683182 ] ] ] } },
{ "type": "Feature", "properties": { "hex_id": 687520, "centroid_lon": -72.347421161985167, "centroid_lat": 46.264174383194344, "occurrences_today": 14, "datetimes_today": "2026-05-14 00:01:38, 2026-05-14 00:16:25, 2026-05-14 00:31:25, 2026-05-14 00:48:06, 2026-05-14 01:01:27, 2026-05-14 01:16:30, 2026-05-14 01:31:30, 2026-05-14 01:46:23, 2026-05-14 02:02:01, 2026-05-14 02:16:25, 2026-05-14 02:33:09, 2026-05-14 02:46:33, 2026-05-14 03:01:37, 2026-05-14 03:17:14", "cumulative_total": 73.0 }, "geometry": { "type": "Polygon", "coordinates": [ [ [ -72.347671648236144, 46.258983846293141 ], [ -72.354027371287074, 46.261729391599779 ], [ -72.353777460912156, 46.266919952683182 ], [ -72.347170606732547, 46.269364914312014 ], [ -72.340814376818983, 46.266618979209788 ], [ -72.341065507924071, 46.261428472340178 ], [ -72.347671648236144, 46.258983846293141 ] ] ] } },
{ "type": "Feature", "properties": { "hex_id": 688131, "centroid_lon": -72.340563176532811, "centroid_lat": 46.271809480290614, "occurrences_today": 14, "datetimes_today": "2026-05-14 00:01:38, 2026-05-14 00:16:25, 2026-05-14 00:31:25, 2026-05-14 00:48:06, 2026-05-14 01:01:27, 2026-05-14 01:16:30, 2026-05-14 01:31:30, 2026-05-14 01:46:23, 2026-05-14 02:02:01, 2026-05-14 02:16:25, 2026-05-14 02:33:09, 2026-05-14 02:46:33, 2026-05-14 03:01:37, 2026-05-14 03:17:14", "cumulative_total": 73.0 }, "geometry": { "type": "Polygon", "coordinates": [ [ [ -72.340814376818983, 46.266618979209788 ], [ -72.347170606732547, 46.269364914312014 ], [ -72.346919982454693, 46.27455543964583 ], [ -72.340311907041908, 46.276999975582314 ], [ -72.333955170336594, 46.274253650523711 ], [ -72.334207015812154, 46.269063179550898 ], [ -72.340814376818983, 46.266618979209788 ] ] ] } },
{ "type": "Feature", "properties": { "hex_id": 804750, "centroid_lon": -71.088607907647969, "centroid_lat": 46.446255231669632, "occurrences_today": 20, "datetimes_today": "2026-05-14 00:01:38, 2026-05-14 00:16:25, 2026-05-14 00:31:25, 2026-05-14 00:48:06, 2026-05-14 01:01:27, 2026-05-14 01:16:30, 2026-05-14 01:31:30, 2026-05-14 01:46:23, 2026-05-14 02:02:01, 2026-05-14 02:16:25, 2026-05-14 02:33:09, 2026-05-14 02:46:33, 2026-05-14 03:01:37, 2026-05-14 03:17:14, 2026-05-14 03:37:53, 2026-05-14 04:01:54, 2026-05-14 04:16:32, 2026-05-14 04:36:54, 2026-05-14 04:49:31, 2026-05-14 05:01:14", "cumulative_total": 80.0 }, "geometry": { "type": "Polygon", "coordinates": [ [ [ -71.08897946361536, 46.441071405358919 ], [ -71.095288028595235, 46.443885570936068 ], [ -71.09491703460229, 46.449069433740725 ], [ -71.088236249215512, 46.451439050964929 ], [ -71.081927224743836, 46.448624482626478 ], [ -71.082299445115609, 46.443440699890822 ], [ -71.08897946361536, 46.441071405358919 ] ] ] } },
{ "type": "Feature", "properties": { "hex_id": 805971, "centroid_lon": -71.075618864844543, "centroid_lat": 46.445809584626296, "occurrences_today": 20, "datetimes_today": "2026-05-14 00:01:38, 2026-05-14 00:16:25, 2026-05-14 00:31:25, 2026-05-14 00:48:06, 2026-05-14 01:01:27, 2026-05-14 01:16:30, 2026-05-14 01:31:30, 2026-05-14 01:46:23, 2026-05-14 02:02:01, 2026-05-14 02:16:25, 2026-05-14 02:33:09, 2026-05-14 02:46:33, 2026-05-14 03:01:37, 2026-05-14 03:17:14, 2026-05-14 03:37:53, 2026-05-14 04:01:54, 2026-05-14 04:16:32, 2026-05-14 04:36:54, 2026-05-14 04:49:31, 2026-05-14 05:01:14", "cumulative_total": 80.0 }, "geometry": { "type": "Polygon", "coordinates": [ [ [ -71.075991646970053, 46.440625838508851 ], [ -71.082299445115609, 46.443440699890822 ], [ -71.081927224743836, 46.448624482626478 ], [ -71.075245979917995, 46.45099332371327 ], [ -71.068937722837347, 46.448178059472042 ], [ -71.06931116948239, 46.442994357068976 ], [ -71.075991646970053, 46.440625838508851 ] ] ] } },
{ "type": "Feature", "properties": { "hex_id": 554394, "centroid_lon": -73.774146189062051, "centroid_lat": 45.711583475175388, "occurrences_today": 1, "datetimes_today": "2026-05-14 05:16:29", "cumulative_total": 56.0 }, "geometry": { "type": "Polygon", "coordinates": [ [ [ -73.774259770642715, 45.706388049149567 ], [ -73.780625182566155, 45.709054496310038 ], [ -73.780512180235561, 45.714249932239497 ], [ -73.774032576383092, 45.71677889623566 ], [ -73.767666616313122, 45.7141120794291 ], [ -73.767780808231663, 45.708916668337459 ], [ -73.774259770642715, 45.706388049149567 ] ] ] } },
{ "type": "Feature", "properties": { "hex_id": 574537, "centroid_lon": -73.563614439617524, "centroid_lat": 45.654565041477746, "occurrences_today": 19, "datetimes_today": "2026-05-14 00:01:38, 2026-05-14 00:16:25, 2026-05-14 00:31:25, 2026-05-14 00:48:06, 2026-05-14 01:01:27, 2026-05-14 01:16:30, 2026-05-14 01:31:30, 2026-05-14 01:46:23, 2026-05-14 02:02:01, 2026-05-14 02:16:25, 2026-05-14 02:33:09, 2026-05-14 02:46:33, 2026-05-14 03:01:37, 2026-05-14 03:17:14, 2026-05-14 03:37:53, 2026-05-14 04:01:54, 2026-05-14 04:16:32, 2026-05-14 04:36:54, 2026-05-14 04:49:31", "cumulative_total": 47.0 }, "geometry": { "type": "Polygon", "coordinates": [ [ [ -73.563747260030638, 45.649370007634126 ], [ -73.570095986607697, 45.6520480147054 ], [ -73.569963740839668, 45.657243060528934 ], [ -73.563481582867041, 45.659760070274878 ], [ -73.55713231798839, 45.657081692306072 ], [ -73.557265749371723, 45.651886675553676 ], [ -73.563747260030638, 45.649370007634126 ] ] ] } },
{ "type": "Feature", "properties": { "hex_id": 575148, "centroid_lon": -73.556998850099518, "centroid_lat": 45.66227670400928, "occurrences_today": 19, "datetimes_today": "2026-05-14 00:01:38, 2026-05-14 00:16:25, 2026-05-14 00:31:25, 2026-05-14 00:48:06, 2026-05-14 01:01:27, 2026-05-14 01:16:30, 2026-05-14 01:31:30, 2026-05-14 01:46:23, 2026-05-14 02:02:01, 2026-05-14 02:16:25, 2026-05-14 02:33:09, 2026-05-14 02:46:33, 2026-05-14 03:01:37, 2026-05-14 03:17:14, 2026-05-14 03:37:53, 2026-05-14 04:01:54, 2026-05-14 04:16:32, 2026-05-14 04:36:54, 2026-05-14 04:49:31", "cumulative_total": 47.0 }, "geometry": { "type": "Polygon", "coordinates": [ [ [ -73.55713231798839, 45.657081692306072 ], [ -73.563481582867041, 45.659760070274878 ], [ -73.563348689766926, 45.664955094025466 ], [ -73.556865345692785, 45.667471710663207 ], [ -73.550515542549363, 45.664792961636842 ], [ -73.550649621732546, 45.659597967095124 ], [ -73.55713231798839, 45.657081692306072 ] ] ] } },
{ "type": "Feature", "properties": { "hex_id": 575758, "centroid_lon": -73.55078366424199, "centroid_lat": 45.654402967501504, "occurrences_today": 19, "datetimes_today": "2026-05-14 00:01:38, 2026-05-14 00:16:25, 2026-05-14 00:31:25, 2026-05-14 00:48:06, 2026-05-14 01:01:27, 2026-05-14 01:16:30, 2026-05-14 01:31:30, 2026-05-14 01:46:23, 2026-05-14 02:02:01, 2026-05-14 02:16:25, 2026-05-14 02:33:09, 2026-05-14 02:46:33, 2026-05-14 03:01:37, 2026-05-14 03:17:14, 2026-05-14 03:37:53, 2026-05-14 04:01:54, 2026-05-14 04:16:32, 2026-05-14 04:36:54, 2026-05-14 04:49:31", "cumulative_total": 81.0 }, "geometry": { "type": "Polygon", "coordinates": [ [ [ -73.550917670090001, 45.649207962856046 ], [ -73.557265749371723, 45.651886675553676 ], [ -73.55713231798839, 45.657081692306072 ], [ -73.550649621732546, 45.659597967095124 ], [ -73.544301004653732, 45.656918883382339 ], [ -73.544435621615506, 45.651723895960473 ], [ -73.550917670090001, 45.649207962856046 ] ] ] } },
{ "type": "Feature", "properties": { "hex_id": 584928, "centroid_lon": -73.449169509008229, "centroid_lat": 45.847941971745072, "occurrences_today": 4, "datetimes_today": "2026-05-14 04:36:54, 2026-05-14 04:49:31, 2026-05-14 05:01:14, 2026-05-14 05:16:29", "cumulative_total": 38.0 }, "geometry": { "type": "Polygon", "coordinates": [ [ [ -73.44931387939485, 45.842747385427081 ], [ -73.45567868733994, 45.845431877296228 ], [ -73.45553489592254, 45.850626476779006 ], [ -73.449025099032369, 45.8531365529658 ], [ -73.442659751714018, 45.850451686658204 ], [ -73.442804740645698, 45.845257118667497 ], [ -73.44931387939485, 45.842747385427081 ] ] ] } },
{ "type": "Feature", "properties": { "hex_id": 780357, "centroid_lon": -71.320023197194971, "centroid_lat": 46.874851909470848, "occurrences_today": 5, "datetimes_today": "2026-05-14 04:16:32, 2026-05-14 04:36:54, 2026-05-14 04:49:31, 2026-05-14 05:01:14, 2026-05-14 05:16:29", "cumulative_total": 10.0 }, "geometry": { "type": "Polygon", "coordinates": [ [ [ -71.32037807075767, 46.869667081602685 ], [ -71.326748249327977, 46.872470070058235 ], [ -71.326393954603674, 46.87765493247651 ], [ -71.319668225182625, 46.880036730558245 ], [ -71.313297566240621, 46.87723333540071 ], [ -71.3136531170572, 46.872048548930294 ], [ -71.32037807075767, 46.869667081602685 ] ] ] } },
{ "type": "Feature", "properties": { "hex_id": 1336623, "centroid_lon": -65.11519855102128, "centroid_lat": 48.073338090342958, "occurrences_today": 1, "datetimes_today": "2026-05-14 00:01:38", "cumulative_total": 20.0 }, "geometry": { "type": "Polygon", "coordinates": [ [ [ -65.116188364689719, 48.068220833429763 ], [ -65.122305835682582, 48.071353794248502 ], [ -65.121316519955172, 48.076471143687399 ], [ -65.114208461642079, 48.078455327289895 ], [ -65.108090768467349, 48.07532190346241 ], [ -65.109081355690776, 48.07020475910447 ], [ -65.116188364689719, 48.068220833429763 ] ] ] } },
{ "type": "Feature", "properties": { "hex_id": 576989, "centroid_lon": -73.533880007050286, "centroid_lat": 45.810086356602703, "occurrences_today": 10, "datetimes_today": "2026-05-14 00:31:25, 2026-05-14 00:48:06, 2026-05-14 01:01:27, 2026-05-14 01:16:30, 2026-05-14 01:31:30, 2026-05-14 01:46:23, 2026-05-14 02:02:01, 2026-05-14 02:16:25, 2026-05-14 02:33:09, 2026-05-14 02:46:33", "cumulative_total": 50.0 }, "geometry": { "type": "Polygon", "coordinates": [ [ [ -73.534016313303709, 45.804891533169631 ], [ -73.540381041331031, 45.807571319528456 ], [ -73.540245314058367, 45.81276615527581 ], [ -73.533743663435033, 45.815281174975908 ], [ -73.527378393795118, 45.812601015453929 ], [ -73.527515316378512, 45.807406209460176 ], [ -73.534016313303709, 45.804891533169631 ] ] ] } },
{ "type": "Feature", "properties": { "hex_id": 779747, "centroid_lon": -71.326039561585915, "centroid_lat": 46.882839788120926, "occurrences_today": 5, "datetimes_today": "2026-05-14 04:16:32, 2026-05-14 04:36:54, 2026-05-14 04:49:31, 2026-05-14 05:01:14, 2026-05-14 05:16:29", "cumulative_total": 32.0 }, "geometry": { "type": "Polygon", "coordinates": [ [ [ -71.326393954603674, 46.87765493247651 ], [ -71.332765389317487, 46.880457617841273 ], [ -71.332411575484613, 46.885642507982709 ], [ -71.325685070240539, 46.888024636990785 ], [ -71.319313154686498, 46.885221544864194 ], [ -71.319668225182625, 46.880036730558245 ], [ -71.326393954603674, 46.87765493247651 ] ] ] } },
{ "type": "Feature", "properties": { "hex_id": 370022, "centroid_lon": -75.714040681767514, "centroid_lat": 45.700339109382341, "occurrences_today": 7, "datetimes_today": "2026-05-14 03:37:53, 2026-05-14 04:01:54, 2026-05-14 04:16:32, 2026-05-14 04:36:54, 2026-05-14 04:49:31, 2026-05-14 05:01:14, 2026-05-14 05:16:29", "cumulative_total": 13.0 }, "geometry": { "type": "Polygon", "coordinates": [ [ [ -75.713974544881751, 45.695142886096967 ], [ -75.720429476679939, 45.697700682145765 ], [ -75.720496217418329, 45.702896895753945 ], [ -75.714106836761616, 45.705535327846093 ], [ -75.707651282999421, 45.70297718167491 ], [ -75.707585731864057, 45.697780953599029 ], [ -75.713974544881751, 45.695142886096967 ] ] ] } },
{ "type": "Feature", "properties": { "hex_id": 370632, "centroid_lon": -75.707520198671205, "centroid_lat": 45.692584720702833, "occurrences_today": 7, "datetimes_today": "2026-05-14 03:37:53, 2026-05-14 04:01:54, 2026-05-14 04:16:32, 2026-05-14 04:36:54, 2026-05-14 04:49:31, 2026-05-14 05:01:14, 2026-05-14 05:16:29", "cumulative_total": 13.0 }, "geometry": { "type": "Polygon", "coordinates": [ [ [ -75.707454683414795, 45.687388482986371 ], [ -75.713908426098214, 45.689946657989992 ], [ -75.713974544881751, 45.695142886096967 ], [ -75.707585731864057, 45.697780953599029 ], [ -75.701131367714027, 45.695222428500564 ], [ -75.701066438054355, 45.690026186059924 ], [ -75.707454683414795, 45.687388482986371 ] ] ] } },
{ "type": "Feature", "properties": { "hex_id": 370633, "centroid_lon": -75.707716852083323, "centroid_lat": 45.708173404930513, "occurrences_today": 7, "datetimes_today": "2026-05-14 03:37:53, 2026-05-14 04:01:54, 2026-05-14 04:16:32, 2026-05-14 04:36:54, 2026-05-14 04:49:31, 2026-05-14 05:01:14, 2026-05-14 05:16:29", "cumulative_total": 25.0 }, "geometry": { "type": "Polygon", "coordinates": [ [ [ -75.707651282999421, 45.70297718167491 ], [ -75.714106836761616, 45.705535327846093 ], [ -75.714173009870137, 45.710731541488236 ], [ -75.707782439121857, 45.713369623365843 ], [ -75.701326263377396, 45.710811126908645 ], [ -75.70126128036955, 45.705614898924921 ], [ -75.707651282999421, 45.70297718167491 ] ] ] } },
{ "type": "Feature", "properties": { "hex_id": 371243, "centroid_lon": -75.701196315150426, "centroid_lat": 45.700418666122246, "occurrences_today": 7, "datetimes_today": "2026-05-14 03:37:53, 2026-05-14 04:01:54, 2026-05-14 04:16:32, 2026-05-14 04:36:54, 2026-05-14 04:49:31, 2026-05-14 05:01:14, 2026-05-14 05:16:29", "cumulative_total": 13.0 }, "geometry": { "type": "Polygon", "coordinates": [ [ [ -75.701131367714027, 45.695222428500564 ], [ -75.707585731864057, 45.697780953599029 ], [ -75.707651282999421, 45.70297718167491 ], [ -75.70126128036955, 45.705614898924921 ], [ -75.694806294734832, 45.703056023568074 ], [ -75.694741933220669, 45.697859781284663 ], [ -75.701131367714027, 45.695222428500564 ] ] ] } },
{ "type": "Feature", "properties": { "hex_id": 372464, "centroid_lon": -75.688351895185164, "centroid_lat": 45.700496778956555, "occurrences_today": 7, "datetimes_today": "2026-05-14 03:37:53, 2026-05-14 04:01:54, 2026-05-14 04:16:32, 2026-05-14 04:36:54, 2026-05-14 04:49:31, 2026-05-14 05:01:14, 2026-05-14 05:16:29", "cumulative_total": 13.0 }, "geometry": { "type": "Polygon", "coordinates": [ [ [ -75.688288137216105, 45.695300527258745 ], [ -75.694741933220669, 45.697859781284663 ], [ -75.694806294734832, 45.703056023568074 ], [ -75.68841567061132, 45.705693025837974 ], [ -75.681961253601585, 45.703133421417739 ], [ -75.68189808172643, 45.697937165186993 ], [ -75.688288137216105, 45.695300527258745 ] ] ] } },
{ "type": "Feature", "properties": { "hex_id": 650233, "centroid_lon": -72.772054697674392, "centroid_lat": 45.548323713271799, "occurrences_today": 12, "datetimes_today": "2026-05-14 00:01:38, 2026-05-14 00:16:25, 2026-05-14 00:31:25, 2026-05-14 00:48:06, 2026-05-14 01:01:27, 2026-05-14 01:16:30, 2026-05-14 01:31:30, 2026-05-14 01:46:23, 2026-05-14 02:02:01, 2026-05-14 02:16:25, 2026-05-14 02:33:09, 2026-05-14 02:46:33", "cumulative_total": 26.0 }, "geometry": { "type": "Polygon", "coordinates": [ [ [ -72.772259920912873, 45.543130881318604 ], [ -72.778557527370893, 45.545852000630667 ], [ -72.778352864578181, 45.551044852310497 ], [ -72.771849418387546, 45.553516539761205 ], [ -72.765551307541529, 45.550795043705371 ], [ -72.765757147255329, 45.545602237006968 ], [ -72.772259920912873, 45.543130881318604 ] ] ] } },
{ "type": "Feature", "properties": { "hex_id": 584927, "centroid_lon": -73.449602501453882, "centroid_lat": 45.832358197499758, "occurrences_today": 4, "datetimes_today": "2026-05-14 04:36:54, 2026-05-14 04:49:31, 2026-05-14 05:01:14, 2026-05-14 05:16:29", "cumulative_total": 23.0 }, "geometry": { "type": "Polygon", "coordinates": [ [ [ -73.449746753153107, 45.82716359589061 ], [ -73.456109825134035, 45.829848048282479 ], [ -73.455966151932344, 45.835042663047858 ], [ -73.449458210205606, 45.837552794011934 ], [ -73.443094599282915, 45.834867967385883 ], [ -73.443239469015353, 45.829673384095159 ], [ -73.449746753153107, 45.82716359589061 ] ] ] } },
{ "type": "Feature", "properties": { "hex_id": 585538, "centroid_lon": -73.44294968983084, "centroid_lat": 45.840062545576707, "occurrences_today": 4, "datetimes_today": "2026-05-14 04:36:54, 2026-05-14 04:49:31, 2026-05-14 05:01:14, 2026-05-14 05:16:29", "cumulative_total": 23.0 }, "geometry": { "type": "Polygon", "coordinates": [ [ [ -73.443094599282915, 45.834867967385883 ], [ -73.449458210205606, 45.837552794011934 ], [ -73.44931387939485, 45.842747385427081 ], [ -73.442804740645698, 45.845257118667497 ], [ -73.436440590821505, 45.842571917646438 ], [ -73.436586118634509, 45.837377357845178 ], [ -73.443094599282915, 45.834867967385883 ] ] ] } },
{ "type": "Feature", "properties": { "hex_id": 586148, "centroid_lon": -73.436731606557288, "centroid_lat": 45.832182792941033, "occurrences_today": 4, "datetimes_today": "2026-05-14 04:36:54, 2026-05-14 04:49:31, 2026-05-14 05:01:14, 2026-05-14 05:16:29", "cumulative_total": 23.0 }, "geometry": { "type": "Polygon", "coordinates": [ [ [ -73.436877054603315, 45.826988222934105 ], [ -73.443239469015353, 45.829673384095159 ], [ -73.443094599282915, 45.834867967385883 ], [ -73.436586118634509, 45.837377357845178 ], [ -73.430223165792384, 45.834691822332601 ], [ -73.430369232015252, 45.829497270777466 ], [ -73.436877054603315, 45.826988222934105 ] ] ] } },
{ "type": "Feature", "properties": { "hex_id": 650844, "centroid_lon": -72.765345411609587, "centroid_lat": 45.555987844935785, "occurrences_today": 12, "datetimes_today": "2026-05-14 00:01:38, 2026-05-14 00:16:25, 2026-05-14 00:31:25, 2026-05-14 00:48:06, 2026-05-14 01:01:27, 2026-05-14 01:16:30, 2026-05-14 01:31:30, 2026-05-14 01:46:23, 2026-05-14 02:02:01, 2026-05-14 02:16:25, 2026-05-14 02:33:09, 2026-05-14 02:46:33", "cumulative_total": 16.0 }, "geometry": { "type": "Polygon", "coordinates": [ [ [ -72.765551307541529, 45.550795043705371 ], [ -72.771849418387546, 45.553516539761205 ], [ -72.771644083033536, 45.558709360786615 ], [ -72.765139459440604, 45.561180640697941 ], [ -72.758840844263119, 45.558458767740625 ], [ -72.759047356991161, 45.553265991837847 ], [ -72.765551307541529, 45.550795043705371 ] ] ] } },
{ "type": "Feature", "properties": { "hex_id": 651454, "centroid_lon": -72.759253813331171, "centroid_lat": 45.548073210462839, "occurrences_today": 12, "datetimes_today": "2026-05-14 00:01:38, 2026-05-14 00:16:25, 2026-05-14 00:31:25, 2026-05-14 00:48:06, 2026-05-14 01:01:27, 2026-05-14 01:16:30, 2026-05-14 01:31:30, 2026-05-14 01:46:23, 2026-05-14 02:02:01, 2026-05-14 02:16:25, 2026-05-14 02:33:09, 2026-05-14 02:46:33", "cumulative_total": 16.0 }, "geometry": { "type": "Polygon", "coordinates": [ [ [ -72.75946021330212, 45.54288042361582 ], [ -72.765757147255329, 45.545602237006968 ], [ -72.765551307541529, 45.550795043705371 ], [ -72.759047356991161, 45.553265991837847 ], [ -72.752749919159328, 45.550543801592667 ], [ -72.7529569357376, 45.545351040133404 ], [ -72.75946021330212, 45.54288042361582 ] ] ] } },
{ "type": "Feature", "properties": { "hex_id": 651465, "centroid_lon": -72.752410877574135, "centroid_lat": 45.719432105166163, "occurrences_today": 12, "datetimes_today": "2026-05-14 00:01:38, 2026-05-14 00:16:25, 2026-05-14 00:31:25, 2026-05-14 00:48:06, 2026-05-14 01:01:27, 2026-05-14 01:16:30, 2026-05-14 01:31:30, 2026-05-14 01:46:23, 2026-05-14 02:02:01, 2026-05-14 02:16:25, 2026-05-14 02:33:09, 2026-05-14 02:46:33", "cumulative_total": 15.0 }, "geometry": { "type": "Polygon", "coordinates": [ [ [ -72.752619147766126, 45.714239499023499 ], [ -72.758934650159986, 45.716961969631939 ], [ -72.758726945231601, 45.722154595758873 ], [ -72.752202550383799, 45.724624705828838 ], [ -72.745886539734329, 45.721901856102726 ], [ -72.746095432169014, 45.716709275489102 ], [ -72.752619147766126, 45.714239499023499 ] ] ] } },
{ "type": "Feature", "properties": { "hex_id": 359676, "centroid_lon": -75.830750875802025, "centroid_lat": 46.206200176292711, "occurrences_today": 18, "datetimes_today": "2026-05-14 00:48:06, 2026-05-14 01:01:27, 2026-05-14 01:16:30, 2026-05-14 01:31:30, 2026-05-14 01:46:23, 2026-05-14 02:02:01, 2026-05-14 02:16:25, 2026-05-14 02:33:09, 2026-05-14 02:46:33, 2026-05-14 03:01:37, 2026-05-14 03:17:14, 2026-05-14 03:37:53, 2026-05-14 04:01:54, 2026-05-14 04:16:32, 2026-05-14 04:36:54, 2026-05-14 04:49:31, 2026-05-14 05:01:14, 2026-05-14 05:16:29", "cumulative_total": 18.0 }, "geometry": { "type": "Polygon", "coordinates": [ [ [ -75.830672560350706, 46.201004557870434 ], [ -75.837192090321025, 46.203555092237735 ], [ -75.83727102740967, 46.208750699712176 ], [ -75.830829212831802, 46.211395789868831 ], [ -75.824309039641989, 46.20884490029384 ], [ -75.8242313242569, 46.203649275836121 ], [ -75.830672560350706, 46.201004557870434 ] ] ] } },
{ "type": "Feature", "properties": { "hex_id": 761537, "centroid_lon": -71.412035840819016, "centroid_lat": 48.522233693027701, "occurrences_today": 1, "datetimes_today": "2026-05-14 05:16:29", "cumulative_total": 1.0 }, "geometry": { "type": "Polygon", "coordinates": [ [ [ -71.412402393658638, 48.517049829292645 ], [ -71.418976975807226, 48.519852448986271 ], [ -71.418611057824705, 48.525036347500347 ], [ -71.411669183838811, 48.527417549993942 ], [ -71.405094070992646, 48.524614501123033 ], [ -71.405461362792153, 48.519430679007044 ], [ -71.412402393658638, 48.517049829292645 ] ] ] } }
]
}
