{
"type": "FeatureCollection",
"name": "daily_2025-11-30",
"crs": { "type": "name", "properties": { "name": "urn:ogc:def:crs:OGC:1.3:CRS84" } },
"features": [
{ "type": "Feature", "properties": { "hex_id": 207, "count": 1, "date": "2025-11-30", "n_files": 21, "pct": 4.76 }, "geometry": { "type": "Polygon", "coordinates": [ [ [ -74.8953769, 45.6638276 ], [ -74.8953285, 45.6898108 ], [ -74.927419, 45.7028273 ], [ -74.9595431, 45.6898516 ], [ -74.9595618, 45.6638684 ], [ -74.9274861, 45.6508609 ], [ -74.8953769, 45.6638276 ] ] ] } },
{ "type": "Feature", "properties": { "hex_id": 270, "count": 1, "date": "2025-11-30", "n_files": 21, "pct": 4.76 }, "geometry": { "type": "Polygon", "coordinates": [ [ [ -74.8633793, 45.6248188 ], [ -74.8633161, 45.6508021 ], [ -74.8953769, 45.6638276 ], [ -74.9274861, 45.6508609 ], [ -74.9275196, 45.6248775 ], [ -74.8954736, 45.6118609 ], [ -74.8633793, 45.6248188 ] ] ] } },
{ "type": "Feature", "properties": { "hex_id": 1224, "count": 1, "date": "2025-11-30", "n_files": 21, "pct": 4.76 }, "geometry": { "type": "Polygon", "coordinates": [ [ [ -74.3878339, 45.1165596 ], [ -74.3875558, 45.1425438 ], [ -74.4192209, 45.1557021 ], [ -74.4511501, 45.1428672 ], [ -74.4513993, 45.1168826 ], [ -74.4197481, 45.1037333 ], [ -74.3878339, 45.1165596 ] ] ] } },
{ "type": "Feature", "properties": { "hex_id": 1287, "count": 1, "date": "2025-11-30", "n_files": 21, "pct": 4.76 }, "geometry": { "type": "Polygon", "coordinates": [ [ [ -74.3564895, 45.0774084 ], [ -74.3561977, 45.1033927 ], [ -74.3878339, 45.1165596 ], [ -74.4197481, 45.1037333 ], [ -74.4200111, 45.0777487 ], [ -74.3883888, 45.0645907 ], [ -74.3564895, 45.0774084 ] ] ] } },
{ "type": "Feature", "properties": { "hex_id": 1352, "count": 1, "date": "2025-11-30", "n_files": 21, "pct": 4.76 }, "geometry": { "type": "Polygon", "coordinates": [ [ [ -74.3242696, 45.1162012 ], [ -74.3239627, 45.1421851 ], [ -74.3556127, 45.1553609 ], [ -74.3875558, 45.1425438 ], [ -74.3878339, 45.1165596 ], [ -74.3561977, 45.1033927 ], [ -74.3242696, 45.1162012 ] ] ] } },
{ "type": "Feature", "properties": { "hex_id": 1415, "count": 1, "date": "2025-11-30", "n_files": 21, "pct": 4.76 }, "geometry": { "type": "Polygon", "coordinates": [ [ [ -74.2929691, 45.0770329 ], [ -74.2926484, 45.1030168 ], [ -74.3242696, 45.1162012 ], [ -74.3561977, 45.1033927 ], [ -74.3564895, 45.0774084 ], [ -74.3248821, 45.064233 ], [ -74.2929691, 45.0770329 ] ] ] } },
{ "type": "Feature", "properties": { "hex_id": 1416, "count": 1, "date": "2025-11-30", "n_files": 21, "pct": 4.76 }, "geometry": { "type": "Polygon", "coordinates": [ [ [ -74.2920058, 45.1549843 ], [ -74.2916838, 45.1809679 ], [ -74.3233477, 45.194152599999988 ], [ -74.3553197, 45.1813448 ], [ -74.3556127, 45.1553609 ], [ -74.3239627, 45.1421851 ], [ -74.2920058, 45.1549843 ] ] ] } },
{ "type": "Feature", "properties": { "hex_id": 1480, "count": 1, "date": "2025-11-30", "n_files": 21, "pct": 4.76 }, "geometry": { "type": "Polygon", "coordinates": [ [ [ -74.2607066, 45.1158074 ], [ -74.2603708, 45.141791 ], [ -74.2920058, 45.1549843 ], [ -74.3239627, 45.1421851 ], [ -74.3242696, 45.1162012 ], [ -74.2926484, 45.1030168 ], [ -74.2607066, 45.1158074 ] ] ] } },
{ "type": "Feature", "properties": { "hex_id": 1543, "count": 1, "date": "2025-11-30", "n_files": 21, "pct": 4.76 }, "geometry": { "type": "Polygon", "coordinates": [ [ [ -74.22945, 45.0766219 ], [ -74.2291005, 45.1026055 ], [ -74.2607066, 45.1158074 ], [ -74.2926484, 45.1030168 ], [ -74.2929691, 45.0770329 ], [ -74.2613767, 45.0638399 ], [ -74.22945, 45.0766219 ] ] ] } },
{ "type": "Feature", "properties": { "hex_id": 1544, "count": 1, "date": "2025-11-30", "n_files": 21, "pct": 4.76 }, "geometry": { "type": "Polygon", "coordinates": [ [ [ -74.2284001, 45.1545723 ], [ -74.2280493, 45.1805555 ], [ -74.259698, 45.1937577 ], [ -74.2916838, 45.1809679 ], [ -74.2920058, 45.1549843 ], [ -74.2603708, 45.141791 ], [ -74.2284001, 45.1545723 ] ] ] } },
{ "type": "Feature", "properties": { "hex_id": 1608, "count": 1, "date": "2025-11-30", "n_files": 21, "pct": 4.76 }, "geometry": { "type": "Polygon", "coordinates": [ [ [ -74.1971449, 45.115378199999988 ], [ -74.1967803, 45.1413614 ], [ -74.2284001, 45.1545723 ], [ -74.2603708, 45.141791 ], [ -74.2607066, 45.1158074 ], [ -74.2291005, 45.1026055 ], [ -74.1971449, 45.115378199999988 ] ] ] } },
{ "type": "Feature", "properties": { "hex_id": 1609, "count": 1, "date": "2025-11-30", "n_files": 21, "pct": 4.76 }, "geometry": { "type": "Polygon", "coordinates": [ [ [ -74.1960496, 45.1933274 ], [ -74.195683500000015, 45.2193102 ], [ -74.227346, 45.2325215 ], [ -74.2593609, 45.2197409 ], [ -74.259698, 45.1937577 ], [ -74.2280493, 45.1805555 ], [ -74.1960496, 45.1933274 ] ] ] } },
{ "type": "Feature", "properties": { "hex_id": 1671, "count": 1, "date": "2025-11-30", "n_files": 21, "pct": 4.76 }, "geometry": { "type": "Polygon", "coordinates": [ [ [ -74.1659323, 45.0761757 ], [ -74.165554, 45.1021589 ], [ -74.1971449, 45.115378199999988 ], [ -74.2291005, 45.1026055 ], [ -74.22945, 45.0766219 ], [ -74.1978727, 45.0634115 ], [ -74.1659323, 45.0761757 ] ] ] } },
{ "type": "Feature", "properties": { "hex_id": 1672, "count": 1, "date": "2025-11-30", "n_files": 21, "pct": 4.76 }, "geometry": { "type": "Polygon", "coordinates": [ [ [ -74.1647959, 45.1541248 ], [ -74.1644161, 45.1801076 ], [ -74.1960496, 45.1933274 ], [ -74.2280493, 45.1805555 ], [ -74.2284001, 45.1545723 ], [ -74.1967803, 45.1413614 ], [ -74.1647959, 45.1541248 ] ] ] } },
{ "type": "Feature", "properties": { "hex_id": 1736, "count": 1, "date": "2025-11-30", "n_files": 21, "pct": 4.76 }, "geometry": { "type": "Polygon", "coordinates": [ [ [ -74.1335848, 45.1149137 ], [ -74.1331913, 45.1408965 ], [ -74.1647959, 45.1541248 ], [ -74.1967803, 45.1413614 ], [ -74.1971449, 45.115378199999988 ], [ -74.165554, 45.1021589 ], [ -74.1335848, 45.1149137 ] ] ] } },
{ "type": "Feature", "properties": { "hex_id": 1737, "count": 1, "date": "2025-11-30", "n_files": 21, "pct": 4.76 }, "geometry": { "type": "Polygon", "coordinates": [ [ [ -74.1324028, 45.1928616 ], [ -74.1320077, 45.218844 ], [ -74.1636549, 45.2320728 ], [ -74.195683500000015, 45.2193102 ], [ -74.1960496, 45.1933274 ], [ -74.1644161, 45.1801076 ], [ -74.1324028, 45.1928616 ] ] ] } },
{ "type": "Feature", "properties": { "hex_id": 1809, "count": 1, "date": "2025-11-30", "n_files": 21, "pct": 4.76 }, "geometry": { "type": "Polygon", "coordinates": [ [ [ -74.0899597, 45.855123 ], [ -74.0895356, 45.881102 ], [ -74.1215443, 45.8943438 ], [ -74.153963, 45.881597199999987 ], [ -74.154357, 45.8556177 ], [ -74.1223625, 45.8423852 ], [ -74.0899597, 45.855123 ] ] ] } },
{ "type": "Feature", "properties": { "hex_id": 1873, "count": 1, "date": "2025-11-30", "n_files": 21, "pct": 4.76 }, "geometry": { "type": "Polygon", "coordinates": [ [ [ -74.0584191, 45.8158935 ], [ -74.057981, 45.8418725 ], [ -74.0899597, 45.855123 ], [ -74.1223625, 45.8423852 ], [ -74.1227707, 45.8164057 ], [ -74.0908061, 45.8031644 ], [ -74.0584191, 45.8158935 ] ] ] } },
{ "type": "Feature", "properties": { "hex_id": 1874, "count": 1, "date": "2025-11-30", "n_files": 21, "pct": 4.76 }, "geometry": { "type": "Polygon", "coordinates": [ [ [ -74.0571028, 45.8938302 ], [ -74.0566628, 45.9198088 ], [ -74.0886857, 45.9330598 ], [ -74.1211344, 45.9203229 ], [ -74.1215443, 45.8943438 ], [ -74.0895356, 45.881102 ], [ -74.0571028, 45.8938302 ] ] ] } },
{ "type": "Feature", "properties": { "hex_id": 1936, "count": 1, "date": "2025-11-30", "n_files": 21, "pct": 4.76 }, "geometry": { "type": "Polygon", "coordinates": [ [ [ -74.0269226, 45.7766554 ], [ -74.0264704, 45.8026344 ], [ -74.0584191, 45.8158935 ], [ -74.0908061, 45.8031644 ], [ -74.0912284, 45.777185 ], [ -74.0592937, 45.7639351 ], [ -74.0269226, 45.7766554 ] ] ] } },
{ "type": "Feature", "properties": { "hex_id": 1937, "count": 1, "date": "2025-11-30", "n_files": 21, "pct": 4.76 }, "geometry": { "type": "Polygon", "coordinates": [ [ [ -74.0255641, 45.8545919 ], [ -74.02511, 45.8805705 ], [ -74.0571028, 45.8938302 ], [ -74.0895356, 45.881102 ], [ -74.0899597, 45.855123 ], [ -74.057981, 45.8418725 ], [ -74.0255641, 45.8545919 ] ] ] } },
{ "type": "Feature", "properties": { "hex_id": 2001, "count": 3, "date": "2025-11-30", "n_files": 21, "pct": 14.29 }, "geometry": { "type": "Polygon", "coordinates": [ [ [ -73.9940694, 45.815345 ], [ -73.9936013, 45.8413236 ], [ -74.0255641, 45.8545919 ], [ -74.057981, 45.8418725 ], [ -74.0584191, 45.8158935 ], [ -74.0264704, 45.8026344 ], [ -73.9940694, 45.815345 ] ] ] } },
{ "type": "Feature", "properties": { "hex_id": 2002, "count": 1, "date": "2025-11-30", "n_files": 21, "pct": 4.76 }, "geometry": { "type": "Polygon", "coordinates": [ [ [ -73.9926631, 45.8932803 ], [ -73.9921931, 45.9192584 ], [ -74.0242, 45.9325273 ], [ -74.0566628, 45.9198088 ], [ -74.0571028, 45.8938302 ], [ -74.02511, 45.8805705 ], [ -73.9926631, 45.8932803 ] ] ] } },
{ "type": "Feature", "properties": { "hex_id": 2064, "count": 4, "date": "2025-11-30", "n_files": 21, "pct": 19.05 }, "geometry": { "type": "Polygon", "coordinates": [ [ [ -73.9626186, 45.7760896 ], [ -73.9621365, 45.8020681 ], [ -73.9940694, 45.815345 ], [ -74.0264704, 45.8026344 ], [ -74.0269226, 45.7766554 ], [ -73.9950037, 45.7633876 ], [ -73.9626186, 45.7760896 ] ] ] } },
{ "type": "Feature", "properties": { "hex_id": 2065, "count": 1, "date": "2025-11-30", "n_files": 21, "pct": 4.76 }, "geometry": { "type": "Polygon", "coordinates": [ [ [ -73.9611703, 45.8540246 ], [ -73.9606863, 45.8800027 ], [ -73.9926631, 45.8932803 ], [ -74.02511, 45.8805705 ], [ -74.0255641, 45.8545919 ], [ -73.9936013, 45.8413236 ], [ -73.9611703, 45.8540246 ] ] ] } },
{ "type": "Feature", "properties": { "hex_id": 2129, "count": 5, "date": "2025-11-30", "n_files": 21, "pct": 23.81 }, "geometry": { "type": "Polygon", "coordinates": [ [ [ -73.9297215, 45.8147604 ], [ -73.9292235, 45.8407384 ], [ -73.9611703, 45.8540246 ], [ -73.9936013, 45.8413236 ], [ -73.9940694, 45.815345 ], [ -73.9621365, 45.8020681 ], [ -73.9297215, 45.8147604 ] ] ] } },
{ "type": "Feature", "properties": { "hex_id": 2510, "count": 8, "date": "2025-11-30", "n_files": 21, "pct": 38.1 }, "geometry": { "type": "Polygon", "coordinates": [ [ [ -73.7419449, 45.5789974 ], [ -73.7413643, 45.6049747 ], [ -73.7731325, 45.6183122 ], [ -73.8054678, 45.6056631 ], [ -73.8060188, 45.5796851 ], [ -73.7742642, 45.5663569 ], [ -73.7419449, 45.5789974 ] ] ] } },
{ "type": "Feature", "properties": { "hex_id": 2696, "count": 1, "date": "2025-11-30", "n_files": 21, "pct": 4.76 }, "geometry": { "type": "Polygon", "coordinates": [ [ [ -73.6560279, 45.1492704 ], [ -73.6554168, 45.1752489 ], [ -73.6869266, 45.1886083 ], [ -73.7190342, 45.1759802 ], [ -73.7196164, 45.1500012 ], [ -73.6881198, 45.1366508 ], [ -73.6560279, 45.1492704 ] ] ] } },
{ "type": "Feature", "properties": { "hex_id": 2697, "count": 1, "date": "2025-11-30", "n_files": 21, "pct": 4.76 }, "geometry": { "type": "Polygon", "coordinates": [ [ [ -73.6541923, 45.2272053 ], [ -73.6535787, 45.2531834 ], [ -73.6851308, 45.2665436 ], [ -73.717283, 45.2539167 ], [ -73.7178676, 45.227938 ], [ -73.6863288, 45.2145869 ], [ -73.6541923, 45.2272053 ] ] ] } },
{ "type": "Feature", "properties": { "hex_id": 2703, "count": 1, "date": "2025-11-30", "n_files": 21, "pct": 4.76 }, "geometry": { "type": "Polygon", "coordinates": [ [ [ -73.6430196, 45.694791 ], [ -73.6423908, 45.7207668 ], [ -73.6741999, 45.734132 ], [ -73.7066241, 45.7215121 ], [ -73.7072232, 45.6955356 ], [ -73.6754277, 45.6821797 ], [ -73.6430196, 45.694791 ] ] ] } },
{ "type": "Feature", "properties": { "hex_id": 2761, "count": 1, "date": "2025-11-30", "n_files": 21, "pct": 4.76 }, "geometry": { "type": "Polygon", "coordinates": [ [ [ -73.623296, 45.1878589 ], [ -73.6226692, 45.2138368 ], [ -73.6541923, 45.2272053 ], [ -73.6863288, 45.2145869 ], [ -73.6869266, 45.1886083 ], [ -73.6554168, 45.1752489 ], [ -73.623296, 45.1878589 ] ] ] } },
{ "type": "Feature", "properties": { "hex_id": 2762, "count": 1, "date": "2025-11-30", "n_files": 21, "pct": 4.76 }, "geometry": { "type": "Polygon", "coordinates": [ [ [ -73.6214131, 45.2657922 ], [ -73.6207838, 45.2917697 ], [ -73.6523491, 45.3051391 ], [ -73.6845305, 45.292521799999989 ], [ -73.6851308, 45.2665436 ], [ -73.6535787, 45.2531834 ], [ -73.6214131, 45.2657922 ] ] ] } },
{ "type": "Feature", "properties": { "hex_id": 2765, "count": 6, "date": "2025-11-30", "n_files": 21, "pct": 28.57 }, "geometry": { "type": "Polygon", "coordinates": [ [ [ -73.6157183, 45.4995853 ], [ -73.6150812, 45.5255617 ], [ -73.6467744, 45.5389336 ], [ -73.6790912, 45.5263199 ], [ -73.6796989, 45.5003429 ], [ -73.6480191, 45.4869801 ], [ -73.6157183, 45.4995853 ] ] ] } },
{ "type": "Feature", "properties": { "hex_id": 2767, "count": 1, "date": "2025-11-30", "n_files": 21, "pct": 4.76 }, "geometry": { "type": "Polygon", "coordinates": [ [ [ -73.6118826, 45.6554417 ], [ -73.6112403, 45.6814173 ], [ -73.6430196, 45.694791 ], [ -73.6754277, 45.6821797 ], [ -73.6760404, 45.6562034 ], [ -73.6442746, 45.642839 ], [ -73.6118826, 45.6554417 ] ] ] } },
{ "type": "Feature", "properties": { "hex_id": 2773, "count": 1, "date": "2025-11-30", "n_files": 21, "pct": 4.76 }, "geometry": { "type": "Polygon", "coordinates": [ [ [ -73.6001848, 46.1229838 ], [ -73.5995264, 46.1489572 ], [ -73.6315684, 46.162336 ], [ -73.6642549, 46.149732 ], [ -73.6648828, 46.1237579 ], [ -73.6328548, 46.1103886 ], [ -73.6001848, 46.1229838 ] ] ] } },
{ "type": "Feature", "properties": { "hex_id": 2824, "count": 1, "date": "2025-11-30", "n_files": 21, "pct": 4.76 }, "geometry": { "type": "Polygon", "coordinates": [ [ [ -73.5924418, 45.1485043 ], [ -73.5918019, 45.1744821 ], [ -73.623296, 45.1878589 ], [ -73.6554168, 45.1752489 ], [ -73.6560279, 45.1492704 ], [ -73.6245469, 45.1359027 ], [ -73.5924418, 45.1485043 ] ] ] } },
{ "type": "Feature", "properties": { "hex_id": 2825, "count": 1, "date": "2025-11-30", "n_files": 21, "pct": 4.76 }, "geometry": { "type": "Polygon", "coordinates": [ [ [ -73.5905194, 45.2264372 ], [ -73.5898769, 45.2524145 ], [ -73.6214131, 45.2657922 ], [ -73.6535787, 45.2531834 ], [ -73.6541923, 45.2272053 ], [ -73.6226692, 45.2138368 ], [ -73.5905194, 45.2264372 ] ] ] } },
{ "type": "Feature", "properties": { "hex_id": 2831, "count": 1, "date": "2025-11-30", "n_files": 21, "pct": 4.76 }, "geometry": { "type": "Polygon", "coordinates": [ [ [ -73.5788186, 45.6940102 ], [ -73.5781601, 45.7199853 ], [ -73.609953, 45.7333682 ], [ -73.6423908, 45.7207668 ], [ -73.6430196, 45.694791 ], [ -73.6112403, 45.6814173 ], [ -73.5788186, 45.6940102 ] ] ] } },
{ "type": "Feature", "properties": { "hex_id": 2837, "count": 1, "date": "2025-11-30", "n_files": 21, "pct": 4.76 }, "geometry": { "type": "Polygon", "coordinates": [ [ [ -73.566826, 46.1615425 ], [ -73.566151, 46.1875153 ], [ -73.5982069, 46.2009035 ], [ -73.6309238, 46.1883095 ], [ -73.6315684, 46.162336 ], [ -73.5995264, 46.1489572 ], [ -73.566826, 46.1615425 ] ] ] } },
{ "type": "Feature", "properties": { "hex_id": 2889, "count": 1, "date": "2025-11-30", "n_files": 21, "pct": 4.76 }, "geometry": { "type": "Polygon", "coordinates": [ [ [ -73.5596679, 45.187074 ], [ -73.5590122, 45.2130512 ], [ -73.5905194, 45.2264372 ], [ -73.6226692, 45.2138368 ], [ -73.623296, 45.1878589 ], [ -73.5918019, 45.1744821 ], [ -73.5596679, 45.187074 ] ] ] } },
{ "type": "Feature", "properties": { "hex_id": 2890, "count": 1, "date": "2025-11-30", "n_files": 21, "pct": 4.76 }, "geometry": { "type": "Polygon", "coordinates": [ [ [ -73.5576981, 45.2650052 ], [ -73.5570397, 45.290982 ], [ -73.5885892, 45.3043688 ], [ -73.6207838, 45.2917697 ], [ -73.6214131, 45.2657922 ], [ -73.5898769, 45.2524145 ], [ -73.5576981, 45.2650052 ] ] ] } },
{ "type": "Feature", "properties": { "hex_id": 2895, "count": 1, "date": "2025-11-30", "n_files": 21, "pct": 4.76 }, "geometry": { "type": "Polygon", "coordinates": [ [ [ -73.5477275, 45.654644 ], [ -73.5470555, 45.6806189 ], [ -73.5788186, 45.6940102 ], [ -73.6112403, 45.6814173 ], [ -73.6118826, 45.6554417 ], [ -73.580133, 45.6420597 ], [ -73.5477275, 45.654644 ] ] ] } },
{ "type": "Feature", "properties": { "hex_id": 2901, "count": 1, "date": "2025-11-30", "n_files": 21, "pct": 4.76 }, "geometry": { "type": "Polygon", "coordinates": [ [ [ -73.5354895, 46.1221731 ], [ -73.5348007, 46.1481457 ], [ -73.566826, 46.1615425 ], [ -73.5995264, 46.1489572 ], [ -73.6001848, 46.1229838 ], [ -73.5681732, 46.1095965 ], [ -73.5354895, 46.1221731 ] ] ] } },
{ "type": "Feature", "properties": { "hex_id": 2952, "count": 1, "date": "2025-11-30", "n_files": 21, "pct": 4.76 }, "geometry": { "type": "Polygon", "coordinates": [ [ [ -73.5288584, 45.1477029 ], [ -73.5281896, 45.1736799 ], [ -73.5596679, 45.187074 ], [ -73.5918019, 45.1744821 ], [ -73.5924418, 45.1485043 ], [ -73.5609766, 45.1351193 ], [ -73.5288584, 45.1477029 ] ] ] } },
{ "type": "Feature", "properties": { "hex_id": 2953, "count": 1, "date": "2025-11-30", "n_files": 21, "pct": 4.76 }, "geometry": { "type": "Polygon", "coordinates": [ [ [ -73.5268492, 45.2256335 ], [ -73.5261777, 45.2516101 ], [ -73.5576981, 45.2650052 ], [ -73.5898769, 45.2524145 ], [ -73.5905194, 45.2264372 ], [ -73.5590122, 45.2130512 ], [ -73.5268492, 45.2256335 ] ] ] } },
{ "type": "Feature", "properties": { "hex_id": 2957, "count": 2, "date": "2025-11-30", "n_files": 21, "pct": 9.52 }, "geometry": { "type": "Polygon", "coordinates": [ [ [ -73.5187301, 45.5373447 ], [ -73.5180475, 45.5633198 ], [ -73.549738, 45.5767185 ], [ -73.5820977, 45.5641329 ], [ -73.5827509, 45.5381571 ], [ -73.5510737, 45.5247676 ], [ -73.5187301, 45.5373447 ] ] ] } },
{ "type": "Feature", "properties": { "hex_id": 2959, "count": 1, "date": "2025-11-30", "n_files": 21, "pct": 4.76 }, "geometry": { "type": "Polygon", "coordinates": [ [ [ -73.5146203, 45.6931934 ], [ -73.5139321, 45.7191678 ], [ -73.5457087, 45.7325684 ], [ -73.5781601, 45.7199853 ], [ -73.5788186, 45.6940102 ], [ -73.5470555, 45.6806189 ], [ -73.5146203, 45.6931934 ] ] ] } },
{ "type": "Feature", "properties": { "hex_id": 3017, "count": 1, "date": "2025-11-30", "n_files": 21, "pct": 4.76 }, "geometry": { "type": "Polygon", "coordinates": [ [ [ -73.4960425, 45.1862538 ], [ -73.4953578, 45.2122302 ], [ -73.5268492, 45.2256335 ], [ -73.5590122, 45.2130512 ], [ -73.5596679, 45.187074 ], [ -73.5281896, 45.1736799 ], [ -73.4960425, 45.1862538 ] ] ] } },
{ "type": "Feature", "properties": { "hex_id": 3021, "count": 1, "date": "2025-11-30", "n_files": 21, "pct": 4.76 }, "geometry": { "type": "Polygon", "coordinates": [ [ [ -73.4877649, 45.4979627 ], [ -73.487069, 45.5239376 ], [ -73.5187301, 45.5373447 ], [ -73.5510737, 45.5247676 ], [ -73.5517402, 45.4987919 ], [ -73.5200925, 45.4853941 ], [ -73.4877649, 45.4979627 ] ] ] } },
{ "type": "Feature", "properties": { "hex_id": 3022, "count": 3, "date": "2025-11-30", "n_files": 21, "pct": 14.29 }, "geometry": { "type": "Polygon", "coordinates": [ [ [ -73.4856743, 45.5758871 ], [ -73.4849755, 45.6018616 ], [ -73.5166794, 45.6152696 ], [ -73.5490687, 45.6026938 ], [ -73.549738, 45.5767185 ], [ -73.5180475, 45.5633198 ], [ -73.4856743, 45.5758871 ] ] ] } },
{ "type": "Feature", "properties": { "hex_id": 3023, "count": 1, "date": "2025-11-30", "n_files": 21, "pct": 4.76 }, "geometry": { "type": "Polygon", "coordinates": [ [ [ -73.4835751, 45.6538103 ], [ -73.4828734, 45.6797845 ], [ -73.5146203, 45.6931934 ], [ -73.5470555, 45.6806189 ], [ -73.5477275, 45.654644 ], [ -73.515994, 45.6412444 ], [ -73.4835751, 45.6538103 ] ] ] } },
{ "type": "Feature", "properties": { "hex_id": 3085, "count": 5, "date": "2025-11-30", "n_files": 21, "pct": 23.81 }, "geometry": { "type": "Polygon", "coordinates": [ [ [ -73.454712, 45.5364964 ], [ -73.454, 45.5624708 ], [ -73.4856743, 45.5758871 ], [ -73.5180475, 45.5633198 ], [ -73.5187301, 45.5373447 ], [ -73.487069, 45.5239376 ], [ -73.454712, 45.5364964 ] ] ] } },
{ "type": "Feature", "properties": { "hex_id": 3086, "count": 4, "date": "2025-11-30", "n_files": 21, "pct": 19.05 }, "geometry": { "type": "Polygon", "coordinates": [ [ [ -73.4525729, 45.6144191 ], [ -73.4518578, 45.640393 ], [ -73.4835751, 45.6538103 ], [ -73.515994, 45.6412444 ], [ -73.5166794, 45.6152696 ], [ -73.4849755, 45.6018616 ], [ -73.4525729, 45.6144191 ] ] ] } },
{ "type": "Feature", "properties": { "hex_id": 3150, "count": 6, "date": "2025-11-30", "n_files": 21, "pct": 28.57 }, "geometry": { "type": "Polygon", "coordinates": [ [ [ -73.4216135, 45.5750197 ], [ -73.4208852, 45.6009935 ], [ -73.4525729, 45.6144191 ], [ -73.4849755, 45.6018616 ], [ -73.4856743, 45.5758871 ], [ -73.454, 45.5624708 ], [ -73.4216135, 45.5750197 ] ] ] } },
{ "type": "Feature", "properties": { "hex_id": 3214, "count": 5, "date": "2025-11-30", "n_files": 21, "pct": 23.81 }, "geometry": { "type": "Polygon", "coordinates": [ [ [ -73.3884692, 45.6135326 ], [ -73.3877246, 45.6395057 ], [ -73.419425600000011, 45.6529406 ], [ -73.4518578, 45.640393 ], [ -73.4525729, 45.6144191 ], [ -73.4208852, 45.6009935 ], [ -73.3884692, 45.6135326 ] ] ] } },
{ "type": "Feature", "properties": { "hex_id": 3279, "count": 5, "date": "2025-11-30", "n_files": 21, "pct": 23.81 }, "geometry": { "type": "Polygon", "coordinates": [ [ [ -73.3552791, 45.6520349 ], [ -73.3545181, 45.6780075 ], [ -73.3862323, 45.6914517 ], [ -73.4186943, 45.678914 ], [ -73.419425600000011, 45.6529406 ], [ -73.3877246, 45.6395057 ], [ -73.3552791, 45.6520349 ] ] ] } },
{ "type": "Feature", "properties": { "hex_id": 3342, "count": 5, "date": "2025-11-30", "n_files": 21, "pct": 23.81 }, "geometry": { "type": "Polygon", "coordinates": [ [ [ -73.3243686, 45.6126101 ], [ -73.3235945, 45.6385824 ], [ -73.3552791, 45.6520349 ], [ -73.3877246, 45.6395057 ], [ -73.3884692, 45.6135326 ], [ -73.3567979, 45.600089399999987 ], [ -73.3243686, 45.6126101 ] ] ] } },
{ "type": "Feature", "properties": { "hex_id": 4679, "count": 1, "date": "2025-11-30", "n_files": 21, "pct": 4.76 }, "geometry": { "type": "Polygon", "coordinates": [ [ [ -72.6755409, 45.016581 ], [ -72.6744891, 45.0425457 ], [ -72.7056875, 45.056170099999989 ], [ -72.7379254, 45.0438205 ], [ -72.7389485, 45.0178546 ], [ -72.7077623, 45.004239399999989 ], [ -72.6755409, 45.016581 ] ] ] } },
{ "type": "Feature", "properties": { "hex_id": 4743, "count": 1, "date": "2025-11-30", "n_files": 21, "pct": 4.76 }, "geometry": { "type": "Polygon", "coordinates": [ [ [ -72.6422391, 45.0548772 ], [ -72.6411708, 45.0808411 ], [ -72.6723814, 45.0944748 ], [ -72.7046479, 45.0821353 ], [ -72.7056875, 45.056170099999989 ], [ -72.6744891, 45.0425457 ], [ -72.6422391, 45.0548772 ] ] ] } },
{ "type": "Feature", "properties": { "hex_id": 4807, "count": 1, "date": "2025-11-30", "n_files": 21, "pct": 4.76 }, "geometry": { "type": "Polygon", "coordinates": [ [ [ -72.6121376, 45.0152722 ], [ -72.6110572, 45.0412357 ], [ -72.6422391, 45.0548772 ], [ -72.6744891, 45.0425457 ], [ -72.6755409, 45.016581 ], [ -72.6443712, 45.0029488 ], [ -72.6121376, 45.0152722 ] ] ] } },
{ "type": "Feature", "properties": { "hex_id": 6646, "count": 3, "date": "2025-11-30", "n_files": 21, "pct": 14.29 }, "geometry": { "type": "Polygon", "coordinates": [ [ [ -71.494821, 48.6497521 ], [ -71.4930209, 48.675673 ], [ -71.5260257, 48.6896621 ], [ -71.5608171, 48.6777194 ], [ -71.5625826, 48.6517966 ], [ -71.5295913, 48.6378183 ], [ -71.494821, 48.6497521 ] ] ] } },
{ "type": "Feature", "properties": { "hex_id": 6710, "count": 3, "date": "2025-11-30", "n_files": 21, "pct": 14.29 }, "geometry": { "type": "Polygon", "coordinates": [ [ [ -71.4582159, 48.6875948 ], [ -71.4563946, 48.7135146 ], [ -71.489413, 48.7275145 ], [ -71.5242391, 48.7155837 ], [ -71.5260257, 48.6896621 ], [ -71.4930209, 48.675673 ], [ -71.4582159, 48.6875948 ] ] ] } },
{ "type": "Feature", "properties": { "hex_id": 6774, "count": 3, "date": "2025-11-30", "n_files": 21, "pct": 14.29 }, "geometry": { "type": "Polygon", "coordinates": [ [ [ -71.427067, 48.6476677 ], [ -71.4252323, 48.6735868 ], [ -71.4582159, 48.6875948 ], [ -71.4930209, 48.675673 ], [ -71.494821, 48.6497521 ], [ -71.4618508, 48.6357548 ], [ -71.427067, 48.6476677 ] ] ] } },
{ "type": "Feature", "properties": { "hex_id": 7134, "count": 1, "date": "2025-11-30", "n_files": 21, "pct": 4.76 }, "geometry": { "type": "Polygon", "coordinates": [ [ [ -71.3564796, 46.7749724 ], [ -71.3547275, 46.8008979 ], [ -71.386555, 46.8148992 ], [ -71.4201226, 46.8029647 ], [ -71.4218435, 46.7770373 ], [ -71.390028, 46.7630462 ], [ -71.3564796, 46.7749724 ] ] ] } },
{ "type": "Feature", "properties": { "hex_id": 7262, "count": 1, "date": "2025-11-30", "n_files": 21, "pct": 4.76 }, "geometry": { "type": "Polygon", "coordinates": [ [ [ -71.291123, 46.7728702 ], [ -71.2893396, 46.7987938 ], [ -71.3211478, 46.8128128 ], [ -71.3547275, 46.8008979 ], [ -71.3564796, 46.7749724 ], [ -71.3246833, 46.7609636 ], [ -71.291123, 46.7728702 ] ] ] } },
{ "type": "Feature", "properties": { "hex_id": 8271, "count": 1, "date": "2025-11-30", "n_files": 21, "pct": 4.76 }, "geometry": { "type": "Polygon", "coordinates": [ [ [ -70.8571931, 45.5886938 ], [ -70.855282, 45.6146093 ], [ -70.8863141, 45.6287254 ], [ -70.919246700000016, 45.616916 ], [ -70.9211285, 45.5909984 ], [ -70.8901071, 45.5768922 ], [ -70.8571931, 45.5886938 ] ] ] } },
{ "type": "Feature", "properties": { "hex_id": 8334, "count": 1, "date": "2025-11-30", "n_files": 21, "pct": 4.76 }, "geometry": { "type": "Polygon", "coordinates": [ [ [ -70.828112, 45.548656 ], [ -70.8261902, 45.5745707 ], [ -70.8571931, 45.5886938 ], [ -70.8901071, 45.5768922 ], [ -70.8919997, 45.5509753 ], [ -70.8610075, 45.5368621 ], [ -70.828112, 45.548656 ] ] ] } },
{ "type": "Feature", "properties": { "hex_id": 8343, "count": 2, "date": "2025-11-30", "n_files": 21, "pct": 9.52 }, "geometry": { "type": "Polygon", "coordinates": [ [ [ -70.7752898, 46.2482906 ], [ -70.7732956, 46.2742005 ], [ -70.8046646, 46.2883497 ], [ -70.8380168, 46.276579 ], [ -70.8399806, 46.250667 ], [ -70.8086227, 46.2365279 ], [ -70.7752898, 46.2482906 ] ] ] } },
{ "type": "Feature", "properties": { "hex_id": 8408, "count": 2, "date": "2025-11-30", "n_files": 21, "pct": 9.52 }, "geometry": { "type": "Polygon", "coordinates": [ [ [ -70.7399324, 46.2859518 ], [ -70.7379189, 46.3118603 ], [ -70.769299, 46.326019599999988 ], [ -70.8026815, 46.3142603 ], [ -70.8046646, 46.2883497 ], [ -70.7732956, 46.2742005 ], [ -70.7399324, 46.2859518 ] ] ] } },
{ "type": "Feature", "properties": { "hex_id": 8471, "count": 2, "date": "2025-11-30", "n_files": 21, "pct": 9.52 }, "geometry": { "type": "Polygon", "coordinates": [ [ [ -70.7106072, 46.2458778 ], [ -70.7085827, 46.2717854 ], [ -70.7399324, 46.2859518 ], [ -70.7732956, 46.2742005 ], [ -70.7752898, 46.2482906 ], [ -70.7439511, 46.2341343 ], [ -70.7106072, 46.2458778 ] ] ] } },
{ "type": "Feature", "properties": { "hex_id": 8536, "count": 2, "date": "2025-11-30", "n_files": 21, "pct": 9.52 }, "geometry": { "type": "Polygon", "coordinates": [ [ [ -70.6752085, 46.2835174 ], [ -70.6731646, 46.3094237 ], [ -70.7045254, 46.3236002 ], [ -70.7379189, 46.3118603 ], [ -70.7399324, 46.2859518 ], [ -70.7085827, 46.2717854 ], [ -70.6752085, 46.2835174 ] ] ] } },
{ "type": "Feature", "properties": { "hex_id": 9379, "count": 1, "date": "2025-11-30", "n_files": 21, "pct": 4.76 }, "geometry": { "type": "Polygon", "coordinates": [ [ [ -70.1755912, 47.1599343 ], [ -70.1732409, 47.1858185 ], [ -70.2049548, 47.2001451 ], [ -70.2390079, 47.1885769 ], [ -70.2413265, 47.1626902 ], [ -70.2096236, 47.1483742 ], [ -70.1755912, 47.1599343 ] ] ] } },
{ "type": "Feature", "properties": { "hex_id": 9380, "count": 1, "date": "2025-11-30", "n_files": 21, "pct": 4.76 }, "geometry": { "type": "Polygon", "coordinates": [ [ [ -70.1685306, 47.2375863 ], [ -70.1661705, 47.2634699 ], [ -70.1979272, 47.2777998 ], [ -70.2320329, 47.2662357 ], [ -70.2343612, 47.2403496 ], [ -70.2026155, 47.2260302 ], [ -70.1685306, 47.2375863 ] ] ] } },
{ "type": "Feature", "properties": { "hex_id": 9444, "count": 1, "date": "2025-11-30", "n_files": 21, "pct": 4.76 }, "geometry": { "type": "Polygon", "coordinates": [ [ [ -70.1391768, 47.1973667 ], [ -70.1368058, 47.2232493 ], [ -70.1685306, 47.2375863 ], [ -70.2026155, 47.2260302 ], [ -70.2049548, 47.2001451 ], [ -70.1732409, 47.1858185 ], [ -70.1391768, 47.1973667 ] ] ] } }
]
}
