{
"type": "FeatureCollection",
"name": "daily_2026-01-20",
"crs": { "type": "name", "properties": { "name": "urn:ogc:def:crs:OGC:1.3:CRS84" } },
"features": [
{ "type": "Feature", "properties": { "hex_id": 548886, "centroid_lon": -73.836309155430286, "centroid_lat": 45.50176600906358, "occurrences_today": 6, "datetimes_today": "2026-01-20 08:14:08, 2026-01-20 08:16:43, 2026-01-20 08:31:42, 2026-01-20 08:47:01, 2026-01-20 08:56:22, 2026-01-20 09:01:52", "cumulative_total": 34.0 }, "geometry": { "type": "Polygon", "coordinates": [ [ [ -73.8364161924721, 45.496570273658726 ], [ -73.842761124865575, 45.49923315094739 ], [ -73.842654661528371, 45.504428895594543 ], [ -73.836202089155961, 45.506961739524897 ], [ -73.829856612295274, 45.504298495839635 ], [ -73.829964252264404, 45.499102774685149 ], [ -73.8364161924721, 45.496570273658726 ] ] ] } },
{ "type": "Feature", "properties": { "hex_id": 567219, "centroid_lon": -73.637574033471708, "centroid_lat": 45.780190613183358, "occurrences_today": 7, "datetimes_today": "2026-01-20 00:01:41, 2026-01-20 00:16:54, 2026-01-20 00:32:11, 2026-01-20 00:46:39, 2026-01-20 00:47:05, 2026-01-20 01:01:47, 2026-01-20 01:17:01", "cumulative_total": 84.0 }, "geometry": { "type": "Polygon", "coordinates": [ [ [ -73.637700569152926, 45.774995529985709 ], [ -73.644067030303503, 45.777669570145115 ], [ -73.643941074112291, 45.782864664619822 ], [ -73.637447463118036, 45.785385691363949 ], [ -73.631080457155775, 45.782711279395436 ], [ -73.631207606987743, 45.777516212557039 ], [ -73.637700569152926, 45.774995529985709 ] ] ] } },
{ "type": "Feature", "properties": { "hex_id": 567829, "centroid_lon": -73.631334721989731, "centroid_lat": 45.772321140699077, "occurrences_today": 7, "datetimes_today": "2026-01-20 00:01:41, 2026-01-20 00:16:54, 2026-01-20 00:32:11, 2026-01-20 00:46:39, 2026-01-20 00:47:05, 2026-01-20 01:01:47, 2026-01-20 01:17:01", "cumulative_total": 84.0 }, "geometry": { "type": "Polygon", "coordinates": [ [ [ -73.631461802173547, 45.7671260638216 ], [ -73.637827070173387, 45.769800441771082 ], [ -73.637700569152926, 45.774995529985709 ], [ -73.631207606987743, 45.777516212557039 ], [ -73.624841794648631, 45.77484146284052 ], [ -73.624969488802208, 45.769646402384843 ], [ -73.631461802173547, 45.7671260638216 ] ] ] } },
{ "type": "Feature", "properties": { "hex_id": 567830, "centroid_lon": -73.630953272482074, "centroid_lat": 45.787906341214182, "occurrences_today": 7, "datetimes_today": "2026-01-20 00:01:41, 2026-01-20 00:16:54, 2026-01-20 00:32:11, 2026-01-20 00:46:39, 2026-01-20 00:47:05, 2026-01-20 01:01:47, 2026-01-20 01:17:01", "cumulative_total": 84.0 }, "geometry": { "type": "Polygon", "coordinates": [ [ [ -73.631080457155775, 45.782711279395436 ], [ -73.637447463118036, 45.785385691363949 ], [ -73.637320858080187, 45.790580764527405 ], [ -73.630826052954873, 45.793101398013228 ], [ -73.624458502216171, 45.790426614074718 ], [ -73.62458630136743, 45.785231568685546 ], [ -73.631080457155775, 45.782711279395436 ] ] ] } },
{ "type": "Feature", "properties": { "hex_id": 568440, "centroid_lon": -73.624714065507646, "centroid_lat": 45.780036518274123, "occurrences_today": 7, "datetimes_today": "2026-01-20 00:01:41, 2026-01-20 00:16:54, 2026-01-20 00:32:11, 2026-01-20 00:46:39, 2026-01-20 00:47:05, 2026-01-20 01:01:47, 2026-01-20 01:17:01", "cumulative_total": 84.0 }, "geometry": { "type": "Polygon", "coordinates": [ [ [ -73.624841794648631, 45.77484146284052 ], [ -73.631207606987743, 45.777516212557039 ], [ -73.631080457155775, 45.782711279395436 ], [ -73.62458630136743, 45.785231568685546 ], [ -73.618219944724444, 45.782556447041159 ], [ -73.618348288161854, 45.777361408099658 ], [ -73.624841794648631, 45.77484146284052 ] ] ] } },
{ "type": "Feature", "properties": { "hex_id": 566604, "centroid_lon": -73.645701325232423, "centroid_lat": 45.710132885681524, "occurrences_today": 1, "datetimes_today": "2026-01-20 05:01:42", "cumulative_total": 7.0 }, "geometry": { "type": "Polygon", "coordinates": [ [ [ -73.64582679943716, 45.704937721010431 ], [ -73.652185775877939, 45.707611255202274 ], [ -73.652060879131312, 45.712806431052982 ], [ -73.64557581667556, 45.715328045339042 ], [ -73.639216297134595, 45.712654140309375 ], [ -73.639342383137944, 45.707458991896431 ], [ -73.64582679943716, 45.704937721010431 ] ] ] } },
{ "type": "Feature", "properties": { "hex_id": 550717, "centroid_lon": -73.817276254689901, "centroid_lat": 45.493775262779621, "occurrences_today": 6, "datetimes_today": "2026-01-20 08:14:08, 2026-01-20 08:16:43, 2026-01-20 08:31:42, 2026-01-20 08:47:01, 2026-01-20 08:56:22, 2026-01-20 09:01:52", "cumulative_total": 25.0 }, "geometry": { "type": "Polygon", "coordinates": [ [ [ -73.817385011852949, 45.488579555476036 ], [ -73.823728135975642, 45.491243475824646 ], [ -73.823619952020906, 45.496439192557688 ], [ -73.817167467827602, 45.498970965133282 ], [ -73.810823800200808, 45.496306678309082 ], [ -73.810933160261428, 45.491110985449403 ], [ -73.817385011852949, 45.488579555476036 ] ] ] } },
{ "type": "Feature", "properties": { "hex_id": 583091, "centroid_lon": -73.470828946758743, "centroid_lat": 45.762490402580575, "occurrences_today": 10, "datetimes_today": "2026-01-20 07:16:44, 2026-01-20 07:31:44, 2026-01-20 07:46:46, 2026-01-20 08:01:43, 2026-01-20 08:14:08, 2026-01-20 08:16:43, 2026-01-20 08:31:42, 2026-01-20 08:47:01, 2026-01-20 08:56:22, 2026-01-20 09:01:52", "cumulative_total": 11.0 }, "geometry": { "type": "Polygon", "coordinates": [ [ [ -73.470970877876624, 45.7572956853747 ], [ -73.477327137256381, 45.759978899584965 ], [ -73.477185782793555, 45.765173629717779 ], [ -73.470686976761186, 45.767685114699425 ], [ -73.464330179612617, 45.765001527348467 ], [ -73.464472726252083, 45.759806828221635 ], [ -73.470970877876624, 45.7572956853747 ] ] ] } },
{ "type": "Feature", "properties": { "hex_id": 547666, "centroid_lon": -73.848788904861237, "centroid_lat": 45.517482927015671, "occurrences_today": 8, "datetimes_today": "2026-01-20 07:46:46, 2026-01-20 08:01:43, 2026-01-20 08:14:08, 2026-01-20 08:16:43, 2026-01-20 08:31:42, 2026-01-20 08:47:01, 2026-01-20 08:56:22, 2026-01-20 09:01:52", "cumulative_total": 22.0 }, "geometry": { "type": "Polygon", "coordinates": [ [ [ -73.848894852180223, 45.512287183067315 ], [ -73.855242138363337, 45.514949382727558 ], [ -73.855136765391492, 45.520145135797534 ], [ -73.848682928601747, 45.522678666024632 ], [ -73.842335097016829, 45.5200160998873 ], [ -73.842441647613754, 45.514820370064541 ], [ -73.848894852180223, 45.512287183067315 ] ] ] } },
{ "type": "Feature", "properties": { "hex_id": 548275, "centroid_lon": -73.842867559135726, "centroid_lat": 45.494037401358874, "occurrences_today": 6, "datetimes_today": "2026-01-20 08:14:08, 2026-01-20 08:16:43, 2026-01-20 08:31:42, 2026-01-20 08:47:01, 2026-01-20 08:56:22, 2026-01-20 09:01:52", "cumulative_total": 20.0 }, "geometry": { "type": "Polygon", "coordinates": [ [ [ -73.842973964348573, 45.488841646829044 ], [ -73.84931835224549, 45.491504157880755 ], [ -73.849212520591379, 45.49669992158627 ], [ -73.842761124865575, 45.49923315094739 ], [ -73.8364161924721, 45.496570273658726 ], [ -73.836523200291239, 45.491374533310413 ], [ -73.842973964348573, 45.488841646829044 ] ] ] } },
{ "type": "Feature", "properties": { "hex_id": 548885, "centroid_lon": -73.836630178897465, "centroid_lat": 45.48617878801867, "occurrences_today": 6, "datetimes_today": "2026-01-20 08:14:08, 2026-01-20 08:16:43, 2026-01-20 08:31:42, 2026-01-20 08:47:01, 2026-01-20 08:56:22, 2026-01-20 09:01:52", "cumulative_total": 20.0 }, "geometry": { "type": "Polygon", "coordinates": [ [ [ -73.836737128300626, 45.480983037783538 ], [ -73.843080340513836, 45.483645887357952 ], [ -73.842973964348573, 45.488841646829044 ], [ -73.836523200291239, 45.491374533310413 ], [ -73.830179444048142, 45.48871131753927 ], [ -73.830286995882446, 45.483515581547991 ], [ -73.836737128300626, 45.480983037783538 ] ] ] } },
{ "type": "Feature", "properties": { "hex_id": 549496, "centroid_lon": -73.830071862845401, "centroid_lat": 45.493907048585001, "occurrences_today": 6, "datetimes_today": "2026-01-20 08:14:08, 2026-01-20 08:16:43, 2026-01-20 08:31:42, 2026-01-20 08:47:01, 2026-01-20 08:56:22, 2026-01-20 09:01:52", "cumulative_total": 20.0 }, "geometry": { "type": "Polygon", "coordinates": [ [ [ -73.830179444048142, 45.48871131753927 ], [ -73.836523200291239, 45.491374533310413 ], [ -73.8364161924721, 45.496570273658726 ], [ -73.829964252264404, 45.499102774685149 ], [ -73.823619952020906, 45.496439192557688 ], [ -73.823728135975642, 45.491243475824646 ], [ -73.830179444048142, 45.48871131753927 ] ] ] } },
{ "type": "Feature", "properties": { "hex_id": 569050, "centroid_lon": -73.618476596442591, "centroid_lat": 45.772166364133462, "occurrences_today": 7, "datetimes_today": "2026-01-20 00:01:41, 2026-01-20 00:16:54, 2026-01-20 00:32:11, 2026-01-20 00:46:39, 2026-01-20 00:47:05, 2026-01-20 01:01:47, 2026-01-20 01:17:01", "cumulative_total": 48.0 }, "geometry": { "type": "Polygon", "coordinates": [ [ [ -73.618604869578533, 45.766971315142598 ], [ -73.624969488802208, 45.769646402384843 ], [ -73.624841794648631, 45.77484146284052 ], [ -73.618348288161854, 45.777361408099658 ], [ -73.611983125106534, 45.774685948971708 ], [ -73.61211201235777, 45.769490916535474 ], [ -73.618604869578533, 45.766971315142598 ] ] ] } },
{ "type": "Feature", "properties": { "hex_id": 569051, "centroid_lon": -73.618091566118508, "centroid_lat": 45.787751480957873, "occurrences_today": 7, "datetimes_today": "2026-01-20 00:01:41, 2026-01-20 00:16:54, 2026-01-20 00:32:11, 2026-01-20 00:46:39, 2026-01-20 00:47:05, 2026-01-20 01:01:47, 2026-01-20 01:17:01", "cumulative_total": 48.0 }, "geometry": { "type": "Polygon", "coordinates": [ [ [ -73.618219944724444, 45.782556447041159 ], [ -73.62458630136743, 45.785231568685546 ], [ -73.624458502216171, 45.790426614074718 ], [ -73.617963152332109, 45.792946509849735 ], [ -73.611596251420835, 45.790271016116606 ], [ -73.611725244650017, 45.785075998762366 ], [ -73.618219944724444, 45.782556447041159 ] ] ] } },
{ "type": "Feature", "properties": { "hex_id": 473837, "centroid_lon": -74.618986124701934, "centroid_lat": 46.169612364442507, "occurrences_today": 22, "datetimes_today": "2026-01-20 00:01:41, 2026-01-20 00:16:54, 2026-01-20 00:32:11, 2026-01-20 00:46:39, 2026-01-20 00:47:05, 2026-01-20 01:01:47, 2026-01-20 01:17:01, 2026-01-20 01:31:36, 2026-01-20 01:47:00, 2026-01-20 01:56:32, 2026-01-20 02:01:48, 2026-01-20 02:16:51, 2026-01-20 02:31:55, 2026-01-20 02:40:57, 2026-01-20 02:47:15, 2026-01-20 03:01:54, 2026-01-20 03:16:39, 2026-01-20 03:31:44, 2026-01-20 03:47:00, 2026-01-20 03:51:11, 2026-01-20 04:01:59, 2026-01-20 04:16:57", "cumulative_total": 89.0 }, "geometry": { "type": "Polygon", "coordinates": [ [ [ -74.619021998322793, 46.164416280691547 ], [ -74.625480690048803, 46.167035725292088 ], [ -74.62544542135997, 46.172231810519406 ], [ -74.618950241200508, 46.17480844342743 ], [ -74.6124909544247, 46.172188631551329 ], [ -74.612527442854798, 46.166992554108958 ], [ -74.619021998322793, 46.164416280691547 ] ] ] } },
{ "type": "Feature", "properties": { "hex_id": 473838, "centroid_lon": -74.61887844454246, "centroid_lat": 46.185200587099288, "occurrences_today": 22, "datetimes_today": "2026-01-20 00:01:41, 2026-01-20 00:16:54, 2026-01-20 00:32:11, 2026-01-20 00:46:39, 2026-01-20 00:47:05, 2026-01-20 01:01:47, 2026-01-20 01:17:01, 2026-01-20 01:31:36, 2026-01-20 01:47:00, 2026-01-20 01:56:32, 2026-01-20 02:01:48, 2026-01-20 02:16:51, 2026-01-20 02:31:55, 2026-01-20 02:40:57, 2026-01-20 02:47:15, 2026-01-20 03:01:54, 2026-01-20 03:16:39, 2026-01-20 03:31:44, 2026-01-20 03:47:00, 2026-01-20 03:51:11, 2026-01-20 04:01:59, 2026-01-20 04:16:57", "cumulative_total": 79.0 }, "geometry": { "type": "Polygon", "coordinates": [ [ [ -74.618914347815135, 46.180004517646346 ], [ -74.625374854836139, 46.1826239666782 ], [ -74.625339556994504, 46.187820037609725 ], [ -74.618842531379087, 46.190396651786287 ], [ -74.612381428819418, 46.187776835278058 ], [ -74.612417947410464, 46.182580772135857 ], [ -74.618914347815135, 46.180004517646346 ] ] ] } },
{ "type": "Feature", "properties": { "hex_id": 474447, "centroid_lon": -74.612563921238078, "centroid_lat": 46.161796471899798, "occurrences_today": 22, "datetimes_today": "2026-01-20 00:01:41, 2026-01-20 00:16:54, 2026-01-20 00:32:11, 2026-01-20 00:46:39, 2026-01-20 00:47:05, 2026-01-20 01:01:47, 2026-01-20 01:17:01, 2026-01-20 01:31:36, 2026-01-20 01:47:00, 2026-01-20 01:56:32, 2026-01-20 02:01:48, 2026-01-20 02:16:51, 2026-01-20 02:31:55, 2026-01-20 02:40:57, 2026-01-20 02:47:15, 2026-01-20 03:01:54, 2026-01-20 03:16:39, 2026-01-20 03:31:44, 2026-01-20 03:47:00, 2026-01-20 03:51:11, 2026-01-20 04:01:59, 2026-01-20 04:16:57", "cumulative_total": 89.0 }, "geometry": { "type": "Polygon", "coordinates": [ [ [ -74.61260038957802, 46.156600384923806 ], [ -74.61905786206647, 46.159220192174523 ], [ -74.619021998322793, 46.164416280691547 ], [ -74.612527442854798, 46.166992554108958 ], [ -74.606069375815153, 46.16437237961852 ], [ -74.606106458791274, 46.159176299016558 ], [ -74.61260038957802, 46.156600384923806 ] ] ] } },
{ "type": "Feature", "properties": { "hex_id": 474448, "centroid_lon": -74.612454455944402, "centroid_lat": 46.177384704226945, "occurrences_today": 22, "datetimes_today": "2026-01-20 00:01:41, 2026-01-20 00:16:54, 2026-01-20 00:32:11, 2026-01-20 00:46:39, 2026-01-20 00:47:05, 2026-01-20 01:01:47, 2026-01-20 01:17:01, 2026-01-20 01:31:36, 2026-01-20 01:47:00, 2026-01-20 01:56:32, 2026-01-20 02:01:48, 2026-01-20 02:16:51, 2026-01-20 02:31:55, 2026-01-20 02:40:57, 2026-01-20 02:47:15, 2026-01-20 03:01:54, 2026-01-20 03:16:39, 2026-01-20 03:31:44, 2026-01-20 03:47:00, 2026-01-20 03:51:11, 2026-01-20 04:01:59, 2026-01-20 04:16:57", "cumulative_total": 89.0 }, "geometry": { "type": "Polygon", "coordinates": [ [ [ -74.6124909544247, 46.172188631551329 ], [ -74.618950241200508, 46.17480844342743 ], [ -74.618914347815135, 46.180004517646346 ], [ -74.612417947410464, 46.182580772135857 ], [ -74.605958065595104, 46.179960592819263 ], [ -74.605995179220557, 46.174764526519844 ], [ -74.6124909544247, 46.172188631551329 ] ] ] } },
{ "type": "Feature", "properties": { "hex_id": 474449, "centroid_lon": -74.612344900167855, "centroid_lat": 46.192972893653618, "occurrences_today": 22, "datetimes_today": "2026-01-20 00:01:41, 2026-01-20 00:16:54, 2026-01-20 00:32:11, 2026-01-20 00:46:39, 2026-01-20 00:47:05, 2026-01-20 01:01:47, 2026-01-20 01:17:01, 2026-01-20 01:31:36, 2026-01-20 01:47:00, 2026-01-20 01:56:32, 2026-01-20 02:01:48, 2026-01-20 02:16:51, 2026-01-20 02:31:55, 2026-01-20 02:40:57, 2026-01-20 02:47:15, 2026-01-20 03:01:54, 2026-01-20 03:16:39, 2026-01-20 03:31:44, 2026-01-20 03:47:00, 2026-01-20 03:51:11, 2026-01-20 04:01:59, 2026-01-20 04:16:57", "cumulative_total": 89.0 }, "geometry": { "type": "Polygon", "coordinates": [ [ [ -74.612381428819418, 46.187776835278058 ], [ -74.618842531379087, 46.190396651786287 ], [ -74.618806608321648, 46.195592711707384 ], [ -74.612308361452321, 46.198168947262538 ], [ -74.605846663364218, 46.195548763112924 ], [ -74.605883807670438, 46.190352711115764 ], [ -74.612381428819418, 46.187776835278058 ] ] ] } },
{ "type": "Feature", "properties": { "hex_id": 475058, "centroid_lon": -74.606032282626074, "centroid_lat": 46.169568455452946, "occurrences_today": 22, "datetimes_today": "2026-01-20 00:01:41, 2026-01-20 00:16:54, 2026-01-20 00:32:11, 2026-01-20 00:46:39, 2026-01-20 00:47:05, 2026-01-20 01:01:47, 2026-01-20 01:17:01, 2026-01-20 01:31:36, 2026-01-20 01:47:00, 2026-01-20 01:56:32, 2026-01-20 02:01:48, 2026-01-20 02:16:51, 2026-01-20 02:31:55, 2026-01-20 02:40:57, 2026-01-20 02:47:15, 2026-01-20 03:01:54, 2026-01-20 03:16:39, 2026-01-20 03:31:44, 2026-01-20 03:47:00, 2026-01-20 03:51:11, 2026-01-20 04:01:59, 2026-01-20 04:16:57", "cumulative_total": 89.0 }, "geometry": { "type": "Polygon", "coordinates": [ [ [ -74.606069375815153, 46.16437237961852 ], [ -74.612527442854798, 46.166992554108958 ], [ -74.6124909544247, 46.172188631551329 ], [ -74.605995179220557, 46.174764526519844 ], [ -74.599536517640104, 46.17214398462486 ], [ -74.599574225801121, 46.166947915232079 ], [ -74.606069375815153, 46.16437237961852 ] ] ] } },
{ "type": "Feature", "properties": { "hex_id": 475059, "centroid_lon": -74.60592094174622, "centroid_lat": 46.185156654351225, "occurrences_today": 22, "datetimes_today": "2026-01-20 00:01:41, 2026-01-20 00:16:54, 2026-01-20 00:32:11, 2026-01-20 00:46:39, 2026-01-20 00:47:05, 2026-01-20 01:01:47, 2026-01-20 01:17:01, 2026-01-20 01:31:36, 2026-01-20 01:47:00, 2026-01-20 01:56:32, 2026-01-20 02:01:48, 2026-01-20 02:16:51, 2026-01-20 02:31:55, 2026-01-20 02:40:57, 2026-01-20 02:47:15, 2026-01-20 03:01:54, 2026-01-20 03:16:39, 2026-01-20 03:31:44, 2026-01-20 03:47:00, 2026-01-20 03:51:11, 2026-01-20 04:01:59, 2026-01-20 04:16:57", "cumulative_total": 89.0 }, "geometry": { "type": "Polygon", "coordinates": [ [ [ -74.605958065595104, 46.179960592819263 ], [ -74.612417947410464, 46.182580772135857 ], [ -74.612381428819418, 46.187776835278058 ], [ -74.605883807670438, 46.190352711115764 ], [ -74.599423330825914, 46.187732164193733 ], [ -74.599461070156053, 46.182536109105648 ], [ -74.605958065595104, 46.179960592819263 ] ] ] } },
{ "type": "Feature", "properties": { "hex_id": 475060, "centroid_lon": -74.605809508824109, "centroid_lat": 46.200744810342712, "occurrences_today": 22, "datetimes_today": "2026-01-20 00:01:41, 2026-01-20 00:16:54, 2026-01-20 00:32:11, 2026-01-20 00:46:39, 2026-01-20 00:47:05, 2026-01-20 01:01:47, 2026-01-20 01:17:01, 2026-01-20 01:31:36, 2026-01-20 01:47:00, 2026-01-20 01:56:32, 2026-01-20 02:01:48, 2026-01-20 02:16:51, 2026-01-20 02:31:55, 2026-01-20 02:40:57, 2026-01-20 02:47:15, 2026-01-20 03:01:54, 2026-01-20 03:16:39, 2026-01-20 03:31:44, 2026-01-20 03:47:00, 2026-01-20 03:51:11, 2026-01-20 04:01:59, 2026-01-20 04:16:57", "cumulative_total": 89.0 }, "geometry": { "type": "Polygon", "coordinates": [ [ [ -74.605846663364218, 46.195548763112924 ], [ -74.612308361452321, 46.198168947262538 ], [ -74.612271812669377, 46.203364996104867 ], [ -74.605772344046571, 46.205940852805199 ], [ -74.599310050440451, 46.203320300849143 ], [ -74.599347820971673, 46.198124260065441 ], [ -74.605846663364218, 46.195548763112924 ] ] ] } },
{ "type": "Feature", "properties": { "hex_id": 475668, "centroid_lon": -74.599611923579545, "centroid_lat": 46.16175184107103, "occurrences_today": 22, "datetimes_today": "2026-01-20 00:01:41, 2026-01-20 00:16:54, 2026-01-20 00:32:11, 2026-01-20 00:46:39, 2026-01-20 00:47:05, 2026-01-20 01:01:47, 2026-01-20 01:17:01, 2026-01-20 01:31:36, 2026-01-20 01:47:00, 2026-01-20 01:56:32, 2026-01-20 02:01:48, 2026-01-20 02:16:51, 2026-01-20 02:31:55, 2026-01-20 02:40:57, 2026-01-20 02:47:15, 2026-01-20 03:01:54, 2026-01-20 03:16:39, 2026-01-20 03:31:44, 2026-01-20 03:47:00, 2026-01-20 03:51:11, 2026-01-20 04:01:59, 2026-01-20 04:16:57", "cumulative_total": 89.0 }, "geometry": { "type": "Polygon", "coordinates": [ [ [ -74.599649610978915, 46.156555762141636 ], [ -74.606106458791274, 46.159176299016558 ], [ -74.606069375815153, 46.16437237961852 ], [ -74.599574225801121, 46.166947915232079 ], [ -74.593116783946357, 46.164327010988536 ], [ -74.593155086144463, 46.159130938566207 ], [ -74.599649610978915, 46.156555762141636 ] ] ] } },
{ "type": "Feature", "properties": { "hex_id": 475669, "centroid_lon": -74.599498799092927, "centroid_lat": 46.177340049249359, "occurrences_today": 22, "datetimes_today": "2026-01-20 00:01:41, 2026-01-20 00:16:54, 2026-01-20 00:32:11, 2026-01-20 00:46:39, 2026-01-20 00:47:05, 2026-01-20 01:01:47, 2026-01-20 01:17:01, 2026-01-20 01:31:36, 2026-01-20 01:47:00, 2026-01-20 01:56:32, 2026-01-20 02:01:48, 2026-01-20 02:16:51, 2026-01-20 02:31:55, 2026-01-20 02:40:57, 2026-01-20 02:47:15, 2026-01-20 03:01:54, 2026-01-20 03:16:39, 2026-01-20 03:31:44, 2026-01-20 03:47:00, 2026-01-20 03:51:11, 2026-01-20 04:01:59, 2026-01-20 04:16:57", "cumulative_total": 89.0 }, "geometry": { "type": "Polygon", "coordinates": [ [ [ -74.599536517640104, 46.17214398462486 ], [ -74.605995179220557, 46.174764526519844 ], [ -74.605958065595104, 46.179960592819263 ], [ -74.599461070156053, 46.182536109105648 ], [ -74.593001814045351, 46.179915199641179 ], [ -74.59304014790041, 46.174719141525983 ], [ -74.599536517640104, 46.17214398462486 ] ] ] } },
{ "type": "Feature", "properties": { "hex_id": 475670, "centroid_lon": -74.599385581098971, "centroid_lat": 46.192928214513664, "occurrences_today": 22, "datetimes_today": "2026-01-20 00:01:41, 2026-01-20 00:16:54, 2026-01-20 00:32:11, 2026-01-20 00:46:39, 2026-01-20 00:47:05, 2026-01-20 01:01:47, 2026-01-20 01:17:01, 2026-01-20 01:31:36, 2026-01-20 01:47:00, 2026-01-20 01:56:32, 2026-01-20 02:01:48, 2026-01-20 02:16:51, 2026-01-20 02:31:55, 2026-01-20 02:40:57, 2026-01-20 02:47:15, 2026-01-20 03:01:54, 2026-01-20 03:16:39, 2026-01-20 03:31:44, 2026-01-20 03:47:00, 2026-01-20 03:51:11, 2026-01-20 04:01:59, 2026-01-20 04:16:57", "cumulative_total": 89.0 }, "geometry": { "type": "Polygon", "coordinates": [ [ [ -74.599423330825914, 46.187732164193733 ], [ -74.605883807670438, 46.190352711115764 ], [ -74.605846663364218, 46.195548763112924 ], [ -74.599347820971673, 46.198124260065441 ], [ -74.592886749108558, 46.195503345372977 ], [ -74.592925114653028, 46.190307301564644 ], [ -74.599423330825914, 46.187732164193733 ] ] ] } },
{ "type": "Feature", "properties": { "hex_id": 475671, "centroid_lon": -74.599272269501753, "centroid_lat": 46.208516336864761, "occurrences_today": 22, "datetimes_today": "2026-01-20 00:01:41, 2026-01-20 00:16:54, 2026-01-20 00:32:11, 2026-01-20 00:46:39, 2026-01-20 00:47:05, 2026-01-20 01:01:47, 2026-01-20 01:17:01, 2026-01-20 01:31:36, 2026-01-20 01:47:00, 2026-01-20 01:56:32, 2026-01-20 02:01:48, 2026-01-20 02:16:51, 2026-01-20 02:31:55, 2026-01-20 02:40:57, 2026-01-20 02:47:15, 2026-01-20 03:01:54, 2026-01-20 03:16:39, 2026-01-20 03:31:44, 2026-01-20 03:47:00, 2026-01-20 03:51:11, 2026-01-20 04:01:59, 2026-01-20 04:16:57", "cumulative_total": 79.0 }, "geometry": { "type": "Polygon", "coordinates": [ [ [ -74.599310050440451, 46.203320300849143 ], [ -74.605772344046571, 46.205940852805199 ], [ -74.605735169028108, 46.211136890500377 ], [ -74.599234478152027, 46.213712368112368 ], [ -74.592771589038477, 46.211091448184789 ], [ -74.5928099863049, 46.205895418683021 ], [ -74.599310050440451, 46.203320300849143 ] ] ] } },
{ "type": "Feature", "properties": { "hex_id": 476280, "centroid_lon": -74.59296346963076, "centroid_lat": 46.18511125298739, "occurrences_today": 22, "datetimes_today": "2026-01-20 00:01:41, 2026-01-20 00:16:54, 2026-01-20 00:32:11, 2026-01-20 00:46:39, 2026-01-20 00:47:05, 2026-01-20 01:01:47, 2026-01-20 01:17:01, 2026-01-20 01:31:36, 2026-01-20 01:47:00, 2026-01-20 01:56:32, 2026-01-20 02:01:48, 2026-01-20 02:16:51, 2026-01-20 02:31:55, 2026-01-20 02:40:57, 2026-01-20 02:47:15, 2026-01-20 03:01:54, 2026-01-20 03:16:39, 2026-01-20 03:31:44, 2026-01-20 03:47:00, 2026-01-20 03:51:11, 2026-01-20 04:01:59, 2026-01-20 04:16:57", "cumulative_total": 89.0 }, "geometry": { "type": "Polygon", "coordinates": [ [ [ -74.593001814045351, 46.179915199641179 ], [ -74.599461070156053, 46.182536109105648 ], [ -74.599423330825914, 46.187732164193733 ], [ -74.592925114653028, 46.190307301564644 ], [ -74.58646526402282, 46.187686024365767 ], [ -74.586504224081395, 46.182489977596603 ], [ -74.593001814045351, 46.179915199641179 ] ] ] } },
{ "type": "Feature", "properties": { "hex_id": 476281, "centroid_lon": -74.592848372993714, "centroid_lat": 46.200699384412424, "occurrences_today": 22, "datetimes_today": "2026-01-20 00:01:41, 2026-01-20 00:16:54, 2026-01-20 00:32:11, 2026-01-20 00:46:39, 2026-01-20 00:47:05, 2026-01-20 01:01:47, 2026-01-20 01:17:01, 2026-01-20 01:31:36, 2026-01-20 01:47:00, 2026-01-20 01:56:32, 2026-01-20 02:01:48, 2026-01-20 02:16:51, 2026-01-20 02:31:55, 2026-01-20 02:40:57, 2026-01-20 02:47:15, 2026-01-20 03:01:54, 2026-01-20 03:16:39, 2026-01-20 03:31:44, 2026-01-20 03:47:00, 2026-01-20 03:51:11, 2026-01-20 04:01:59, 2026-01-20 04:16:57", "cumulative_total": 89.0 }, "geometry": { "type": "Polygon", "coordinates": [ [ [ -74.592886749108558, 46.195503345372977 ], [ -74.599347820971673, 46.198124260065441 ], [ -74.599310050440451, 46.203320300849143 ], [ -74.5928099863049, 46.205895418683021 ], [ -74.586348319433952, 46.203274136055072 ], [ -74.586387311702779, 46.198078103594966 ], [ -74.592886749108558, 46.195503345372977 ] ] ] } },
{ "type": "Feature", "properties": { "hex_id": 565994, "centroid_lon": -73.651935948189433, "centroid_lat": 45.718001601892603, "occurrences_today": 1, "datetimes_today": "2026-01-20 05:01:42", "cumulative_total": 3.0 }, "geometry": { "type": "Polygon", "coordinates": [ [ [ -73.652060879131312, 45.712806431052982 ], [ -73.658421044846179, 45.715479627911407 ], [ -73.658296691687767, 45.720674809870609 ], [ -73.651810983040789, 45.723196767721049 ], [ -73.645450273755003, 45.720523199982921 ], [ -73.64557581667556, 45.715328045339042 ], [ -73.652060879131312, 45.712806431052982 ] ] ] } },
{ "type": "Feature", "properties": { "hex_id": 566605, "centroid_lon": -73.645324696459156, "centroid_lat": 45.725718349613075, "occurrences_today": 1, "datetimes_today": "2026-01-20 05:01:42", "cumulative_total": 3.0 }, "geometry": { "type": "Polygon", "coordinates": [ [ [ -73.645450273755003, 45.720523199982921 ], [ -73.651810983040789, 45.723196767721049 ], [ -73.651685983673843, 45.728391928538272 ], [ -73.64519908477638, 45.730913494229455 ], [ -73.638837831954405, 45.728239555451061 ], [ -73.638964021554472, 45.723044422086751 ], [ -73.645450273755003, 45.720523199982921 ] ] ] } },
{ "type": "Feature", "properties": { "hex_id": 567215, "centroid_lon": -73.639090176610637, "centroid_lat": 45.717849283706165, "occurrences_today": 1, "datetimes_today": "2026-01-20 05:01:42", "cumulative_total": 3.0 }, "geometry": { "type": "Polygon", "coordinates": [ [ [ -73.639216297134595, 45.712654140309375 ], [ -73.64557581667556, 45.715328045339042 ], [ -73.645450273755003, 45.720523199982921 ], [ -73.638964021554472, 45.723044422086751 ], [ -73.632603958948167, 45.72037014605872 ], [ -73.63273069159608, 45.715175018990202 ], [ -73.639216297134595, 45.712654140309375 ] ] ] } },
{ "type": "Feature", "properties": { "hex_id": 860917, "centroid_lon": -70.49016216559319, "centroid_lat": 46.439773058728377, "occurrences_today": 20, "datetimes_today": "2026-01-20 02:16:51, 2026-01-20 02:31:55, 2026-01-20 02:40:57, 2026-01-20 02:47:15, 2026-01-20 03:01:54, 2026-01-20 03:16:39, 2026-01-20 03:31:44, 2026-01-20 03:47:00, 2026-01-20 03:51:11, 2026-01-20 04:01:59, 2026-01-20 04:16:57, 2026-01-20 04:31:53, 2026-01-20 04:46:51, 2026-01-20 04:47:52, 2026-01-20 05:01:42, 2026-01-20 05:16:49, 2026-01-20 05:31:48, 2026-01-20 05:47:03, 2026-01-20 05:48:17, 2026-01-20 06:01:58", "cumulative_total": 20.0 }, "geometry": { "type": "Polygon", "coordinates": [ [ [ -70.490590363941052, 46.434593216901398 ], [ -70.49686484704894, 46.437439330973774 ], [ -70.496437200814185, 46.442619214994188 ], [ -70.48973384926073, 46.444952892793296 ], [ -70.48345893204457, 46.442106371362797 ], [ -70.483887800449722, 46.436926579556648 ], [ -70.490590363941052, 46.434593216901398 ] ] ] } },
{ "type": "Feature", "properties": { "hex_id": 861527, "centroid_lon": -70.484316550723591, "centroid_lat": 46.431746779980323, "occurrences_today": 20, "datetimes_today": "2026-01-20 02:16:51, 2026-01-20 02:31:55, 2026-01-20 02:40:57, 2026-01-20 02:47:15, 2026-01-20 03:01:54, 2026-01-20 03:16:39, 2026-01-20 03:31:44, 2026-01-20 03:47:00, 2026-01-20 03:51:11, 2026-01-20 04:01:59, 2026-01-20 04:16:57, 2026-01-20 04:31:53, 2026-01-20 04:46:51, 2026-01-20 04:47:52, 2026-01-20 05:01:42, 2026-01-20 05:16:49, 2026-01-20 05:31:48, 2026-01-20 05:47:03, 2026-01-20 05:48:17, 2026-01-20 06:01:58", "cumulative_total": 20.0 }, "geometry": { "type": "Polygon", "coordinates": [ [ [ -70.484745182906607, 46.426566972634923 ], [ -70.491018444344675, 46.429413367313451 ], [ -70.490590363941052, 46.434593216901398 ], [ -70.483887800449722, 46.436926579556648 ], [ -70.477614105343321, 46.434079777583975 ], [ -70.478043407356139, 46.428900020315481 ], [ -70.484745182906607, 46.426566972634923 ] ] ] } },
{ "type": "Feature", "properties": { "hex_id": 862137, "centroid_lon": -70.478472591131563, "centroid_lat": 46.423720255269778, "occurrences_today": 20, "datetimes_today": "2026-01-20 02:16:51, 2026-01-20 02:31:55, 2026-01-20 02:40:57, 2026-01-20 02:47:15, 2026-01-20 03:01:54, 2026-01-20 03:16:39, 2026-01-20 03:31:44, 2026-01-20 03:47:00, 2026-01-20 03:51:11, 2026-01-20 04:01:59, 2026-01-20 04:16:57, 2026-01-20 04:31:53, 2026-01-20 04:46:51, 2026-01-20 04:47:52, 2026-01-20 05:01:42, 2026-01-20 05:16:49, 2026-01-20 05:31:48, 2026-01-20 05:47:03, 2026-01-20 05:48:17, 2026-01-20 06:01:58", "cumulative_total": 20.0 }, "geometry": { "type": "Polygon", "coordinates": [ [ [ -70.47890165671005, 46.418540482447959 ], [ -70.485173697039201, 46.421387157521515 ], [ -70.484745182906607, 46.426566972634923 ], [ -70.478043407356139, 46.428900020315481 ], [ -70.471770933798254, 46.4260529380118 ], [ -70.472200668979113, 46.420873215322949 ], [ -70.47890165671005, 46.418540482447959 ] ] ] } },
{ "type": "Feature", "properties": { "hex_id": 862138, "centroid_lon": -70.477184685052606, "centroid_lat": 46.439259527074192, "occurrences_today": 20, "datetimes_today": "2026-01-20 02:16:51, 2026-01-20 02:31:55, 2026-01-20 02:40:57, 2026-01-20 02:47:15, 2026-01-20 03:01:54, 2026-01-20 03:16:39, 2026-01-20 03:31:44, 2026-01-20 03:47:00, 2026-01-20 03:51:11, 2026-01-20 04:01:59, 2026-01-20 04:16:57, 2026-01-20 04:31:53, 2026-01-20 04:46:51, 2026-01-20 04:47:52, 2026-01-20 05:01:42, 2026-01-20 05:16:49, 2026-01-20 05:31:48, 2026-01-20 05:47:03, 2026-01-20 05:48:17, 2026-01-20 06:01:58", "cumulative_total": 20.0 }, "geometry": { "type": "Polygon", "coordinates": [ [ [ -70.477614105343321, 46.434079777583975 ], [ -70.483887800449722, 46.436926579556648 ], [ -70.48345893204457, 46.442106371362797 ], [ -70.47675514644348, 46.444439268785032 ], [ -70.470481017790178, 46.441592059362016 ], [ -70.470911108244337, 46.436412360032421 ], [ -70.477614105343321, 46.434079777583975 ] ] ] } },
{ "type": "Feature", "properties": { "hex_id": 862747, "centroid_lon": -70.472630285816606, "centroid_lat": 46.415693484849847, "occurrences_today": 20, "datetimes_today": "2026-01-20 02:16:51, 2026-01-20 02:31:55, 2026-01-20 02:40:57, 2026-01-20 02:47:15, 2026-01-20 03:01:54, 2026-01-20 03:16:39, 2026-01-20 03:31:44, 2026-01-20 03:47:00, 2026-01-20 03:51:11, 2026-01-20 04:01:59, 2026-01-20 04:16:57, 2026-01-20 04:31:53, 2026-01-20 04:46:51, 2026-01-20 04:47:52, 2026-01-20 05:01:42, 2026-01-20 05:16:49, 2026-01-20 05:31:48, 2026-01-20 05:47:03, 2026-01-20 05:48:17, 2026-01-20 06:01:58", "cumulative_total": 20.0 }, "geometry": { "type": "Polygon", "coordinates": [ [ [ -70.473059784351207, 46.410513746593594 ], [ -70.479330604132073, 46.413360701851083 ], [ -70.47890165671005, 46.418540482447959 ], [ -70.472200668979113, 46.420873215322949 ], [ -70.465929416408784, 46.418025852899326 ], [ -70.466359584318369, 46.412846164832075 ], [ -70.473059784351207, 46.410513746593594 ] ] ] } },
{ "type": "Feature", "properties": { "hex_id": 862748, "centroid_lon": -70.471341080233501, "centroid_lat": 46.431232652915313, "occurrences_today": 20, "datetimes_today": "2026-01-20 02:16:51, 2026-01-20 02:31:55, 2026-01-20 02:40:57, 2026-01-20 02:47:15, 2026-01-20 03:01:54, 2026-01-20 03:16:39, 2026-01-20 03:31:44, 2026-01-20 03:47:00, 2026-01-20 03:51:11, 2026-01-20 04:01:59, 2026-01-20 04:16:57, 2026-01-20 04:31:53, 2026-01-20 04:46:51, 2026-01-20 04:47:52, 2026-01-20 05:01:42, 2026-01-20 05:16:49, 2026-01-20 05:31:48, 2026-01-20 05:47:03, 2026-01-20 05:48:17, 2026-01-20 06:01:58", "cumulative_total": 20.0 }, "geometry": { "type": "Polygon", "coordinates": [ [ [ -70.471770933798254, 46.4260529380118 ], [ -70.478043407356139, 46.428900020315481 ], [ -70.477614105343321, 46.434079777583975 ], [ -70.470911108244337, 46.436412360032421 ], [ -70.46463820157922, 46.433564870342444 ], [ -70.465068725079774, 46.428385205655601 ], [ -70.471770933798254, 46.4260529380118 ] ] ] } },
{ "type": "Feature", "properties": { "hex_id": 863358, "centroid_lon": -70.465499130009434, "centroid_lat": 46.423205533174198, "occurrences_today": 20, "datetimes_today": "2026-01-20 02:16:51, 2026-01-20 02:31:55, 2026-01-20 02:40:57, 2026-01-20 02:47:15, 2026-01-20 03:01:54, 2026-01-20 03:16:39, 2026-01-20 03:31:44, 2026-01-20 03:47:00, 2026-01-20 03:51:11, 2026-01-20 04:01:59, 2026-01-20 04:16:57, 2026-01-20 04:31:53, 2026-01-20 04:46:51, 2026-01-20 04:47:52, 2026-01-20 05:01:42, 2026-01-20 05:16:49, 2026-01-20 05:31:48, 2026-01-20 05:47:03, 2026-01-20 05:48:17, 2026-01-20 06:01:58", "cumulative_total": 20.0 }, "geometry": { "type": "Polygon", "coordinates": [ [ [ -70.465929416408784, 46.418025852899326 ], [ -70.472200668979113, 46.420873215322949 ], [ -70.471770933798254, 46.4260529380118 ], [ -70.465068725079774, 46.428385205655601 ], [ -70.458797039841542, 46.425537435909774 ], [ -70.459227995949121, 46.420357805907614 ], [ -70.465929416408784, 46.418025852899326 ] ] ] } },
{ "type": "Feature", "properties": { "hex_id": 863359, "centroid_lon": -70.46420755946717, "centroid_lat": 46.438744527233652, "occurrences_today": 20, "datetimes_today": "2026-01-20 02:16:51, 2026-01-20 02:31:55, 2026-01-20 02:40:57, 2026-01-20 02:47:15, 2026-01-20 03:01:54, 2026-01-20 03:16:39, 2026-01-20 03:31:44, 2026-01-20 03:47:00, 2026-01-20 03:51:11, 2026-01-20 04:01:59, 2026-01-20 04:16:57, 2026-01-20 04:31:53, 2026-01-20 04:46:51, 2026-01-20 04:47:52, 2026-01-20 05:01:42, 2026-01-20 05:16:49, 2026-01-20 05:31:48, 2026-01-20 05:47:03, 2026-01-20 05:48:17, 2026-01-20 06:01:58", "cumulative_total": 20.0 }, "geometry": { "type": "Polygon", "coordinates": [ [ [ -70.46463820157922, 46.433564870342444 ], [ -70.470911108244337, 46.436412360032421 ], [ -70.470481017790178, 46.441592059362016 ], [ -70.463776798703009, 46.44392417632811 ], [ -70.457503459052433, 46.441076279095682 ], [ -70.457934771433855, 46.435896672504924 ], [ -70.46463820157922, 46.433564870342444 ] ] ] } },
{ "type": "Feature", "properties": { "hex_id": 863968, "centroid_lon": -70.459658833380018, "centroid_lat": 46.415178168103822, "occurrences_today": 20, "datetimes_today": "2026-01-20 02:16:51, 2026-01-20 02:31:55, 2026-01-20 02:40:57, 2026-01-20 02:47:15, 2026-01-20 03:01:54, 2026-01-20 03:16:39, 2026-01-20 03:31:44, 2026-01-20 03:47:00, 2026-01-20 03:51:11, 2026-01-20 04:01:59, 2026-01-20 04:16:57, 2026-01-20 04:31:53, 2026-01-20 04:46:51, 2026-01-20 04:47:52, 2026-01-20 05:01:42, 2026-01-20 05:16:49, 2026-01-20 05:31:48, 2026-01-20 05:47:03, 2026-01-20 05:48:17, 2026-01-20 06:01:58", "cumulative_total": 20.0 }, "geometry": { "type": "Polygon", "coordinates": [ [ [ -70.460089552174864, 46.409998522499507 ], [ -70.466359584318369, 46.412846164832075 ], [ -70.465929416408784, 46.418025852899326 ], [ -70.459227995949121, 46.420357805907614 ], [ -70.452957531576729, 46.417509756316917 ], [ -70.453388919852287, 46.412330161041311 ], [ -70.460089552174864, 46.409998522499507 ] ] ] } },
{ "type": "Feature", "properties": { "hex_id": 863969, "centroid_lon": -70.458365965016682, "centroid_lat": 46.430717058109238, "occurrences_today": 20, "datetimes_today": "2026-01-20 02:16:51, 2026-01-20 02:31:55, 2026-01-20 02:40:57, 2026-01-20 02:47:15, 2026-01-20 03:01:54, 2026-01-20 03:16:39, 2026-01-20 03:31:44, 2026-01-20 03:47:00, 2026-01-20 03:51:11, 2026-01-20 04:01:59, 2026-01-20 04:16:57, 2026-01-20 04:31:53, 2026-01-20 04:46:51, 2026-01-20 04:47:52, 2026-01-20 05:01:42, 2026-01-20 05:16:49, 2026-01-20 05:31:48, 2026-01-20 05:47:03, 2026-01-20 05:48:17, 2026-01-20 06:01:58", "cumulative_total": 20.0 }, "geometry": { "type": "Polygon", "coordinates": [ [ [ -70.458797039841542, 46.425537435909774 ], [ -70.465068725079774, 46.428385205655601 ], [ -70.46463820157922, 46.433564870342444 ], [ -70.457934771433855, 46.435896672504924 ], [ -70.451662653649592, 46.433048495280772 ], [ -70.452094398516081, 46.427868923437742 ], [ -70.458797039841542, 46.425537435909774 ] ] ] } },
{ "type": "Feature", "properties": { "hex_id": 863970, "centroid_lon": -70.4570720278317, "centroid_lat": 46.446255877880496, "occurrences_today": 20, "datetimes_today": "2026-01-20 02:16:51, 2026-01-20 02:31:55, 2026-01-20 02:40:57, 2026-01-20 02:47:15, 2026-01-20 03:01:54, 2026-01-20 03:16:39, 2026-01-20 03:31:44, 2026-01-20 03:47:00, 2026-01-20 03:51:11, 2026-01-20 04:01:59, 2026-01-20 04:16:57, 2026-01-20 04:31:53, 2026-01-20 04:46:51, 2026-01-20 04:47:52, 2026-01-20 05:01:42, 2026-01-20 05:16:49, 2026-01-20 05:31:48, 2026-01-20 05:47:03, 2026-01-20 05:48:17, 2026-01-20 06:01:58", "cumulative_total": 20.0 }, "geometry": { "type": "Polygon", "coordinates": [ [ [ -70.457503459052433, 46.441076279095682 ], [ -70.463776798703009, 46.44392417632811 ], [ -70.463345919246095, 46.449103817624781 ], [ -70.456640477730971, 46.451435468858236 ], [ -70.45036670521695, 46.448587163927158 ], [ -70.450798807040783, 46.44340761552656 ], [ -70.457503459052433, 46.441076279095682 ] ] ] } },
{ "type": "Feature", "properties": { "hex_id": 864578, "centroid_lon": -70.453820189345535, "centroid_lat": 46.407150557956996, "occurrences_today": 20, "datetimes_today": "2026-01-20 02:16:51, 2026-01-20 02:31:55, 2026-01-20 02:40:57, 2026-01-20 02:47:15, 2026-01-20 03:01:54, 2026-01-20 03:16:39, 2026-01-20 03:31:44, 2026-01-20 03:47:00, 2026-01-20 03:51:11, 2026-01-20 04:01:59, 2026-01-20 04:16:57, 2026-01-20 04:31:53, 2026-01-20 04:46:51, 2026-01-20 04:47:52, 2026-01-20 05:01:42, 2026-01-20 05:16:49, 2026-01-20 05:31:48, 2026-01-20 05:47:03, 2026-01-20 05:48:17, 2026-01-20 06:01:58", "cumulative_total": 20.0 }, "geometry": { "type": "Polygon", "coordinates": [ [ [ -70.454251340097102, 46.401970947065131 ], [ -70.460520152374244, 46.404818869095756 ], [ -70.460089552174864, 46.409998522499507 ], [ -70.453388919852287, 46.412330161041311 ], [ -70.447119675784919, 46.409481831816684 ], [ -70.447551495789739, 46.404302271309462 ], [ -70.454251340097102, 46.401970947065131 ] ] ] } },
{ "type": "Feature", "properties": { "hex_id": 864579, "centroid_lon": -70.452526024478217, "centroid_lat": 46.422689343782771, "occurrences_today": 20, "datetimes_today": "2026-01-20 02:16:51, 2026-01-20 02:31:55, 2026-01-20 02:40:57, 2026-01-20 02:47:15, 2026-01-20 03:01:54, 2026-01-20 03:16:39, 2026-01-20 03:31:44, 2026-01-20 03:47:00, 2026-01-20 03:51:11, 2026-01-20 04:01:59, 2026-01-20 04:16:57, 2026-01-20 04:31:53, 2026-01-20 04:46:51, 2026-01-20 04:47:52, 2026-01-20 05:01:42, 2026-01-20 05:16:49, 2026-01-20 05:31:48, 2026-01-20 05:47:03, 2026-01-20 05:48:17, 2026-01-20 06:01:58", "cumulative_total": 20.0 }, "geometry": { "type": "Polygon", "coordinates": [ [ [ -70.452957531576729, 46.417509756316917 ], [ -70.459227995949121, 46.420357805907614 ], [ -70.458797039841542, 46.425537435909774 ], [ -70.452094398516081, 46.427868923437742 ], [ -70.445823502036717, 46.425020466432912 ], [ -70.446255678949115, 46.419840929379504 ], [ -70.452957531576729, 46.417509756316917 ] ] ] } },
{ "type": "Feature", "properties": { "hex_id": 864580, "centroid_lon": -70.451230789838064, "centroid_lat": 46.438228059310752, "occurrences_today": 20, "datetimes_today": "2026-01-20 02:16:51, 2026-01-20 02:31:55, 2026-01-20 02:40:57, 2026-01-20 02:47:15, 2026-01-20 03:01:54, 2026-01-20 03:16:39, 2026-01-20 03:31:44, 2026-01-20 03:47:00, 2026-01-20 03:51:11, 2026-01-20 04:01:59, 2026-01-20 04:16:57, 2026-01-20 04:31:53, 2026-01-20 04:46:51, 2026-01-20 04:47:52, 2026-01-20 05:01:42, 2026-01-20 05:16:49, 2026-01-20 05:31:48, 2026-01-20 05:47:03, 2026-01-20 05:48:17, 2026-01-20 06:01:58", "cumulative_total": 20.0 }, "geometry": { "type": "Polygon", "coordinates": [ [ [ -70.451662653649592, 46.433048495280772 ], [ -70.457934771433855, 46.435896672504924 ], [ -70.457503459052433, 46.441076279095682 ], [ -70.450798807040783, 46.44340761552656 ], [ -70.44452625683256, 46.440559030667984 ], [ -70.444958791019204, 46.43537951707826 ], [ -70.451662653649592, 46.433048495280772 ] ] ] } },
{ "type": "Feature", "properties": { "hex_id": 865189, "centroid_lon": -70.446687736851601, "centroid_lat": 46.414661384507056, "occurrences_today": 20, "datetimes_today": "2026-01-20 02:16:51, 2026-01-20 02:31:55, 2026-01-20 02:40:57, 2026-01-20 02:47:15, 2026-01-20 03:01:54, 2026-01-20 03:16:39, 2026-01-20 03:31:44, 2026-01-20 03:47:00, 2026-01-20 03:51:11, 2026-01-20 04:01:59, 2026-01-20 04:16:57, 2026-01-20 04:31:53, 2026-01-20 04:46:51, 2026-01-20 04:47:52, 2026-01-20 05:01:42, 2026-01-20 05:16:49, 2026-01-20 05:31:48, 2026-01-20 05:47:03, 2026-01-20 05:48:17, 2026-01-20 06:01:58", "cumulative_total": 20.0 }, "geometry": { "type": "Polygon", "coordinates": [ [ [ -70.447119675784919, 46.409481831816684 ], [ -70.453388919852287, 46.412330161041311 ], [ -70.452957531576729, 46.417509756316917 ], [ -70.446255678949115, 46.419840929379504 ], [ -70.439986003213534, 46.416992192804891 ], [ -70.44041861173308, 46.411812690582913 ], [ -70.447119675784919, 46.409481831816684 ] ] ] } },
{ "type": "Feature", "properties": { "hex_id": 865190, "centroid_lon": -70.44539120607368, "centroid_lat": 46.430199995666186, "occurrences_today": 20, "datetimes_today": "2026-01-20 02:16:51, 2026-01-20 02:31:55, 2026-01-20 02:40:57, 2026-01-20 02:47:15, 2026-01-20 03:01:54, 2026-01-20 03:16:39, 2026-01-20 03:31:44, 2026-01-20 03:47:00, 2026-01-20 03:51:11, 2026-01-20 04:01:59, 2026-01-20 04:16:57, 2026-01-20 04:31:53, 2026-01-20 04:46:51, 2026-01-20 04:47:52, 2026-01-20 05:01:42, 2026-01-20 05:16:49, 2026-01-20 05:31:48, 2026-01-20 05:47:03, 2026-01-20 05:48:17, 2026-01-20 06:01:58", "cumulative_total": 20.0 }, "geometry": { "type": "Polygon", "coordinates": [ [ [ -70.445823502036717, 46.425020466432912 ], [ -70.452094398516081, 46.427868923437742 ], [ -70.451662653649592, 46.433048495280772 ], [ -70.444958791019204, 46.43537951707826 ], [ -70.43868746255508, 46.432530652503203 ], [ -70.439120428665333, 46.427351173766141 ], [ -70.445823502036717, 46.425020466432912 ] ] ] } },
{ "type": "Feature", "properties": { "hex_id": 865191, "centroid_lon": -70.44409360347295, "centroid_lat": 46.445738536434298, "occurrences_today": 20, "datetimes_today": "2026-01-20 02:16:51, 2026-01-20 02:31:55, 2026-01-20 02:40:57, 2026-01-20 02:47:15, 2026-01-20 03:01:54, 2026-01-20 03:16:39, 2026-01-20 03:31:44, 2026-01-20 03:47:00, 2026-01-20 03:51:11, 2026-01-20 04:01:59, 2026-01-20 04:16:57, 2026-01-20 04:31:53, 2026-01-20 04:46:51, 2026-01-20 04:47:52, 2026-01-20 05:01:42, 2026-01-20 05:16:49, 2026-01-20 05:31:48, 2026-01-20 05:47:03, 2026-01-20 05:48:17, 2026-01-20 06:01:58", "cumulative_total": 20.0 }, "geometry": { "type": "Polygon", "coordinates": [ [ [ -70.44452625683256, 46.440559030667984 ], [ -70.450798807040783, 46.44340761552656 ], [ -70.45036670521695, 46.448587163927158 ], [ -70.443660830899489, 46.450918034376102 ], [ -70.437387848389704, 46.448069041726946 ], [ -70.437821172458129, 46.442889586484696 ], [ -70.44452625683256, 46.440559030667984 ] ] ] } },
{ "type": "Feature", "properties": { "hex_id": 865799, "centroid_lon": -70.44085110113727, "centroid_lat": 46.406633180534804, "occurrences_today": 20, "datetimes_today": "2026-01-20 02:16:51, 2026-01-20 02:31:55, 2026-01-20 02:40:57, 2026-01-20 02:47:15, 2026-01-20 03:01:54, 2026-01-20 03:16:39, 2026-01-20 03:31:44, 2026-01-20 03:47:00, 2026-01-20 03:51:11, 2026-01-20 04:01:59, 2026-01-20 04:16:57, 2026-01-20 04:31:53, 2026-01-20 04:46:51, 2026-01-20 04:47:52, 2026-01-20 05:01:42, 2026-01-20 05:16:49, 2026-01-20 05:31:48, 2026-01-20 05:47:03, 2026-01-20 05:48:17, 2026-01-20 06:01:58", "cumulative_total": 20.0 }, "geometry": { "type": "Polygon", "coordinates": [ [ [ -70.441283471466861, 46.401453662661702 ], [ -70.447551495789739, 46.404302271309462 ], [ -70.447119675784919, 46.409481831816684 ], [ -70.44041861173308, 46.411812690582913 ], [ -70.434150156180394, 46.408963674649357 ], [ -70.434583195868612, 46.403784207300582 ], [ -70.441283471466861, 46.401453662661702 ] ] ] } },
{ "type": "Feature", "properties": { "hex_id": 865800, "centroid_lon": -70.439553275537889, "centroid_lat": 46.422171687199665, "occurrences_today": 20, "datetimes_today": "2026-01-20 02:16:51, 2026-01-20 02:31:55, 2026-01-20 02:40:57, 2026-01-20 02:47:15, 2026-01-20 03:01:54, 2026-01-20 03:16:39, 2026-01-20 03:31:44, 2026-01-20 03:47:00, 2026-01-20 03:51:11, 2026-01-20 04:01:59, 2026-01-20 04:16:57, 2026-01-20 04:31:53, 2026-01-20 04:46:51, 2026-01-20 04:47:52, 2026-01-20 05:01:42, 2026-01-20 05:16:49, 2026-01-20 05:31:48, 2026-01-20 05:47:03, 2026-01-20 05:48:17, 2026-01-20 06:01:58", "cumulative_total": 20.0 }, "geometry": { "type": "Polygon", "coordinates": [ [ [ -70.439986003213534, 46.416992192804891 ], [ -70.446255678949115, 46.419840929379504 ], [ -70.445823502036717, 46.425020466432912 ], [ -70.439120428665333, 46.427351173766141 ], [ -70.43285032138381, 46.424502029685556 ], [ -70.433283718978814, 46.419322585842963 ], [ -70.439986003213534, 46.416992192804891 ] ] ] } },
{ "type": "Feature", "properties": { "hex_id": 865801, "centroid_lon": -70.438254377166288, "centroid_lat": 46.437710123409758, "occurrences_today": 20, "datetimes_today": "2026-01-20 02:16:51, 2026-01-20 02:31:55, 2026-01-20 02:40:57, 2026-01-20 02:47:15, 2026-01-20 03:01:54, 2026-01-20 03:16:39, 2026-01-20 03:31:44, 2026-01-20 03:47:00, 2026-01-20 03:51:11, 2026-01-20 04:01:59, 2026-01-20 04:16:57, 2026-01-20 04:31:53, 2026-01-20 04:46:51, 2026-01-20 04:47:52, 2026-01-20 05:01:42, 2026-01-20 05:16:49, 2026-01-20 05:31:48, 2026-01-20 05:47:03, 2026-01-20 05:48:17, 2026-01-20 06:01:58", "cumulative_total": 20.0 }, "geometry": { "type": "Polygon", "coordinates": [ [ [ -70.43868746255508, 46.432530652503203 ], [ -70.444958791019204, 46.43537951707826 ], [ -70.44452625683256, 46.440559030667984 ], [ -70.437821172458129, 46.442889586484696 ], [ -70.431549412131659, 46.440040314183342 ], [ -70.431983168001125, 46.43486089385685 ], [ -70.43868746255508, 46.432530652503203 ] ] ] } },
{ "type": "Feature", "properties": { "hex_id": 866410, "centroid_lon": -70.433716997230732, "centroid_lat": 46.414143134163844, "occurrences_today": 20, "datetimes_today": "2026-01-20 02:16:51, 2026-01-20 02:31:55, 2026-01-20 02:40:57, 2026-01-20 02:47:15, 2026-01-20 03:01:54, 2026-01-20 03:16:39, 2026-01-20 03:31:44, 2026-01-20 03:47:00, 2026-01-20 03:51:11, 2026-01-20 04:01:59, 2026-01-20 04:16:57, 2026-01-20 04:31:53, 2026-01-20 04:46:51, 2026-01-20 04:47:52, 2026-01-20 05:01:42, 2026-01-20 05:16:49, 2026-01-20 05:31:48, 2026-01-20 05:47:03, 2026-01-20 05:48:17, 2026-01-20 06:01:58", "cumulative_total": 20.0 }, "geometry": { "type": "Polygon", "coordinates": [ [ [ -70.434150156180394, 46.408963674649357 ], [ -70.44041861173308, 46.411812690582913 ], [ -70.439986003213534, 46.416992192804891 ], [ -70.433283718978814, 46.419322585842963 ], [ -70.427014832318662, 46.416473162467675 ], [ -70.427448660959882, 46.411293753561289 ], [ -70.434150156180394, 46.408963674649357 ] ] ] } },
{ "type": "Feature", "properties": { "hex_id": 866411, "centroid_lon": -70.432416804404866, "centroid_lat": 46.429681465690557, "occurrences_today": 20, "datetimes_today": "2026-01-20 02:16:51, 2026-01-20 02:31:55, 2026-01-20 02:40:57, 2026-01-20 02:47:15, 2026-01-20 03:01:54, 2026-01-20 03:16:39, 2026-01-20 03:31:44, 2026-01-20 03:47:00, 2026-01-20 03:51:11, 2026-01-20 04:01:59, 2026-01-20 04:16:57, 2026-01-20 04:31:53, 2026-01-20 04:46:51, 2026-01-20 04:47:52, 2026-01-20 05:01:42, 2026-01-20 05:16:49, 2026-01-20 05:31:48, 2026-01-20 05:47:03, 2026-01-20 05:48:17, 2026-01-20 06:01:58", "cumulative_total": 20.0 }, "geometry": { "type": "Polygon", "coordinates": [ [ [ -70.43285032138381, 46.424502029685556 ], [ -70.439120428665333, 46.427351173766141 ], [ -70.43868746255508, 46.432530652503203 ], [ -70.431983168001125, 46.43486089385685 ], [ -70.425712629296157, 46.432011342114279 ], [ -70.426146816527705, 46.426831956745275 ], [ -70.43285032138381, 46.424502029685556 ] ] ] } },
{ "type": "Feature", "properties": { "hex_id": 866412, "centroid_lon": -70.43111553675557, "centroid_lat": 46.445219726668938, "occurrences_today": 20, "datetimes_today": "2026-01-20 02:16:51, 2026-01-20 02:31:55, 2026-01-20 02:40:57, 2026-01-20 02:47:15, 2026-01-20 03:01:54, 2026-01-20 03:16:39, 2026-01-20 03:31:44, 2026-01-20 03:47:00, 2026-01-20 03:51:11, 2026-01-20 04:01:59, 2026-01-20 04:16:57, 2026-01-20 04:31:53, 2026-01-20 04:46:51, 2026-01-20 04:47:52, 2026-01-20 05:01:42, 2026-01-20 05:16:49, 2026-01-20 05:31:48, 2026-01-20 05:47:03, 2026-01-20 05:48:17, 2026-01-20 06:01:58", "cumulative_total": 20.0 }, "geometry": { "type": "Polygon", "coordinates": [ [ [ -70.431549412131659, 46.440040314183342 ], [ -70.437821172458129, 46.442889586484696 ], [ -70.437387848389704, 46.448069041726946 ], [ -70.430681541831945, 46.450399131312508 ], [ -70.424409349765838, 46.447549451128765 ], [ -70.424843895956187, 46.442370089307119 ], [ -70.431549412131659, 46.440040314183342 ] ] ] } },
{ "type": "Feature", "properties": { "hex_id": 867021, "centroid_lon": -70.42658088418824, "centroid_lat": 46.421652563529378, "occurrences_today": 20, "datetimes_today": "2026-01-20 02:16:51, 2026-01-20 02:31:55, 2026-01-20 02:40:57, 2026-01-20 02:47:15, 2026-01-20 03:01:54, 2026-01-20 03:16:39, 2026-01-20 03:31:44, 2026-01-20 03:47:00, 2026-01-20 03:51:11, 2026-01-20 04:01:59, 2026-01-20 04:16:57, 2026-01-20 04:31:53, 2026-01-20 04:46:51, 2026-01-20 04:47:52, 2026-01-20 05:01:42, 2026-01-20 05:16:49, 2026-01-20 05:31:48, 2026-01-20 05:47:03, 2026-01-20 05:48:17, 2026-01-20 06:01:58", "cumulative_total": 20.0 }, "geometry": { "type": "Polygon", "coordinates": [ [ [ -70.427014832318662, 46.416473162467675 ], [ -70.433283718978814, 46.419322585842963 ], [ -70.43285032138381, 46.424502029685556 ], [ -70.426146816527705, 46.426831956745275 ], [ -70.419877498882698, 46.423982125772334 ], [ -70.420312117037739, 46.418802775402561 ], [ -70.427014832318662, 46.416473162467675 ] ] ] } },
{ "type": "Feature", "properties": { "hex_id": 867022, "centroid_lon": -70.425278322452641, "centroid_lat": 46.437190719635268, "occurrences_today": 20, "datetimes_today": "2026-01-20 02:16:51, 2026-01-20 02:31:55, 2026-01-20 02:40:57, 2026-01-20 02:47:15, 2026-01-20 03:01:54, 2026-01-20 03:16:39, 2026-01-20 03:31:44, 2026-01-20 03:47:00, 2026-01-20 03:51:11, 2026-01-20 04:01:59, 2026-01-20 04:16:57, 2026-01-20 04:31:53, 2026-01-20 04:46:51, 2026-01-20 04:47:52, 2026-01-20 05:01:42, 2026-01-20 05:16:49, 2026-01-20 05:31:48, 2026-01-20 05:47:03, 2026-01-20 05:48:17, 2026-01-20 06:01:58", "cumulative_total": 20.0 }, "geometry": { "type": "Polygon", "coordinates": [ [ [ -70.425712629296157, 46.432011342114279 ], [ -70.431983168001125, 46.43486089385685 ], [ -70.431549412131659, 46.440040314183342 ], [ -70.424843895956187, 46.442370089307119 ], [ -70.418572925950571, 46.439520129746526 ], [ -70.419007903380106, 46.434340802945442 ], [ -70.425712629296157, 46.432011342114279 ] ] ] } },
{ "type": "Feature", "properties": { "hex_id": 867632, "centroid_lon": -70.419442761010487, "centroid_lat": 46.429161468286992, "occurrences_today": 20, "datetimes_today": "2026-01-20 02:16:51, 2026-01-20 02:31:55, 2026-01-20 02:40:57, 2026-01-20 02:47:15, 2026-01-20 03:01:54, 2026-01-20 03:16:39, 2026-01-20 03:31:44, 2026-01-20 03:47:00, 2026-01-20 03:51:11, 2026-01-20 04:01:59, 2026-01-20 04:16:57, 2026-01-20 04:31:53, 2026-01-20 04:46:51, 2026-01-20 04:47:52, 2026-01-20 05:01:42, 2026-01-20 05:16:49, 2026-01-20 05:31:48, 2026-01-20 05:47:03, 2026-01-20 05:48:17, 2026-01-20 06:01:58", "cumulative_total": 20.0 }, "geometry": { "type": "Polygon", "coordinates": [ [ [ -70.419877498882698, 46.423982125772334 ], [ -70.426146816527705, 46.426831956745275 ], [ -70.425712629296157, 46.432011342114279 ], [ -70.419007903380106, 46.434340802945442 ], [ -70.412738154873097, 46.431490564218848 ], [ -70.413173563103129, 46.426311272479992 ], [ -70.419877498882698, 46.423982125772334 ] ] ] } },
{ "type": "Feature", "properties": { "hex_id": 867633, "centroid_lon": -70.418137828680841, "centroid_lat": 46.444699448689171, "occurrences_today": 20, "datetimes_today": "2026-01-20 02:16:51, 2026-01-20 02:31:55, 2026-01-20 02:40:57, 2026-01-20 02:47:15, 2026-01-20 03:01:54, 2026-01-20 03:16:39, 2026-01-20 03:31:44, 2026-01-20 03:47:00, 2026-01-20 03:51:11, 2026-01-20 04:01:59, 2026-01-20 04:16:57, 2026-01-20 04:31:53, 2026-01-20 04:46:51, 2026-01-20 04:47:52, 2026-01-20 05:01:42, 2026-01-20 05:16:49, 2026-01-20 05:31:48, 2026-01-20 05:47:03, 2026-01-20 05:48:17, 2026-01-20 06:01:58", "cumulative_total": 20.0 }, "geometry": { "type": "Polygon", "coordinates": [ [ [ -70.418572925950571, 46.439520129746526 ], [ -70.424843895956187, 46.442370089307119 ], [ -70.424409349765838, 46.447549451128765 ], [ -70.41770261152989, 46.449878759772261 ], [ -70.411431210346649, 46.447028392237584 ], [ -70.41186697853594, 46.441849124098752 ], [ -70.418572925950571, 46.439520129746526 ] ] ] } },
{ "type": "Feature", "properties": { "hex_id": 868242, "centroid_lon": -70.41360885142889, "centroid_lat": 46.421131972876672, "occurrences_today": 20, "datetimes_today": "2026-01-20 02:16:51, 2026-01-20 02:31:55, 2026-01-20 02:40:57, 2026-01-20 02:47:15, 2026-01-20 03:01:54, 2026-01-20 03:16:39, 2026-01-20 03:31:44, 2026-01-20 03:47:00, 2026-01-20 03:51:11, 2026-01-20 04:01:59, 2026-01-20 04:16:57, 2026-01-20 04:31:53, 2026-01-20 04:46:51, 2026-01-20 04:47:52, 2026-01-20 05:01:42, 2026-01-20 05:16:49, 2026-01-20 05:31:48, 2026-01-20 05:47:03, 2026-01-20 05:48:17, 2026-01-20 06:01:58", "cumulative_total": 20.0 }, "geometry": { "type": "Polygon", "coordinates": [ [ [ -70.414044019891392, 46.415952665410018 ], [ -70.420312117037739, 46.418802775402561 ], [ -70.419877498882698, 46.423982125772334 ], [ -70.413173563103129, 46.426311272479992 ], [ -70.406905035533086, 46.423460754798207 ], [ -70.407340874125282, 46.418281498163232 ], [ -70.414044019891392, 46.415952665410018 ] ] ] } },
{ "type": "Feature", "properties": { "hex_id": 868243, "centroid_lon": -70.412302626697738, "centroid_lat": 46.436669848092144, "occurrences_today": 20, "datetimes_today": "2026-01-20 02:16:51, 2026-01-20 02:31:55, 2026-01-20 02:40:57, 2026-01-20 02:47:15, 2026-01-20 03:01:54, 2026-01-20 03:16:39, 2026-01-20 03:31:44, 2026-01-20 03:47:00, 2026-01-20 03:51:11, 2026-01-20 04:01:59, 2026-01-20 04:16:57, 2026-01-20 04:31:53, 2026-01-20 04:46:51, 2026-01-20 04:47:52, 2026-01-20 05:01:42, 2026-01-20 05:16:49, 2026-01-20 05:31:48, 2026-01-20 05:47:03, 2026-01-20 05:48:17, 2026-01-20 06:01:58", "cumulative_total": 20.0 }, "geometry": { "type": "Polygon", "coordinates": [ [ [ -70.412738154873097, 46.431490564218848 ], [ -70.419007903380106, 46.434340802945442 ], [ -70.418572925950571, 46.439520129746526 ], [ -70.41186697853594, 46.441849124098752 ], [ -70.405596799290052, 46.438998477462526 ], [ -70.40603299815659, 46.433819244448969 ], [ -70.412738154873097, 46.431490564218848 ] ] ] } },
{ "type": "Feature", "properties": { "hex_id": 868853, "centroid_lon": -70.406469076890559, "centroid_lat": 46.428640003560481, "occurrences_today": 20, "datetimes_today": "2026-01-20 02:16:51, 2026-01-20 02:31:55, 2026-01-20 02:40:57, 2026-01-20 02:47:15, 2026-01-20 03:01:54, 2026-01-20 03:16:39, 2026-01-20 03:31:44, 2026-01-20 03:47:00, 2026-01-20 03:51:11, 2026-01-20 04:01:59, 2026-01-20 04:16:57, 2026-01-20 04:31:53, 2026-01-20 04:46:51, 2026-01-20 04:47:52, 2026-01-20 05:01:42, 2026-01-20 05:16:49, 2026-01-20 05:31:48, 2026-01-20 05:47:03, 2026-01-20 05:48:17, 2026-01-20 06:01:58", "cumulative_total": 20.0 }, "geometry": { "type": "Polygon", "coordinates": [ [ [ -70.406905035533086, 46.423460754798207 ], [ -70.413173563103129, 46.426311272479992 ], [ -70.412738154873097, 46.431490564218848 ], [ -70.40603299815659, 46.433819244448969 ], [ -70.399764040286044, 46.430968318922019 ], [ -70.40020066939141, 46.425789121075333 ], [ -70.406905035533086, 46.423460754798207 ] ] ] } },
{ "type": "Feature", "properties": { "hex_id": 868854, "centroid_lon": -70.405160480249791, "centroid_lat": 46.444177702600072, "occurrences_today": 20, "datetimes_today": "2026-01-20 02:16:51, 2026-01-20 02:31:55, 2026-01-20 02:40:57, 2026-01-20 02:47:15, 2026-01-20 03:01:54, 2026-01-20 03:16:39, 2026-01-20 03:31:44, 2026-01-20 03:47:00, 2026-01-20 03:51:11, 2026-01-20 04:01:59, 2026-01-20 04:16:57, 2026-01-20 04:31:53, 2026-01-20 04:46:51, 2026-01-20 04:47:52, 2026-01-20 05:01:42, 2026-01-20 05:16:49, 2026-01-20 05:31:48, 2026-01-20 05:47:03, 2026-01-20 05:48:17, 2026-01-20 06:01:58", "cumulative_total": 20.0 }, "geometry": { "type": "Polygon", "coordinates": [ [ [ -70.405596799290052, 46.438998477462526 ], [ -70.41186697853594, 46.441849124098752 ], [ -70.411431210346649, 46.447028392237584 ], [ -70.404724040994708, 46.449356919860456 ], [ -70.398453431133277, 46.446505865158606 ], [ -70.398890421198175, 46.441326690964765 ], [ -70.405596799290052, 46.438998477462526 ] ] ] } },
{ "type": "Feature", "properties": { "hex_id": 869464, "centroid_lon": -70.399327290902022, "centroid_lat": 46.43614750888554, "occurrences_today": 20, "datetimes_today": "2026-01-20 02:16:51, 2026-01-20 02:31:55, 2026-01-20 02:40:57, 2026-01-20 02:47:15, 2026-01-20 03:01:54, 2026-01-20 03:16:39, 2026-01-20 03:31:44, 2026-01-20 03:47:00, 2026-01-20 03:51:11, 2026-01-20 04:01:59, 2026-01-20 04:16:57, 2026-01-20 04:31:53, 2026-01-20 04:46:51, 2026-01-20 04:47:52, 2026-01-20 05:01:42, 2026-01-20 05:16:49, 2026-01-20 05:31:48, 2026-01-20 05:47:03, 2026-01-20 05:48:17, 2026-01-20 06:01:58", "cumulative_total": 20.0 }, "geometry": { "type": "Polygon", "coordinates": [ [ [ -70.399764040286044, 46.430968318922019 ], [ -70.40603299815659, 46.433819244448969 ], [ -70.405596799290052, 46.438998477462526 ], [ -70.398890421198175, 46.441326690964765 ], [ -70.39262103315059, 46.438475357436708 ], [ -70.393058453330724, 46.433296218472769 ], [ -70.399764040286044, 46.430968318922019 ] ] ] } },
{ "type": "Feature", "properties": { "hex_id": 869465, "centroid_lon": -70.39801632066613, "centroid_lat": 46.451685031465928, "occurrences_today": 20, "datetimes_today": "2026-01-20 02:16:51, 2026-01-20 02:31:55, 2026-01-20 02:40:57, 2026-01-20 02:47:15, 2026-01-20 03:01:54, 2026-01-20 03:16:39, 2026-01-20 03:31:44, 2026-01-20 03:47:00, 2026-01-20 03:51:11, 2026-01-20 04:01:59, 2026-01-20 04:16:57, 2026-01-20 04:31:53, 2026-01-20 04:46:51, 2026-01-20 04:47:52, 2026-01-20 05:01:42, 2026-01-20 05:16:49, 2026-01-20 05:31:48, 2026-01-20 05:47:03, 2026-01-20 05:48:17, 2026-01-20 06:01:58", "cumulative_total": 20.0 }, "geometry": { "type": "Polygon", "coordinates": [ [ [ -70.398453431133277, 46.446505865158606 ], [ -70.404724040994708, 46.449356919860456 ], [ -70.404287481483564, 46.454536129242577 ], [ -70.397579089755467, 46.456864189885586 ], [ -70.39130804940217, 46.45401272696207 ], [ -70.391745831227581, 46.448833611682488 ], [ -70.398453431133277, 46.446505865158606 ] ] ] } },
{ "type": "Feature", "properties": { "hex_id": 870075, "centroid_lon": -70.392183492463303, "centroid_lat": 46.443654488507008, "occurrences_today": 20, "datetimes_today": "2026-01-20 02:16:51, 2026-01-20 02:31:55, 2026-01-20 02:40:57, 2026-01-20 02:47:15, 2026-01-20 03:01:54, 2026-01-20 03:16:39, 2026-01-20 03:31:44, 2026-01-20 03:47:00, 2026-01-20 03:51:11, 2026-01-20 04:01:59, 2026-01-20 04:16:57, 2026-01-20 04:31:53, 2026-01-20 04:46:51, 2026-01-20 04:47:52, 2026-01-20 05:01:42, 2026-01-20 05:16:49, 2026-01-20 05:31:48, 2026-01-20 05:47:03, 2026-01-20 05:48:17, 2026-01-20 06:01:58", "cumulative_total": 20.0 }, "geometry": { "type": "Polygon", "coordinates": [ [ [ -70.39262103315059, 46.438475357436708 ], [ -70.398890421198175, 46.441326690964765 ], [ -70.398453431133277, 46.446505865158606 ], [ -70.391745831227581, 46.448833611682488 ], [ -70.385476013126663, 46.445981869997368 ], [ -70.385914224943491, 46.440802790010679 ], [ -70.39262103315059, 46.438475357436708 ] ] ] } },
{ "type": "Feature", "properties": { "hex_id": 565384, "centroid_lon": -73.658172304479578, "centroid_lat": 45.725869986821131, "occurrences_today": 1, "datetimes_today": "2026-01-20 05:01:42", "cumulative_total": 1.0 }, "geometry": { "type": "Polygon", "coordinates": [ [ [ -73.658296691687767, 45.720674809870609 ], [ -73.664658047182058, 45.723347669173691 ], [ -73.664534238082879, 45.728542857183719 ], [ -73.658047883210131, 45.731065158762874 ], [ -73.651685983673843, 45.728391928538272 ], [ -73.651810983040789, 45.723196767721049 ], [ -73.658296691687767, 45.720674809870609 ] ] ] } },
{ "type": "Feature", "properties": { "hex_id": 583701, "centroid_lon": -73.464615233855355, "centroid_lat": 45.754612124004986, "occurrences_today": 10, "datetimes_today": "2026-01-20 07:16:44, 2026-01-20 07:31:44, 2026-01-20 07:46:46, 2026-01-20 08:01:43, 2026-01-20 08:14:08, 2026-01-20 08:16:43, 2026-01-20 08:31:42, 2026-01-20 08:47:01, 2026-01-20 08:56:22, 2026-01-20 09:01:52", "cumulative_total": 10.0 }, "geometry": { "type": "Polygon", "coordinates": [ [ [ -73.464757702435634, 45.749417414698613 ], [ -73.471112770127945, 45.752100963081929 ], [ -73.470970877876624, 45.7572956853747 ], [ -73.464472726252083, 45.759806828221635 ], [ -73.458117121260429, 45.75712290674079 ], [ -73.458260205179471, 45.751928215575553 ], [ -73.464757702435634, 45.749417414698613 ] ] ] } },
{ "type": "Feature", "properties": { "hex_id": 584312, "centroid_lon": -73.457973998148745, "centroid_lat": 45.762317592813375, "occurrences_today": 10, "datetimes_today": "2026-01-20 07:16:44, 2026-01-20 07:31:44, 2026-01-20 07:46:46, 2026-01-20 08:01:43, 2026-01-20 08:14:08, 2026-01-20 08:16:43, 2026-01-20 08:31:42, 2026-01-20 08:47:01, 2026-01-20 08:56:22, 2026-01-20 09:01:52", "cumulative_total": 10.0 }, "geometry": { "type": "Polygon", "coordinates": [ [ [ -73.458117121260429, 45.75712290674079 ], [ -73.464472726252083, 45.759806828221635 ], [ -73.464330179612617, 45.765001527348467 ], [ -73.457830835831189, 45.767512273793237 ], [ -73.451474693579812, 45.764827979054438 ], [ -73.451618432356341, 45.759633311193902 ], [ -73.458117121260429, 45.75712290674079 ] ] ] } },
{ "type": "Feature", "properties": { "hex_id": 584922, "centroid_lon": -73.451762131770536, "centroid_lat": 45.754438638237772, "occurrences_today": 10, "datetimes_today": "2026-01-20 07:16:44, 2026-01-20 07:31:44, 2026-01-20 07:46:46, 2026-01-20 08:01:43, 2026-01-20 08:14:08, 2026-01-20 08:16:43, 2026-01-20 08:31:42, 2026-01-20 08:47:01, 2026-01-20 08:56:22, 2026-01-20 09:01:52", "cumulative_total": 10.0 }, "geometry": { "type": "Polygon", "coordinates": [ [ [ -73.451905791835713, 45.749243960186192 ], [ -73.458260205179471, 45.751928215575553 ], [ -73.458117121260429, 45.75712290674079 ], [ -73.451618432356341, 45.759633311193902 ], [ -73.445263482222146, 45.756948682589844 ], [ -73.445407757769175, 45.751754022812385 ], [ -73.451905791835713, 45.749243960186192 ] ] ] } },
{ "type": "Feature", "properties": { "hex_id": 546445, "centroid_lon": -73.861590027673373, "centroid_lat": 45.517611234182546, "occurrences_today": 8, "datetimes_today": "2026-01-20 07:46:46, 2026-01-20 08:01:43, 2026-01-20 08:14:08, 2026-01-20 08:16:43, 2026-01-20 08:31:42, 2026-01-20 08:47:01, 2026-01-20 08:56:22, 2026-01-20 09:01:52", "cumulative_total": 8.0 }, "geometry": { "type": "Polygon", "coordinates": [ [ [ -73.861694797513465, 45.512415467118231 ], [ -73.86804271543771, 45.515076961274936 ], [ -73.867938520119935, 45.52027273733384 ], [ -73.861485229214239, 45.522806996311694 ], [ -73.855136765391492, 45.520145135797534 ], [ -73.855242138363337, 45.514949382727558 ], [ -73.861694797513465, 45.512415467118231 ] ] ] } },
{ "type": "Feature", "properties": { "hex_id": 547056, "centroid_lon": -73.855031363635064, "centroid_lat": 45.52534088393022, "occurrences_today": 8, "datetimes_today": "2026-01-20 07:46:46, 2026-01-20 08:01:43, 2026-01-20 08:14:08, 2026-01-20 08:16:43, 2026-01-20 08:31:42, 2026-01-20 08:47:01, 2026-01-20 08:56:22, 2026-01-20 09:01:52", "cumulative_total": 8.0 }, "geometry": { "type": "Polygon", "coordinates": [ [ [ -73.855136765391492, 45.520145135797534 ], [ -73.861485229214239, 45.522806996311694 ], [ -73.861380402126471, 45.528002753505575 ], [ -73.85492593308436, 45.530536627125528 ], [ -73.848576923392031, 45.527874400094127 ], [ -73.848682928601747, 45.522678666024632 ], [ -73.855136765391492, 45.520145135797534 ] ] ] } },
{ "type": "Feature", "properties": { "hex_id": 548277, "centroid_lon": -73.842228517313785, "centroid_lat": 45.525211824768512, "occurrences_today": 8, "datetimes_today": "2026-01-20 07:46:46, 2026-01-20 08:01:43, 2026-01-20 08:14:08, 2026-01-20 08:16:43, 2026-01-20 08:31:42, 2026-01-20 08:47:01, 2026-01-20 08:56:22, 2026-01-20 09:01:52", "cumulative_total": 8.0 }, "geometry": { "type": "Polygon", "coordinates": [ [ [ -73.842335097016829, 45.5200160998873 ], [ -73.848682928601747, 45.522678666024632 ], [ -73.848576923392031, 45.527874400094127 ], [ -73.842121908494875, 45.530407544708105 ], [ -73.835773531537399, 45.527744611933919 ], [ -73.835880714839874, 45.522548901247198 ], [ -73.842335097016829, 45.5200160998873 ] ] ] } },
{ "type": "Feature", "properties": { "hex_id": 550106, "centroid_lon": -73.823836290396599, "centroid_lat": 45.486047754143883, "occurrences_today": 6, "datetimes_today": "2026-01-20 08:14:08, 2026-01-20 08:16:43, 2026-01-20 08:31:42, 2026-01-20 08:47:01, 2026-01-20 08:56:22, 2026-01-20 09:01:52", "cumulative_total": 6.0 }, "geometry": { "type": "Polygon", "coordinates": [ [ [ -73.823944415293667, 45.480852027515418 ], [ -73.830286995882446, 45.483515581547991 ], [ -73.830179444048142, 45.48871131753927 ], [ -73.823728135975642, 45.491243475824646 ], [ -73.817385011852949, 45.488579555476036 ], [ -73.81749373932675, 45.48338384322259 ], [ -73.823944415293667, 45.480852027515418 ] ] ] } },
{ "type": "Feature", "properties": { "hex_id": 550107, "centroid_lon": -73.823511738522441, "centroid_lat": 45.50163490434295, "occurrences_today": 6, "datetimes_today": "2026-01-20 08:14:08, 2026-01-20 08:16:43, 2026-01-20 08:31:42, 2026-01-20 08:47:01, 2026-01-20 08:56:22, 2026-01-20 09:01:52", "cumulative_total": 6.0 }, "geometry": { "type": "Polygon", "coordinates": [ [ [ -73.823619952020906, 45.496439192557688 ], [ -73.829964252264404, 45.499102774685149 ], [ -73.829856612295274, 45.504298495839635 ], [ -73.823403495470387, 45.506830611180362 ], [ -73.817058651256147, 45.504166662536953 ], [ -73.817167467827602, 45.498970965133282 ], [ -73.823619952020906, 45.496439192557688 ] ] ] } },
{ "type": "Feature", "properties": { "hex_id": 571516, "centroid_lon": -73.583258383669218, "centroid_lat": 46.145878689914724, "occurrences_today": 3, "datetimes_today": "2026-01-20 08:47:01, 2026-01-20 08:56:22, 2026-01-20 09:01:52", "cumulative_total": 3.0 }, "geometry": { "type": "Polygon", "coordinates": [ [ [ -73.583391651325073, 46.140684060192697 ], [ -73.589797037308003, 46.143361416099438 ], [ -73.589664359729639, 46.148556057730289 ], [ -73.583125079329392, 46.151073314596417 ], [ -73.576719139959195, 46.148395581659116 ], [ -73.576853034364007, 46.143200968952208 ], [ -73.583391651325073, 46.140684060192697 ] ] ] } },
{ "type": "Feature", "properties": { "hex_id": 572127, "centroid_lon": -73.576585208696827, "centroid_lat": 46.153590189322955, "occurrences_today": 3, "datetimes_today": "2026-01-20 08:47:01, 2026-01-20 08:56:22, 2026-01-20 09:01:52", "cumulative_total": 3.0 }, "geometry": { "type": "Polygon", "coordinates": [ [ [ -73.576719139959195, 46.148395581659116 ], [ -73.583125079329392, 46.151073314596417 ], [ -73.582991738293046, 46.156267934237725 ], [ -73.576451240564282, 46.158784791943646 ], [ -73.570044747844506, 46.156106681812858 ], [ -73.570179306190511, 46.150912091235618 ], [ -73.576719139959195, 46.148395581659116 ] ] ] } },
{ "type": "Feature", "properties": { "hex_id": 572737, "centroid_lon": -73.570313827505274, "centroid_lat": 46.145717495612594, "occurrences_today": 3, "datetimes_today": "2026-01-20 08:47:01, 2026-01-20 08:56:22, 2026-01-20 09:01:52", "cumulative_total": 3.0 }, "geometry": { "type": "Polygon", "coordinates": [ [ [ -73.570448311801442, 46.1405228949438 ], [ -73.576853034364007, 46.143200968952208 ], [ -73.576719139959195, 46.148395581659116 ], [ -73.570179306190511, 46.150912091235618 ], [ -73.563774030761493, 46.148233640076846 ], [ -73.563909141954994, 46.143039056557889 ], [ -73.570448311801442, 46.1405228949438 ] ] ] } },
{ "type": "Feature", "properties": { "hex_id": 572738, "centroid_lon": -73.569910152454639, "centroid_lat": 46.1613012673442, "occurrences_today": 3, "datetimes_today": "2026-01-20 08:47:01, 2026-01-20 08:56:22, 2026-01-20 09:01:52", "cumulative_total": 3.0 }, "geometry": { "type": "Polygon", "coordinates": [ [ [ -73.570044747844506, 46.156106681812858 ], [ -73.576451240564282, 46.158784791943646 ], [ -73.576317235548998, 46.163979389521138 ], [ -73.56977552000825, 46.16649584782958 ], [ -73.563368473976738, 46.163817360342378 ], [ -73.563503696785062, 46.158622791969172 ], [ -73.570044747844506, 46.156106681812858 ] ] ] } },
{ "type": "Feature", "properties": { "hex_id": 573348, "centroid_lon": -73.563638882375741, "centroid_lat": 46.153428218547297, "occurrences_today": 3, "datetimes_today": "2026-01-20 08:47:01, 2026-01-20 08:56:22, 2026-01-20 09:01:52", "cumulative_total": 3.0 }, "geometry": { "type": "Polygon", "coordinates": [ [ [ -73.563774030761493, 46.148233640076846 ], [ -73.570179306190511, 46.150912091235618 ], [ -73.570044747844506, 46.156106681812858 ], [ -73.563503696785062, 46.158622791969172 ], [ -73.557097868527578, 46.155943963497123 ], [ -73.557233644145313, 46.150749402248024 ], [ -73.563774030761493, 46.148233640076846 ] ] ] } },
{ "type": "Feature", "properties": { "hex_id": 573349, "centroid_lon": -73.563233213938062, "centroid_lat": 46.169011923666858, "occurrences_today": 3, "datetimes_today": "2026-01-20 08:47:01, 2026-01-20 08:56:22, 2026-01-20 09:01:52", "cumulative_total": 3.0 }, "geometry": { "type": "Polygon", "coordinates": [ [ [ -73.563368473976738, 46.163817360342378 ], [ -73.56977552000825, 46.16649584782958 ], [ -73.569640850492689, 46.171690423268927 ], [ -73.563097916656346, 46.174206481942555 ], [ -73.556690317351141, 46.171527616935968 ], [ -73.556826205143253, 46.166333070841162 ], [ -73.563368473976738, 46.163817360342378 ] ] ] } },
{ "type": "Feature", "properties": { "hex_id": 573959, "centroid_lon": -73.556962055531145, "centroid_lat": 46.161138519694866, "occurrences_today": 3, "datetimes_today": "2026-01-20 08:47:01, 2026-01-20 08:56:22, 2026-01-20 09:01:52", "cumulative_total": 3.0 }, "geometry": { "type": "Polygon", "coordinates": [ [ [ -73.557097868527578, 46.155943963497123 ], [ -73.563503696785062, 46.158622791969172 ], [ -73.563368473976738, 46.163817360342378 ], [ -73.556826205143253, 46.166333070841162 ], [ -73.550419824095513, 46.163653864892979 ], [ -73.550556264658752, 46.158459325988161 ], [ -73.557097868527578, 46.155943963497123 ] ] ] } },
{ "type": "Feature", "properties": { "hex_id": 573960, "centroid_lon": -73.556554392142019, "centroid_lat": 46.176722157979178, "occurrences_today": 3, "datetimes_today": "2026-01-20 08:47:01, 2026-01-20 08:56:22, 2026-01-20 09:01:52", "cumulative_total": 3.0 }, "geometry": { "type": "Polygon", "coordinates": [ [ [ -73.556690317351141, 46.171527616935968 ], [ -73.563097916656346, 46.174206481942555 ], [ -73.562962582118814, 46.179401035169363 ], [ -73.556418429503111, 46.181916693970727 ], [ -73.550010276962482, 46.179237451281764 ], [ -73.550146830260204, 46.174042927539851 ], [ -73.556690317351141, 46.171527616935968 ] ] ] } },
{ "type": "Feature", "properties": { "hex_id": 574570, "centroid_lon": -73.550283345966946, "centroid_lat": 46.168848398743563, "occurrences_today": 3, "datetimes_today": "2026-01-20 08:47:01, 2026-01-20 08:56:22, 2026-01-20 09:01:52", "cumulative_total": 3.0 }, "geometry": { "type": "Polygon", "coordinates": [ [ [ -73.550419824095513, 46.163653864892979 ], [ -73.556826205143253, 46.166333070841162 ], [ -73.556690317351141, 46.171527616935968 ], [ -73.550146830260204, 46.174042927539851 ], [ -73.543739896460607, 46.171363343952564 ], [ -73.543877002490959, 46.166168827466485 ], [ -73.550419824095513, 46.163653864892979 ] ] ] } },
{ "type": "Feature", "properties": { "hex_id": 575180, "centroid_lon": -73.54401407078204, "centroid_lat": 46.160974305923396, "occurrences_today": 3, "datetimes_today": "2026-01-20 08:47:01, 2026-01-20 08:56:22, 2026-01-20 09:01:52", "cumulative_total": 3.0 }, "geometry": { "type": "Polygon", "coordinates": [ [ [ -73.544151101346742, 46.155779779323325 ], [ -73.550556264658752, 46.158459325988161 ], [ -73.550419824095513, 46.163653864892979 ], [ -73.543877002490959, 46.166168827466485 ], [ -73.537471286910289, 46.163488903205867 ], [ -73.537608945189959, 46.15829439403354 ], [ -73.544151101346742, 46.155779779323325 ] ] ] } },
{ "type": "Feature", "properties": { "hex_id": 575181, "centroid_lon": -73.543602752678098, "centroid_lat": 46.176557855381496, "occurrences_today": 3, "datetimes_today": "2026-01-20 08:47:01, 2026-01-20 08:56:22, 2026-01-20 09:01:52", "cumulative_total": 3.0 }, "geometry": { "type": "Polygon", "coordinates": [ [ [ -73.543739896460607, 46.171363343952564 ], [ -73.550146830260204, 46.174042927539851 ], [ -73.550010276962482, 46.179237451281764 ], [ -73.543465571130554, 46.181752361753254 ], [ -73.537058084617669, 46.179072400363872 ], [ -73.537195856637084, 46.173877906371118 ], [ -73.543739896460607, 46.171363343952564 ] ] ] } },
{ "type": "Feature", "properties": { "hex_id": 575791, "centroid_lon": -73.537333590730299, "centroid_lat": 46.168683407318419, "occurrences_today": 3, "datetimes_today": "2026-01-20 08:47:01, 2026-01-20 08:56:22, 2026-01-20 09:01:52", "cumulative_total": 3.0 }, "geometry": { "type": "Polygon", "coordinates": [ [ [ -73.537471286910289, 46.163488903205867 ], [ -73.543877002490959, 46.166168827466485 ], [ -73.543739896460607, 46.171363343952564 ], [ -73.537195856637084, 46.173877906371118 ], [ -73.530789588826522, 46.171197604351796 ], [ -73.530927913056416, 46.166003117738626 ], [ -73.537471286910289, 46.163488903205867 ] ] ] } }
]
}
