{
"type": "FeatureCollection",
"name": "daily_2026-02-08",
"crs": { "type": "name", "properties": { "name": "urn:ogc:def:crs:OGC:1.3:CRS84" } },
"features": [
{ "type": "Feature", "properties": { "hex_id": 244269, "centroid_lon": -77.042220589903806, "centroid_lat": 45.840213700104009, "occurrences_today": 2, "datetimes_today": "2026-02-08 11:31:33, 2026-02-08 11:46:22", "cumulative_total": 31.0 }, "geometry": { "type": "Polygon", "coordinates": [ [ [ -77.042030543042159, 45.835020506000234 ], [ -77.048559889013958, 45.837501881863446 ], [ -77.048750559783258, 45.842695052532534 ], [ -77.042410688861082, 45.845406888853532 ], [ -77.035880666877176, 45.842925175601529 ], [ -77.035691191845189, 45.837731963482412 ], [ -77.042030543042159, 45.835020506000234 ] ] ] } },
{ "type": "Feature", "properties": { "hex_id": 244879, "centroid_lon": -77.035501768736452, "centroid_lat": 45.832538746012986, "occurrences_today": 2, "datetimes_today": "2026-02-08 11:31:33, 2026-02-08 11:46:22", "cumulative_total": 31.0 }, "geometry": { "type": "Polygon", "coordinates": [ [ [ -77.035312397533417, 45.827345523193422 ], [ -77.04184054825852, 45.829827306542427 ], [ -77.042030543042159, 45.835020506000234 ], [ -77.035691191845189, 45.837731963482412 ], [ -77.029162365624998, 45.835249842762636 ], [ -77.028973566114431, 45.830056601996539 ], [ -77.035312397533417, 45.827345523193422 ] ] ] } },
{ "type": "Feature", "properties": { "hex_id": 245490, "centroid_lon": -77.029351216886525, "centroid_lat": 45.840443078182325, "occurrences_today": 2, "datetimes_today": "2026-02-08 11:31:33, 2026-02-08 11:46:22", "cumulative_total": 31.0 }, "geometry": { "type": "Polygon", "coordinates": [ [ [ -77.029162365624998, 45.835249842762636 ], [ -77.035691191845189, 45.837731963482412 ], [ -77.035880666877176, 45.842925175601529 ], [ -77.02954011991649, 45.845636308255393 ], [ -77.023010618148618, 45.843153849999368 ], [ -77.02282233890665, 45.837960596690806 ], [ -77.029162365624998, 45.835249842762636 ] ] ] } },
{ "type": "Feature", "properties": { "hex_id": 246100, "centroid_lon": -77.0226341112608, "centroid_lat": 45.832767338039559, "occurrences_today": 2, "datetimes_today": "2026-02-08 11:31:33, 2026-02-08 11:46:22", "cumulative_total": 31.0 }, "geometry": { "type": "Polygon", "coordinates": [ [ [ -77.02244593519363, 45.827574074045764 ], [ -77.028973566114431, 45.830056601996539 ], [ -77.029162365624998, 45.835249842762636 ], [ -77.02282233890665, 45.837960596690806 ], [ -77.016294032955045, 45.835477731221907 ], [ -77.016106428770044, 45.830284449408047 ], [ -77.02244593519363, 45.827574074045764 ] ] ] } },
{ "type": "Feature", "properties": { "hex_id": 246711, "centroid_lon": -77.016481688563886, "centroid_lat": 45.84067100769694, "occurrences_today": 2, "datetimes_today": "2026-02-08 11:31:33, 2026-02-08 11:46:22", "cumulative_total": 20.0 }, "geometry": { "type": "Polygon", "coordinates": [ [ [ -77.016294032955045, 45.835477731221907 ], [ -77.02282233890665, 45.837960596690806 ], [ -77.023010618148618, 45.843153849999368 ], [ -77.016669395613988, 45.84586427883292 ], [ -77.010140414579311, 45.843381075680384 ], [ -77.00995333117973, 45.838187781443025 ], [ -77.016294032955045, 45.835477731221907 ] ] ] } },
{ "type": "Feature", "properties": { "hex_id": 247321, "centroid_lon": -77.009766299049133, "centroid_lat": 45.8329944818705, "occurrences_today": 2, "datetimes_today": "2026-02-08 11:31:33, 2026-02-08 11:46:22", "cumulative_total": 20.0 }, "geometry": { "type": "Polygon", "coordinates": [ [ [ -77.009579318170154, 45.827801176962986 ], [ -77.016106428770044, 45.830284449408047 ], [ -77.016294032955045, 45.835477731221907 ], [ -77.00995333117973, 45.838187781443025 ], [ -77.003425546013531, 45.835704171332566 ], [ -77.003239137206293, 45.830510848731485 ], [ -77.009579318170154, 45.827801176962986 ] ] ] } },
{ "type": "Feature", "properties": { "hex_id": 784595, "centroid_lon": -71.311898949143497, "centroid_lat": 46.321173373022738, "occurrences_today": 12, "datetimes_today": "2026-02-08 02:05:12, 2026-02-08 02:10:00, 2026-02-08 02:19:51, 2026-02-08 02:34:48, 2026-02-08 02:50:07, 2026-02-08 02:52:45, 2026-02-08 03:05:14, 2026-02-08 03:20:13, 2026-02-08 03:34:50, 2026-02-08 03:46:29, 2026-02-08 03:50:30, 2026-02-08 04:01:35", "cumulative_total": 12.0 }, "geometry": { "type": "Polygon", "coordinates": [ [ [ -71.312247798402709, 46.315988089103492 ], [ -71.318554579286413, 46.318789872590443 ], [ -71.318206291767993, 46.323975190776217 ], [ -71.311550003812314, 46.326358650186123 ], [ -71.305242757276218, 46.323556467418754 ], [ -71.305592264315351, 46.318371224587381 ], [ -71.312247798402709, 46.315988089103492 ] ] ] } },
{ "type": "Feature", "properties": { "hex_id": 785205, "centroid_lon": -71.305941675132004, "centroid_lat": 46.313185974993424, "occurrences_today": 12, "datetimes_today": "2026-02-08 02:05:12, 2026-02-08 02:10:00, 2026-02-08 02:19:51, 2026-02-08 02:34:48, 2026-02-08 02:50:07, 2026-02-08 02:52:45, 2026-02-08 03:05:14, 2026-02-08 03:20:13, 2026-02-08 03:34:50, 2026-02-08 03:46:29, 2026-02-08 03:50:30, 2026-02-08 04:01:35", "cumulative_total": 12.0 }, "geometry": { "type": "Polygon", "coordinates": [ [ [ -71.306290989759091, 46.308000718637551 ], [ -71.312596551622789, 46.310802798429016 ], [ -71.312247798402709, 46.315988089103492 ], [ -71.305592264315351, 46.318371224587381 ], [ -71.299286237250655, 46.315568745573998 ], [ -71.299636209441445, 46.310383530364149 ], [ -71.306290989759091, 46.308000718637551 ] ] ] } },
{ "type": "Feature", "properties": { "hex_id": 785816, "centroid_lon": -71.298936168686993, "centroid_lat": 46.320753954014513, "occurrences_today": 12, "datetimes_today": "2026-02-08 02:05:12, 2026-02-08 02:10:00, 2026-02-08 02:19:51, 2026-02-08 02:34:48, 2026-02-08 02:50:07, 2026-02-08 02:52:45, 2026-02-08 03:05:14, 2026-02-08 03:20:13, 2026-02-08 03:34:50, 2026-02-08 03:46:29, 2026-02-08 03:50:30, 2026-02-08 04:01:35", "cumulative_total": 12.0 }, "geometry": { "type": "Polygon", "coordinates": [ [ [ -71.299286237250655, 46.315568745573998 ], [ -71.305592264315351, 46.318371224587381 ], [ -71.305242757276218, 46.323556467418754 ], [ -71.298586003717475, 46.325939155685049 ], [ -71.292279511550547, 46.323136277291589 ], [ -71.292630238011654, 46.317951110077409 ], [ -71.299286237250655, 46.315568745573998 ] ] ] } },
{ "type": "Feature", "properties": { "hex_id": 786426, "centroid_lon": -71.292980867916512, "centroid_lat": 46.3127659360865, "occurrences_today": 12, "datetimes_today": "2026-02-08 02:05:12, 2026-02-08 02:10:00, 2026-02-08 02:19:51, 2026-02-08 02:34:48, 2026-02-08 02:50:07, 2026-02-08 02:52:45, 2026-02-08 03:05:14, 2026-02-08 03:20:13, 2026-02-08 03:34:50, 2026-02-08 03:46:29, 2026-02-08 03:50:30, 2026-02-08 04:01:35", "cumulative_total": 12.0 }, "geometry": { "type": "Polygon", "coordinates": [ [ [ -71.293331401298119, 46.307580755319556 ], [ -71.299636209441445, 46.310383530364149 ], [ -71.299286237250655, 46.315568745573998 ], [ -71.292630238011654, 46.317951110077409 ], [ -71.286324965217247, 46.315147935711309 ], [ -71.286676156279924, 46.309962796228803 ], [ -71.293331401298119, 46.307580755319556 ] ] ] } },
{ "type": "Feature", "properties": { "hex_id": 787037, "centroid_lon": -71.28597367744797, "centroid_lat": 46.320333068410328, "occurrences_today": 12, "datetimes_today": "2026-02-08 02:05:12, 2026-02-08 02:10:00, 2026-02-08 02:19:51, 2026-02-08 02:34:48, 2026-02-08 02:50:07, 2026-02-08 02:52:45, 2026-02-08 03:05:14, 2026-02-08 03:20:13, 2026-02-08 03:34:50, 2026-02-08 03:46:29, 2026-02-08 03:50:30, 2026-02-08 04:01:35", "cumulative_total": 12.0 }, "geometry": { "type": "Polygon", "coordinates": [ [ [ -71.286324965217247, 46.315147935711309 ], [ -71.292630238011654, 46.317951110077409 ], [ -71.292279511550547, 46.323136277291589 ], [ -71.285622292939038, 46.325518194325177 ], [ -71.279316555592644, 46.322714620479459 ], [ -71.279668501376676, 46.317529529145261 ], [ -71.286324965217247, 46.315147935711309 ] ] ] } }
]
}
