{
"type": "FeatureCollection",
"name": "daily_2026-07-12",
"crs": { "type": "name", "properties": { "name": "urn:ogc:def:crs:OGC:1.3:CRS84" } },
"features": [
{ "type": "Feature", "properties": { "hex_id": 597118, "centroid_lon": -73.329735307838376, "centroid_lat": 45.534457103434789, "occurrences_today": 2, "datetimes_today": "2026-07-12 01:02:26, 2026-07-12 01:17:19", "cumulative_total": 150.0 }, "geometry": { "type": "Polygon", "coordinates": [ [ [ -73.329889103862229, 45.529262535815221 ], [ -73.33621296691976, 45.531953251737512 ], [ -73.336059738710134, 45.537147833613993 ], [ -73.329581469804495, 45.539651665903925 ], [ -73.323257080949801, 45.536960578448713 ], [ -73.323411486783812, 45.531766030301014 ], [ -73.329889103862229, 45.529262535815221 ] ] ] } },
{ "type": "Feature", "properties": { "hex_id": 696608, "centroid_lon": -72.302832150086829, "centroid_lat": 45.179609145072057, "occurrences_today": 2, "datetimes_today": "2026-07-12 00:02:18, 2026-07-12 00:16:52", "cumulative_total": 80.0 }, "geometry": { "type": "Polygon", "coordinates": [ [ [ -72.303077394349089, 45.174417808196466 ], [ -72.309311315657084, 45.17716351817959 ], [ -72.309066614446294, 45.182354879172664 ], [ -72.302586839162444, 45.184800476163382 ], [ -72.296352441476202, 45.182054390054077 ], [ -72.296598295429902, 45.176863083143623 ], [ -72.303077394349089, 45.174417808196466 ] ] ] } },
{ "type": "Feature", "properties": { "hex_id": 573919, "centroid_lon": -73.572996264199972, "centroid_lat": 45.537755730661807, "occurrences_today": 2, "datetimes_today": "2026-07-12 01:02:26, 2026-07-12 01:17:19", "cumulative_total": 90.0 }, "geometry": { "type": "Polygon", "coordinates": [ [ [ -73.573127681146204, 45.532560568852801 ], [ -73.579463840774253, 45.535237955624083 ], [ -73.579332995067688, 45.540433129291102 ], [ -73.572864811351081, 45.542950887428901 ], [ -73.566528116392021, 45.540273131333066 ], [ -73.566660140468528, 45.53507798648856 ], [ -73.573127681146204, 45.532560568852801 ] ] ] } },
{ "type": "Feature", "properties": { "hex_id": 573308, "centroid_lon": -73.579594650744994, "centroid_lat": 45.530042776917789, "occurrences_today": 2, "datetimes_today": "2026-07-12 01:02:26, 2026-07-12 01:17:19", "cumulative_total": 346.0 }, "geometry": { "type": "Polygon", "coordinates": [ [ [ -73.579725424991892, 45.52484759317236 ], [ -73.586061049252862, 45.527524610778421 ], [ -73.585930846102869, 45.532719806314745 ], [ -73.579463840774253, 45.535237955624083 ], [ -73.573127681146204, 45.532560568852801 ], [ -73.573259062201871, 45.527365402001962 ], [ -73.579725424991892, 45.52484759317236 ] ] ] } },
{ "type": "Feature", "properties": { "hex_id": 1244434, "centroid_lon": -66.125343171633844, "centroid_lat": 48.10191428529145, "occurrences_today": 5, "datetimes_today": "2026-07-12 00:02:18, 2026-07-12 00:16:52, 2026-07-12 00:31:43, 2026-07-12 01:02:26, 2026-07-12 01:17:19", "cumulative_total": 35.0 }, "geometry": { "type": "Polygon", "coordinates": [ [ [ -66.126233578974634, 48.096782110327062 ], [ -66.132423722449403, 48.099864540899397 ], [ -66.131533835136977, 48.104996799778782 ], [ -66.124452515441973, 48.107046443211061 ], [ -66.11826210083386, 48.103963553923073 ], [ -66.119153276966216, 48.098831479983289 ], [ -66.126233578974634, 48.096782110327062 ] ] ] } },
{ "type": "Feature", "properties": { "hex_id": 602609, "centroid_lon": -73.273795612571078, "centroid_lat": 45.479058413839191, "occurrences_today": 3, "datetimes_today": "2026-07-12 00:16:52, 2026-07-12 00:31:43, 2026-07-12 01:02:26", "cumulative_total": 192.0 }, "geometry": { "type": "Polygon", "coordinates": [ [ [ -73.273954251345359, 45.473863946231155 ], [ -73.280269233448166, 45.476557655831044 ], [ -73.280111160061978, 45.481752138230028 ], [ -73.273636930494106, 45.484252876270048 ], [ -73.267321426313174, 45.481558795329157 ], [ -73.267480673763728, 45.476364347753623 ], [ -73.273954251345359, 45.473863946231155 ] ] ] } },
{ "type": "Feature", "properties": { "hex_id": 561708, "centroid_lon": -73.701403184963652, "centroid_lat": 45.523697495773824, "occurrences_today": 2, "datetimes_today": "2026-07-12 00:02:18, 2026-07-12 00:16:52", "cumulative_total": 266.0 }, "geometry": { "type": "Polygon", "coordinates": [ [ [ -73.701522720072973, 45.518502043708189 ], [ -73.707863566214641, 45.521172362298884 ], [ -73.707744603659719, 45.526367824948736 ], [ -73.701283617201554, 45.528892942848039 ], [ -73.694942231163736, 45.526222256312025 ], [ -73.695062371469277, 45.521026819886572 ], [ -73.701522720072973, 45.518502043708189 ] ] ] } },
{ "type": "Feature", "properties": { "hex_id": 793144, "centroid_lon": -71.219019232999969, "centroid_lat": 46.349315000738706, "occurrences_today": 5, "datetimes_today": "2026-07-12 00:02:18, 2026-07-12 00:16:52, 2026-07-12 00:31:43, 2026-07-12 01:02:26, 2026-07-12 01:17:19", "cumulative_total": 40.0 }, "geometry": { "type": "Polygon", "coordinates": [ [ [ -71.21937720625543, 46.344130291833693 ], [ -71.225682064533288, 46.346937151272542 ], [ -71.225324652402563, 46.352121895354777 ], [ -71.218661161134378, 46.354499702783485 ], [ -71.212355840358782, 46.351692442934954 ], [ -71.212714473315387, 46.346507776132938 ], [ -71.21937720625543, 46.344130291833693 ] ] ] } },
{ "type": "Feature", "properties": { "hex_id": 539734, "centroid_lon": -73.930668122081983, "centroid_lat": 45.588435314118641, "occurrences_today": 5, "datetimes_today": "2026-07-12 00:02:18, 2026-07-12 00:16:52, 2026-07-12 00:31:43, 2026-07-12 01:02:26, 2026-07-12 01:17:19", "cumulative_total": 144.0 }, "geometry": { "type": "Polygon", "coordinates": [ [ [ -73.930766778528579, 45.583239490860109 ], [ -73.93712594488801, 45.585897214368494 ], [ -73.937027866038775, 45.591093045948654 ], [ -73.930569438662587, 45.593631132463841 ], [ -73.924209721683127, 45.590973042358719 ], [ -73.924308982690789, 45.585777232399892 ], [ -73.930766778528579, 45.583239490860109 ] ] ] } },
{ "type": "Feature", "properties": { "hex_id": 589158, "centroid_lon": -73.423157332881303, "centroid_lat": 45.169399251578938, "occurrences_today": 5, "datetimes_today": "2026-07-12 00:02:18, 2026-07-12 00:16:52, 2026-07-12 00:31:43, 2026-07-12 01:02:26, 2026-07-12 01:17:19", "cumulative_total": 16.0 }, "geometry": { "type": "Polygon", "coordinates": [ [ [ -73.423300693459268, 45.164204110128047 ], [ -73.429589053189375, 45.166889331839393 ], [ -73.429446250871635, 45.172084486528526 ], [ -73.423013933311324, 45.174594387926533 ], [ -73.4167250543195, 45.171908800152472 ], [ -73.416869012136772, 45.166713677106806 ], [ -73.423300693459268, 45.164204110128047 ] ] ] } },
{ "type": "Feature", "properties": { "hex_id": 590379, "centroid_lon": -73.410436772723941, "centroid_lat": 45.169222872892725, "occurrences_today": 5, "datetimes_today": "2026-07-12 00:02:18, 2026-07-12 00:16:52, 2026-07-12 00:31:43, 2026-07-12 01:02:26, 2026-07-12 01:17:19", "cumulative_total": 16.0 }, "geometry": { "type": "Polygon", "coordinates": [ [ [ -73.410581288624996, 45.164027763209901 ], [ -73.416869012136772, 45.166713677106806 ], [ -73.4167250543195, 45.171908800152472 ], [ -73.41029221751694, 45.174417977466526 ], [ -73.404003975233849, 45.171731697392381 ], [ -73.404149088511573, 45.166536606245124 ], [ -73.410581288624996, 45.164027763209901 ] ] ] } },
{ "type": "Feature", "properties": { "hex_id": 808535, "centroid_lon": -70.905053439952553, "centroid_lat": 48.341624907501384, "occurrences_today": 3, "datetimes_today": "2026-07-12 00:02:18, 2026-07-12 00:16:52, 2026-07-12 00:31:43", "cumulative_total": 30.0 }, "geometry": { "type": "Polygon", "coordinates": [ [ [ -70.90546906163776, 48.336443963357532 ], [ -70.911991206972559, 48.339274211569119 ], [ -70.911576204995612, 48.344455195398936 ], [ -70.904637700579229, 48.346805844267941 ], [ -70.898115053245505, 48.343975165292619 ], [ -70.898531412284655, 48.338794268282449 ], [ -70.90546906163776, 48.336443963357532 ] ] ] } },
{ "type": "Feature", "properties": { "hex_id": 807925, "centroid_lon": -70.911161085500069, "centroid_lat": 48.349636171859714, "occurrences_today": 3, "datetimes_today": "2026-07-12 00:02:18, 2026-07-12 00:16:52, 2026-07-12 00:31:43", "cumulative_total": 13.0 }, "geometry": { "type": "Polygon", "coordinates": [ [ [ -70.911576204995612, 48.344455195398936 ], [ -70.918099707456264, 48.347285131862712 ], [ -70.917685208050457, 48.352466147955511 ], [ -70.910745848443497, 48.354817140950516 ], [ -70.904221843475312, 48.351986773656257 ], [ -70.904637700579229, 48.346805844267941 ], [ -70.911576204995612, 48.344455195398936 ] ] ] } }
]
}
