{
"type": "FeatureCollection",
"name": "daily_2026-06-17",
"crs": { "type": "name", "properties": { "name": "urn:ogc:def:crs:OGC:1.3:CRS84" } },
"features": [
{ "type": "Feature", "properties": { "hex_id": 609939, "centroid_lon": -73.19507139661269, "centroid_lat": 45.540203341530145, "occurrences_today": 10, "datetimes_today": "2026-06-17 00:01:29, 2026-06-17 00:16:22, 2026-06-17 00:32:08, 2026-06-17 00:46:24, 2026-06-17 01:01:43, 2026-06-17 01:16:15, 2026-06-17 01:31:31, 2026-06-17 01:46:35, 2026-06-17 02:01:43, 2026-06-17 02:16:18", "cumulative_total": 158.0 }, "geometry": { "type": "Polygon", "coordinates": [ [ [ -73.195237621691007, 45.535009150082196 ], [ -73.201555466749909, 45.537707232690913 ], [ -73.201389807798719, 45.542901439721824 ], [ -73.194905126129413, 45.545397527760173 ], [ -73.188586760355975, 45.542699072313873 ], [ -73.188753596951159, 45.537504901731289 ], [ -73.195237621691007, 45.535009150082196 ] ] ] } },
{ "type": "Feature", "properties": { "hex_id": 673465, "centroid_lon": -72.506027211335322, "centroid_lat": 46.057292355336891, "occurrences_today": 4, "datetimes_today": "2026-06-17 00:01:29, 2026-06-17 00:16:22, 2026-06-17 00:32:08, 2026-06-17 00:46:24", "cumulative_total": 217.0 }, "geometry": { "type": "Polygon", "coordinates": [ [ [ -72.506261036787109, 46.052100983100921 ], [ -72.512601649236402, 46.054837472141628 ], [ -72.512368395681392, 46.060028866912297 ], [ -72.505793321633064, 46.062483721914909 ], [ -72.499452201548408, 46.05974684718916 ], [ -72.499686663125587, 46.054555503211297 ], [ -72.506261036787109, 46.052100983100921 ] ] ] } },
{ "type": "Feature", "properties": { "hex_id": 674076, "centroid_lon": -72.499217675544301, "centroid_lat": 46.064938185504204, "occurrences_today": 4, "datetimes_today": "2026-06-17 00:01:29, 2026-06-17 00:16:22, 2026-06-17 00:32:08, 2026-06-17 00:46:24", "cumulative_total": 230.0 }, "geometry": { "type": "Polygon", "coordinates": [ [ [ -72.499452201548408, 46.05974684718916 ], [ -72.505793321633064, 46.062483721914909 ], [ -72.505559367658478, 46.06767508283469 ], [ -72.498983085091311, 46.070129518156136 ], [ -72.492641457436946, 46.067392257585389 ], [ -72.492876619897544, 46.062200947603671 ], [ -72.499452201548408, 46.05974684718916 ] ] ] } },
{ "type": "Feature", "properties": { "hex_id": 674686, "centroid_lon": -72.493111717754658, "centroid_lat": 46.057009631954237, "occurrences_today": 4, "datetimes_today": "2026-06-17 00:01:29, 2026-06-17 00:16:22, 2026-06-17 00:32:08, 2026-06-17 00:46:24", "cumulative_total": 217.0 }, "geometry": { "type": "Polygon", "coordinates": [ [ [ -72.493346751030288, 46.051818310637408 ], [ -72.499686663125587, 46.054555503211297 ], [ -72.499452201548408, 46.05974684718916 ], [ -72.492876619897544, 46.062200947603671 ], [ -72.486536200696264, 46.059463369234969 ], [ -72.486771870229873, 46.054272076312024 ], [ -72.493346751030288, 46.051818310637408 ] ] ] } },
{ "type": "Feature", "properties": { "hex_id": 367563, "centroid_lon": -75.736258728217308, "centroid_lat": 45.435163624438736, "occurrences_today": 10, "datetimes_today": "2026-06-17 00:01:29, 2026-06-17 00:16:22, 2026-06-17 00:32:08, 2026-06-17 00:46:24, 2026-06-17 01:01:43, 2026-06-17 01:16:15, 2026-06-17 01:31:31, 2026-06-17 01:46:35, 2026-06-17 02:01:43, 2026-06-17 02:16:18", "cumulative_total": 293.0 }, "geometry": { "type": "Polygon", "coordinates": [ [ [ -75.73619116089921, 45.429967184434595 ], [ -75.742616633149098, 45.432524027134995 ], [ -75.742684796235707, 45.437720457269116 ], [ -75.736326313975994, 45.440360059616147 ], [ -75.729900227513895, 45.437802870297581 ], [ -75.729833237529874, 45.432606425314596 ], [ -75.73619116089921, 45.429967184434595 ] ] ] } },
{ "type": "Feature", "properties": { "hex_id": 665546, "centroid_lon": -72.578031268771156, "centroid_lat": 46.331650728182929, "occurrences_today": 6, "datetimes_today": "2026-06-17 00:01:29, 2026-06-17 00:16:22, 2026-06-17 00:32:08, 2026-06-17 00:46:24, 2026-06-17 01:01:43, 2026-06-17 01:16:15", "cumulative_total": 75.0 }, "geometry": { "type": "Polygon", "coordinates": [ [ [ -72.578260530732265, 46.326459325612419 ], [ -72.584635987055975, 46.329192383740903 ], [ -72.584407306488558, 46.334383808258394 ], [ -72.577801943588824, 46.33684212514126 ], [ -72.571425969103473, 46.334108678354561 ], [ -72.571655875657825, 46.328917303409348 ], [ -72.578260530732265, 46.326459325612419 ] ] ] } },
{ "type": "Feature", "properties": { "hex_id": 666767, "centroid_lon": -72.565050639379976, "centroid_lat": 46.331374886910965, "occurrences_today": 6, "datetimes_today": "2026-06-17 00:01:29, 2026-06-17 00:16:22, 2026-06-17 00:32:08, 2026-06-17 00:46:24, 2026-06-17 01:01:43, 2026-06-17 01:16:15", "cumulative_total": 81.0 }, "geometry": { "type": "Polygon", "coordinates": [ [ [ -72.565281127126894, 46.32618353404046 ], [ -72.571655875657825, 46.328917303409348 ], [ -72.571425969103473, 46.334108678354561 ], [ -72.56482008807464, 46.336566234159953 ], [ -72.558444821920418, 46.333832076021402 ], [ -72.558675954396548, 46.328640750913259 ], [ -72.565281127126894, 46.32618353404046 ] ] ] } },
{ "type": "Feature", "properties": { "hex_id": 564765, "centroid_lon": -73.667742289178108, "centroid_lat": 45.593466342075502, "occurrences_today": 3, "datetimes_today": "2026-06-17 00:01:29, 2026-06-17 00:16:22, 2026-06-17 00:32:08", "cumulative_total": 323.0 }, "geometry": { "type": "Polygon", "coordinates": [ [ [ -73.667865220768945, 45.588271023925778 ], [ -73.674212208047962, 45.590943249389845 ], [ -73.674089850666704, 45.596138578473209 ], [ -73.667619323978798, 45.598661655220738 ], [ -73.66127179610433, 45.595989060610677 ], [ -73.661395335501894, 45.590793758463782 ], [ -73.667865220768945, 45.588271023925778 ] ] ] } },
{ "type": "Feature", "properties": { "hex_id": 565376, "centroid_lon": -73.66114822293116, "centroid_lat": 45.601184357750576, "occurrences_today": 3, "datetimes_today": "2026-06-17 00:01:29, 2026-06-17 00:16:22, 2026-06-17 00:32:08", "cumulative_total": 278.0 }, "geometry": { "type": "Polygon", "coordinates": [ [ [ -73.66127179610433, 45.595989060610677 ], [ -73.667619323978798, 45.598661655220738 ], [ -73.667496325159732, 45.603856963361395 ], [ -73.661024615971087, 45.606379649883372 ], [ -73.654676547535146, 45.603706685967445 ], [ -73.654800728837941, 45.59851140490013 ], [ -73.66127179610433, 45.595989060610677 ] ] ] } },
{ "type": "Feature", "properties": { "hex_id": 379777, "centroid_lon": -75.609087534844292, "centroid_lat": 45.498274677902046, "occurrences_today": 8, "datetimes_today": "2026-06-17 00:01:29, 2026-06-17 00:16:22, 2026-06-17 00:32:08, 2026-06-17 00:46:24, 2026-06-17 01:01:43, 2026-06-17 01:16:15, 2026-06-17 01:31:31, 2026-06-17 01:46:35", "cumulative_total": 128.0 }, "geometry": { "type": "Polygon", "coordinates": [ [ [ -75.609031514611232, 45.493078159934186 ], [ -75.615458517658126, 45.495642120499433 ], [ -75.615515134099766, 45.500838629884989 ], [ -75.609143570378507, 45.503471191067881 ], [ -75.60271595581932, 45.500906881779066 ], [ -75.602660516498844, 45.495710360095508 ], [ -75.609031514611232, 45.493078159934186 ] ] ] } },
{ "type": "Feature", "properties": { "hex_id": 540331, "centroid_lon": -73.928257273416648, "centroid_lat": 45.377940803918975, "occurrences_today": 3, "datetimes_today": "2026-06-17 00:01:29, 2026-06-17 00:16:22, 2026-06-17 00:32:08", "cumulative_total": 105.0 }, "geometry": { "type": "Polygon", "coordinates": [ [ [ -73.928355429539138, 45.372744792465376 ], [ -73.934691022340729, 45.375402532026293 ], [ -73.934593437414463, 45.380598551786314 ], [ -73.928159090525938, 45.383136810458872 ], [ -73.921822953300833, 45.380478706932358 ], [ -73.9219217073788, 45.375282708763145 ], [ -73.928355429539138, 45.372744792465376 ] ] ] } },
{ "type": "Feature", "properties": { "hex_id": 664326, "centroid_lon": -72.590327602104779, "centroid_lat": 46.347499419528759, "occurrences_today": 7, "datetimes_today": "2026-06-17 00:01:29, 2026-06-17 00:16:22, 2026-06-17 00:32:08, 2026-06-17 00:46:24, 2026-06-17 01:01:43, 2026-06-17 01:16:15, 2026-06-17 01:31:31", "cumulative_total": 65.0 }, "geometry": { "type": "Polygon", "coordinates": [ [ [ -72.590555826931777, 46.342307984332571 ], [ -72.596933735832621, 46.345040396531566 ], [ -72.596706093074062, 46.350231853560402 ], [ -72.590099314329109, 46.35269084912121 ], [ -72.583720886319313, 46.349958048163664 ], [ -72.583949756141848, 46.344766640470056 ], [ -72.590555826931777, 46.342307984332571 ] ] ] } },
{ "type": "Feature", "properties": { "hex_id": 664937, "centroid_lon": -72.583491953368508, "centroid_lat": 46.355149450248746, "occurrences_today": 7, "datetimes_today": "2026-06-17 00:01:29, 2026-06-17 00:16:22, 2026-06-17 00:32:08, 2026-06-17 00:46:24, 2026-06-17 01:01:43, 2026-06-17 01:16:15, 2026-06-17 01:31:31", "cumulative_total": 62.0 }, "geometry": { "type": "Polygon", "coordinates": [ [ [ -72.583720886319313, 46.349958048163664 ], [ -72.590099314329109, 46.35269084912121 ], [ -72.589870963583152, 46.357882273109645 ], [ -72.583262957267735, 46.360340846725066 ], [ -72.576884010213845, 46.357607656847108 ], [ -72.577113588497824, 46.352416282340315 ], [ -72.583720886319313, 46.349958048163664 ] ] ] } },
{ "type": "Feature", "properties": { "hex_id": 665547, "centroid_lon": -72.577343103473837, "centroid_lat": 46.347224902220226, "occurrences_today": 6, "datetimes_today": "2026-06-17 00:01:29, 2026-06-17 00:16:22, 2026-06-17 00:32:08, 2026-06-17 00:46:24, 2026-06-17 01:01:43, 2026-06-17 01:16:15", "cumulative_total": 37.0 }, "geometry": { "type": "Polygon", "coordinates": [ [ [ -72.577572555163613, 46.342033516487113 ], [ -72.583949756141848, 46.344766640470056 ], [ -72.583720886319313, 46.349958048163664 ], [ -72.577113588497824, 46.352416282340315 ], [ -72.570735868949441, 46.349682769487195 ], [ -72.570965965771009, 46.344491411393768 ], [ -72.577572555163613, 46.342033516487113 ] ] ] } },
{ "type": "Feature", "properties": { "hex_id": 777912, "centroid_lon": -71.349383045646292, "centroid_lat": 46.829026981153632, "occurrences_today": 10, "datetimes_today": "2026-06-17 00:01:29, 2026-06-17 00:16:22, 2026-06-17 00:32:08, 2026-06-17 00:46:24, 2026-06-17 01:01:43, 2026-06-17 01:16:15, 2026-06-17 01:31:31, 2026-06-17 01:46:35, 2026-06-17 02:01:43, 2026-06-17 02:16:18", "cumulative_total": 70.0 }, "geometry": { "type": "Polygon", "coordinates": [ [ [ -71.34973452888029, 46.82384194120511 ], [ -71.356101050828187, 46.826643201742073 ], [ -71.355750145476449, 46.831828275925425 ], [ -71.349031464960248, 46.83421201435651 ], [ -71.342664462599018, 46.831410347984139 ], [ -71.343016621133543, 46.826225349082861 ], [ -71.34973452888029, 46.82384194120511 ] ] ] } },
{ "type": "Feature", "properties": { "hex_id": 598346, "centroid_lon": -73.31366905880833, "centroid_lat": 45.643353165765653, "occurrences_today": 1, "datetimes_today": "2026-06-17 00:01:29", "cumulative_total": 337.0 }, "geometry": { "type": "Polygon", "coordinates": [ [ [ -73.313824924225386, 45.638158740316271 ], [ -73.320160088069088, 45.640850458984929 ], [ -73.320004793519487, 45.646044898881158 ], [ -73.313513150760059, 45.648547586055749 ], [ -73.307177458687278, 45.645855494317985 ], [ -73.307333937588623, 45.640661088539474 ], [ -73.313824924225386, 45.638158740316271 ] ] ] } },
{ "type": "Feature", "properties": { "hex_id": 599567, "centroid_lon": -73.300842380260519, "centroid_lat": 45.643163058507412, "occurrences_today": 1, "datetimes_today": "2026-06-17 00:01:29", "cumulative_total": 409.0 }, "geometry": { "type": "Polygon", "coordinates": [ [ [ -73.30099942984603, 45.637968667302154 ], [ -73.307333937588623, 45.640661088539474 ], [ -73.307177458687278, 45.645855494317985 ], [ -73.300685287720327, 45.648357444547123 ], [ -73.294350252255484, 45.645664650125312 ], [ -73.294507915465374, 45.640470278723576 ], [ -73.30099942984603, 45.637968667302154 ] ] ] } },
{ "type": "Feature", "properties": { "hex_id": 666157, "centroid_lon": -72.571195999148443, "centroid_lat": 46.339300047682798, "occurrences_today": 6, "datetimes_today": "2026-06-17 00:01:29, 2026-06-17 00:16:22, 2026-06-17 00:32:08, 2026-06-17 00:46:24, 2026-06-17 01:01:43, 2026-06-17 01:16:15", "cumulative_total": 95.0 }, "geometry": { "type": "Polygon", "coordinates": [ [ [ -72.571425969103473, 46.334108678354561 ], [ -72.577801943588824, 46.33684212514126 ], [ -72.577572555163613, 46.342033516487113 ], [ -72.570965965771009, 46.344491411393768 ], [ -72.56458947318913, 46.341757575787142 ], [ -72.56482008807464, 46.336566234159953 ], [ -72.571425969103473, 46.334108678354561 ] ] ] } },
{ "type": "Feature", "properties": { "hex_id": 790123, "centroid_lon": -71.217454643053912, "centroid_lat": 46.840326221885235, "occurrences_today": 10, "datetimes_today": "2026-06-17 00:01:29, 2026-06-17 00:16:22, 2026-06-17 00:32:08, 2026-06-17 00:46:24, 2026-06-17 01:01:43, 2026-06-17 01:16:15, 2026-06-17 01:31:31, 2026-06-17 01:46:35, 2026-06-17 02:01:43, 2026-06-17 02:16:18", "cumulative_total": 111.0 }, "geometry": { "type": "Polygon", "coordinates": [ [ [ -71.217818954080883, 46.835141968746854 ], [ -71.224179455237262, 46.837950415105922 ], [ -71.223815720316864, 46.843134703765642 ], [ -71.217090231018048, 46.845510468129802 ], [ -71.210729254781512, 46.842701614702733 ], [ -71.211094242888933, 46.837517404046245 ], [ -71.217818954080883, 46.835141968746854 ] ] ] } },
{ "type": "Feature", "properties": { "hex_id": 533031, "centroid_lon": -73.997691784166548, "centroid_lat": 45.783917678180757, "occurrences_today": 3, "datetimes_today": "2026-06-17 00:01:29, 2026-06-17 00:16:22, 2026-06-17 00:32:08", "cumulative_total": 160.0 }, "geometry": { "type": "Polygon", "coordinates": [ [ [ -73.99778488991366, 45.778721923412768 ], [ -74.004169325252789, 45.78137603739647 ], [ -74.004076803999311, 45.786571799853384 ], [ -73.997598652902767, 45.789113428055458 ], [ -73.991213658591008, 45.786458945633953 ], [ -73.991307374339812, 45.781263203513362 ], [ -73.99778488991366, 45.778721923412768 ] ] ] } },
{ "type": "Feature", "properties": { "hex_id": 662495, "centroid_lon": -72.609465010117731, "centroid_lat": 46.35569568613105, "occurrences_today": 7, "datetimes_today": "2026-06-17 00:01:29, 2026-06-17 00:16:22, 2026-06-17 00:32:08, 2026-06-17 00:46:24, 2026-06-17 01:01:43, 2026-06-17 01:16:15, 2026-06-17 01:31:31", "cumulative_total": 64.0 }, "geometry": { "type": "Polygon", "coordinates": [ [ [ -72.609691488200781, 46.350504185622 ], [ -72.616071331710998, 46.353235562307788 ], [ -72.615845436235091, 46.358427084464367 ], [ -72.609238469560296, 46.360887181049804 ], [ -72.602858105928064, 46.358155415667156 ], [ -72.603085229071212, 46.352963942462111 ], [ -72.609691488200781, 46.350504185622 ] ] ] } },
{ "type": "Feature", "properties": { "hex_id": 663105, "centroid_lon": -72.603312289581794, "centroid_lat": 46.347772463662317, "occurrences_today": 6, "datetimes_today": "2026-06-17 00:01:29, 2026-06-17 00:16:22, 2026-06-17 00:32:08, 2026-06-17 00:46:24, 2026-06-17 01:01:43, 2026-06-17 01:16:15", "cumulative_total": 33.0 }, "geometry": { "type": "Polygon", "coordinates": [ [ [ -72.603539287481283, 46.342580979268014 ], [ -72.609917903830805, 46.345312679522927 ], [ -72.609691488200781, 46.350504185622 ], [ -72.603085229071212, 46.352963942462111 ], [ -72.596706093074062, 46.350231853560402 ], [ -72.596933735832621, 46.345040396531566 ], [ -72.603539287481283, 46.342580979268014 ] ] ] } },
{ "type": "Feature", "properties": { "hex_id": 298582, "centroid_lon": -76.460649539839665, "centroid_lat": 45.513944724690106, "occurrences_today": 10, "datetimes_today": "2026-06-17 00:01:29, 2026-06-17 00:16:22, 2026-06-17 00:32:08, 2026-06-17 00:46:24, 2026-06-17 01:01:43, 2026-06-17 01:16:15, 2026-06-17 01:31:31, 2026-06-17 01:46:35, 2026-06-17 02:01:43, 2026-06-17 02:16:18", "cumulative_total": 153.0 }, "geometry": { "type": "Polygon", "coordinates": [ [ [ -76.460515136595859, 45.508749618146794 ], [ -76.466981375135788, 45.511265155893184 ], [ -76.467116385140173, 45.516460245131739 ], [ -76.460783979790861, 45.519139826177671 ], [ -76.454317097776809, 45.516623948584915 ], [ -76.454183264598498, 45.511428829857074 ], [ -76.460515136595859, 45.508749618146794 ] ] ] } },
{ "type": "Feature", "properties": { "hex_id": 299193, "centroid_lon": -76.454450967508095, "centroid_lat": 45.521819062259631, "occurrences_today": 10, "datetimes_today": "2026-06-17 00:01:29, 2026-06-17 00:16:22, 2026-06-17 00:32:08, 2026-06-17 00:46:24, 2026-06-17 01:01:43, 2026-06-17 01:16:15, 2026-06-17 01:31:31, 2026-06-17 01:46:35, 2026-06-17 02:01:43, 2026-06-17 02:16:18", "cumulative_total": 273.0 }, "geometry": { "type": "Polygon", "coordinates": [ [ [ -76.454317097776809, 45.516623948584915 ], [ -76.460783979790861, 45.519139826177671 ], [ -76.460918456461783, 45.524334922609398 ], [ -76.454584873804649, 45.527014170881138 ], [ -76.448117348279567, 45.524497953278747 ], [ -76.447984048934913, 45.519302827478754 ], [ -76.454317097776809, 45.516623948584915 ] ] ] } },
{ "type": "Feature", "properties": { "hex_id": 299803, "centroid_lon": -76.447850785988791, "centroid_lat": 45.514107696628287, "occurrences_today": 10, "datetimes_today": "2026-06-17 00:01:29, 2026-06-17 00:16:22, 2026-06-17 00:32:08, 2026-06-17 00:46:24, 2026-06-17 01:01:43, 2026-06-17 01:16:15, 2026-06-17 01:31:31, 2026-06-17 01:46:35, 2026-06-17 02:01:43, 2026-06-17 02:16:18", "cumulative_total": 153.0 }, "geometry": { "type": "Polygon", "coordinates": [ [ [ -76.447717559428966, 45.508912560727424 ], [ -76.454183264598498, 45.511428829857074 ], [ -76.454317097776809, 45.516623948584915 ], [ -76.447984048934913, 45.519302827478754 ], [ -76.441517700754488, 45.516786218361574 ], [ -76.441385044439045, 45.511591070402581 ], [ -76.447717559428966, 45.508912560727424 ] ] ] } },
{ "type": "Feature", "properties": { "hex_id": 795720, "centroid_lon": -71.039768642048685, "centroid_lat": 48.432077438139451, "occurrences_today": 10, "datetimes_today": "2026-06-17 00:01:29, 2026-06-17 00:16:22, 2026-06-17 00:32:08, 2026-06-17 00:46:24, 2026-06-17 01:01:43, 2026-06-17 01:16:15, 2026-06-17 01:31:31, 2026-06-17 01:46:35, 2026-06-17 02:01:43, 2026-06-17 02:16:18", "cumulative_total": 95.0 }, "geometry": { "type": "Polygon", "coordinates": [ [ [ -71.040171890624961, 48.42689571692943 ], [ -71.046713273639369, 48.429718793103795 ], [ -71.046310650253446, 48.434900552737332 ], [ -71.039365279112516, 48.437259152138125 ], [ -71.032823385288324, 48.434435644986976 ], [ -71.033227373373492, 48.429253969482588 ], [ -71.040171890624961, 48.42689571692943 ] ] ] } },
{ "type": "Feature", "properties": { "hex_id": 534844, "centroid_lon": -73.98362575981227, "centroid_lat": 45.495376694613519, "occurrences_today": 4, "datetimes_today": "2026-06-17 01:31:31, 2026-06-17 01:46:35, 2026-06-17 02:01:43, 2026-06-17 02:16:18", "cumulative_total": 231.0 }, "geometry": { "type": "Polygon", "coordinates": [ [ [ -73.983719227277689, 45.490180698793054 ], [ -73.990070532520576, 45.49283544860107 ], [ -73.9899776405301, 45.498031452199456 ], [ -73.983532266821001, 45.500572685536689 ], [ -73.977180411633313, 45.497917570812184 ], [ -73.977274480090969, 45.492721587731488 ], [ -73.983719227277689, 45.490180698793054 ] ] ] } },
{ "type": "Feature", "properties": { "hex_id": 748606, "centroid_lon": -71.665433165062737, "centroid_lat": 46.807505455057658, "occurrences_today": 1, "datetimes_today": "2026-06-17 00:01:29", "cumulative_total": 125.0 }, "geometry": { "type": "Polygon", "coordinates": [ [ [ -71.665754013458795, 46.802318647210029 ], [ -71.672135443976373, 46.805102658680333 ], [ -71.671815177831974, 46.810289497672485 ], [ -71.665112227704185, 46.812692256492852 ], [ -71.658730303912833, 46.809907842105332 ], [ -71.65905182349222, 46.804721071881552 ], [ -71.665754013458795, 46.802318647210029 ] ] ] } },
{ "type": "Feature", "properties": { "hex_id": 467123, "centroid_lon": -74.690101413288545, "centroid_lat": 46.193210118830926, "occurrences_today": 10, "datetimes_today": "2026-06-17 00:01:29, 2026-06-17 00:16:22, 2026-06-17 00:32:08, 2026-06-17 00:46:24, 2026-06-17 01:01:43, 2026-06-17 01:16:15, 2026-06-17 01:31:31, 2026-06-17 01:46:35, 2026-06-17 02:01:43, 2026-06-17 02:16:18", "cumulative_total": 94.0 }, "geometry": { "type": "Polygon", "coordinates": [ [ [ -74.690130615283238, 46.188014017683571 ], [ -74.696595461641053, 46.190629448840994 ], [ -74.696566866277223, 46.195825550743251 ], [ -74.690072203248349, 46.198406215219656 ], [ -74.683606758306539, 46.195790417197536 ], [ -74.683636574974841, 46.190594321629916 ], [ -74.690130615283238, 46.188014017683571 ] ] ] } },
{ "type": "Feature", "properties": { "hex_id": 467733, "centroid_lon": -74.683666383430847, "centroid_lat": 46.185398221303068, "occurrences_today": 10, "datetimes_today": "2026-06-17 00:01:29, 2026-06-17 00:16:22, 2026-06-17 00:32:08, 2026-06-17 00:46:24, 2026-06-17 01:01:43, 2026-06-17 01:16:15, 2026-06-17 01:31:31, 2026-06-17 01:46:35, 2026-06-17 02:01:43, 2026-06-17 02:16:18", "cumulative_total": 70.0 }, "geometry": { "type": "Polygon", "coordinates": [ [ [ -74.683696183677341, 46.18020211621694 ], [ -74.690159809235183, 46.182817911777555 ], [ -74.690130615283238, 46.188014017683571 ], [ -74.683636574974841, 46.190594321629916 ], [ -74.67717235133334, 46.187978159239997 ], [ -74.677202766081095, 46.182782059799251 ], [ -74.683696183677341, 46.18020211621694 ] ] ] } },
{ "type": "Feature", "properties": { "hex_id": 469564, "centroid_lon": -74.664277374878196, "centroid_lat": 46.177548641820664, "occurrences_today": 10, "datetimes_today": "2026-06-17 00:01:29, 2026-06-17 00:16:22, 2026-06-17 00:32:08, 2026-06-17 00:46:24, 2026-06-17 01:01:43, 2026-06-17 01:16:15, 2026-06-17 01:31:31, 2026-06-17 01:46:35, 2026-06-17 02:01:43, 2026-06-17 02:16:18", "cumulative_total": 82.0 }, "geometry": { "type": "Polygon", "coordinates": [ [ [ -74.664308992991366, 46.172352539587649 ], [ -74.670770775558296, 46.174969430022252 ], [ -74.670739763231168, 46.180165533271875 ], [ -74.664245748055606, 46.182744739292481 ], [ -74.65778336841349, 46.180127481934441 ], [ -74.65781560101918, 46.174931385545406 ], [ -74.664308992991366, 46.172352539587649 ] ] ] } },
{ "type": "Feature", "properties": { "hex_id": 801725, "centroid_lon": -71.090328094460475, "centroid_lat": 46.875020916230142, "occurrences_today": 2, "datetimes_today": "2026-06-17 00:46:24, 2026-06-17 01:01:43", "cumulative_total": 3.0 }, "geometry": { "type": "Polygon", "coordinates": [ [ [ -71.090705087367795, 46.869837468924686 ], [ -71.097062486728689, 46.872652903314531 ], [ -71.096686068941523, 46.877836387394929 ], [ -71.089950996994759, 46.880204356492236 ], [ -71.083593127090268, 46.877388513530271 ], [ -71.083970799639857, 46.87220511010986 ], [ -71.090705087367795, 46.869837468924686 ] ] ] } },
{ "type": "Feature", "properties": { "hex_id": 533642, "centroid_lon": -73.991119917157576, "centroid_lat": 45.791654682859352, "occurrences_today": 3, "datetimes_today": "2026-06-17 00:01:29, 2026-06-17 00:16:22, 2026-06-17 00:32:08", "cumulative_total": 265.0 }, "geometry": { "type": "Polygon", "coordinates": [ [ [ -73.991213658591008, 45.786458945633953 ], [ -73.997598652902767, 45.789113428055458 ], [ -73.997505496113632, 45.794309173036829 ], [ -73.99102615003082, 45.796850415189532 ], [ -73.984640596772437, 45.794195564168639 ], [ -73.984734948534808, 45.78899983965966 ], [ -73.991213658591008, 45.786458945633953 ] ] ] } },
{ "type": "Feature", "properties": { "hex_id": 465902, "centroid_lon": -74.703060922507035, "centroid_lat": 46.193244514675605, "occurrences_today": 10, "datetimes_today": "2026-06-17 00:01:29, 2026-06-17 00:16:22, 2026-06-17 00:32:08, 2026-06-17 00:46:24, 2026-06-17 01:01:43, 2026-06-17 01:16:15, 2026-06-17 01:31:31, 2026-06-17 01:46:35, 2026-06-17 02:01:43, 2026-06-17 02:16:18", "cumulative_total": 69.0 }, "geometry": { "type": "Polygon", "coordinates": [ [ [ -74.703088903361376, 46.188048407326626 ], [ -74.709554371935099, 46.190663107115633 ], [ -74.709526997883827, 46.195859215087644 ], [ -74.703032933943632, 46.198440617267117 ], [ -74.696566866277223, 46.195825550743251 ], [ -74.696595461641053, 46.190629448840994 ], [ -74.703088903361376, 46.188048407326626 ] ] ] } },
{ "type": "Feature", "properties": { "hex_id": 466512, "centroid_lon": -74.696624049128957, "centroid_lat": 46.185433342180694, "occurrences_today": 10, "datetimes_today": "2026-06-17 00:01:29, 2026-06-17 00:16:22, 2026-06-17 00:32:08, 2026-06-17 00:46:24, 2026-06-17 01:01:43, 2026-06-17 01:16:15, 2026-06-17 01:31:31, 2026-06-17 01:46:35, 2026-06-17 02:01:43, 2026-06-17 02:16:18", "cumulative_total": 73.0 }, "geometry": { "type": "Polygon", "coordinates": [ [ [ -74.696652628743593, 46.180237230762295 ], [ -74.703116876509256, 46.182852295220165 ], [ -74.703088903361376, 46.188048407326626 ], [ -74.696595461641053, 46.190629448840994 ], [ -74.690130615283238, 46.188014017683571 ], [ -74.690159809235183, 46.182817911777555 ], [ -74.696652628743593, 46.180237230762295 ] ] ] } },
{ "type": "Feature", "properties": { "hex_id": 467122, "centroid_lon": -74.690188995147125, "centroid_lat": 46.177621801112828, "occurrences_today": 10, "datetimes_today": "2026-06-17 00:01:29, 2026-06-17 00:16:22, 2026-06-17 00:32:08, 2026-06-17 00:46:24, 2026-06-17 01:01:43, 2026-06-17 01:16:15, 2026-06-17 01:31:31, 2026-06-17 01:46:35, 2026-06-17 02:01:43, 2026-06-17 02:16:18", "cumulative_total": 64.0 }, "geometry": { "type": "Polygon", "coordinates": [ [ [ -74.690218173021819, 46.17242568568939 ], [ -74.696681200487674, 46.17504111458576 ], [ -74.696652628743593, 46.180237230762295 ], [ -74.690159809235183, 46.182817911777555 ], [ -74.683696183677341, 46.18020211621694 ], [ -74.683725975717152, 46.175006006371504 ], [ -74.690218173021819, 46.17242568568939 ] ] ] } },
{ "type": "Feature", "properties": { "hex_id": 467732, "centroid_lon": -74.683755759553065, "centroid_lat": 46.169809891766725, "occurrences_today": 10, "datetimes_today": "2026-06-17 00:01:29, 2026-06-17 00:16:22, 2026-06-17 00:32:08, 2026-06-17 00:46:24, 2026-06-17 01:01:43, 2026-06-17 01:16:15, 2026-06-17 01:31:31, 2026-06-17 01:46:35, 2026-06-17 02:01:43, 2026-06-17 02:16:18", "cumulative_total": 61.0 }, "geometry": { "type": "Polygon", "coordinates": [ [ [ -74.683785535187894, 46.164613772402561 ], [ -74.690247342861994, 46.167229565507178 ], [ -74.690218173021819, 46.17242568568939 ], [ -74.683725975717152, 46.175006006371504 ], [ -74.67726357045089, 46.172389846638012 ], [ -74.677293960078643, 46.167193732917461 ], [ -74.683785535187894, 46.164613772402561 ] ] ] } },
{ "type": "Feature", "properties": { "hex_id": 468342, "centroid_lon": -74.677324341338803, "centroid_lat": 46.161997614436892, "occurrences_today": 10, "datetimes_today": "2026-06-17 00:01:29, 2026-06-17 00:16:22, 2026-06-17 00:32:08, 2026-06-17 00:46:24, 2026-06-17 01:01:43, 2026-06-17 01:16:15, 2026-06-17 01:31:31, 2026-06-17 01:46:35, 2026-06-17 02:01:43, 2026-06-17 02:16:18", "cumulative_total": 61.0 }, "geometry": { "type": "Polygon", "coordinates": [ [ [ -74.677354714234184, 46.156801491196269 ], [ -74.683815302624424, 46.159417648278975 ], [ -74.683785535187894, 46.164613772402561 ], [ -74.677293960078643, 46.167193732917461 ], [ -74.670832774595723, 46.16457720924128 ], [ -74.670863761311864, 46.159381091709832 ], [ -74.677354714234184, 46.156801491196269 ] ] ] } },
{ "type": "Feature", "properties": { "hex_id": 468343, "centroid_lon": -74.677233172452659, "centroid_lat": 46.177585955598587, "occurrences_today": 10, "datetimes_today": "2026-06-17 00:01:29, 2026-06-17 00:16:22, 2026-06-17 00:32:08, 2026-06-17 00:46:24, 2026-06-17 01:01:43, 2026-06-17 01:16:15, 2026-06-17 01:31:31, 2026-06-17 01:46:35, 2026-06-17 02:01:43, 2026-06-17 02:16:18", "cumulative_total": 61.0 }, "geometry": { "type": "Polygon", "coordinates": [ [ [ -74.67726357045089, 46.172389846638012 ], [ -74.683725975717152, 46.175006006371504 ], [ -74.683696183677341, 46.18020211621694 ], [ -74.677202766081095, 46.182782059799251 ], [ -74.670739763231168, 46.180165533271875 ], [ -74.670770775558296, 46.174969430022252 ], [ -74.67726357045089, 46.172389846638012 ] ] ] } },
{ "type": "Feature", "properties": { "hex_id": 468953, "centroid_lon": -74.67080177934551, "centroid_lat": 46.169773322012084, "occurrences_today": 10, "datetimes_today": "2026-06-17 00:01:29, 2026-06-17 00:16:22, 2026-06-17 00:32:08, 2026-06-17 00:46:24, 2026-06-17 01:01:43, 2026-06-17 01:16:15, 2026-06-17 01:31:31, 2026-06-17 01:46:35, 2026-06-17 02:01:43, 2026-06-17 02:16:18", "cumulative_total": 61.0 }, "geometry": { "type": "Polygon", "coordinates": [ [ [ -74.670832774595723, 46.16457720924128 ], [ -74.677293960078643, 46.167193732917461 ], [ -74.67726357045089, 46.172389846638012 ], [ -74.670770775558296, 46.174969430022252 ], [ -74.664308992991366, 46.172352539587649 ], [ -74.664340602398127, 46.167156432593409 ], [ -74.670832774595723, 46.16457720924128 ] ] ] } },
{ "type": "Feature", "properties": { "hex_id": 718790, "centroid_lon": -71.896695336732037, "centroid_lat": 48.349313035996609, "occurrences_today": 3, "datetimes_today": "2026-06-17 00:01:29, 2026-06-17 00:16:22, 2026-06-17 00:32:08", "cumulative_total": 39.0 }, "geometry": { "type": "Polygon", "coordinates": [ [ [ -71.89701050919092, 48.344126448640786 ], [ -71.903591217261507, 48.346901492676267 ], [ -71.903276681933235, 48.352088109824379 ], [ -71.8963800749207, 48.354499617107514 ], [ -71.889798819088099, 48.351724150579422 ], [ -71.890114717997747, 48.346537599331846 ], [ -71.89701050919092, 48.344126448640786 ] ] ] } },
{ "type": "Feature", "properties": { "hex_id": 777302, "centroid_lon": -71.355399142828546, "centroid_lat": 46.837013343369975, "occurrences_today": 10, "datetimes_today": "2026-06-17 00:01:29, 2026-06-17 00:16:22, 2026-06-17 00:32:08, 2026-06-17 00:46:24, 2026-06-17 01:01:43, 2026-06-17 01:16:15, 2026-06-17 01:31:31, 2026-06-17 01:46:35, 2026-06-17 02:01:43, 2026-06-17 02:16:18", "cumulative_total": 95.0 }, "geometry": { "type": "Polygon", "coordinates": [ [ [ -71.355750145476449, 46.831828275925425 ], [ -71.362117920657766, 46.834629233292461 ], [ -71.361767496237675, 46.839814334918692 ], [ -71.35504804285074, 46.842198404075056 ], [ -71.348679786788381, 46.839397040813097 ], [ -71.349031464960248, 46.83421201435651 ], [ -71.355750145476449, 46.831828275925425 ] ] ] } },
{ "type": "Feature", "properties": { "hex_id": 767532, "centroid_lon": -71.462149466123719, "centroid_lat": 46.809189537235106, "occurrences_today": 1, "datetimes_today": "2026-06-17 00:01:29", "cumulative_total": 17.0 }, "geometry": { "type": "Polygon", "coordinates": [ [ [ -71.462489870240248, 46.804003837319335 ], [ -71.468860334348136, 46.806798917440616 ], [ -71.468520509302692, 46.811984650482806 ], [ -71.461808967640451, 46.814375230528299 ], [ -71.455438018844589, 46.811579745771716 ], [ -71.455779096366243, 46.806394085671741 ], [ -71.462489870240248, 46.804003837319335 ] ] ] } },
{ "type": "Feature", "properties": { "hex_id": 747385, "centroid_lon": -71.678517545535172, "centroid_lat": 46.807886329544502, "occurrences_today": 1, "datetimes_today": "2026-06-17 00:01:29", "cumulative_total": 215.0 }, "geometry": { "type": "Polygon", "coordinates": [ [ [ -71.678837140622988, 46.802699453069096 ], [ -71.685219330783028, 46.805482752204725 ], [ -71.68490031816593, 46.810669659697112 ], [ -71.678197861830753, 46.813073199620561 ], [ -71.671815177831974, 46.810289497672485 ], [ -71.672135443976373, 46.805102658680333 ], [ -71.678837140622988, 46.802699453069096 ] ] ] } },
{ "type": "Feature", "properties": { "hex_id": 747995, "centroid_lon": -71.672455621346614, "centroid_lat": 46.79991581328256, "occurrences_today": 1, "datetimes_today": "2026-06-17 00:01:29", "cumulative_total": 127.0 }, "geometry": { "type": "Polygon", "coordinates": [ [ [ -71.67277570997345, 46.794728961479755 ], [ -71.679156647124898, 46.79751257019489 ], [ -71.678837140622988, 46.802699453069096 ], [ -71.672135443976373, 46.805102658680333 ], [ -71.665754013458795, 46.802318647210029 ], [ -71.66607477292321, 46.797131832950527 ], [ -71.67277570997345, 46.794728961479755 ] ] ] } },
{ "type": "Feature", "properties": { "hex_id": 749827, "centroid_lon": -71.652349051477714, "centroid_lat": 46.807123087201376, "occurrences_today": 1, "datetimes_today": "2026-06-17 00:01:29", "cumulative_total": 99.0 }, "geometry": { "type": "Polygon", "coordinates": [ [ [ -71.652671153089571, 46.801936348249633 ], [ -71.65905182349222, 46.804721071881552 ], [ -71.658730303912833, 46.809907842105332 ], [ -71.652026860557555, 46.812309819727545 ], [ -71.645645697446227, 46.80952469307374 ], [ -71.645968470367919, 46.804337991886477 ], [ -71.652671153089571, 46.801936348249633 ] ] ] } },
{ "type": "Feature", "properties": { "hex_id": 812807, "centroid_lon": -70.859834682484106, "centroid_lat": 48.31662239690916, "occurrences_today": 10, "datetimes_today": "2026-06-17 00:01:29, 2026-06-17 00:16:22, 2026-06-17 00:32:08, 2026-06-17 00:46:24, 2026-06-17 01:01:43, 2026-06-17 01:16:15, 2026-06-17 01:31:31, 2026-06-17 01:46:35, 2026-06-17 02:01:43, 2026-06-17 02:16:18", "cumulative_total": 61.0 }, "geometry": { "type": "Polygon", "coordinates": [ [ [ -70.860254517366215, 48.31144172487182 ], [ -70.866770885395098, 48.314274389426622 ], [ -70.866351668569664, 48.319455101576231 ], [ -70.859414728772407, 48.321803061512036 ], [ -70.852897861537855, 48.318969966189428 ], [ -70.853318433263397, 48.313789341769152 ], [ -70.860254517366215, 48.31144172487182 ] ] ] } },
{ "type": "Feature", "properties": { "hex_id": 663716, "centroid_lon": -72.59647838752484, "centroid_lat": 46.355423304989976, "occurrences_today": 7, "datetimes_today": "2026-06-17 00:01:29, 2026-06-17 00:16:22, 2026-06-17 00:32:08, 2026-06-17 00:46:24, 2026-06-17 01:01:43, 2026-06-17 01:16:15, 2026-06-17 01:31:31", "cumulative_total": 32.0 }, "geometry": { "type": "Polygon", "coordinates": [ [ [ -72.596706093074062, 46.350231853560402 ], [ -72.603085229071212, 46.352963942462111 ], [ -72.602858105928064, 46.358155415667156 ], [ -72.596250619163428, 46.360614750820062 ], [ -72.589870963583152, 46.357882273109645 ], [ -72.590099314329109, 46.35269084912121 ], [ -72.596706093074062, 46.350231853560402 ] ] ] } },
{ "type": "Feature", "properties": { "hex_id": 663106, "centroid_lon": -72.602630920130864, "centroid_lat": 46.363346883277146, "occurrences_today": 7, "datetimes_today": "2026-06-17 00:01:29, 2026-06-17 00:16:22, 2026-06-17 00:32:08, 2026-06-17 00:46:24, 2026-06-17 01:01:43, 2026-06-17 01:16:15, 2026-06-17 01:31:31", "cumulative_total": 27.0 }, "geometry": { "type": "Polygon", "coordinates": [ [ [ -72.602858105928064, 46.358155415667156 ], [ -72.609238469560296, 46.360887181049804 ], [ -72.609011866507004, 46.366078670377988 ], [ -72.602403671658138, 46.368538345291832 ], [ -72.596022787968266, 46.365806191050339 ], [ -72.596250619163428, 46.360614750820062 ], [ -72.602858105928064, 46.358155415667156 ] ] ] } },
{ "type": "Feature", "properties": { "hex_id": 664936, "centroid_lon": -72.584178562857701, "centroid_lat": 46.33957522716819, "occurrences_today": 6, "datetimes_today": "2026-06-17 00:01:29, 2026-06-17 00:16:22, 2026-06-17 00:32:08, 2026-06-17 00:46:24, 2026-06-17 01:01:43, 2026-06-17 01:16:15", "cumulative_total": 68.0 }, "geometry": { "type": "Polygon", "coordinates": [ [ [ -72.584407306488558, 46.334383808258394 ], [ -72.59078398883166, 46.337116543532936 ], [ -72.590555826931777, 46.342307984332571 ], [ -72.583949756141848, 46.344766640470056 ], [ -72.577572555163613, 46.342033516487113 ], [ -72.577801943588824, 46.33684212514126 ], [ -72.584407306488558, 46.334383808258394 ] ] ] } },
{ "type": "Feature", "properties": { "hex_id": 810976, "centroid_lon": -70.879387851506451, "centroid_lat": 48.325119459042369, "occurrences_today": 10, "datetimes_today": "2026-06-17 00:01:29, 2026-06-17 00:16:22, 2026-06-17 00:32:08, 2026-06-17 00:46:24, 2026-06-17 01:01:43, 2026-06-17 01:16:15, 2026-06-17 01:31:31, 2026-06-17 01:46:35, 2026-06-17 02:01:43, 2026-06-17 02:16:18", "cumulative_total": 47.0 }, "geometry": { "type": "Polygon", "coordinates": [ [ [ -70.879805831583511, 48.319938666854242 ], [ -70.886324409828433, 48.3227702795025 ], [ -70.885907048443144, 48.327951111616805 ], [ -70.87896975310673, 48.330300243821 ], [ -70.872450674514042, 48.327468200440158 ], [ -70.872869391562858, 48.322287455658071 ], [ -70.879805831583511, 48.319938666854242 ] ] ] } },
{ "type": "Feature", "properties": { "hex_id": 811586, "centroid_lon": -70.873287990119962, "centroid_lat": 48.317106703458172, "occurrences_today": 10, "datetimes_today": "2026-06-17 00:01:29, 2026-06-17 00:16:22, 2026-06-17 00:32:08, 2026-06-17 00:46:24, 2026-06-17 01:01:43, 2026-06-17 01:16:15, 2026-06-17 01:31:31, 2026-06-17 01:46:35, 2026-06-17 02:01:43, 2026-06-17 02:16:18", "cumulative_total": 47.0 }, "geometry": { "type": "Polygon", "coordinates": [ [ [ -70.873706470228043, 48.311925943841416 ], [ -70.880223693380557, 48.314757867257541 ], [ -70.879805831583511, 48.319938666854242 ], [ -70.872869391562858, 48.322287455658071 ], [ -70.866351668569664, 48.319455101576231 ], [ -70.866770885395098, 48.314274389426622 ], [ -70.873706470228043, 48.311925943841416 ] ] ] } },
{ "type": "Feature", "properties": { "hex_id": 662424, "centroid_lon": -72.65632793350062, "centroid_lat": 45.249780293768211, "occurrences_today": 2, "datetimes_today": "2026-06-17 00:01:29, 2026-06-17 00:16:22", "cumulative_total": 57.0 }, "geometry": { "type": "Polygon", "coordinates": [ [ [ -72.656541576553224, 45.244587608671075 ], [ -72.662800846981455, 45.247314473288434 ], [ -72.662587753994217, 45.252507179121551 ], [ -72.656114232312092, 45.25497297333262 ], [ -72.649854469964097, 45.252245734758439 ], [ -72.650068721198622, 45.247053075993669 ], [ -72.656541576553224, 45.244587608671075 ] ] ] } },
{ "type": "Feature", "properties": { "hex_id": 784735, "centroid_lon": -71.156461422143209, "centroid_lat": 48.498386387915858, "occurrences_today": 10, "datetimes_today": "2026-06-17 00:01:29, 2026-06-17 00:16:22, 2026-06-17 00:32:08, 2026-06-17 00:46:24, 2026-06-17 01:01:43, 2026-06-17 01:16:15, 2026-06-17 01:31:31, 2026-06-17 01:46:35, 2026-06-17 02:01:43, 2026-06-17 02:16:18", "cumulative_total": 90.0 }, "geometry": { "type": "Polygon", "coordinates": [ [ [ -71.156853718618819, 48.493204005905632 ], [ -71.163410303934739, 48.496020802774318 ], [ -71.163018637002224, 48.501203222099008 ], [ -71.15606901428589, 48.503568762855515 ], [ -71.14951191082875, 48.500751535009407 ], [ -71.149904948188805, 48.495569197455211 ], [ -71.156853718618819, 48.493204005905632 ] ] ] } },
{ "type": "Feature", "properties": { "hex_id": 155272, "centroid_lon": -78.100918927383717, "centroid_lat": 47.93635684434912, "occurrences_today": 3, "datetimes_today": "2026-06-17 00:01:29, 2026-06-17 00:16:22, 2026-06-17 00:32:08", "cumulative_total": 31.0 }, "geometry": { "type": "Polygon", "coordinates": [ [ [ -78.100608523451342, 47.931169871089473 ], [ -78.107448120014652, 47.933582514393379 ], [ -78.107759234290754, 47.938769451838652 ], [ -78.101229418778132, 47.94154381138042 ], [ -78.09438902439345, 47.939130816831124 ], [ -78.094079243374026, 47.933943814055361 ], [ -78.100608523451342, 47.931169871089473 ] ] ] } },
{ "type": "Feature", "properties": { "hex_id": 155882, "centroid_lon": -78.093769549613995, "centroid_lat": 47.928756805057915, "occurrences_today": 3, "datetimes_today": "2026-06-17 00:01:29, 2026-06-17 00:16:22, 2026-06-17 00:32:08", "cumulative_total": 31.0 }, "geometry": { "type": "Polygon", "coordinates": [ [ [ -78.093459943082181, 47.923569789839327 ], [ -78.100298206949702, 47.925982891601926 ], [ -78.100608523451342, 47.931169871089473 ], [ -78.094079243374026, 47.933943814055361 ], [ -78.087240182292874, 47.93153036105771 ], [ -78.086931198533833, 47.926343316399127 ], [ -78.093459943082181, 47.923569789839327 ] ] ] } },
{ "type": "Feature", "properties": { "hex_id": 156493, "centroid_lon": -78.087549253108762, "centroid_lat": 47.936717399501347, "occurrences_today": 3, "datetimes_today": "2026-06-17 00:01:29, 2026-06-17 00:16:22, 2026-06-17 00:32:08", "cumulative_total": 31.0 }, "geometry": { "type": "Polygon", "coordinates": [ [ [ -78.087240182292874, 47.93153036105771 ], [ -78.094079243374026, 47.933943814055361 ], [ -78.09438902439345, 47.939130816831124 ], [ -78.08785841101259, 47.941904431729562 ], [ -78.081018552624386, 47.939490627317696 ], [ -78.080710104955244, 47.934303559491546 ], [ -78.087240182292874, 47.93153036105771 ] ] ] } },
{ "type": "Feature", "properties": { "hex_id": 157103, "centroid_lon": -78.080401744171439, "centroid_lat": 47.929116485456646, "occurrences_today": 3, "datetimes_today": "2026-06-17 00:01:29, 2026-06-17 00:16:22, 2026-06-17 00:32:08", "cumulative_total": 15.0 }, "geometry": { "type": "Polygon", "coordinates": [ [ [ -78.080093470241977, 47.923929405213492 ], [ -78.086931198533833, 47.926343316399127 ], [ -78.087240182292874, 47.93153036105771 ], [ -78.080710104955244, 47.934303559491546 ], [ -78.073871579963964, 47.931889296902142 ], [ -78.073563929040787, 47.926702187352582 ], [ -78.080093470241977, 47.923929405213492 ] ] ] } },
{ "type": "Feature", "properties": { "hex_id": 157104, "centroid_lon": -78.081327087209985, "centroid_lat": 47.944677688934632, "occurrences_today": 3, "datetimes_today": "2026-06-17 00:01:29, 2026-06-17 00:16:22, 2026-06-17 00:32:08", "cumulative_total": 31.0 }, "geometry": { "type": "Polygon", "coordinates": [ [ [ -78.081018552624386, 47.939490627317696 ], [ -78.08785841101259, 47.941904431729562 ], [ -78.088167656035509, 47.947091457741877 ], [ -78.081635708743065, 47.94986474434188 ], [ -78.074795052954485, 47.947450588336537 ], [ -78.074487141889804, 47.942263497394599 ], [ -78.081018552624386, 47.939490627317696 ] ] ] } },
{ "type": "Feature", "properties": { "hex_id": 157714, "centroid_lon": -78.074179317569971, "centroid_lat": 47.937076400249637, "occurrences_today": 3, "datetimes_today": "2026-06-17 00:01:29, 2026-06-17 00:16:22, 2026-06-17 00:32:08", "cumulative_total": 31.0 }, "geometry": { "type": "Polygon", "coordinates": [ [ [ -78.073871579963964, 47.931889296902142 ], [ -78.080710104955244, 47.934303559491546 ], [ -78.081018552624386, 47.939490627317696 ], [ -78.074487141889804, 47.942263497394599 ], [ -78.06764782010606, 47.939848883222254 ], [ -78.067340705880355, 47.934661750625878 ], [ -78.073871579963964, 47.931889296902142 ] ] ] } },
{ "type": "Feature", "properties": { "hex_id": 158324, "centroid_lon": -78.067033678165956, "centroid_lat": 47.929474611833605, "occurrences_today": 3, "datetimes_today": "2026-06-17 00:01:29, 2026-06-17 00:16:22, 2026-06-17 00:32:08", "cumulative_total": 15.0 }, "geometry": { "type": "Polygon", "coordinates": [ [ [ -78.066726736931912, 47.924287466845939 ], [ -78.073563929040787, 47.926702187352582 ], [ -78.073871579963964, 47.931889296902142 ], [ -78.067340705880355, 47.934661750625878 ], [ -78.060502717586516, 47.932246678546854 ], [ -78.060196399592144, 47.927059504386399 ], [ -78.066726736931912, 47.924287466845939 ] ] ] } },
{ "type": "Feature", "properties": { "hex_id": 158325, "centroid_lon": -78.067955020873995, "centroid_lat": 47.94503600962225, "occurrences_today": 3, "datetimes_today": "2026-06-17 00:01:29, 2026-06-17 00:16:22, 2026-06-17 00:32:08", "cumulative_total": 31.0 }, "geometry": { "type": "Polygon", "coordinates": [ [ [ -78.06764782010606, 47.939848883222254 ], [ -78.074487141889804, 47.942263497394599 ], [ -78.074795052954485, 47.947450588336537 ], [ -78.068262308215083, 47.950223129825446 ], [ -78.061422189545951, 47.947808163890883 ], [ -78.061115612532561, 47.942621008299568 ], [ -78.06764782010606, 47.939848883222254 ] ] ] } },
{ "type": "Feature", "properties": { "hex_id": 158935, "centroid_lon": -78.060809121889704, "centroid_lat": 47.937433846518061, "occurrences_today": 3, "datetimes_today": "2026-06-17 00:01:29, 2026-06-17 00:16:22, 2026-06-17 00:32:08", "cumulative_total": 15.0 }, "geometry": { "type": "Polygon", "coordinates": [ [ [ -78.060502717586516, 47.932246678546854 ], [ -78.067340705880355, 47.934661750625878 ], [ -78.06764782010606, 47.939848883222254 ], [ -78.061115612532561, 47.942621008299568 ], [ -78.05427682796109, 47.940205584468991 ], [ -78.053971047271631, 47.935018387382584 ], [ -78.060502717586516, 47.932246678546854 ] ] ] } },
{ "type": "Feature", "properties": { "hex_id": 159545, "centroid_lon": -78.053665352719321, "centroid_lat": 47.929831184113084, "occurrences_today": 3, "datetimes_today": "2026-06-17 00:01:29, 2026-06-17 00:16:22, 2026-06-17 00:32:08", "cumulative_total": 15.0 }, "geometry": { "type": "Polygon", "coordinates": [ [ [ -78.053359744273408, 47.924643974660974 ], [ -78.060196399592144, 47.927059504386399 ], [ -78.060502717586516, 47.932246678546854 ], [ -78.053971047271631, 47.935018387382584 ], [ -78.047133596282649, 47.932602505916272 ], [ -78.046828611309593, 47.927415267425026 ], [ -78.053359744273408, 47.924643974660974 ] ] ] } },
{ "type": "Feature", "properties": { "hex_id": 159546, "centroid_lon": -78.054582694818535, "centroid_lat": 47.945392775371836, "occurrences_today": 3, "datetimes_today": "2026-06-17 00:01:29, 2026-06-17 00:16:22, 2026-06-17 00:32:08", "cumulative_total": 15.0 }, "geometry": { "type": "Polygon", "coordinates": [ [ [ -78.05427682796109, 47.940205584468991 ], [ -78.061115612532561, 47.942621008299568 ], [ -78.061422189545951, 47.947808163890883 ], [ -78.054888647874762, 47.950579960090678 ], [ -78.04804906693316, 47.948164184329265 ], [ -78.047743824063701, 47.942976964368853 ], [ -78.05427682796109, 47.940205584468991 ] ] ] } },
{ "type": "Feature", "properties": { "hex_id": 160156, "centroid_lon": -78.047438667190448, "centroid_lat": 47.937789738231025, "occurrences_today": 3, "datetimes_today": "2026-06-17 00:01:29, 2026-06-17 00:16:22, 2026-06-17 00:32:08", "cumulative_total": 15.0 }, "geometry": { "type": "Polygon", "coordinates": [ [ [ -78.047133596282649, 47.932602505916272 ], [ -78.053971047271631, 47.935018387382584 ], [ -78.05427682796109, 47.940205584468991 ], [ -78.047743824063701, 47.942976964368853 ], [ -78.04090557731223, 47.940560730982476 ], [ -78.040601130251375, 47.935373469686247 ], [ -78.047133596282649, 47.932602505916272 ] ] ] } },
{ "type": "Feature", "properties": { "hex_id": 160766, "centroid_lon": -78.040296768953525, "centroid_lat": 47.930186202219666, "occurrences_today": 3, "datetimes_today": "2026-06-17 00:01:29, 2026-06-17 00:16:22, 2026-06-17 00:32:08", "cumulative_total": 15.0 }, "geometry": { "type": "Polygon", "coordinates": [ [ [ -78.039992493388041, 47.924998928583207 ], [ -78.046828611309593, 47.927415267425026 ], [ -78.047133596282649, 47.932602505916272 ], [ -78.040601130251375, 47.935373469686247 ], [ -78.033764217174578, 47.93295677893515 ], [ -78.033460565314954, 47.927769476393273 ], [ -78.039992493388041, 47.924998928583207 ] ] ] } },
{ "type": "Feature", "properties": { "hex_id": 161377, "centroid_lon": -78.034067954594832, "centroid_lat": 47.938144075313261, "occurrences_today": 3, "datetimes_today": "2026-06-17 00:01:29, 2026-06-17 00:16:22, 2026-06-17 00:32:08", "cumulative_total": 15.0 }, "geometry": { "type": "Polygon", "coordinates": [ [ [ -78.033764217174578, 47.93295677893515 ], [ -78.040601130251375, 47.935373469686247 ], [ -78.04090557731223, 47.940560730982476 ], [ -78.034371777606282, 47.94333136552715 ], [ -78.027534069282382, 47.94091432268759 ], [ -78.02723095594213, 47.935726997461764 ], [ -78.033764217174578, 47.93295677893515 ] ] ] } },
{ "type": "Feature", "properties": { "hex_id": 162600, "centroid_lon": -78.022513198893208, "centroid_lat": 47.969620889458604, "occurrences_today": 3, "datetimes_today": "2026-06-17 00:01:29, 2026-06-17 00:16:22, 2026-06-17 00:32:08", "cumulative_total": 11.0 }, "geometry": { "type": "Polygon", "coordinates": [ [ [ -78.022210283293489, 47.964433566213529 ], [ -78.029050917884646, 47.966850856435855 ], [ -78.029354544199336, 47.972038144706147 ], [ -78.022816199892887, 47.974808206549362 ], [ -78.015974769171521, 47.972390563689629 ], [ -78.015672478917352, 47.967203211694105 ], [ -78.022210283293489, 47.964433566213529 ] ] ] } },
{ "type": "Feature", "properties": { "hex_id": 163210, "centroid_lon": -78.015370273860341, "centroid_lat": 47.962015853550852, "occurrences_today": 3, "datetimes_today": "2026-06-17 00:01:29, 2026-06-17 00:16:22, 2026-06-17 00:32:08", "cumulative_total": 11.0 }, "geometry": { "type": "Polygon", "coordinates": [ [ [ -78.015068153970006, 47.956828489260317 ], [ -78.021907453063179, 47.959246236814622 ], [ -78.022210283293489, 47.964433566213529 ], [ -78.015672478917352, 47.967203211694105 ], [ -78.008832384302323, 47.9647851115134 ], [ -78.008530889615741, 47.959597718548515 ], [ -78.015068153970006, 47.956828489260317 ] ] ] } },
{ "type": "Feature", "properties": { "hex_id": 163820, "centroid_lon": -78.008229479893174, "centroid_lat": 47.954410319442907, "occurrences_today": 3, "datetimes_today": "2026-06-17 00:01:29, 2026-06-17 00:16:22, 2026-06-17 00:32:08", "cumulative_total": 11.0 }, "geometry": { "type": "Polygon", "coordinates": [ [ [ -78.00792815510421, 47.949222914196973 ], [ -78.014766119215892, 47.951641118822941 ], [ -78.015068153970006, 47.956828489260317 ], [ -78.008530889615741, 47.959597718548515 ], [ -78.001692130590101, 47.957179161307245 ], [ -78.001391430863066, 47.95199172746306 ], [ -78.00792815510421, 47.949222914196973 ] ] ] } },
{ "type": "Feature", "properties": { "hex_id": 163821, "centroid_lon": -78.009133963983288, "centroid_lat": 47.969972498337071, "occurrences_today": 3, "datetimes_today": "2026-06-17 00:01:29, 2026-06-17 00:16:22, 2026-06-17 00:32:08", "cumulative_total": 11.0 }, "geometry": { "type": "Polygon", "coordinates": [ [ [ -78.008832384302323, 47.9647851115134 ], [ -78.015672478917352, 47.967203211694105 ], [ -78.015974769171521, 47.972390563689629 ], [ -78.009435628689076, 47.975159879019103 ], [ -78.002594738460814, 47.972741426032592 ], [ -78.002293784358642, 47.967554010592444 ], [ -78.008832384302323, 47.9647851115134 ] ] ] } },
{ "type": "Feature", "properties": { "hex_id": 164430, "centroid_lon": -78.001090815867101, "centroid_lat": 47.946804287485094, "occurrences_today": 3, "datetimes_today": "2026-06-17 00:01:29, 2026-06-17 00:16:22, 2026-06-17 00:32:08", "cumulative_total": 11.0 }, "geometry": { "type": "Polygon", "coordinates": [ [ [ -78.000790285571938, 47.941616841373801 ], [ -78.007626915218495, 47.944035502811197 ], [ -78.00792815510421, 47.949222914196973 ], [ -78.001391430863066, 47.95199172746306 ], [ -77.994554006910036, 47.949572713421482 ], [ -77.994254101534878, 47.944385238787973 ], [ -78.000790285571938, 47.941616841373801 ] ] ] } },
{ "type": "Feature", "properties": { "hex_id": 164431, "centroid_lon": -78.001992915078517, "centroid_lat": 47.962366589017186, "occurrences_today": 3, "datetimes_today": "2026-06-17 00:01:29, 2026-06-17 00:16:22, 2026-06-17 00:32:08", "cumulative_total": 11.0 }, "geometry": { "type": "Polygon", "coordinates": [ [ [ -78.001692130590101, 47.957179161307245 ], [ -78.008530889615741, 47.959597718548515 ], [ -78.008832384302323, 47.9647851115134 ], [ -78.002293784358642, 47.967554010592444 ], [ -77.995454230327979, 47.965135100556495 ], [ -77.995154071276332, 47.95994764430619 ], [ -78.001692130590101, 47.957179161307245 ] ] ] } },
{ "type": "Feature", "properties": { "hex_id": 164432, "centroid_lon": -78.002895777415389, "centroid_lat": 47.977928835337153, "occurrences_today": 3, "datetimes_today": "2026-06-17 00:01:29, 2026-06-17 00:16:22, 2026-06-17 00:32:08", "cumulative_total": 11.0 }, "geometry": { "type": "Polygon", "coordinates": [ [ [ -78.002594738460814, 47.972741426032592 ], [ -78.009435628689076, 47.975159879019103 ], [ -78.009737378450097, 47.98034725355901 ], [ -78.003196901252736, 47.983116238505673 ], [ -77.996355215320079, 47.980697432533873 ], [ -77.996054802319563, 47.97550999467078 ], [ -78.002594738460814, 47.972741426032592 ] ] ] } },
{ "type": "Feature", "properties": { "hex_id": 165040, "centroid_lon": -77.993954280658102, "centroid_lat": 47.939197758027611, "occurrences_today": 3, "datetimes_today": "2026-06-17 00:01:29, 2026-06-17 00:16:22, 2026-06-17 00:32:08", "cumulative_total": 11.0 }, "geometry": { "type": "Polygon", "coordinates": [ [ [ -77.993654544249509, 47.93401027114087 ], [ -78.000489839947249, 47.9364293891296 ], [ -78.000790285571938, 47.941616841373801 ], [ -77.994254101534878, 47.944385238787973 ], [ -77.987418012137795, 47.941965768206273 ], [ -77.987118900507298, 47.936778252873331 ], [ -77.993654544249509, 47.93401027114087 ] ] ] } },
{ "type": "Feature", "properties": { "hex_id": 165041, "centroid_lon": -77.99485399681376, "centroid_lat": 47.954760181927703, "occurrences_today": 3, "datetimes_today": "2026-06-17 00:01:29, 2026-06-17 00:16:22, 2026-06-17 00:32:08", "cumulative_total": 11.0 }, "geometry": { "type": "Polygon", "coordinates": [ [ [ -77.994554006910036, 47.949572713421482 ], [ -78.001391430863066, 47.95199172746306 ], [ -78.001692130590101, 47.957179161307245 ], [ -77.995154071276332, 47.95994764430619 ], [ -77.98831585292605, 47.957528277481138 ], [ -77.988016488317029, 47.952340780510603 ], [ -77.994554006910036, 47.949572713421482 ] ] ] } },
{ "type": "Feature", "properties": { "hex_id": 165042, "centroid_lon": -77.995754473998957, "centroid_lat": 47.970322550678176, "occurrences_today": 3, "datetimes_today": "2026-06-17 00:01:29, 2026-06-17 00:16:22, 2026-06-17 00:32:08", "cumulative_total": 11.0 }, "geometry": { "type": "Polygon", "coordinates": [ [ [ -77.995454230327979, 47.965135100556495 ], [ -78.002293784358642, 47.967554010592444 ], [ -78.002594738460814, 47.972741426032592 ], [ -77.996054802319563, 47.97550999467078 ], [ -77.989214453192929, 47.97309073166074 ], [ -77.988914835333816, 47.967903253056633 ], [ -77.995454230327979, 47.965135100556495 ] ] ] } },
{ "type": "Feature", "properties": { "hex_id": 165651, "centroid_lon": -77.987717208064339, "centroid_lat": 47.947153277418835, "occurrences_today": 3, "datetimes_today": "2026-06-17 00:01:29, 2026-06-17 00:16:22, 2026-06-17 00:32:08", "cumulative_total": 11.0 }, "geometry": { "type": "Polygon", "coordinates": [ [ [ -77.987418012137795, 47.941965768206273 ], [ -77.994254101534878, 47.944385238787973 ], [ -77.994554006910036, 47.949572713421482 ], [ -77.988016488317029, 47.952340780510603 ], [ -77.98117960513008, 47.949920957156664 ], [ -77.980881034356159, 47.944733419555817 ], [ -77.987418012137795, 47.941965768206273 ] ] ] } },
{ "type": "Feature", "properties": { "hex_id": 165652, "centroid_lon": -77.988615301921584, "centroid_lat": 47.962715768329929, "occurrences_today": 3, "datetimes_today": "2026-06-17 00:01:29, 2026-06-17 00:16:22, 2026-06-17 00:32:08", "cumulative_total": 11.0 }, "geometry": { "type": "Polygon", "coordinates": [ [ [ -77.98831585292605, 47.957528277481138 ], [ -77.995154071276332, 47.95994764430619 ], [ -77.995454230327979, 47.965135100556495 ], [ -77.988914835333816, 47.967903253056633 ], [ -77.982075822495617, 47.96548353326871 ], [ -77.981776999169711, 47.960296014013537 ], [ -77.98831585292605, 47.957528277481138 ] ] ] } },
{ "type": "Feature", "properties": { "hex_id": 165653, "centroid_lon": -77.989514155529179, "centroid_lat": 47.978278204141823, "occurrences_today": 3, "datetimes_today": "2026-06-17 00:01:29, 2026-06-17 00:16:22, 2026-06-17 00:32:08", "cumulative_total": 11.0 }, "geometry": { "type": "Polygon", "coordinates": [ [ [ -77.989214453192929, 47.97309073166074 ], [ -77.996054802319563, 47.97550999467078 ], [ -77.996355215320079, 47.980697432533873 ], [ -77.989813942372791, 47.983465670499449 ], [ -77.982972798059407, 47.981046054335827 ], [ -77.982673721910317, 47.975858553430292 ], [ -77.989214453192929, 47.97309073166074 ] ] ] } },
{ "type": "Feature", "properties": { "hex_id": 166262, "centroid_lon": -77.981478260057898, "centroid_lat": 47.955108488642715, "occurrences_today": 3, "datetimes_today": "2026-06-17 00:01:29, 2026-06-17 00:16:22, 2026-06-17 00:32:08", "cumulative_total": 11.0 }, "geometry": { "type": "Polygon", "coordinates": [ [ [ -77.98117960513008, 47.949920957156664 ], [ -77.988016488317029, 47.952340780510603 ], [ -77.98831585292605, 47.957528277481138 ], [ -77.981776999169711, 47.960296014013537 ], [ -77.9749393221025, 47.957875837708045 ], [ -77.974641292702017, 47.952688277891689 ], [ -77.98117960513008, 47.949920957156664 ] ] ] } },
{ "type": "Feature", "properties": { "hex_id": 166263, "centroid_lon": -77.982374730065771, "centroid_lat": 47.970671046407773, "occurrences_today": 3, "datetimes_today": "2026-06-17 00:01:29, 2026-06-17 00:16:22, 2026-06-17 00:32:08", "cumulative_total": 11.0 }, "geometry": { "type": "Polygon", "coordinates": [ [ [ -77.982075822495617, 47.96548353326871 ], [ -77.988914835333816, 47.967903253056633 ], [ -77.989214453192929, 47.97309073166074 ], [ -77.982673721910317, 47.975858553430292 ], [ -77.975833914493705, 47.973438480500107 ], [ -77.975535632968288, 47.968250939012684 ], [ -77.982075822495617, 47.96548353326871 ] ] ] } },
{ "type": "Feature", "properties": { "hex_id": 166873, "centroid_lon": -77.975237435514586, "centroid_lat": 47.963063391415183, "occurrences_today": 3, "datetimes_today": "2026-06-17 00:01:29, 2026-06-17 00:16:22, 2026-06-17 00:32:08", "cumulative_total": 11.0 }, "geometry": { "type": "Polygon", "coordinates": [ [ [ -77.9749393221025, 47.957875837708045 ], [ -77.981776999169711, 47.960296014013537 ], [ -77.982075822495617, 47.96548353326871 ], [ -77.975535632968288, 47.968250939012684 ], [ -77.968697161930578, 47.965830409576263 ], [ -77.968399674420766, 47.960642827596836 ], [ -77.9749393221025, 47.957875837708045 ] ] ] } },
{ "type": "Feature", "properties": { "hex_id": 167484, "centroid_lon": -77.968994733309458, "centroid_lat": 47.971017985452072, "occurrences_today": 3, "datetimes_today": "2026-06-17 00:01:29, 2026-06-17 00:16:22, 2026-06-17 00:32:08", "cumulative_total": 11.0 }, "geometry": { "type": "Polygon", "coordinates": [ [ [ -77.968697161930578, 47.965830409576263 ], [ -77.975535632968288, 47.968250939012684 ], [ -77.975833914493705, 47.973438480500107 ], [ -77.969292388587462, 47.976205555223792 ], [ -77.962453123489098, 47.973784672477052 ], [ -77.962156178387659, 47.968597068387005 ], [ -77.968697161930578, 47.965830409576263 ] ] ] } }
]
}
