{
"type": "FeatureCollection",
"name": "daily_2026-06-27",
"crs": { "type": "name", "properties": { "name": "urn:ogc:def:crs:OGC:1.3:CRS84" } },
"features": [
{ "type": "Feature", "properties": { "hex_id": 569030, "centroid_lon": -73.626111202703299, "centroid_lat": 45.460454533768321, "occurrences_today": 1, "datetimes_today": "2026-06-27 00:01:52", "cumulative_total": 305.0 }, "geometry": { "type": "Polygon", "coordinates": [ [ [ -73.626237388677865, 45.455259183437214 ], [ -73.632567555009601, 45.457933587395495 ], [ -73.632441938669132, 45.463128949041 ], [ -73.625984982286454, 45.465649879079393 ], [ -73.619654280768671, 45.46297510727122 ], [ -73.619781070808074, 45.457779773338935 ], [ -73.626237388677865, 45.455259183437214 ] ] ] } },
{ "type": "Feature", "properties": { "hex_id": 699654, "centroid_lon": -72.275875096173621, "centroid_lat": 45.077624107635963, "occurrences_today": 1, "datetimes_today": "2026-06-27 00:01:52", "cumulative_total": 186.0 }, "geometry": { "type": "Polygon", "coordinates": [ [ [ -72.27612191102105, 45.072432793552373 ], [ -72.282343589329756, 45.075179727130525 ], [ -72.28209731424235, 45.080371065544774 ], [ -72.275628214318147, 45.08281541591812 ], [ -72.269406063268576, 45.080068107277405 ], [ -72.269653484861863, 45.074876823389062 ], [ -72.27612191102105, 45.072432793552373 ] ] ] } },
{ "type": "Feature", "properties": { "hex_id": 700875, "centroid_lon": -72.263184519120003, "centroid_lat": 45.077320472338798, "occurrences_today": 1, "datetimes_today": "2026-06-27 00:01:52", "cumulative_total": 377.0 }, "geometry": { "type": "Polygon", "coordinates": [ [ [ -72.263432480284848, 45.072129212902674 ], [ -72.269653484861863, 45.074876823389062 ], [ -72.269406063268576, 45.080068107277405 ], [ -72.262936490636847, 45.082511725963677 ], [ -72.256715013817754, 45.07976374031044 ], [ -72.256963581850144, 45.074572511200941 ], [ -72.263432480284848, 45.072129212902674 ] ] ] } },
{ "type": "Feature", "properties": { "hex_id": 568425, "centroid_lon": -73.630427406223561, "centroid_lat": 45.546254052926017, "occurrences_today": 1, "datetimes_today": "2026-06-27 00:01:52", "cumulative_total": 199.0 }, "geometry": { "type": "Polygon", "coordinates": [ [ [ -73.630553572554504, 45.541058771571045 ], [ -73.636893478150725, 45.543733010672007 ], [ -73.63676788409532, 45.548928303319059 ], [ -73.630301205420025, 45.551449329262169 ], [ -73.623960762026613, 45.548774721264948 ], [ -73.624087535094105, 45.543579456285443 ], [ -73.630553572554504, 45.541058771571045 ] ] ] } },
{ "type": "Feature", "properties": { "hex_id": 508590, "centroid_lon": -74.259280469701977, "centroid_lat": 45.458520665478886, "occurrences_today": 1, "datetimes_today": "2026-06-27 00:01:52", "cumulative_total": 239.0 }, "geometry": { "type": "Polygon", "coordinates": [ [ [ -74.259348501726407, 45.45332425203808 ], [ -74.265708824522918, 45.455963745561377 ], [ -74.265641370484218, 45.461160164028549 ], [ -74.259212419104941, 45.463717074092017 ], [ -74.252851536898433, 45.461077218765602 ], [ -74.252920165474976, 45.455880815243326 ], [ -74.259348501726407, 45.45332425203808 ] ] ] } },
{ "type": "Feature", "properties": { "hex_id": 719224, "centroid_lon": -72.045423234317056, "centroid_lat": 45.601987304589152, "occurrences_today": 1, "datetimes_today": "2026-06-27 00:01:52", "cumulative_total": 132.0 }, "geometry": { "type": "Polygon", "coordinates": [ [ [ -72.04569584757273, 45.596797505741861 ], [ -72.051962185183967, 45.599557957024743 ], [ -72.051690123479361, 45.604747782666927 ], [ -72.045150546602613, 45.607177097428313 ], [ -72.038883731911582, 45.604416262413437 ], [ -72.039156971152082, 45.599226496433374 ], [ -72.04569584757273, 45.596797505741861 ] ] ] } },
{ "type": "Feature", "properties": { "hex_id": 747283, "centroid_lon": -71.77231977947433, "centroid_lat": 45.220406142182739, "occurrences_today": 1, "datetimes_today": "2026-06-27 00:01:52", "cumulative_total": 79.0 }, "geometry": { "type": "Polygon", "coordinates": [ [ [ -71.772613632291126, 45.215217333330351 ], [ -71.778824747863794, 45.217991423306344 ], [ -71.778531431618049, 45.223180261372882 ], [ -71.772025846782839, 45.225594944802275 ], [ -71.765814274527088, 45.222820473720859 ], [ -71.766108743763084, 45.217631700378718 ], [ -71.772613632291126, 45.215217333330351 ] ] ] } },
{ "type": "Feature", "properties": { "hex_id": 747894, "centroid_lon": -71.765519725247103, "centroid_lat": 45.228009240824036, "occurrences_today": 1, "datetimes_today": "2026-06-27 00:01:52", "cumulative_total": 79.0 }, "geometry": { "type": "Polygon", "coordinates": [ [ [ -71.765814274527088, 45.222820473720859 ], [ -71.772025846782839, 45.225594944802275 ], [ -71.77173183419012, 45.230783741188397 ], [ -71.765225095896525, 45.233198001687711 ], [ -71.759013067037415, 45.230423149347466 ], [ -71.759308233048642, 45.225234417830002 ], [ -71.765814274527088, 45.222820473720859 ] ] ] } },
{ "type": "Feature", "properties": { "hex_id": 748504, "centroid_lon": -71.75960331884653, "centroid_lat": 45.220045680067471, "occurrences_today": 1, "datetimes_today": "2026-06-27 00:01:52", "cumulative_total": 102.0 }, "geometry": { "type": "Polygon", "coordinates": [ [ [ -71.759898324457723, 45.214856936060393 ], [ -71.766108743763084, 45.217631700378718 ], [ -71.765814274527088, 45.222820473720859 ], [ -71.759308233048642, 45.225234417830002 ], [ -71.753097357568109, 45.222459272305926 ], [ -71.753392979714548, 45.217270563941682 ], [ -71.759898324457723, 45.214856936060393 ] ] ] } },
{ "type": "Feature", "properties": { "hex_id": 721665, "centroid_lon": -72.020636755123917, "centroid_lat": 45.585752401426568, "occurrences_today": 1, "datetimes_today": "2026-06-27 00:01:52", "cumulative_total": 153.0 }, "geometry": { "type": "Polygon", "coordinates": [ [ [ -72.020911497833211, 45.580562704319796 ], [ -72.02717478158317, 45.583324448049432 ], [ -72.026900589586816, 45.588514172181654 ], [ -72.020361937390675, 45.590942092504655 ], [ -72.014098177964286, 45.588179965043508 ], [ -72.014373546385301, 45.582990301055041 ], [ -72.020911497833211, 45.580562704319796 ] ] ] } },
{ "type": "Feature", "properties": { "hex_id": 722275, "centroid_lon": -72.014648839634987, "centroid_lat": 45.577800631032623, "occurrences_today": 1, "datetimes_today": "2026-06-27 00:01:52", "cumulative_total": 154.0 }, "geometry": { "type": "Polygon", "coordinates": [ [ [ -72.014924057738568, 45.572610954976689 ], [ -72.021186165543767, 45.575373001184772 ], [ -72.020911497833211, 45.580562704319796 ], [ -72.014373546385301, 45.582990301055041 ], [ -72.008110963345771, 45.580227871167708 ], [ -72.008386806963287, 45.57503822828852 ], [ -72.014924057738568, 45.572610954976689 ] ] ] } },
{ "type": "Feature", "properties": { "hex_id": 704631, "centroid_lon": -72.152223082114162, "centroid_lat": 46.52448677417209, "occurrences_today": 1, "datetimes_today": "2026-06-27 00:01:52", "cumulative_total": 53.0 }, "geometry": { "type": "Polygon", "coordinates": [ [ [ -72.15249443979728, 46.519297324997197 ], [ -72.158869549216547, 46.522054081209575 ], [ -72.158598772513756, 46.527243556607822 ], [ -72.151951649438942, 46.529676217396315 ], [ -72.145576034044367, 46.526919066231599 ], [ -72.145848047674093, 46.521729649297157 ], [ -72.15249443979728, 46.519297324997197 ] ] ] } },
{ "type": "Feature", "properties": { "hex_id": 705241, "centroid_lon": -72.146119986154332, "centroid_lat": 46.516540226406725, "occurrences_today": 1, "datetimes_today": "2026-06-27 00:01:52", "cumulative_total": 53.0 }, "geometry": { "type": "Polygon", "coordinates": [ [ [ -72.146391849510977, 46.511350797560688 ], [ -72.152765722514104, 46.514107869872028 ], [ -72.15249443979728, 46.519297324997197 ], [ -72.145848047674093, 46.521729649297157 ], [ -72.1394736691677, 46.518972182086955 ], [ -72.139746188261896, 46.513782785542062 ], [ -72.146391849510977, 46.511350797560688 ] ] ] } },
{ "type": "Feature", "properties": { "hex_id": 705852, "centroid_lon": -72.139201074766717, "centroid_lat": 46.524161572670515, "occurrences_today": 1, "datetimes_today": "2026-06-27 00:01:52", "cumulative_total": 77.0 }, "geometry": { "type": "Polygon", "coordinates": [ [ [ -72.1394736691677, 46.518972182086955 ], [ -72.145848047674093, 46.521729649297157 ], [ -72.145576034044367, 46.526919066231599 ], [ -72.138928405033028, 46.529350957292344 ], [ -72.13255352110103, 46.52659309502156 ], [ -72.132826771580042, 46.521403736817035 ], [ -72.1394736691677, 46.518972182086955 ] ] ] } },
{ "type": "Feature", "properties": { "hex_id": 706462, "centroid_lon": -72.133099946569061, "centroid_lat": 46.516214372645429, "occurrences_today": 1, "datetimes_today": "2026-06-27 00:01:52", "cumulative_total": 53.0 }, "geometry": { "type": "Polygon", "coordinates": [ [ [ -72.13337304609405, 46.511025002507139 ], [ -72.139746188261896, 46.513782785542062 ], [ -72.1394736691677, 46.518972182086955 ], [ -72.132826771580042, 46.521403736817035 ], [ -72.126453124458422, 46.518645558775098 ], [ -72.126726879852257, 46.51345622107651 ], [ -72.13337304609405, 46.511025002507139 ] ] ] } },
{ "type": "Feature", "properties": { "hex_id": 706463, "centroid_lon": -72.13228019510602, "centroid_lat": 46.531782447258614, "occurrences_today": 1, "datetimes_today": "2026-06-27 00:01:52", "cumulative_total": 53.0 }, "geometry": { "type": "Polygon", "coordinates": [ [ [ -72.13255352110103, 46.52659309502156 ], [ -72.138928405033028, 46.529350957292344 ], [ -72.138655659940696, 46.534540335952038 ], [ -72.132006793569033, 46.536971793527755 ], [ -72.125631404289365, 46.534213536034635 ], [ -72.12590538670301, 46.529024216254577 ], [ -72.13255352110103, 46.52659309502156 ] ] ] } },
{ "type": "Feature", "properties": { "hex_id": 707073, "centroid_lon": -72.126179293417351, "centroid_lat": 46.523834890501277, "occurrences_today": 1, "datetimes_today": "2026-06-27 00:01:52", "cumulative_total": 59.0 }, "geometry": { "type": "Polygon", "coordinates": [ [ [ -72.126453124458422, 46.518645558775098 ], [ -72.132826771580042, 46.521403736817035 ], [ -72.13255352110103, 46.52659309502156 ], [ -72.12590538670301, 46.529024216254577 ], [ -72.119531234705647, 46.526265643043956 ], [ -72.11980572195597, 46.521076343835425 ], [ -72.126453124458422, 46.518645558775098 ] ] ] } },
{ "type": "Feature", "properties": { "hex_id": 707684, "centroid_lon": -72.11925667159872, "centroid_lat": 46.53145493627386, "occurrences_today": 1, "datetimes_today": "2026-06-27 00:01:52", "cumulative_total": 53.0 }, "geometry": { "type": "Polygon", "coordinates": [ [ [ -72.119531234705647, 46.526265643043956 ], [ -72.12590538670301, 46.529024216254577 ], [ -72.125631404289365, 46.534213536034635 ], [ -72.118982032609068, 46.536644223524725 ], [ -72.112607375814179, 46.53388525498368 ], [ -72.112882595470964, 46.528695994349405 ], [ -72.119531234705647, 46.526265643043956 ] ] ] } },
{ "type": "Feature", "properties": { "hex_id": 708295, "centroid_lon": -72.11233208009125, "centroid_lat": 46.539074509633132, "occurrences_today": 1, "datetimes_today": "2026-06-27 00:01:52", "cumulative_total": 53.0 }, "geometry": { "type": "Polygon", "coordinates": [ [ [ -72.112607375814179, 46.53388525498368 ], [ -72.118982032609068, 46.536644223524725 ], [ -72.118707317710602, 46.541833504796131 ], [ -72.112056708275986, 46.544263758297319 ], [ -72.105681546762099, 46.541504394264145 ], [ -72.10595749937562, 46.536315172288376 ], [ -72.112607375814179, 46.53388525498368 ] ] ] } },
{ "type": "Feature", "properties": { "hex_id": 708905, "centroid_lon": -72.106233375739507, "centroid_lat": 46.531125944321957, "occurrences_today": 1, "datetimes_today": "2026-06-27 00:01:52", "cumulative_total": 53.0 }, "geometry": { "type": "Polygon", "coordinates": [ [ [ -72.106509175879992, 46.525936710365301 ], [ -72.112882595470964, 46.528695994349405 ], [ -72.112607375814179, 46.53388525498368 ], [ -72.10595749937562, 46.536315172288376 ], [ -72.099583575537451, 46.533555492865901 ], [ -72.099860032358805, 46.528366291643536 ], [ -72.106509175879992, 46.525936710365301 ] ] ] } },
{ "type": "Feature", "properties": { "hex_id": 709516, "centroid_lon": -72.099307042309221, "centroid_lat": 46.538744688092216, "occurrences_today": 1, "datetimes_today": "2026-06-27 00:01:52", "cumulative_total": 53.0 }, "geometry": { "type": "Polygon", "coordinates": [ [ [ -72.099583575537451, 46.533555492865901 ], [ -72.10595749937562, 46.536315172288376 ], [ -72.105681546762099, 46.541504394264145 ], [ -72.099030432647794, 46.543933877322054 ], [ -72.092656004641285, 46.541173802299532 ], [ -72.092933194891074, 46.535984639885591 ], [ -72.099583575537451, 46.533555492865901 ] ] ] } },
{ "type": "Feature", "properties": { "hex_id": 780249, "centroid_lon": -71.430037097789523, "centroid_lat": 45.194616776388926, "occurrences_today": 1, "datetimes_today": "2026-06-27 00:01:52", "cumulative_total": 50.0 }, "geometry": { "type": "Polygon", "coordinates": [ [ [ -71.430361782420007, 45.189429787575349 ], [ -71.436552356318174, 45.19222193017022 ], [ -71.43622820250134, 45.197408951432465 ], [ -71.429712324961713, 45.199803758640343 ], [ -71.423521308461872, 45.197011232478523 ], [ -71.423846612074044, 45.191824282738807 ], [ -71.430361782420007, 45.189429787575349 ] ] ] } },
{ "type": "Feature", "properties": { "hex_id": 721054, "centroid_lon": -72.027448898728167, "centroid_lat": 45.578134717894223, "occurrences_today": 1, "datetimes_today": "2026-06-27 00:01:52", "cumulative_total": 133.0 }, "geometry": { "type": "Polygon", "coordinates": [ [ [ -72.027722941046918, 45.572944981716461 ], [ -72.033985749045002, 45.575706341870621 ], [ -72.033712257316893, 45.580896105004413 ], [ -72.02717478158317, 45.583324448049432 ], [ -72.020911497833211, 45.580562704319796 ], [ -72.021186165543767, 45.575373001184772 ], [ -72.027722941046918, 45.572944981716461 ] ] ] } },
{ "type": "Feature", "properties": { "hex_id": 528788, "centroid_lon": -74.034470287187347, "centroid_lat": 46.259701036206145, "occurrences_today": 1, "datetimes_today": "2026-06-27 00:01:52", "cumulative_total": 149.0 }, "geometry": { "type": "Polygon", "coordinates": [ [ [ -74.034561477223477, 46.254505658493336 ], [ -74.041002337816749, 46.257157943626758 ], [ -74.040911747711206, 46.262353328743806 ], [ -74.03437907200906, 46.26489640903722 ], [ -74.027937636631648, 46.26224374971013 ], [ -74.028029451731939, 46.257048384349623 ], [ -74.034561477223477, 46.254505658493336 ] ] ] } },
{ "type": "Feature", "properties": { "hex_id": 358454, "centroid_lon": -75.843473674970184, "centroid_lat": 46.190518431064895, "occurrences_today": 1, "datetimes_today": "2026-06-27 00:01:52", "cumulative_total": 170.0 }, "geometry": { "type": "Polygon", "coordinates": [ [ [ -75.843394203694515, 46.185322815208544 ], [ -75.849912447292652, 46.187872639660618 ], [ -75.849992539847008, 46.193068244439957 ], [ -75.843553168138328, 46.195714042071849 ], [ -75.837034281365277, 46.193163862745493 ], [ -75.836955409483309, 46.187968240727685 ], [ -75.843394203694515, 46.185322815208544 ] ] ] } },
{ "type": "Feature", "properties": { "hex_id": 717392, "centroid_lon": -72.065038432202257, "centroid_lat": 45.594698093045267, "occurrences_today": 1, "datetimes_today": "2026-06-27 00:01:52", "cumulative_total": 116.0 }, "geometry": { "type": "Polygon", "coordinates": [ [ [ -72.065309168389547, 45.589508196015515 ], [ -72.071575728303856, 45.592267576815097 ], [ -72.071305543742284, 45.597457500447092 ], [ -72.064767622074115, 45.59988798408385 ], [ -72.058500584487334, 45.597128219812625 ], [ -72.058771946216382, 45.591938355440504 ], [ -72.065309168389547, 45.589508196015515 ] ] ] } },
{ "type": "Feature", "properties": { "hex_id": 718003, "centroid_lon": -72.058229148644841, "centroid_lat": 45.602318078187949, "occurrences_today": 1, "datetimes_today": "2026-06-27 00:01:52", "cumulative_total": 116.0 }, "geometry": { "type": "Polygon", "coordinates": [ [ [ -72.058500584487334, 45.597128219812625 ], [ -72.064767622074115, 45.59988798408385 ], [ -72.064496737980264, 45.60507786913081 ], [ -72.057957638663993, 45.607507930565994 ], [ -72.051690123479361, 45.604747782666927 ], [ -72.051962185183967, 45.599557957024743 ], [ -72.058500584487334, 45.597128219812625 ] ] ] } },
{ "type": "Feature", "properties": { "hex_id": 718613, "centroid_lon": -72.052234172602482, "centroid_lat": 45.594368125380093, "occurrences_today": 1, "datetimes_today": "2026-06-27 00:01:52", "cumulative_total": 116.0 }, "geometry": { "type": "Polygon", "coordinates": [ [ [ -72.052506085759845, 45.589178287733418 ], [ -72.058771946216382, 45.591938355440504 ], [ -72.058500584487334, 45.597128219812625 ], [ -72.051962185183967, 45.599557957024743 ], [ -72.04569584757273, 45.596797505741861 ], [ -72.04596838639462, 45.591607700886861 ], [ -72.052506085759845, 45.589178287733418 ] ] ] } },
{ "type": "Feature", "properties": { "hex_id": 719223, "centroid_lon": -72.04624085080772, "centroid_lat": 45.58641789002462, "occurrences_today": 1, "datetimes_today": "2026-06-27 00:01:52", "cumulative_total": 102.0 }, "geometry": { "type": "Polygon", "coordinates": [ [ [ -72.046513240837015, 45.581228073155557 ], [ -72.052777924680996, 45.583988444085136 ], [ -72.052506085759845, 45.589178287733418 ], [ -72.04596838639462, 45.591607700886861 ], [ -72.039703225838792, 45.588846946433591 ], [ -72.039976241335069, 45.583657162414745 ], [ -72.046513240837015, 45.581228073155557 ] ] ] } },
{ "type": "Feature", "properties": { "hex_id": 719833, "centroid_lon": -72.040249182300002, "centroid_lat": 45.578467372383848, "occurrences_today": 1, "datetimes_today": "2026-06-27 00:01:52", "cumulative_total": 102.0 }, "geometry": { "type": "Polygon", "coordinates": [ [ [ -72.040522048758618, 45.573277576341354 ], [ -72.046785556507473, 45.576038250280106 ], [ -72.046513240837015, 45.581228073155557 ], [ -72.039976241335069, 45.583657162414745 ], [ -72.033712257316893, 45.580896105004413 ], [ -72.033985749045002, 45.575706341870621 ], [ -72.040522048758618, 45.573277576341354 ] ] ] } },
{ "type": "Feature", "properties": { "hex_id": 719834, "centroid_lon": -72.039430135786148, "centroid_lat": 45.594036724439945, "occurrences_today": 1, "datetimes_today": "2026-06-27 00:01:52", "cumulative_total": 102.0 }, "geometry": { "type": "Polygon", "coordinates": [ [ [ -72.039703225838792, 45.588846946433591 ], [ -72.04596838639462, 45.591607700886861 ], [ -72.04569584757273, 45.596797505741861 ], [ -72.039156971152082, 45.599226496433374 ], [ -72.032891333959427, 45.59646535830025 ], [ -72.033165049799194, 45.591275613219658 ], [ -72.039703225838792, 45.588846946433591 ] ] ] } },
{ "type": "Feature", "properties": { "hex_id": 720444, "centroid_lon": -72.033438690909989, "centroid_lat": 45.58608586212091, "occurrences_today": 1, "datetimes_today": "2026-06-27 00:01:52", "cumulative_total": 102.0 }, "geometry": { "type": "Polygon", "coordinates": [ [ [ -72.033712257316893, 45.580896105004413 ], [ -72.039976241335069, 45.583657162414745 ], [ -72.039703225838792, 45.588846946433591 ], [ -72.033165049799194, 45.591275613219658 ], [ -72.026900589586816, 45.588514172181654 ], [ -72.02717478158317, 45.583324448049432 ], [ -72.033712257316893, 45.580896105004413 ] ] ] } },
{ "type": "Feature", "properties": { "hex_id": 721055, "centroid_lon": -72.026626322714009, "centroid_lat": 45.593703890290456, "occurrences_today": 1, "datetimes_today": "2026-06-27 00:01:52", "cumulative_total": 102.0 }, "geometry": { "type": "Polygon", "coordinates": [ [ [ -72.026900589586816, 45.588514172181654 ], [ -72.033165049799194, 45.591275613219658 ], [ -72.032891333959427, 45.59646535830025 ], [ -72.026351980939552, 45.598893602375405 ], [ -72.020087044608317, 45.596131777553623 ], [ -72.020361937390675, 45.590942092504655 ], [ -72.026900589586816, 45.588514172181654 ] ] ] } },
{ "type": "Feature", "properties": { "hex_id": 721664, "centroid_lon": -72.021460758280725, "centroid_lat": 45.570183292021959, "occurrences_today": 1, "datetimes_today": "2026-06-27 00:01:52", "cumulative_total": 102.0 }, "geometry": { "type": "Polygon", "coordinates": [ [ [ -72.021735276069279, 45.564993576831803 ], [ -72.02799690856456, 45.567755239516622 ], [ -72.027722941046918, 45.572944981716461 ], [ -72.021186165543767, 45.575373001184772 ], [ -72.014924057738568, 45.572610954976689 ], [ -72.015199200721298, 45.567421272887692 ], [ -72.021735276069279, 45.564993576831803 ] ] ] } },
{ "type": "Feature", "properties": { "hex_id": 722274, "centroid_lon": -72.01547426860833, "centroid_lat": 45.562231584766074, "occurrences_today": 1, "datetimes_today": "2026-06-27 00:01:52", "cumulative_total": 102.0 }, "geometry": { "type": "Polygon", "coordinates": [ [ [ -72.015749261424872, 45.557041890612311 ], [ -72.022009718934513, 45.559803855614739 ], [ -72.021735276069279, 45.564993576831803 ], [ -72.015199200721298, 45.567421272887692 ], [ -72.008938268343428, 45.564658924414239 ], [ -72.009213886156587, 45.559469263420034 ], [ -72.015749261424872, 45.557041890612311 ] ] ] } },
{ "type": "Feature", "properties": { "hex_id": 722885, "centroid_lon": -72.008662575287403, "centroid_lat": 45.569848579370557, "occurrences_today": 1, "datetimes_today": "2026-06-27 00:01:52", "cumulative_total": 122.0 }, "geometry": { "type": "Polygon", "coordinates": [ [ [ -72.008938268343428, 45.564658924414239 ], [ -72.015199200721298, 45.567421272887692 ], [ -72.014924057738568, 45.572610954976689 ], [ -72.008386806963287, 45.57503822828852 ], [ -72.00212539979286, 45.572275496188126 ], [ -72.002401718165046, 45.567085874466969 ], [ -72.008938268343428, 45.564658924414239 ] ] ] } },
{ "type": "Feature", "properties": { "hex_id": 357233, "centroid_lon": -75.856431290108944, "centroid_lat": 46.190422087120297, "occurrences_today": 1, "datetimes_today": "2026-06-27 00:01:52", "cumulative_total": 62.0 }, "geometry": { "type": "Polygon", "coordinates": [ [ [ -75.856350598340185, 46.185226488633141 ], [ -75.862869418931695, 46.187775570213361 ], [ -75.862950732135815, 46.192971157489502 ], [ -75.856512004106278, 46.195617680754779 ], [ -75.849992539847008, 46.193068244439957 ], [ -75.849912447292652, 46.187872639660618 ], [ -75.856350598340185, 46.185226488633141 ] ] ] } }
]
}
