{
"type": "FeatureCollection",
"name": "daily_2026-07-25",
"crs": { "type": "name", "properties": { "name": "urn:ogc:def:crs:OGC:1.3:CRS84" } },
"features": [
{ "type": "Feature", "properties": { "hex_id": 477480, "centroid_lon": -74.582477489882692, "centroid_lat": 45.857704236518195, "occurrences_today": 3, "datetimes_today": "2026-07-25 00:01:45, 2026-07-25 00:17:19, 2026-07-25 00:29:49", "cumulative_total": 714.0 }, "geometry": { "type": "Polygon", "coordinates": [ [ [ -74.582516375627165, 45.852507891021503 ], [ -74.588937228901088, 45.855129414088736 ], [ -74.588898937705238, 45.860325761408468 ], [ -74.582438593470044, 45.862900577242634 ], [ -74.576017156317477, 45.860278690509539 ], [ -74.576056647275138, 45.855082351673552 ], [ -74.582516375627165, 45.852507891021503 ] ] ] } },
{ "type": "Feature", "properties": { "hex_id": 567203, "centroid_lon": -73.643608850315275, "centroid_lat": 45.530820961775362, "occurrences_today": 1, "datetimes_today": "2026-07-25 00:01:45", "cumulative_total": 166.0 }, "geometry": { "type": "Polygon", "coordinates": [ [ [ -73.643733735394378, 45.525625637843696 ], [ -73.65007256529249, 45.528299139630697 ], [ -73.649948252201725, 45.533494474720356 ], [ -73.643483931119832, 45.536016280693502 ], [ -73.637144563355434, 45.533342410329247 ], [ -73.637270054527747, 45.52814710263366 ], [ -73.643733735394378, 45.525625637843696 ] ] ] } },
{ "type": "Feature", "properties": { "hex_id": 568424, "centroid_lon": -73.630805801845014, "centroid_lat": 45.530668193804935, "occurrences_today": 1, "datetimes_today": "2026-07-25 00:01:45", "cumulative_total": 119.0 }, "geometry": { "type": "Polygon", "coordinates": [ [ [ -73.630931864827687, 45.525472897393982 ], [ -73.637270054527747, 45.52814710263366 ], [ -73.637144563355434, 45.533342410329247 ], [ -73.630679704424466, 45.535863485197332 ], [ -73.62434097735769, 45.533188911262584 ], [ -73.624467646577031, 45.527993631219374 ], [ -73.630931864827687, 45.525472897393982 ] ] ] } },
{ "type": "Feature", "properties": { "hex_id": 567814, "centroid_lon": -73.637019037900259, "centroid_lat": 45.538537713008722, "occurrences_today": 1, "datetimes_today": "2026-07-25 00:01:45", "cumulative_total": 192.0 }, "geometry": { "type": "Polygon", "coordinates": [ [ [ -73.637144563355434, 45.533342410329247 ], [ -73.643483931119832, 45.536016280693502 ], [ -73.643358977796609, 45.541211594597968 ], [ -73.636893478150725, 45.543733010672007 ], [ -73.630553572554504, 45.541058771571045 ], [ -73.630679704424466, 45.535863485197332 ], [ -73.637144563355434, 45.533342410329247 ] ] ] } },
{ "type": "Feature", "properties": { "hex_id": 859732, "centroid_lon": -70.456325499042251, "centroid_lat": 46.999672171492264, "occurrences_today": 2, "datetimes_today": "2026-07-25 00:01:45, 2026-07-25 00:17:19", "cumulative_total": 145.0 }, "geometry": { "type": "Polygon", "coordinates": [ [ [ -70.456765418490946, 46.994493080271887 ], [ -70.463101199898517, 46.997343097256156 ], [ -70.462661848920888, 47.00252223143827 ], [ -70.455885457475944, 47.004851254850372 ], [ -70.449549229736121, 47.002000822583639 ], [ -70.44998983973106, 46.996821782253924 ], [ -70.456765418490946, 46.994493080271887 ] ] ] } },
{ "type": "Feature", "properties": { "hex_id": 860343, "centroid_lon": -70.449108497429165, "centroid_lat": 47.007179855041542, "occurrences_today": 2, "datetimes_today": "2026-07-25 00:01:45, 2026-07-25 00:17:19", "cumulative_total": 81.0 }, "geometry": { "type": "Polygon", "coordinates": [ [ [ -70.449549229736121, 47.002000822583639 ], [ -70.455885457475944, 47.004851254850372 ], [ -70.455445293749563, 47.010030330345096 ], [ -70.448667642767631, 47.012358879626547 ], [ -70.442330968823057, 47.00950803191791 ], [ -70.442772392022647, 47.004329050436382 ], [ -70.449549229736121, 47.002000822583639 ] ] ] } },
{ "type": "Feature", "properties": { "hex_id": 843803, "centroid_lon": -70.696349153264705, "centroid_lat": 46.135928582233667, "occurrences_today": 3, "datetimes_today": "2026-07-25 00:01:45, 2026-07-25 00:17:19, 2026-07-25 00:29:49", "cumulative_total": 40.0 }, "geometry": { "type": "Polygon", "coordinates": [ [ [ -70.696753503868933, 46.13074702555933 ], [ -70.703005924576928, 46.133581075612156 ], [ -70.702602120466722, 46.13876267229741 ], [ -70.695944691651164, 46.14111013144192 ], [ -70.689691835477319, 46.138275679704414 ], [ -70.690096843547167, 46.133094170571816 ], [ -70.696753503868933, 46.13074702555933 ] ] ] } },
{ "type": "Feature", "properties": { "hex_id": 860954, "centroid_lon": -70.441889423074372, "centroid_lat": 47.014687005516969, "occurrences_today": 2, "datetimes_today": "2026-07-25 00:01:45, 2026-07-25 00:17:19", "cumulative_total": 96.0 }, "geometry": { "type": "Polygon", "coordinates": [ [ [ -70.442330968823057, 47.00950803191791 ], [ -70.448667642767631, 47.012358879626547 ], [ -70.448226665708987, 47.017537896337501 ], [ -70.441447754733957, 47.019865971232406 ], [ -70.435110634712387, 47.017014707922456 ], [ -70.43555287170021, 47.011835785385585 ], [ -70.442330968823057, 47.00950803191791 ] ] ] } },
{ "type": "Feature", "properties": { "hex_id": 861565, "centroid_lon": -70.434668274938176, "centroid_lat": 47.022193622566164, "occurrences_today": 2, "datetimes_today": "2026-07-25 00:01:45, 2026-07-25 00:17:19", "cumulative_total": 99.0 }, "geometry": { "type": "Polygon", "coordinates": [ [ [ -70.435110634712387, 47.017014707922456 ], [ -70.441447754733957, 47.019865971232406 ], [ -70.441005963759196, 47.025044929063164 ], [ -70.434225792334871, 47.027372529315578 ], [ -70.427888226364288, 47.024520850244834 ], [ -70.428331277724311, 47.019341986749133 ], [ -70.435110634712387, 47.017014707922456 ] ] ] } },
{ "type": "Feature", "properties": { "hex_id": 862175, "centroid_lon": -70.428774206103242, "centroid_lat": 47.014163115350698, "occurrences_today": 2, "datetimes_today": "2026-07-25 00:01:45, 2026-07-25 00:17:19", "cumulative_total": 157.0 }, "geometry": { "type": "Polygon", "coordinates": [ [ [ -70.429217011543841, 47.008984236050587 ], [ -70.43555287170021, 47.011835785385585 ], [ -70.435110634712387, 47.017014707922456 ], [ -70.428331277724311, 47.019341986749133 ], [ -70.421994972074884, 47.016490021719349 ], [ -70.422438468863845, 47.011311193624337 ], [ -70.429217011543841, 47.008984236050587 ] ] ] } },
{ "type": "Feature", "properties": { "hex_id": 863393, "centroid_lon": -70.41965150986826, "centroid_lat": 46.967028380008038, "occurrences_today": 2, "datetimes_today": "2026-07-25 00:01:45, 2026-07-25 00:17:19", "cumulative_total": 235.0 }, "geometry": { "type": "Polygon", "coordinates": [ [ [ -70.42009446723462, 46.961849524047743 ], [ -70.426424406034684, 46.964701384948761 ], [ -70.425982015519125, 46.969880284194346 ], [ -70.419208429601966, 46.972207228058735 ], [ -70.412878046872365, 46.969354952045236 ], [ -70.41332169394677, 46.964176147346372 ], [ -70.42009446723462, 46.961849524047743 ] ] ] } },
{ "type": "Feature", "properties": { "hex_id": 866449, "centroid_lon": -70.382202805122532, "centroid_lat": 47.020085512657438, "occurrences_today": 2, "datetimes_today": "2026-07-25 00:01:45, 2026-07-25 00:17:19", "cumulative_total": 142.0 }, "geometry": { "type": "Polygon", "coordinates": [ [ [ -70.382650204715475, 47.014906977459944 ], [ -70.388984064514744, 47.017761046522111 ], [ -70.388537232770403, 47.022939625405876 ], [ -70.381755281313829, 47.025264039887986 ], [ -70.375420977903303, 47.022409554692153 ], [ -70.375869069517421, 47.017231071214511 ], [ -70.382650204715475, 47.014906977459944 ] ] ] } },
{ "type": "Feature", "properties": { "hex_id": 477481, "centroid_lon": -74.582360768625762, "centroid_lat": 45.873293244374942, "occurrences_today": 3, "datetimes_today": "2026-07-25 00:01:45, 2026-07-25 00:17:19, 2026-07-25 00:29:49", "cumulative_total": 393.0 }, "geometry": { "type": "Polygon", "coordinates": [ [ [ -74.5823996863856, 45.868096913194883 ], [ -74.588822323793721, 45.870718441733644 ], [ -74.588784001070962, 45.875914774739137 ], [ -74.582321840186879, 45.878489570782861 ], [ -74.575898618422514, 45.875867678379478 ], [ -74.575938141894838, 45.870671353862463 ], [ -74.5823996863856, 45.868096913194883 ] ] ] } },
{ "type": "Feature", "properties": { "hex_id": 860342, "centroid_lon": -70.450430327456488, "centroid_lat": 46.991642734053521, "occurrences_today": 2, "datetimes_today": "2026-07-25 00:01:45, 2026-07-25 00:17:19", "cumulative_total": 152.0 }, "geometry": { "type": "Polygon", "coordinates": [ [ [ -70.450870692954865, 46.986463677983529 ], [ -70.457205215864491, 46.989313981190378 ], [ -70.456765418490946, 46.994493080271887 ], [ -70.44998983973106, 46.996821782253924 ], [ -70.443654870944883, 46.993971063830379 ], [ -70.444095926752667, 46.988792058708128 ], [ -70.450870692954865, 46.986463677983529 ] ] ] } },
{ "type": "Feature", "properties": { "hex_id": 860952, "centroid_lon": -70.444536860181614, "centroid_lat": 46.983613045707848, "occurrences_today": 2, "datetimes_today": "2026-07-25 00:01:45, 2026-07-25 00:17:19", "cumulative_total": 138.0 }, "geometry": { "type": "Polygon", "coordinates": [ [ [ -70.444977671274245, 46.978434024830698 ], [ -70.451310936268683, 46.981284614045073 ], [ -70.450870692954865, 46.986463677983529 ], [ -70.444095926752667, 46.988792058708128 ], [ -70.437762216336992, 46.985941054342852 ], [ -70.438203717502262, 46.980762084470463 ], [ -70.444977671274245, 46.978434024830698 ] ] ] } },
{ "type": "Feature", "properties": { "hex_id": 860953, "centroid_lon": -70.44321369271573, "centroid_lat": 46.9991500610735, "occurrences_today": 2, "datetimes_today": "2026-07-25 00:01:45, 2026-07-25 00:17:19", "cumulative_total": 138.0 }, "geometry": { "type": "Polygon", "coordinates": [ [ [ -70.443654870944883, 46.993971063830379 ], [ -70.44998983973106, 46.996821782253924 ], [ -70.449549229736121, 47.002000822583639 ], [ -70.442772392022647, 47.004329050436382 ], [ -70.436436977487446, 47.001477916636809 ], [ -70.436878846372181, 46.996298970427148 ], [ -70.443654870944883, 46.993971063830379 ] ] ] } },
{ "type": "Feature", "properties": { "hex_id": 861562, "centroid_lon": -70.438645096179528, "centroid_lat": 46.97558310671274, "occurrences_today": 2, "datetimes_today": "2026-07-25 00:01:45, 2026-07-25 00:17:19", "cumulative_total": 138.0 }, "geometry": { "type": "Polygon", "coordinates": [ [ [ -70.439086352411351, 46.970404121070793 ], [ -70.445418360073063, 46.973254996077756 ], [ -70.444977671274245, 46.978434024830698 ], [ -70.438203717502262, 46.980762084470463 ], [ -70.43187126487426, 46.977910794378424 ], [ -70.432313210941999, 46.972731859798273 ], [ -70.439086352411351, 46.970404121070793 ] ] ] } },
{ "type": "Feature", "properties": { "hex_id": 861563, "centroid_lon": -70.437320592641157, "centroid_lat": 46.991120016328786, "occurrences_today": 2, "datetimes_today": "2026-07-25 00:01:45, 2026-07-25 00:17:19", "cumulative_total": 138.0 }, "geometry": { "type": "Polygon", "coordinates": [ [ [ -70.437762216336992, 46.985941054342852 ], [ -70.444095926752667, 46.988792058708128 ], [ -70.443654870944883, 46.993971063830379 ], [ -70.436878846372181, 46.996298970427148 ], [ -70.430544690662884, 46.993447550751689 ], [ -70.430987004777322, 46.988268639856258 ], [ -70.437762216336992, 46.985941054342852 ] ] ] } },
{ "type": "Feature", "properties": { "hex_id": 861564, "centroid_lon": -70.435994985944333, "centroid_lat": 47.006656854956667, "occurrences_today": 2, "datetimes_today": "2026-07-25 00:01:45, 2026-07-25 00:17:19", "cumulative_total": 135.0 }, "geometry": { "type": "Polygon", "coordinates": [ [ [ -70.436436977487446, 47.001477916636809 ], [ -70.442772392022647, 47.004329050436382 ], [ -70.442330968823057, 47.00950803191791 ], [ -70.43555287170021, 47.011835785385585 ], [ -70.429217011543841, 47.008984236050587 ], [ -70.429659694088841, 47.00380534884998 ], [ -70.436436977487446, 47.001477916636809 ] ] ] } },
{ "type": "Feature", "properties": { "hex_id": 862172, "centroid_lon": -70.43275503441275, "centroid_lat": 46.967552917325442, "occurrences_today": 2, "datetimes_today": "2026-07-25 00:01:45, 2026-07-25 00:17:19", "cumulative_total": 138.0 }, "geometry": { "type": "Polygon", "coordinates": [ [ [ -70.433196735329034, 46.962373966961096 ], [ -70.439527486240237, 46.96522512754575 ], [ -70.439086352411351, 46.970404121070793 ], [ -70.432313210941999, 46.972731859798273 ], [ -70.425982015519125, 46.969880284194346 ], [ -70.426424406034684, 46.964701384948761 ], [ -70.433196735329034, 46.962373966961096 ] ] ] } },
{ "type": "Feature", "properties": { "hex_id": 862173, "centroid_lon": -70.431429196166903, "centroid_lat": 46.983089721064786, "occurrences_today": 2, "datetimes_today": "2026-07-25 00:01:45, 2026-07-25 00:17:19", "cumulative_total": 150.0 }, "geometry": { "type": "Polygon", "coordinates": [ [ [ -70.43187126487426, 46.977910794378424 ], [ -70.438203717502262, 46.980762084470463 ], [ -70.437762216336992, 46.985941054342852 ], [ -70.430987004777322, 46.988268639856258 ], [ -70.424654107310772, 46.985416934519925 ], [ -70.425096866199794, 46.980238058981051 ], [ -70.43187126487426, 46.977910794378424 ] ] ] } },
{ "type": "Feature", "properties": { "hex_id": 862174, "centroid_lon": -70.430102253780959, "centroid_lat": 46.998626453749964, "occurrences_today": 2, "datetimes_today": "2026-07-25 00:01:45, 2026-07-25 00:17:19", "cumulative_total": 138.0 }, "geometry": { "type": "Polygon", "coordinates": [ [ [ -70.430544690662884, 46.993447550751689 ], [ -70.436878846372181, 46.996298970427148 ], [ -70.436436977487446, 47.001477916636809 ], [ -70.429659694088841, 47.00380534884998 ], [ -70.423325093213876, 47.000953513705049 ], [ -70.423768220860524, 46.995774661883054 ], [ -70.430544690662884, 46.993447550751689 ] ] ] } },
{ "type": "Feature", "properties": { "hex_id": 862176, "centroid_lon": -70.427445051980399, "centroid_lat": 47.029699705836634, "occurrences_today": 2, "datetimes_today": "2026-07-25 00:01:45, 2026-07-25 00:17:19", "cumulative_total": 85.0 }, "geometry": { "type": "Polygon", "coordinates": [ [ [ -70.427888226364288, 47.024520850244834 ], [ -70.434225792334871, 47.027372529315578 ], [ -70.433783186859742, 47.032551428169576 ], [ -70.427001754529826, 47.034878553523406 ], [ -70.420663742738554, 47.032026458532421 ], [ -70.421107609055085, 47.026847654174524 ], [ -70.427888226364288, 47.024520850244834 ] ] ] } },
{ "type": "Feature", "properties": { "hex_id": 862782, "centroid_lon": -70.426866673844387, "centroid_lat": 46.959522477803162, "occurrences_today": 2, "datetimes_today": "2026-07-25 00:01:45, 2026-07-25 00:17:19", "cumulative_total": 144.0 }, "geometry": { "type": "Polygon", "coordinates": [ [ [ -70.427308818990795, 46.954343562758709 ], [ -70.433638313733439, 46.9571950087063 ], [ -70.433196735329034, 46.962373966961096 ], [ -70.426424406034684, 46.964701384948761 ], [ -70.42009446723462, 46.961849524047743 ], [ -70.420537301743721, 46.956670660179 ], [ -70.427308818990795, 46.954343562758709 ] ] ] } },
{ "type": "Feature", "properties": { "hex_id": 862783, "centroid_lon": -70.425539502255035, "centroid_lat": 46.975059175538817, "occurrences_today": 2, "datetimes_today": "2026-07-25 00:01:45, 2026-07-25 00:17:19", "cumulative_total": 150.0 }, "geometry": { "type": "Polygon", "coordinates": [ [ [ -70.425982015519125, 46.969880284194346 ], [ -70.432313210941999, 46.972731859798273 ], [ -70.43187126487426, 46.977910794378424 ], [ -70.425096866199794, 46.980238058981051 ], [ -70.418765226393049, 46.97738606819874 ], [ -70.419208429601966, 46.972207228058735 ], [ -70.425982015519125, 46.969880284194346 ] ] ] } },
{ "type": "Feature", "properties": { "hex_id": 862784, "centroid_lon": -70.424211225545235, "centroid_lat": 46.990595802154289, "occurrences_today": 2, "datetimes_today": "2026-07-25 00:01:45, 2026-07-25 00:17:19", "cumulative_total": 150.0 }, "geometry": { "type": "Polygon", "coordinates": [ [ [ -70.424654107310772, 46.985416934519925 ], [ -70.430987004777322, 46.988268639856258 ], [ -70.430544690662884, 46.993447550751689 ], [ -70.423768220860524, 46.995774661883054 ], [ -70.417434878683423, 46.99292254114318 ], [ -70.417878450976531, 46.987743724742089 ], [ -70.424654107310772, 46.985416934519925 ] ] ] } },
{ "type": "Feature", "properties": { "hex_id": 862785, "centroid_lon": -70.422881842562575, "centroid_lat": 47.006132357619187, "occurrences_today": 2, "datetimes_today": "2026-07-25 00:01:45, 2026-07-25 00:17:19", "cumulative_total": 135.0 }, "geometry": { "type": "Polygon", "coordinates": [ [ [ -70.423325093213876, 47.000953513705049 ], [ -70.429659694088841, 47.00380534884998 ], [ -70.429217011543841, 47.008984236050587 ], [ -70.422438468863845, 47.011311193624337 ], [ -70.416103422951394, 47.008458942850609 ], [ -70.416547364713651, 47.00328015019857 ], [ -70.423325093213876, 47.000953513705049 ] ] ] } },
{ "type": "Feature", "properties": { "hex_id": 862786, "centroid_lon": -70.421551352152903, "centroid_lat": 47.021668841903121, "occurrences_today": 2, "datetimes_today": "2026-07-25 00:01:45, 2026-07-25 00:17:19", "cumulative_total": 48.0 }, "geometry": { "type": "Polygon", "coordinates": [ [ [ -70.421994972074884, 47.016490021719349 ], [ -70.428331277724311, 47.019341986749133 ], [ -70.427888226364288, 47.024520850244834 ], [ -70.421107609055085, 47.026847654174524 ], [ -70.414770858040967, 47.023995273290538 ], [ -70.415215169657912, 47.018816504397719 ], [ -70.421994972074884, 47.016490021719349 ] ] ] } },
{ "type": "Feature", "properties": { "hex_id": 863394, "centroid_lon": -70.418321900198819, "centroid_lat": 46.98256490042688, "occurrences_today": 2, "datetimes_today": "2026-07-25 00:01:45, 2026-07-25 00:17:19", "cumulative_total": 150.0 }, "geometry": { "type": "Polygon", "coordinates": [ [ [ -70.418765226393049, 46.97738606819874 ], [ -70.425096866199794, 46.980238058981051 ], [ -70.424654107310772, 46.985416934519925 ], [ -70.417878450976531, 46.987743724742089 ], [ -70.41154636691401, 46.984891318622196 ], [ -70.411990383398759, 46.979712537684286 ], [ -70.418765226393049, 46.97738606819874 ] ] ] } },
{ "type": "Feature", "properties": { "hex_id": 863395, "centroid_lon": -70.416991183276721, "centroid_lat": 46.998101349629039, "occurrences_today": 2, "datetimes_today": "2026-07-25 00:01:45, 2026-07-25 00:17:19", "cumulative_total": 135.0 }, "geometry": { "type": "Polygon", "coordinates": [ [ [ -70.417434878683423, 46.99292254114318 ], [ -70.423768220860524, 46.995774661883054 ], [ -70.423325093213876, 47.000953513705049 ], [ -70.416547364713651, 47.00328015019857 ], [ -70.410213577954281, 47.00042761389593 ], [ -70.410657964234602, 46.995248856729155 ], [ -70.417434878683423, 46.99292254114318 ] ] ] } },
{ "type": "Feature", "properties": { "hex_id": 863396, "centroid_lon": -70.415659357947092, "centroid_lat": 47.01363772758404, "occurrences_today": 2, "datetimes_today": "2026-07-25 00:01:45, 2026-07-25 00:17:19", "cumulative_total": 135.0 }, "geometry": { "type": "Polygon", "coordinates": [ [ [ -70.416103422951394, 47.008458942850609 ], [ -70.422438468863845, 47.011311193624337 ], [ -70.421994972074884, 47.016490021719349 ], [ -70.415215169657912, 47.018816504397719 ], [ -70.408879678836442, 47.015963837835869 ], [ -70.409324435298103, 47.010785104450427 ], [ -70.416103422951394, 47.008458942850609 ] ] ] } },
{ "type": "Feature", "properties": { "hex_id": 863397, "centroid_lon": -70.414326423053367, "centroid_lat": 47.029174034261359, "occurrences_today": 2, "datetimes_today": "2026-07-25 00:01:45, 2026-07-25 00:17:19", "cumulative_total": 48.0 }, "geometry": { "type": "Polygon", "coordinates": [ [ [ -70.414770858040967, 47.023995273290538 ], [ -70.421107609055085, 47.026847654174524 ], [ -70.420663742738554, 47.032026458532421 ], [ -70.413881864652197, 47.034352787309025 ], [ -70.407544668402053, 47.031499990411419 ], [ -70.407989795431376, 47.026321280817506 ], [ -70.414770858040967, 47.023995273290538 ] ] ] } },
{ "type": "Feature", "properties": { "hex_id": 864003, "centroid_lon": -70.413765217969882, "centroid_lat": 46.958997334729439, "occurrences_today": 2, "datetimes_today": "2026-07-25 00:01:45, 2026-07-25 00:17:19", "cumulative_total": 150.0 }, "geometry": { "type": "Polygon", "coordinates": [ [ [ -70.414208618984446, 46.953818514195589 ], [ -70.420537301743721, 46.956670660179 ], [ -70.42009446723462, 46.961849524047743 ], [ -70.41332169394677, 46.964176147346372 ], [ -70.406992567711953, 46.961323586316389 ], [ -70.40743665819781, 46.956144817100864 ], [ -70.414208618984446, 46.953818514195589 ] ] ] } },
{ "type": "Feature", "properties": { "hex_id": 864004, "centroid_lon": -70.412434276703948, "centroid_lat": 46.974533748824911, "occurrences_today": 2, "datetimes_today": "2026-07-25 00:01:45, 2026-07-25 00:17:19", "cumulative_total": 150.0 }, "geometry": { "type": "Polygon", "coordinates": [ [ [ -70.412878046872365, 46.969354952045236 ], [ -70.419208429601966, 46.972207228058735 ], [ -70.418765226393049, 46.97738606819874 ], [ -70.411990383398759, 46.979712537684286 ], [ -70.405659556867818, 46.976859846399194 ], [ -70.406104017089746, 46.971681100966684 ], [ -70.412878046872365, 46.969354952045236 ] ] ] } },
{ "type": "Feature", "properties": { "hex_id": 864005, "centroid_lon": -70.411102227206896, "centroid_lat": 46.990070091637534, "occurrences_today": 2, "datetimes_today": "2026-07-25 00:01:45, 2026-07-25 00:17:19", "cumulative_total": 135.0 }, "geometry": { "type": "Polygon", "coordinates": [ [ [ -70.41154636691401, 46.984891318622196 ], [ -70.417878450976531, 46.987743724742089 ], [ -70.417434878683423, 46.99292254114318 ], [ -70.410657964234602, 46.995248856729155 ], [ -70.404325436044672, 46.99239603511252 ], [ -70.404770266388141, 46.987217313473245 ], [ -70.41154636691401, 46.984891318622196 ] ] ] } },
{ "type": "Feature", "properties": { "hex_id": 864006, "centroid_lon": -70.409769068323072, "centroid_lat": 47.005606363136728, "occurrences_today": 2, "datetimes_today": "2026-07-25 00:01:45, 2026-07-25 00:17:19", "cumulative_total": 135.0 }, "geometry": { "type": "Polygon", "coordinates": [ [ [ -70.410213577954281, 47.00042761389593 ], [ -70.416547364713651, 47.00328015019857 ], [ -70.416103422951394, 47.008458942850609 ], [ -70.409324435298103, 47.010785104450427 ], [ -70.402990204085, 47.007932152425738 ], [ -70.403435404936033, 47.002753454589907 ], [ -70.410213577954281, 47.00042761389593 ] ] ] } },
{ "type": "Feature", "properties": { "hex_id": 864007, "centroid_lon": -70.408434798895186, "centroid_lat": 47.021142563291939, "occurrences_today": 2, "datetimes_today": "2026-07-25 00:01:45, 2026-07-25 00:17:19", "cumulative_total": 165.0 }, "geometry": { "type": "Polygon", "coordinates": [ [ [ -70.408879678836442, 47.015963837835869 ], [ -70.415215169657912, 47.018816504397719 ], [ -70.414770858040967, 47.023995273290538 ], [ -70.407989795431376, 47.026321280817506 ], [ -70.401653859829622, 47.023468198308159 ], [ -70.402099431574783, 47.018289524286004 ], [ -70.408879678836442, 47.015963837835869 ] ] ] } },
{ "type": "Feature", "properties": { "hex_id": 864008, "centroid_lon": -70.407099417764229, "centroid_lat": 47.036678692072542, "occurrences_today": 2, "datetimes_today": "2026-07-25 00:01:45, 2026-07-25 00:17:19", "cumulative_total": 114.0 }, "geometry": { "type": "Polygon", "coordinates": [ [ [ -70.407544668402053, 47.031499990411419 ], [ -70.413881864652197, 47.034352787309025 ], [ -70.413437182794496, 47.039531532432427 ], [ -70.406654043474887, 47.041857385799759 ], [ -70.400316402117625, 47.039004172729058 ], [ -70.400762345144102, 47.033825522530826 ], [ -70.407544668402053, 47.031499990411419 ] ] ] } },
{ "type": "Feature", "properties": { "hex_id": 864613, "centroid_lon": -70.407880625523887, "centroid_lat": 46.950966039959916, "occurrences_today": 2, "datetimes_today": "2026-07-25 00:01:45, 2026-07-25 00:17:19", "cumulative_total": 150.0 }, "geometry": { "type": "Polygon", "coordinates": [ [ [ -70.408324469732904, 46.945787254894704 ], [ -70.414651897033139, 46.948639685745931 ], [ -70.414208618984446, 46.953818514195589 ], [ -70.40743665819781, 46.956144817100864 ], [ -70.401108787875671, 46.953291971269017 ], [ -70.401553321319327, 46.948113237579015 ], [ -70.408324469732904, 46.945787254894704 ] ] ] } },
{ "type": "Feature", "properties": { "hex_id": 864614, "centroid_lon": -70.406548354023514, "centroid_lat": 46.96650234760537, "occurrences_today": 2, "datetimes_today": "2026-07-25 00:01:45, 2026-07-25 00:17:19", "cumulative_total": 150.0 }, "geometry": { "type": "Polygon", "coordinates": [ [ [ -70.406992567711953, 46.961323586316389 ], [ -70.41332169394677, 46.964176147346372 ], [ -70.412878046872365, 46.969354952045236 ], [ -70.406104017089746, 46.971681100966684 ], [ -70.399774447507653, 46.968828124731111 ], [ -70.400219351012652, 46.963649414846209 ], [ -70.406992567711953, 46.961323586316389 ] ] ] } },
{ "type": "Feature", "properties": { "hex_id": 864615, "centroid_lon": -70.405214973314898, "centroid_lat": 46.98203858390174, "occurrences_today": 2, "datetimes_today": "2026-07-25 00:01:45, 2026-07-25 00:17:19", "cumulative_total": 135.0 }, "geometry": { "type": "Polygon", "coordinates": [ [ [ -70.405659556867818, 46.976859846399194 ], [ -70.411990383398759, 46.979712537684286 ], [ -70.41154636691401, 46.984891318622196 ], [ -70.404770266388141, 46.987217313473245 ], [ -70.398438996184296, 46.984364206757462 ], [ -70.398884270136364, 46.979185520687871 ], [ -70.405659556867818, 46.976859846399194 ] ] ] } },
{ "type": "Feature", "properties": { "hex_id": 864616, "centroid_lon": -70.403880482241604, "centroid_lat": 46.997574748818451, "occurrences_today": 2, "datetimes_today": "2026-07-25 00:01:45, 2026-07-25 00:17:19", "cumulative_total": 135.0 }, "geometry": { "type": "Polygon", "coordinates": [ [ [ -70.404325436044672, 46.99239603511252 ], [ -70.410657964234602, 46.995248856729155 ], [ -70.410213577954281, 47.00042761389593 ], [ -70.403435404936033, 47.002753454589907 ], [ -70.397102432747332, 46.999900217317325 ], [ -70.397548077532718, 46.994721555073326 ], [ -70.404325436044672, 46.99239603511252 ] ] ] } },
{ "type": "Feature", "properties": { "hex_id": 864617, "centroid_lon": -70.402544879645575, "centroid_lat": 47.013110842324814, "occurrences_today": 2, "datetimes_today": "2026-07-25 00:01:45, 2026-07-25 00:17:19", "cumulative_total": 153.0 }, "geometry": { "type": "Polygon", "coordinates": [ [ [ -70.402990204085, 47.007932152425738 ], [ -70.409324435298103, 47.010785104450427 ], [ -70.408879678836442, 47.015963837835869 ], [ -70.402099431574783, 47.018289524286004 ], [ -70.395764756036797, 47.015436156379984 ], [ -70.396210772042366, 47.010257517971802 ], [ -70.402990204085, 47.007932152425738 ] ] ] } },
{ "type": "Feature", "properties": { "hex_id": 864618, "centroid_lon": -70.401208164367077, "centroid_lat": 47.028646864390147, "occurrences_today": 2, "datetimes_today": "2026-07-25 00:01:45, 2026-07-25 00:17:19", "cumulative_total": 135.0 }, "geometry": { "type": "Polygon", "coordinates": [ [ [ -70.401653859829622, 47.023468198308159 ], [ -70.407989795431376, 47.026321280817506 ], [ -70.407544668402053, 47.031499990411419 ], [ -70.400762345144102, 47.033825522530826 ], [ -70.394425964891056, 47.030972023914629 ], [ -70.394872352504208, 47.025793409352531 ], [ -70.401653859829622, 47.023468198308159 ] ] ] } },
{ "type": "Feature", "properties": { "hex_id": 864619, "centroid_lon": -70.399870335244614, "centroid_lat": 47.044182814983735, "occurrences_today": 2, "datetimes_today": "2026-07-25 00:01:45, 2026-07-25 00:17:19", "cumulative_total": 48.0 }, "geometry": { "type": "Polygon", "coordinates": [ [ [ -70.400316402117625, 47.039004172729058 ], [ -70.406654043474887, 47.041857385799759 ], [ -70.406208545490998, 47.047036071591926 ], [ -70.399424144481941, 47.04936144929367 ], [ -70.393086058146793, 47.046507819890451 ], [ -70.393532817755471, 47.041329229184726 ], [ -70.400316402117625, 47.039004172729058 ] ] ] } },
{ "type": "Feature", "properties": { "hex_id": 865223, "centroid_lon": -70.401997731494816, "centroid_lat": 46.942934495956258, "occurrences_today": 2, "datetimes_today": "2026-07-25 00:01:45, 2026-07-25 00:17:19", "cumulative_total": 144.0 }, "geometry": { "type": "Polygon", "coordinates": [ [ [ -70.402442018444916, 46.937755746401862 ], [ -70.40876819086759, 46.940608461906358 ], [ -70.408324469732904, 46.945787254894704 ], [ -70.401553321319327, 46.948113237579015 ], [ -70.395226706328003, 46.945260107159839 ], [ -70.395671682276131, 46.940081409037496 ], [ -70.402442018444916, 46.937755746401862 ] ] ] } },
{ "type": "Feature", "properties": { "hex_id": 865224, "centroid_lon": -70.400664131121047, "centroid_lat": 46.958470697025128, "occurrences_today": 2, "datetimes_today": "2026-07-25 00:01:45, 2026-07-25 00:17:19", "cumulative_total": 173.0 }, "geometry": { "type": "Polygon", "coordinates": [ [ [ -70.401108787875671, 46.953291971269017 ], [ -70.40743665819781, 46.956144817100864 ], [ -70.406992567711953, 46.961323586316389 ], [ -70.400219351012652, 46.963649414846209 ], [ -70.393891037796948, 46.960796153874782 ], [ -70.394336384131265, 46.955617479579615 ], [ -70.401108787875671, 46.953291971269017 ] ] ] } },
{ "type": "Feature", "properties": { "hex_id": 865225, "centroid_lon": -70.399329420563177, "centroid_lat": 46.974006826678703, "occurrences_today": 2, "datetimes_today": "2026-07-25 00:01:45, 2026-07-25 00:17:19", "cumulative_total": 135.0 }, "geometry": { "type": "Polygon", "coordinates": [ [ [ -70.399774447507653, 46.968828124731111 ], [ -70.406104017089746, 46.971681100966684 ], [ -70.405659556867818, 46.976859846399194 ], [ -70.398884270136364, 46.979185520687871 ], [ -70.392554257335519, 46.976332129087666 ], [ -70.392999974441992, 46.971153478629937 ], [ -70.399774447507653, 46.968828124731111 ] ] ] } },
{ "type": "Feature", "properties": { "hex_id": 865226, "centroid_lon": -70.397993598664073, "centroid_lat": 46.989542884886319, "occurrences_today": 2, "datetimes_today": "2026-07-25 00:01:45, 2026-07-25 00:17:19", "cumulative_total": 135.0 }, "geometry": { "type": "Polygon", "coordinates": [ [ [ -70.398438996184296, 46.984364206757462 ], [ -70.404770266388141, 46.987217313473245 ], [ -70.404325436044672, 46.99239603511252 ], [ -70.397548077532718, 46.994721555073326 ], [ -70.391216363784707, 46.991868032767691 ], [ -70.391662452049843, 46.986689406157673 ], [ -70.398438996184296, 46.984364206757462 ] ] ] } },
{ "type": "Feature", "properties": { "hex_id": 865227, "centroid_lon": -70.396656664264867, "centroid_lat": 47.005078871617208, "occurrences_today": 2, "datetimes_today": "2026-07-25 00:01:45, 2026-07-25 00:17:19", "cumulative_total": 135.0 }, "geometry": { "type": "Polygon", "coordinates": [ [ [ -70.397102432747332, 46.999900217317325 ], [ -70.403435404936033, 47.002753454589907 ], [ -70.402990204085, 47.007932152425738 ], [ -70.396210772042366, 47.010257517971802 ], [ -70.389877355983799, 47.007403864884047 ], [ -70.390323815794716, 47.002225262132022 ], [ -70.397102432747332, 46.999900217317325 ] ] ] } },
{ "type": "Feature", "properties": { "hex_id": 865228, "centroid_lon": -70.395318616205103, "centroid_lat": 47.020614786840611, "occurrences_today": 2, "datetimes_today": "2026-07-25 00:01:45, 2026-07-25 00:17:19", "cumulative_total": 138.0 }, "geometry": { "type": "Polygon", "coordinates": [ [ [ -70.395764756036797, 47.015436156379984 ], [ -70.402099431574783, 47.018289524286004 ], [ -70.401653859829622, 47.023468198308159 ], [ -70.394872352504208, 47.025793409352531 ], [ -70.388537232770403, 47.022939625405876 ], [ -70.388984064514744, 47.017761046522111 ], [ -70.395764756036797, 47.015436156379984 ] ] ] } },
{ "type": "Feature", "properties": { "hex_id": 865229, "centroid_lon": -70.393979453322515, "centroid_lat": 47.036150630525732, "occurrences_today": 2, "datetimes_today": "2026-07-25 00:01:45, 2026-07-25 00:17:19", "cumulative_total": 48.0 }, "geometry": { "type": "Polygon", "coordinates": [ [ [ -70.394425964891056, 47.030972023914629 ], [ -70.400762345144102, 47.033825522530826 ], [ -70.400316402117625, 47.039004172729058 ], [ -70.393532817755471, 47.041329229184726 ], [ -70.387195992980438, 47.038475314302254 ], [ -70.387643197046415, 47.03329675929708 ], [ -70.394425964891056, 47.030972023914629 ] ] ] } },
{ "type": "Feature", "properties": { "hex_id": 865230, "centroid_lon": -70.392639174453265, "centroid_lat": 47.051686402641764, "occurrences_today": 2, "datetimes_today": "2026-07-25 00:01:45, 2026-07-25 00:17:19", "cumulative_total": 48.0 }, "geometry": { "type": "Polygon", "coordinates": [ [ [ -70.393086058146793, 47.046507819890451 ], [ -70.399424144481941, 47.04936144929367 ], [ -70.398977829786475, 47.054540075657734 ], [ -70.392192166631716, 47.056864977437542 ], [ -70.385853635448115, 47.054010931542287 ], [ -70.386301212224524, 47.048832400426015 ], [ -70.393086058146793, 47.046507819890451 ] ] ] } },
{ "type": "Feature", "properties": { "hex_id": 865834, "centroid_lon": -70.394781606960663, "centroid_lat": 46.950438797340915, "occurrences_today": 2, "datetimes_today": "2026-07-25 00:01:45, 2026-07-25 00:17:19", "cumulative_total": 150.0 }, "geometry": { "type": "Polygon", "coordinates": [ [ [ -70.395226706328003, 46.945260107159839 ], [ -70.401553321319327, 46.948113237579015 ], [ -70.401108787875671, 46.953291971269017 ], [ -70.394336384131265, 46.955617479579615 ], [ -70.388009326699745, 46.952763934086867 ], [ -70.388455115409982, 46.947585295423565 ], [ -70.395226706328003, 46.945260107159839 ] ] ] } },
{ "type": "Feature", "properties": { "hex_id": 865835, "centroid_lon": -70.393445567914824, "centroid_lat": 46.965974820225263, "occurrences_today": 2, "datetimes_today": "2026-07-25 00:01:45, 2026-07-25 00:17:19", "cumulative_total": 135.0 }, "geometry": { "type": "Polygon", "coordinates": [ [ [ -70.393891037796948, 46.960796153874782 ], [ -70.400219351012652, 46.963649414846209 ], [ -70.399774447507653, 46.968828124731111 ], [ -70.392999974441992, 46.971153478629937 ], [ -70.386671218461331, 46.96829980235993 ], [ -70.387117378268371, 46.963121187556197 ], [ -70.393891037796948, 46.960796153874782 ] ] ] } },
{ "type": "Feature", "properties": { "hex_id": 865836, "centroid_lon": -70.39210841655246, "centroid_lat": 46.981510771597272, "occurrences_today": 2, "datetimes_today": "2026-07-25 00:01:45, 2026-07-25 00:17:19", "cumulative_total": 135.0 }, "geometry": { "type": "Polygon", "coordinates": [ [ [ -70.392554257335519, 46.976332129087666 ], [ -70.398884270136364, 46.979185520687871 ], [ -70.398438996184296, 46.984364206757462 ], [ -70.391662452049843, 46.986689406157673 ], [ -70.385331996159067, 46.983835599033746 ], [ -70.385778527449688, 46.978657008099844 ], [ -70.392554257335519, 46.976332129087666 ] ] ] } },
{ "type": "Feature", "properties": { "hex_id": 865837, "centroid_lon": -70.390770151713994, "centroid_lat": 46.997046651426182, "occurrences_today": 2, "datetimes_today": "2026-07-25 00:01:45, 2026-07-25 00:17:19", "cumulative_total": 135.0 }, "geometry": { "type": "Polygon", "coordinates": [ [ [ -70.391216363784707, 46.991868032767691 ], [ -70.397548077532718, 46.994721555073326 ], [ -70.397102432747332, 46.999900217317325 ], [ -70.390323815794716, 47.002225262132022 ], [ -70.383991658631487, 46.999371324077394 ], [ -70.384438561793033, 46.994192757023661 ], [ -70.391216363784707, 46.991868032767691 ] ] ] } },
{ "type": "Feature", "properties": { "hex_id": 865838, "centroid_lon": -70.389430772238157, "centroid_lat": 47.012582459681127, "occurrences_today": 2, "datetimes_today": "2026-07-25 00:01:45, 2026-07-25 00:17:19", "cumulative_total": 135.0 }, "geometry": { "type": "Polygon", "coordinates": [ [ [ -70.389877355983799, 47.007403864884047 ], [ -70.396210772042366, 47.010257517971802 ], [ -70.395764756036797, 47.015436156379984 ], [ -70.388984064514744, 47.017761046522111 ], [ -70.382650204715475, 47.014906977459944 ], [ -70.383097480135845, 47.009728434296704 ], [ -70.389877355983799, 47.007403864884047 ] ] ] } },
{ "type": "Feature", "properties": { "hex_id": 865839, "centroid_lon": -70.388090276962018, "centroid_lat": 47.028118196331249, "occurrences_today": 2, "datetimes_today": "2026-07-25 00:01:45, 2026-07-25 00:17:19", "cumulative_total": 27.0 }, "geometry": { "type": "Polygon", "coordinates": [ [ [ -70.388537232770403, 47.022939625405876 ], [ -70.394872352504208, 47.025793409352531 ], [ -70.394425964891056, 47.030972023914629 ], [ -70.387643197046415, 47.03329675929708 ], [ -70.38130763324618, 47.030442559150451 ], [ -70.381755281313829, 47.025264039887986 ], [ -70.388537232770403, 47.022939625405876 ] ] ] } },
{ "type": "Feature", "properties": { "hex_id": 865840, "centroid_lon": -70.386748664720884, "centroid_lat": 47.043653861345632, "occurrences_today": 2, "datetimes_today": "2026-07-25 00:01:45, 2026-07-25 00:17:19", "cumulative_total": 48.0 }, "geometry": { "type": "Polygon", "coordinates": [ [ [ -70.387195992980438, 47.038475314302254 ], [ -70.393532817755471, 47.041329229184726 ], [ -70.393086058146793, 47.046507819890451 ], [ -70.386301212224524, 47.048832400426015 ], [ -70.379963943057035, 47.045978069117879 ], [ -70.380411964161027, 47.040799573766542 ], [ -70.387195992980438, 47.038475314302254 ] ] ] } },
{ "type": "Feature", "properties": { "hex_id": 865841, "centroid_lon": -70.385405934348412, "centroid_lat": 47.059189454693318, "occurrences_today": 2, "datetimes_today": "2026-07-25 00:01:45, 2026-07-25 00:17:19", "cumulative_total": 27.0 }, "geometry": { "type": "Polygon", "coordinates": [ [ [ -70.385853635448115, 47.054010931542287 ], [ -70.392192166631716, 47.056864977437542 ], [ -70.391745034638959, 47.062043544276598 ], [ -70.384958108882145, 47.064367969877942 ], [ -70.378619132979836, 47.061513507331192 ], [ -70.379067527509761, 47.056335035901355 ], [ -70.385853635448115, 47.054010931542287 ] ] ] } },
{ "type": "Feature", "properties": { "hex_id": 866444, "centroid_lon": -70.388900780507129, "centroid_lat": 46.942406648809367, "occurrences_today": 2, "datetimes_today": "2026-07-25 00:01:45, 2026-07-25 00:17:19", "cumulative_total": 150.0 }, "geometry": { "type": "Polygon", "coordinates": [ [ [ -70.389346322034086, 46.937227994245404 ], [ -70.395671682276131, 46.940081409037496 ], [ -70.395226706328003, 46.945260107159839 ], [ -70.388455115409982, 46.947585295423565 ], [ -70.382129313180727, 46.944731465623924 ], [ -70.382575543813829, 46.939552862634564 ], [ -70.389346322034086, 46.937227994245404 ] ] ] } },
{ "type": "Feature", "properties": { "hex_id": 866445, "centroid_lon": -70.387563414333528, "centroid_lat": 46.957942564798124, "occurrences_today": 2, "datetimes_today": "2026-07-25 00:01:45, 2026-07-25 00:17:19", "cumulative_total": 135.0 }, "geometry": { "type": "Polygon", "coordinates": [ [ [ -70.388009326699745, 46.952763934086867 ], [ -70.394336384131265, 46.955617479579615 ], [ -70.393891037796948, 46.960796153874782 ], [ -70.387117378268371, 46.963121187556197 ], [ -70.380789878525334, 46.960267226830958 ], [ -70.38123648057946, 46.955088647723286 ], [ -70.388009326699745, 46.952763934086867 ] ] ] } },
{ "type": "Feature", "properties": { "hex_id": 866446, "centroid_lon": -70.386224934869432, "centroid_lat": 46.973478409208198, "occurrences_today": 2, "datetimes_today": "2026-07-25 00:01:45, 2026-07-25 00:17:19", "cumulative_total": 135.0 }, "geometry": { "type": "Polygon", "coordinates": [ [ [ -70.386671218461331, 46.96829980235993 ], [ -70.392999974441992, 46.971153478629937 ], [ -70.392554257335519, 46.976332129087666 ], [ -70.385778527449688, 46.978657008099844 ], [ -70.379449328832948, 46.975802916372288 ], [ -70.379896302695116, 46.970624361156609 ], [ -70.386671218461331, 46.96829980235993 ] ] ] } },
{ "type": "Feature", "properties": { "hex_id": 866447, "centroid_lon": -70.38488534095454, "centroid_lat": 46.989014182008731, "occurrences_today": 2, "datetimes_today": "2026-07-25 00:01:45, 2026-07-25 00:17:19", "cumulative_total": 135.0 }, "geometry": { "type": "Polygon", "coordinates": [ [ [ -70.385331996159067, 46.983835599033746 ], [ -70.391662452049843, 46.986689406157673 ], [ -70.391216363784707, 46.991868032767691 ], [ -70.384438561793033, 46.994192757023661 ], [ -70.37810766294136, 46.991338534216936 ], [ -70.378555008999172, 46.986160002903596 ], [ -70.385331996159067, 46.983835599033746 ] ] ] } },
{ "type": "Feature", "properties": { "hex_id": 866448, "centroid_lon": -70.383544631426801, "centroid_lat": 47.004549883168792, "occurrences_today": 2, "datetimes_today": "2026-07-25 00:01:45, 2026-07-25 00:17:19", "cumulative_total": 135.0 }, "geometry": { "type": "Polygon", "coordinates": [ [ [ -70.383991658631487, 46.999371324077394 ], [ -70.390323815794716, 47.002225262132022 ], [ -70.389877355983799, 47.007403864884047 ], [ -70.383097480135845, 47.009728434296704 ], [ -70.376764879686689, 47.006874080333915 ], [ -70.377212598328285, 47.001695572933251 ], [ -70.383991658631487, 46.999371324077394 ] ] ] } },
{ "type": "Feature", "properties": { "hex_id": 866450, "centroid_lon": -70.380859860876313, "centroid_lat": 47.035621070443682, "occurrences_today": 2, "datetimes_today": "2026-07-25 00:01:45, 2026-07-25 00:17:19", "cumulative_total": 27.0 }, "geometry": { "type": "Polygon", "coordinates": [ [ [ -70.38130763324618, 47.030442559150451 ], [ -70.387643197046415, 47.03329675929708 ], [ -70.387195992980438, 47.038475314302254 ], [ -70.380411964161027, 47.040799573766542 ], [ -70.374075956423965, 47.037944957260578 ], [ -70.374524421399869, 47.032766497716338 ], [ -70.38130763324618, 47.030442559150451 ] ] ] } },
{ "type": "Feature", "properties": { "hex_id": 866451, "centroid_lon": -70.379515797521051, "centroid_lat": 47.05115655649653, "occurrences_today": 2, "datetimes_today": "2026-07-25 00:01:45, 2026-07-25 00:17:19", "cumulative_total": 48.0 }, "geometry": { "type": "Polygon", "coordinates": [ [ [ -70.379963943057035, 47.045978069117879 ], [ -70.386301212224524, 47.048832400426015 ], [ -70.385853635448115, 47.054010931542287 ], [ -70.379067527509761, 47.056335035901355 ], [ -70.372729814079648, 47.053480288008096 ], [ -70.373178652807198, 47.048301852407619 ], [ -70.379963943057035, 47.045978069117879 ] ] ] } },
{ "type": "Feature", "properties": { "hex_id": 866452, "centroid_lon": -70.378170613887931, "centroid_lat": 47.066691970784895, "occurrences_today": 2, "datetimes_today": "2026-07-25 00:01:45, 2026-07-25 00:17:19", "cumulative_total": 27.0 }, "geometry": { "type": "Polygon", "coordinates": [ [ [ -70.378619132979836, 47.061513507331192 ], [ -70.384958108882145, 47.064367969877942 ], [ -70.384510159005956, 47.069546477095003 ], [ -70.377721970190663, 47.071870426261327 ], [ -70.371382549699675, 47.069015546903536 ], [ -70.3718317625693, 47.063837135257216 ], [ -70.378619132979836, 47.061513507331192 ] ] ] } },
{ "type": "Feature", "properties": { "hex_id": 867054, "centroid_lon": -70.383021650725823, "centroid_lat": 46.934374251686918, "occurrences_today": 2, "datetimes_today": "2026-07-25 00:01:45, 2026-07-25 00:17:19", "cumulative_total": 150.0 }, "geometry": { "type": "Polygon", "coordinates": [ [ [ -70.38346763395964, 46.929195632782154 ], [ -70.389791740033729, 46.932049331732827 ], [ -70.389346322034086, 46.937227994245404 ], [ -70.382575543813829, 46.939552862634564 ], [ -70.376250996205201, 46.936698748742401 ], [ -70.376697668308466, 46.931520181469004 ], [ -70.38346763395964, 46.929195632782154 ] ] ] } },
{ "type": "Feature", "properties": { "hex_id": 867055, "centroid_lon": -70.3816829587836, "centroid_lat": 46.949910060653878, "occurrences_today": 2, "datetimes_today": "2026-07-25 00:01:45, 2026-07-25 00:17:19", "cumulative_total": 135.0 }, "geometry": { "type": "Polygon", "coordinates": [ [ [ -70.382129313180727, 46.944731465623924 ], [ -70.388455115409982, 46.947585295423565 ], [ -70.388009326699745, 46.952763934086867 ], [ -70.38123648057946, 46.955088647723286 ], [ -70.3749102364918, 46.95223440275727 ], [ -70.37535728033987, 46.947055859387682 ], [ -70.382129313180727, 46.944731465623924 ] ] ] } },
{ "type": "Feature", "properties": { "hex_id": 867056, "centroid_lon": -70.380343152578234, "centroid_lat": 46.965445797975775, "occurrences_today": 2, "datetimes_today": "2026-07-25 00:01:45, 2026-07-25 00:17:19", "cumulative_total": 135.0 }, "geometry": { "type": "Polygon", "coordinates": [ [ [ -70.380789878525334, 46.960267226830958 ], [ -70.387117378268371, 46.963121187556197 ], [ -70.386671218461331, 46.96829980235993 ], [ -70.379896302695116, 46.970624361156609 ], [ -70.373568360769553, 46.967769985039965 ], [ -70.374015776749701, 46.962591465584559 ], [ -70.380789878525334, 46.960267226830958 ] ] ] } },
{ "type": "Feature", "properties": { "hex_id": 867057, "centroid_lon": -70.379002230948672, "centroid_lat": 46.980981463621646, "occurrences_today": 2, "datetimes_today": "2026-07-25 00:01:45, 2026-07-25 00:17:19", "cumulative_total": 135.0 }, "geometry": { "type": "Polygon", "coordinates": [ [ [ -70.379449328832948, 46.975802916372288 ], [ -70.385778527449688, 46.978657008099844 ], [ -70.385331996159067, 46.983835599033746 ], [ -70.378555008999172, 46.986160002903596 ], [ -70.372225367875529, 46.983305495559442 ], [ -70.372673156375598, 46.978127000028557 ], [ -70.379449328832948, 46.975802916372288 ] ] ] } },
{ "type": "Feature", "properties": { "hex_id": 867058, "centroid_lon": -70.377660192732122, "centroid_lat": 46.996517057560538, "occurrences_today": 2, "datetimes_today": "2026-07-25 00:01:45, 2026-07-25 00:17:19", "cumulative_total": 27.0 }, "geometry": { "type": "Polygon", "coordinates": [ [ [ -70.37810766294136, 46.991338534216936 ], [ -70.384438561793033, 46.994192757023661 ], [ -70.383991658631487, 46.999371324077394 ], [ -70.377212598328285, 47.001695572933251 ], [ -70.370881256645092, 46.998840934284623 ], [ -70.371329418053449, 46.99366246268864 ], [ -70.37810766294136, 46.991338534216936 ] ] ] } },
{ "type": "Feature", "properties": { "hex_id": 867059, "centroid_lon": -70.376317036764135, "centroid_lat": 47.012052579761388, "occurrences_today": 2, "datetimes_today": "2026-07-25 00:01:45, 2026-07-25 00:17:19", "cumulative_total": 27.0 }, "geometry": { "type": "Polygon", "coordinates": [ [ [ -70.376764879686689, 47.006874080333915 ], [ -70.383097480135845, 47.009728434296704 ], [ -70.382650204715475, 47.014906977459944 ], [ -70.375869069517421, 47.017231071214511 ], [ -70.369536025911856, 47.014376301184377 ], [ -70.369984560617539, 47.009197853533657 ], [ -70.376764879686689, 47.006874080333915 ] ] ] } },
{ "type": "Feature", "properties": { "hex_id": 867060, "centroid_lon": -70.374972761878553, "centroid_lat": 47.027588030193151, "occurrences_today": 2, "datetimes_today": "2026-07-25 00:01:45, 2026-07-25 00:17:19", "cumulative_total": 27.0 }, "geometry": { "type": "Polygon", "coordinates": [ [ [ -70.375420977903303, 47.022409554692153 ], [ -70.381755281313829, 47.025264039887986 ], [ -70.38130763324618, 47.030442559150451 ], [ -70.374524421399869, 47.032766497716338 ], [ -70.368189674507832, 47.029911596227571 ], [ -70.368638582900331, 47.024733172532493 ], [ -70.375420977903303, 47.022409554692153 ] ] ] } },
{ "type": "Feature", "properties": { "hex_id": 867061, "centroid_lon": -70.373627366907527, "centroid_lat": 47.043123408824719, "occurrences_today": 2, "datetimes_today": "2026-07-25 00:01:45, 2026-07-25 00:17:19", "cumulative_total": 27.0 }, "geometry": { "type": "Polygon", "coordinates": [ [ [ -70.374075956423965, 47.037944957260578 ], [ -70.380411964161027, 47.040799573766542 ], [ -70.379963943057035, 47.045978069117879 ], [ -70.373178652807198, 47.048301852407619 ], [ -70.366842201263253, 47.045446819382981 ], [ -70.367291483732672, 47.040268419653962 ], [ -70.374075956423965, 47.037944957260578 ] ] ] } },
{ "type": "Feature", "properties": { "hex_id": 867062, "centroid_lon": -70.372280850681477, "centroid_lat": 47.058658715625008, "occurrences_today": 2, "datetimes_today": "2026-07-25 00:01:45, 2026-07-25 00:17:19", "cumulative_total": 51.0 }, "geometry": { "type": "Polygon", "coordinates": [ [ [ -70.372729814079648, 47.053480288008096 ], [ -70.379067527509761, 47.056335035901355 ], [ -70.378619132979836, 47.061513507331192 ], [ -70.3718317625693, 47.063837135257216 ], [ -70.365493605006662, 47.060981970619409 ], [ -70.365943261943684, 47.055803594866873 ], [ -70.372729814079648, 47.053480288008096 ] ] ] } },
{ "type": "Feature", "properties": { "hex_id": 867665, "centroid_lon": -70.375804200229993, "centroid_lat": 46.94187730804903, "occurrences_today": 2, "datetimes_today": "2026-07-25 00:01:45, 2026-07-25 00:17:19", "cumulative_total": 135.0 }, "geometry": { "type": "Polygon", "coordinates": [ [ [ -70.376250996205201, 46.936698748742401 ], [ -70.382575543813829, 46.939552862634564 ], [ -70.382129313180727, 46.944731465623924 ], [ -70.37535728033987, 46.947055859387682 ], [ -70.369032291325553, 46.944201330395252 ], [ -70.369479776514794, 46.939022822805789 ], [ -70.376250996205201, 46.936698748742401 ] ] ] } },
{ "type": "Feature", "properties": { "hex_id": 867666, "centroid_lon": -70.374463068642754, "centroid_lat": 46.957412938156608, "occurrences_today": 2, "datetimes_today": "2026-07-25 00:01:45, 2026-07-25 00:17:19", "cumulative_total": 27.0 }, "geometry": { "type": "Polygon", "coordinates": [ [ [ -70.3749102364918, 46.95223440275727 ], [ -70.38123648057946, 46.955088647723286 ], [ -70.380789878525334, 46.960267226830958 ], [ -70.374015776749701, 46.962591465584559 ], [ -70.367689090932672, 46.959736805293304 ], [ -70.368136948577586, 46.954558321640178 ], [ -70.3749102364918, 46.95223440275727 ] ] ] } },
{ "type": "Feature", "properties": { "hex_id": 867667, "centroid_lon": -70.373120820659224, "centroid_lat": 46.972948496521674, "occurrences_today": 2, "datetimes_today": "2026-07-25 00:01:45, 2026-07-25 00:17:19", "cumulative_total": 27.0 }, "geometry": { "type": "Polygon", "coordinates": [ [ [ -70.373568360769553, 46.967769985039965 ], [ -70.379896302695116, 46.970624361156609 ], [ -70.379449328832948, 46.975802916372288 ], [ -70.372673156375598, 46.978127000028557 ], [ -70.366344772396715, 46.975272208361552 ], [ -70.366793002885387, 46.970093748655138 ], [ -70.373568360769553, 46.967769985039965 ] ] ] } },
{ "type": "Feature", "properties": { "hex_id": 867668, "centroid_lon": -70.371777455115875, "centroid_lat": 46.988483983113191, "occurrences_today": 2, "datetimes_today": "2026-07-25 00:01:45, 2026-07-25 00:17:19", "cumulative_total": 27.0 }, "geometry": { "type": "Polygon", "coordinates": [ [ [ -70.372225367875529, 46.983305495559442 ], [ -70.378555008999172, 46.986160002903596 ], [ -70.37810766294136, 46.991338534216936 ], [ -70.371329418053449, 46.99366246268864 ], [ -70.364999334552337, 46.990807539568848 ], [ -70.365447938273419, 46.985629103819555 ], [ -70.372225367875529, 46.983305495559442 ] ] ] } },
{ "type": "Feature", "properties": { "hex_id": 867669, "centroid_lon": -70.370432970847517, "centroid_lat": 47.004019397900016, "occurrences_today": 2, "datetimes_today": "2026-07-25 00:01:45, 2026-07-25 00:17:19", "cumulative_total": 35.0 }, "geometry": { "type": "Polygon", "coordinates": [ [ [ -70.370881256645092, 46.998840934284623 ], [ -70.377212598328285, 47.001695572933251 ], [ -70.376764879686689, 47.006874080333915 ], [ -70.369984560617539, 47.009197853533657 ], [ -70.363652776232414, 47.006342798884006 ], [ -70.364101753575113, 47.001164387102229 ], [ -70.370881256645092, 46.998840934284623 ] ] ] } },
{ "type": "Feature", "properties": { "hex_id": 867670, "centroid_lon": -70.369087366687225, "centroid_lat": 47.019554740851042, "occurrences_today": 2, "datetimes_today": "2026-07-25 00:01:45, 2026-07-25 00:17:19", "cumulative_total": 27.0 }, "geometry": { "type": "Polygon", "coordinates": [ [ [ -70.369536025911856, 47.014376301184377 ], [ -70.375869069517421, 47.017231071214511 ], [ -70.375420977903303, 47.022409554692153 ], [ -70.368638582900331, 47.024733172532493 ], [ -70.362305096268159, 47.021877986275783 ], [ -70.362754447622265, 47.016699598471938 ], [ -70.369536025911856, 47.014376301184377 ] ] ] } },
{ "type": "Feature", "properties": { "hex_id": 867671, "centroid_lon": -70.367740641466398, "centroid_lat": 47.035090011935097, "occurrences_today": 2, "datetimes_today": "2026-07-25 00:01:45, 2026-07-25 00:17:19", "cumulative_total": 27.0 }, "geometry": { "type": "Polygon", "coordinates": [ [ [ -70.368189674507832, 47.029911596227571 ], [ -70.374524421399869, 47.032766497716338 ], [ -70.374075956423965, 47.037944957260578 ], [ -70.367291483732672, 47.040268419653962 ], [ -70.360956293489096, 47.037413101712922 ], [ -70.361406019244967, 47.03223473789744 ], [ -70.368189674507832, 47.029911596227571 ] ] ] } },
{ "type": "Feature", "properties": { "hex_id": 867672, "centroid_lon": -70.366392794014729, "centroid_lat": 47.050625211120995, "occurrences_today": 2, "datetimes_today": "2026-07-25 00:01:45, 2026-07-25 00:17:19", "cumulative_total": 48.0 }, "geometry": { "type": "Polygon", "coordinates": [ [ [ -70.366842201263253, 47.045446819382981 ], [ -70.373178652807198, 47.048301852407619 ], [ -70.372729814079648, 47.053480288008096 ], [ -70.365943261943684, 47.055803594866873 ], [ -70.359606366723014, 47.052948145164137 ], [ -70.360056467271576, 47.047769805347443 ], [ -70.366842201263253, 47.045446819382981 ] ] ] } },
{ "type": "Feature", "properties": { "hex_id": 867673, "centroid_lon": -70.365043823160207, "centroid_lat": 47.066160338377472, "occurrences_today": 2, "datetimes_today": "2026-07-25 00:01:45, 2026-07-25 00:17:19", "cumulative_total": 30.0 }, "geometry": { "type": "Polygon", "coordinates": [ [ [ -70.365493605006662, 47.060981970619409 ], [ -70.3718317625693, 47.063837135257216 ], [ -70.371382549699675, 47.069015546903536 ], [ -70.364593916360803, 47.071338698139925 ], [ -70.358255314796025, 47.068483116598074 ], [ -70.358705790528774, 47.063304800790618 ], [ -70.365493605006662, 47.060981970619409 ] ] ] } },
{ "type": "Feature", "properties": { "hex_id": 868277, "centroid_lon": -70.367241109049644, "centroid_lat": 46.964915280965343, "occurrences_today": 2, "datetimes_today": "2026-07-25 00:01:45, 2026-07-25 00:17:19", "cumulative_total": 27.0 }, "geometry": { "type": "Polygon", "coordinates": [ [ [ -70.367689090932672, 46.959736805293304 ], [ -70.374015776749701, 46.962591465584559 ], [ -70.373568360769553, 46.967769985039965 ], [ -70.366793002885387, 46.970093748655138 ], [ -70.360465875468321, 46.967238672879759 ], [ -70.360914547492285, 46.962060249039816 ], [ -70.367689090932672, 46.959736805293304 ] ] ] } },
{ "type": "Feature", "properties": { "hex_id": 868278, "centroid_lon": -70.365896417540469, "centroid_lat": 46.980450660083392, "occurrences_today": 2, "datetimes_today": "2026-07-25 00:01:45, 2026-07-25 00:17:19", "cumulative_total": 27.0 }, "geometry": { "type": "Polygon", "coordinates": [ [ [ -70.366344772396715, 46.975272208361552 ], [ -70.372673156375598, 46.978127000028557 ], [ -70.372225367875529, 46.983305495559442 ], [ -70.365447938273419, 46.985629103819555 ], [ -70.359119112370749, 46.982773896443213 ], [ -70.359568157950775, 46.977595496582616 ], [ -70.366344772396715, 46.975272208361552 ] ] ] } },
{ "type": "Feature", "properties": { "hex_id": 868279, "centroid_lon": -70.364550606333992, "centroid_lat": 46.995985967330121, "occurrences_today": 2, "datetimes_today": "2026-07-25 00:01:45, 2026-07-25 00:17:19", "cumulative_total": 27.0 }, "geometry": { "type": "Polygon", "coordinates": [ [ [ -70.364999334552337, 46.990807539568848 ], [ -70.371329418053449, 46.99366246268864 ], [ -70.370881256645092, 46.998840934284623 ], [ -70.364101753575113, 47.001164387102229 ], [ -70.357771227826191, 46.998309048047773 ], [ -70.358220647351757, 46.993130672176953 ], [ -70.364999334552337, 46.990807539568848 ] ] ] } },
{ "type": "Feature", "properties": { "hex_id": 868280, "centroid_lon": -70.363203674262579, "centroid_lat": 47.011521202674309, "occurrences_today": 2, "datetimes_today": "2026-07-25 00:01:45, 2026-07-25 00:17:19", "cumulative_total": 35.0 }, "geometry": { "type": "Polygon", "coordinates": [ [ [ -70.363652776232414, 47.006342798884006 ], [ -70.369984560617539, 47.009197853533657 ], [ -70.369536025911856, 47.014376301184377 ], [ -70.362754447622265, 47.016699598471938 ], [ -70.35642222066511, 47.013844127662125 ], [ -70.356872014526246, 47.008665775791528 ], [ -70.363652776232414, 47.006342798884006 ] ] ] } },
{ "type": "Feature", "properties": { "hex_id": 868281, "centroid_lon": -70.361855620156845, "centroid_lat": 47.027056366084679, "occurrences_today": 2, "datetimes_today": "2026-07-25 00:01:45, 2026-07-25 00:17:19", "cumulative_total": 27.0 }, "geometry": { "type": "Polygon", "coordinates": [ [ [ -70.362305096268159, 47.021877986275783 ], [ -70.368638582900331, 47.024733172532493 ], [ -70.368189674507832, 47.029911596227571 ], [ -70.361406019244967, 47.03223473789744 ], [ -70.355072089716273, 47.029379135254949 ], [ -70.355522258303566, 47.024200807394998 ], [ -70.362305096268159, 47.021877986275783 ] ] ] } },
{ "type": "Feature", "properties": { "hex_id": 868282, "centroid_lon": -70.360506442845775, "centroid_lat": 47.04259145752998, "occurrences_today": 2, "datetimes_today": "2026-07-25 00:01:45, 2026-07-25 00:17:19", "cumulative_total": 27.0 }, "geometry": { "type": "Polygon", "coordinates": [ [ [ -70.360956293489096, 47.037413101712922 ], [ -70.367291483732672, 47.040268419653962 ], [ -70.366842201263253, 47.045446819382981 ], [ -70.360056467271576, 47.047769805347443 ], [ -70.353720833806733, 47.04491407079486 ], [ -70.354171377511349, 47.039735766956035 ], [ -70.360956293489096, 47.037413101712922 ] ] ] } },
{ "type": "Feature", "properties": { "hex_id": 868283, "centroid_lon": -70.359156141156575, "centroid_lat": 47.05812647697892, "occurrences_today": 2, "datetimes_today": "2026-07-25 00:01:45, 2026-07-25 00:17:19", "cumulative_total": 27.0 }, "geometry": { "type": "Polygon", "coordinates": [ [ [ -70.359606366723014, 47.052948145164137 ], [ -70.365943261943684, 47.055803594866873 ], [ -70.365493605006662, 47.060981970619409 ], [ -70.358705790528774, 47.063304800790618 ], [ -70.352368451761834, 47.060448934250438 ], [ -70.352819370975524, 47.055270654443227 ], [ -70.359606366723014, 47.052948145164137 ] ] ] } },
{ "type": "Feature", "properties": { "hex_id": 868284, "centroid_lon": -70.357804713914774, "centroid_lat": 47.073661424400136, "occurrences_today": 2, "datetimes_today": "2026-07-25 00:01:45, 2026-07-25 00:17:19", "cumulative_total": 40.0 }, "geometry": { "type": "Polygon", "coordinates": [ [ [ -70.358255314796025, 47.068483116598074 ], [ -70.364593916360803, 47.071338698139925 ], [ -70.364143884564939, 47.076517049905576 ], [ -70.357353987841478, 47.078839724195618 ], [ -70.351014942405186, 47.075983725590255 ], [ -70.351466237520285, 47.07080546982511 ], [ -70.358255314796025, 47.068483116598074 ] ] ] } },
{ "type": "Feature", "properties": { "hex_id": 868889, "centroid_lon": -70.358669942185514, "centroid_lat": 46.987952288308385, "occurrences_today": 2, "datetimes_today": "2026-07-25 00:01:45, 2026-07-25 00:17:19", "cumulative_total": 27.0 }, "geometry": { "type": "Polygon", "coordinates": [ [ [ -70.359119112370749, 46.982773896443213 ], [ -70.365447938273419, 46.985629103819555 ], [ -70.364999334552337, 46.990807539568848 ], [ -70.358220647351757, 46.993130672176953 ], [ -70.351891379655086, 46.990275048932276 ], [ -70.352341240909695, 46.985096709014378 ], [ -70.359119112370749, 46.982773896443213 ] ] ] } },
{ "type": "Feature", "properties": { "hex_id": 868890, "centroid_lon": -70.357321683565473, "centroid_lat": 47.003487415919679, "occurrences_today": 2, "datetimes_today": "2026-07-25 00:01:45, 2026-07-25 00:17:19", "cumulative_total": 35.0 }, "geometry": { "type": "Polygon", "coordinates": [ [ [ -70.357771227826191, 46.998309048047773 ], [ -70.364101753575113, 47.001164387102229 ], [ -70.363652776232414, 47.006342798884006 ], [ -70.356872014526246, 47.008665775791528 ], [ -70.350541046659501, 47.00581002064331 ], [ -70.350991282573389, 47.000631704747917 ], [ -70.357771227826191, 46.998309048047773 ] ] ] } },
{ "type": "Feature", "properties": { "hex_id": 868891, "centroid_lon": -70.355972301938692, "centroid_lat": 47.019022471530334, "occurrences_today": 2, "datetimes_today": "2026-07-25 00:01:45, 2026-07-25 00:17:19", "cumulative_total": 27.0 }, "geometry": { "type": "Polygon", "coordinates": [ [ [ -70.35642222066511, 47.013844127662125 ], [ -70.362754447622265, 47.016699598471938 ], [ -70.362305096268159, 47.021877986275783 ], [ -70.355522258303566, 47.024200807394998 ], [ -70.349189588904537, 47.021344920265861 ], [ -70.349640199868546, 47.01616662840344 ], [ -70.35642222066511, 47.013844127662125 ] ] ] } },
{ "type": "Feature", "properties": { "hex_id": 868892, "centroid_lon": -70.354621796133372, "centroid_lat": 47.03455745510901, "occurrences_today": 2, "datetimes_today": "2026-07-25 00:01:45, 2026-07-25 00:17:19", "cumulative_total": 27.0 }, "geometry": { "type": "Polygon", "coordinates": [ [ [ -70.355072089716273, 47.029379135254949 ], [ -70.361406019244967, 47.03223473789744 ], [ -70.360956293489096, 47.037413101712922 ], [ -70.354171377511349, 47.039735766956035 ], [ -70.347837005216491, 47.036879747768488 ], [ -70.34828799162203, 47.031701479949554 ], [ -70.355072089716273, 47.029379135254949 ] ] ] } },
{ "type": "Feature", "properties": { "hex_id": 868893, "centroid_lon": -70.353270164975967, "centroid_lat": 47.050092366624305, "occurrences_today": 2, "datetimes_today": "2026-07-25 00:01:45, 2026-07-25 00:17:19", "cumulative_total": 40.0 }, "geometry": { "type": "Polygon", "coordinates": [ [ [ -70.353720833806733, 47.04491407079486 ], [ -70.360056467271576, 47.047769805347443 ], [ -70.359606366723014, 47.052948145164137 ], [ -70.352819370975524, 47.055270654443227 ], [ -70.346483294419954, 47.052414503119721 ], [ -70.34693465665903, 47.047236259354747 ], [ -70.353720833806733, 47.04491407079486 ] ] ] } },
{ "type": "Feature", "properties": { "hex_id": 868894, "centroid_lon": -70.351917407291282, "centroid_lat": 47.065627206044773, "occurrences_today": 2, "datetimes_today": "2026-07-25 00:01:45, 2026-07-25 00:17:19", "cumulative_total": 40.0 }, "geometry": { "type": "Polygon", "coordinates": [ [ [ -70.352368451761834, 47.060448934250438 ], [ -70.358705790528774, 47.063304800790618 ], [ -70.358255314796025, 47.068483116598074 ], [ -70.351466237520285, 47.07080546982511 ], [ -70.345128455337814, 47.067949186288033 ], [ -70.345580193802988, 47.062770966587529 ], [ -70.352368451761834, 47.060448934250438 ] ] ] } },
{ "type": "Feature", "properties": { "hex_id": 869501, "centroid_lon": -70.350090685772372, "centroid_lat": 47.010988328528875, "occurrences_today": 2, "datetimes_today": "2026-07-25 00:01:45, 2026-07-25 00:17:19", "cumulative_total": 27.0 }, "geometry": { "type": "Polygon", "coordinates": [ [ [ -70.350541046659501, 47.00581002064331 ], [ -70.356872014526246, 47.008665775791528 ], [ -70.35642222066511, 47.013844127662125 ], [ -70.349640199868546, 47.01616662840344 ], [ -70.34330879001422, 47.01331045700239 ], [ -70.34375984290061, 47.00813220117945 ], [ -70.350541046659501, 47.00581002064331 ] ] ] } },
{ "type": "Feature", "properties": { "hex_id": 869502, "centroid_lon": -70.348738852836874, "centroid_lat": 47.026523204114959, "occurrences_today": 2, "datetimes_today": "2026-07-25 00:01:45, 2026-07-25 00:17:19", "cumulative_total": 27.0 }, "geometry": { "type": "Polygon", "coordinates": [ [ [ -70.349189588904537, 47.021344920265861 ], [ -70.355522258303566, 47.024200807394998 ], [ -70.355072089716273, 47.029379135254949 ], [ -70.34828799162203, 47.031701479949554 ], [ -70.341954879911569, 47.028845176341896 ], [ -70.342406308563255, 47.023666944584775 ], [ -70.349189588904537, 47.021344920265861 ] ] ] } },
{ "type": "Feature", "properties": { "hex_id": 869503, "centroid_lon": -70.347385893576671, "centroid_lat": 47.04205800757061, "occurrences_today": 2, "datetimes_today": "2026-07-25 00:01:45, 2026-07-25 00:17:19", "cumulative_total": 61.0 }, "geometry": { "type": "Polygon", "coordinates": [ [ [ -70.347837005216491, 47.036879747768488 ], [ -70.354171377511349, 47.039735766956035 ], [ -70.353720833806733, 47.04491407079486 ], [ -70.34693465665903, 47.047236259354747 ], [ -70.340599841728604, 47.044379823462904 ], [ -70.341051646537849, 47.039201615782126 ], [ -70.347837005216491, 47.036879747768488 ] ] ] } },
{ "type": "Feature", "properties": { "hex_id": 869504, "centroid_lon": -70.346031806815816, "centroid_lat": 47.057592738864372, "occurrences_today": 2, "datetimes_today": "2026-07-25 00:01:45, 2026-07-25 00:17:19", "cumulative_total": 40.0 }, "geometry": { "type": "Polygon", "coordinates": [ [ [ -70.346483294419954, 47.052414503119721 ], [ -70.352819370975524, 47.055270654443227 ], [ -70.352368451761834, 47.060448934250438 ], [ -70.345580193802988, 47.062770966587529 ], [ -70.339243674287488, 47.059914398333781 ], [ -70.339695855647093, 47.054736214739904 ], [ -70.346483294419954, 47.052414503119721 ] ] ] } },
{ "type": "Feature", "properties": { "hex_id": 869505, "centroid_lon": -70.344676591376597, "centroid_lat": 47.073127397964697, "occurrences_today": 2, "datetimes_today": "2026-07-25 00:01:45, 2026-07-25 00:17:19", "cumulative_total": 40.0 }, "geometry": { "type": "Polygon", "coordinates": [ [ [ -70.345128455337814, 47.067949186288033 ], [ -70.351466237520285, 47.07080546982511 ], [ -70.351014942405186, 47.075983725590255 ], [ -70.344224601875652, 47.078305601616364 ], [ -70.337886376408647, 47.075448900922936 ], [ -70.338338934711999, 47.070270741426469 ], [ -70.345128455337814, 47.067949186288033 ] ] ] } },
{ "type": "Feature", "properties": { "hex_id": 476259, "centroid_lon": -74.595358687227261, "centroid_lat": 45.857750577167565, "occurrences_today": 3, "datetimes_today": "2026-07-25 00:01:45, 2026-07-25 00:17:19, 2026-07-25 00:29:49", "cumulative_total": 481.0 }, "geometry": { "type": "Polygon", "coordinates": [ [ [ -74.595396373369084, 45.852554223318741 ], [ -74.601817842032602, 45.855175024617459 ], [ -74.601780750609237, 45.860371380159251 ], [ -74.595320990746359, 45.862946926245691 ], [ -74.588898937705238, 45.860325761408468 ], [ -74.588937228901088, 45.855129414088736 ], [ -74.595396373369084, 45.852554223318741 ] ] ] } },
{ "type": "Feature", "properties": { "hex_id": 788902, "centroid_lon": -71.23054063333646, "centroid_lat": 46.840758525460089, "occurrences_today": 3, "datetimes_today": "2026-07-25 00:01:45, 2026-07-25 00:17:19, 2026-07-25 00:29:49", "cumulative_total": 227.0 }, "geometry": { "type": "Polygon", "coordinates": [ [ [ -71.230903691296575, 46.83557419445971 ], [ -71.237264970041892, 46.838381933308149 ], [ -71.236902488413349, 46.843566299703419 ], [ -71.230177474712747, 46.845942849581469 ], [ -71.223815720316864, 46.843134703765642 ], [ -71.224179455237262, 46.837950415105922 ], [ -71.230903691296575, 46.83557419445971 ] ] ] } },
{ "type": "Feature", "properties": { "hex_id": 631963, "centroid_lon": -72.938288735820265, "centroid_lat": 46.252979542430452, "occurrences_today": 3, "datetimes_today": "2026-07-25 00:01:45, 2026-07-25 00:17:19, 2026-07-25 00:29:49", "cumulative_total": 187.0 }, "geometry": { "type": "Polygon", "coordinates": [ [ [ -72.938483377108014, 46.247786788270034 ], [ -72.944868451317731, 46.250499921616509 ], [ -72.944674394263714, 46.255692694134389 ], [ -72.938094040899443, 46.258172291218926 ], [ -72.931708436098234, 46.25545877348182 ], [ -72.931903715234426, 46.250266043116888 ], [ -72.938483377108014, 46.247786788270034 ] ] ] } },
{ "type": "Feature", "properties": { "hex_id": 632572, "centroid_lon": -72.932684294044037, "centroid_lat": 46.229495067900856, "occurrences_today": 3, "datetimes_today": "2026-07-25 00:01:45, 2026-07-25 00:17:19, 2026-07-25 00:29:49", "cumulative_total": 120.0 }, "geometry": { "type": "Polygon", "coordinates": [ [ [ -72.932879304404551, 46.224302310658722 ], [ -72.939261406295074, 46.227015717912451 ], [ -72.939066979356241, 46.232208493558844 ], [ -72.932489229965142, 46.234687819767913 ], [ -72.926106598380514, 46.231974028380854 ], [ -72.926302245862729, 46.226781294984058 ], [ -72.932879304404551, 46.224302310658722 ] ] ] } },
{ "type": "Feature", "properties": { "hex_id": 632573, "centroid_lon": -72.932098940578726, "centroid_lat": 46.245073307376124, "occurrences_today": 3, "datetimes_today": "2026-07-25 00:01:45, 2026-07-25 00:17:19, 2026-07-25 00:29:49", "cumulative_total": 147.0 }, "geometry": { "type": "Polygon", "coordinates": [ [ [ -72.932294112149506, 46.239880566259728 ], [ -72.93867796478105, 46.242594028737813 ], [ -72.938483377108014, 46.247786788270034 ], [ -72.931903715234426, 46.250266043116888 ], [ -72.925519332487866, 46.247552196295821 ], [ -72.925715141711521, 46.242359479036928 ], [ -72.932294112149506, 46.239880566259728 ] ] ] } },
{ "type": "Feature", "properties": { "hex_id": 633182, "centroid_lon": -72.926497839467984, "centroid_lat": 46.221588556208339, "occurrences_today": 3, "datetimes_today": "2026-07-25 00:01:45, 2026-07-25 00:17:19, 2026-07-25 00:29:49", "cumulative_total": 111.0 }, "geometry": { "type": "Polygon", "coordinates": [ [ [ -72.926693379214697, 46.216395812053896 ], [ -72.93307426106503, 46.219109548041722 ], [ -72.932879304404551, 46.224302310658722 ], [ -72.926302245862729, 46.226781294984058 ], [ -72.919920834793913, 46.224067174910523 ], [ -72.920117011466985, 46.218874454663336 ], [ -72.926693379214697, 46.216395812053896 ] ] ] } },
{ "type": "Feature", "properties": { "hex_id": 633183, "centroid_lon": -72.925910897002922, "centroid_lat": 46.23716675639853, "occurrences_today": 3, "datetimes_today": "2026-07-25 00:01:45, 2026-07-25 00:17:19, 2026-07-25 00:29:49", "cumulative_total": 137.0 }, "geometry": { "type": "Polygon", "coordinates": [ [ [ -72.926106598380514, 46.231974028380854 ], [ -72.932489229965142, 46.234687819767913 ], [ -72.932294112149506, 46.239880566259728 ], [ -72.925715141711521, 46.242359479036928 ], [ -72.919331980487954, 46.239645303354536 ], [ -72.919528319322865, 46.234452599256308 ], [ -72.926106598380514, 46.231974028380854 ] ] ] } },
{ "type": "Feature", "properties": { "hex_id": 633184, "centroid_lon": -72.925323469313525, "centroid_lat": 46.252744908175025, "occurrences_today": 3, "datetimes_today": "2026-07-25 00:01:45, 2026-07-25 00:17:19, 2026-07-25 00:29:49", "cumulative_total": 111.0 }, "geometry": { "type": "Polygon", "coordinates": [ [ [ -72.925519332487866, 46.247552196295821 ], [ -72.931903715234426, 46.250266043116888 ], [ -72.931708436098234, 46.25545877348182 ], [ -72.925127552170025, 46.257937614674354 ], [ -72.9187426393637, 46.255223383348216 ], [ -72.918939140526859, 46.250030695400689 ], [ -72.925519332487866, 46.247552196295821 ] ] ] } },
{ "type": "Feature", "properties": { "hex_id": 633793, "centroid_lon": -72.919724604085374, "centroid_lat": 46.229259889774909, "occurrences_today": 3, "datetimes_today": "2026-07-25 00:01:45, 2026-07-25 00:17:19, 2026-07-25 00:29:49", "cumulative_total": 111.0 }, "geometry": { "type": "Polygon", "coordinates": [ [ [ -72.919920834793913, 46.224067174910523 ], [ -72.926302245862729, 46.226781294984058 ], [ -72.926106598380514, 46.231974028380854 ], [ -72.919528319322865, 46.234452599256308 ], [ -72.913146379090904, 46.231738094935139 ], [ -72.913343247061249, 46.226545404052146 ], [ -72.919920834793913, 46.224067174910523 ] ] ] } },
{ "type": "Feature", "properties": { "hex_id": 633794, "centroid_lon": -72.919135587562124, "centroid_lat": 46.2448380020694, "occurrences_today": 3, "datetimes_today": "2026-07-25 00:01:45, 2026-07-25 00:17:19, 2026-07-25 00:29:49", "cumulative_total": 138.0 }, "geometry": { "type": "Polygon", "coordinates": [ [ [ -72.919331980487954, 46.239645303354536 ], [ -72.925715141711521, 46.242359479036928 ], [ -72.925519332487866, 46.247552196295821 ], [ -72.918939140526859, 46.250030695400689 ], [ -72.91255544971979, 46.247316135260974 ], [ -72.912752480438726, 46.242123460539744 ], [ -72.919331980487954, 46.239645303354536 ] ] ] } },
{ "type": "Feature", "properties": { "hex_id": 476870, "centroid_lon": -74.588860636003972, "centroid_lat": 45.865522103956778, "occurrences_today": 3, "datetimes_today": "2026-07-25 00:01:45, 2026-07-25 00:17:19, 2026-07-25 00:29:49", "cumulative_total": 428.0 }, "geometry": { "type": "Polygon", "coordinates": [ [ [ -74.588898937705238, 45.860325761408468 ], [ -74.595320990746359, 45.862946926245691 ], [ -74.595283283922853, 45.868143270553155 ], [ -74.588822323793721, 45.870718441733644 ], [ -74.5823996863856, 45.868096913194883 ], [ -74.582438593470044, 45.862900577242634 ], [ -74.588898937705238, 45.860325761408468 ] ] ] } },
{ "type": "Feature", "properties": { "hex_id": 597778, "centroid_lon": -73.29993217901621, "centroid_lat": 46.305696814331419, "occurrences_today": 3, "datetimes_today": "2026-07-25 00:01:45, 2026-07-25 00:17:19, 2026-07-25 00:29:49", "cumulative_total": 100.0 }, "geometry": { "type": "Polygon", "coordinates": [ [ [ -73.300092984855098, 46.30050303024391 ], [ -73.306502538386326, 46.303196256463217 ], [ -73.306342323642468, 46.308390055332616 ], [ -73.299771328828257, 46.310890593247578 ], [ -73.293361228558638, 46.308196985265013 ], [ -73.293522669826416, 46.303003221197031 ], [ -73.300092984855098, 46.30050303024391 ] ] ] } },
{ "type": "Feature", "properties": { "hex_id": 631962, "centroid_lon": -72.938872498857691, "centroid_lat": 46.237401263834016, "occurrences_today": 3, "datetimes_today": "2026-07-25 00:01:45, 2026-07-25 00:17:19, 2026-07-25 00:29:49", "cumulative_total": 81.0 }, "geometry": { "type": "Polygon", "coordinates": [ [ [ -72.939066979356241, 46.232208493558844 ], [ -72.945450301817687, 46.234921571855978 ], [ -72.945256405076449, 46.240114360477101 ], [ -72.93867796478105, 46.242594028737813 ], [ -72.932294112149506, 46.239880566259728 ], [ -72.932489229965142, 46.234687819767913 ], [ -72.939066979356241, 46.232208493558844 ] ] ] } },
{ "type": "Feature", "properties": { "hex_id": 654497, "centroid_lon": -72.733196248597309, "centroid_lat": 45.399447351908194, "occurrences_today": 3, "datetimes_today": "2026-07-25 00:01:45, 2026-07-25 00:17:19, 2026-07-25 00:29:49", "cumulative_total": 147.0 }, "geometry": { "type": "Polygon", "coordinates": [ [ [ -72.73340396881413, 45.394254522514792 ], [ -72.739683328815715, 45.396977497481103 ], [ -72.739476164108041, 45.402170346922652 ], [ -72.732988471752947, 45.404640175815963 ], [ -72.726708612879207, 45.401916825664919 ], [ -72.726916945213773, 45.396724021869325 ], [ -72.73340396881413, 45.394254522514792 ] ] ] } },
{ "type": "Feature", "properties": { "hex_id": 545259, "centroid_lon": -73.863354709988229, "centroid_lat": 46.063268599636082, "occurrences_today": 1, "datetimes_today": "2026-07-25 00:01:45", "cumulative_total": 19.0 }, "geometry": { "type": "Polygon", "coordinates": [ [ [ -73.863461326296232, 46.058073327695851 ], [ -73.869871080402589, 46.060735058624289 ], [ -73.869765055461087, 46.065930339651445 ], [ -73.863248064359979, 46.068463866641203 ], [ -73.856837748212357, 46.06580176240923 ], [ -73.856944985197117, 46.060606504556894 ], [ -73.863461326296232, 46.058073327695851 ] ] ] } },
{ "type": "Feature", "properties": { "hex_id": 918948, "centroid_lon": -69.824597335080782, "centroid_lat": 46.933820640464674, "occurrences_today": 3, "datetimes_today": "2026-07-25 00:01:45, 2026-07-25 00:17:19, 2026-07-25 00:29:49", "cumulative_total": 45.0 }, "geometry": { "type": "Polygon", "coordinates": [ [ [ -69.825097112231219, 46.928646348846918 ], [ -69.831388790225233, 46.93152980049657 ], [ -69.830889568786375, 46.936704141010146 ], [ -69.824097419451149, 46.938994923301543 ], [ -69.817805324248724, 46.936111052548519 ], [ -69.818305795541946, 46.930936818673494 ], [ -69.825097112231219, 46.928646348846918 ] ] ] } },
{ "type": "Feature", "properties": { "hex_id": 919559, "centroid_lon": -69.817304714281164, "centroid_lat": 46.941285277631764, "occurrences_today": 3, "datetimes_today": "2026-07-25 00:01:45, 2026-07-25 00:17:19, 2026-07-25 00:29:49", "cumulative_total": 45.0 }, "geometry": { "type": "Polygon", "coordinates": [ [ [ -69.817805324248724, 46.936111052548519 ], [ -69.824097419451149, 46.938994923301543 ], [ -69.823597365294347, 46.944169197356061 ], [ -69.816803965591205, 46.946459493921786 ], [ -69.810511453324452, 46.943575203908622 ], [ -69.811012757777107, 46.938401036655911 ], [ -69.817805324248724, 46.936111052548519 ] ] ] } },
{ "type": "Feature", "properties": { "hex_id": 920169, "centroid_lon": -69.811513923360224, "centroid_lat": 46.93322686060052, "occurrences_today": 3, "datetimes_today": "2026-07-25 00:01:45, 2026-07-25 00:17:19, 2026-07-25 00:29:49", "cumulative_total": 45.0 }, "geometry": { "type": "Polygon", "coordinates": [ [ [ -69.812014950121906, 46.928052675743892 ], [ -69.818305795541946, 46.930936818673494 ], [ -69.817805324248724, 46.936111052548519 ], [ -69.811012757777107, 46.938401036655911 ], [ -69.804721495734071, 46.935516474535795 ], [ -69.805223216737545, 46.930342347564789 ], [ -69.812014950121906, 46.928052675743892 ] ] ] } },
{ "type": "Feature", "properties": { "hex_id": 748500, "centroid_lon": -71.763138101470034, "centroid_lat": 45.157780339994481, "occurrences_today": 3, "datetimes_today": "2026-07-25 00:01:45, 2026-07-25 00:17:19, 2026-07-25 00:29:49", "cumulative_total": 8.0 }, "geometry": { "type": "Polygon", "coordinates": [ [ [ -71.763432146915434, 45.15259152109433 ], [ -71.769636140832333, 45.155365933826559 ], [ -71.769342630053274, 45.160554781994954 ], [ -71.762843976156802, 45.16296915265648 ], [ -71.756639527454624, 45.160194359543489 ], [ -71.756934187407694, 45.155005576212851 ], [ -71.763432146915434, 45.15259152109433 ] ] ] } },
{ "type": "Feature", "properties": { "hex_id": 545870, "centroid_lon": -73.856730481735781, "centroid_lat": 46.070997015324274, "occurrences_today": 1, "datetimes_today": "2026-07-25 00:01:45", "cumulative_total": 4.0 }, "geometry": { "type": "Polygon", "coordinates": [ [ [ -73.856837748212357, 46.06580176240923 ], [ -73.863248064359979, 46.068463866641203 ], [ -73.863141389401477, 46.073659128711171 ], [ -73.856623185757329, 46.076192263302005 ], [ -73.850212307598497, 46.073529785603533 ], [ -73.85032019508499, 46.068334546846579 ], [ -73.856837748212357, 46.06580176240923 ] ] ] } }
]
}
