{
"type": "FeatureCollection",
"name": "daily_2026-09-12",
"crs": { "type": "name", "properties": { "name": "urn:ogc:def:crs:OGC:1.3:CRS84" } },
"features": [
{ "type": "Feature", "properties": { "hex_id": 649654, "centroid_lon": -72.758862353831191, "centroid_lat": 46.039148499342112, "occurrences_today": 3, "datetimes_today": "2026-09-12 00:03:11, 2026-09-12 00:17:59, 2026-09-12 00:33:16", "cumulative_total": 133.0 }, "geometry": { "type": "Polygon", "coordinates": [ [ [ -72.759072354221928, 46.033956161920635 ], [ -72.765423941755586, 46.036678810152914 ], [ -72.765214516396824, 46.04187116762057 ], [ -72.758652295739296, 46.044340831281552 ], [ -72.752300190884654, 46.04161779984188 ], [ -72.752510823988885, 46.03642548801411 ], [ -72.759072354221928, 46.033956161920635 ] ] ] } },
{ "type": "Feature", "properties": { "hex_id": 526913, "centroid_lon": -74.06538606235263, "centroid_lat": 45.581821914675665, "occurrences_today": 9, "datetimes_today": "2026-09-12 00:03:11, 2026-09-12 00:17:59, 2026-09-12 00:33:16, 2026-09-12 00:48:07, 2026-09-12 01:02:52, 2026-09-12 01:17:41, 2026-09-12 01:32:56, 2026-09-12 01:45:03, 2026-09-12 02:02:01", "cumulative_total": 61.0 }, "geometry": { "type": "Polygon", "coordinates": [ [ [ -74.065472271038402, 45.576625871379825 ], [ -74.071837171101933, 45.57927614190659 ], [ -74.071751541606616, 45.584472192181003 ], [ -74.065299830098212, 45.58701795309716 ], [ -74.058934374416836, 45.584367317345475 ], [ -74.059021185853794, 45.579171285967327 ], [ -74.065472271038402, 45.576625871379825 ] ] ] } },
{ "type": "Feature", "properties": { "hex_id": 527524, "centroid_lon": -74.058847539245775, "centroid_lat": 45.589563343847544, "occurrences_today": 9, "datetimes_today": "2026-09-12 00:03:11, 2026-09-12 00:17:59, 2026-09-12 00:33:16, 2026-09-12 00:48:07, 2026-09-12 01:02:52, 2026-09-12 01:17:41, 2026-09-12 01:32:56, 2026-09-12 01:45:03, 2026-09-12 02:02:01", "cumulative_total": 61.0 }, "geometry": { "type": "Polygon", "coordinates": [ [ [ -74.058934374416836, 45.584367317345475 ], [ -74.065299830098212, 45.58701795309716 ], [ -74.065213574267233, 45.592213986644254 ], [ -74.058760680332611, 45.594759365473472 ], [ -74.05239466905725, 45.592108364336354 ], [ -74.052482107302509, 45.586912349820238 ], [ -74.058934374416836, 45.584367317345475 ] ] ] } },
{ "type": "Feature", "properties": { "hex_id": 528134, "centroid_lon": -74.052569521648124, "centroid_lat": 45.581716330426239, "occurrences_today": 9, "datetimes_today": "2026-09-12 00:03:11, 2026-09-12 00:17:59, 2026-09-12 00:33:16, 2026-09-12 00:48:07, 2026-09-12 01:02:52, 2026-09-12 01:17:41, 2026-09-12 01:32:56, 2026-09-12 01:45:03, 2026-09-12 02:02:01", "cumulative_total": 107.0 }, "geometry": { "type": "Polygon", "coordinates": [ [ [ -74.052656912102137, 45.576520306154421 ], [ -74.059021185853794, 45.579171285967327 ], [ -74.058934374416836, 45.584367317345475 ], [ -74.052482107302509, 45.586912349820238 ], [ -74.046117278429406, 45.584261004660775 ], [ -74.046205271784061, 45.579064992437871 ], [ -74.052656912102137, 45.576520306154421 ] ] ] } },
{ "type": "Feature", "properties": { "hex_id": 594069, "centroid_lon": -73.360154432586185, "centroid_lat": 45.589464244227869, "occurrences_today": 9, "datetimes_today": "2026-09-12 00:03:11, 2026-09-12 00:17:59, 2026-09-12 00:33:16, 2026-09-12 00:48:07, 2026-09-12 01:02:52, 2026-09-12 01:17:41, 2026-09-12 01:32:56, 2026-09-12 01:45:03, 2026-09-12 02:02:01", "cumulative_total": 110.0 }, "geometry": { "type": "Polygon", "coordinates": [ [ [ -73.360305718181806, 45.584269647025934 ], [ -73.366637183229727, 45.586958758672949 ], [ -73.366486467519266, 45.592153369847885 ], [ -73.360003105638143, 45.594658836293384 ], [ -73.353671112064447, 45.591969352692573 ], [ -73.353823008883751, 45.586774774664654 ], [ -73.360305718181806, 45.584269647025934 ] ] ] } },
{ "type": "Feature", "properties": { "hex_id": 433545, "centroid_lon": -75.046486646341933, "centroid_lat": 46.185826431833618, "occurrences_today": 3, "datetimes_today": "2026-09-12 00:03:11, 2026-09-12 00:17:59, 2026-09-12 00:33:16", "cumulative_total": 212.0 }, "geometry": { "type": "Polygon", "coordinates": [ [ [ -75.046482266974735, 46.180630249540833 ], [ -75.052963124675443, 46.183225523366644 ], [ -75.052968115093819, 46.188421702778832 ], [ -75.046491026915589, 46.191022609381569 ], [ -75.040009556957017, 46.188426972401714 ], [ -75.040005787434964, 46.183230792039389 ], [ -75.046482266974735, 46.180630249540833 ] ] ] } },
{ "type": "Feature", "properties": { "hex_id": 434156, "centroid_lon": -75.040013327517556, "centroid_lat": 46.193623148019299, "occurrences_today": 3, "datetimes_today": "2026-09-12 00:03:11, 2026-09-12 00:17:59, 2026-09-12 00:33:16", "cumulative_total": 210.0 }, "geometry": { "type": "Polygon", "coordinates": [ [ [ -75.040009556957017, 46.188426972401714 ], [ -75.046491026915589, 46.191022609381569 ], [ -75.046495408696131, 46.196218782184722 ], [ -75.040017099116952, 46.198819318892191 ], [ -75.03353501689935, 46.196223318592637 ], [ -75.033531856520298, 46.191027144971542 ], [ -75.040009556957017, 46.188426972401714 ] ] ] } },
{ "type": "Feature", "properties": { "hex_id": 605040, "centroid_lon": -73.253507020620475, "centroid_lat": 45.307251045034768, "occurrences_today": 2, "datetimes_today": "2026-09-12 00:03:11, 2026-09-12 00:17:59", "cumulative_total": 168.0 }, "geometry": { "type": "Polygon", "coordinates": [ [ [ -73.253666565225515, 45.30205647639351 ], [ -73.259961682457188, 45.30475108737344 ], [ -73.259802697866505, 45.309945670953788 ], [ -73.253347432554989, 45.312445608490769 ], [ -73.247051798776653, 45.309750628161602 ], [ -73.247211946841972, 45.304556079708647 ], [ -73.253666565225515, 45.30205647639351 ] ] ] } },
{ "type": "Feature", "properties": { "hex_id": 583076, "centroid_lon": -73.477177554487184, "centroid_lat": 45.5287230936638, "occurrences_today": 9, "datetimes_today": "2026-09-12 00:03:11, 2026-09-12 00:17:59, 2026-09-12 00:33:16, 2026-09-12 00:48:07, 2026-09-12 01:02:52, 2026-09-12 01:17:41, 2026-09-12 01:32:56, 2026-09-12 01:45:03, 2026-09-12 02:02:01", "cumulative_total": 254.0 }, "geometry": { "type": "Polygon", "coordinates": [ [ [ -73.477317749515166, 45.523528147644129 ], [ -73.483648220631636, 45.52621078302154 ], [ -73.483508595266358, 45.531405741843315 ], [ -73.477037321164261, 45.533918034600944 ], [ -73.470706318686467, 45.531235029123344 ], [ -73.470847121659247, 45.526040101052821 ], [ -73.477317749515166, 45.523528147644129 ] ] ] } },
{ "type": "Feature", "properties": { "hex_id": 584297, "centroid_lon": -73.464375924314126, "centroid_lat": 45.528551679251429, "occurrences_today": 9, "datetimes_today": "2026-09-12 00:03:11, 2026-09-12 00:17:59, 2026-09-12 00:33:16, 2026-09-12 00:48:07, 2026-09-12 01:02:52, 2026-09-12 01:17:41, 2026-09-12 01:32:56, 2026-09-12 01:45:03, 2026-09-12 02:02:01", "cumulative_total": 392.0 }, "geometry": { "type": "Polygon", "coordinates": [ [ [ -73.464517296769628, 45.523356764109273 ], [ -73.470847121659247, 45.526040101052821 ], [ -73.470706318686467, 45.531235029123344 ], [ -73.464234513242374, 45.533746589305409 ], [ -73.457904157492777, 45.531062882145321 ], [ -73.458046138034305, 45.525867985084204 ], [ -73.464517296769628, 45.523356764109273 ] ] ] } },
{ "type": "Feature", "properties": { "hex_id": 120092, "centroid_lon": -78.753600547415317, "centroid_lat": 51.485690436790108, "occurrences_today": 9, "datetimes_today": "2026-09-12 00:03:11, 2026-09-12 00:17:59, 2026-09-12 00:33:16, 2026-09-12 00:48:07, 2026-09-12 01:02:52, 2026-09-12 01:17:41, 2026-09-12 01:32:56, 2026-09-12 01:45:03, 2026-09-12 02:02:01", "cumulative_total": 542.0 }, "geometry": { "type": "Polygon", "coordinates": [ [ [ -78.753174681266898, 51.480510191778123 ], [ -78.760572715942899, 51.482869819844332 ], [ -78.760999456343797, 51.488050018792237 ], [ -78.754026540734813, 51.490870674676309 ], [ -78.746627504610231, 51.488510654911522 ], [ -78.746202385593293, 51.483330371041617 ], [ -78.753174681266898, 51.480510191778123 ] ] ] } },
{ "type": "Feature", "properties": { "hex_id": 720511, "centroid_lon": -71.976900513239002, "centroid_lat": 46.62910427388924, "occurrences_today": 9, "datetimes_today": "2026-09-12 00:03:11, 2026-09-12 00:17:59, 2026-09-12 00:33:16, 2026-09-12 00:48:07, 2026-09-12 01:02:52, 2026-09-12 01:17:41, 2026-09-12 01:32:56, 2026-09-12 01:45:03, 2026-09-12 02:02:01", "cumulative_total": 25.0 }, "geometry": { "type": "Polygon", "coordinates": [ [ [ -71.977189615601645, 46.623915735310518 ], [ -71.983567362589326, 46.626682308126369 ], [ -71.983278841773028, 46.631870874701725 ], [ -71.976611330882605, 46.634292806359994 ], [ -71.97023308235616, 46.631525835679938 ], [ -71.97052284623129, 46.626337331272438 ], [ -71.977189615601645, 46.623915735310518 ] ] ] } },
{ "type": "Feature", "properties": { "hex_id": 594680, "centroid_lon": -73.353519173724521, "centroid_lat": 45.597163925580972, "occurrences_today": 9, "datetimes_today": "2026-09-12 00:03:11, 2026-09-12 00:17:59, 2026-09-12 00:33:16, 2026-09-12 00:48:07, 2026-09-12 01:02:52, 2026-09-12 01:17:41, 2026-09-12 01:32:56, 2026-09-12 01:45:03, 2026-09-12 02:02:01", "cumulative_total": 288.0 }, "geometry": { "type": "Polygon", "coordinates": [ [ [ -73.353671112064447, 45.591969352692573 ], [ -73.360003105638143, 45.594658836293384 ], [ -73.359851737323751, 45.599853423222356 ], [ -73.353367193849991, 45.602358493329703 ], [ -73.347034671792343, 45.599668637615864 ], [ -73.347187221678425, 45.594474083972337 ], [ -73.353671112064447, 45.591969352692573 ] ] ] } },
{ "type": "Feature", "properties": { "hex_id": 506796, "centroid_lon": -74.270892013768517, "centroid_lat": 46.043211665899513, "occurrences_today": 9, "datetimes_today": "2026-09-12 00:03:11, 2026-09-12 00:17:59, 2026-09-12 00:33:16, 2026-09-12 00:48:07, 2026-09-12 01:02:52, 2026-09-12 01:17:41, 2026-09-12 01:32:56, 2026-09-12 01:45:03, 2026-09-12 02:02:01", "cumulative_total": 68.0 }, "geometry": { "type": "Polygon", "coordinates": [ [ [ -74.270960358254214, 46.038015773005355 ], [ -74.277387653430594, 46.040654756138075 ], [ -74.277319905211115, 46.045850654018849 ], [ -74.2708236504902, 46.048407553970115 ], [ -74.264395777843447, 46.045768201735598 ], [ -74.264464737381601, 46.040572318717452 ], [ -74.270960358254214, 46.038015773005355 ] ] ] } },
{ "type": "Feature", "properties": { "hex_id": 524454, "centroid_lon": -74.09526639683159, "centroid_lat": 45.317022455426567, "occurrences_today": 9, "datetimes_today": "2026-09-12 00:03:11, 2026-09-12 00:17:59, 2026-09-12 00:33:16, 2026-09-12 00:48:07, 2026-09-12 01:02:52, 2026-09-12 01:17:41, 2026-09-12 01:32:56, 2026-09-12 01:45:03, 2026-09-12 02:02:01", "cumulative_total": 110.0 }, "geometry": { "type": "Polygon", "coordinates": [ [ [ -74.095349082992627, 45.311826126645322 ], [ -74.101685885735662, 45.314474637501462 ], [ -74.101603771139224, 45.319670972921628 ], [ -74.095183688136302, 45.322218779341483 ], [ -74.088846336366672, 45.319569906875259 ], [ -74.088929616619026, 45.314373589663411 ], [ -74.095349082992627, 45.311826126645322 ] ] ] } },
{ "type": "Feature", "properties": { "hex_id": 525064, "centroid_lon": -74.089012874182174, "centroid_lat": 45.309177267583621, "occurrences_today": 9, "datetimes_today": "2026-09-12 00:03:11, 2026-09-12 00:17:59, 2026-09-12 00:33:16, 2026-09-12 00:48:07, 2026-09-12 01:02:52, 2026-09-12 01:17:41, 2026-09-12 01:32:56, 2026-09-12 01:45:03, 2026-09-12 02:02:01", "cumulative_total": 110.0 }, "geometry": { "type": "Polygon", "coordinates": [ [ [ -74.089096109063689, 45.303980940635888 ], [ -74.095431746626957, 45.306629792997818 ], [ -74.095349082992627, 45.311826126645322 ], [ -74.088929616619026, 45.314373589663411 ], [ -74.082593430494001, 45.311724375729675 ], [ -74.082677259296759, 45.306528060413811 ], [ -74.089096109063689, 45.303980940635888 ] ] ] } },
{ "type": "Feature", "properties": { "hex_id": 92419, "centroid_lon": -78.821873336763161, "centroid_lat": 48.358829850951793, "occurrences_today": 1, "datetimes_today": "2026-09-12 00:17:59", "cumulative_total": 42.0 }, "geometry": { "type": "Polygon", "coordinates": [ [ [ -78.821485154322488, 48.353647211347571 ], [ -78.828413576747977, 48.356014282622809 ], [ -78.8288024942307, 48.361196878127629 ], [ -78.822261629187068, 48.364012483520497 ], [ -78.815332361716429, 48.361645064571199 ], [ -78.814944804374292, 48.356462387973743 ], [ -78.821485154322488, 48.353647211347571 ] ] ] } },
{ "type": "Feature", "properties": { "hex_id": 832187, "centroid_lon": -70.838326274985732, "centroid_lat": 45.883952565437035, "occurrences_today": 9, "datetimes_today": "2026-09-12 00:03:11, 2026-09-12 00:17:59, 2026-09-12 00:33:16, 2026-09-12 00:48:07, 2026-09-12 01:02:52, 2026-09-12 01:17:41, 2026-09-12 01:32:56, 2026-09-12 01:45:03, 2026-09-12 02:02:01", "cumulative_total": 62.0 }, "geometry": { "type": "Polygon", "coordinates": [ [ [ -70.838713889316239, 45.87876982791721 ], [ -70.844946614972173, 45.881595465670138 ], [ -70.844559542059571, 45.886778241676893 ], [ -70.837938554557979, 45.889135295687723 ], [ -70.831705393599307, 45.886309260701928 ], [ -70.832093655409139, 45.881126569002404 ], [ -70.838713889316239, 45.87876982791721 ] ] ] } },
{ "type": "Feature", "properties": { "hex_id": 832797, "centroid_lon": -70.832481810978138, "centroid_lat": 45.875943870026447, "occurrences_today": 9, "datetimes_today": "2026-09-12 00:03:11, 2026-09-12 00:17:59, 2026-09-12 00:33:16, 2026-09-12 00:48:07, 2026-09-12 01:02:52, 2026-09-12 01:17:41, 2026-09-12 01:32:56, 2026-09-12 01:45:03, 2026-09-12 02:02:01", "cumulative_total": 62.0 }, "geometry": { "type": "Polygon", "coordinates": [ [ [ -70.832869860342186, 45.870761163774915 ], [ -70.83910139758531, 45.873587083129152 ], [ -70.838713889316239, 45.87876982791721 ], [ -70.832093655409139, 45.881126569002404 ], [ -70.825861683293923, 45.878300252475654 ], [ -70.826250379922044, 45.873117592100449 ], [ -70.832869860342186, 45.870761163774915 ] ] ] } },
{ "type": "Feature", "properties": { "hex_id": 833407, "centroid_lon": -70.826638970201756, "centroid_lat": 45.867934924442373, "occurrences_today": 9, "datetimes_today": "2026-09-12 00:03:11, 2026-09-12 00:17:59, 2026-09-12 00:33:16, 2026-09-12 00:48:07, 2026-09-12 01:02:52, 2026-09-12 01:17:41, 2026-09-12 01:32:56, 2026-09-12 01:45:03, 2026-09-12 02:02:01", "cumulative_total": 62.0 }, "geometry": { "type": "Polygon", "coordinates": [ [ [ -70.827027454168942, 45.862752249502343 ], [ -70.833257803537123, 45.865578450248762 ], [ -70.832869860342186, 45.870761163774915 ], [ -70.826250379922044, 45.873117592100449 ], [ -70.82001959611209, 45.870290994241891 ], [ -70.820408727128168, 45.865108365234128 ], [ -70.827027454168942, 45.862752249502343 ] ] ] } },
{ "type": "Feature", "properties": { "hex_id": 834018, "centroid_lon": -70.819630358604186, "centroid_lat": 45.87547361595945, "occurrences_today": 9, "datetimes_today": "2026-09-12 00:03:11, 2026-09-12 00:17:59, 2026-09-12 00:33:16, 2026-09-12 00:48:07, 2026-09-12 01:02:52, 2026-09-12 01:17:41, 2026-09-12 01:32:56, 2026-09-12 01:45:03, 2026-09-12 02:02:01", "cumulative_total": 62.0 }, "geometry": { "type": "Polygon", "coordinates": [ [ [ -70.82001959611209, 45.870290994241891 ], [ -70.826250379922044, 45.873117592100449 ], [ -70.825861683293923, 45.878300252475654 ], [ -70.819241014568533, 45.880656230385924 ], [ -70.813009796424552, 45.877829235261039 ], [ -70.81339968130402, 45.872646659556423 ], [ -70.82001959611209, 45.870290994241891 ] ] ] } },
{ "type": "Feature", "properties": { "hex_id": 834628, "centroid_lon": -70.813789459512336, "centroid_lat": 45.867464076553375, "occurrences_today": 9, "datetimes_today": "2026-09-12 00:03:11, 2026-09-12 00:17:59, 2026-09-12 00:33:16, 2026-09-12 00:48:07, 2026-09-12 01:02:52, 2026-09-12 01:17:41, 2026-09-12 01:32:56, 2026-09-12 01:45:03, 2026-09-12 02:02:01", "cumulative_total": 62.0 }, "geometry": { "type": "Polygon", "coordinates": [ [ [ -70.814179131085481, 45.862281486252797 ], [ -70.820408727128168, 45.865108365234128 ], [ -70.82001959611209, 45.870290994241891 ], [ -70.81339968130402, 45.872646659556423 ], [ -70.807169651357427, 45.869819383369219 ], [ -70.807559970086814, 45.864636839137532 ], [ -70.814179131085481, 45.862281486252797 ] ] ] } }
]
}
