{
"type": "FeatureCollection",
"name": "daily_2026-03-28",
"crs": { "type": "name", "properties": { "name": "urn:ogc:def:crs:OGC:1.3:CRS84" } },
"features": [
{ "type": "Feature", "properties": { "hex_id": 577583, "centroid_lon": -73.534178809272461, "centroid_lat": 45.55285451587087, "occurrences_today": 1, "datetimes_today": "2026-03-28 00:01:29", "cumulative_total": 71.0 }, "geometry": { "type": "Polygon", "coordinates": [ [ [ -73.534313871321373, 45.547659456857865 ], [ -73.540649813066267, 45.550338988455394 ], [ -73.540515322183836, 45.55553405971385 ], [ -73.534043710318983, 45.558049569825684 ], [ -73.52770723431837, 45.555369668350536 ], [ -73.527842904425938, 45.550174626705761 ], [ -73.534313871321373, 45.547659456857865 ] ] ] } },
{ "type": "Feature", "properties": { "hex_id": 449417, "centroid_lon": -74.878067850715027, "centroid_lat": 46.17018229022549, "occurrences_today": 8, "datetimes_today": "2026-03-28 00:01:29, 2026-03-28 00:16:22, 2026-03-28 00:31:36, 2026-03-28 00:46:22, 2026-03-28 01:01:47, 2026-03-28 01:31:26, 2026-03-28 01:46:31, 2026-03-28 02:01:39", "cumulative_total": 229.0 }, "geometry": { "type": "Polygon", "coordinates": [ [ [ -74.878079331303297, 46.164986103719031 ], [ -74.884550411797392, 46.167590922025781 ], [ -74.884539539566049, 46.172787107371455 ], [ -74.8780563669646, 46.175378471985141 ], [ -74.871584681276246, 46.172773289006436 ], [ -74.871596773382521, 46.167577106152194 ], [ -74.878079331303297, 46.164986103719031 ] ] ] } },
{ "type": "Feature", "properties": { "hex_id": 501861, "centroid_lon": -74.332102450308895, "centroid_lat": 45.248493401771569, "occurrences_today": 3, "datetimes_today": "2026-03-28 02:12:40, 2026-03-28 02:31:52, 2026-03-28 02:46:31", "cumulative_total": 9.0 }, "geometry": { "type": "Polygon", "coordinates": [ [ [ -74.332163346900472, 45.243296715106183 ], [ -74.338503730061433, 45.245932136427605 ], [ -74.338443406050814, 45.2511288273679 ], [ -74.33204153713379, 45.253690083623859 ], [ -74.325700597978155, 45.251054303828418 ], [ -74.325762083728677, 45.245857626315079 ], [ -74.332163346900472, 45.243296715106183 ] ] ] } },
{ "type": "Feature", "properties": { "hex_id": 502471, "centroid_lon": -74.325823552740346, "centroid_lat": 45.240660943987429, "occurrences_today": 3, "datetimes_today": "2026-03-28 02:12:40, 2026-03-28 02:31:52, 2026-03-28 02:46:31", "cumulative_total": 12.0 }, "geometry": { "type": "Polygon", "coordinates": [ [ [ -74.325885005018733, 45.235464256845496 ], [ -74.332224226914065, 45.238100023627737 ], [ -74.332163346900472, 45.243296715106183 ], [ -74.325762083728677, 45.245857626315079 ], [ -74.319422306304631, 45.243221501095363 ], [ -74.319484347575511, 45.238024823168232 ], [ -74.325885005018733, 45.235464256845496 ] ] ] } },
{ "type": "Feature", "properties": { "hex_id": 503082, "centroid_lon": -74.319360248139603, "centroid_lat": 45.248418174206961, "occurrences_today": 3, "datetimes_today": "2026-03-28 02:12:40, 2026-03-28 02:31:52, 2026-03-28 02:46:31", "cumulative_total": 8.0 }, "geometry": { "type": "Polygon", "coordinates": [ [ [ -74.319422306304631, 45.243221501095363 ], [ -74.325762083728677, 45.245857626315079 ], [ -74.325700597978155, 45.251054303828418 ], [ -74.319298173074799, 45.253614842503012 ], [ -74.312957840138836, 45.250978358686766 ], [ -74.313020487612519, 45.245781694856475 ], [ -74.319422306304631, 45.243221501095363 ] ] ] } },
{ "type": "Feature", "properties": { "hex_id": 476892, "centroid_lon": -74.586309316421023, "centroid_lat": 46.208470163745552, "occurrences_today": 6, "datetimes_today": "2026-03-28 01:31:26, 2026-03-28 01:46:31, 2026-03-28 02:01:39, 2026-03-28 02:12:40, 2026-03-28 02:31:52, 2026-03-28 02:46:31", "cumulative_total": 82.0 }, "geometry": { "type": "Polygon", "coordinates": [ [ [ -74.586348319433952, 46.203274136055072 ], [ -74.5928099863049, 46.205895418683021 ], [ -74.592771589038477, 46.211091448184789 ], [ -74.586270302660324, 46.213666186666458 ], [ -74.579808040792486, 46.211044535937972 ], [ -74.579847660295997, 46.20584851489464 ], [ -74.586348319433952, 46.203274136055072 ] ] ] } },
{ "type": "Feature", "properties": { "hex_id": 560493, "centroid_lon": -73.712069043154344, "centroid_lat": 45.617360088211697, "occurrences_today": 5, "datetimes_today": "2026-03-28 00:31:36, 2026-03-28 00:46:22, 2026-03-28 01:01:47, 2026-03-28 01:31:26, 2026-03-28 01:46:31", "cumulative_total": 65.0 }, "geometry": { "type": "Polygon", "coordinates": [ [ [ -73.712187984286203, 45.612164699823062 ], [ -73.718539800774337, 45.614834502951673 ], [ -73.718421435177845, 45.620029901839878 ], [ -73.711950069494989, 45.622555471612515 ], [ -73.705597710004483, 45.619885299450836 ], [ -73.705717259188248, 45.614689926614354 ], [ -73.712187984286203, 45.612164699823062 ] ] ] } },
{ "type": "Feature", "properties": { "hex_id": 561708, "centroid_lon": -73.701403184963652, "centroid_lat": 45.523697495773824, "occurrences_today": 9, "datetimes_today": "2026-03-28 00:01:29, 2026-03-28 00:16:22, 2026-03-28 00:31:36, 2026-03-28 00:46:22, 2026-03-28 01:01:47, 2026-03-28 01:31:26, 2026-03-28 01:46:31, 2026-03-28 02:01:39, 2026-03-28 02:12:40", "cumulative_total": 165.0 }, "geometry": { "type": "Polygon", "coordinates": [ [ [ -73.701522720072973, 45.518502043708189 ], [ -73.707863566214641, 45.521172362298884 ], [ -73.707744603659719, 45.526367824948736 ], [ -73.701283617201554, 45.528892942848039 ], [ -73.694942231163736, 45.526222256312025 ], [ -73.695062371469277, 45.521026819886572 ], [ -73.701522720072973, 45.518502043708189 ] ] ] } },
{ "type": "Feature", "properties": { "hex_id": 536665, "centroid_lon": -73.967418242127366, "centroid_lat": 45.331529030551387, "occurrences_today": 6, "datetimes_today": "2026-03-28 01:31:26, 2026-03-28 01:46:31, 2026-03-28 02:01:39, 2026-03-28 02:12:40, 2026-03-28 02:31:52, 2026-03-28 02:46:31", "cumulative_total": 91.0 }, "geometry": { "type": "Polygon", "coordinates": [ [ [ -73.967512659231232, 45.326332911370777 ], [ -73.973844984935809, 45.328988470478869 ], [ -73.973751138152394, 45.334184597569269 ], [ -73.96732379928882, 45.336725144830254 ], [ -73.96099092900279, 45.334069222710895 ], [ -73.961085942153176, 45.328873116406001 ], [ -73.967512659231232, 45.326332911370777 ] ] ] } },
{ "type": "Feature", "properties": { "hex_id": 590399, "centroid_lon": -73.401693415095238, "centroid_lat": 45.480920100053801, "occurrences_today": 5, "datetimes_today": "2026-03-28 00:01:29, 2026-03-28 00:16:22, 2026-03-28 00:31:36, 2026-03-28 00:46:22, 2026-03-28 01:01:47", "cumulative_total": 63.0 }, "geometry": { "type": "Polygon", "coordinates": [ [ [ -73.401840312702546, 45.475725297122409 ], [ -73.408161789215768, 45.478412017799059 ], [ -73.408015458806446, 45.483606834263774 ], [ -73.401546477386674, 45.486114897869115 ], [ -73.395224473783458, 45.483427807001732 ], [ -73.39537197867655, 45.478233022784138 ], [ -73.401840312702546, 45.475725297122409 ] ] ] } },
{ "type": "Feature", "properties": { "hex_id": 690573, "centroid_lon": -72.314635190064237, "centroid_lat": 46.271203019544622, "occurrences_today": 4, "datetimes_today": "2026-03-28 02:01:39, 2026-03-28 02:12:40, 2026-03-28 02:31:52, 2026-03-28 02:46:31", "cumulative_total": 54.0 }, "geometry": { "type": "Polygon", "coordinates": [ [ [ -72.314888832268025, 46.266012627703425 ], [ -72.321243632973449, 46.268759976481441 ], [ -72.320990566371378, 46.273950392829327 ], [ -72.314381477984981, 46.276393405576272 ], [ -72.308026171565245, 46.273645666623885 ], [ -72.308280459222331, 46.268455305164849 ], [ -72.314888832268025, 46.266012627703425 ] ] ] } }
]
}
