{
"type": "FeatureCollection",
"name": "daily_2026-09-19",
"crs": { "type": "name", "properties": { "name": "urn:ogc:def:crs:OGC:1.3:CRS84" } },
"features": [
{ "type": "Feature", "properties": { "hex_id": 600207, "centroid_lon": -73.280305351119935, "centroid_lat": 46.102749078092479, "occurrences_today": 12, "datetimes_today": "2026-09-19 00:02:28, 2026-09-19 00:17:19, 2026-09-19 00:31:48, 2026-09-19 00:46:47, 2026-09-19 01:01:41, 2026-09-19 01:16:55, 2026-09-19 01:31:48, 2026-09-19 01:46:41, 2026-09-19 02:02:34, 2026-09-19 02:16:46, 2026-09-19 02:31:53, 2026-09-19 02:46:40", "cumulative_total": 133.0 }, "geometry": { "type": "Polygon", "coordinates": [ [ [ -73.280466865574624, 46.097555162028442 ], [ -73.286852146513709, 46.10024924192755 ], [ -73.28669121652554, 46.105443172906384 ], [ -73.2801437922367, 46.107942988976674 ], [ -73.273757971267216, 46.105248529780305 ], [ -73.273920114601836, 46.100054633876724 ], [ -73.280466865574624, 46.097555162028442 ] ] ] } },
{ "type": "Feature", "properties": { "hex_id": 600817, "centroid_lon": -73.274082213348862, "centroid_lat": 46.094860732790103, "occurrences_today": 12, "datetimes_today": "2026-09-19 00:02:28, 2026-09-19 00:17:19, 2026-09-19 00:31:48, 2026-09-19 00:46:47, 2026-09-19 01:01:41, 2026-09-19 01:16:55, 2026-09-19 01:31:48, 2026-09-19 01:46:41, 2026-09-19 02:02:34, 2026-09-19 02:16:46, 2026-09-19 02:31:53, 2026-09-19 02:46:40", "cumulative_total": 135.0 }, "geometry": { "type": "Polygon", "coordinates": [ [ [ -73.274244267523486, 46.089666826520549 ], [ -73.280628335615916, 46.092361240784697 ], [ -73.280466865574624, 46.097555162028442 ], [ -73.273920114601836, 46.100054633876724 ], [ -73.267535506956079, 46.097359840360376 ], [ -73.26769818982126, 46.092165954313721 ], [ -73.274244267523486, 46.089666826520549 ] ] ] } },
{ "type": "Feature", "properties": { "hex_id": 600818, "centroid_lon": -73.273595783329782, "centroid_lat": 46.110442420500725, "occurrences_today": 12, "datetimes_today": "2026-09-19 00:02:28, 2026-09-19 00:17:19, 2026-09-19 00:31:48, 2026-09-19 00:46:47, 2026-09-19 01:01:41, 2026-09-19 01:16:55, 2026-09-19 01:31:48, 2026-09-19 01:46:41, 2026-09-19 02:02:34, 2026-09-19 02:16:46, 2026-09-19 02:31:53, 2026-09-19 02:46:40", "cumulative_total": 82.0 }, "geometry": { "type": "Polygon", "coordinates": [ [ [ -73.273757971267216, 46.105248529780305 ], [ -73.2801437922367, 46.107942988976674 ], [ -73.279982188909756, 46.113136894680906 ], [ -73.273433550774357, 46.115636306037842 ], [ -73.267047189820005, 46.112941467382207 ], [ -73.2672100069707, 46.107747596894747 ], [ -73.273757971267216, 46.105248529780305 ] ] ] } },
{ "type": "Feature", "properties": { "hex_id": 601428, "centroid_lon": -73.267372779344313, "centroid_lat": 46.102553721220751, "occurrences_today": 12, "datetimes_today": "2026-09-19 00:02:28, 2026-09-19 00:17:19, 2026-09-19 00:31:48, 2026-09-19 00:46:47, 2026-09-19 01:01:41, 2026-09-19 01:16:55, 2026-09-19 01:31:48, 2026-09-19 01:46:41, 2026-09-19 02:02:34, 2026-09-19 02:16:46, 2026-09-19 02:31:53, 2026-09-19 02:46:40", "cumulative_total": 137.0 }, "geometry": { "type": "Polygon", "coordinates": [ [ [ -73.267535506956079, 46.097359840360376 ], [ -73.273920114601836, 46.100054633876724 ], [ -73.273757971267216, 46.105248529780305 ], [ -73.2672100069707, 46.107747596894747 ], [ -73.260824859817291, 46.105052423964196 ], [ -73.260988216452773, 46.099858563399216 ], [ -73.267535506956079, 46.097359840360376 ] ] ] } },
{ "type": "Feature", "properties": { "hex_id": 601429, "centroid_lon": -73.266884327876923, "centroid_lat": 46.118135332683032, "occurrences_today": 12, "datetimes_today": "2026-09-19 00:02:28, 2026-09-19 00:17:19, 2026-09-19 00:31:48, 2026-09-19 00:46:47, 2026-09-19 01:01:41, 2026-09-19 01:16:55, 2026-09-19 01:31:48, 2026-09-19 01:46:41, 2026-09-19 02:02:34, 2026-09-19 02:16:46, 2026-09-19 02:31:53, 2026-09-19 02:46:40", "cumulative_total": 82.0 }, "geometry": { "type": "Polygon", "coordinates": [ [ [ -73.267047189820005, 46.112941467382207 ], [ -73.273433550774357, 46.115636306037842 ], [ -73.273271273585706, 46.120830186391551 ], [ -73.266721421126206, 46.123329192797122 ], [ -73.260334520232718, 46.12063397452016 ], [ -73.260498011722575, 46.115440129524799 ], [ -73.267047189820005, 46.112941467382207 ] ] ] } },
{ "type": "Feature", "properties": { "hex_id": 602038, "centroid_lon": -73.261151528167431, "centroid_lat": 46.094664697644589, "occurrences_today": 12, "datetimes_today": "2026-09-19 00:02:28, 2026-09-19 00:17:19, 2026-09-19 00:31:48, 2026-09-19 00:46:47, 2026-09-19 01:01:41, 2026-09-19 01:16:55, 2026-09-19 01:31:48, 2026-09-19 01:46:41, 2026-09-19 02:02:34, 2026-09-19 02:16:46, 2026-09-19 02:31:53, 2026-09-19 02:46:40", "cumulative_total": 146.0 }, "geometry": { "type": "Polygon", "coordinates": [ [ [ -73.261314794976585, 46.08947082670047 ], [ -73.26769818982126, 46.092165954313721 ], [ -73.267535506956079, 46.097359840360376 ], [ -73.260988216452773, 46.099858563399216 ], [ -73.25460428257729, 46.097163056416925 ], [ -73.254768178220615, 46.091969205830608 ], [ -73.261314794976585, 46.08947082670047 ] ] ] } },
{ "type": "Feature", "properties": { "hex_id": 602039, "centroid_lon": -73.260661458245664, "centroid_lat": 46.110246279339435, "occurrences_today": 12, "datetimes_today": "2026-09-19 00:02:28, 2026-09-19 00:17:19, 2026-09-19 00:31:48, 2026-09-19 00:46:47, 2026-09-19 01:01:41, 2026-09-19 01:16:55, 2026-09-19 01:31:48, 2026-09-19 01:46:41, 2026-09-19 02:02:34, 2026-09-19 02:16:46, 2026-09-19 02:31:53, 2026-09-19 02:46:40", "cumulative_total": 82.0 }, "geometry": { "type": "Polygon", "coordinates": [ [ [ -73.260824859817291, 46.105052423964196 ], [ -73.2672100069707, 46.107747596894747 ], [ -73.267047189820005, 46.112941467382207 ], [ -73.260498011722575, 46.115440129524799 ], [ -73.254112325107343, 46.112744577018098 ], [ -73.254276356036016, 46.107550742010794 ], [ -73.260824859817291, 46.105052423964196 ] ] ] } },
{ "type": "Feature", "properties": { "hex_id": 602040, "centroid_lon": -73.26017098376073, "centroid_lat": 46.125827814325376, "occurrences_today": 12, "datetimes_today": "2026-09-19 00:02:28, 2026-09-19 00:17:19, 2026-09-19 00:31:48, 2026-09-19 00:46:47, 2026-09-19 01:01:41, 2026-09-19 01:16:55, 2026-09-19 01:31:48, 2026-09-19 01:46:41, 2026-09-19 02:02:34, 2026-09-19 02:16:46, 2026-09-19 02:31:53, 2026-09-19 02:46:40", "cumulative_total": 167.0 }, "geometry": { "type": "Polygon", "coordinates": [ [ [ -73.260334520232718, 46.12063397452016 ], [ -73.266721421126206, 46.123329192797122 ], [ -73.266558469552578, 46.128523047724293 ], [ -73.260007402291293, 46.13102164894034 ], [ -73.253619961504569, 46.128326050879998 ], [ -73.253784127857003, 46.123132231452821 ], [ -73.260334520232718, 46.12063397452016 ] ] ] } },
{ "type": "Feature", "properties": { "hex_id": 602649, "centroid_lon": -73.254440341854206, "centroid_lat": 46.10235690181036, "occurrences_today": 12, "datetimes_today": "2026-09-19 00:02:28, 2026-09-19 00:17:19, 2026-09-19 00:31:48, 2026-09-19 00:46:47, 2026-09-19 01:01:41, 2026-09-19 01:16:55, 2026-09-19 01:31:48, 2026-09-19 01:46:41, 2026-09-19 02:02:34, 2026-09-19 02:16:46, 2026-09-19 02:31:53, 2026-09-19 02:46:40", "cumulative_total": 123.0 }, "geometry": { "type": "Polygon", "coordinates": [ [ [ -73.25460428257729, 46.097163056416925 ], [ -73.260988216452773, 46.099858563399216 ], [ -73.260824859817291, 46.105052423964196 ], [ -73.254276356036016, 46.107550742010794 ], [ -73.247891883175754, 46.1048548554975 ], [ -73.24805645306617, 46.099661030534428 ], [ -73.25460428257729, 46.097163056416925 ] ] ] } },
{ "type": "Feature", "properties": { "hex_id": 602650, "centroid_lon": -73.253948249052797, "centroid_lat": 46.117938406832145, "occurrences_today": 12, "datetimes_today": "2026-09-19 00:02:28, 2026-09-19 00:17:19, 2026-09-19 00:31:48, 2026-09-19 00:46:47, 2026-09-19 01:01:41, 2026-09-19 01:16:55, 2026-09-19 01:31:48, 2026-09-19 01:46:41, 2026-09-19 02:02:34, 2026-09-19 02:16:46, 2026-09-19 02:31:53, 2026-09-19 02:46:40", "cumulative_total": 82.0 }, "geometry": { "type": "Polygon", "coordinates": [ [ [ -73.254112325107343, 46.112744577018098 ], [ -73.260498011722575, 46.115440129524799 ], [ -73.260334520232718, 46.12063397452016 ], [ -73.253784127857003, 46.123132231452821 ], [ -73.247397901826048, 46.120436299207924 ], [ -73.247562607571126, 46.115242489834387 ], [ -73.254112325107343, 46.112744577018098 ] ] ] } },
{ "type": "Feature", "properties": { "hex_id": 602651, "centroid_lon": -73.253455749980077, "centroid_lat": 46.133519865113506, "occurrences_today": 12, "datetimes_today": "2026-09-19 00:02:28, 2026-09-19 00:17:19, 2026-09-19 00:31:48, 2026-09-19 00:46:47, 2026-09-19 01:01:41, 2026-09-19 01:16:55, 2026-09-19 01:31:48, 2026-09-19 01:46:41, 2026-09-19 02:02:34, 2026-09-19 02:16:46, 2026-09-19 02:31:53, 2026-09-19 02:46:40", "cumulative_total": 173.0 }, "geometry": { "type": "Polygon", "coordinates": [ [ [ -73.253619961504569, 46.128326050879998 ], [ -73.260007402291293, 46.13102164894034 ], [ -73.25984377580906, 46.136215478364932 ], [ -73.253291493268136, 46.138713674153273 ], [ -73.246903512634333, 46.136017696147391 ], [ -73.247068354373113, 46.130823902364561 ], [ -73.253619961504569, 46.128326050879998 ] ] ] } },
{ "type": "Feature", "properties": { "hex_id": 603259, "centroid_lon": -73.248220977702559, "centroid_lat": 46.094467200375085, "occurrences_today": 12, "datetimes_today": "2026-09-19 00:02:28, 2026-09-19 00:17:19, 2026-09-19 00:31:48, 2026-09-19 00:46:47, 2026-09-19 01:01:41, 2026-09-19 01:16:55, 2026-09-19 01:31:48, 2026-09-19 01:46:41, 2026-09-19 02:02:34, 2026-09-19 02:16:46, 2026-09-19 02:31:53, 2026-09-19 02:46:40", "cumulative_total": 157.0 }, "geometry": { "type": "Polygon", "coordinates": [ [ [ -73.248385457100326, 46.089273365019615 ], [ -73.254768178220615, 46.091969205830608 ], [ -73.25460428257729, 46.097163056416925 ], [ -73.24805645306617, 46.099661030534428 ], [ -73.241673193437748, 46.096964810237672 ], [ -73.241838301813161, 46.091770995374937 ], [ -73.248385457100326, 46.089273365019615 ] ] ] } },
{ "type": "Feature", "properties": { "hex_id": 603260, "centroid_lon": -73.247727268015879, "centroid_lat": 46.110048675264203, "occurrences_today": 12, "datetimes_today": "2026-09-19 00:02:28, 2026-09-19 00:17:19, 2026-09-19 00:31:48, 2026-09-19 00:46:47, 2026-09-19 01:01:41, 2026-09-19 01:16:55, 2026-09-19 01:31:48, 2026-09-19 01:46:41, 2026-09-19 02:02:34, 2026-09-19 02:16:46, 2026-09-19 02:31:53, 2026-09-19 02:46:40", "cumulative_total": 82.0 }, "geometry": { "type": "Polygon", "coordinates": [ [ [ -73.247891883175754, 46.1048548554975 ], [ -73.254276356036016, 46.107550742010794 ], [ -73.254112325107343, 46.112744577018098 ], [ -73.247562607571126, 46.115242489834387 ], [ -73.241177595772257, 46.112546223628158 ], [ -73.241342840432779, 46.1073524243644 ], [ -73.247891883175754, 46.1048548554975 ] ] ] } },
{ "type": "Feature", "properties": { "hex_id": 603261, "centroid_lon": -73.247233150765183, "centroid_lat": 46.125630103384687, "occurrences_today": 12, "datetimes_today": "2026-09-19 00:02:28, 2026-09-19 00:17:19, 2026-09-19 00:31:48, 2026-09-19 00:46:47, 2026-09-19 01:01:41, 2026-09-19 01:16:55, 2026-09-19 01:31:48, 2026-09-19 01:46:41, 2026-09-19 02:02:34, 2026-09-19 02:16:46, 2026-09-19 02:31:53, 2026-09-19 02:46:40", "cumulative_total": 90.0 }, "geometry": { "type": "Polygon", "coordinates": [ [ [ -73.247397901826048, 46.120436299207924 ], [ -73.253784127857003, 46.123132231452821 ], [ -73.253619961504569, 46.128326050879998 ], [ -73.247068354373113, 46.130823902364561 ], [ -73.240681588972677, 46.128127590219414 ], [ -73.240846970057731, 46.1229338065558 ], [ -73.247397901826048, 46.120436299207924 ] ] ] } },
{ "type": "Feature", "properties": { "hex_id": 603870, "centroid_lon": -73.241508039649432, "centroid_lat": 46.102158619900862, "occurrences_today": 12, "datetimes_today": "2026-09-19 00:02:28, 2026-09-19 00:17:19, 2026-09-19 00:31:48, 2026-09-19 00:46:47, 2026-09-19 01:01:41, 2026-09-19 01:16:55, 2026-09-19 01:31:48, 2026-09-19 01:46:41, 2026-09-19 02:02:34, 2026-09-19 02:16:46, 2026-09-19 02:31:53, 2026-09-19 02:46:40", "cumulative_total": 123.0 }, "geometry": { "type": "Polygon", "coordinates": [ [ [ -73.241673193437748, 46.096964810237672 ], [ -73.24805645306617, 46.099661030534428 ], [ -73.247891883175754, 46.1048548554975 ], [ -73.241342840432779, 46.1073524243644 ], [ -73.234959042342581, 46.104655824419964 ], [ -73.235124825441645, 46.099462035322098 ], [ -73.241673193437748, 46.096964810237672 ] ] ] } },
{ "type": "Feature", "properties": { "hex_id": 603871, "centroid_lon": -73.241012305652418, "centroid_lat": 46.117740017691993, "occurrences_today": 12, "datetimes_today": "2026-09-19 00:02:28, 2026-09-19 00:17:19, 2026-09-19 00:31:48, 2026-09-19 00:46:47, 2026-09-19 01:01:41, 2026-09-19 01:16:55, 2026-09-19 01:31:48, 2026-09-19 01:46:41, 2026-09-19 02:02:34, 2026-09-19 02:16:46, 2026-09-19 02:31:53, 2026-09-19 02:46:40", "cumulative_total": 90.0 }, "geometry": { "type": "Polygon", "coordinates": [ [ [ -73.241177595772257, 46.112546223628158 ], [ -73.247562607571126, 46.115242489834387 ], [ -73.247397901826048, 46.120436299207924 ], [ -73.240846970057731, 46.1229338065558 ], [ -73.234461419366681, 46.120237160494632 ], [ -73.234627339320639, 46.115043387006352 ], [ -73.241177595772257, 46.112546223628158 ] ] ] } },
{ "type": "Feature", "properties": { "hex_id": 603872, "centroid_lon": -73.24051616238178, "centroid_lat": 46.133321368682715, "occurrences_today": 12, "datetimes_today": "2026-09-19 00:02:28, 2026-09-19 00:17:19, 2026-09-19 00:31:48, 2026-09-19 00:46:47, 2026-09-19 01:01:41, 2026-09-19 01:16:55, 2026-09-19 01:31:48, 2026-09-19 01:46:41, 2026-09-19 02:02:34, 2026-09-19 02:16:46, 2026-09-19 02:31:53, 2026-09-19 02:46:40", "cumulative_total": 90.0 }, "geometry": { "type": "Polygon", "coordinates": [ [ [ -73.240681588972677, 46.128127590219414 ], [ -73.247068354373113, 46.130823902364561 ], [ -73.246903512634333, 46.136017696147391 ], [ -73.240350690269494, 46.138515141945611 ], [ -73.23396338554609, 46.135818449738146 ], [ -73.234129442494989, 46.130624691860646 ], [ -73.240681588972677, 46.128127590219414 ] ] ] } },
{ "type": "Feature", "properties": { "hex_id": 604480, "centroid_lon": -73.235290562953494, "centroid_lat": 46.09426824102129, "occurrences_today": 12, "datetimes_today": "2026-09-19 00:02:28, 2026-09-19 00:17:19, 2026-09-19 00:31:48, 2026-09-19 00:46:47, 2026-09-19 01:01:41, 2026-09-19 01:16:55, 2026-09-19 01:31:48, 2026-09-19 01:46:41, 2026-09-19 02:02:34, 2026-09-19 02:16:46, 2026-09-19 02:31:53, 2026-09-19 02:46:40", "cumulative_total": 153.0 }, "geometry": { "type": "Polygon", "coordinates": [ [ [ -73.235456254893677, 46.089074441517681 ], [ -73.241838301813161, 46.091770995374937 ], [ -73.241673193437748, 46.096964810237672 ], [ -73.235124825441645, 46.099462035322098 ], [ -73.228742240536846, 46.096765101862481 ], [ -73.228908561597933, 46.091571322986553 ], [ -73.235456254893677, 46.089074441517681 ] ] ] } },
{ "type": "Feature", "properties": { "hex_id": 604481, "centroid_lon": -73.234793213640756, "centroid_lat": 46.109849608314768, "occurrences_today": 12, "datetimes_today": "2026-09-19 00:02:28, 2026-09-19 00:17:19, 2026-09-19 00:31:48, 2026-09-19 00:46:47, 2026-09-19 01:01:41, 2026-09-19 01:16:55, 2026-09-19 01:31:48, 2026-09-19 01:46:41, 2026-09-19 02:02:34, 2026-09-19 02:16:46, 2026-09-19 02:31:53, 2026-09-19 02:46:40", "cumulative_total": 82.0 }, "geometry": { "type": "Polygon", "coordinates": [ [ [ -73.234959042342581, 46.104655824419964 ], [ -73.241342840432779, 46.1073524243644 ], [ -73.241177595772257, 46.112546223628158 ], [ -73.234627339320639, 46.115043387006352 ], [ -73.228243002815205, 46.112346407252311 ], [ -73.228409461161078, 46.107152643995484 ], [ -73.234959042342581, 46.104655824419964 ] ] ] } },
{ "type": "Feature", "properties": { "hex_id": 604482, "centroid_lon": -73.234295453763323, "centroid_lat": 46.125430928779444, "occurrences_today": 12, "datetimes_today": "2026-09-19 00:02:28, 2026-09-19 00:17:19, 2026-09-19 00:31:48, 2026-09-19 00:46:47, 2026-09-19 01:01:41, 2026-09-19 01:16:55, 2026-09-19 01:31:48, 2026-09-19 01:46:41, 2026-09-19 02:02:34, 2026-09-19 02:16:46, 2026-09-19 02:31:53, 2026-09-19 02:46:40", "cumulative_total": 90.0 }, "geometry": { "type": "Polygon", "coordinates": [ [ [ -73.234461419366681, 46.120237160494632 ], [ -73.240846970057731, 46.1229338065558 ], [ -73.240681588972677, 46.128127590219414 ], [ -73.234129442494989, 46.130624691860646 ], [ -73.227743352958385, 46.127927665782529 ], [ -73.227909948729476, 46.122733918145961 ], [ -73.234461419366681, 46.120237160494632 ] ] ] } },
{ "type": "Feature", "properties": { "hex_id": 605091, "centroid_lon": -73.228575873729739, "centroid_lat": 46.101958875532155, "occurrences_today": 12, "datetimes_today": "2026-09-19 00:02:28, 2026-09-19 00:17:19, 2026-09-19 00:31:48, 2026-09-19 00:46:47, 2026-09-19 01:01:41, 2026-09-19 01:16:55, 2026-09-19 01:31:48, 2026-09-19 01:46:41, 2026-09-19 02:02:34, 2026-09-19 02:16:46, 2026-09-19 02:31:53, 2026-09-19 02:46:40", "cumulative_total": 123.0 }, "geometry": { "type": "Polygon", "coordinates": [ [ [ -73.228742240536846, 46.096765101862481 ], [ -73.235124825441645, 46.099462035322098 ], [ -73.234959042342581, 46.104655824419964 ], [ -73.228409461161078, 46.107152643995484 ], [ -73.222026338317633, 46.104455330771593 ], [ -73.222193334578733, 46.099261577802245 ], [ -73.228742240536846, 46.096765101862481 ] ] ] } },
{ "type": "Feature", "properties": { "hex_id": 605092, "centroid_lon": -73.228076498676543, "centroid_lat": 46.117540165302501, "occurrences_today": 12, "datetimes_today": "2026-09-19 00:02:28, 2026-09-19 00:17:19, 2026-09-19 00:31:48, 2026-09-19 00:46:47, 2026-09-19 01:01:41, 2026-09-19 01:16:55, 2026-09-19 01:31:48, 2026-09-19 01:46:41, 2026-09-19 02:02:34, 2026-09-19 02:16:46, 2026-09-19 02:31:53, 2026-09-19 02:46:40", "cumulative_total": 90.0 }, "geometry": { "type": "Polygon", "coordinates": [ [ [ -73.228243002815205, 46.112346407252311 ], [ -73.234627339320639, 46.115043387006352 ], [ -73.234461419366681, 46.120237160494632 ], [ -73.227909948729476, 46.122733918145961 ], [ -73.22152507385556, 46.120036558420338 ], [ -73.221692207971699, 46.114842821080785 ], [ -73.228243002815205, 46.112346407252311 ] ] ] } },
{ "type": "Feature", "properties": { "hex_id": 605701, "centroid_lon": -73.222360284919475, "centroid_lat": 46.094067819623227, "occurrences_today": 12, "datetimes_today": "2026-09-19 00:02:28, 2026-09-19 00:17:19, 2026-09-19 00:31:48, 2026-09-19 00:46:47, 2026-09-19 01:01:41, 2026-09-19 01:16:55, 2026-09-19 01:31:48, 2026-09-19 01:46:41, 2026-09-19 02:02:34, 2026-09-19 02:16:46, 2026-09-19 02:31:53, 2026-09-19 02:46:40", "cumulative_total": 167.0 }, "geometry": { "type": "Polygon", "coordinates": [ [ [ -73.222527189355489, 46.088874056234658 ], [ -73.228908561597933, 46.091571322986553 ], [ -73.228742240536846, 46.096765101862481 ], [ -73.222193334578733, 46.099261577802245 ], [ -73.21581142487392, 46.096563931331509 ], [ -73.215978958573942, 46.091370188705604 ], [ -73.222527189355489, 46.088874056234658 ] ] ] } },
{ "type": "Feature", "properties": { "hex_id": 605702, "centroid_lon": -73.221859296120499, "centroid_lat": 46.10964907853117, "occurrences_today": 12, "datetimes_today": "2026-09-19 00:02:28, 2026-09-19 00:17:19, 2026-09-19 00:31:48, 2026-09-19 00:46:47, 2026-09-19 01:01:41, 2026-09-19 01:16:55, 2026-09-19 01:31:48, 2026-09-19 01:46:41, 2026-09-19 02:02:34, 2026-09-19 02:16:46, 2026-09-19 02:31:53, 2026-09-19 02:46:40", "cumulative_total": 82.0 }, "geometry": { "type": "Polygon", "coordinates": [ [ [ -73.222026338317633, 46.104455330771593 ], [ -73.228409461161078, 46.107152643995484 ], [ -73.228243002815205, 46.112346407252311 ], [ -73.221692207971699, 46.114842821080785 ], [ -73.215308547236518, 46.112145127930752 ], [ -73.215476219220918, 46.106951400944212 ], [ -73.222026338317633, 46.104455330771593 ] ] ] } },
{ "type": "Feature", "properties": { "hex_id": 605703, "centroid_lon": -73.221357893756377, "centroid_lat": 46.125230290549709, "occurrences_today": 12, "datetimes_today": "2026-09-19 00:02:28, 2026-09-19 00:17:19, 2026-09-19 00:31:48, 2026-09-19 00:46:47, 2026-09-19 01:01:41, 2026-09-19 01:16:55, 2026-09-19 01:31:48, 2026-09-19 01:46:41, 2026-09-19 02:02:34, 2026-09-19 02:16:46, 2026-09-19 02:31:53, 2026-09-19 02:46:40", "cumulative_total": 90.0 }, "geometry": { "type": "Polygon", "coordinates": [ [ [ -73.22152507385556, 46.120036558420338 ], [ -73.227909948729476, 46.122733918145961 ], [ -73.227743352958385, 46.127927665782529 ], [ -73.221190667658519, 46.130424017468727 ], [ -73.214805254463045, 46.127726277609547 ], [ -73.214973064873305, 46.122532566263565 ], [ -73.22152507385556, 46.120036558420338 ] ] ] } },
{ "type": "Feature", "properties": { "hex_id": 606312, "centroid_lon": -73.215643845094817, "centroid_lat": 46.101757668744419, "occurrences_today": 12, "datetimes_today": "2026-09-19 00:02:28, 2026-09-19 00:17:19, 2026-09-19 00:31:48, 2026-09-19 00:46:47, 2026-09-19 01:01:41, 2026-09-19 01:16:55, 2026-09-19 01:31:48, 2026-09-19 01:46:41, 2026-09-19 02:02:34, 2026-09-19 02:16:46, 2026-09-19 02:31:53, 2026-09-19 02:46:40", "cumulative_total": 123.0 }, "geometry": { "type": "Polygon", "coordinates": [ [ [ -73.21581142487392, 46.096563931331509 ], [ -73.222193334578733, 46.099261577802245 ], [ -73.222026338317633, 46.104455330771593 ], [ -73.215476219220918, 46.106951400944212 ], [ -73.209093772100744, 46.104253374592751 ], [ -73.209261981476928, 46.099059658015193 ], [ -73.21581142487392, 46.096563931331509 ] ] ] } },
{ "type": "Feature", "properties": { "hex_id": 606313, "centroid_lon": -73.2151408291259, "centroid_lat": 46.117338849703913, "occurrences_today": 12, "datetimes_today": "2026-09-19 00:02:28, 2026-09-19 00:17:19, 2026-09-19 00:31:48, 2026-09-19 00:46:47, 2026-09-19 01:01:41, 2026-09-19 01:16:55, 2026-09-19 01:31:48, 2026-09-19 01:46:41, 2026-09-19 02:02:34, 2026-09-19 02:16:46, 2026-09-19 02:31:53, 2026-09-19 02:46:40", "cumulative_total": 90.0 }, "geometry": { "type": "Polygon", "coordinates": [ [ [ -73.215308547236518, 46.112145127930752 ], [ -73.221692207971699, 46.114842821080785 ], [ -73.22152507385556, 46.120036558420338 ], [ -73.214973064873305, 46.122532566263565 ], [ -73.208588866293468, 46.119834493025436 ], [ -73.20875721452478, 46.114640792098008 ], [ -73.215308547236518, 46.112145127930752 ] ] ] } },
{ "type": "Feature", "properties": { "hex_id": 606922, "centroid_lon": -73.209430144599622, "centroid_lat": 46.093865936221178, "occurrences_today": 12, "datetimes_today": "2026-09-19 00:02:28, 2026-09-19 00:17:19, 2026-09-19 00:31:48, 2026-09-19 00:46:47, 2026-09-19 01:01:41, 2026-09-19 01:16:55, 2026-09-19 01:31:48, 2026-09-19 01:46:41, 2026-09-19 02:02:34, 2026-09-19 02:16:46, 2026-09-19 02:31:53, 2026-09-19 02:46:40", "cumulative_total": 153.0 }, "geometry": { "type": "Polygon", "coordinates": [ [ [ -73.209598261484544, 46.088672209210863 ], [ -73.215978958573942, 46.091370188705604 ], [ -73.21581142487392, 46.096563931331509 ], [ -73.209261981476928, 46.099059658015193 ], [ -73.202880747448248, 46.096361298685224 ], [ -73.20304949374011, 46.091167592572546 ], [ -73.209598261484544, 46.088672209210863 ] ] ] } },
{ "type": "Feature", "properties": { "hex_id": 606923, "centroid_lon": -73.208925516455281, "centroid_lat": 46.109447085953747, "occurrences_today": 12, "datetimes_today": "2026-09-19 00:02:28, 2026-09-19 00:17:19, 2026-09-19 00:31:48, 2026-09-19 00:46:47, 2026-09-19 01:01:41, 2026-09-19 01:16:55, 2026-09-19 01:31:48, 2026-09-19 01:46:41, 2026-09-19 02:02:34, 2026-09-19 02:16:46, 2026-09-19 02:31:53, 2026-09-19 02:46:40", "cumulative_total": 82.0 }, "geometry": { "type": "Polygon", "coordinates": [ [ [ -73.209093772100744, 46.104253374592751 ], [ -73.215476219220918, 46.106951400944212 ], [ -73.215308547236518, 46.112145127930752 ], [ -73.20875721452478, 46.114640792098008 ], [ -73.202374230036497, 46.111942385703983 ], [ -73.202543115612272, 46.106748695251085 ], [ -73.209093772100744, 46.104253374592751 ] ] ] } },
{ "type": "Feature", "properties": { "hex_id": 607533, "centroid_lon": -73.20271195474426, "centroid_lat": 46.101554999578106, "occurrences_today": 12, "datetimes_today": "2026-09-19 00:02:28, 2026-09-19 00:17:19, 2026-09-19 00:31:48, 2026-09-19 00:46:47, 2026-09-19 01:01:41, 2026-09-19 01:16:55, 2026-09-19 01:31:48, 2026-09-19 01:46:41, 2026-09-19 02:02:34, 2026-09-19 02:16:46, 2026-09-19 02:31:53, 2026-09-19 02:46:40", "cumulative_total": 120.0 }, "geometry": { "type": "Polygon", "coordinates": [ [ [ -73.202880747448248, 46.096361298685224 ], [ -73.209261981476928, 46.099059658015193 ], [ -73.209093772100744, 46.104253374592751 ], [ -73.202543115612272, 46.106748695251085 ], [ -73.19616134469166, 46.104049955924047 ], [ -73.196330767135635, 46.098856276001541 ], [ -73.202880747448248, 46.096361298685224 ] ] ] } },
{ "type": "Feature", "properties": { "hex_id": 607534, "centroid_lon": -73.20220529800109, "centroid_lat": 46.117136070936702, "occurrences_today": 12, "datetimes_today": "2026-09-19 00:02:28, 2026-09-19 00:17:19, 2026-09-19 00:31:48, 2026-09-19 00:46:47, 2026-09-19 01:01:41, 2026-09-19 01:16:55, 2026-09-19 01:31:48, 2026-09-19 01:46:41, 2026-09-19 02:02:34, 2026-09-19 02:16:46, 2026-09-19 02:31:53, 2026-09-19 02:46:40", "cumulative_total": 82.0 }, "geometry": { "type": "Polygon", "coordinates": [ [ [ -73.202374230036497, 46.111942385703983 ], [ -73.20875721452478, 46.114640792098008 ], [ -73.208588866293468, 46.119834493025436 ], [ -73.20203631949019, 46.122329750949099 ], [ -73.195652797681205, 46.11963096435057 ], [ -73.19582235998034, 46.114437300098693 ], [ -73.202374230036497, 46.111942385703983 ] ] ] } },
{ "type": "Feature", "properties": { "hex_id": 608143, "centroid_lon": -73.196500142993003, "centroid_lat": 46.093662590855757, "occurrences_today": 12, "datetimes_today": "2026-09-19 00:02:28, 2026-09-19 00:17:19, 2026-09-19 00:31:48, 2026-09-19 00:46:47, 2026-09-19 01:01:41, 2026-09-19 01:16:55, 2026-09-19 01:31:48, 2026-09-19 01:46:41, 2026-09-19 02:02:34, 2026-09-19 02:16:46, 2026-09-19 02:31:53, 2026-09-19 02:46:40", "cumulative_total": 182.0 }, "geometry": { "type": "Polygon", "coordinates": [ [ [ -73.196669472279609, 46.088468900486845 ], [ -73.20304949374011, 46.091167592572546 ], [ -73.202880747448248, 46.096361298685224 ], [ -73.196330767135635, 46.098856276001541 ], [ -73.189950209259052, 46.09615720396436 ], [ -73.190120168095305, 46.090963534628095 ], [ -73.196669472279609, 46.088468900486845 ] ] ] } },
{ "type": "Feature", "properties": { "hex_id": 608144, "centroid_lon": -73.195991875645191, "centroid_lat": 46.109243630623148, "occurrences_today": 12, "datetimes_today": "2026-09-19 00:02:28, 2026-09-19 00:17:19, 2026-09-19 00:31:48, 2026-09-19 00:46:47, 2026-09-19 01:01:41, 2026-09-19 01:16:55, 2026-09-19 01:31:48, 2026-09-19 01:46:41, 2026-09-19 02:02:34, 2026-09-19 02:16:46, 2026-09-19 02:31:53, 2026-09-19 02:46:40", "cumulative_total": 82.0 }, "geometry": { "type": "Polygon", "coordinates": [ [ [ -73.19616134469166, 46.104049955924047 ], [ -73.202543115612272, 46.106748695251085 ], [ -73.202374230036497, 46.111942385703983 ], [ -73.19582235998034, 46.114437300098693 ], [ -73.18944005221536, 46.111738180612782 ], [ -73.189610151335017, 46.106544526956846 ], [ -73.19616134469166, 46.104049955924047 ] ] ] } },
{ "type": "Feature", "properties": { "hex_id": 608754, "centroid_lon": -73.1897802036776, "centroid_lat": 46.101350868073979, "occurrences_today": 12, "datetimes_today": "2026-09-19 00:02:28, 2026-09-19 00:17:19, 2026-09-19 00:31:48, 2026-09-19 00:46:47, 2026-09-19 01:01:41, 2026-09-19 01:16:55, 2026-09-19 01:31:48, 2026-09-19 01:46:41, 2026-09-19 02:02:34, 2026-09-19 02:16:46, 2026-09-19 02:31:53, 2026-09-19 02:46:40", "cumulative_total": 98.0 }, "geometry": { "type": "Polygon", "coordinates": [ [ [ -73.189950209259052, 46.09615720396436 ], [ -73.196330767135635, 46.098856276001541 ], [ -73.19616134469166, 46.104049955924047 ], [ -73.189610151335017, 46.106544526956846 ], [ -73.18322905709006, 46.10384507480638 ], [ -73.183399692554204, 46.098651431802182 ], [ -73.189950209259052, 46.09615720396436 ] ] ] } },
{ "type": "Feature", "properties": { "hex_id": 609364, "centroid_lon": -73.183570281098611, "centroid_lat": 46.093457783567835, "occurrences_today": 12, "datetimes_today": "2026-09-19 00:02:28, 2026-09-19 00:17:19, 2026-09-19 00:31:48, 2026-09-19 00:46:47, 2026-09-19 01:01:41, 2026-09-19 01:16:55, 2026-09-19 01:31:48, 2026-09-19 01:46:41, 2026-09-19 02:02:34, 2026-09-19 02:16:46, 2026-09-19 02:31:53, 2026-09-19 02:46:40", "cumulative_total": 248.0 }, "geometry": { "type": "Polygon", "coordinates": [ [ [ -73.183740822739296, 46.088264130103489 ], [ -73.190120168095305, 46.090963534628095 ], [ -73.189950209259052, 46.09615720396436 ], [ -73.183399692554204, 46.098651431802182 ], [ -73.17701981130547, 46.095951647209958 ], [ -73.177190982638351, 46.090758014913291 ], [ -73.183740822739296, 46.088264130103489 ] ] ] } },
{ "type": "Feature", "properties": { "hex_id": 609975, "centroid_lon": -73.176848592894359, "centroid_lat": 46.101145274273101, "occurrences_today": 12, "datetimes_today": "2026-09-19 00:02:28, 2026-09-19 00:17:19, 2026-09-19 00:31:48, 2026-09-19 00:46:47, 2026-09-19 01:01:41, 2026-09-19 01:16:55, 2026-09-19 01:31:48, 2026-09-19 01:46:41, 2026-09-19 02:02:34, 2026-09-19 02:16:46, 2026-09-19 02:31:53, 2026-09-19 02:46:40", "cumulative_total": 118.0 }, "geometry": { "type": "Polygon", "coordinates": [ [ [ -73.17701981130547, 46.095951647209958 ], [ -73.183399692554204, 46.098651431802182 ], [ -73.18322905709006, 46.10384507480638 ], [ -73.176677327388973, 46.106338896102585 ], [ -73.170296910295562, 46.103638731280959 ], [ -73.170468758731872, 46.098445125458326 ], [ -73.17701981130547, 46.095951647209958 ] ] ] } },
{ "type": "Feature", "properties": { "hex_id": 610585, "centroid_lon": -73.170640559915412, "centroid_lat": 46.093251514398617, "occurrences_today": 12, "datetimes_today": "2026-09-19 00:02:28, 2026-09-19 00:17:19, 2026-09-19 00:31:48, 2026-09-19 00:46:47, 2026-09-19 01:01:41, 2026-09-19 01:16:55, 2026-09-19 01:31:48, 2026-09-19 01:46:41, 2026-09-19 02:02:34, 2026-09-19 02:16:46, 2026-09-19 02:31:53, 2026-09-19 02:46:40", "cumulative_total": 207.0 }, "geometry": { "type": "Polygon", "coordinates": [ [ [ -73.170812313862243, 46.088057898101972 ], [ -73.177190982638351, 46.090758014913291 ], [ -73.17701981130547, 46.095951647209958 ], [ -73.170468758731872, 46.098445125458326 ], [ -73.164089554586539, 46.095744628463379 ], [ -73.164261938367929, 46.090551033469438 ], [ -73.170812313862243, 46.088057898101972 ] ] ] } },
{ "type": "Feature", "properties": { "hex_id": 651549, "centroid_lon": -72.698056956109923, "centroid_lat": 47.027793520621849, "occurrences_today": 8, "datetimes_today": "2026-09-19 00:02:28, 2026-09-19 00:17:19, 2026-09-19 00:31:48, 2026-09-19 00:46:47, 2026-09-19 01:01:41, 2026-09-19 01:16:55, 2026-09-19 01:31:48, 2026-09-19 01:46:41", "cumulative_total": 101.0 }, "geometry": { "type": "Polygon", "coordinates": [ [ [ -72.698280222822291, 47.022602303023625 ], [ -72.704743131815064, 47.025329942060161 ], [ -72.704520470452294, 47.030521180715006 ], [ -72.697833627251441, 47.032984732679871 ], [ -72.691370175066027, 47.030256696744765 ], [ -72.691594109252421, 47.025065505811249 ], [ -72.698280222822291, 47.022602303023625 ] ] ] } },
{ "type": "Feature", "properties": { "hex_id": 651550, "centroid_lon": -72.697386783009279, "centroid_lat": 47.043367140174404, "occurrences_today": 8, "datetimes_today": "2026-09-19 00:02:28, 2026-09-19 00:17:19, 2026-09-19 00:31:48, 2026-09-19 00:46:47, 2026-09-19 01:01:41, 2026-09-19 01:16:55, 2026-09-19 01:31:48, 2026-09-19 01:46:41", "cumulative_total": 101.0 }, "geometry": { "type": "Polygon", "coordinates": [ [ [ -72.697610236225117, 47.038175939197473 ], [ -72.704074961764476, 47.04090364141728 ], [ -72.703852114396113, 47.046094863464255 ], [ -72.697163267582184, 47.048558335610451 ], [ -72.690697998417477, 47.045830236274931 ], [ -72.690922119670333, 47.040639061976847 ], [ -72.697610236225117, 47.038175939197473 ] ] ] } },
{ "type": "Feature", "properties": { "hex_id": 652159, "centroid_lon": -72.691817981126846, "centroid_lat": 47.019874309333048, "occurrences_today": 8, "datetimes_today": "2026-09-19 00:02:28, 2026-09-19 00:17:19, 2026-09-19 00:31:48, 2026-09-19 00:46:47, 2026-09-19 01:01:41, 2026-09-19 01:16:55, 2026-09-19 01:31:48, 2026-09-19 01:46:41", "cumulative_total": 101.0 }, "geometry": { "type": "Polygon", "coordinates": [ [ [ -72.692041790711087, 47.014683107310418 ], [ -72.698503427410245, 47.017411079885441 ], [ -72.698280222822291, 47.022602303023625 ], [ -72.691594109252421, 47.025065505811249 ], [ -72.685131929858059, 47.022337136388529 ], [ -72.685356406707029, 47.017145961093753 ], [ -72.692041790711087, 47.014683107310418 ] ] ] } },
{ "type": "Feature", "properties": { "hex_id": 652160, "centroid_lon": -72.691146178545921, "centroid_lat": 47.035447882133369, "occurrences_today": 8, "datetimes_today": "2026-09-19 00:02:28, 2026-09-19 00:17:19, 2026-09-19 00:31:48, 2026-09-19 00:46:47, 2026-09-19 01:01:41, 2026-09-19 01:16:55, 2026-09-19 01:31:48, 2026-09-19 01:46:41", "cumulative_total": 101.0 }, "geometry": { "type": "Polygon", "coordinates": [ [ [ -72.691370175066027, 47.030256696744765 ], [ -72.697833627251441, 47.032984732679871 ], [ -72.697610236225117, 47.038175939197473 ], [ -72.690922119670333, 47.040639061976847 ], [ -72.684458124357505, 47.037910628976931 ], [ -72.684682788705103, 47.032719470330349 ], [ -72.691370175066027, 47.030256696744765 ] ] ] } },
{ "type": "Feature", "properties": { "hex_id": 652161, "centroid_lon": -72.690473814765568, "centroid_lat": 47.051021405027377, "occurrences_today": 8, "datetimes_today": "2026-09-19 00:02:28, 2026-09-19 00:17:19, 2026-09-19 00:31:48, 2026-09-19 00:46:47, 2026-09-19 01:01:41, 2026-09-19 01:16:55, 2026-09-19 01:31:48, 2026-09-19 01:46:41", "cumulative_total": 101.0 }, "geometry": { "type": "Polygon", "coordinates": [ [ [ -72.690697998417477, 47.045830236274931 ], [ -72.697163267582184, 47.048558335610451 ], [ -72.69693968992209, 47.053749525505353 ], [ -72.690249568692792, 47.056212568233988 ], [ -72.683783755968022, 47.05348407161641 ], [ -72.684008608010799, 47.048292929620189 ], [ -72.690697998417477, 47.045830236274931 ] ] ] } },
{ "type": "Feature", "properties": { "hex_id": 652769, "centroid_lon": -72.685580821100089, "centroid_lat": 47.011954780250072, "occurrences_today": 8, "datetimes_today": "2026-09-19 00:02:28, 2026-09-19 00:17:19, 2026-09-19 00:31:48, 2026-09-19 00:46:47, 2026-09-19 01:01:41, 2026-09-19 01:16:55, 2026-09-19 01:31:48, 2026-09-19 01:46:41", "cumulative_total": 101.0 }, "geometry": { "type": "Polygon", "coordinates": [ [ [ -72.685805173059009, 47.006763593857698 ], [ -72.692265538026831, 47.009491899743622 ], [ -72.692041790711087, 47.014683107310418 ], [ -72.685356406707029, 47.017145961093753 ], [ -72.678895499541071, 47.014417258411015 ], [ -72.679120518555493, 47.00922609880962 ], [ -72.685805173059009, 47.006763593857698 ] ] ] } },
{ "type": "Feature", "properties": { "hex_id": 652770, "centroid_lon": -72.684907390531365, "centroid_lat": 47.027528306134137, "occurrences_today": 8, "datetimes_today": "2026-09-19 00:02:28, 2026-09-19 00:17:19, 2026-09-19 00:31:48, 2026-09-19 00:46:47, 2026-09-19 01:01:41, 2026-09-19 01:16:55, 2026-09-19 01:31:48, 2026-09-19 01:46:41", "cumulative_total": 101.0 }, "geometry": { "type": "Polygon", "coordinates": [ [ [ -72.685131929858059, 47.022337136388529 ], [ -72.691594109252421, 47.025065505811249 ], [ -72.691370175066027, 47.030256696744765 ], [ -72.684682788705103, 47.032719470330349 ], [ -72.678220066680893, 47.029990703893752 ], [ -72.678445273625627, 47.024799560953333 ], [ -72.685131929858059, 47.022337136388529 ] ] ] } },
{ "type": "Feature", "properties": { "hex_id": 652771, "centroid_lon": -72.68423339746667, "centroid_lat": 47.043101782073613, "occurrences_today": 8, "datetimes_today": "2026-09-19 00:02:28, 2026-09-19 00:17:19, 2026-09-19 00:31:48, 2026-09-19 00:46:47, 2026-09-19 01:01:41, 2026-09-19 01:16:55, 2026-09-19 01:31:48, 2026-09-19 01:46:41", "cumulative_total": 101.0 }, "geometry": { "type": "Polygon", "coordinates": [ [ [ -72.684458124357505, 47.037910628976931 ], [ -72.690922119670333, 47.040639061976847 ], [ -72.690697998417477, 47.045830236274931 ], [ -72.684008608010799, 47.048292929620189 ], [ -72.677544069635985, 47.045564099389203 ], [ -72.677769464707978, 47.040372973111928 ], [ -72.684458124357505, 47.037910628976931 ] ] ] } },
{ "type": "Feature", "properties": { "hex_id": 653379, "centroid_lon": -72.679345474970177, "centroid_lat": 47.004034933655035, "occurrences_today": 8, "datetimes_today": "2026-09-19 00:02:28, 2026-09-19 00:17:19, 2026-09-19 00:31:48, 2026-09-19 00:46:47, 2026-09-19 01:01:41, 2026-09-19 01:16:55, 2026-09-19 01:31:48, 2026-09-19 01:46:41", "cumulative_total": 101.0 }, "geometry": { "type": "Polygon", "coordinates": [ [ [ -72.679570368807006, 46.99884376294753 ], [ -72.686029462605575, 47.001572401916874 ], [ -72.685805173059009, 47.006763593857698 ], [ -72.679120518555493, 47.00922609880962 ], [ -72.672660883055471, 47.006497063094379 ], [ -72.672886443738577, 47.001305919240906 ], [ -72.679570368807006, 46.99884376294753 ] ] ] } },
{ "type": "Feature", "properties": { "hex_id": 653380, "centroid_lon": -72.678670417905053, "centroid_lat": 47.019608412459, "occurrences_today": 8, "datetimes_today": "2026-09-19 00:02:28, 2026-09-19 00:17:19, 2026-09-19 00:31:48, 2026-09-19 00:46:47, 2026-09-19 01:01:41, 2026-09-19 01:16:55, 2026-09-19 01:31:48, 2026-09-19 01:46:41", "cumulative_total": 101.0 }, "geometry": { "type": "Polygon", "coordinates": [ [ [ -72.678895499541071, 47.014417258411015 ], [ -72.685356406707029, 47.017145961093753 ], [ -72.685131929858059, 47.022337136388529 ], [ -72.678445273625627, 47.024799560953333 ], [ -72.671983824326986, 47.022070461307685 ], [ -72.672209573371589, 47.016879334127999 ], [ -72.678895499541071, 47.014417258411015 ] ] ] } },
{ "type": "Feature", "properties": { "hex_id": 653381, "centroid_lon": -72.677994797048967, "centroid_lat": 47.035181841280028, "occurrences_today": 8, "datetimes_today": "2026-09-19 00:02:28, 2026-09-19 00:17:19, 2026-09-19 00:31:48, 2026-09-19 00:46:47, 2026-09-19 01:01:41, 2026-09-19 01:16:55, 2026-09-19 01:31:48, 2026-09-19 01:46:41", "cumulative_total": 101.0 }, "geometry": { "type": "Polygon", "coordinates": [ [ [ -72.678220066680893, 47.029990703893752 ], [ -72.684682788705103, 47.032719470330349 ], [ -72.684458124357505, 47.037910628976931 ], [ -72.677769464707978, 47.040372973111928 ], [ -72.67130620011946, 47.03764380949525 ], [ -72.671532137722878, 47.032452698991548 ], [ -72.678220066680893, 47.029990703893752 ] ] ] } },
{ "type": "Feature", "properties": { "hex_id": 653989, "centroid_lon": -72.673111941678343, "centroid_lat": 46.996114769830008, "occurrences_today": 8, "datetimes_today": "2026-09-19 00:02:28, 2026-09-19 00:17:19, 2026-09-19 00:31:48, 2026-09-19 00:46:47, 2026-09-19 01:01:41, 2026-09-19 01:16:55, 2026-09-19 01:31:48, 2026-09-19 01:46:41", "cumulative_total": 101.0 }, "geometry": { "type": "Polygon", "coordinates": [ [ [ -72.67333737689664, 46.990923614861906 ], [ -72.679795200087781, 46.993652586687318 ], [ -72.679570368807006, 46.99884376294753 ], [ -72.672886443738577, 47.001305919240906 ], [ -72.666428079342325, 46.99857655072055 ], [ -72.666654181197742, 46.993385422669554 ], [ -72.67333737689664, 46.990923614861906 ] ] ] } },
{ "type": "Feature", "properties": { "hex_id": 653990, "centroid_lon": -72.672435259607113, "centroid_lat": 47.011688201390157, "occurrences_today": 8, "datetimes_today": "2026-09-19 00:02:28, 2026-09-19 00:17:19, 2026-09-19 00:31:48, 2026-09-19 00:46:47, 2026-09-19 01:01:41, 2026-09-19 01:16:55, 2026-09-19 01:31:48, 2026-09-19 01:46:41", "cumulative_total": 101.0 }, "geometry": { "type": "Polygon", "coordinates": [ [ [ -72.672660883055471, 47.006497063094379 ], [ -72.679120518555493, 47.00922609880962 ], [ -72.678895499541071, 47.014417258411015 ], [ -72.672209573371589, 47.016879334127999 ], [ -72.665749396235739, 47.014149901500808 ], [ -72.665975686883286, 47.008958790136447 ], [ -72.672660883055471, 47.006497063094379 ] ] ] } },
{ "type": "Feature", "properties": { "hex_id": 653991, "centroid_lon": -72.671758012451406, "centroid_lat": 47.027261582928944, "occurrences_today": 8, "datetimes_today": "2026-09-19 00:02:28, 2026-09-19 00:17:19, 2026-09-19 00:31:48, 2026-09-19 00:46:47, 2026-09-19 01:01:41, 2026-09-19 01:16:55, 2026-09-19 01:31:48, 2026-09-19 01:46:41", "cumulative_total": 101.0 }, "geometry": { "type": "Polygon", "coordinates": [ [ [ -72.671983824326986, 47.022070461307685 ], [ -72.678445273625627, 47.024799560953333 ], [ -72.678220066680893, 47.029990703893752 ], [ -72.671532137722878, 47.032452698991548 ], [ -72.665070146357294, 47.029723202216843 ], [ -72.665296625994728, 47.024532107541269 ], [ -72.671983824326986, 47.022070461307685 ] ] ] } },
{ "type": "Feature", "properties": { "hex_id": 654599, "centroid_lon": -72.666880220166334, "centroid_lat": 46.988194289056835, "occurrences_today": 8, "datetimes_today": "2026-09-19 00:02:28, 2026-09-19 00:17:19, 2026-09-19 00:31:48, 2026-09-19 00:46:47, 2026-09-19 01:01:41, 2026-09-19 01:16:55, 2026-09-19 01:31:48, 2026-09-19 01:46:41", "cumulative_total": 101.0 }, "geometry": { "type": "Polygon", "coordinates": [ [ [ -72.667106196270041, 46.983003149882649 ], [ -72.673562749415325, 46.985732454336855 ], [ -72.67333737689664, 46.990923614861906 ], [ -72.666654181197742, 46.993385422669554 ], [ -72.660197087343292, 46.990655721571393 ], [ -72.660423729874964, 46.985464609377324 ], [ -72.667106196270041, 46.983003149882649 ] ] ] } },
{ "type": "Feature", "properties": { "hex_id": 654600, "centroid_lon": -72.666201914578153, "centroid_lat": 47.003767673209595, "occurrences_today": 8, "datetimes_today": "2026-09-19 00:02:28, 2026-09-19 00:17:19, 2026-09-19 00:31:48, 2026-09-19 00:46:47, 2026-09-19 01:01:41, 2026-09-19 01:16:55, 2026-09-19 01:31:48, 2026-09-19 01:46:41", "cumulative_total": 101.0 }, "geometry": { "type": "Polygon", "coordinates": [ [ [ -72.666428079342325, 46.99857655072055 ], [ -72.672886443738577, 47.001305919240906 ], [ -72.672660883055471, 47.006497063094379 ], [ -72.665975686883286, 47.008958790136447 ], [ -72.659516781347662, 47.006229024755164 ], [ -72.659743613101625, 47.001037929260548 ], [ -72.666428079342325, 46.99857655072055 ] ] ] } },
{ "type": "Feature", "properties": { "hex_id": 654601, "centroid_lon": -72.665523042613543, "centroid_lat": 47.019341007302515, "occurrences_today": 8, "datetimes_today": "2026-09-19 00:02:28, 2026-09-19 00:17:19, 2026-09-19 00:31:48, 2026-09-19 00:46:47, 2026-09-19 01:01:41, 2026-09-19 01:16:55, 2026-09-19 01:31:48, 2026-09-19 01:46:41", "cumulative_total": 101.0 }, "geometry": { "type": "Polygon", "coordinates": [ [ [ -72.665749396235739, 47.014149901500808 ], [ -72.672209573371589, 47.016879334127999 ], [ -72.671983824326986, 47.022070461307685 ], [ -72.665296625994728, 47.024532107541269 ], [ -72.658835907288918, 47.021802277836088 ], [ -72.659062928463342, 47.016611199043162 ], [ -72.665749396235739, 47.014149901500808 ] ] ] } },
{ "type": "Feature", "properties": { "hex_id": 655209, "centroid_lon": -72.660650309376521, "centroid_lat": 46.980273491617268, "occurrences_today": 8, "datetimes_today": "2026-09-19 00:02:28, 2026-09-19 00:17:19, 2026-09-19 00:31:48, 2026-09-19 00:46:47, 2026-09-19 01:01:41, 2026-09-19 01:16:55, 2026-09-19 01:31:48, 2026-09-19 01:46:41", "cumulative_total": 102.0 }, "geometry": { "type": "Polygon", "coordinates": [ [ [ -72.660876825869948, 46.975082368291453 ], [ -72.667332109530776, 46.977812005147243 ], [ -72.667106196270041, 46.983003149882649 ], [ -72.660423729874964, 46.985464609377324 ], [ -72.65396790600056, 46.982734575928568 ], [ -72.654195088712854, 46.977543479645846 ], [ -72.660876825869948, 46.975082368291453 ] ] ] } },
{ "type": "Feature", "properties": { "hex_id": 655210, "centroid_lon": -72.659970381759507, "centroid_lat": 46.995846828199227, "occurrences_today": 8, "datetimes_today": "2026-09-19 00:02:28, 2026-09-19 00:17:19, 2026-09-19 00:31:48, 2026-09-19 00:46:47, 2026-09-19 01:01:41, 2026-09-19 01:16:55, 2026-09-19 01:31:48, 2026-09-19 01:46:41", "cumulative_total": 114.0 }, "geometry": { "type": "Polygon", "coordinates": [ [ [ -72.660197087343292, 46.990655721571393 ], [ -72.666654181197742, 46.993385422669554 ], [ -72.666428079342325, 46.99857655072055 ], [ -72.659743613101625, 47.001037929260548 ], [ -72.653285978603904, 46.998307831352506 ], [ -72.65351335096814, 46.993116751782139 ], [ -72.660197087343292, 46.990655721571393 ] ] ] } },
{ "type": "Feature", "properties": { "hex_id": 655211, "centroid_lon": -72.659289886475577, "centroid_lat": 47.011420114682778, "occurrences_today": 8, "datetimes_today": "2026-09-19 00:02:28, 2026-09-19 00:17:19, 2026-09-19 00:31:48, 2026-09-19 00:46:47, 2026-09-19 01:01:41, 2026-09-19 01:16:55, 2026-09-19 01:31:48, 2026-09-19 01:46:41", "cumulative_total": 101.0 }, "geometry": { "type": "Polygon", "coordinates": [ [ [ -72.659516781347662, 47.006229024755164 ], [ -72.665975686883286, 47.008958790136447 ], [ -72.665749396235739, 47.014149901500808 ], [ -72.659062928463342, 47.016611199043162 ], [ -72.652603481854342, 47.013881036634942 ], [ -72.652831044069089, 47.008689973779163 ], [ -72.659516781347662, 47.006229024755164 ] ] ] } },
{ "type": "Feature", "properties": { "hex_id": 655819, "centroid_lon": -72.654422208251901, "centroid_lat": 46.972352377792866, "occurrences_today": 8, "datetimes_today": "2026-09-19 00:02:28, 2026-09-19 00:17:19, 2026-09-19 00:31:48, 2026-09-19 00:46:47, 2026-09-19 01:01:41, 2026-09-19 01:16:55, 2026-09-19 01:31:48, 2026-09-19 01:46:41", "cumulative_total": 101.0 }, "geometry": { "type": "Polygon", "coordinates": [ [ [ -72.65464926463973, 46.967161270369843 ], [ -72.661103279377201, 46.969891239400155 ], [ -72.660876825869948, 46.975082368291453 ], [ -72.654195088712854, 46.977543479645846 ], [ -72.647740534257025, 46.974813114073619 ], [ -72.647968256654622, 46.969622033756657 ], [ -72.65464926463973, 46.967161270369843 ] ] ] } },
{ "type": "Feature", "properties": { "hex_id": 655820, "centroid_lon": -72.653740660093007, "centroid_lat": 46.987925666640749, "occurrences_today": 8, "datetimes_today": "2026-09-19 00:02:28, 2026-09-19 00:17:19, 2026-09-19 00:31:48, 2026-09-19 00:46:47, 2026-09-19 01:01:41, 2026-09-19 01:16:55, 2026-09-19 01:31:48, 2026-09-19 01:46:41", "cumulative_total": 112.0 }, "geometry": { "type": "Polygon", "coordinates": [ [ [ -72.65396790600056, 46.982734575928568 ], [ -72.660423729874964, 46.985464609377324 ], [ -72.660197087343292, 46.990655721571393 ], [ -72.65351335096814, 46.993116751782139 ], [ -72.647056986946197, 46.990386321574562 ], [ -72.647284899424903, 46.985195257982838 ], [ -72.65396790600056, 46.982734575928568 ] ] ] } },
{ "type": "Feature", "properties": { "hex_id": 656430, "centroid_lon": -72.647512748521152, "centroid_lat": 46.980004188815769, "occurrences_today": 8, "datetimes_today": "2026-09-19 00:02:28, 2026-09-19 00:17:19, 2026-09-19 00:31:48, 2026-09-19 00:46:47, 2026-09-19 01:01:41, 2026-09-19 01:16:55, 2026-09-19 01:31:48, 2026-09-19 01:46:41", "cumulative_total": 102.0 }, "geometry": { "type": "Polygon", "coordinates": [ [ [ -72.647740534257025, 46.974813114073619 ], [ -72.654195088712854, 46.977543479645846 ], [ -72.65396790600056, 46.982734575928568 ], [ -72.647284899424903, 46.985195257982838 ], [ -72.640829805316898, 46.982464495702857 ], [ -72.641058257414642, 46.977273448144103 ], [ -72.647740534257025, 46.974813114073619 ] ] ] } },
{ "type": "Feature", "properties": { "hex_id": 573317, "centroid_lon": -73.576050203052219, "centroid_lat": 45.670310832966663, "occurrences_today": 2, "datetimes_today": "2026-09-19 00:02:28, 2026-09-19 00:17:19", "cumulative_total": 404.0 }, "geometry": { "type": "Polygon", "coordinates": [ [ [ -73.576181946070093, 45.665115785307989 ], [ -73.582533044418895, 45.66779312217367 ], [ -73.58240187669449, 45.672988181693007 ], [ -73.575918423984589, 45.675505875583923 ], [ -73.569566786398141, 45.672828167736085 ], [ -73.56969914074709, 45.667633137044369 ], [ -73.576181946070093, 45.665115785307989 ] ] ] } },
{ "type": "Feature", "properties": { "hex_id": 599596, "centroid_lon": -73.287013032247515, "centroid_lat": 46.095055305772185, "occurrences_today": 12, "datetimes_today": "2026-09-19 00:02:28, 2026-09-19 00:17:19, 2026-09-19 00:31:48, 2026-09-19 00:46:47, 2026-09-19 01:01:41, 2026-09-19 01:16:55, 2026-09-19 01:31:48, 2026-09-19 01:46:41, 2026-09-19 02:02:34, 2026-09-19 02:16:46, 2026-09-19 02:31:53, 2026-09-19 02:46:40", "cumulative_total": 130.0 }, "geometry": { "type": "Polygon", "coordinates": [ [ [ -73.287173873742077, 46.089861364440445 ], [ -73.293558614605416, 46.092555065204294 ], [ -73.293398357433404, 46.097749021381865 ], [ -73.286852146513709, 46.10024924192755 ], [ -73.280466865574624, 46.097555162028442 ], [ -73.280628335615916, 46.092361240784697 ], [ -73.287173873742077, 46.089861364440445 ] ] ] } },
{ "type": "Feature", "properties": { "hex_id": 241833, "centroid_lon": -77.071431785914442, "centroid_lat": 45.933225672466861, "occurrences_today": 4, "datetimes_today": "2026-09-19 01:31:48, 2026-09-19 01:46:41, 2026-09-19 02:02:34, 2026-09-19 02:16:46", "cumulative_total": 228.0 }, "geometry": { "type": "Polygon", "coordinates": [ [ [ -77.071238395774998, 45.928032658460111 ], [ -77.077780041407138, 45.930512117025778 ], [ -77.077974058842258, 45.935705107257775 ], [ -77.071625229126397, 45.93841868110043 ], [ -77.065082903117045, 45.935938884339329 ], [ -77.064890087218771, 45.930745851996292 ], [ -77.071238395774998, 45.928032658460111 ] ] ] } },
{ "type": "Feature", "properties": { "hex_id": 242443, "centroid_lon": -77.064697324219495, "centroid_lat": 45.925552814284082, "occurrences_today": 4, "datetimes_today": "2026-09-19 01:31:48, 2026-09-19 01:46:41, 2026-09-19 02:02:34, 2026-09-19 02:16:46", "cumulative_total": 228.0 }, "geometry": { "type": "Polygon", "coordinates": [ [ [ -77.064504614101281, 45.920359771202861 ], [ -77.071045058690089, 45.922839639080358 ], [ -77.071238395774998, 45.928032658460111 ], [ -77.064890087218771, 45.930745851996292 ], [ -77.058348962773252, 45.92826564594121 ], [ -77.058156826758605, 45.923072584592816 ], [ -77.064504614101281, 45.920359771202861 ] ] ] } },
{ "type": "Feature", "properties": { "hex_id": 243053, "centroid_lon": -77.057964743451592, "centroid_lat": 45.917879517879399, "occurrences_today": 4, "datetimes_today": "2026-09-19 01:31:48, 2026-09-19 01:46:41, 2026-09-19 02:02:34, 2026-09-19 02:16:46", "cumulative_total": 242.0 }, "geometry": { "type": "Polygon", "coordinates": [ [ [ -77.057772712834378, 45.91268644580115 ], [ -77.064311956846211, 45.915166722752851 ], [ -77.064504614101281, 45.920359771202861 ], [ -77.058156826758605, 45.923072584592816 ], [ -77.051616903410192, 45.920591969481436 ], [ -77.051425446758898, 45.915398879205078 ], [ -77.057772712834378, 45.91268644580115 ] ] ] } },
{ "type": "Feature", "properties": { "hex_id": 243054, "centroid_lon": -77.05854115151341, "centroid_lat": 45.933458701924387, "occurrences_today": 10, "datetimes_today": "2026-09-19 00:02:28, 2026-09-19 00:17:19, 2026-09-19 00:31:48, 2026-09-19 00:46:47, 2026-09-19 01:01:41, 2026-09-19 01:16:55, 2026-09-19 01:31:48, 2026-09-19 01:46:41, 2026-09-19 02:02:34, 2026-09-19 02:16:46", "cumulative_total": 244.0 }, "geometry": { "type": "Polygon", "coordinates": [ [ [ -77.058348962773252, 45.92826564594121 ], [ -77.064890087218771, 45.930745851996292 ], [ -77.065082903117045, 45.935938884339329 ], [ -77.058733392996999, 45.93865175254215 ], [ -77.052191588641008, 45.936171208143428 ], [ -77.051999974333427, 45.930978133950816 ], [ -77.058348962773252, 45.92826564594121 ] ] ] } },
{ "type": "Feature", "properties": { "hex_id": 243664, "centroid_lon": -77.051808412595761, "centroid_lat": 45.925785054396762, "occurrences_today": 4, "datetimes_today": "2026-09-19 01:31:48, 2026-09-19 01:46:41, 2026-09-19 02:02:34, 2026-09-19 02:16:46", "cumulative_total": 228.0 }, "geometry": { "type": "Polygon", "coordinates": [ [ [ -77.051616903410192, 45.920591969481436 ], [ -77.058156826758605, 45.923072584592816 ], [ -77.058348962773252, 45.92826564594121 ], [ -77.051999974333427, 45.930978133950816 ], [ -77.045459371594944, 45.928497180513752 ], [ -77.045268436704177, 45.923304077458063 ], [ -77.051616903410192, 45.920591969481436 ] ] ] } },
{ "type": "Feature", "properties": { "hex_id": 244274, "centroid_lon": -77.045077554192147, "centroid_lat": 45.918110969045088, "occurrences_today": 4, "datetimes_today": "2026-09-19 01:31:48, 2026-09-19 01:46:41, 2026-09-19 02:02:34, 2026-09-19 02:16:46", "cumulative_total": 228.0 }, "geometry": { "type": "Polygon", "coordinates": [ [ [ -77.044886724041064, 45.912917855274969 ], [ -77.051425446758898, 45.915398879205078 ], [ -77.051616903410192, 45.920591969481436 ], [ -77.045268436704177, 45.923304077458063 ], [ -77.038729035116276, 45.920822715220289 ], [ -77.038538779122192, 45.915629583378873 ], [ -77.044886724041064, 45.912917855274969 ] ] ] } },
{ "type": "Feature", "properties": { "hex_id": 244885, "centroid_lon": -77.03891934331574, "centroid_lat": 45.926015841708356, "occurrences_today": 4, "datetimes_today": "2026-09-19 01:31:48, 2026-09-19 01:46:41, 2026-09-19 02:02:34, 2026-09-19 02:16:46", "cumulative_total": 228.0 }, "geometry": { "type": "Polygon", "coordinates": [ [ [ -77.038729035116276, 45.920822715220289 ], [ -77.045268436704177, 45.923304077458063 ], [ -77.045459371594944, 45.928497180513752 ], [ -77.039109703738319, 45.931208962842845 ], [ -77.032569623227175, 45.928727262131382 ], [ -77.032379889513606, 45.923534117629792 ], [ -77.038729035116276, 45.920822715220289 ] ] ] } },
{ "type": "Feature", "properties": { "hex_id": 573305, "centroid_lon": -73.580770334346866, "centroid_lat": 45.483285941809314, "occurrences_today": 9, "datetimes_today": "2026-09-19 00:02:28, 2026-09-19 00:17:19, 2026-09-19 00:31:48, 2026-09-19 00:46:47, 2026-09-19 01:01:41, 2026-09-19 01:16:55, 2026-09-19 01:31:48, 2026-09-19 01:46:41, 2026-09-19 02:02:34", "cumulative_total": 332.0 }, "geometry": { "type": "Polygon", "coordinates": [ [ [ -73.580900787618177, 45.478090712715264 ], [ -73.587231278962719, 45.480767624318766 ], [ -73.587101395397752, 45.485962865180603 ], [ -73.580639845459416, 45.488481165864954 ], [ -73.574308820030609, 45.485803885699788 ], [ -73.574439878612466, 45.480608673476389 ], [ -73.580900787618177, 45.478090712715264 ] ] ] } },
{ "type": "Feature", "properties": { "hex_id": 154064, "centroid_lon": -78.126514904304315, "centroid_lat": 48.138279265795205, "occurrences_today": 11, "datetimes_today": "2026-09-19 00:17:19, 2026-09-19 00:31:48, 2026-09-19 00:46:47, 2026-09-19 01:01:41, 2026-09-19 01:16:55, 2026-09-19 01:31:48, 2026-09-19 01:46:41, 2026-09-19 02:02:34, 2026-09-19 02:16:46, 2026-09-19 02:31:53, 2026-09-19 02:46:40", "cumulative_total": 150.0 }, "geometry": { "type": "Polygon", "coordinates": [ [ [ -78.126199718332387, 48.133092601776049 ], [ -78.133067709534387, 48.135503027772693 ], [ -78.133383613951622, 48.140689655565225 ], [ -78.126830179348573, 48.143465923553855 ], [ -78.119961380612963, 48.141055144009499 ], [ -78.119646824046015, 48.135868450094691 ], [ -78.126199718332387, 48.133092601776049 ] ] ] } },
{ "type": "Feature", "properties": { "hex_id": 556829, "centroid_lon": -73.750884955545956, "centroid_lat": 45.602200969676659, "occurrences_today": 1, "datetimes_today": "2026-09-19 02:46:40", "cumulative_total": 13.0 }, "geometry": { "type": "Polygon", "coordinates": [ [ [ -73.751000251646857, 45.597005489385225 ], [ -73.757352259759372, 45.599673142294428 ], [ -73.757237539258313, 45.604868632696913 ], [ -73.750769627919709, 45.607396444994542 ], [ -73.744417075737985, 45.604728423610339 ], [ -73.744532978953487, 45.599532958468238 ], [ -73.751000251646857, 45.597005489385225 ] ] ] } },
{ "type": "Feature", "properties": { "hex_id": 554386, "centroid_lon": -73.776863587931942, "centroid_lat": 45.586891880192226, "occurrences_today": 1, "datetimes_today": "2026-09-19 02:46:40", "cumulative_total": 250.0 }, "geometry": { "type": "Polygon", "coordinates": [ [ [ -73.776976426289039, 45.581696335009809 ], [ -73.783327983328675, 45.584362545155685 ], [ -73.783215720457008, 45.589558100187986 ], [ -73.776750718726944, 45.592087420410422 ], [ -73.770398617054965, 45.589420842228847 ], [ -73.770512061735019, 45.584225311925273 ], [ -73.776976426289039, 45.581696335009809 ] ] ] } },
{ "type": "Feature", "properties": { "hex_id": 675952, "centroid_lon": -72.447698780589775, "centroid_lat": 46.757494678712447, "occurrences_today": 12, "datetimes_today": "2026-09-19 00:02:28, 2026-09-19 00:17:19, 2026-09-19 00:31:48, 2026-09-19 00:46:47, 2026-09-19 01:01:41, 2026-09-19 01:16:55, 2026-09-19 01:31:48, 2026-09-19 01:46:41, 2026-09-19 02:02:34, 2026-09-19 02:16:46, 2026-09-19 02:31:53, 2026-09-19 02:46:40", "cumulative_total": 32.0 }, "geometry": { "type": "Polygon", "coordinates": [ [ [ -72.447943988868104, 46.752304177741131 ], [ -72.45436177056807, 46.755045192378809 ], [ -72.454117155113067, 46.760235716775853 ], [ -72.447453504319682, 46.76268517396533 ], [ -72.44103519779992, 46.759943763836809 ], [ -72.441281066869792, 46.754753292076778 ], [ -72.447943988868104, 46.752304177741131 ] ] ] } },
{ "type": "Feature", "properties": { "hex_id": 554997, "centroid_lon": -73.770285141360361, "centroid_lat": 45.594616367565898, "occurrences_today": 1, "datetimes_today": "2026-09-19 02:46:40", "cumulative_total": 303.0 }, "geometry": { "type": "Polygon", "coordinates": [ [ [ -73.770398617054965, 45.589420842228847 ], [ -73.776750718726944, 45.592087420410422 ], [ -73.776637818663659, 45.597282955664326 ], [ -73.770171634640789, 45.59981188793639 ], [ -73.763818988367689, 45.597144941559044 ], [ -73.763933070708134, 45.591949431170136 ], [ -73.770398617054965, 45.589420842228847 ] ] ] } },
{ "type": "Feature", "properties": { "hex_id": 555608, "centroid_lon": -73.763704874835511, "centroid_lat": 45.602340446979049, "occurrences_today": 1, "datetimes_today": "2026-09-19 02:46:40", "cumulative_total": 112.0 }, "geometry": { "type": "Polygon", "coordinates": [ [ [ -73.763818988367689, 45.597144941559044 ], [ -73.770171634640789, 45.59981188793639 ], [ -73.770058096885805, 45.605007403340224 ], [ -73.763590730101143, 45.607535947430115 ], [ -73.757237539258313, 45.604868632696913 ], [ -73.757352259759372, 45.599673142294428 ], [ -73.763818988367689, 45.597144941559044 ] ] ] } },
{ "type": "Feature", "properties": { "hex_id": 556218, "centroid_lon": -73.757466948901921, "centroid_lat": 45.594477646920723, "occurrences_today": 1, "datetimes_today": "2026-09-19 02:46:40", "cumulative_total": 168.0 }, "geometry": { "type": "Polygon", "coordinates": [ [ [ -73.757581606696519, 45.589282146575876 ], [ -73.763933070708134, 45.591949431170136 ], [ -73.763818988367689, 45.597144941559044 ], [ -73.757352259759372, 45.599673142294428 ], [ -73.751000251646857, 45.597005489385225 ], [ -73.751115516233, 45.591810004120298 ], [ -73.757581606696519, 45.589282146575876 ] ] ] } },
{ "type": "Feature", "properties": { "hex_id": 364510, "centroid_lon": -75.768112766051956, "centroid_lat": 45.427158534754952, "occurrences_today": 12, "datetimes_today": "2026-09-19 00:02:28, 2026-09-19 00:17:19, 2026-09-19 00:31:48, 2026-09-19 00:46:47, 2026-09-19 01:01:41, 2026-09-19 01:16:55, 2026-09-19 01:31:48, 2026-09-19 01:46:41, 2026-09-19 02:02:34, 2026-09-19 02:16:46, 2026-09-19 02:31:53, 2026-09-19 02:46:40", "cumulative_total": 252.0 }, "geometry": { "type": "Polygon", "coordinates": [ [ [ -75.768042295285071, 45.421962125424606 ], [ -75.774468268732051, 45.424517176333396 ], [ -75.774539335398913, 45.429713575470238 ], [ -75.76818325604988, 45.432354939251717 ], [ -75.76175666746866, 45.429799542156992 ], [ -75.76168677337715, 45.424603127531164 ], [ -75.768042295285071, 45.421962125424606 ] ] ] } },
{ "type": "Feature", "properties": { "hex_id": 736350, "centroid_lon": -71.838040277804197, "centroid_lat": 46.095315285590566, "occurrences_today": 5, "datetimes_today": "2026-09-19 00:02:28, 2026-09-19 00:17:19, 2026-09-19 00:31:48, 2026-09-19 00:46:47, 2026-09-19 01:01:41", "cumulative_total": 24.0 }, "geometry": { "type": "Polygon", "coordinates": [ [ [ -71.838337067857012, 46.090126941284154 ], [ -71.84464691718388, 46.092899756795511 ], [ -71.844350690204863, 46.098088130158274 ], [ -71.837743406207309, 46.100503623683672 ], [ -71.831433075364572, 46.097730416243564 ], [ -71.831730510007532, 46.092542107272081 ], [ -71.838337067857012, 46.090126941284154 ] ] ] } },
{ "type": "Feature", "properties": { "hex_id": 736960, "centroid_lon": -71.832027862955158, "centroid_lat": 46.087353792081544, "occurrences_today": 5, "datetimes_today": "2026-09-19 00:02:28, 2026-09-19 00:17:19, 2026-09-19 00:31:48, 2026-09-19 00:46:47, 2026-09-19 01:01:41", "cumulative_total": 24.0 }, "geometry": { "type": "Polygon", "coordinates": [ [ [ -71.832325134235205, 46.082165470672493 ], [ -71.838633776393522, 46.084938590764928 ], [ -71.838337067857012, 46.090126941284154 ], [ -71.831730510007532, 46.092542107272081 ], [ -71.825421386787113, 46.089768595305436 ], [ -71.825719302450509, 46.08458030929031 ], [ -71.832325134235205, 46.082165470672493 ] ] ] } },
{ "type": "Feature", "properties": { "hex_id": 737570, "centroid_lon": -71.826017136295164, "centroid_lat": 46.079392017050914, "occurrences_today": 5, "datetimes_today": "2026-09-19 00:02:28, 2026-09-19 00:17:19, 2026-09-19 00:31:48, 2026-09-19 00:46:47, 2026-09-19 01:01:41", "cumulative_total": 24.0 }, "geometry": { "type": "Polygon", "coordinates": [ [ [ -71.82631488834889, 46.074203718587739 ], [ -71.832622323875455, 46.076977143045418 ], [ -71.832325134235205, 46.082165470672493 ], [ -71.825719302450509, 46.08458030929031 ], [ -71.819411386315295, 46.08180649301304 ], [ -71.819709782545601, 46.076618230002786 ], [ -71.82631488834889, 46.074203718587739 ] ] ] } },
{ "type": "Feature", "properties": { "hex_id": 737571, "centroid_lon": -71.825123389277152, "centroid_lat": 46.094956875095775, "occurrences_today": 5, "datetimes_today": "2026-09-19 00:02:28, 2026-09-19 00:17:19, 2026-09-19 00:31:48, 2026-09-19 00:46:47, 2026-09-19 01:01:41", "cumulative_total": 24.0 }, "geometry": { "type": "Polygon", "coordinates": [ [ [ -71.825421386787113, 46.089768595305436 ], [ -71.831730510007532, 46.092542107272081 ], [ -71.831433075364572, 46.097730416243564 ], [ -71.824825309892759, 46.100145148660829 ], [ -71.818515705693684, 46.097371244661623 ], [ -71.818814347917211, 46.092183000342985 ], [ -71.825421386787113, 46.089768595305436 ] ] ] } },
{ "type": "Feature", "properties": { "hex_id": 738180, "centroid_lon": -71.820008096833931, "centroid_lat": 46.071429960762998, "occurrences_today": 5, "datetimes_today": "2026-09-19 00:02:28, 2026-09-19 00:17:19, 2026-09-19 00:31:48, 2026-09-19 00:46:47, 2026-09-19 01:01:41", "cumulative_total": 24.0 }, "geometry": { "type": "Polygon", "coordinates": [ [ [ -71.820306329208108, 46.066241685294223 ], [ -71.826612558639496, 46.069015413901319 ], [ -71.82631488834889, 46.074203718587739 ], [ -71.819709782545601, 46.076618230002786 ], [ -71.813403072958707, 46.073844109630691 ], [ -71.813701949302768, 46.068655869673755 ], [ -71.820306329208108, 46.066241685294223 ] ] ] } },
{ "type": "Feature", "properties": { "hex_id": 738181, "centroid_lon": -71.81911290811513, "centroid_lat": 46.086994749793277, "occurrences_today": 5, "datetimes_today": "2026-09-19 00:02:28, 2026-09-19 00:17:19, 2026-09-19 00:31:48, 2026-09-19 00:46:47, 2026-09-19 01:01:41", "cumulative_total": 24.0 }, "geometry": { "type": "Polygon", "coordinates": [ [ [ -71.819411386315295, 46.08180649301304 ], [ -71.825719302450509, 46.08458030929031 ], [ -71.825421386787113, 46.089768595305436 ], [ -71.818814347917211, 46.092183000342985 ], [ -71.812505951256909, 46.089408792087809 ], [ -71.812805073963702, 46.084220570838227 ], [ -71.819411386315295, 46.08180649301304 ] ] ] } },
{ "type": "Feature", "properties": { "hex_id": 738791, "centroid_lon": -71.81310411452165, "centroid_lat": 46.079032343352374, "occurrences_today": 5, "datetimes_today": "2026-09-19 00:02:28, 2026-09-19 00:17:19, 2026-09-19 00:31:48, 2026-09-19 00:46:47, 2026-09-19 01:01:41", "cumulative_total": 24.0 }, "geometry": { "type": "Polygon", "coordinates": [ [ [ -71.813403072958707, 46.073844109630691 ], [ -71.819709782545601, 46.076618230002786 ], [ -71.819411386315295, 46.08180649301304 ], [ -71.812805073963702, 46.084220570838227 ], [ -71.806497884304932, 46.081446058542916 ], [ -71.806797487041706, 46.076257860410863 ], [ -71.813403072958707, 46.073844109630691 ] ] ] } },
{ "type": "Feature", "properties": { "hex_id": 739401, "centroid_lon": -71.80709700750657, "centroid_lat": 46.071069656037238, "occurrences_today": 5, "datetimes_today": "2026-09-19 00:02:28, 2026-09-19 00:17:19, 2026-09-19 00:31:48, 2026-09-19 00:46:47, 2026-09-19 01:01:41", "cumulative_total": 33.0 }, "geometry": { "type": "Polygon", "coordinates": [ [ [ -71.807396445727505, 46.065881445422569 ], [ -71.813701949302768, 46.068655869673755 ], [ -71.813403072958707, 46.073844109630691 ], [ -71.806797487041706, 46.076257860410863 ], [ -71.800491503847482, 46.073483044291123 ], [ -71.800791586161296, 46.068294869324966 ], [ -71.807396445727505, 46.065881445422569 ] ] ] } },
{ "type": "Feature", "properties": { "hex_id": 554387, "centroid_lon": -73.776524887731711, "centroid_lat": 45.602478485953903, "occurrences_today": 1, "datetimes_today": "2026-09-19 02:46:40", "cumulative_total": 307.0 }, "geometry": { "type": "Polygon", "coordinates": [ [ [ -73.776637818663659, 45.597282955664326 ], [ -73.782991102628429, 45.599949195366577 ], [ -73.782878747650855, 45.605144735512738 ], [ -73.776411925920712, 45.60767401127908 ], [ -73.770058096885805, 45.605007403340224 ], [ -73.770171634640789, 45.59981188793639 ], [ -73.776637818663659, 45.597282955664326 ] ] ] } },
{ "type": "Feature", "properties": { "hex_id": 154674, "centroid_lon": -78.119332356345808, "centroid_lat": 48.130681749926204, "occurrences_today": 11, "datetimes_today": "2026-09-19 00:17:19, 2026-09-19 00:31:48, 2026-09-19 00:46:47, 2026-09-19 01:01:41, 2026-09-19 01:16:55, 2026-09-19 01:31:48, 2026-09-19 01:46:41, 2026-09-19 02:02:34, 2026-09-19 02:16:46, 2026-09-19 02:31:53, 2026-09-19 02:46:40", "cumulative_total": 39.0 }, "geometry": { "type": "Polygon", "coordinates": [ [ [ -78.119017977480397, 48.125495043504529 ], [ -78.125884621400772, 48.127905931496862 ], [ -78.126199718332387, 48.133092601776049 ], [ -78.119646824046015, 48.135868450094691 ], [ -78.112779373208681, 48.133457208564813 ], [ -78.112465623606582, 48.12827047232426 ], [ -78.119017977480397, 48.125495043504529 ] ] ] } },
{ "type": "Feature", "properties": { "hex_id": 154675, "centroid_lon": -78.120276026078557, "centroid_lat": 48.146241831670153, "occurrences_today": 11, "datetimes_today": "2026-09-19 00:17:19, 2026-09-19 00:31:48, 2026-09-19 00:46:47, 2026-09-19 01:01:41, 2026-09-19 01:16:55, 2026-09-19 01:31:48, 2026-09-19 01:46:41, 2026-09-19 02:02:34, 2026-09-19 02:16:46, 2026-09-19 02:31:53, 2026-09-19 02:46:40", "cumulative_total": 59.0 }, "geometry": { "type": "Polygon", "coordinates": [ [ [ -78.119961380612963, 48.141055144009499 ], [ -78.126830179348573, 48.143465923553855 ], [ -78.12714554349715, 48.148652575051464 ], [ -78.120590760474784, 48.151428513076141 ], [ -78.113721154109584, 48.149017379803446 ], [ -78.113407138428286, 48.143830662304886 ], [ -78.119961380612963, 48.141055144009499 ] ] ] } },
{ "type": "Feature", "properties": { "hex_id": 155285, "centroid_lon": -78.113093211471949, "centroid_lat": 48.138643938558502, "occurrences_today": 11, "datetimes_today": "2026-09-19 00:17:19, 2026-09-19 00:31:48, 2026-09-19 00:46:47, 2026-09-19 01:01:41, 2026-09-19 01:16:55, 2026-09-19 01:31:48, 2026-09-19 01:46:41, 2026-09-19 02:02:34, 2026-09-19 02:16:46, 2026-09-19 02:31:53, 2026-09-19 02:46:40", "cumulative_total": 45.0 }, "geometry": { "type": "Polygon", "coordinates": [ [ [ -78.112779373208681, 48.133457208564813 ], [ -78.119646824046015, 48.135868450094691 ], [ -78.119961380612963, 48.141055144009499 ], [ -78.113407138428286, 48.143830662304886 ], [ -78.106538880578285, 48.141419067056873 ], [ -78.106225671957475, 48.136232307302066 ], [ -78.112779373208681, 48.133457208564813 ] ] ] } },
{ "type": "Feature", "properties": { "hex_id": 155896, "centroid_lon": -78.106852177718423, "centroid_lat": 48.146605820570691, "occurrences_today": 11, "datetimes_today": "2026-09-19 00:17:19, 2026-09-19 00:31:48, 2026-09-19 00:46:47, 2026-09-19 01:01:41, 2026-09-19 01:16:55, 2026-09-19 01:31:48, 2026-09-19 01:46:41, 2026-09-19 02:02:34, 2026-09-19 02:16:46, 2026-09-19 02:31:53, 2026-09-19 02:46:40", "cumulative_total": 38.0 }, "geometry": { "type": "Polygon", "coordinates": [ [ [ -78.106538880578285, 48.141419067056873 ], [ -78.113407138428286, 48.143830662304886 ], [ -78.113721154109584, 48.149017379803446 ], [ -78.107165563409723, 48.15179256784301 ], [ -78.100296498451499, 48.14938061869622 ], [ -78.099983831333191, 48.144193835479108 ], [ -78.106538880578285, 48.141419067056873 ] ] ] } },
{ "type": "Feature", "properties": { "hex_id": 555607, "centroid_lon": -73.76404712186735, "centroid_lat": 45.586753915812416, "occurrences_today": 1, "datetimes_today": "2026-09-19 02:46:40", "cumulative_total": 23.0 }, "geometry": { "type": "Polygon", "coordinates": [ [ [ -73.764161141855837, 45.581558395485899 ], [ -73.770512061735019, 45.584225311925273 ], [ -73.770398617054965, 45.589420842228847 ], [ -73.763933070708134, 45.591949431170136 ], [ -73.757581606696519, 45.589282146575876 ], [ -73.757696233153681, 45.584086641259937 ], [ -73.764161141855837, 45.581558395485899 ] ] ] } },
{ "type": "Feature", "properties": { "hex_id": 792570, "centroid_lon": -71.185769096223467, "centroid_lat": 46.91721775388983, "occurrences_today": 11, "datetimes_today": "2026-09-19 00:17:19, 2026-09-19 00:31:48, 2026-09-19 00:46:47, 2026-09-19 01:01:41, 2026-09-19 01:16:55, 2026-09-19 01:31:48, 2026-09-19 01:46:41, 2026-09-19 02:02:34, 2026-09-19 02:16:46, 2026-09-19 02:31:53, 2026-09-19 02:46:40", "cumulative_total": 19.0 }, "geometry": { "type": "Polygon", "coordinates": [ [ [ -71.186137442269555, 46.912033761213223 ], [ -71.192505037991253, 46.914844159416809 ], [ -71.192137269931607, 46.920028187974268 ], [ -71.185400647947304, 46.922401739631368 ], [ -71.179032576487032, 46.919590933050003 ], [ -71.179401602714108, 46.9144069832562 ], [ -71.186137442269555, 46.912033761213223 ] ] ] } },
{ "type": "Feature", "properties": { "hex_id": 1643672, "centroid_lon": -61.94290702157852, "centroid_lat": 47.244237590696081, "occurrences_today": 2, "datetimes_today": "2026-09-19 02:31:53, 2026-09-19 02:46:40", "cumulative_total": 34.0 }, "geometry": { "type": "Polygon", "coordinates": [ [ [ -61.944172425485796, 47.239176868698749 ], [ -61.949975448220563, 47.242453363427579 ], [ -61.948710452165088, 47.2475142015778 ], [ -61.941641273263706, 47.2492982823142 ], [ -61.935838187142764, 47.246021326365501 ], [ -61.937104343193184, 47.240960750956283 ], [ -61.944172425485796, 47.239176868698749 ] ] ] } },
{ "type": "Feature", "properties": { "hex_id": 1644893, "centroid_lon": -61.930035853310216, "centroid_lat": 47.242744141629601, "occurrences_today": 2, "datetimes_today": "2026-09-19 02:31:53, 2026-09-19 02:46:40", "cumulative_total": 19.0 }, "geometry": { "type": "Polygon", "coordinates": [ [ [ -61.931302416892898, 47.237683682465871 ], [ -61.937104343193184, 47.240960750956283 ], [ -61.935838187142764, 47.246021326365501 ], [ -61.928768945029525, 47.247804570365766 ], [ -61.922966955953129, 47.244527040648684 ], [ -61.924234271649787, 47.239466728213984 ], [ -61.931302416892898, 47.237683682465871 ] ] ] } },
{ "type": "Feature", "properties": { "hex_id": 637460, "centroid_lon": -72.878443514075371, "centroid_lat": 46.290856158862226, "occurrences_today": 11, "datetimes_today": "2026-09-19 00:02:28, 2026-09-19 00:17:19, 2026-09-19 00:31:48, 2026-09-19 00:46:47, 2026-09-19 01:01:41, 2026-09-19 01:16:55, 2026-09-19 01:31:48, 2026-09-19 01:46:41, 2026-09-19 02:02:34, 2026-09-19 02:16:46, 2026-09-19 02:31:53", "cumulative_total": 47.0 }, "geometry": { "type": "Polygon", "coordinates": [ [ [ -72.878644067464052, 46.285663637614206 ], [ -72.885030405350136, 46.288380122471942 ], [ -72.884830436504501, 46.293572662684014 ], [ -72.878242905399759, 46.296048674700721 ], [ -72.871856038267055, 46.293331804412936 ], [ -72.872057231466769, 46.288139307604638 ], [ -72.878644067464052, 46.285663637614206 ] ] ] } },
{ "type": "Feature", "properties": { "hex_id": 638681, "centroid_lon": -72.865469811113798, "centroid_lat": 46.290614586729539, "occurrences_today": 11, "datetimes_today": "2026-09-19 00:02:28, 2026-09-19 00:17:19, 2026-09-19 00:31:48, 2026-09-19 00:46:47, 2026-09-19 01:01:41, 2026-09-19 01:16:55, 2026-09-19 01:31:48, 2026-09-19 01:46:41, 2026-09-19 02:02:34, 2026-09-19 02:16:46, 2026-09-19 02:31:53", "cumulative_total": 80.0 }, "geometry": { "type": "Polygon", "coordinates": [ [ [ -72.865671588659708, 46.285422109013588 ], [ -72.872057231466769, 46.288139307604638 ], [ -72.871856038267055, 46.293331804412936 ], [ -72.865267977944129, 46.295807059027815 ], [ -72.858881806424179, 46.293089474892675 ], [ -72.859084223921016, 46.287897021752883 ], [ -72.865671588659708, 46.285422109013588 ] ] ] } },
{ "type": "Feature", "properties": { "hex_id": 639292, "centroid_lon": -72.858679333125622, "centroid_lat": 46.298281922610578, "occurrences_today": 11, "datetimes_today": "2026-09-19 00:02:28, 2026-09-19 00:17:19, 2026-09-19 00:31:48, 2026-09-19 00:46:47, 2026-09-19 01:01:41, 2026-09-19 01:16:55, 2026-09-19 01:31:48, 2026-09-19 01:46:41, 2026-09-19 02:02:34, 2026-09-19 02:16:46, 2026-09-19 02:31:53", "cumulative_total": 27.0 }, "geometry": { "type": "Polygon", "coordinates": [ [ [ -72.858881806424179, 46.293089474892675 ], [ -72.865267977944129, 46.295807059027815 ], [ -72.865066089131616, 46.300999525908232 ], [ -72.858476804006216, 46.303474364906442 ], [ -72.852090103830619, 46.300756395064994 ], [ -72.852293217416957, 46.295563971997787 ], [ -72.858881806424179, 46.293089474892675 ] ] ] } },
{ "type": "Feature", "properties": { "hex_id": 640513, "centroid_lon": -72.845704044111301, "centroid_lat": 46.298038077948618, "occurrences_today": 11, "datetimes_today": "2026-09-19 00:02:28, 2026-09-19 00:17:19, 2026-09-19 00:31:48, 2026-09-19 00:46:47, 2026-09-19 01:01:41, 2026-09-19 01:16:55, 2026-09-19 01:31:48, 2026-09-19 01:46:41, 2026-09-19 02:02:34, 2026-09-19 02:16:46, 2026-09-19 02:31:53", "cumulative_total": 32.0 }, "geometry": { "type": "Polygon", "coordinates": [ [ [ -72.845907741986494, 46.292845674172192 ], [ -72.852293217416957, 46.295563971997787 ], [ -72.852090103830619, 46.300756395064994 ], [ -72.845500290078277, 46.303230476294758 ], [ -72.839114286526367, 46.300511792648969 ], [ -72.839318624829005, 46.29531941365974 ], [ -72.845907741986494, 46.292845674172192 ] ] ] } },
{ "type": "Feature", "properties": { "hex_id": 791960, "centroid_lon": -71.191769399797622, "centroid_lat": 46.925212209603764, "occurrences_today": 11, "datetimes_today": "2026-09-19 00:17:19, 2026-09-19 00:31:48, 2026-09-19 00:46:47, 2026-09-19 01:01:41, 2026-09-19 01:16:55, 2026-09-19 01:31:48, 2026-09-19 01:46:41, 2026-09-19 02:02:34, 2026-09-19 02:16:46, 2026-09-19 02:31:53, 2026-09-19 02:46:40", "cumulative_total": 13.0 }, "geometry": { "type": "Polygon", "coordinates": [ [ [ -71.192137269931607, 46.920028187974268 ], [ -71.198506123873969, 46.922838285403166 ], [ -71.198138832073482, 46.928022342860856 ], [ -71.191401427553899, 46.930396224304559 ], [ -71.185032097405553, 46.927585718437051 ], [ -71.185400647947304, 46.922401739631368 ], [ -71.192137269931607, 46.920028187974268 ] ] ] } },
{ "type": "Feature", "properties": { "hex_id": 1641230, "centroid_lon": -61.968652456910824, "centroid_lat": 47.247220256929275, "occurrences_today": 2, "datetimes_today": "2026-09-19 02:31:53, 2026-09-19 02:46:40", "cumulative_total": 7.0 }, "geometry": { "type": "Polygon", "coordinates": [ [ [ -61.969915540421994, 47.242159009965448 ], [ -61.975720755240559, 47.24543435637915 ], [ -61.974458080220174, 47.250495719310521 ], [ -61.967389029573553, 47.252281473610545 ], [ -61.961583750148314, 47.24900566599095 ], [ -61.962847585860359, 47.243944565333308 ], [ -61.969915540421994, 47.242159009965448 ] ] ] } },
{ "type": "Feature", "properties": { "hex_id": 1642451, "centroid_lon": -61.955779223069364, "centroid_lat": 47.245729629227462, "occurrences_today": 2, "datetimes_today": "2026-09-19 02:31:53, 2026-09-19 02:46:40", "cumulative_total": 10.0 }, "geometry": { "type": "Polygon", "coordinates": [ [ [ -61.957043466952726, 47.24066864463007 ], [ -61.962847585860359, 47.243944565333308 ], [ -61.961583750148314, 47.24900566599095 ], [ -61.954514635069103, 47.250790583493981 ], [ -61.948710452165088, 47.2475142015778 ], [ -61.949975448220563, 47.242453363427579 ], [ -61.957043466952726, 47.24066864463007 ] ] ] } },
{ "type": "Feature", "properties": { "hex_id": 1643061, "centroid_lon": -61.951240100071871, "centroid_lat": 47.237392494927022, "occurrences_today": 2, "datetimes_today": "2026-09-19 02:31:53, 2026-09-19 02:46:40", "cumulative_total": 7.0 }, "geometry": { "type": "Polygon", "coordinates": [ [ [ -61.952504407835129, 47.232331596085515 ], [ -61.958307366835292, 47.235607629711183 ], [ -61.957043466952726, 47.24066864463007 ], [ -61.949975448220563, 47.242453363427579 ], [ -61.944172425485796, 47.239176868698749 ], [ -61.945437485101735, 47.234116116331599 ], [ -61.952504407835129, 47.232331596085515 ] ] ] } },
{ "type": "Feature", "properties": { "hex_id": 1644282, "centroid_lon": -61.938370154748952, "centroid_lat": 47.235900145148392, "occurrences_today": 2, "datetimes_today": "2026-09-19 02:31:53, 2026-09-19 02:46:40", "cumulative_total": 12.0 }, "geometry": { "type": "Polygon", "coordinates": [ [ [ -61.939635621926222, 47.230839508951206 ], [ -61.945437485101735, 47.234116116331599 ], [ -61.944172425485796, 47.239176868698749 ], [ -61.937104343193184, 47.240960750956283 ], [ -61.931302416892898, 47.237683682465871 ], [ -61.932568635893837, 47.232623192883942 ], [ -61.939635621926222, 47.230839508951206 ] ] ] } },
{ "type": "Feature", "properties": { "hex_id": 1645503, "centroid_lon": -61.925501242561417, "centroid_lat": 47.234406385332214, "occurrences_today": 2, "datetimes_today": "2026-09-19 02:31:53, 2026-09-19 02:46:40", "cumulative_total": 10.0 }, "geometry": { "type": "Polygon", "coordinates": [ [ [ -61.926767868804305, 47.229346012012776 ], [ -61.932568635893837, 47.232623192883942 ], [ -61.931302416892898, 47.237683682465871 ], [ -61.924234271649787, 47.239466728213984 ], [ -61.918433442045185, 47.236189086226041 ], [ -61.919700820082511, 47.231128859662732 ], [ -61.926767868804305, 47.229346012012776 ] ] ] } },
{ "type": "Feature", "properties": { "hex_id": 1278022, "centroid_lon": -65.731380427868913, "centroid_lat": 48.234420955448336, "occurrences_today": 1, "datetimes_today": "2026-09-19 00:02:28", "cumulative_total": 17.0 }, "geometry": { "type": "Polygon", "coordinates": [ [ [ -65.732314354207503, 48.229294536572404 ], [ -65.738492550325532, 48.232397928356143 ], [ -65.737559139574387, 48.237524434772006 ], [ -65.730446240288117, 48.23954735611008 ], [ -65.72426778987105, 48.236443501714994 ], [ -65.725202492946877, 48.23131718865779 ], [ -65.732314354207503, 48.229294536572404 ] ] ] } }
]
}
