{
"type": "FeatureCollection",
"name": "daily_2025-12-02",
"crs": { "type": "name", "properties": { "name": "urn:ogc:def:crs:OGC:1.3:CRS84" } },
"features": [
{ "type": "Feature", "properties": { "hex_id": 786, "count": 3, "date": "2025-12-02", "n_files": 22, "pct": 13.64 }, "geometry": { "type": "Polygon", "coordinates": [ [ [ -74.6046242, 45.9360096 ], [ -74.6044394, 45.961991 ], [ -74.636618, 45.9750888 ], [ -74.6689666, 45.9621961 ], [ -74.6691212, 45.9362146 ], [ -74.6369574, 45.923125899999988 ], [ -74.6046242, 45.9360096 ] ] ] } },
{ "type": "Feature", "properties": { "hex_id": 850, "count": 13, "date": "2025-12-02", "n_files": 22, "pct": 59.09 }, "geometry": { "type": "Polygon", "coordinates": [ [ [ -74.5726752, 45.8969214 ], [ -74.5724758, 45.9229028 ], [ -74.6046242, 45.9360096 ], [ -74.6369574, 45.923125899999988 ], [ -74.6371267, 45.8971442 ], [ -74.604993, 45.8840465 ], [ -74.5726752, 45.8969214 ] ] ] } },
{ "type": "Feature", "properties": { "hex_id": 913, "count": 13, "date": "2025-12-02", "n_files": 22, "pct": 59.09 }, "geometry": { "type": "Polygon", "coordinates": [ [ [ -74.5407709, 45.8578241 ], [ -74.5405568, 45.8838056 ], [ -74.5726752, 45.8969214 ], [ -74.604993, 45.8840465 ], [ -74.605177, 45.8580648 ], [ -74.5730732, 45.8449581 ], [ -74.5407709, 45.8578241 ] ] ] } },
{ "type": "Feature", "properties": { "hex_id": 914, "count": 13, "date": "2025-12-02", "n_files": 22, "pct": 59.09 }, "geometry": { "type": "Polygon", "coordinates": [ [ [ -74.5401279, 45.9357683 ], [ -74.539913, 45.9617494 ], [ -74.5720761, 45.9748653 ], [ -74.6044394, 45.961991 ], [ -74.6046242, 45.9360096 ], [ -74.5724758, 45.9229028 ], [ -74.5401279, 45.9357683 ] ] ] } },
{ "type": "Feature", "properties": { "hex_id": 980, "count": 3, "date": "2025-12-02", "n_files": 22, "pct": 13.64 }, "geometry": { "type": "Polygon", "coordinates": [ [ [ -74.5068427, 46.0525477 ], [ -74.5066113, 46.0785281 ], [ -74.538834, 46.0916534 ], [ -74.5712734, 46.078789 ], [ -74.5714745, 46.0528082 ], [ -74.5392665, 46.0396922 ], [ -74.5068427, 46.0525477 ] ] ] } },
{ "type": "Feature", "properties": { "hex_id": 1043, "count": 3, "date": "2025-12-02", "n_files": 22, "pct": 13.64 }, "geometry": { "type": "Polygon", "coordinates": [ [ [ -74.4748964, 46.0134329 ], [ -74.4746503, 46.0394134 ], [ -74.5068427, 46.0525477 ], [ -74.5392665, 46.0396922 ], [ -74.5394823, 46.0137114 ], [ -74.5073046, 46.0005863 ], [ -74.4748964, 46.0134329 ] ] ] } },
{ "type": "Feature", "properties": { "hex_id": 1095, "count": 7, "date": "2025-12-02", "n_files": 22, "pct": 31.82 }, "geometry": { "type": "Polygon", "coordinates": [ [ [ -74.4521447, 45.0389283 ], [ -74.4518966, 45.0649132 ], [ -74.4835338, 45.0780536 ], [ -74.5154053, 45.0652003 ], [ -74.5156247, 45.0392152 ], [ -74.4840014, 45.0260836 ], [ -74.4521447, 45.0389283 ] ] ] } },
{ "type": "Feature", "properties": { "hex_id": 1494, "count": 3, "date": "2025-12-02", "n_files": 22, "pct": 13.64 }, "geometry": { "type": "Polygon", "coordinates": [ [ [ -74.2462029, 46.2070134 ], [ -74.2458473, 46.2329919 ], [ -74.2780969, 46.2461904 ], [ -74.3106876, 46.2334012 ], [ -74.3110127, 46.2074223 ], [ -74.2787776, 46.194233 ], [ -74.2462029, 46.2070134 ] ] ] } },
{ "type": "Feature", "properties": { "hex_id": 1557, "count": 3, "date": "2025-12-02", "n_files": 22, "pct": 13.64 }, "geometry": { "type": "Polygon", "coordinates": [ [ [ -74.2143539, 46.1678274 ], [ -74.2139838, 46.1938059 ], [ -74.2462029, 46.2070134 ], [ -74.2787776, 46.194233 ], [ -74.2791172, 46.1682542 ], [ -74.2469126, 46.155056 ], [ -74.2143539, 46.1678274 ] ] ] } },
{ "type": "Feature", "properties": { "hex_id": 1691, "count": 1, "date": "2025-12-02", "n_files": 22, "pct": 4.55 }, "geometry": { "type": "Polygon", "coordinates": [ [ [ -74.1422956, 46.6349506 ], [ -74.1418849, 46.6609265 ], [ -74.1743612, 46.6741549 ], [ -74.2072334, 46.6613979 ], [ -74.2076129, 46.6354216 ], [ -74.1751514, 46.6222027 ], [ -74.1422956, 46.6349506 ] ] ] } },
{ "type": "Feature", "properties": { "hex_id": 1756, "count": 1, "date": "2025-12-02", "n_files": 22, "pct": 4.55 }, "geometry": { "type": "Polygon", "coordinates": [ [ [ -74.1089979, 46.6736645 ], [ -74.1085706, 46.69964 ], [ -74.1410617, 46.7128779 ], [ -74.1739653, 46.7001308 ], [ -74.1743612, 46.6741549 ], [ -74.1418849, 46.6609265 ], [ -74.1089979, 46.6736645 ] ] ] } },
{ "type": "Feature", "properties": { "hex_id": 1819, "count": 1, "date": "2025-12-02", "n_files": 22, "pct": 4.55 }, "geometry": { "type": "Polygon", "coordinates": [ [ [ -74.07698, 46.6344423 ], [ -74.0765381, 46.6604177 ], [ -74.1089979, 46.6736645 ], [ -74.1418849, 46.6609265 ], [ -74.1422956, 46.6349506 ], [ -74.1098506, 46.6217132 ], [ -74.07698, 46.6344423 ] ] ] } },
{ "type": "Feature", "properties": { "hex_id": 1883, "count": 1, "date": "2025-12-02", "n_files": 22, "pct": 4.55 }, "geometry": { "type": "Polygon", "coordinates": [ [ [ -74.0450082, 46.5952111 ], [ -74.0445515, 46.6211865 ], [ -74.07698, 46.6344423 ], [ -74.1098506, 46.6217132 ], [ -74.110276, 46.5957374 ], [ -74.0778622, 46.5824911 ], [ -74.0450082, 46.5952111 ] ] ] } },
{ "type": "Feature", "properties": { "hex_id": 2316, "count": 9, "date": "2025-12-02", "n_files": 22, "pct": 40.91 }, "geometry": { "type": "Polygon", "coordinates": [ [ [ -73.8404609, 45.4631118 ], [ -73.8399279, 45.4890906 ], [ -73.8716552, 45.5024006 ], [ -73.903902, 45.4897225 ], [ -73.9044056, 45.4637431 ], [ -73.8726918, 45.4504423 ], [ -73.8404609, 45.4631118 ] ] ] } },
{ "type": "Feature", "properties": { "hex_id": 2317, "count": 6, "date": "2025-12-02", "n_files": 22, "pct": 27.27 }, "geometry": { "type": "Polygon", "coordinates": [ [ [ -73.8388597, 45.5410479 ], [ -73.8383245, 45.5670263 ], [ -73.870095, 45.5803369 ], [ -73.902387, 45.567659899999988 ], [ -73.9028927, 45.5416809 ], [ -73.8711359, 45.5283795 ], [ -73.8388597, 45.5410479 ] ] ] } },
{ "type": "Feature", "properties": { "hex_id": 2382, "count": 6, "date": "2025-12-02", "n_files": 22, "pct": 27.27 }, "geometry": { "type": "Polygon", "coordinates": [ [ [ -73.8060188, 45.5796851 ], [ -73.8054678, 45.6056631 ], [ -73.8372519, 45.6189829 ], [ -73.8695735, 45.6063155 ], [ -73.870095, 45.5803369 ], [ -73.8383245, 45.5670263 ], [ -73.8060188, 45.5796851 ] ] ] } },
{ "type": "Feature", "properties": { "hex_id": 2383, "count": 5, "date": "2025-12-02", "n_files": 22, "pct": 22.73 }, "geometry": { "type": "Polygon", "coordinates": [ [ [ -73.8043634, 45.6576186 ], [ -73.8038101, 45.6835962 ], [ -73.8356376, 45.6969167 ], [ -73.8680047, 45.6842504 ], [ -73.8685284, 45.6582722 ], [ -73.8367146, 45.6449609 ], [ -73.8043634, 45.6576186 ] ] ] } },
{ "type": "Feature", "properties": { "hex_id": 2444, "count": 9, "date": "2025-12-02", "n_files": 22, "pct": 40.91 }, "geometry": { "type": "Polygon", "coordinates": [ [ [ -73.7765183, 45.4624447 ], [ -73.7759559, 45.488423 ], [ -73.8076675, 45.5017505 ], [ -73.8399279, 45.4890906 ], [ -73.8404609, 45.4631118 ], [ -73.8087629, 45.4497934 ], [ -73.7765183, 45.4624447 ] ] ] } },
{ "type": "Feature", "properties": { "hex_id": 2511, "count": 5, "date": "2025-12-02", "n_files": 22, "pct": 22.73 }, "geometry": { "type": "Polygon", "coordinates": [ [ [ -73.7402007, 45.656929 ], [ -73.7396177, 45.682906 ], [ -73.7714292, 45.6962442 ], [ -73.8038101, 45.6835962 ], [ -73.8043634, 45.6576186 ], [ -73.7725656, 45.6442896 ], [ -73.7402007, 45.656929 ] ] ] } },
{ "type": "Feature", "properties": { "hex_id": 2636, "count": 1, "date": "2025-12-02", "n_files": 22, "pct": 4.55 }, "geometry": { "type": "Polygon", "coordinates": [ [ [ -73.6815169, 45.4224109 ], [ -73.6809117, 45.4483883 ], [ -73.7125781, 45.4617419 ], [ -73.7448361, 45.4491088 ], [ -73.745412, 45.4231307 ], [ -73.7137591, 45.4097863 ], [ -73.6815169, 45.4224109 ] ] ] } },
{ "type": "Feature", "properties": { "hex_id": 3343, "count": 1, "date": "2025-12-02", "n_files": 22, "pct": 4.55 }, "geometry": { "type": "Polygon", "coordinates": [ [ [ -73.3220429, 45.6905267 ], [ -73.3212655, 45.7164987 ], [ -73.3529931, 45.7299522 ], [ -73.3854847, 45.7174245 ], [ -73.3862323, 45.6914517 ], [ -73.3545181, 45.6780075 ], [ -73.3220429, 45.6905267 ] ] ] } },
{ "type": "Feature", "properties": { "hex_id": 3347, "count": 2, "date": "2025-12-02", "n_files": 22, "pct": 9.09 }, "geometry": { "type": "Polygon", "coordinates": [ [ [ -73.3126438, 46.0021816 ], [ -73.3118535, 46.028152 ], [ -73.3437545, 46.041609799999989 ], [ -73.3764323, 46.0290878 ], [ -73.3771924, 46.0031166 ], [ -73.3453049, 45.9896682 ], [ -73.3126438, 46.0021816 ] ] ] } },
{ "type": "Feature", "properties": { "hex_id": 3406, "count": 4, "date": "2025-12-02", "n_files": 22, "pct": 18.18 }, "geometry": { "type": "Polygon", "coordinates": [ [ [ -73.293501, 45.5731773 ], [ -73.2927136, 45.5991494 ], [ -73.3243686, 45.6126101 ], [ -73.3567979, 45.600089399999987 ], [ -73.3575557, 45.5741165 ], [ -73.3259138, 45.5606651 ], [ -73.293501, 45.5731773 ] ] ] } },
{ "type": "Feature", "properties": { "hex_id": 3408, "count": 1, "date": "2025-12-02", "n_files": 22, "pct": 4.55 }, "geometry": { "type": "Polygon", "coordinates": [ [ [ -73.2887606, 45.7290079 ], [ -73.2879668, 45.7549793 ], [ -73.3197076, 45.7684422 ], [ -73.352229, 45.7559244 ], [ -73.3529931, 45.7299522 ], [ -73.3212655, 45.7164987 ], [ -73.2887606, 45.7290079 ] ] ] } },
{ "type": "Feature", "properties": { "hex_id": 3471, "count": 1, "date": "2025-12-02", "n_files": 22, "pct": 4.55 }, "geometry": { "type": "Polygon", "coordinates": [ [ [ -73.2578566, 45.6895657 ], [ -73.2570496, 45.7155368 ], [ -73.2887606, 45.7290079 ], [ -73.3212655, 45.7164987 ], [ -73.3220429, 45.6905267 ], [ -73.2903451, 45.6770649 ], [ -73.2578566, 45.6895657 ] ] ] } },
{ "type": "Feature", "properties": { "hex_id": 3472, "count": 1, "date": "2025-12-02", "n_files": 22, "pct": 4.55 }, "geometry": { "type": "Polygon", "coordinates": [ [ [ -73.2554321, 45.7674786 ], [ -73.2546217, 45.7934493 ], [ -73.2863758, 45.8069215 ], [ -73.318927, 45.7944137 ], [ -73.3197076, 45.7684422 ], [ -73.2879668, 45.7549793 ], [ -73.2554321, 45.7674786 ] ] ] } },
{ "type": "Feature", "properties": { "hex_id": 3535, "count": 2, "date": "2025-12-02", "n_files": 22, "pct": 9.09 }, "geometry": { "type": "Polygon", "coordinates": [ [ [ -73.2269955, 45.6501155 ], [ -73.2261753, 45.6760863 ], [ -73.2578566, 45.6895657 ], [ -73.2903451, 45.6770649 ], [ -73.2911357, 45.6510932 ], [ -73.2594675, 45.6376232 ], [ -73.2269955, 45.6501155 ] ] ] } },
{ "type": "Feature", "properties": { "hex_id": 3536, "count": 1, "date": "2025-12-02", "n_files": 22, "pct": 4.55 }, "geometry": { "type": "Polygon", "coordinates": [ [ [ -73.2245314, 45.7280276 ], [ -73.2237078, 45.753998 ], [ -73.2554321, 45.7674786 ], [ -73.2879668, 45.7549793 ], [ -73.2887606, 45.7290079 ], [ -73.2570496, 45.7155368 ], [ -73.2245314, 45.7280276 ] ] ] } },
{ "type": "Feature", "properties": { "hex_id": 3537, "count": 1, "date": "2025-12-02", "n_files": 22, "pct": 4.55 }, "geometry": { "type": "Polygon", "coordinates": [ [ [ -73.2220572, 45.8059385 ], [ -73.2212302, 45.8319086 ], [ -73.2529976, 45.8453902 ], [ -73.2855787, 45.8328925 ], [ -73.2863758, 45.8069215 ], [ -73.2546217, 45.7934493 ], [ -73.2220572, 45.8059385 ] ] ] } },
{ "type": "Feature", "properties": { "hex_id": 3593, "count": 1, "date": "2025-12-02", "n_files": 22, "pct": 4.55 }, "geometry": { "type": "Polygon", "coordinates": [ [ [ -73.208541700000012, 45.2210831 ], [ -73.2077253, 45.2470556 ], [ -73.2391656, 45.2605374 ], [ -73.2714095, 45.248037499999988 ], [ -73.272197, 45.2220641 ], [ -73.2407696, 45.2085915 ], [ -73.208541700000012, 45.2210831 ] ] ] } },
{ "type": "Feature", "properties": { "hex_id": 3598, "count": 2, "date": "2025-12-02", "n_files": 22, "pct": 9.09 }, "geometry": { "type": "Polygon", "coordinates": [ [ [ -73.1961771, 45.6106573 ], [ -73.1953438, 45.6366279 ], [ -73.2269955, 45.6501155 ], [ -73.2594675, 45.6376232 ], [ -73.2602712, 45.6116517 ], [ -73.2286326, 45.5981734 ], [ -73.1961771, 45.6106573 ] ] ] } },
{ "type": "Feature", "properties": { "hex_id": 3599, "count": 5, "date": "2025-12-02", "n_files": 22, "pct": 22.73 }, "geometry": { "type": "Polygon", "coordinates": [ [ [ -73.1936737, 45.6885687 ], [ -73.1928369, 45.7145388 ], [ -73.2245314, 45.7280276 ], [ -73.2570496, 45.7155368 ], [ -73.2578566, 45.6895657 ], [ -73.2261753, 45.6760863 ], [ -73.1936737, 45.6885687 ] ] ] } },
{ "type": "Feature", "properties": { "hex_id": 3600, "count": 1, "date": "2025-12-02", "n_files": 22, "pct": 4.55 }, "geometry": { "type": "Polygon", "coordinates": [ [ [ -73.1911599, 45.7664788 ], [ -73.1903197, 45.7924486 ], [ -73.2220572, 45.8059385 ], [ -73.2546217, 45.7934493 ], [ -73.2554321, 45.7674786 ], [ -73.2237078, 45.753998 ], [ -73.1911599, 45.7664788 ] ] ] } },
{ "type": "Feature", "properties": { "hex_id": 3601, "count": 1, "date": "2025-12-02", "n_files": 22, "pct": 4.55 }, "geometry": { "type": "Polygon", "coordinates": [ [ [ -73.188635800000014, 45.8443878 ], [ -73.1877922, 45.8703572 ], [ -73.2195728, 45.8838483 ], [ -73.2521838, 45.8713605 ], [ -73.2529976, 45.8453902 ], [ -73.2212302, 45.8319086 ], [ -73.188635800000014, 45.8443878 ] ] ] } },
{ "type": "Feature", "properties": { "hex_id": 3663, "count": 5, "date": "2025-12-02", "n_files": 22, "pct": 22.73 }, "geometry": { "type": "Polygon", "coordinates": [ [ [ -73.1628587, 45.6491018 ], [ -73.1620088, 45.6750717 ], [ -73.1936737, 45.6885687 ], [ -73.2261753, 45.6760863 ], [ -73.2269955, 45.6501155 ], [ -73.1953438, 45.6366279 ], [ -73.1628587, 45.6491018 ] ] ] } },
{ "type": "Feature", "properties": { "hex_id": 3664, "count": 1, "date": "2025-12-02", "n_files": 22, "pct": 4.55 }, "geometry": { "type": "Polygon", "coordinates": [ [ [ -73.1603056, 45.7270111 ], [ -73.1594522, 45.7529807 ], [ -73.1911599, 45.7664788 ], [ -73.2237078, 45.753998 ], [ -73.2245314, 45.7280276 ], [ -73.1928369, 45.7145388 ], [ -73.1603056, 45.7270111 ] ] ] } },
{ "type": "Feature", "properties": { "hex_id": 3665, "count": 1, "date": "2025-12-02", "n_files": 22, "pct": 4.55 }, "geometry": { "type": "Polygon", "coordinates": [ [ [ -73.157742, 45.8049193 ], [ -73.1568851, 45.8308885 ], [ -73.188635800000014, 45.8443878 ], [ -73.2212302, 45.8319086 ], [ -73.2220572, 45.8059385 ], [ -73.1903197, 45.7924486 ], [ -73.157742, 45.8049193 ] ] ] } },
{ "type": "Feature", "properties": { "hex_id": 3727, "count": 5, "date": "2025-12-02", "n_files": 22, "pct": 22.73 }, "geometry": { "type": "Polygon", "coordinates": [ [ [ -73.1294941, 45.6875356 ], [ -73.1286277, 45.7135048 ], [ -73.1603056, 45.7270111 ], [ -73.1928369, 45.7145388 ], [ -73.1936737, 45.6885687 ], [ -73.1620088, 45.6750717 ], [ -73.1294941, 45.6875356 ] ] ] } },
{ "type": "Feature", "properties": { "hex_id": 3728, "count": 1, "date": "2025-12-02", "n_files": 22, "pct": 4.55 }, "geometry": { "type": "Polygon", "coordinates": [ [ [ -73.1268912, 45.7654429 ], [ -73.1260212, 45.7914118 ], [ -73.157742, 45.8049193 ], [ -73.1903197, 45.7924486 ], [ -73.1911599, 45.7664788 ], [ -73.1594522, 45.7529807 ], [ -73.1268912, 45.7654429 ] ] ] } },
{ "type": "Feature", "properties": { "hex_id": 3729, "count": 1, "date": "2025-12-02", "n_files": 22, "pct": 4.55 }, "geometry": { "type": "Polygon", "coordinates": [ [ [ -73.1242776, 45.8433491 ], [ -73.123404, 45.8693176 ], [ -73.1551679, 45.8828263 ], [ -73.1877922, 45.8703572 ], [ -73.188635800000014, 45.8443878 ], [ -73.1568851, 45.8308885 ], [ -73.1242776, 45.8433491 ] ] ] } },
{ "type": "Feature", "properties": { "hex_id": 3793, "count": 1, "date": "2025-12-02", "n_files": 22, "pct": 4.55 }, "geometry": { "type": "Polygon", "coordinates": [ [ [ -73.0934303, 45.803864 ], [ -73.0925436, 45.8298321 ], [ -73.1242776, 45.8433491 ], [ -73.1568851, 45.8308885 ], [ -73.157742, 45.8049193 ], [ -73.1260212, 45.7914118 ], [ -73.0934303, 45.803864 ] ] ] } },
{ "type": "Feature", "properties": { "hex_id": 4506, "count": 4, "date": "2025-12-02", "n_files": 22, "pct": 18.18 }, "geometry": { "type": "Polygon", "coordinates": [ [ [ -72.7092604, 46.5372864 ], [ -72.7081675, 46.5632449 ], [ -72.7402214, 46.576873 ], [ -72.7733551, 46.5645329 ], [ -72.774417, 46.5385733 ], [ -72.7423763, 46.524955 ], [ -72.7092604, 46.5372864 ] ] ] } },
{ "type": "Feature", "properties": { "hex_id": 4682, "count": 3, "date": "2025-12-02", "n_files": 22, "pct": 13.64 }, "geometry": { "type": "Polygon", "coordinates": [ [ [ -72.6660236, 45.2502588 ], [ -72.6649589, 45.2762224 ], [ -72.6962805, 45.2898514 ], [ -72.7286545, 45.2775075 ], [ -72.7296902, 45.2515428 ], [ -72.6983809, 45.2379232 ], [ -72.6660236, 45.2502588 ] ] ] } },
{ "type": "Feature", "properties": { "hex_id": 4745, "count": 6, "date": "2025-12-02", "n_files": 22, "pct": 27.27 }, "geometry": { "type": "Polygon", "coordinates": [ [ [ -72.6358079, 45.2106589 ], [ -72.6347309, 45.236622 ], [ -72.6660236, 45.2502588 ], [ -72.6983809, 45.2379232 ], [ -72.699429, 45.2119589 ], [ -72.6681486, 45.1983314 ], [ -72.6358079, 45.2106589 ] ] ] } },
{ "type": "Feature", "properties": { "hex_id": 4746, "count": 3, "date": "2025-12-02", "n_files": 22, "pct": 13.64 }, "geometry": { "type": "Polygon", "coordinates": [ [ [ -72.6325726, 45.2885479 ], [ -72.6314912, 45.3145106 ], [ -72.6628252, 45.328149 ], [ -72.6952282, 45.3158153 ], [ -72.6962805, 45.2898514 ], [ -72.6649589, 45.2762224 ], [ -72.6325726, 45.2885479 ] ] ] } },
{ "type": "Feature", "properties": { "hex_id": 4809, "count": 6, "date": "2025-12-02", "n_files": 22, "pct": 27.27 }, "geometry": { "type": "Polygon", "coordinates": [ [ [ -72.6056333, 45.1710516 ], [ -72.6045441, 45.1970143 ], [ -72.6358079, 45.2106589 ], [ -72.6681486, 45.1983314 ], [ -72.669209, 45.1723675 ], [ -72.6379574, 45.1587322 ], [ -72.6056333, 45.1710516 ] ] ] } },
{ "type": "Feature", "properties": { "hex_id": 4871, "count": 3, "date": "2025-12-02", "n_files": 22, "pct": 13.64 }, "geometry": { "type": "Polygon", "coordinates": [ [ [ -72.578795, 45.053549 ], [ -72.5776981, 45.0795118 ], [ -72.6088921, 45.0931625 ], [ -72.6411708, 45.0808411 ], [ -72.6422391, 45.0548772 ], [ -72.6110572, 45.0412357 ], [ -72.578795, 45.053549 ] ] ] } },
{ "type": "Feature", "properties": { "hex_id": 4873, "count": 6, "date": "2025-12-02", "n_files": 22, "pct": 27.27 }, "geometry": { "type": "Polygon", "coordinates": [ [ [ -72.5721912, 45.209323499999989 ], [ -72.5710853, 45.235285499999989 ], [ -72.6023613, 45.2489394 ], [ -72.6347309, 45.236622 ], [ -72.6358079, 45.2106589 ], [ -72.6045441, 45.1970143 ], [ -72.5721912, 45.209323499999989 ] ] ] } },
{ "type": "Feature", "properties": { "hex_id": 4999, "count": 3, "date": "2025-12-02", "n_files": 22, "pct": 13.64 }, "geometry": { "type": "Polygon", "coordinates": [ [ [ -72.5153554, 45.0521856 ], [ -72.5142298, 45.0781472 ], [ -72.5454072, 45.0918149 ], [ -72.5776981, 45.0795118 ], [ -72.578795, 45.053549 ], [ -72.5476297, 45.0398906 ], [ -72.5153554, 45.0521856 ] ] ] } },
{ "type": "Feature", "properties": { "hex_id": 5175, "count": 3, "date": "2025-12-02", "n_files": 22, "pct": 13.64 }, "geometry": { "type": "Polygon", "coordinates": [ [ [ -72.2681858, 48.7875885 ], [ -72.2667757, 48.813528 ], [ -72.3000935, 48.8273001 ], [ -72.3348069, 48.815122099999989 ], [ -72.336182, 48.7891812 ], [ -72.3028787, 48.7754197 ], [ -72.2681858, 48.7875885 ] ] ] } },
{ "type": "Feature", "properties": { "hex_id": 5240, "count": 3, "date": "2025-12-02", "n_files": 22, "pct": 13.64 }, "geometry": { "type": "Polygon", "coordinates": [ [ [ -72.2320478, 48.8256852 ], [ -72.2306171, 48.8516237 ], [ -72.2639494, 48.8654064 ], [ -72.2986979, 48.85324 ], [ -72.3000935, 48.8273001 ], [ -72.2667757, 48.813528 ], [ -72.2320478, 48.8256852 ] ] ] } },
{ "type": "Feature", "properties": { "hex_id": 5299, "count": 1, "date": "2025-12-02", "n_files": 22, "pct": 4.55 }, "geometry": { "type": "Polygon", "coordinates": [ [ [ -72.2173769, 48.4746886 ], [ -72.2159563, 48.5006283 ], [ -72.2490574, 48.514411699999989 ], [ -72.2835649, 48.5022449 ], [ -72.2849511, 48.4763037 ], [ -72.2518642, 48.462530799999989 ], [ -72.2173769, 48.4746886 ] ] ] } },
{ "type": "Feature", "properties": { "hex_id": 5328, "count": 2, "date": "2025-12-02", "n_files": 22, "pct": 9.09 }, "geometry": { "type": "Polygon", "coordinates": [ [ [ -72.325733, 45.7105158 ], [ -72.3244935, 45.7364705 ], [ -72.3559801, 45.7501958 ], [ -72.388694, 45.7379569 ], [ -72.3899038, 45.7120009 ], [ -72.3584295, 45.6982852 ], [ -72.325733, 45.7105158 ] ] ] } },
{ "type": "Feature", "properties": { "hex_id": 5363, "count": 1, "date": "2025-12-02", "n_files": 22, "pct": 4.55 }, "geometry": { "type": "Polygon", "coordinates": [ [ [ -72.1857449, 48.434957399999988 ], [ -72.1843101, 48.4608966 ], [ -72.2173769, 48.4746886 ], [ -72.2518642, 48.462530799999989 ], [ -72.2532646, 48.4365901 ], [ -72.220212, 48.4228086 ], [ -72.1857449, 48.434957399999988 ] ] ] } },
{ "type": "Feature", "properties": { "hex_id": 5392, "count": 2, "date": "2025-12-02", "n_files": 22, "pct": 9.09 }, "geometry": { "type": "Polygon", "coordinates": [ [ [ -72.2917673, 45.7486907 ], [ -72.2905104, 45.7746445 ], [ -72.3220093, 45.7883794 ], [ -72.3547529, 45.7761509 ], [ -72.3559801, 45.7501958 ], [ -72.3244935, 45.7364705 ], [ -72.2917673, 45.7486907 ] ] ] } },
{ "type": "Feature", "properties": { "hex_id": 5427, "count": 1, "date": "2025-12-02", "n_files": 22, "pct": 4.55 }, "geometry": { "type": "Polygon", "coordinates": [ [ [ -72.1498087, 48.4730339 ], [ -72.1483537, 48.4989721 ], [ -72.1814346, 48.5127746 ], [ -72.2159563, 48.5006283 ], [ -72.2173769, 48.4746886 ], [ -72.1843101, 48.4608966 ], [ -72.1498087, 48.4730339 ] ] ] } },
{ "type": "Feature", "properties": { "hex_id": 5456, "count": 2, "date": "2025-12-02", "n_files": 22, "pct": 9.09 }, "geometry": { "type": "Polygon", "coordinates": [ [ [ -72.2615673, 45.7089948 ], [ -72.2602981, 45.7349481 ], [ -72.2917673, 45.7486907 ], [ -72.3244935, 45.7364705 ], [ -72.325733, 45.7105158 ], [ -72.2942761, 45.6967828 ], [ -72.2615673, 45.7089948 ] ] ] } },
{ "type": "Feature", "properties": { "hex_id": 5491, "count": 4, "date": "2025-12-02", "n_files": 22, "pct": 18.18 }, "geometry": { "type": "Polygon", "coordinates": [ [ [ -72.1182312, 48.4332852 ], [ -72.1167622, 48.4592229 ], [ -72.1498087, 48.4730339 ], [ -72.1843101, 48.4608966 ], [ -72.1857449, 48.434957399999988 ], [ -72.1527125, 48.4211569 ], [ -72.1182312, 48.4332852 ] ] ] } },
{ "type": "Feature", "properties": { "hex_id": 5516, "count": 7, "date": "2025-12-02", "n_files": 22, "pct": 31.82 }, "geometry": { "type": "Polygon", "coordinates": [ [ [ -72.2428632, 45.4357096 ], [ -72.2415974, 45.4616638 ], [ -72.2729123, 45.4754086 ], [ -72.3054809, 45.4631897 ], [ -72.3067174, 45.4372342 ], [ -72.2754146, 45.4234989 ], [ -72.2428632, 45.4357096 ] ] ] } },
{ "type": "Feature", "properties": { "hex_id": 5519, "count": 2, "date": "2025-12-02", "n_files": 22, "pct": 9.09 }, "geometry": { "type": "Polygon", "coordinates": [ [ [ -72.2314091, 45.6692916 ], [ -72.2301278, 45.6952444 ], [ -72.2615673, 45.7089948 ], [ -72.2942761, 45.6967828 ], [ -72.2955279, 45.6708286 ], [ -72.2641005, 45.6570877 ], [ -72.2314091, 45.6692916 ] ] ] } },
{ "type": "Feature", "properties": { "hex_id": 5520, "count": 2, "date": "2025-12-02", "n_files": 22, "pct": 9.09 }, "geometry": { "type": "Polygon", "coordinates": [ [ [ -72.2275597, 45.7471496 ], [ -72.2262731, 45.7731019 ], [ -72.2577545, 45.7868542 ], [ -72.2905104, 45.7746445 ], [ -72.2917673, 45.7486907 ], [ -72.2602981, 45.7349481 ], [ -72.2275597, 45.7471496 ] ] ] } },
{ "type": "Feature", "properties": { "hex_id": 5555, "count": 7, "date": "2025-12-02", "n_files": 22, "pct": 31.82 }, "geometry": { "type": "Polygon", "coordinates": [ [ [ -72.0822467, 48.4713396 ], [ -72.0807573, 48.4972763 ], [ -72.1138179, 48.511097799999988 ], [ -72.1483537, 48.4989721 ], [ -72.1498087, 48.4730339 ], [ -72.1167622, 48.4592229 ], [ -72.0822467, 48.4713396 ] ] ] } },
{ "type": "Feature", "properties": { "hex_id": 5584, "count": 2, "date": "2025-12-02", "n_files": 22, "pct": 9.09 }, "geometry": { "type": "Polygon", "coordinates": [ [ [ -72.1974068, 45.7074377 ], [ -72.196108, 45.7333896 ], [ -72.2275597, 45.7471496 ], [ -72.2602981, 45.7349481 ], [ -72.2615673, 45.7089948 ], [ -72.2301278, 45.6952444 ], [ -72.1974068, 45.7074377 ] ] ] } },
{ "type": "Feature", "properties": { "hex_id": 5619, "count": 6, "date": "2025-12-02", "n_files": 22, "pct": 27.27 }, "geometry": { "type": "Polygon", "coordinates": [ [ [ -72.0507239, 48.4315733 ], [ -72.0492205, 48.4575095 ], [ -72.0822467, 48.4713396 ], [ -72.1167622, 48.4592229 ], [ -72.1182312, 48.4332852 ], [ -72.0852191, 48.4194657 ], [ -72.0507239, 48.4315733 ] ] ] } },
{ "type": "Feature", "properties": { "hex_id": 5647, "count": 3, "date": "2025-12-02", "n_files": 22, "pct": 13.64 }, "geometry": { "type": "Polygon", "coordinates": [ [ [ -72.1672957, 45.6677186 ], [ -72.1659847, 45.69367 ], [ -72.1974068, 45.7074377 ], [ -72.2301278, 45.6952444 ], [ -72.2314091, 45.6692916 ], [ -72.1999992, 45.6555335 ], [ -72.1672957, 45.6677186 ] ] ] } },
{ "type": "Feature", "properties": { "hex_id": 5711, "count": 3, "date": "2025-12-02", "n_files": 22, "pct": 13.64 }, "geometry": { "type": "Polygon", "coordinates": [ [ [ -72.1372261, 45.6279924 ], [ -72.1359031, 45.6539433 ], [ -72.1672957, 45.6677186 ], [ -72.1999992, 45.6555335 ], [ -72.2012927, 45.6295811 ], [ -72.1699122, 45.6158154 ], [ -72.1372261, 45.6279924 ] ] ] } },
{ "type": "Feature", "properties": { "hex_id": 5712, "count": 5, "date": "2025-12-02", "n_files": 22, "pct": 22.73 }, "geometry": { "type": "Polygon", "coordinates": [ [ [ -72.1332516, 45.7058446 ], [ -72.1319232, 45.7317951 ], [ -72.1633574, 45.7455724 ], [ -72.196108, 45.7333896 ], [ -72.1974068, 45.7074377 ], [ -72.1659847, 45.69367 ], [ -72.1332516, 45.7058446 ] ] ] } },
{ "type": "Feature", "properties": { "hex_id": 5775, "count": 5, "date": "2025-12-02", "n_files": 22, "pct": 22.73 }, "geometry": { "type": "Polygon", "coordinates": [ [ [ -72.1031875, 45.6661097 ], [ -72.101847, 45.6920597 ], [ -72.1332516, 45.7058446 ], [ -72.1659847, 45.69367 ], [ -72.1672957, 45.6677186 ], [ -72.1359031, 45.6539433 ], [ -72.1031875, 45.6661097 ] ] ] } },
{ "type": "Feature", "properties": { "hex_id": 5776, "count": 3, "date": "2025-12-02", "n_files": 22, "pct": 13.64 }, "geometry": { "type": "Polygon", "coordinates": [ [ [ -72.0991605, 45.7439592 ], [ -72.0978144, 45.7699087 ], [ -72.1292608, 45.7836956 ], [ -72.162041, 45.7715233 ], [ -72.1633574, 45.7455724 ], [ -72.1319232, 45.7317951 ], [ -72.0991605, 45.7439592 ] ] ] } },
{ "type": "Feature", "properties": { "hex_id": 5839, "count": 4, "date": "2025-12-02", "n_files": 22, "pct": 18.18 }, "geometry": { "type": "Polygon", "coordinates": [ [ [ -72.073165, 45.6263677 ], [ -72.0718125, 45.6523172 ], [ -72.1031875, 45.6661097 ], [ -72.1359031, 45.6539433 ], [ -72.1372261, 45.6279924 ], [ -72.1058631, 45.6142094 ], [ -72.073165, 45.6263677 ] ] ] } },
{ "type": "Feature", "properties": { "hex_id": 5840, "count": 5, "date": "2025-12-02", "n_files": 22, "pct": 22.73 }, "geometry": { "type": "Polygon", "coordinates": [ [ [ -72.0691019, 45.7042156 ], [ -72.0677438, 45.7301646 ], [ -72.0991605, 45.7439592 ], [ -72.1319232, 45.7317951 ], [ -72.1332516, 45.7058446 ], [ -72.101847, 45.6920597 ], [ -72.0691019, 45.7042156 ] ] ] } },
{ "type": "Feature", "properties": { "hex_id": 5843, "count": 6, "date": "2025-12-02", "n_files": 22, "pct": 27.27 }, "geometry": { "type": "Polygon", "coordinates": [ [ [ -72.0568119, 45.9377511 ], [ -72.0554369, 45.9636988 ], [ -72.0869795, 45.9774993 ], [ -72.1198848, 45.9653425 ], [ -72.1212297, 45.9393934 ], [ -72.0896994, 45.9256025 ], [ -72.0568119, 45.9377511 ] ] ] } },
{ "type": "Feature", "properties": { "hex_id": 5902, "count": 3, "date": "2025-12-02", "n_files": 22, "pct": 13.64 }, "geometry": { "type": "Polygon", "coordinates": [ [ [ -72.043184, 45.5866186 ], [ -72.0418195, 45.6125676 ], [ -72.073165, 45.6263677 ], [ -72.1058631, 45.6142094 ], [ -72.1071982, 45.588259 ], [ -72.0758646, 45.5744684 ], [ -72.043184, 45.5866186 ] ] ] } },
{ "type": "Feature", "properties": { "hex_id": 5903, "count": 5, "date": "2025-12-02", "n_files": 22, "pct": 22.73 }, "geometry": { "type": "Polygon", "coordinates": [ [ [ -72.0390849, 45.6644649 ], [ -72.0377148, 45.6904134 ], [ -72.0691019, 45.7042156 ], [ -72.101847, 45.6920597 ], [ -72.1031875, 45.6661097 ], [ -72.0718125, 45.6523172 ], [ -72.0390849, 45.6644649 ] ] ] } },
{ "type": "Feature", "properties": { "hex_id": 5906, "count": 6, "date": "2025-12-02", "n_files": 22, "pct": 27.27 }, "geometry": { "type": "Polygon", "coordinates": [ [ [ -72.0266864, 45.8979958 ], [ -72.0252993, 45.9239429 ], [ -72.0568119, 45.9377511 ], [ -72.0896994, 45.9256025 ], [ -72.0910565, 45.8996539 ], [ -72.0595561, 45.8858554 ], [ -72.0266864, 45.8979958 ] ] ] } },
{ "type": "Feature", "properties": { "hex_id": 5971, "count": 6, "date": "2025-12-02", "n_files": 22, "pct": 27.27 }, "geometry": { "type": "Polygon", "coordinates": [ [ [ -71.9923997, 45.936072599999989 ], [ -71.9909948, 45.9620187 ], [ -72.0225195, 45.9758367 ], [ -72.0554369, 45.9636988 ], [ -72.0568119, 45.9377511 ], [ -72.0252993, 45.9239429 ], [ -71.9923997, 45.936072599999989 ] ] ] } },
{ "type": "Feature", "properties": { "hex_id": 6044, "count": 1, "date": "2025-12-02", "n_files": 22, "pct": 4.55 }, "geometry": { "type": "Polygon", "coordinates": [ [ [ -71.918953300000013, 46.6746025 ], [ -71.9174766, 46.7005435 ], [ -71.9494, 46.7143902 ], [ -71.9827877, 46.7022859 ], [ -71.9842333, 46.6763433 ], [ -71.9523224, 46.6625066 ], [ -71.918953300000013, 46.6746025 ] ] ] } },
{ "type": "Feature", "properties": { "hex_id": 6045, "count": 1, "date": "2025-12-02", "n_files": 22, "pct": 4.55 }, "geometry": { "type": "Polygon", "coordinates": [ [ [ -71.9145169, 46.752425 ], [ -71.913034, 46.7783656 ], [ -71.9450013, 46.7922144 ], [ -71.9784389, 46.7801126 ], [ -71.9798905, 46.7541705 ], [ -71.9479358, 46.7403317 ], [ -71.9145169, 46.752425 ] ] ] } },
{ "type": "Feature", "properties": { "hex_id": 6109, "count": 1, "date": "2025-12-02", "n_files": 22, "pct": 4.55 }, "geometry": { "type": "Polygon", "coordinates": [ [ [ -71.8840764, 46.7126284 ], [ -71.8825809, 46.7385684 ], [ -71.9145169, 46.752425 ], [ -71.9479358, 46.7403317 ], [ -71.9494, 46.7143902 ], [ -71.9174766, 46.7005435 ], [ -71.8840764, 46.7126284 ] ] ] } },
{ "type": "Feature", "properties": { "hex_id": 6453, "count": 1, "date": "2025-12-02", "n_files": 22, "pct": 4.55 }, "geometry": { "type": "Polygon", "coordinates": [ [ [ -71.5990838, 48.6139181 ], [ -71.59733940000001, 48.639842 ], [ -71.6303518, 48.6538014 ], [ -71.665095, 48.641826 ], [ -71.6668048, 48.6159002 ], [ -71.633806, 48.6019516 ], [ -71.5990838, 48.6139181 ] ] ] } },
{ "type": "Feature", "properties": { "hex_id": 6517, "count": 1, "date": "2025-12-02", "n_files": 22, "pct": 4.55 }, "geometry": { "type": "Polygon", "coordinates": [ [ [ -71.567864, 48.5740272 ], [ -71.566106, 48.5999505 ], [ -71.5990838, 48.6139181 ], [ -71.633806, 48.6019516 ], [ -71.6355295, 48.5760265 ], [ -71.6025652, 48.5620696 ], [ -71.567864, 48.5740272 ] ] ] } },
{ "type": "Feature", "properties": { "hex_id": 6580, "count": 1, "date": "2025-12-02", "n_files": 22, "pct": 4.55 }, "geometry": { "type": "Polygon", "coordinates": [ [ [ -71.5366921, 48.5341287 ], [ -71.5349207, 48.5600514 ], [ -71.567864, 48.5740272 ], [ -71.6025652, 48.5620696 ], [ -71.6043022, 48.5361451 ], [ -71.5713724, 48.52218 ], [ -71.5366921, 48.5341287 ] ] ] } },
{ "type": "Feature", "properties": { "hex_id": 6581, "count": 1, "date": "2025-12-02", "n_files": 22, "pct": 4.55 }, "geometry": { "type": "Polygon", "coordinates": [ [ [ -71.5313703, 48.6118962 ], [ -71.5295913, 48.6378183 ], [ -71.5625826, 48.6517966 ], [ -71.59733940000001, 48.639842 ], [ -71.5990838, 48.6139181 ], [ -71.566106, 48.5999505 ], [ -71.5313703, 48.6118962 ] ] ] } },
{ "type": "Feature", "properties": { "hex_id": 6645, "count": 1, "date": "2025-12-02", "n_files": 22, "pct": 4.55 }, "geometry": { "type": "Polygon", "coordinates": [ [ [ -71.5002059, 48.5719882 ], [ -71.4984135, 48.5979096 ], [ -71.5313703, 48.6118962 ], [ -71.566106, 48.5999505 ], [ -71.567864, 48.5740272 ], [ -71.5349207, 48.5600514 ], [ -71.5002059, 48.5719882 ] ] ] } },
{ "type": "Feature", "properties": { "hex_id": 6708, "count": 1, "date": "2025-12-02", "n_files": 22, "pct": 4.55 }, "geometry": { "type": "Polygon", "coordinates": [ [ [ -71.4690895, 48.5320727 ], [ -71.4672837, 48.5579935 ], [ -71.5002059, 48.5719882 ], [ -71.5349207, 48.5600514 ], [ -71.5366921, 48.5341287 ], [ -71.5037832, 48.5201447 ], [ -71.4690895, 48.5320727 ] ] ] } },
{ "type": "Feature", "properties": { "hex_id": 6709, "count": 1, "date": "2025-12-02", "n_files": 22, "pct": 4.55 }, "geometry": { "type": "Polygon", "coordinates": [ [ [ -71.4636643, 48.6098345 ], [ -71.4618508, 48.6357548 ], [ -71.494821, 48.6497521 ], [ -71.5295913, 48.6378183 ], [ -71.5313703, 48.6118962 ], [ -71.4984135, 48.5979096 ], [ -71.4636643, 48.6098345 ] ] ] } },
{ "type": "Feature", "properties": { "hex_id": 6773, "count": 1, "date": "2025-12-02", "n_files": 22, "pct": 4.55 }, "geometry": { "type": "Polygon", "coordinates": [ [ [ -71.4325556, 48.5699095 ], [ -71.4307286, 48.5958291 ], [ -71.4636643, 48.6098345 ], [ -71.4984135, 48.5979096 ], [ -71.5002059, 48.5719882 ], [ -71.4672837, 48.5579935 ], [ -71.4325556, 48.5699095 ] ] ] } },
{ "type": "Feature", "properties": { "hex_id": 6837, "count": 1, "date": "2025-12-02", "n_files": 22, "pct": 4.55 }, "geometry": { "type": "Polygon", "coordinates": [ [ [ -71.3959661, 48.6077331 ], [ -71.394118, 48.6336515 ], [ -71.427067, 48.6476677 ], [ -71.4618508, 48.6357548 ], [ -71.4636643, 48.6098345 ], [ -71.4307286, 48.5958291 ], [ -71.3959661, 48.6077331 ] ] ] } },
{ "type": "Feature", "properties": { "hex_id": 6861, "count": 4, "date": "2025-12-02", "n_files": 22, "pct": 18.18 }, "geometry": { "type": "Polygon", "coordinates": [ [ [ -71.5703696, 45.456457 ], [ -71.5687943, 45.4823945 ], [ -71.5999458, 45.4963195 ], [ -71.6326612, 45.4842974 ], [ -71.6342073, 45.4583581 ], [ -71.6030672, 45.4444427 ], [ -71.5703696, 45.456457 ] ] ] } },
{ "type": "Feature", "properties": { "hex_id": 6925, "count": 4, "date": "2025-12-02", "n_files": 22, "pct": 18.18 }, "geometry": { "type": "Polygon", "coordinates": [ [ [ -71.5360675, 45.494398 ], [ -71.5344744, 45.5203345 ], [ -71.5656373, 45.5342692 ], [ -71.5983819, 45.5222577 ], [ -71.5999458, 45.4963195 ], [ -71.5687943, 45.4823945 ], [ -71.5360675, 45.494398 ] ] ] } },
{ "type": "Feature", "properties": { "hex_id": 6926, "count": 2, "date": "2025-12-02", "n_files": 22, "pct": 9.09 }, "geometry": { "type": "Polygon", "coordinates": [ [ [ -71.5312816, 45.5722069 ], [ -71.529682, 45.5981428 ], [ -71.5608856, 45.6120799 ], [ -71.5936775, 45.6000712 ], [ -71.5952478, 45.5741336 ], [ -71.5640556, 45.5602062 ], [ -71.5312816, 45.5722069 ] ] ] } },
{ "type": "Feature", "properties": { "hex_id": 7325, "count": 8, "date": "2025-12-02", "n_files": 22, "pct": 36.36 }, "geometry": { "type": "Polygon", "coordinates": [ [ [ -71.2611413, 46.7329207 ], [ -71.259346, 46.7588437 ], [ -71.291123, 46.7728702 ], [ -71.3246833, 46.7609636 ], [ -71.3264475, 46.7350387 ], [ -71.2946824, 46.7210224 ], [ -71.2611413, 46.7329207 ] ] ] } },
{ "type": "Feature", "properties": { "hex_id": 7454, "count": 3, "date": "2025-12-02", "n_files": 22, "pct": 13.64 }, "geometry": { "type": "Polygon", "coordinates": [ [ [ -71.1903556, 46.8085281 ], [ -71.1885215, 46.8344486 ], [ -71.2203222, 46.8484954 ], [ -71.2539452, 46.8366115 ], [ -71.2557479, 46.8106891 ], [ -71.2239591, 46.7966525 ], [ -71.1903556, 46.8085281 ] ] ] } },
{ "type": "Feature", "properties": { "hex_id": 7455, "count": 7, "date": "2025-12-02", "n_files": 22, "pct": 31.82 }, "geometry": { "type": "Polygon", "coordinates": [ [ [ -71.1848457, 46.8862891 ], [ -71.183004, 46.912209 ], [ -71.214848, 46.9262585 ], [ -71.2485218, 46.9143778 ], [ -71.2503321, 46.8884559 ], [ -71.2185, 46.8744166 ], [ -71.1848457, 46.8862891 ] ] ] } },
{ "type": "Feature", "properties": { "hex_id": 7519, "count": 3, "date": "2025-12-02", "n_files": 22, "pct": 13.64 }, "geometry": { "type": "Polygon", "coordinates": [ [ [ -71.1548867, 46.8463128 ], [ -71.1530331, 46.8722321 ], [ -71.1848457, 46.8862891 ], [ -71.2185, 46.8744166 ], [ -71.2203222, 46.8484954 ], [ -71.1885215, 46.8344486 ], [ -71.1548867, 46.8463128 ] ] ] } },
{ "type": "Feature", "properties": { "hex_id": 7797, "count": 3, "date": "2025-12-02", "n_files": 22, "pct": 13.64 }, "geometry": { "type": "Polygon", "coordinates": [ [ [ -70.8916449, 48.5518528 ], [ -70.8895428, 48.577756 ], [ -70.9223073, 48.591912 ], [ -70.9571612, 48.5801539 ], [ -70.9592289, 48.5542485 ], [ -70.9264772, 48.5401034 ], [ -70.8916449, 48.5518528 ] ] ] } },
{ "type": "Feature", "properties": { "hex_id": 7860, "count": 3, "date": "2025-12-02", "n_files": 22, "pct": 13.64 }, "geometry": { "type": "Polygon", "coordinates": [ [ [ -70.8610296, 48.5117865 ], [ -70.8589148, 48.5376889 ], [ -70.8916449, 48.5518528 ], [ -70.9264772, 48.5401034 ], [ -70.9285577, 48.5141988 ], [ -70.8958402, 48.5000458 ], [ -70.8610296, 48.5117865 ] ] ] } },
{ "type": "Feature", "properties": { "hex_id": 7861, "count": 5, "date": "2025-12-02", "n_files": 22, "pct": 22.73 }, "geometry": { "type": "Polygon", "coordinates": [ [ [ -70.8546762, 48.5894932 ], [ -70.8525523, 48.615395 ], [ -70.8853295, 48.6295619 ], [ -70.9202179, 48.617816 ], [ -70.9223073, 48.591912 ], [ -70.8895428, 48.577756 ], [ -70.8546762, 48.5894932 ] ] ] } },
{ "type": "Feature", "properties": { "hex_id": 7925, "count": 3, "date": "2025-12-02", "n_files": 22, "pct": 13.64 }, "geometry": { "type": "Polygon", "coordinates": [ [ [ -70.8240698, 48.5494174 ], [ -70.8219334, 48.5753185 ], [ -70.8546762, 48.5894932 ], [ -70.8895428, 48.577756 ], [ -70.8916449, 48.5518528 ], [ -70.8589148, 48.5376889 ], [ -70.8240698, 48.5494174 ] ] ] } },
{ "type": "Feature", "properties": { "hex_id": 7926, "count": 5, "date": "2025-12-02", "n_files": 22, "pct": 22.73 }, "geometry": { "type": "Polygon", "coordinates": [ [ [ -70.8176513, 48.6271199 ], [ -70.8155057, 48.6530204 ], [ -70.8482956, 48.6671981 ], [ -70.8832184, 48.6554645 ], [ -70.8853295, 48.6295619 ], [ -70.8525523, 48.615395 ], [ -70.8176513, 48.6271199 ] ] ] } },
{ "type": "Feature", "properties": { "hex_id": 7989, "count": 5, "date": "2025-12-02", "n_files": 22, "pct": 22.73 }, "geometry": { "type": "Polygon", "coordinates": [ [ [ -70.7870541, 48.5870347 ], [ -70.7848959, 48.6129343 ], [ -70.8176513, 48.6271199 ], [ -70.8525523, 48.615395 ], [ -70.8546762, 48.5894932 ], [ -70.8219334, 48.5753185 ], [ -70.7870541, 48.5870347 ] ] ] } },
{ "type": "Feature", "properties": { "hex_id": 8054, "count": 5, "date": "2025-12-02", "n_files": 22, "pct": 22.73 }, "geometry": { "type": "Polygon", "coordinates": [ [ [ -70.7499822, 48.6246383 ], [ -70.7478022, 48.6505365 ], [ -70.7805702, 48.664733 ], [ -70.8155057, 48.6530204 ], [ -70.8176513, 48.6271199 ], [ -70.7848959, 48.6129343 ], [ -70.7499822, 48.6246383 ] ] ] } },
{ "type": "Feature", "properties": { "hex_id": 8475, "count": 7, "date": "2025-12-02", "n_files": 22, "pct": 31.82 }, "geometry": { "type": "Polygon", "coordinates": [ [ [ -70.6861285, 46.5567573 ], [ -70.6840703, 46.5826627 ], [ -70.7155867, 46.5968412 ], [ -70.7491501, 46.585104 ], [ -70.7511776, 46.5591964 ], [ -70.7196723, 46.5450281 ], [ -70.6861285, 46.5567573 ] ] ] } },
{ "type": "Feature", "properties": { "hex_id": 8540, "count": 7, "date": "2025-12-02", "n_files": 22, "pct": 31.82 }, "geometry": { "type": "Polygon", "coordinates": [ [ [ -70.6504957, 46.5943803 ], [ -70.6484178, 46.6202844 ], [ -70.6799453, 46.634473 ], [ -70.7135396, 46.6227474 ], [ -70.7155867, 46.5968412 ], [ -70.6840703, 46.5826627 ], [ -70.6504957, 46.5943803 ] ] ] } },
{ "type": "Feature", "properties": { "hex_id": 8603, "count": 7, "date": "2025-12-02", "n_files": 22, "pct": 31.82 }, "geometry": { "type": "Polygon", "coordinates": [ [ [ -70.621088, 46.5542814 ], [ -70.618999, 46.5801846 ], [ -70.6504957, 46.5943803 ], [ -70.6840703, 46.5826627 ], [ -70.6861285, 46.5567573 ], [ -70.6546429, 46.5425717 ], [ -70.621088, 46.5542814 ] ] ] } },
{ "type": "Feature", "properties": { "hex_id": 10813, "count": 11, "date": "2025-12-02", "n_files": 22, "pct": 50.0 }, "geometry": { "type": "Polygon", "coordinates": [ [ [ -69.2309497, 49.1430842 ], [ -69.2279383, 49.1689198 ], [ -69.2605633, 49.1835446 ], [ -69.2961885, 49.1723224 ], [ -69.2991648, 49.1464836 ], [ -69.266551, 49.131870199999987 ], [ -69.2309497, 49.1430842 ] ] ] } },
{ "type": "Feature", "properties": { "hex_id": 10878, "count": 11, "date": "2025-12-02", "n_files": 22, "pct": 50.0 }, "geometry": { "type": "Polygon", "coordinates": [ [ [ -69.192302, 49.1801205 ], [ -69.189266500000016, 49.2059542 ], [ -69.2219026, 49.2205904 ], [ -69.257563, 49.2093814 ], [ -69.2605633, 49.1835446 ], [ -69.2279383, 49.1689198 ], [ -69.192302, 49.1801205 ] ] ] } },
{ "type": "Feature", "properties": { "hex_id": 10941, "count": 11, "date": "2025-12-02", "n_files": 22, "pct": 50.0 }, "geometry": { "type": "Polygon", "coordinates": [ [ [ -69.1627476, 49.1396447 ], [ -69.1597011, 49.1654772 ], [ -69.192302, 49.1801205 ], [ -69.2279383, 49.1689198 ], [ -69.2309497, 49.1430842 ], [ -69.1983599, 49.1284523 ], [ -69.1627476, 49.1396447 ] ] ] } },
{ "type": "Feature", "properties": { "hex_id": 13496, "count": 1, "date": "2025-12-02", "n_files": 22, "pct": 4.55 }, "geometry": { "type": "Polygon", "coordinates": [ [ [ -67.8571577, 48.6759791 ], [ -67.8534933, 48.7017467 ], [ -67.8853827, 48.716728499999988 ], [ -67.9209274, 48.7059313 ], [ -67.9245579, 48.6801599 ], [ -67.8926777, 48.6651895 ], [ -67.8571577, 48.6759791 ] ] ] } },
{ "type": "Feature", "properties": { "hex_id": 13624, "count": 1, "date": "2025-12-02", "n_files": 22, "pct": 4.55 }, "geometry": { "type": "Polygon", "coordinates": [ [ [ -67.7897731, 48.6717592 ], [ -67.7860749, 48.697523 ], [ -67.8179395, 48.7125225 ], [ -67.8534933, 48.7017467 ], [ -67.8571577, 48.6759791 ], [ -67.8253022, 48.6609911 ], [ -67.7897731, 48.6717592 ] ] ] } }
]
}
