{
"type": "FeatureCollection",
"name": "daily_2026-01-30",
"crs": { "type": "name", "properties": { "name": "urn:ogc:def:crs:OGC:1.3:CRS84" } },
"features": [
{ "type": "Feature", "properties": { "hex_id": 647214, "centroid_lon": -72.783443432814991, "centroid_lat": 46.070806727434977, "occurrences_today": 16, "datetimes_today": "2026-01-30 01:31:35, 2026-01-30 01:46:38, 2026-01-30 02:01:47, 2026-01-30 02:07:25, 2026-01-30 02:17:12, 2026-01-30 02:31:53, 2026-01-30 02:46:40, 2026-01-30 02:53:18, 2026-01-30 03:01:38, 2026-01-30 03:16:54, 2026-01-30 03:31:42, 2026-01-30 03:46:40, 2026-01-30 03:57:37, 2026-01-30 04:02:06, 2026-01-30 04:17:05, 2026-01-30 04:31:52", "cumulative_total": 18.0 }, "geometry": { "type": "Polygon", "coordinates": [ [ [ -72.783651360453149, 46.065614332061294 ], [ -72.790007782244018, 46.068335686551883 ], [ -72.789800430963638, 46.073528101742333 ], [ -72.783235448021387, 46.075999117342079 ], [ -72.776878507037907, 46.07327737945068 ], [ -72.777087068169848, 46.068085009425943 ], [ -72.783651360453149, 46.065614332061294 ] ] ] } },
{ "type": "Feature", "properties": { "hex_id": 647824, "centroid_lon": -72.777295571990152, "centroid_lat": 46.062892633930531, "occurrences_today": 16, "datetimes_today": "2026-01-30 01:31:35, 2026-01-30 01:46:38, 2026-01-30 02:01:47, 2026-01-30 02:07:25, 2026-01-30 02:17:12, 2026-01-30 02:31:53, 2026-01-30 02:46:40, 2026-01-30 02:53:18, 2026-01-30 03:01:38, 2026-01-30 03:16:54, 2026-01-30 03:31:42, 2026-01-30 03:46:40, 2026-01-30 03:57:37, 2026-01-30 04:02:06, 2026-01-30 04:17:05, 2026-01-30 04:31:52", "cumulative_total": 18.0 }, "geometry": { "type": "Polygon", "coordinates": [ [ [ -72.777504018518371, 46.057700252964686 ], [ -72.783859230955301, 46.060421931221249 ], [ -72.783651360453149, 46.065614332061294 ], [ -72.777087068169848, 46.068085009425943 ], [ -72.770731337008698, 46.065362947816858 ], [ -72.770940416835572, 46.060170592261194 ], [ -72.777504018518371, 46.057700252964686 ] ] ] } },
{ "type": "Feature", "properties": { "hex_id": 648435, "centroid_lon": -72.770522199714122, "centroid_lat": 46.070555297897748, "occurrences_today": 16, "datetimes_today": "2026-01-30 01:31:35, 2026-01-30 01:46:38, 2026-01-30 02:01:47, 2026-01-30 02:07:25, 2026-01-30 02:17:12, 2026-01-30 02:31:53, 2026-01-30 02:46:40, 2026-01-30 02:53:18, 2026-01-30 03:01:38, 2026-01-30 03:16:54, 2026-01-30 03:31:42, 2026-01-30 03:46:40, 2026-01-30 03:57:37, 2026-01-30 04:02:06, 2026-01-30 04:17:05, 2026-01-30 04:31:52", "cumulative_total": 18.0 }, "geometry": { "type": "Polygon", "coordinates": [ [ [ -72.770731337008698, 46.065362947816858 ], [ -72.777087068169848, 46.068085009425943 ], [ -72.776878507037907, 46.07327737945068 ], [ -72.770313004932277, 46.075747642503643 ], [ -72.763956755105539, 46.073025197381398 ], [ -72.764166526030479, 46.067832872784955 ], [ -72.770731337008698, 46.065362947816858 ] ] ] } },
{ "type": "Feature", "properties": { "hex_id": 649045, "centroid_lon": -72.764376239312057, "centroid_lat": 46.062640542709374, "occurrences_today": 16, "datetimes_today": "2026-01-30 01:31:35, 2026-01-30 01:46:38, 2026-01-30 02:01:47, 2026-01-30 02:07:25, 2026-01-30 02:17:12, 2026-01-30 02:31:53, 2026-01-30 02:46:40, 2026-01-30 02:53:18, 2026-01-30 03:01:38, 2026-01-30 03:16:54, 2026-01-30 03:31:42, 2026-01-30 03:46:40, 2026-01-30 03:57:37, 2026-01-30 04:02:06, 2026-01-30 04:17:05, 2026-01-30 04:31:52", "cumulative_total": 18.0 }, "geometry": { "type": "Polygon", "coordinates": [ [ [ -72.764585894969883, 46.057448207154913 ], [ -72.770940416835572, 46.060170592261194 ], [ -72.770731337008698, 46.065362947816858 ], [ -72.764166526030479, 46.067832872784955 ], [ -72.75781148596738, 46.0651101042139 ], [ -72.758021775060314, 46.059917794205084 ], [ -72.764585894969883, 46.057448207154913 ] ] ] } },
{ "type": "Feature", "properties": { "hex_id": 649046, "centroid_lon": -72.763746926517612, "centroid_lat": 46.078217516498512, "occurrences_today": 16, "datetimes_today": "2026-01-30 01:31:35, 2026-01-30 01:46:38, 2026-01-30 02:01:47, 2026-01-30 02:07:25, 2026-01-30 02:17:12, 2026-01-30 02:31:53, 2026-01-30 02:46:40, 2026-01-30 02:53:18, 2026-01-30 03:01:38, 2026-01-30 03:16:54, 2026-01-30 03:31:42, 2026-01-30 03:46:40, 2026-01-30 03:57:37, 2026-01-30 04:02:06, 2026-01-30 04:17:05, 2026-01-30 04:31:52", "cumulative_total": 18.0 }, "geometry": { "type": "Polygon", "coordinates": [ [ [ -72.763956755105539, 46.073025197381398 ], [ -72.770313004932277, 46.075747642503643 ], [ -72.770103752643578, 46.080939981634302 ], [ -72.763537040247044, 46.083409830136041 ], [ -72.757180271813539, 46.080687001339967 ], [ -72.757390734363682, 46.07549470778158 ], [ -72.763956755105539, 46.073025197381398 ] ] ] } },
{ "type": "Feature", "properties": { "hex_id": 649656, "centroid_lon": -72.757601139075064, "centroid_lat": 46.070302408739472, "occurrences_today": 16, "datetimes_today": "2026-01-30 01:31:35, 2026-01-30 01:46:38, 2026-01-30 02:01:47, 2026-01-30 02:07:25, 2026-01-30 02:17:12, 2026-01-30 02:31:53, 2026-01-30 02:46:40, 2026-01-30 02:53:18, 2026-01-30 03:01:38, 2026-01-30 03:16:54, 2026-01-30 03:31:42, 2026-01-30 03:46:40, 2026-01-30 03:57:37, 2026-01-30 04:02:06, 2026-01-30 04:17:05, 2026-01-30 04:31:52", "cumulative_total": 18.0 }, "geometry": { "type": "Polygon", "coordinates": [ [ [ -72.75781148596738, 46.0651101042139 ], [ -72.764166526030479, 46.067832872784955 ], [ -72.763956755105539, 46.073025197381398 ], [ -72.757390734363682, 46.07549470778158 ], [ -72.751035176162119, 46.07277155558517 ], [ -72.75124615682121, 46.067579276679524 ], [ -72.75781148596738, 46.0651101042139 ] ] ] } },
{ "type": "Feature", "properties": { "hex_id": 650267, "centroid_lon": -72.750824137508189, "centroid_lat": 46.077963829002954, "occurrences_today": 16, "datetimes_today": "2026-01-30 01:31:35, 2026-01-30 01:46:38, 2026-01-30 02:01:47, 2026-01-30 02:07:25, 2026-01-30 02:17:12, 2026-01-30 02:31:53, 2026-01-30 02:46:40, 2026-01-30 02:53:18, 2026-01-30 03:01:38, 2026-01-30 03:16:54, 2026-01-30 03:31:42, 2026-01-30 03:46:40, 2026-01-30 03:57:37, 2026-01-30 04:02:06, 2026-01-30 04:17:05, 2026-01-30 04:31:52", "cumulative_total": 18.0 }, "geometry": { "type": "Polygon", "coordinates": [ [ [ -72.751035176162119, 46.07277155558517 ], [ -72.757390734363682, 46.07549470778158 ], [ -72.757180271813539, 46.080687001339967 ], [ -72.75061304083971, 46.083156096932669 ], [ -72.744256964558815, 46.080432560950221 ], [ -72.744468637311329, 46.075240313226693 ], [ -72.751035176162119, 46.07277155558517 ] ] ] } },
{ "type": "Feature", "properties": { "hex_id": 650877, "centroid_lon": -72.744680251893215, "centroid_lat": 46.07004806001094, "occurrences_today": 16, "datetimes_today": "2026-01-30 01:31:35, 2026-01-30 01:46:38, 2026-01-30 02:01:47, 2026-01-30 02:07:25, 2026-01-30 02:17:12, 2026-01-30 02:31:53, 2026-01-30 02:46:40, 2026-01-30 02:53:18, 2026-01-30 03:01:38, 2026-01-30 03:16:54, 2026-01-30 03:31:42, 2026-01-30 03:46:40, 2026-01-30 03:57:37, 2026-01-30 04:02:06, 2026-01-30 04:17:05, 2026-01-30 04:31:52", "cumulative_total": 18.0 }, "geometry": { "type": "Polygon", "coordinates": [ [ [ -72.744891808324255, 46.064855801303189 ], [ -72.75124615682121, 46.067579276679524 ], [ -72.751035176162119, 46.07277155558517 ], [ -72.744468637311329, 46.075240313226693 ], [ -72.73811377120316, 46.072516454112886 ], [ -72.7383259615372, 46.067324221160597 ], [ -72.744891808324255, 46.064855801303189 ] ] ] } },
{ "type": "Feature", "properties": { "hex_id": 651488, "centroid_lon": -72.737901522542487, "centroid_lat": 46.077708681568794, "occurrences_today": 16, "datetimes_today": "2026-01-30 01:31:35, 2026-01-30 01:46:38, 2026-01-30 02:01:47, 2026-01-30 02:07:25, 2026-01-30 02:17:12, 2026-01-30 02:31:53, 2026-01-30 02:46:40, 2026-01-30 02:53:18, 2026-01-30 03:01:38, 2026-01-30 03:16:54, 2026-01-30 03:31:42, 2026-01-30 03:46:40, 2026-01-30 03:57:37, 2026-01-30 04:02:06, 2026-01-30 04:17:05, 2026-01-30 04:31:52", "cumulative_total": 18.0 }, "geometry": { "type": "Polygon", "coordinates": [ [ [ -72.73811377120316, 46.072516454112886 ], [ -72.744468637311329, 46.075240313226693 ], [ -72.744256964558815, 46.080432560950221 ], [ -72.737689215535312, 46.082900903528071 ], [ -72.731333831875403, 46.080176660516166 ], [ -72.731546714770886, 46.0749844588901 ], [ -72.73811377120316, 46.072516454112886 ] ] ] } },
{ "type": "Feature", "properties": { "hex_id": 652098, "centroid_lon": -72.73175953916386, "centroid_lat": 46.069792251763225, "occurrences_today": 16, "datetimes_today": "2026-01-30 01:31:35, 2026-01-30 01:46:38, 2026-01-30 02:01:47, 2026-01-30 02:07:25, 2026-01-30 02:17:12, 2026-01-30 02:31:53, 2026-01-30 02:46:40, 2026-01-30 02:53:18, 2026-01-30 03:01:38, 2026-01-30 03:16:54, 2026-01-30 03:31:42, 2026-01-30 03:46:40, 2026-01-30 03:57:37, 2026-01-30 04:02:06, 2026-01-30 04:17:05, 2026-01-30 04:31:52", "cumulative_total": 18.0 }, "geometry": { "type": "Polygon", "coordinates": [ [ [ -72.731972305074265, 46.064600039135783 ], [ -72.7383259615372, 46.067324221160597 ], [ -72.73811377120316, 46.072516454112886 ], [ -72.731546714770886, 46.0749844588901 ], [ -72.725192541224118, 46.07225989301584 ], [ -72.725405941173562, 46.067067706279396 ], [ -72.731972305074265, 46.064600039135783 ] ] ] } },
{ "type": "Feature", "properties": { "hex_id": 652099, "centroid_lon": -72.731120890457532, "centroid_lat": 46.085368856641175, "occurrences_today": 16, "datetimes_today": "2026-01-30 01:31:35, 2026-01-30 01:46:38, 2026-01-30 02:01:47, 2026-01-30 02:07:25, 2026-01-30 02:17:12, 2026-01-30 02:31:53, 2026-01-30 02:46:40, 2026-01-30 02:53:18, 2026-01-30 03:01:38, 2026-01-30 03:16:54, 2026-01-30 03:31:42, 2026-01-30 03:46:40, 2026-01-30 03:57:37, 2026-01-30 04:02:06, 2026-01-30 04:17:05, 2026-01-30 04:31:52", "cumulative_total": 18.0 }, "geometry": { "type": "Polygon", "coordinates": [ [ [ -72.731333831875403, 46.080176660516166 ], [ -72.737689215535312, 46.082900903528071 ], [ -72.737476850161784, 46.088093119990461 ], [ -72.730907890497321, 46.090561047264899 ], [ -72.724551989345386, 46.087836420194265 ], [ -72.724765565330003, 46.082644249973519 ], [ -72.731333831875403, 46.080176660516166 ] ] ] } },
{ "type": "Feature", "properties": { "hex_id": 652709, "centroid_lon": -72.724979082616258, "centroid_lat": 46.077452074247297, "occurrences_today": 16, "datetimes_today": "2026-01-30 01:31:35, 2026-01-30 01:46:38, 2026-01-30 02:01:47, 2026-01-30 02:07:25, 2026-01-30 02:17:12, 2026-01-30 02:31:53, 2026-01-30 02:46:40, 2026-01-30 02:53:18, 2026-01-30 03:01:38, 2026-01-30 03:16:54, 2026-01-30 03:31:42, 2026-01-30 03:46:40, 2026-01-30 03:57:37, 2026-01-30 04:02:06, 2026-01-30 04:17:05, 2026-01-30 04:31:52", "cumulative_total": 18.0 }, "geometry": { "type": "Polygon", "coordinates": [ [ [ -72.725192541224118, 46.07225989301584 ], [ -72.731546714770886, 46.0749844588901 ], [ -72.731333831875403, 46.080176660516166 ], [ -72.724765565330003, 46.082644249973519 ], [ -72.718410874759215, 46.079919300089216 ], [ -72.718624967737895, 46.074727144823171 ], [ -72.725192541224118, 46.07225989301584 ] ] ] } },
{ "type": "Feature", "properties": { "hex_id": 682035, "centroid_lon": -72.39874361218196, "centroid_lat": 46.413448540651316, "occurrences_today": 1, "datetimes_today": "2026-01-30 05:17:05", "cumulative_total": 1.0 }, "geometry": { "type": "Polygon", "coordinates": [ [ [ -72.398990537818165, 46.40825792615373 ], [ -72.405365967162709, 46.411000963606106 ], [ -72.405119622785875, 46.416191601851985 ], [ -72.398496618390695, 46.418639149401251 ], [ -72.392120675953549, 46.415895720624711 ], [ -72.39236825098078, 46.410705135689319 ], [ -72.398990537818165, 46.40825792615373 ] ] ] } },
{ "type": "Feature", "properties": { "hex_id": 682646, "centroid_lon": -72.391873032590198, "centroid_lat": 46.421086299807243, "occurrences_today": 1, "datetimes_today": "2026-01-30 05:17:05", "cumulative_total": 1.0 }, "geometry": { "type": "Polygon", "coordinates": [ [ [ -72.392120675953549, 46.415895720624711 ], [ -72.398496618390695, 46.418639149401251 ], [ -72.398249556420964, 46.423829752403215 ], [ -72.391625320867263, 46.426276873236631 ], [ -72.385248865407817, 46.423533052974136 ], [ -72.385497158500883, 46.418342503430438 ], [ -72.392120675953549, 46.415895720624711 ] ] ] } },
{ "type": "Feature", "properties": { "hex_id": 683256, "centroid_lon": -72.385745383076753, "centroid_lat": 46.4131519481287, "occurrences_today": 1, "datetimes_today": "2026-01-30 05:17:05", "cumulative_total": 1.0 }, "geometry": { "type": "Polygon", "coordinates": [ [ [ -72.385993539158903, 46.407961387069271 ], [ -72.39236825098078, 46.410705135689319 ], [ -72.392120675953549, 46.415895720624711 ], [ -72.385497158500883, 46.418342503430438 ], [ -72.379121934129572, 46.415598363376091 ], [ -72.379370739736828, 46.41040783201656 ], [ -72.385993539158903, 46.407961387069271 ] ] ] } },
{ "type": "Feature", "properties": { "hex_id": 683257, "centroid_lon": -72.385000503773966, "centroid_lat": 46.428723596759461, "occurrences_today": 1, "datetimes_today": "2026-01-30 05:17:05", "cumulative_total": 1.0 }, "geometry": { "type": "Polygon", "coordinates": [ [ [ -72.385248865407817, 46.423533052974136 ], [ -72.391625320867263, 46.426276873236631 ], [ -72.391377540761255, 46.431467440912499 ], [ -72.384752073575811, 46.433914134786079 ], [ -72.378375105164594, 46.43116992287581 ], [ -72.378624116867044, 46.425979408806057 ], [ -72.385248865407817, 46.423533052974136 ] ] ] } },
{ "type": "Feature", "properties": { "hex_id": 683867, "centroid_lon": -72.378873059847507, "centroid_lat": 46.420788888972695, "occurrences_today": 1, "datetimes_today": "2026-01-30 05:17:05", "cumulative_total": 1.0 }, "geometry": { "type": "Polygon", "coordinates": [ [ [ -72.379121934129572, 46.415598363376091 ], [ -72.385497158500883, 46.418342503430438 ], [ -72.385248865407817, 46.423533052974136 ], [ -72.378624116867044, 46.425979408806057 ], [ -72.372248380016927, 46.423234877155679 ], [ -72.372497904162771, 46.418044381335683 ], [ -72.379121934129572, 46.415598363376091 ] ] ] } },
{ "type": "Feature", "properties": { "hex_id": 684477, "centroid_lon": -72.37274735945266, "centroid_lat": 46.412853879747537, "occurrences_today": 1, "datetimes_today": "2026-01-30 05:17:05", "cumulative_total": 1.0 }, "geometry": { "type": "Polygon", "coordinates": [ [ [ -72.372996745910214, 46.407663372391575 ], [ -72.379370739736828, 46.41040783201656 ], [ -72.379121934129572, 46.415598363376091 ], [ -72.372497904162771, 46.418044381335683 ], [ -72.366123398330004, 46.415299530166408 ], [ -72.366373434446572, 46.410109052648082 ], [ -72.372996745910214, 46.407663372391575 ] ] ] } },
{ "type": "Feature", "properties": { "hex_id": 684478, "centroid_lon": -72.371998786991483, "centroid_lat": 46.428425367207197, "occurrences_today": 1, "datetimes_today": "2026-01-30 05:17:05", "cumulative_total": 1.0 }, "geometry": { "type": "Polygon", "coordinates": [ [ [ -72.372248380016927, 46.423234877155679 ], [ -72.378624116867044, 46.425979408806057 ], [ -72.378375105164594, 46.43116992287581 ], [ -72.371749125062749, 46.433615851489911 ], [ -72.365372875804724, 46.430870928081724 ], [ -72.36562311903279, 46.425680467883573 ], [ -72.372248380016927, 46.423234877155679 ] ] ] } },
{ "type": "Feature", "properties": { "hex_id": 685088, "centroid_lon": -72.365873293199968, "centroid_lat": 46.420490001911681, "occurrences_today": 1, "datetimes_today": "2026-01-30 05:17:05", "cumulative_total": 1.0 }, "geometry": { "type": "Polygon", "coordinates": [ [ [ -72.366123398330004, 46.415299530166408 ], [ -72.372497904162771, 46.418044381335683 ], [ -72.372248380016927, 46.423234877155679 ], [ -72.36562311903279, 46.425680467883573 ], [ -72.359248101264853, 46.422935225008302 ], [ -72.35949885639252, 46.417744783177405 ], [ -72.366123398330004, 46.415299530166408 ] ] ] } }
]
}
