{
"type": "FeatureCollection",
"name": "daily_2025-12-09",
"crs": { "type": "name", "properties": { "name": "urn:ogc:def:crs:OGC:1.3:CRS84" } },
"features": [
{ "type": "Feature", "properties": { "hex_id": 21, "count": 11, "date": "2025-12-09", "n_files": 22, "pct": 50.0 }, "geometry": { "type": "Polygon", "coordinates": [ [ [ -74.991578, 46.1705269 ], [ -74.991574, 46.1965078 ], [ -75.0239808, 46.209496 ], [ -75.0563763, 46.1964942 ], [ -75.0563498, 46.1705133 ], [ -75.0239582, 46.1575342 ], [ -74.991578, 46.1705269 ] ] ] } },
{ "type": "Feature", "properties": { "hex_id": 22, "count": 11, "date": "2025-12-09", "n_files": 22, "pct": 50.0 }, "geometry": { "type": "Polygon", "coordinates": [ [ [ -74.9915661, 46.2484693 ], [ -74.9915621, 46.2744498 ], [ -75.0240148, 46.2874379 ], [ -75.0564562, 46.2744362 ], [ -75.0564295, 46.2484556 ], [ -75.0239921, 46.2354767 ], [ -74.9915661, 46.2484693 ] ] ] } },
{ "type": "Feature", "properties": { "hex_id": 85, "count": 11, "date": "2025-12-09", "n_files": 22, "pct": 50.0 }, "geometry": { "type": "Polygon", "coordinates": [ [ [ -74.9592209, 46.1315483 ], [ -74.9592017, 46.1575294 ], [ -74.991578, 46.1705269 ], [ -75.0239582, 46.1575342 ], [ -75.023947, 46.1315531 ], [ -74.9915859, 46.1185647 ], [ -74.9592209, 46.1315483 ] ] ] } },
{ "type": "Feature", "properties": { "hex_id": 86, "count": 11, "date": "2025-12-09", "n_files": 22, "pct": 50.0 }, "geometry": { "type": "Polygon", "coordinates": [ [ [ -74.9591632, 46.2094912 ], [ -74.959144, 46.2354719 ], [ -74.9915661, 46.2484693 ], [ -75.0239921, 46.2354767 ], [ -75.0239808, 46.209496 ], [ -74.991574, 46.1965078 ], [ -74.9591632, 46.2094912 ] ] ] } },
{ "type": "Feature", "properties": { "hex_id": 87, "count": 11, "date": "2025-12-09", "n_files": 22, "pct": 50.0 }, "geometry": { "type": "Polygon", "coordinates": [ [ [ -74.9591054, 46.2874331 ], [ -74.959086, 46.3134134 ], [ -74.9915541, 46.3264106 ], [ -75.0240262, 46.3134182 ], [ -75.0240148, 46.2874379 ], [ -74.9915621, 46.2744498 ], [ -74.9591054, 46.2874331 ] ] ] } },
{ "type": "Feature", "properties": { "hex_id": 149, "count": 11, "date": "2025-12-09", "n_files": 22, "pct": 50.0 }, "geometry": { "type": "Polygon", "coordinates": [ [ [ -74.9268062, 46.1705037 ], [ -74.9267717, 46.1964846 ], [ -74.9591632, 46.2094912 ], [ -74.991574, 46.1965078 ], [ -74.991578, 46.1705269 ], [ -74.9592017, 46.1575294 ], [ -74.9268062, 46.1705037 ] ] ] } },
{ "type": "Feature", "properties": { "hex_id": 150, "count": 11, "date": "2025-12-09", "n_files": 22, "pct": 50.0 }, "geometry": { "type": "Polygon", "coordinates": [ [ [ -74.9267026, 46.2484461 ], [ -74.926668, 46.2744266 ], [ -74.9591054, 46.2874331 ], [ -74.9915621, 46.2744498 ], [ -74.9915661, 46.2484693 ], [ -74.959144, 46.2354719 ], [ -74.9267026, 46.2484461 ] ] ] } },
{ "type": "Feature", "properties": { "hex_id": 213, "count": 11, "date": "2025-12-09", "n_files": 22, "pct": 50.0 }, "geometry": { "type": "Polygon", "coordinates": [ [ [ -74.8944949, 46.1315069 ], [ -74.8944452, 46.1574879 ], [ -74.9268062, 46.1705037 ], [ -74.9592017, 46.1575294 ], [ -74.9592209, 46.1315483 ], [ -74.9268751, 46.1185416 ], [ -74.8944949, 46.1315069 ] ] ] } },
{ "type": "Feature", "properties": { "hex_id": 214, "count": 11, "date": "2025-12-09", "n_files": 22, "pct": 50.0 }, "geometry": { "type": "Polygon", "coordinates": [ [ [ -74.8943457, 46.2094497 ], [ -74.8942959, 46.2354304 ], [ -74.9267026, 46.2484461 ], [ -74.959144, 46.2354719 ], [ -74.9591632, 46.2094912 ], [ -74.9267717, 46.1964846 ], [ -74.8943457, 46.2094497 ] ] ] } },
{ "type": "Feature", "properties": { "hex_id": 215, "count": 11, "date": "2025-12-09", "n_files": 22, "pct": 50.0 }, "geometry": { "type": "Polygon", "coordinates": [ [ [ -74.894196, 46.2873914 ], [ -74.8941459, 46.3133718 ], [ -74.9265986, 46.3263873 ], [ -74.959086, 46.3134134 ], [ -74.9591054, 46.2874331 ], [ -74.926668, 46.2744266 ], [ -74.894196, 46.2873914 ] ] ] } },
{ "type": "Feature", "properties": { "hex_id": 277, "count": 12, "date": "2025-12-09", "n_files": 22, "pct": 54.55 }, "geometry": { "type": "Polygon", "coordinates": [ [ [ -74.8620346, 46.1704439 ], [ -74.8619696, 46.1964248 ], [ -74.8943457, 46.2094497 ], [ -74.9267717, 46.1964846 ], [ -74.9268062, 46.1705037 ], [ -74.8944452, 46.1574879 ], [ -74.8620346, 46.1704439 ] ] ] } },
{ "type": "Feature", "properties": { "hex_id": 278, "count": 11, "date": "2025-12-09", "n_files": 22, "pct": 50.0 }, "geometry": { "type": "Polygon", "coordinates": [ [ [ -74.8618393, 46.2483861 ], [ -74.861774, 46.2743666 ], [ -74.894196, 46.2873914 ], [ -74.926668, 46.2744266 ], [ -74.9267026, 46.2484461 ], [ -74.8942959, 46.2354304 ], [ -74.8618393, 46.2483861 ] ] ] } },
{ "type": "Feature", "properties": { "hex_id": 309, "count": 10, "date": "2025-12-09", "n_files": 22, "pct": 45.45 }, "geometry": { "type": "Polygon", "coordinates": [ [ [ -74.8553623, 48.6640648 ], [ -74.8552879, 48.6900343 ], [ -74.8892289, 48.7030566 ], [ -74.923227, 48.6900996 ], [ -74.9232664, 48.66413 ], [ -74.8893427, 48.6511176 ], [ -74.8553623, 48.6640648 ] ] ] } },
{ "type": "Feature", "properties": { "hex_id": 341, "count": 12, "date": "2025-12-09", "n_files": 22, "pct": 54.55 }, "geometry": { "type": "Polygon", "coordinates": [ [ [ -74.8297691, 46.1314288 ], [ -74.829689, 46.1574098 ], [ -74.8620346, 46.1704439 ], [ -74.8944452, 46.1574879 ], [ -74.8944949, 46.1315069 ], [ -74.8621643, 46.1184819 ], [ -74.8297691, 46.1314288 ] ] ] } },
{ "type": "Feature", "properties": { "hex_id": 342, "count": 12, "date": "2025-12-09", "n_files": 22, "pct": 54.55 }, "geometry": { "type": "Polygon", "coordinates": [ [ [ -74.8295285, 46.2093714 ], [ -74.829448, 46.235352 ], [ -74.8618393, 46.2483861 ], [ -74.8942959, 46.2354304 ], [ -74.8943457, 46.2094497 ], [ -74.8619696, 46.1964248 ], [ -74.8295285, 46.2093714 ] ] ] } },
{ "type": "Feature", "properties": { "hex_id": 343, "count": 12, "date": "2025-12-09", "n_files": 22, "pct": 54.55 }, "geometry": { "type": "Polygon", "coordinates": [ [ [ -74.8292868, 46.2873129 ], [ -74.8292061, 46.3132932 ], [ -74.8616432, 46.3263272 ], [ -74.8941459, 46.3133718 ], [ -74.894196, 46.2873914 ], [ -74.861774, 46.2743666 ], [ -74.8292868, 46.2873129 ] ] ] } },
{ "type": "Feature", "properties": { "hex_id": 405, "count": 12, "date": "2025-12-09", "n_files": 22, "pct": 54.55 }, "geometry": { "type": "Polygon", "coordinates": [ [ [ -74.7972633, 46.1703474 ], [ -74.7971677, 46.1963282 ], [ -74.8295285, 46.2093714 ], [ -74.8619696, 46.1964248 ], [ -74.8620346, 46.1704439 ], [ -74.829689, 46.1574098 ], [ -74.7972633, 46.1703474 ] ] ] } },
{ "type": "Feature", "properties": { "hex_id": 406, "count": 12, "date": "2025-12-09", "n_files": 22, "pct": 54.55 }, "geometry": { "type": "Polygon", "coordinates": [ [ [ -74.7969763, 46.248289299999989 ], [ -74.7968804, 46.2742697 ], [ -74.8292868, 46.2873129 ], [ -74.861774, 46.2743666 ], [ -74.8618393, 46.2483861 ], [ -74.829448, 46.235352 ], [ -74.7969763, 46.248289299999989 ] ] ] } },
{ "type": "Feature", "properties": { "hex_id": 470, "count": 12, "date": "2025-12-09", "n_files": 22, "pct": 54.55 }, "geometry": { "type": "Polygon", "coordinates": [ [ [ -74.7647115, 46.2092564 ], [ -74.7646005, 46.2352369 ], [ -74.7969763, 46.248289299999989 ], [ -74.829448, 46.235352 ], [ -74.8295285, 46.2093714 ], [ -74.7971677, 46.1963282 ], [ -74.7647115, 46.2092564 ] ] ] } },
{ "type": "Feature", "properties": { "hex_id": 471, "count": 12, "date": "2025-12-09", "n_files": 22, "pct": 54.55 }, "geometry": { "type": "Polygon", "coordinates": [ [ [ -74.764378, 46.2871976 ], [ -74.7642665, 46.3131778 ], [ -74.7966881, 46.3262302 ], [ -74.8292061, 46.3132932 ], [ -74.8292868, 46.2873129 ], [ -74.7968804, 46.2742697 ], [ -74.764378, 46.2871976 ] ] ] } },
{ "type": "Feature", "properties": { "hex_id": 534, "count": 12, "date": "2025-12-09", "n_files": 22, "pct": 54.55 }, "geometry": { "type": "Polygon", "coordinates": [ [ [ -74.7321137, 46.2481557 ], [ -74.7319871, 46.274136 ], [ -74.764378, 46.2871976 ], [ -74.7968804, 46.2742697 ], [ -74.7969763, 46.248289299999989 ], [ -74.7646005, 46.2352369 ], [ -74.7321137, 46.2481557 ] ] ] } },
{ "type": "Feature", "properties": { "hex_id": 853, "count": 1, "date": "2025-12-09", "n_files": 22, "pct": 4.55 }, "geometry": { "type": "Polygon", "coordinates": [ [ [ -74.5708704, 46.1307501 ], [ -74.5706685, 46.1567304 ], [ -74.6029521, 46.1698377 ], [ -74.6354227, 46.1569553 ], [ -74.6355942, 46.1309747 ], [ -74.6033254, 46.1178767 ], [ -74.5708704, 46.1307501 ] ] ] } },
{ "type": "Feature", "properties": { "hex_id": 1172, "count": 3, "date": "2025-12-09", "n_files": 22, "pct": 13.64 }, "geometry": { "type": "Polygon", "coordinates": [ [ [ -74.4094814, 46.0910583 ], [ -74.4092039, 46.1170382 ], [ -74.4414256, 46.1301908 ], [ -74.4739101, 46.1173543 ], [ -74.4741572, 46.0913742 ], [ -74.4419501, 46.0782307 ], [ -74.4094814, 46.0910583 ] ] ] } },
{ "type": "Feature", "properties": { "hex_id": 2255, "count": 3, "date": "2025-12-09", "n_files": 22, "pct": 13.64 }, "geometry": { "type": "Polygon", "coordinates": [ [ [ -73.8685284, 45.6582722 ], [ -73.8680047, 45.6842504 ], [ -73.8998482, 45.697553199999987 ], [ -73.9322015, 45.6848685 ], [ -73.9326955, 45.6588898 ], [ -73.9008658, 45.6455962 ], [ -73.8685284, 45.6582722 ] ] ] } },
{ "type": "Feature", "properties": { "hex_id": 2318, "count": 3, "date": "2025-12-09", "n_files": 22, "pct": 13.64 }, "geometry": { "type": "Polygon", "coordinates": [ [ [ -73.8372519, 45.6189829 ], [ -73.8367146, 45.6449609 ], [ -73.8685284, 45.6582722 ], [ -73.9008658, 45.6455962 ], [ -73.9013735, 45.6196176 ], [ -73.8695735, 45.6063155 ], [ -73.8372519, 45.6189829 ] ] ] } },
{ "type": "Feature", "properties": { "hex_id": 2450, "count": 1, "date": "2025-12-09", "n_files": 22, "pct": 4.55 }, "geometry": { "type": "Polygon", "coordinates": [ [ [ -73.7662771, 45.9300336 ], [ -73.7657007, 45.9560096 ], [ -73.7976732, 45.9693416 ], [ -73.8302083, 45.9566882 ], [ -73.8307546, 45.9307116 ], [ -73.7987959, 45.917389 ], [ -73.7662771, 45.9300336 ] ] ] } },
{ "type": "Feature", "properties": { "hex_id": 2515, "count": 1, "date": "2025-12-09", "n_files": 22, "pct": 4.55 }, "geometry": { "type": "Polygon", "coordinates": [ [ [ -73.7331517, 45.9686445 ], [ -73.7325591, 45.9946199 ], [ -73.7645455, 46.0079612 ], [ -73.7971107, 45.9953177 ], [ -73.7976732, 45.9693416 ], [ -73.7657007, 45.9560096 ], [ -73.7331517, 45.9686445 ] ] ] } },
{ "type": "Feature", "properties": { "hex_id": 2635, "count": 4, "date": "2025-12-09", "n_files": 22, "pct": 18.18 }, "geometry": { "type": "Polygon", "coordinates": [ [ [ -73.6833275, 45.3444778 ], [ -73.6827248, 45.3704556 ], [ -73.7143484, 45.3838084 ], [ -73.7465614, 45.3711741 ], [ -73.7471349, 45.3451957 ], [ -73.7155247, 45.3318521 ], [ -73.6833275, 45.3444778 ] ] ] } },
{ "type": "Feature", "properties": { "hex_id": 2698, "count": 4, "date": "2025-12-09", "n_files": 22, "pct": 18.18 }, "geometry": { "type": "Polygon", "coordinates": [ [ [ -73.6523491, 45.3051391 ], [ -73.6517331, 45.3311168 ], [ -73.6833275, 45.3444778 ], [ -73.7155247, 45.3318521 ], [ -73.7161116, 45.3058738 ], [ -73.6845305, 45.292521799999989 ], [ -73.6523491, 45.3051391 ] ] ] } },
{ "type": "Feature", "properties": { "hex_id": 2763, "count": 4, "date": "2025-12-09", "n_files": 22, "pct": 18.18 }, "geometry": { "type": "Polygon", "coordinates": [ [ [ -73.6195226, 45.3437244 ], [ -73.6188907, 45.3697015 ], [ -73.6504985, 45.3830717 ], [ -73.6827248, 45.3704556 ], [ -73.6833275, 45.3444778 ], [ -73.6517331, 45.3311168 ], [ -73.6195226, 45.3437244 ] ] ] } },
{ "type": "Feature", "properties": { "hex_id": 2765, "count": 2, "date": "2025-12-09", "n_files": 22, "pct": 9.09 }, "geometry": { "type": "Polygon", "coordinates": [ [ [ -73.6157183, 45.4995853 ], [ -73.6150812, 45.5255617 ], [ -73.6467744, 45.5389336 ], [ -73.6790912, 45.5263199 ], [ -73.6796989, 45.5003429 ], [ -73.6480191, 45.4869801 ], [ -73.6157183, 45.4995853 ] ] ] } },
{ "type": "Feature", "properties": { "hex_id": 2829, "count": 1, "date": "2025-12-09", "n_files": 22, "pct": 4.55 }, "geometry": { "type": "Polygon", "coordinates": [ [ [ -73.5827509, 45.5381571 ], [ -73.5820977, 45.5641329 ], [ -73.6138044, 45.5775141 ], [ -73.6461507, 45.5649101 ], [ -73.6467744, 45.5389336 ], [ -73.6150812, 45.5255617 ], [ -73.5827509, 45.5381571 ] ] ] } },
{ "type": "Feature", "properties": { "hex_id": 2830, "count": 1, "date": "2025-12-09", "n_files": 22, "pct": 4.55 }, "geometry": { "type": "Polygon", "coordinates": [ [ [ -73.5807888, 45.6160842 ], [ -73.580133, 45.6420597 ], [ -73.6118826, 45.6554417 ], [ -73.6442746, 45.642839 ], [ -73.6449009, 45.6168628 ], [ -73.6131647, 45.6034901 ], [ -73.5807888, 45.6160842 ] ] ] } },
{ "type": "Feature", "properties": { "hex_id": 2835, "count": 2, "date": "2025-12-09", "n_files": 22, "pct": 9.09 }, "geometry": { "type": "Polygon", "coordinates": [ [ [ -73.5708565, 46.0057029 ], [ -73.5701871, 46.0316765 ], [ -73.6021546, 46.045063 ], [ -73.6347777, 46.0324665 ], [ -73.6354169, 46.0064922 ], [ -73.6034632, 45.9931151 ], [ -73.5708565, 46.0057029 ] ] ] } },
{ "type": "Feature", "properties": { "hex_id": 2893, "count": 1, "date": "2025-12-09", "n_files": 22, "pct": 4.55 }, "geometry": { "type": "Polygon", "coordinates": [ [ [ -73.5517402, 45.4987919 ], [ -73.5510737, 45.5247676 ], [ -73.5827509, 45.5381571 ], [ -73.6150812, 45.5255617 ], [ -73.6157183, 45.4995853 ], [ -73.5840545, 45.486205 ], [ -73.5517402, 45.4987919 ] ] ] } },
{ "type": "Feature", "properties": { "hex_id": 2894, "count": 1, "date": "2025-12-09", "n_files": 22, "pct": 4.55 }, "geometry": { "type": "Polygon", "coordinates": [ [ [ -73.549738, 45.5767185 ], [ -73.5490687, 45.6026938 ], [ -73.5807888, 45.6160842 ], [ -73.6131647, 45.6034901 ], [ -73.6138044, 45.5775141 ], [ -73.5820977, 45.5641329 ], [ -73.549738, 45.5767185 ] ] ] } },
{ "type": "Feature", "properties": { "hex_id": 2899, "count": 2, "date": "2025-12-09", "n_files": 22, "pct": 9.09 }, "geometry": { "type": "Polygon", "coordinates": [ [ [ -73.5396024, 45.9663346 ], [ -73.5389193, 45.992308 ], [ -73.5708565, 46.0057029 ], [ -73.6034632, 45.9931151 ], [ -73.6041162, 45.967141 ], [ -73.5721927, 45.9537554 ], [ -73.5396024, 45.9663346 ] ] ] } },
{ "type": "Feature", "properties": { "hex_id": 2963, "count": 2, "date": "2025-12-09", "n_files": 22, "pct": 9.09 }, "geometry": { "type": "Polygon", "coordinates": [ [ [ -73.5062989, 46.0048773 ], [ -73.5055992, 46.0308501 ], [ -73.5375502, 46.0442544 ], [ -73.5701871, 46.0316765 ], [ -73.5708565, 46.0057029 ], [ -73.5389193, 45.992308 ], [ -73.5062989, 46.0048773 ] ] ] } },
{ "type": "Feature", "properties": { "hex_id": 3020, "count": 1, "date": "2025-12-09", "n_files": 22, "pct": 4.55 }, "geometry": { "type": "Polygon", "coordinates": [ [ [ -73.489847, 45.420037199999989 ], [ -73.489154, 45.4460125 ], [ -73.5207723, 45.4594186 ], [ -73.5530705, 45.4468402 ], [ -73.5537343, 45.4208641 ], [ -73.5221292, 45.4074672 ], [ -73.489847, 45.420037199999989 ] ] ] } },
{ "type": "Feature", "properties": { "hex_id": 3027, "count": 2, "date": "2025-12-09", "n_files": 22, "pct": 9.09 }, "geometry": { "type": "Polygon", "coordinates": [ [ [ -73.4750915, 45.9654919 ], [ -73.4743782, 45.9914645 ], [ -73.5062989, 46.0048773 ], [ -73.5389193, 45.992308 ], [ -73.5396024, 45.9663346 ], [ -73.5076953, 45.9529312 ], [ -73.4750915, 45.9654919 ] ] ] } },
{ "type": "Feature", "properties": { "hex_id": 3028, "count": 2, "date": "2025-12-09", "n_files": 22, "pct": 9.09 }, "geometry": { "type": "Polygon", "coordinates": [ [ [ -73.4729486, 46.0434094 ], [ -73.4722324, 46.0693816 ], [ -73.504197, 46.0827954 ], [ -73.5368642, 46.0702274 ], [ -73.5375502, 46.0442544 ], [ -73.5055992, 46.0308501 ], [ -73.4729486, 46.0434094 ] ] ] } },
{ "type": "Feature", "properties": { "hex_id": 3083, "count": 1, "date": "2025-12-09", "n_files": 22, "pct": 4.55 }, "geometry": { "type": "Polygon", "coordinates": [ [ [ -73.4589642, 45.3806477 ], [ -73.458258, 45.4066228 ], [ -73.489847, 45.420037199999989 ], [ -73.5221292, 45.4074672 ], [ -73.5228063, 45.3814914 ], [ -73.4912304, 45.3680862 ], [ -73.4589642, 45.3806477 ] ] ] } },
{ "type": "Feature", "properties": { "hex_id": 3084, "count": 1, "date": "2025-12-09", "n_files": 22, "pct": 4.55 }, "geometry": { "type": "Polygon", "coordinates": [ [ [ -73.4568425, 45.4585726 ], [ -73.4561333, 45.4845474 ], [ -73.4877649, 45.4979627 ], [ -73.5200925, 45.4853941 ], [ -73.5207723, 45.4594186 ], [ -73.489154, 45.4460125 ], [ -73.4568425, 45.4585726 ] ] ] } },
{ "type": "Feature", "properties": { "hex_id": 3091, "count": 2, "date": "2025-12-09", "n_files": 22, "pct": 9.09 }, "geometry": { "type": "Polygon", "coordinates": [ [ [ -73.4417441, 46.0040152 ], [ -73.4410143, 46.0299872 ], [ -73.4729486, 46.0434094 ], [ -73.5055992, 46.0308501 ], [ -73.5062989, 46.0048773 ], [ -73.4743782, 45.9914645 ], [ -73.4417441, 46.0040152 ] ] ] } },
{ "type": "Feature", "properties": { "hex_id": 3148, "count": 2, "date": "2025-12-09", "n_files": 22, "pct": 9.09 }, "geometry": { "type": "Polygon", "coordinates": [ [ [ -73.4259626, 45.4191745 ], [ -73.4252402, 45.445149 ], [ -73.4568425, 45.4585726 ], [ -73.489154, 45.4460125 ], [ -73.489847, 45.420037199999989 ], [ -73.458258, 45.4066228 ], [ -73.4259626, 45.4191745 ] ] ] } },
{ "type": "Feature", "properties": { "hex_id": 3149, "count": 1, "date": "2025-12-09", "n_files": 22, "pct": 4.55 }, "geometry": { "type": "Polygon", "coordinates": [ [ [ -73.4237925, 45.4970977 ], [ -73.4230672, 45.5230718 ], [ -73.454712, 45.5364964 ], [ -73.487069, 45.5239376 ], [ -73.4877649, 45.4979627 ], [ -73.4561333, 45.4845474 ], [ -73.4237925, 45.4970977 ] ] ] } },
{ "type": "Feature", "properties": { "hex_id": 3212, "count": 1, "date": "2025-12-09", "n_files": 22, "pct": 4.55 }, "geometry": { "type": "Polygon", "coordinates": [ [ [ -73.3929156, 45.4576909 ], [ -73.392177, 45.4836648 ], [ -73.4237925, 45.4970977 ], [ -73.4561333, 45.4845474 ], [ -73.4568425, 45.4585726 ], [ -73.4252402, 45.445149 ], [ -73.3929156, 45.4576909 ] ] ] } },
{ "type": "Feature", "properties": { "hex_id": 3217, "count": 2, "date": "2025-12-09", "n_files": 22, "pct": 9.09 }, "geometry": { "type": "Polygon", "coordinates": [ [ [ -73.381731, 45.8472864 ], [ -73.3809771, 45.8732584 ], [ -73.4128076, 45.8866964 ], [ -73.4453785, 45.874153 ], [ -73.4461024, 45.8481802 ], [ -73.4142853, 45.8347516 ], [ -73.381731, 45.8472864 ] ] ] } },
{ "type": "Feature", "properties": { "hex_id": 3219, "count": 2, "date": "2025-12-09", "n_files": 22, "pct": 9.09 }, "geometry": { "type": "Polygon", "coordinates": [ [ [ -73.3771924, 46.0031166 ], [ -73.3764323, 46.0290878 ], [ -73.40835, 46.0425278 ], [ -73.4410143, 46.0299872 ], [ -73.4417441, 46.0040152 ], [ -73.40984, 45.9905845 ], [ -73.3771924, 46.0031166 ] ] ] } },
{ "type": "Feature", "properties": { "hex_id": 3276, "count": 1, "date": "2025-12-09", "n_files": 22, "pct": 4.55 }, "geometry": { "type": "Polygon", "coordinates": [ [ [ -73.3620811, 45.4182761 ], [ -73.3613294, 45.4442498 ], [ -73.3929156, 45.4576909 ], [ -73.4252402, 45.445149 ], [ -73.4259626, 45.4191745 ], [ -73.3943896, 45.4057427 ], [ -73.3620811, 45.4182761 ] ] ] } },
{ "type": "Feature", "properties": { "hex_id": 3277, "count": 11, "date": "2025-12-09", "n_files": 22, "pct": 50.0 }, "geometry": { "type": "Polygon", "coordinates": [ [ [ -73.359823, 45.4961969 ], [ -73.3590683, 45.5221702 ], [ -73.3906969, 45.5356123 ], [ -73.4230672, 45.5230718 ], [ -73.4237925, 45.4970977 ], [ -73.392177, 45.4836648 ], [ -73.359823, 45.4961969 ] ] ] } },
{ "type": "Feature", "properties": { "hex_id": 3288, "count": 7, "date": "2025-12-09", "n_files": 22, "pct": 31.82 }, "geometry": { "type": "Polygon", "coordinates": [ [ [ -73.3343624, 46.3532489 ], [ -73.3335727, 46.379218 ], [ -73.3656808, 46.3926717 ], [ -73.398564900000011, 46.3801468 ], [ -73.3993238, 46.3541769 ], [ -73.3672295, 46.3407327 ], [ -73.3343624, 46.3532489 ] ] ] } },
{ "type": "Feature", "properties": { "hex_id": 3340, "count": 6, "date": "2025-12-09", "n_files": 22, "pct": 27.27 }, "geometry": { "type": "Polygon", "coordinates": [ [ [ -73.3289916, 45.4567734 ], [ -73.328223800000018, 45.4827465 ], [ -73.359823, 45.4961969 ], [ -73.392177, 45.4836648 ], [ -73.3929156, 45.4576909 ], [ -73.3613294, 45.4442498 ], [ -73.3289916, 45.4567734 ] ] ] } },
{ "type": "Feature", "properties": { "hex_id": 3343, "count": 2, "date": "2025-12-09", "n_files": 22, "pct": 9.09 }, "geometry": { "type": "Polygon", "coordinates": [ [ [ -73.3220429, 45.6905267 ], [ -73.3212655, 45.7164987 ], [ -73.3529931, 45.7299522 ], [ -73.3854847, 45.7174245 ], [ -73.3862323, 45.6914517 ], [ -73.3545181, 45.6780075 ], [ -73.3220429, 45.6905267 ] ] ] } },
{ "type": "Feature", "properties": { "hex_id": 3351, "count": 7, "date": "2025-12-09", "n_files": 22, "pct": 31.82 }, "geometry": { "type": "Polygon", "coordinates": [ [ [ -73.3030884, 46.3138178 ], [ -73.302285, 46.3397867 ], [ -73.3343624, 46.3532489 ], [ -73.3672295, 46.3407327 ], [ -73.3680022, 46.314763 ], [ -73.3359385, 46.3013103 ], [ -73.3030884, 46.3138178 ] ] ] } },
{ "type": "Feature", "properties": { "hex_id": 3352, "count": 7, "date": "2025-12-09", "n_files": 22, "pct": 31.82 }, "geometry": { "type": "Polygon", "coordinates": [ [ [ -73.3006748, 46.391724 ], [ -73.2998681, 46.4176924 ], [ -73.33199, 46.4311558 ], [ -73.3649049, 46.418641 ], [ -73.3656808, 46.3926717 ], [ -73.3335727, 46.379218 ], [ -73.3006748, 46.391724 ] ] ] } },
{ "type": "Feature", "properties": { "hex_id": 3405, "count": 5, "date": "2025-12-09", "n_files": 22, "pct": 22.73 }, "geometry": { "type": "Polygon", "coordinates": [ [ [ -73.2958566, 45.4952602 ], [ -73.2950725, 45.5212327 ], [ -73.3266849, 45.5346923 ], [ -73.3590683, 45.5221702 ], [ -73.359823, 45.4961969 ], [ -73.328223800000018, 45.4827465 ], [ -73.2958566, 45.4952602 ] ] ] } },
{ "type": "Feature", "properties": { "hex_id": 3408, "count": 2, "date": "2025-12-09", "n_files": 22, "pct": 9.09 }, "geometry": { "type": "Polygon", "coordinates": [ [ [ -73.2887606, 45.7290079 ], [ -73.2879668, 45.7549793 ], [ -73.3197076, 45.7684422 ], [ -73.352229, 45.7559244 ], [ -73.3529931, 45.7299522 ], [ -73.3212655, 45.7164987 ], [ -73.2887606, 45.7290079 ] ] ] } },
{ "type": "Feature", "properties": { "hex_id": 3416, "count": 7, "date": "2025-12-09", "n_files": 22, "pct": 31.82 }, "geometry": { "type": "Polygon", "coordinates": [ [ [ -73.2694042, 46.352284 ], [ -73.2685837, 46.3782522 ], [ -73.3006748, 46.391724 ], [ -73.3335727, 46.379218 ], [ -73.3343624, 46.3532489 ], [ -73.302285, 46.3397867 ], [ -73.2694042, 46.352284 ] ] ] } },
{ "type": "Feature", "properties": { "hex_id": 3471, "count": 2, "date": "2025-12-09", "n_files": 22, "pct": 9.09 }, "geometry": { "type": "Polygon", "coordinates": [ [ [ -73.2578566, 45.6895657 ], [ -73.2570496, 45.7155368 ], [ -73.2887606, 45.7290079 ], [ -73.3212655, 45.7164987 ], [ -73.3220429, 45.6905267 ], [ -73.2903451, 45.6770649 ], [ -73.2578566, 45.6895657 ] ] ] } },
{ "type": "Feature", "properties": { "hex_id": 3479, "count": 7, "date": "2025-12-09", "n_files": 22, "pct": 31.82 }, "geometry": { "type": "Polygon", "coordinates": [ [ [ -73.238178, 46.3128358 ], [ -73.2373439, 46.3388038 ], [ -73.2694042, 46.352284 ], [ -73.302285, 46.3397867 ], [ -73.3030884, 46.3138178 ], [ -73.2710418, 46.3003472 ], [ -73.238178, 46.3128358 ] ] ] } },
{ "type": "Feature", "properties": { "hex_id": 3480, "count": 7, "date": "2025-12-09", "n_files": 22, "pct": 31.82 }, "geometry": { "type": "Polygon", "coordinates": [ [ [ -73.2356722, 46.3907393 ], [ -73.2348346, 46.4167069 ], [ -73.2669394, 46.4301882 ], [ -73.2998681, 46.4176924 ], [ -73.3006748, 46.391724 ], [ -73.2685837, 46.3782522 ], [ -73.2356722, 46.3907393 ] ] ] } },
{ "type": "Feature", "properties": { "hex_id": 3803, "count": 2, "date": "2025-12-09", "n_files": 22, "pct": 9.09 }, "geometry": { "type": "Polygon", "coordinates": [ [ [ -73.0662905, 46.5828519 ], [ -73.0653664, 46.6088161 ], [ -73.0975396, 46.6223457 ], [ -73.1306233, 46.6099014 ], [ -73.1315163, 46.5839362 ], [ -73.0993568, 46.5704163 ], [ -73.0662905, 46.5828519 ] ] ] } },
{ "type": "Feature", "properties": { "hex_id": 4441, "count": 1, "date": "2025-12-09", "n_files": 22, "pct": 4.55 }, "geometry": { "type": "Polygon", "coordinates": [ [ [ -72.7466682, 46.4211172 ], [ -72.7455975, 46.4470769 ], [ -72.777594, 46.4606937 ], [ -72.810648, 46.4483412 ], [ -72.811688, 46.4223804 ], [ -72.7797047, 46.4087733 ], [ -72.7466682, 46.4211172 ] ] ] } },
{ "type": "Feature", "properties": { "hex_id": 4504, "count": 1, "date": "2025-12-09", "n_files": 22, "pct": 4.55 }, "geometry": { "type": "Polygon", "coordinates": [ [ [ -72.7157865, 46.3815329 ], [ -72.7147025, 46.4074922 ], [ -72.7466682, 46.4211172 ], [ -72.7797047, 46.4087733 ], [ -72.7807578, 46.3828128 ], [ -72.7488053, 46.3691975 ], [ -72.7157865, 46.3815329 ] ] ] } },
{ "type": "Feature", "properties": { "hex_id": 4505, "count": 1, "date": "2025-12-09", "n_files": 22, "pct": 4.55 }, "geometry": { "type": "Polygon", "coordinates": [ [ [ -72.7125302, 46.4594103 ], [ -72.7114418, 46.4853691 ], [ -72.7434515, 46.4989957 ], [ -72.7765365, 46.4866537 ], [ -72.777594, 46.4606937 ], [ -72.7455975, 46.4470769 ], [ -72.7125302, 46.4594103 ] ] ] } },
{ "type": "Feature", "properties": { "hex_id": 4569, "count": 1, "date": "2025-12-09", "n_files": 22, "pct": 4.55 }, "geometry": { "type": "Polygon", "coordinates": [ [ [ -72.6816529, 46.4198171 ], [ -72.6805514, 46.4457755 ], [ -72.7125302, 46.4594103 ], [ -72.7455975, 46.4470769 ], [ -72.7466682, 46.4211172 ], [ -72.7147025, 46.4074922 ], [ -72.6816529, 46.4198171 ] ] ] } },
{ "type": "Feature", "properties": { "hex_id": 4632, "count": 1, "date": "2025-12-09", "n_files": 22, "pct": 4.55 }, "geometry": { "type": "Polygon", "coordinates": [ [ [ -72.6508196, 46.3802161 ], [ -72.6497049, 46.4061741 ], [ -72.6816529, 46.4198171 ], [ -72.7147025, 46.4074922 ], [ -72.7157865, 46.3815329 ], [ -72.6838516, 46.3678997 ], [ -72.6508196, 46.3802161 ] ] ] } },
{ "type": "Feature", "properties": { "hex_id": 4696, "count": 1, "date": "2025-12-09", "n_files": 22, "pct": 4.55 }, "geometry": { "type": "Polygon", "coordinates": [ [ [ -72.6200301, 46.3406073 ], [ -72.6189023, 46.366565 ], [ -72.6508196, 46.3802161 ], [ -72.6838516, 46.3678997 ], [ -72.684948600000013, 46.3419408 ], [ -72.6530444, 46.3282995 ], [ -72.6200301, 46.3406073 ] ] ] } },
{ "type": "Feature", "properties": { "hex_id": 4760, "count": 1, "date": "2025-12-09", "n_files": 22, "pct": 4.55 }, "geometry": { "type": "Polygon", "coordinates": [ [ [ -72.5858573, 46.3788623 ], [ -72.5847119, 46.4048192 ], [ -72.6166422, 46.41848 ], [ -72.6497049, 46.4061741 ], [ -72.6508196, 46.3802161 ], [ -72.6189023, 46.366565 ], [ -72.5858573, 46.3788623 ] ] ] } },
{ "type": "Feature", "properties": { "hex_id": 4810, "count": 2, "date": "2025-12-09", "n_files": 22, "pct": 9.09 }, "geometry": { "type": "Polygon", "coordinates": [ [ [ -72.6023613, 45.2489394 ], [ -72.6012676, 45.2749017 ], [ -72.6325726, 45.2885479 ], [ -72.6649589, 45.2762224 ], [ -72.6660236, 45.2502588 ], [ -72.6347309, 45.236622 ], [ -72.6023613, 45.2489394 ] ] ] } },
{ "type": "Feature", "properties": { "hex_id": 4874, "count": 2, "date": "2025-12-09", "n_files": 22, "pct": 9.09 }, "geometry": { "type": "Polygon", "coordinates": [ [ [ -72.568869, 45.287208899999989 ], [ -72.5677586, 45.3131704 ], [ -72.5990758, 45.326826 ], [ -72.6314912, 45.3145106 ], [ -72.6325726, 45.2885479 ], [ -72.6012676, 45.2749017 ], [ -72.568869, 45.287208899999989 ] ] ] } },
{ "type": "Feature", "properties": { "hex_id": 4938, "count": 5, "date": "2025-12-09", "n_files": 22, "pct": 22.73 }, "geometry": { "type": "Polygon", "coordinates": [ [ [ -72.5387034, 45.2475845 ], [ -72.5375808, 45.2735456 ], [ -72.568869, 45.287208899999989 ], [ -72.6012676, 45.2749017 ], [ -72.6023613, 45.2489394 ], [ -72.5710853, 45.235285499999989 ], [ -72.5387034, 45.2475845 ] ] ] } },
{ "type": "Feature", "properties": { "hex_id": 4939, "count": 1, "date": "2025-12-09", "n_files": 22, "pct": 4.55 }, "geometry": { "type": "Polygon", "coordinates": [ [ [ -72.5353309, 45.3254674 ], [ -72.5342037, 45.3514281 ], [ -72.5655332, 45.3650931 ], [ -72.5979777, 45.3527879 ], [ -72.5990758, 45.326826 ], [ -72.5677586, 45.3131704 ], [ -72.5353309, 45.3254674 ] ] ] } },
{ "type": "Feature", "properties": { "hex_id": 5002, "count": 5, "date": "2025-12-09", "n_files": 22, "pct": 22.73 }, "geometry": { "type": "Polygon", "coordinates": [ [ [ -72.50517, 45.2858345 ], [ -72.5040305, 45.3117947 ], [ -72.5353309, 45.3254674 ], [ -72.5677586, 45.3131704 ], [ -72.568869, 45.287208899999989 ], [ -72.5375808, 45.2735456 ], [ -72.50517, 45.2858345 ] ] ] } },
{ "type": "Feature", "properties": { "hex_id": 5066, "count": 5, "date": "2025-12-09", "n_files": 22, "pct": 22.73 }, "geometry": { "type": "Polygon", "coordinates": [ [ [ -72.4750501, 45.2461942 ], [ -72.4738986, 45.272154 ], [ -72.50517, 45.2858345 ], [ -72.5375808, 45.2735456 ], [ -72.5387034, 45.2475845 ], [ -72.5074442, 45.2339135 ], [ -72.4750501, 45.2461942 ] ] ] } },
{ "type": "Feature", "properties": { "hex_id": 5067, "count": 1, "date": "2025-12-09", "n_files": 22, "pct": 4.55 }, "geometry": { "type": "Polygon", "coordinates": [ [ [ -72.4715907, 45.3240733 ], [ -72.4704344, 45.3500328 ], [ -72.501747, 45.3637149 ], [ -72.5342037, 45.3514281 ], [ -72.5353309, 45.3254674 ], [ -72.5040305, 45.3117947 ], [ -72.4715907, 45.3240733 ] ] ] } },
{ "type": "Feature", "properties": { "hex_id": 5325, "count": 2, "date": "2025-12-09", "n_files": 22, "pct": 9.09 }, "geometry": { "type": "Polygon", "coordinates": [ [ [ -72.336813, 45.4769174 ], [ -72.3355886, 45.5028733 ], [ -72.36695, 45.5165933 ], [ -72.3995236, 45.5043477 ], [ -72.4007187, 45.4783905 ], [ -72.3693695, 45.46468 ], [ -72.336813, 45.4769174 ] ] ] } },
{ "type": "Feature", "properties": { "hex_id": 5383, "count": 2, "date": "2025-12-09", "n_files": 22, "pct": 9.09 }, "geometry": { "type": "Polygon", "coordinates": [ [ [ -72.3250645, 45.0478843 ], [ -72.323853, 45.073842 ], [ -72.3549802, 45.0875606 ], [ -72.3873072, 45.0753123 ], [ -72.38849, 45.0493533 ], [ -72.3573747, 45.035644 ], [ -72.3250645, 45.0478843 ] ] ] } },
{ "type": "Feature", "properties": { "hex_id": 5388, "count": 2, "date": "2025-12-09", "n_files": 22, "pct": 9.09 }, "geometry": { "type": "Polygon", "coordinates": [ [ [ -72.3067174, 45.4372342 ], [ -72.3054809, 45.4631897 ], [ -72.336813, 45.4769174 ], [ -72.3693695, 45.46468 ], [ -72.3705767, 45.4387232 ], [ -72.3392568, 45.425005 ], [ -72.3067174, 45.4372342 ] ] ] } },
{ "type": "Feature", "properties": { "hex_id": 5453, "count": 2, "date": "2025-12-09", "n_files": 22, "pct": 9.09 }, "geometry": { "type": "Polygon", "coordinates": [ [ [ -72.2729123, 45.4754086 ], [ -72.2716587, 45.5013632 ], [ -72.3030028, 45.5151003 ], [ -72.3355886, 45.5028733 ], [ -72.336813, 45.4769174 ], [ -72.3054809, 45.4631897 ], [ -72.2729123, 45.4754086 ] ] ] } },
{ "type": "Feature", "properties": { "hex_id": 6029, "count": 3, "date": "2025-12-09", "n_files": 22, "pct": 13.64 }, "geometry": { "type": "Polygon", "coordinates": [ [ [ -71.9833457, 45.5070993 ], [ -71.9819575, 45.5330472 ], [ -72.0132443, 45.5468625 ], [ -72.0459074, 45.5347203 ], [ -72.0472663, 45.508771 ], [ -72.0159914, 45.4949652 ], [ -71.9833457, 45.5070993 ] ] ] } },
{ "type": "Feature", "properties": { "hex_id": 6036, "count": 2, "date": "2025-12-09", "n_files": 22, "pct": 9.09 }, "geometry": { "type": "Polygon", "coordinates": [ [ [ -71.9537909, 46.0519726 ], [ -71.9523622, 46.0779173 ], [ -71.9839412, 46.0917471 ], [ -72.0169368, 46.0796224 ], [ -72.0183354, 46.0536762 ], [ -71.9867685, 46.039856199999988 ], [ -71.9537909, 46.0519726 ] ] ] } },
{ "type": "Feature", "properties": { "hex_id": 6090, "count": 4, "date": "2025-12-09", "n_files": 22, "pct": 18.18 }, "geometry": { "type": "Polygon", "coordinates": [ [ [ -71.9660029, 45.2337963 ], [ -71.96462, 45.259745 ], [ -71.9957549, 45.2735617 ], [ -72.0282613, 45.2614202 ], [ -72.0296153, 45.23547 ], [ -71.998492, 45.2216628 ], [ -71.9660029, 45.2337963 ] ] ] } },
{ "type": "Feature", "properties": { "hex_id": 6094, "count": 3, "date": "2025-12-09", "n_files": 22, "pct": 13.64 }, "geometry": { "type": "Polygon", "coordinates": [ [ [ -71.9492826, 45.5451707 ], [ -71.9478768, 45.5711175 ], [ -71.9791754, 45.5849424 ], [ -72.0118679, 45.5728109 ], [ -72.0132443, 45.5468625 ], [ -71.9819575, 45.5330472 ], [ -71.9492826, 45.5451707 ] ] ] } },
{ "type": "Feature", "properties": { "hex_id": 6153, "count": 1, "date": "2025-12-09", "n_files": 22, "pct": 4.55 }, "geometry": { "type": "Polygon", "coordinates": [ [ [ -71.9362913, 45.194024 ], [ -71.9348968, 45.2199722 ], [ -71.9660029, 45.2337963 ], [ -71.998492, 45.2216628 ], [ -71.9998577, 45.1957131 ], [ -71.9687632, 45.1818985 ], [ -71.9362913, 45.194024 ] ] ] } },
{ "type": "Feature", "properties": { "hex_id": 6154, "count": 1, "date": "2025-12-09", "n_files": 22, "pct": 4.55 }, "geometry": { "type": "Polygon", "coordinates": [ [ [ -71.932102, 45.2718681 ], [ -71.9307017, 45.2978158 ], [ -71.9618484, 45.311642 ], [ -71.9943836, 45.2995109 ], [ -71.9957549, 45.2735617 ], [ -71.96462, 45.259745 ], [ -71.932102, 45.2718681 ] ] ] } },
{ "type": "Feature", "properties": { "hex_id": 6164, "count": 1, "date": "2025-12-09", "n_files": 22, "pct": 4.55 }, "geometry": { "type": "Polygon", "coordinates": [ [ [ -71.889252200000016, 46.0502327 ], [ -71.8877934, 46.0761758 ], [ -71.9193544, 46.090023 ], [ -71.9523622, 46.0779173 ], [ -71.9537909, 46.0519726 ], [ -71.9222419, 46.0381352 ], [ -71.889252200000016, 46.0502327 ] ] ] } },
{ "type": "Feature", "properties": { "hex_id": 6218, "count": 1, "date": "2025-12-09", "n_files": 22, "pct": 4.55 }, "geometry": { "type": "Polygon", "coordinates": [ [ [ -71.9023961, 45.2320873 ], [ -71.9009843, 45.2580345 ], [ -71.932102, 45.2718681 ], [ -71.96462, 45.259745 ], [ -71.9660029, 45.2337963 ], [ -71.9348968, 45.2199722 ], [ -71.9023961, 45.2320873 ] ] ] } },
{ "type": "Feature", "properties": { "hex_id": 6219, "count": 1, "date": "2025-12-09", "n_files": 22, "pct": 4.55 }, "geometry": { "type": "Polygon", "coordinates": [ [ [ -71.8981549, 45.3099283 ], [ -71.8967372, 45.335875 ], [ -71.9278955, 45.3497107 ], [ -71.9604598, 45.3375902 ], [ -71.9618484, 45.311642 ], [ -71.9307017, 45.2978158 ], [ -71.8981549, 45.3099283 ] ] ] } },
{ "type": "Feature", "properties": { "hex_id": 6281, "count": 1, "date": "2025-12-09", "n_files": 22, "pct": 4.55 }, "geometry": { "type": "Polygon", "coordinates": [ [ [ -71.8727307, 45.1922997 ], [ -71.8713073, 45.2182463 ], [ -71.9023961, 45.2320873 ], [ -71.9348968, 45.2199722 ], [ -71.9362913, 45.194024 ], [ -71.9052141, 45.1801925 ], [ -71.8727307, 45.1922997 ] ] ] } },
{ "type": "Feature", "properties": { "hex_id": 6282, "count": 4, "date": "2025-12-09", "n_files": 22, "pct": 18.18 }, "geometry": { "type": "Polygon", "coordinates": [ [ [ -71.8684548, 45.270139 ], [ -71.8670256, 45.2960852 ], [ -71.8981549, 45.3099283 ], [ -71.9307017, 45.2978158 ], [ -71.932102, 45.2718681 ], [ -71.9009843, 45.2580345 ], [ -71.8684548, 45.270139 ] ] ] } },
{ "type": "Feature", "properties": { "hex_id": 6283, "count": 1, "date": "2025-12-09", "n_files": 22, "pct": 4.55 }, "geometry": { "type": "Polygon", "coordinates": [ [ [ -71.8641614, 45.347977 ], [ -71.8627263, 45.3739227 ], [ -71.8938962, 45.387768 ], [ -71.9264895, 45.375658 ], [ -71.9278955, 45.3497107 ], [ -71.8967372, 45.335875 ], [ -71.8641614, 45.347977 ] ] ] } },
{ "type": "Feature", "properties": { "hex_id": 6346, "count": 4, "date": "2025-12-09", "n_files": 22, "pct": 18.18 }, "geometry": { "type": "Polygon", "coordinates": [ [ [ -71.8387951, 45.2303429 ], [ -71.8373544, 45.2562885 ], [ -71.8684548, 45.270139 ], [ -71.9009843, 45.2580345 ], [ -71.9023961, 45.2320873 ], [ -71.8713073, 45.2182463 ], [ -71.8387951, 45.2303429 ] ] ] } },
{ "type": "Feature", "properties": { "hex_id": 6347, "count": 1, "date": "2025-12-09", "n_files": 22, "pct": 4.55 }, "geometry": { "type": "Polygon", "coordinates": [ [ [ -71.8344671, 45.3081792 ], [ -71.8330205, 45.3341243 ], [ -71.8641614, 45.347977 ], [ -71.8967372, 45.335875 ], [ -71.8981549, 45.3099283 ], [ -71.8670256, 45.2960852 ], [ -71.8344671, 45.3081792 ] ] ] } },
{ "type": "Feature", "properties": { "hex_id": 6348, "count": 1, "date": "2025-12-09", "n_files": 22, "pct": 4.55 }, "geometry": { "type": "Polygon", "coordinates": [ [ [ -71.8301214, 45.3860141 ], [ -71.828668900000011, 45.4119588 ], [ -71.8598504, 45.4258136 ], [ -71.8924728, 45.4137142 ], [ -71.8938962, 45.387768 ], [ -71.8627263, 45.3739227 ], [ -71.8301214, 45.3860141 ] ] ] } },
{ "type": "Feature", "properties": { "hex_id": 6410, "count": 4, "date": "2025-12-09", "n_files": 22, "pct": 18.18 }, "geometry": { "type": "Polygon", "coordinates": [ [ [ -71.8048133, 45.2683746 ], [ -71.8033552, 45.2943191 ], [ -71.8344671, 45.3081792 ], [ -71.8670256, 45.2960852 ], [ -71.8684548, 45.270139 ], [ -71.8373544, 45.2562885 ], [ -71.8048133, 45.2683746 ] ] ] } },
{ "type": "Feature", "properties": { "hex_id": 6411, "count": 1, "date": "2025-12-09", "n_files": 22, "pct": 4.55 }, "geometry": { "type": "Polygon", "coordinates": [ [ [ -71.8004331, 45.3462078 ], [ -71.798969, 45.3721519 ], [ -71.8301214, 45.3860141 ], [ -71.8627263, 45.3739227 ], [ -71.8641614, 45.347977 ], [ -71.8330205, 45.3341243 ], [ -71.8004331, 45.3462078 ] ] ] } },
{ "type": "Feature", "properties": { "hex_id": 6475, "count": 1, "date": "2025-12-09", "n_files": 22, "pct": 4.55 }, "geometry": { "type": "Polygon", "coordinates": [ [ [ -71.7707852, 45.3063947 ], [ -71.7693097, 45.3323382 ], [ -71.8004331, 45.3462078 ], [ -71.8330205, 45.3341243 ], [ -71.8344671, 45.3081792 ], [ -71.8033552, 45.2943191 ], [ -71.7707852, 45.3063947 ] ] ] } },
{ "type": "Feature", "properties": { "hex_id": 6476, "count": 1, "date": "2025-12-09", "n_files": 22, "pct": 4.55 }, "geometry": { "type": "Polygon", "coordinates": [ [ [ -71.7663525, 45.3842248 ], [ -71.7648709, 45.4101678 ], [ -71.7960348, 45.4240396 ], [ -71.828668900000011, 45.4119588 ], [ -71.8301214, 45.3860141 ], [ -71.798969, 45.3721519 ], [ -71.7663525, 45.3842248 ] ] ] } },
{ "type": "Feature", "properties": { "hex_id": 6539, "count": 1, "date": "2025-12-09", "n_files": 22, "pct": 4.55 }, "geometry": { "type": "Polygon", "coordinates": [ [ [ -71.7367107, 45.3444031 ], [ -71.7352176, 45.3703456 ], [ -71.7663525, 45.3842248 ], [ -71.798969, 45.3721519 ], [ -71.8004331, 45.3462078 ], [ -71.7693097, 45.3323382 ], [ -71.7367107, 45.3444031 ] ] ] } },
{ "type": "Feature", "properties": { "hex_id": 6540, "count": 1, "date": "2025-12-09", "n_files": 22, "pct": 4.55 }, "geometry": { "type": "Polygon", "coordinates": [ [ [ -71.7322253, 45.42223 ], [ -71.7307261, 45.448172 ], [ -71.7619016, 45.4620534 ], [ -71.7945648, 45.4499832 ], [ -71.7960348, 45.4240396 ], [ -71.7648709, 45.4101678 ], [ -71.7322253, 45.42223 ] ] ] } },
{ "type": "Feature", "properties": { "hex_id": 6604, "count": 1, "date": "2025-12-09", "n_files": 22, "pct": 4.55 }, "geometry": { "type": "Polygon", "coordinates": [ [ [ -71.7025896, 45.3823998 ], [ -71.7010789, 45.4083412 ], [ -71.7322253, 45.42223 ], [ -71.7648709, 45.4101678 ], [ -71.7663525, 45.3842248 ], [ -71.7352176, 45.3703456 ], [ -71.7025896, 45.3823998 ] ] ] } },
{ "type": "Feature", "properties": { "hex_id": 6923, "count": 1, "date": "2025-12-09", "n_files": 22, "pct": 4.55 }, "geometry": { "type": "Polygon", "coordinates": [ [ [ -71.5455807, 45.338776 ], [ -71.5440006, 45.3647134 ], [ -71.5750825, 45.3786434 ], [ -71.6077333, 45.3666263 ], [ -71.6092844, 45.3406872 ], [ -71.5782138, 45.3267669 ], [ -71.5455807, 45.338776 ] ] ] } },
{ "type": "Feature", "properties": { "hex_id": 6987, "count": 1, "date": "2025-12-09", "n_files": 22, "pct": 4.55 }, "geometry": { "type": "Polygon", "coordinates": [ [ [ -71.5161192, 45.2989021 ], [ -71.5145278, 45.3248388 ], [ -71.5455807, 45.338776 ], [ -71.5782138, 45.3267669 ], [ -71.5797763, 45.3008283 ], [ -71.5487346, 45.2869007 ], [ -71.5161192, 45.2989021 ] ] ] } },
{ "type": "Feature", "properties": { "hex_id": 7051, "count": 1, "date": "2025-12-09", "n_files": 22, "pct": 4.55 }, "geometry": { "type": "Polygon", "coordinates": [ [ [ -71.4818835, 45.3368294 ], [ -71.4802743, 45.3627651 ], [ -71.5113385, 45.3767119 ], [ -71.5440006, 45.3647134 ], [ -71.5455807, 45.338776 ], [ -71.5145278, 45.3248388 ], [ -71.4818835, 45.3368294 ] ] ] } },
{ "type": "Feature", "properties": { "hex_id": 7074, "count": 5, "date": "2025-12-09", "n_files": 22, "pct": 22.73 }, "geometry": { "type": "Polygon", "coordinates": [ [ [ -71.3655131, 47.1260029 ], [ -71.3637437, 47.1519271 ], [ -71.3957778, 47.1659309 ], [ -71.429569, 47.1540003 ], [ -71.4313065, 47.1280742 ], [ -71.3992847, 47.1140806 ], [ -71.3655131, 47.1260029 ] ] ] } },
{ "type": "Feature", "properties": { "hex_id": 7134, "count": 1, "date": "2025-12-09", "n_files": 22, "pct": 4.55 }, "geometry": { "type": "Polygon", "coordinates": [ [ [ -71.3564796, 46.7749724 ], [ -71.3547275, 46.8008979 ], [ -71.386555, 46.8148992 ], [ -71.4201226, 46.8029647 ], [ -71.4218435, 46.7770373 ], [ -71.390028, 46.7630462 ], [ -71.3564796, 46.7749724 ] ] ] } },
{ "type": "Feature", "properties": { "hex_id": 7138, "count": 5, "date": "2025-12-09", "n_files": 22, "pct": 22.73 }, "geometry": { "type": "Polygon", "coordinates": [ [ [ -71.3352925, 47.0860678 ], [ -71.3335109, 47.1119913 ], [ -71.3655131, 47.1260029 ], [ -71.3992847, 47.1140806 ], [ -71.4010345, 47.0881552 ], [ -71.3690445, 47.0741539 ], [ -71.3352925, 47.0860678 ] ] ] } },
{ "type": "Feature", "properties": { "hex_id": 7139, "count": 5, "date": "2025-12-09", "n_files": 22, "pct": 22.73 }, "geometry": { "type": "Polygon", "coordinates": [ [ [ -71.3299403, 47.1638379 ], [ -71.3281512, 47.1897609 ], [ -71.3601976, 47.203775 ], [ -71.3940207, 47.1918558 ], [ -71.3957778, 47.1659309 ], [ -71.3637437, 47.1519271 ], [ -71.3299403, 47.1638379 ] ] ] } },
{ "type": "Feature", "properties": { "hex_id": 7140, "count": 5, "date": "2025-12-09", "n_files": 22, "pct": 22.73 }, "geometry": { "type": "Polygon", "coordinates": [ [ [ -71.3245657, 47.2416064 ], [ -71.3227691, 47.2675289 ], [ -71.3548598, 47.2815456 ], [ -71.3887346, 47.2696295 ], [ -71.3904991, 47.2437051 ], [ -71.3584208, 47.2296987 ], [ -71.3245657, 47.2416064 ] ] ] } },
{ "type": "Feature", "properties": { "hex_id": 7141, "count": 5, "date": "2025-12-09", "n_files": 22, "pct": 22.73 }, "geometry": { "type": "Polygon", "coordinates": [ [ [ -71.319168500000018, 47.3193734 ], [ -71.3173645, 47.3452954 ], [ -71.3494996, 47.3593147 ], [ -71.3834264, 47.3474017 ], [ -71.3851982, 47.3214778 ], [ -71.3530755, 47.3074688 ], [ -71.319168500000018, 47.3193734 ] ] ] } },
{ "type": "Feature", "properties": { "hex_id": 7198, "count": 1, "date": "2025-12-09", "n_files": 22, "pct": 4.55 }, "geometry": { "type": "Polygon", "coordinates": [ [ [ -71.3211478, 46.8128128 ], [ -71.3193763, 46.8387371 ], [ -71.3512159, 46.8527485 ], [ -71.3848148, 46.8408254 ], [ -71.386555, 46.8148992 ], [ -71.3547275, 46.8008979 ], [ -71.3211478, 46.8128128 ] ] ] } },
{ "type": "Feature", "properties": { "hex_id": 7201, "count": 5, "date": "2025-12-09", "n_files": 22, "pct": 22.73 }, "geometry": { "type": "Polygon", "coordinates": [ [ [ -71.3051158, 47.0461258 ], [ -71.3033221, 47.0720487 ], [ -71.3352925, 47.0860678 ], [ -71.3690445, 47.0741539 ], [ -71.3708065, 47.0482292 ], [ -71.3388482, 47.0342203 ], [ -71.3051158, 47.0461258 ] ] ] } },
{ "type": "Feature", "properties": { "hex_id": 7202, "count": 5, "date": "2025-12-09", "n_files": 22, "pct": 22.73 }, "geometry": { "type": "Polygon", "coordinates": [ [ [ -71.2997271, 47.1238938 ], [ -71.2979259, 47.1498161 ], [ -71.3299403, 47.1638379 ], [ -71.3637437, 47.1519271 ], [ -71.3655131, 47.1260029 ], [ -71.3335109, 47.1119913 ], [ -71.2997271, 47.1238938 ] ] ] } },
{ "type": "Feature", "properties": { "hex_id": 7203, "count": 5, "date": "2025-12-09", "n_files": 22, "pct": 22.73 }, "geometry": { "type": "Polygon", "coordinates": [ [ [ -71.2943159, 47.2016602 ], [ -71.2925071, 47.227582 ], [ -71.3245657, 47.2416064 ], [ -71.3584208, 47.2296987 ], [ -71.3601976, 47.203775 ], [ -71.3281512, 47.1897609 ], [ -71.2943159, 47.2016602 ] ] ] } },
{ "type": "Feature", "properties": { "hex_id": 7204, "count": 5, "date": "2025-12-09", "n_files": 22, "pct": 22.73 }, "geometry": { "type": "Polygon", "coordinates": [ [ [ -71.288882, 47.2794251 ], [ -71.2870656, 47.3053464 ], [ -71.319168500000018, 47.3193734 ], [ -71.3530755, 47.3074688 ], [ -71.3548598, 47.2815456 ], [ -71.3227691, 47.2675289 ], [ -71.288882, 47.2794251 ] ] ] } },
{ "type": "Feature", "properties": { "hex_id": 7205, "count": 5, "date": "2025-12-09", "n_files": 22, "pct": 22.73 }, "geometry": { "type": "Polygon", "coordinates": [ [ [ -71.2834253, 47.3571885 ], [ -71.2816014, 47.3831092 ], [ -71.3137488, 47.3971389 ], [ -71.3477078, 47.3852374 ], [ -71.3494996, 47.3593147 ], [ -71.3173645, 47.3452954 ], [ -71.2834253, 47.3571885 ] ] ] } },
{ "type": "Feature", "properties": { "hex_id": 7206, "count": 5, "date": "2025-12-09", "n_files": 22, "pct": 22.73 }, "geometry": { "type": "Polygon", "coordinates": [ [ [ -71.2779458, 47.4349503 ], [ -71.2761141, 47.4608705 ], [ -71.3083062, 47.4749028 ], [ -71.3423176, 47.4630045 ], [ -71.3441169, 47.4370823 ], [ -71.3119371, 47.4230604 ], [ -71.2779458, 47.4349503 ] ] ] } },
{ "type": "Feature", "properties": { "hex_id": 7207, "count": 5, "date": "2025-12-09", "n_files": 22, "pct": 22.73 }, "geometry": { "type": "Polygon", "coordinates": [ [ [ -71.2724432, 47.5127105 ], [ -71.2706038, 47.5386303 ], [ -71.3028408, 47.5526652 ], [ -71.3369047, 47.54077 ], [ -71.3387116, 47.5148483 ], [ -71.306487, 47.5008238 ], [ -71.2724432, 47.5127105 ] ] ] } },
{ "type": "Feature", "properties": { "hex_id": 7262, "count": 2, "date": "2025-12-09", "n_files": 22, "pct": 9.09 }, "geometry": { "type": "Polygon", "coordinates": [ [ [ -71.291123, 46.7728702 ], [ -71.2893396, 46.7987938 ], [ -71.3211478, 46.8128128 ], [ -71.3547275, 46.8008979 ], [ -71.3564796, 46.7749724 ], [ -71.3246833, 46.7609636 ], [ -71.291123, 46.7728702 ] ] ] } },
{ "type": "Feature", "properties": { "hex_id": 7266, "count": 5, "date": "2025-12-09", "n_files": 22, "pct": 22.73 }, "geometry": { "type": "Polygon", "coordinates": [ [ [ -71.2695579, 47.0839428 ], [ -71.2677446, 47.1098644 ], [ -71.2997271, 47.1238938 ], [ -71.3335109, 47.1119913 ], [ -71.3352925, 47.0860678 ], [ -71.3033221, 47.0720487 ], [ -71.2695579, 47.0839428 ] ] ] } },
{ "type": "Feature", "properties": { "hex_id": 7267, "count": 5, "date": "2025-12-09", "n_files": 22, "pct": 22.73 }, "geometry": { "type": "Polygon", "coordinates": [ [ [ -71.2641103, 47.1617071 ], [ -71.2622893, 47.1876282 ], [ -71.2943159, 47.2016602 ], [ -71.3281512, 47.1897609 ], [ -71.3299403, 47.1638379 ], [ -71.2979259, 47.1498161 ], [ -71.2641103, 47.1617071 ] ] ] } },
{ "type": "Feature", "properties": { "hex_id": 7268, "count": 5, "date": "2025-12-09", "n_files": 22, "pct": 22.73 }, "geometry": { "type": "Polygon", "coordinates": [ [ [ -71.2586398, 47.2394698 ], [ -71.2568112, 47.2653904 ], [ -71.288882, 47.2794251 ], [ -71.3227691, 47.2675289 ], [ -71.3245657, 47.2416064 ], [ -71.2925071, 47.227582 ], [ -71.2586398, 47.2394698 ] ] ] } },
{ "type": "Feature", "properties": { "hex_id": 7269, "count": 5, "date": "2025-12-09", "n_files": 22, "pct": 22.73 }, "geometry": { "type": "Polygon", "coordinates": [ [ [ -71.2531464, 47.3172311 ], [ -71.2513101, 47.3431511 ], [ -71.2834253, 47.3571885 ], [ -71.3173645, 47.3452954 ], [ -71.319168500000018, 47.3193734 ], [ -71.2870656, 47.3053464 ], [ -71.2531464, 47.3172311 ] ] ] } },
{ "type": "Feature", "properties": { "hex_id": 7270, "count": 5, "date": "2025-12-09", "n_files": 22, "pct": 22.73 }, "geometry": { "type": "Polygon", "coordinates": [ [ [ -71.24763, 47.3949907 ], [ -71.245786, 47.4209103 ], [ -71.2779458, 47.4349503 ], [ -71.3119371, 47.4230604 ], [ -71.3137488, 47.3971389 ], [ -71.2816014, 47.3831092 ], [ -71.24763, 47.3949907 ] ] ] } },
{ "type": "Feature", "properties": { "hex_id": 7271, "count": 5, "date": "2025-12-09", "n_files": 22, "pct": 22.73 }, "geometry": { "type": "Polygon", "coordinates": [ [ [ -71.2420904, 47.4727488 ], [ -71.2402387, 47.4986679 ], [ -71.2724432, 47.5127105 ], [ -71.306487, 47.5008238 ], [ -71.3083062, 47.4749028 ], [ -71.2761141, 47.4608705 ], [ -71.2420904, 47.4727488 ] ] ] } },
{ "type": "Feature", "properties": { "hex_id": 7272, "count": 5, "date": "2025-12-09", "n_files": 22, "pct": 22.73 }, "geometry": { "type": "Polygon", "coordinates": [ [ [ -71.2365275, 47.5505054 ], [ -71.234668, 47.5764239 ], [ -71.2669174, 47.5904693 ], [ -71.3010139, 47.5785857 ], [ -71.3028408, 47.5526652 ], [ -71.2706038, 47.5386303 ], [ -71.2365275, 47.5505054 ] ] ] } },
{ "type": "Feature", "properties": { "hex_id": 7273, "count": 5, "date": "2025-12-09", "n_files": 22, "pct": 22.73 }, "geometry": { "type": "Polygon", "coordinates": [ [ [ -71.230941200000018, 47.6282604 ], [ -71.2290738, 47.6541784 ], [ -71.2613684, 47.6682264 ], [ -71.2955178, 47.656346 ], [ -71.2973524, 47.6304261 ], [ -71.2650703, 47.6163885 ], [ -71.230941200000018, 47.6282604 ] ] ] } },
{ "type": "Feature", "properties": { "hex_id": 7325, "count": 2, "date": "2025-12-09", "n_files": 22, "pct": 9.09 }, "geometry": { "type": "Polygon", "coordinates": [ [ [ -71.2611413, 46.7329207 ], [ -71.259346, 46.7588437 ], [ -71.291123, 46.7728702 ], [ -71.3246833, 46.7609636 ], [ -71.3264475, 46.7350387 ], [ -71.2946824, 46.7210224 ], [ -71.2611413, 46.7329207 ] ] ] } },
{ "type": "Feature", "properties": { "hex_id": 7330, "count": 5, "date": "2025-12-09", "n_files": 22, "pct": 22.73 }, "geometry": { "type": "Polygon", "coordinates": [ [ [ -71.2339486, 47.121747 ], [ -71.2321156, 47.1476674 ], [ -71.2641103, 47.1617071 ], [ -71.2979259, 47.1498161 ], [ -71.2997271, 47.1238938 ], [ -71.2677446, 47.1098644 ], [ -71.2339486, 47.121747 ] ] ] } },
{ "type": "Feature", "properties": { "hex_id": 7331, "count": 5, "date": "2025-12-09", "n_files": 22, "pct": 22.73 }, "geometry": { "type": "Polygon", "coordinates": [ [ [ -71.2284418, 47.1995076 ], [ -71.226601, 47.225427499999988 ], [ -71.2586398, 47.2394698 ], [ -71.2925071, 47.227582 ], [ -71.2943159, 47.2016602 ], [ -71.2622893, 47.1876282 ], [ -71.2284418, 47.1995076 ] ] ] } },
{ "type": "Feature", "properties": { "hex_id": 7332, "count": 5, "date": "2025-12-09", "n_files": 22, "pct": 22.73 }, "geometry": { "type": "Polygon", "coordinates": [ [ [ -71.2229118, 47.2772667 ], [ -71.2210634, 47.303186 ], [ -71.2531464, 47.3172311 ], [ -71.2870656, 47.3053464 ], [ -71.288882, 47.2794251 ], [ -71.2568112, 47.2653904 ], [ -71.2229118, 47.2772667 ] ] ] } },
{ "type": "Feature", "properties": { "hex_id": 7333, "count": 5, "date": "2025-12-09", "n_files": 22, "pct": 22.73 }, "geometry": { "type": "Polygon", "coordinates": [ [ [ -71.2173587, 47.355024199999988 ], [ -71.2155025, 47.380943 ], [ -71.24763, 47.3949907 ], [ -71.2816014, 47.3831092 ], [ -71.2834253, 47.3571885 ], [ -71.2513101, 47.3431511 ], [ -71.2173587, 47.355024199999988 ] ] ] } },
{ "type": "Feature", "properties": { "hex_id": 7334, "count": 5, "date": "2025-12-09", "n_files": 22, "pct": 22.73 }, "geometry": { "type": "Polygon", "coordinates": [ [ [ -71.2117823, 47.4327802 ], [ -71.2099183, 47.4586985 ], [ -71.2420904, 47.4727488 ], [ -71.2761141, 47.4608705 ], [ -71.2779458, 47.4349503 ], [ -71.245786, 47.4209103 ], [ -71.2117823, 47.4327802 ] ] ] } },
{ "type": "Feature", "properties": { "hex_id": 7335, "count": 5, "date": "2025-12-09", "n_files": 22, "pct": 22.73 }, "geometry": { "type": "Polygon", "coordinates": [ [ [ -71.2061825, 47.5105345 ], [ -71.2043106, 47.5364523 ], [ -71.2365275, 47.5505054 ], [ -71.2706038, 47.5386303 ], [ -71.2724432, 47.5127105 ], [ -71.2402387, 47.4986679 ], [ -71.2061825, 47.5105345 ] ] ] } },
{ "type": "Feature", "properties": { "hex_id": 7336, "count": 5, "date": "2025-12-09", "n_files": 22, "pct": 22.73 }, "geometry": { "type": "Polygon", "coordinates": [ [ [ -71.2005591, 47.5882874 ], [ -71.1986793, 47.6142046 ], [ -71.230941200000018, 47.6282604 ], [ -71.2650703, 47.6163885 ], [ -71.2669174, 47.5904693 ], [ -71.234668, 47.5764239 ], [ -71.2005591, 47.5882874 ] ] ] } },
{ "type": "Feature", "properties": { "hex_id": 7337, "count": 5, "date": "2025-12-09", "n_files": 22, "pct": 22.73 }, "geometry": { "type": "Polygon", "coordinates": [ [ [ -71.194912, 47.6660386 ], [ -71.1930243, 47.6919553 ], [ -71.2253313, 47.7060139 ], [ -71.2595135, 47.6941451 ], [ -71.2613684, 47.6682264 ], [ -71.2290738, 47.6541784 ], [ -71.194912, 47.6660386 ] ] ] } },
{ "type": "Feature", "properties": { "hex_id": 7390, "count": 2, "date": "2025-12-09", "n_files": 22, "pct": 9.09 }, "geometry": { "type": "Polygon", "coordinates": [ [ [ -71.2257737, 46.7707307 ], [ -71.2239591, 46.7966525 ], [ -71.2557479, 46.8106891 ], [ -71.2893396, 46.7987938 ], [ -71.291123, 46.7728702 ], [ -71.259346, 46.7588437 ], [ -71.2257737, 46.7707307 ] ] ] } },
{ "type": "Feature", "properties": { "hex_id": 7395, "count": 5, "date": "2025-12-09", "n_files": 22, "pct": 22.73 }, "geometry": { "type": "Polygon", "coordinates": [ [ [ -71.1982878, 47.1595385 ], [ -71.196435, 47.1854577 ], [ -71.2284418, 47.1995076 ], [ -71.2622893, 47.1876282 ], [ -71.2641103, 47.1617071 ], [ -71.2321156, 47.1476674 ], [ -71.1982878, 47.1595385 ] ] ] } },
{ "type": "Feature", "properties": { "hex_id": 7396, "count": 5, "date": "2025-12-09", "n_files": 22, "pct": 22.73 }, "geometry": { "type": "Polygon", "coordinates": [ [ [ -71.1927215, 47.2372954 ], [ -71.1908609, 47.263214 ], [ -71.2229118, 47.2772667 ], [ -71.2568112, 47.2653904 ], [ -71.2586398, 47.2394698 ], [ -71.226601, 47.225427499999988 ], [ -71.1927215, 47.2372954 ] ] ] } },
{ "type": "Feature", "properties": { "hex_id": 7397, "count": 5, "date": "2025-12-09", "n_files": 22, "pct": 22.73 }, "geometry": { "type": "Polygon", "coordinates": [ [ [ -71.1871319, 47.3150507 ], [ -71.1852635, 47.3409688 ], [ -71.2173587, 47.355024199999988 ], [ -71.2513101, 47.3431511 ], [ -71.2531464, 47.3172311 ], [ -71.2210634, 47.303186 ], [ -71.1871319, 47.3150507 ] ] ] } },
{ "type": "Feature", "properties": { "hex_id": 7398, "count": 5, "date": "2025-12-09", "n_files": 22, "pct": 22.73 }, "geometry": { "type": "Polygon", "coordinates": [ [ [ -71.1815189, 47.3928045 ], [ -71.1796426, 47.4187221 ], [ -71.2117823, 47.4327802 ], [ -71.245786, 47.4209103 ], [ -71.24763, 47.3949907 ], [ -71.2155025, 47.380943 ], [ -71.1815189, 47.3928045 ] ] ] } },
{ "type": "Feature", "properties": { "hex_id": 7399, "count": 5, "date": "2025-12-09", "n_files": 22, "pct": 22.73 }, "geometry": { "type": "Polygon", "coordinates": [ [ [ -71.1758822, 47.4705567 ], [ -71.1739981, 47.4964737 ], [ -71.2061825, 47.5105345 ], [ -71.2402387, 47.4986679 ], [ -71.2420904, 47.4727488 ], [ -71.2099183, 47.4586985 ], [ -71.1758822, 47.4705567 ] ] ] } },
{ "type": "Feature", "properties": { "hex_id": 7400, "count": 5, "date": "2025-12-09", "n_files": 22, "pct": 22.73 }, "geometry": { "type": "Polygon", "coordinates": [ [ [ -71.1702219, 47.5483073 ], [ -71.1683299, 47.5742238 ], [ -71.2005591, 47.5882874 ], [ -71.234668, 47.5764239 ], [ -71.2365275, 47.5505054 ], [ -71.2043106, 47.5364523 ], [ -71.1702219, 47.5483073 ] ] ] } },
{ "type": "Feature", "properties": { "hex_id": 7401, "count": 5, "date": "2025-12-09", "n_files": 22, "pct": 22.73 }, "geometry": { "type": "Polygon", "coordinates": [ [ [ -71.1645378, 47.6260564 ], [ -71.1626378, 47.6519724 ], [ -71.194912, 47.6660386 ], [ -71.2290738, 47.6541784 ], [ -71.230941200000018, 47.6282604 ], [ -71.1986793, 47.6142046 ], [ -71.1645378, 47.6260564 ] ] ] } },
{ "type": "Feature", "properties": { "hex_id": 7455, "count": 6, "date": "2025-12-09", "n_files": 22, "pct": 27.27 }, "geometry": { "type": "Polygon", "coordinates": [ [ [ -71.1848457, 46.8862891 ], [ -71.183004, 46.912209 ], [ -71.214848, 46.9262585 ], [ -71.2485218, 46.9143778 ], [ -71.2503321, 46.8884559 ], [ -71.2185, 46.8744166 ], [ -71.1848457, 46.8862891 ] ] ] } },
{ "type": "Feature", "properties": { "hex_id": 7459, "count": 5, "date": "2025-12-09", "n_files": 22, "pct": 22.73 }, "geometry": { "type": "Polygon", "coordinates": [ [ [ -71.1625753, 47.1973173 ], [ -71.1607026, 47.2232351 ], [ -71.1927215, 47.2372954 ], [ -71.226601, 47.225427499999988 ], [ -71.2284418, 47.1995076 ], [ -71.196435, 47.1854577 ], [ -71.1625753, 47.1973173 ] ] ] } },
{ "type": "Feature", "properties": { "hex_id": 7460, "count": 5, "date": "2025-12-09", "n_files": 22, "pct": 22.73 }, "geometry": { "type": "Polygon", "coordinates": [ [ [ -71.1569494, 47.2750704 ], [ -71.1550689, 47.3009878 ], [ -71.1871319, 47.3150507 ], [ -71.2210634, 47.303186 ], [ -71.2229118, 47.2772667 ], [ -71.1908609, 47.263214 ], [ -71.1569494, 47.2750704 ] ] ] } },
{ "type": "Feature", "properties": { "hex_id": 7461, "count": 5, "date": "2025-12-09", "n_files": 22, "pct": 22.73 }, "geometry": { "type": "Polygon", "coordinates": [ [ [ -71.1512999, 47.3528219 ], [ -71.1494115, 47.3787388 ], [ -71.1815189, 47.3928045 ], [ -71.2155025, 47.380943 ], [ -71.2173587, 47.355024199999988 ], [ -71.1852635, 47.3409688 ], [ -71.1512999, 47.3528219 ] ] ] } },
{ "type": "Feature", "properties": { "hex_id": 7462, "count": 5, "date": "2025-12-09", "n_files": 22, "pct": 22.73 }, "geometry": { "type": "Polygon", "coordinates": [ [ [ -71.1456267, 47.4305719 ], [ -71.1437303, 47.4564882 ], [ -71.1758822, 47.4705567 ], [ -71.2099183, 47.4586985 ], [ -71.2117823, 47.4327802 ], [ -71.1796426, 47.4187221 ], [ -71.1456267, 47.4305719 ] ] ] } },
{ "type": "Feature", "properties": { "hex_id": 7463, "count": 5, "date": "2025-12-09", "n_files": 22, "pct": 22.73 }, "geometry": { "type": "Polygon", "coordinates": [ [ [ -71.1399296, 47.5083203 ], [ -71.1380253, 47.5342361 ], [ -71.1702219, 47.5483073 ], [ -71.2043106, 47.5364523 ], [ -71.2061825, 47.5105345 ], [ -71.1739981, 47.4964737 ], [ -71.1399296, 47.5083203 ] ] ] } },
{ "type": "Feature", "properties": { "hex_id": 7524, "count": 5, "date": "2025-12-09", "n_files": 22, "pct": 22.73 }, "geometry": { "type": "Polygon", "coordinates": [ [ [ -71.1268111, 47.2350832 ], [ -71.1249184, 47.2609998 ], [ -71.1569494, 47.2750704 ], [ -71.1908609, 47.263214 ], [ -71.1927215, 47.2372954 ], [ -71.1607026, 47.2232351 ], [ -71.1268111, 47.2350832 ] ] ] } },
{ "type": "Feature", "properties": { "hex_id": 7525, "count": 5, "date": "2025-12-09", "n_files": 22, "pct": 22.73 }, "geometry": { "type": "Polygon", "coordinates": [ [ [ -71.1211253, 47.3128325 ], [ -71.1192247, 47.3387486 ], [ -71.1512999, 47.3528219 ], [ -71.1852635, 47.3409688 ], [ -71.1871319, 47.3150507 ], [ -71.1550689, 47.3009878 ], [ -71.1211253, 47.3128325 ] ] ] } },
{ "type": "Feature", "properties": { "hex_id": 7526, "count": 5, "date": "2025-12-09", "n_files": 22, "pct": 22.73 }, "geometry": { "type": "Polygon", "coordinates": [ [ [ -71.1154156, 47.3905802 ], [ -71.1135071, 47.4164958 ], [ -71.1456267, 47.4305719 ], [ -71.1796426, 47.4187221 ], [ -71.1815189, 47.3928045 ], [ -71.1494115, 47.3787388 ], [ -71.1154156, 47.3905802 ] ] ] } },
{ "type": "Feature", "properties": { "hex_id": 7527, "count": 5, "date": "2025-12-09", "n_files": 22, "pct": 22.73 }, "geometry": { "type": "Polygon", "coordinates": [ [ [ -71.109682, 47.4683264 ], [ -71.1077655, 47.4942414 ], [ -71.1399296, 47.5083203 ], [ -71.1739981, 47.4964737 ], [ -71.1758822, 47.4705567 ], [ -71.1437303, 47.4564882 ], [ -71.109682, 47.4683264 ] ] ] } },
{ "type": "Feature", "properties": { "hex_id": 7577, "count": 5, "date": "2025-12-09", "n_files": 22, "pct": 22.73 }, "geometry": { "type": "Polygon", "coordinates": [ [ [ -71.1526439, 46.4175312 ], [ -71.1508168, 46.4434524 ], [ -71.1823846, 46.4575033 ], [ -71.215768, 46.4456231 ], [ -71.2175644, 46.4197 ], [ -71.1860082, 46.4056591 ], [ -71.1526439, 46.4175312 ] ] ] } },
{ "type": "Feature", "properties": { "hex_id": 7588, "count": 5, "date": "2025-12-09", "n_files": 22, "pct": 22.73 }, "geometry": { "type": "Polygon", "coordinates": [ [ [ -71.0909948, 47.2728362 ], [ -71.0890822, 47.298751499999987 ], [ -71.1211253, 47.3128325 ], [ -71.1550689, 47.3009878 ], [ -71.1569494, 47.2750704 ], [ -71.1249184, 47.2609998 ], [ -71.0909948, 47.2728362 ] ] ] } },
{ "type": "Feature", "properties": { "hex_id": 7589, "count": 5, "date": "2025-12-09", "n_files": 22, "pct": 22.73 }, "geometry": { "type": "Polygon", "coordinates": [ [ [ -71.085249, 47.3505817 ], [ -71.0833283, 47.3764965 ], [ -71.1154156, 47.3905802 ], [ -71.1494115, 47.3787388 ], [ -71.1512999, 47.3528219 ], [ -71.1192247, 47.3387486 ], [ -71.085249, 47.3505817 ] ] ] } },
{ "type": "Feature", "properties": { "hex_id": 7642, "count": 5, "date": "2025-12-09", "n_files": 22, "pct": 22.73 }, "geometry": { "type": "Polygon", "coordinates": [ [ [ -71.1174218, 46.4553132 ], [ -71.1155756, 46.4812331 ], [ -71.147155, 46.4952941 ], [ -71.1805691, 46.4834252 ], [ -71.1823846, 46.4575033 ], [ -71.1508168, 46.4434524 ], [ -71.1174218, 46.4553132 ] ] ] } },
{ "type": "Feature", "properties": { "hex_id": 7705, "count": 5, "date": "2025-12-09", "n_files": 22, "pct": 22.73 }, "geometry": { "type": "Polygon", "coordinates": [ [ [ -71.0877309, 46.4153257 ], [ -71.0858731, 46.4412448 ], [ -71.1174218, 46.4553132 ], [ -71.1508168, 46.4434524 ], [ -71.1526439, 46.4175312 ], [ -71.1211067, 46.4034729 ], [ -71.0877309, 46.4153257 ] ] ] } },
{ "type": "Feature", "properties": { "hex_id": 7706, "count": 1, "date": "2025-12-09", "n_files": 22, "pct": 4.55 }, "geometry": { "type": "Polygon", "coordinates": [ [ [ -71.08215, 46.4930826 ], [ -71.0802846, 46.5190012 ], [ -71.1118755, 46.5330723 ], [ -71.1453204, 46.5212147 ], [ -71.147155, 46.4952941 ], [ -71.1155756, 46.4812331 ], [ -71.08215, 46.4930826 ] ] ] } },
{ "type": "Feature", "properties": { "hex_id": 7770, "count": 5, "date": "2025-12-09", "n_files": 22, "pct": 22.73 }, "geometry": { "type": "Polygon", "coordinates": [ [ [ -71.0524667, 46.453086299999988 ], [ -71.0505898, 46.4790042 ], [ -71.08215, 46.4930826 ], [ -71.1155756, 46.4812331 ], [ -71.1174218, 46.4553132 ], [ -71.0858731, 46.4412448 ], [ -71.0524667, 46.453086299999988 ] ] ] } },
{ "type": "Feature", "properties": { "hex_id": 7861, "count": 6, "date": "2025-12-09", "n_files": 22, "pct": 27.27 }, "geometry": { "type": "Polygon", "coordinates": [ [ [ -70.8546762, 48.5894932 ], [ -70.8525523, 48.615395 ], [ -70.8853295, 48.6295619 ], [ -70.9202179, 48.617816 ], [ -70.9223073, 48.591912 ], [ -70.8895428, 48.577756 ], [ -70.8546762, 48.5894932 ] ] ] } },
{ "type": "Feature", "properties": { "hex_id": 7926, "count": 6, "date": "2025-12-09", "n_files": 22, "pct": 27.27 }, "geometry": { "type": "Polygon", "coordinates": [ [ [ -70.8176513, 48.6271199 ], [ -70.8155057, 48.6530204 ], [ -70.8482956, 48.6671981 ], [ -70.8832184, 48.6554645 ], [ -70.8853295, 48.6295619 ], [ -70.8525523, 48.615395 ], [ -70.8176513, 48.6271199 ] ] ] } },
{ "type": "Feature", "properties": { "hex_id": 7989, "count": 6, "date": "2025-12-09", "n_files": 22, "pct": 27.27 }, "geometry": { "type": "Polygon", "coordinates": [ [ [ -70.7870541, 48.5870347 ], [ -70.7848959, 48.6129343 ], [ -70.8176513, 48.6271199 ], [ -70.8525523, 48.615395 ], [ -70.8546762, 48.5894932 ], [ -70.8219334, 48.5753185 ], [ -70.7870541, 48.5870347 ] ] ] } },
{ "type": "Feature", "properties": { "hex_id": 8054, "count": 6, "date": "2025-12-09", "n_files": 22, "pct": 27.27 }, "geometry": { "type": "Polygon", "coordinates": [ [ [ -70.7499822, 48.6246383 ], [ -70.7478022, 48.6505365 ], [ -70.7805702, 48.664733 ], [ -70.8155057, 48.6530204 ], [ -70.8176513, 48.6271199 ], [ -70.7848959, 48.6129343 ], [ -70.7499822, 48.6246383 ] ] ] } }
]
}
