{
"type": "FeatureCollection",
"name": "daily_2026-05-18",
"crs": { "type": "name", "properties": { "name": "urn:ogc:def:crs:OGC:1.3:CRS84" } },
"features": [
{ "type": "Feature", "properties": { "hex_id": 527536, "centroid_lon": -74.055705598533109, "centroid_lat": 45.776617050245058, "occurrences_today": 26, "datetimes_today": "2026-05-18 00:01:39, 2026-05-18 00:16:25, 2026-05-18 00:31:45, 2026-05-18 00:46:18, 2026-05-18 01:01:15, 2026-05-18 01:16:40, 2026-05-18 01:31:44, 2026-05-18 01:46:19, 2026-05-18 02:01:48, 2026-05-18 02:15:19, 2026-05-18 02:31:15, 2026-05-18 02:46:26, 2026-05-18 03:01:36, 2026-05-18 03:16:15, 2026-05-18 03:31:26, 2026-05-18 03:46:40, 2026-05-18 04:01:47, 2026-05-18 04:16:19, 2026-05-18 04:31:14, 2026-05-18 04:46:26, 2026-05-18 05:01:26, 2026-05-18 05:16:37, 2026-05-18 05:31:26, 2026-05-18 05:46:25, 2026-05-18 06:01:15, 2026-05-18 06:16:19", "cumulative_total": 247.0 }, "geometry": { "type": "Polygon", "coordinates": [ [ [ -74.055793293479212, 45.771421199297521 ], [ -74.062179705067123, 45.774072089762136 ], [ -74.062092595167897, 45.779267947817232 ], [ -74.055617879554958, 45.781812896315699 ], [ -74.049230906956282, 45.779161638063762 ], [ -74.049319210973209, 45.773965799165879 ], [ -74.055793293479212, 45.771421199297521 ] ] ] } },
{ "type": "Feature", "properties": { "hex_id": 817593, "centroid_lon": -70.926042861309881, "centroid_lat": 46.791336459160149, "occurrences_today": 4, "datetimes_today": "2026-05-18 03:16:15, 2026-05-18 03:31:26, 2026-05-18 03:46:40, 2026-05-18 04:01:47", "cumulative_total": 60.0 }, "geometry": { "type": "Polygon", "coordinates": [ [ [ -70.926434523367504, 46.786153974338326 ], [ -70.932773128579512, 46.7889780049276 ], [ -70.93238203637739, 46.794160528048188 ], [ -70.925651090769492, 46.796518936747489 ], [ -70.919312024203506, 46.793694497415792 ], [ -70.919704364561866, 46.788512058193668 ], [ -70.926434523367504, 46.786153974338326 ] ] ] } },
{ "type": "Feature", "properties": { "hex_id": 574530, "centroid_lon": -73.566396056246006, "centroid_lat": 45.545468271132975, "occurrences_today": 23, "datetimes_today": "2026-05-18 00:01:39, 2026-05-18 00:16:25, 2026-05-18 00:31:45, 2026-05-18 00:46:18, 2026-05-18 01:01:15, 2026-05-18 01:16:40, 2026-05-18 01:31:44, 2026-05-18 01:46:19, 2026-05-18 02:01:48, 2026-05-18 02:15:19, 2026-05-18 02:31:15, 2026-05-18 02:46:26, 2026-05-18 03:01:36, 2026-05-18 03:16:15, 2026-05-18 03:31:26, 2026-05-18 03:46:40, 2026-05-18 04:01:47, 2026-05-18 04:16:19, 2026-05-18 04:31:14, 2026-05-18 04:46:26, 2026-05-18 05:01:26, 2026-05-18 05:16:37, 2026-05-18 05:31:26", "cumulative_total": 104.0 }, "geometry": { "type": "Polygon", "coordinates": [ [ [ -73.566528116392021, 45.540273131333066 ], [ -73.572864811351081, 45.542950887428901 ], [ -73.572733322587496, 45.548146039154012 ], [ -73.566263960018389, 45.550663405888223 ], [ -73.55992672976457, 45.547985280308424 ], [ -73.560059397362508, 45.542790157542946 ], [ -73.566528116392021, 45.540273131333066 ] ] ] } },
{ "type": "Feature", "properties": { "hex_id": 511642, "centroid_lon": -74.227413975132976, "centroid_lat": 45.450514281925408, "occurrences_today": 11, "datetimes_today": "2026-05-18 03:46:40, 2026-05-18 04:01:47, 2026-05-18 04:16:19, 2026-05-18 04:31:14, 2026-05-18 04:46:26, 2026-05-18 05:01:26, 2026-05-18 05:16:37, 2026-05-18 05:31:26, 2026-05-18 05:46:25, 2026-05-18 06:01:15, 2026-05-18 06:16:19", "cumulative_total": 116.0 }, "geometry": { "type": "Polygon", "coordinates": [ [ [ -74.227484913993578, 45.445317899397594 ], [ -74.233842832062663, 45.447959155399033 ], [ -74.233772470527967, 45.453155543270078 ], [ -74.227343016908208, 45.455710659618639 ], [ -74.220984540880636, 45.453069041606163 ], [ -74.221056076424844, 45.447872669320631 ], [ -74.227484913993578, 45.445317899397594 ] ] ] } },
{ "type": "Feature", "properties": { "hex_id": 512252, "centroid_lon": -74.221127592447985, "centroid_lat": 45.442676292199096, "occurrences_today": 11, "datetimes_today": "2026-05-18 03:46:40, 2026-05-18 04:01:47, 2026-05-18 04:16:19, 2026-05-18 04:31:14, 2026-05-18 04:46:26, 2026-05-18 05:01:26, 2026-05-18 05:16:37, 2026-05-18 05:31:26, 2026-05-18 05:46:25, 2026-05-18 06:01:15, 2026-05-18 06:16:19", "cumulative_total": 112.0 }, "geometry": { "type": "Polygon", "coordinates": [ [ [ -74.221199088956581, 45.437479910241592 ], [ -74.22755583349651, 45.440121512035212 ], [ -74.227484913993578, 45.445317899397594 ], [ -74.221056076424844, 45.447872669320631 ], [ -74.21469877439705, 45.445230705553513 ], [ -74.214770867419318, 45.440034333901295 ], [ -74.221199088956581, 45.437479910241592 ] ] ] } },
{ "type": "Feature", "properties": { "hex_id": 512862, "centroid_lon": -74.214842940770254, "centroid_lat": 45.434837957411652, "occurrences_today": 11, "datetimes_today": "2026-05-18 03:46:40, 2026-05-18 04:01:47, 2026-05-18 04:16:19, 2026-05-18 04:31:14, 2026-05-18 04:46:26, 2026-05-18 05:01:26, 2026-05-18 05:16:37, 2026-05-18 05:31:26, 2026-05-18 05:46:25, 2026-05-18 06:01:15, 2026-05-18 06:16:19", "cumulative_total": 192.0 }, "geometry": { "type": "Polygon", "coordinates": [ [ [ -74.21491499445645, 45.429641576084606 ], [ -74.22127056595717, 45.432283523448092 ], [ -74.221199088956581, 45.437479910241592 ], [ -74.214770867419318, 45.440034333901295 ], [ -74.208414738901041, 45.437392024601941 ], [ -74.20848738893099, 45.432195653643177 ], [ -74.21491499445645, 45.429641576084606 ] ] ] } },
{ "type": "Feature", "properties": { "hex_id": 512863, "centroid_lon": -74.21462666169684, "centroid_lat": 45.450427072368328, "occurrences_today": 11, "datetimes_today": "2026-05-18 03:46:40, 2026-05-18 04:01:47, 2026-05-18 04:16:19, 2026-05-18 04:31:14, 2026-05-18 04:46:26, 2026-05-18 05:01:26, 2026-05-18 05:16:37, 2026-05-18 05:31:26, 2026-05-18 05:46:25, 2026-05-18 06:01:15, 2026-05-18 06:16:19", "cumulative_total": 178.0 }, "geometry": { "type": "Polygon", "coordinates": [ [ [ -74.21469877439705, 45.445230705553513 ], [ -74.221056076424844, 45.447872669320631 ], [ -74.220984540880636, 45.453069041606163 ], [ -74.214554529312124, 45.455623434345675 ], [ -74.208196669816161, 45.452981108445044 ], [ -74.208269379350256, 45.447784752002889 ], [ -74.21469877439705, 45.445230705553513 ] ] ] } },
{ "type": "Feature", "properties": { "hex_id": 511031, "centroid_lon": -74.233913174396562, "centroid_lat": 45.442762762694834, "occurrences_today": 11, "datetimes_today": "2026-05-18 03:46:40, 2026-05-18 04:01:47, 2026-05-18 04:16:19, 2026-05-18 04:31:14, 2026-05-18 04:46:26, 2026-05-18 05:01:26, 2026-05-18 05:16:37, 2026-05-18 05:31:26, 2026-05-18 05:46:25, 2026-05-18 06:01:15, 2026-05-18 06:16:19", "cumulative_total": 46.0 }, "geometry": { "type": "Polygon", "coordinates": [ [ [ -74.233983497536116, 45.437566365157487 ], [ -74.240340857627302, 45.440207259307947 ], [ -74.240271111663205, 45.445403662122665 ], [ -74.233842832062663, 45.447959155399033 ], [ -74.227484913993578, 45.445317899397594 ], [ -74.22755583349651, 45.440121512035212 ], [ -74.233983497536116, 45.437566365157487 ] ] ] } },
{ "type": "Feature", "properties": { "hex_id": 511640, "centroid_lon": -74.22783931806093, "centroid_lat": 45.419335914240293, "occurrences_today": 11, "datetimes_today": "2026-05-18 03:46:40, 2026-05-18 04:01:47, 2026-05-18 04:16:19, 2026-05-18 04:31:14, 2026-05-18 04:46:26, 2026-05-18 05:01:26, 2026-05-18 05:16:37, 2026-05-18 05:31:26, 2026-05-18 05:46:25, 2026-05-18 06:01:15, 2026-05-18 06:16:19", "cumulative_total": 43.0 }, "geometry": { "type": "Polygon", "coordinates": [ [ [ -74.227910140872623, 45.414139502705275 ], [ -74.234264598279353, 45.416780726676848 ], [ -74.234194351852935, 45.42197714354667 ], [ -74.227768475923952, 45.424532320940813 ], [ -74.221413461460486, 45.421890735353244 ], [ -74.221484879976273, 45.416694334051918 ], [ -74.227910140872623, 45.414139502705275 ] ] ] } },
{ "type": "Feature", "properties": { "hex_id": 511641, "centroid_lon": -74.227626733648222, "centroid_lat": 45.434925119838283, "occurrences_today": 11, "datetimes_today": "2026-05-18 03:46:40, 2026-05-18 04:01:47, 2026-05-18 04:16:19, 2026-05-18 04:31:14, 2026-05-18 04:46:26, 2026-05-18 05:01:26, 2026-05-18 05:16:37, 2026-05-18 05:31:26, 2026-05-18 05:46:25, 2026-05-18 06:01:15, 2026-05-18 06:16:19", "cumulative_total": 43.0 }, "geometry": { "type": "Polygon", "coordinates": [ [ [ -74.227697614455209, 45.429728722806807 ], [ -74.234053801487747, 45.432369962787 ], [ -74.233983497536116, 45.437566365157487 ], [ -74.22755583349651, 45.440121512035212 ], [ -74.221199088956581, 45.437479910241592 ], [ -74.22127056595717, 45.432283523448092 ], [ -74.227697614455209, 45.429728722806807 ] ] ] } },
{ "type": "Feature", "properties": { "hex_id": 512250, "centroid_lon": -74.221556279010173, "centroid_lat": 45.411497927914674, "occurrences_today": 11, "datetimes_today": "2026-05-18 03:46:40, 2026-05-18 04:01:47, 2026-05-18 04:16:19, 2026-05-18 04:31:14, 2026-05-18 04:46:26, 2026-05-18 05:01:26, 2026-05-18 05:16:37, 2026-05-18 05:31:26, 2026-05-18 05:46:25, 2026-05-18 06:01:15, 2026-05-18 06:16:19", "cumulative_total": 43.0 }, "geometry": { "type": "Polygon", "coordinates": [ [ [ -74.221627658568707, 45.406301516941532 ], [ -74.227980944365484, 45.408943086335753 ], [ -74.227910140872623, 45.414139502705275 ], [ -74.221484879976273, 45.416694334051918 ], [ -74.215131037592442, 45.414052403079218 ], [ -74.215203012685492, 45.408856002402707 ], [ -74.221627658568707, 45.406301516941532 ] ] ] } },
{ "type": "Feature", "properties": { "hex_id": 512251, "centroid_lon": -74.221342023456288, "centroid_lat": 45.427087131818645, "occurrences_today": 11, "datetimes_today": "2026-05-18 03:46:40, 2026-05-18 04:01:47, 2026-05-18 04:16:19, 2026-05-18 04:31:14, 2026-05-18 04:46:26, 2026-05-18 05:01:26, 2026-05-18 05:16:37, 2026-05-18 05:31:26, 2026-05-18 05:46:25, 2026-05-18 06:01:15, 2026-05-18 06:16:19", "cumulative_total": 43.0 }, "geometry": { "type": "Polygon", "coordinates": [ [ [ -74.221413461460486, 45.421890735353244 ], [ -74.227768475923952, 45.424532320940813 ], [ -74.227697614455209, 45.429728722806807 ], [ -74.22127056595717, 45.432283523448092 ], [ -74.21491499445645, 45.429641576084606 ], [ -74.214987028484487, 45.424445189920185 ], [ -74.221413461460486, 45.421890735353244 ] ] ] } },
{ "type": "Feature", "properties": { "hex_id": 512861, "centroid_lon": -74.215059042860958, "centroid_lat": 45.419248798918375, "occurrences_today": 11, "datetimes_today": "2026-05-18 03:46:40, 2026-05-18 04:01:47, 2026-05-18 04:16:19, 2026-05-18 04:31:14, 2026-05-18 04:46:26, 2026-05-18 05:01:26, 2026-05-18 05:16:37, 2026-05-18 05:31:26, 2026-05-18 05:46:25, 2026-05-18 06:01:15, 2026-05-18 06:16:19", "cumulative_total": 208.0 }, "geometry": { "type": "Polygon", "coordinates": [ [ [ -74.215131037592442, 45.414052403079218 ], [ -74.221484879976273, 45.416694334051918 ], [ -74.221413461460486, 45.421890735353244 ], [ -74.214987028484487, 45.424445189920185 ], [ -74.208632629533255, 45.42180289720914 ], [ -74.20870522011883, 45.416606511733896 ], [ -74.215131037592442, 45.414052403079218 ] ] ] } },
{ "type": "Feature", "properties": { "hex_id": 513472, "centroid_lon": -74.208560019139512, "centroid_lat": 45.426999277845567, "occurrences_today": 11, "datetimes_today": "2026-05-18 03:46:40, 2026-05-18 04:01:47, 2026-05-18 04:16:19, 2026-05-18 04:31:14, 2026-05-18 04:46:26, 2026-05-18 05:01:26, 2026-05-18 05:16:37, 2026-05-18 05:31:26, 2026-05-18 05:46:25, 2026-05-18 06:01:15, 2026-05-18 06:16:19", "cumulative_total": 92.0 }, "geometry": { "type": "Polygon", "coordinates": [ [ [ -74.208632629533255, 45.42180289720914 ], [ -74.214987028484487, 45.424445189920185 ], [ -74.21491499445645, 45.429641576084606 ], [ -74.20848738893099, 45.432195653643177 ], [ -74.202132433432155, 45.429552999033895 ], [ -74.202205639999747, 45.424356628828697 ], [ -74.208632629533255, 45.42180289720914 ] ] ] } },
{ "type": "Feature", "properties": { "hex_id": 513473, "centroid_lon": -74.208342069043013, "centroid_lat": 45.442588390721852, "occurrences_today": 11, "datetimes_today": "2026-05-18 03:46:40, 2026-05-18 04:01:47, 2026-05-18 04:16:19, 2026-05-18 04:31:14, 2026-05-18 04:46:26, 2026-05-18 05:01:26, 2026-05-18 05:16:37, 2026-05-18 05:31:26, 2026-05-18 05:46:25, 2026-05-18 06:01:15, 2026-05-18 06:16:19", "cumulative_total": 105.0 }, "geometry": { "type": "Polygon", "coordinates": [ [ [ -74.208414738901041, 45.437392024601941 ], [ -74.214770867419318, 45.440034333901295 ], [ -74.21469877439705, 45.445230705553513 ], [ -74.208269379350256, 45.447784752002889 ], [ -74.201912693834259, 45.445142080607667 ], [ -74.201985960356112, 45.439945724923398 ], [ -74.208414738901041, 45.437392024601941 ] ] ] } },
{ "type": "Feature", "properties": { "hex_id": 576972, "centroid_lon": -73.540784267211237, "centroid_lat": 45.545143912141498, "occurrences_today": 1, "datetimes_today": "2026-05-18 06:16:19", "cumulative_total": 232.0 }, "geometry": { "type": "Polygon", "coordinates": [ [ [ -73.540918684631094, 45.539948830772239 ], [ -73.547254092083151, 45.542627992651511 ], [ -73.547120245687395, 45.547823086198996 ], [ -73.540649813066267, 45.550338988455394 ], [ -73.534313871321373, 45.547659456857865 ], [ -73.534448896478111, 45.542464392786776 ], [ -73.540918684631094, 45.539948830772239 ] ] ] } },
{ "type": "Feature", "properties": { "hex_id": 528147, "centroid_lon": -74.049142578739691, "centroid_lat": 45.784357472082988, "occurrences_today": 26, "datetimes_today": "2026-05-18 00:01:39, 2026-05-18 00:16:25, 2026-05-18 00:31:45, 2026-05-18 00:46:18, 2026-05-18 01:01:15, 2026-05-18 01:16:40, 2026-05-18 01:31:44, 2026-05-18 01:46:19, 2026-05-18 02:01:48, 2026-05-18 02:15:19, 2026-05-18 02:31:15, 2026-05-18 02:46:26, 2026-05-18 03:01:36, 2026-05-18 03:16:15, 2026-05-18 03:31:26, 2026-05-18 03:46:40, 2026-05-18 04:01:47, 2026-05-18 04:16:19, 2026-05-18 04:31:14, 2026-05-18 04:46:26, 2026-05-18 05:01:26, 2026-05-18 05:16:37, 2026-05-18 05:31:26, 2026-05-18 05:46:25, 2026-05-18 06:01:15, 2026-05-18 06:16:19", "cumulative_total": 148.0 }, "geometry": { "type": "Polygon", "coordinates": [ [ [ -74.049230906956282, 45.779161638063762 ], [ -74.055617879554958, 45.781812896315699 ], [ -74.055530136536603, 45.78700873750946 ], [ -74.049054226315221, 45.789553301223521 ], [ -74.042666692730265, 45.786901675022563 ], [ -74.0427556303448, 45.781705853121757 ], [ -74.049230906956282, 45.779161638063762 ] ] ] } },
{ "type": "Feature", "properties": { "hex_id": 528757, "centroid_lon": -74.042844543591968, "centroid_lat": 45.776510026340496, "occurrences_today": 26, "datetimes_today": "2026-05-18 00:01:39, 2026-05-18 00:16:25, 2026-05-18 00:31:45, 2026-05-18 00:46:18, 2026-05-18 01:01:15, 2026-05-18 01:16:40, 2026-05-18 01:31:44, 2026-05-18 01:46:19, 2026-05-18 02:01:48, 2026-05-18 02:15:19, 2026-05-18 02:31:15, 2026-05-18 02:46:26, 2026-05-18 03:01:36, 2026-05-18 03:16:15, 2026-05-18 03:31:26, 2026-05-18 03:46:40, 2026-05-18 04:01:47, 2026-05-18 04:16:19, 2026-05-18 04:31:14, 2026-05-18 04:46:26, 2026-05-18 05:01:26, 2026-05-18 05:16:37, 2026-05-18 05:31:26, 2026-05-18 05:46:25, 2026-05-18 06:01:15, 2026-05-18 06:16:19", "cumulative_total": 156.0 }, "geometry": { "type": "Polygon", "coordinates": [ [ [ -74.042933432480027, 45.771314194678773 ], [ -74.049319210973209, 45.773965799165879 ], [ -74.049230906956282, 45.779161638063762 ], [ -74.0427556303448, 45.781705853121757 ], [ -74.036369291343732, 45.779053880724931 ], [ -74.036458789453803, 45.773858061245043 ], [ -74.042933432480027, 45.771314194678773 ] ] ] } },
{ "type": "Feature", "properties": { "hex_id": 529978, "centroid_lon": -74.029983561728216, "centroid_lat": 45.776401554991672, "occurrences_today": 26, "datetimes_today": "2026-05-18 00:01:39, 2026-05-18 00:16:25, 2026-05-18 00:31:45, 2026-05-18 00:46:18, 2026-05-18 01:01:15, 2026-05-18 01:16:40, 2026-05-18 01:31:44, 2026-05-18 01:46:19, 2026-05-18 02:01:48, 2026-05-18 02:15:19, 2026-05-18 02:31:15, 2026-05-18 02:46:26, 2026-05-18 03:01:36, 2026-05-18 03:16:15, 2026-05-18 03:31:26, 2026-05-18 03:46:40, 2026-05-18 04:01:47, 2026-05-18 04:16:19, 2026-05-18 04:31:14, 2026-05-18 04:46:26, 2026-05-18 05:01:26, 2026-05-18 05:16:37, 2026-05-18 05:31:26, 2026-05-18 05:46:25, 2026-05-18 06:01:15, 2026-05-18 06:16:19", "cumulative_total": 122.0 }, "geometry": { "type": "Polygon", "coordinates": [ [ [ -74.030073644533516, 45.771205742876546 ], [ -74.036458789453803, 45.773858061245043 ], [ -74.036369291343732, 45.779053880724931 ], [ -74.029893454236728, 45.781597362222747 ], [ -74.023507749311577, 45.778944675822245 ], [ -74.023598441489938, 45.773748876021138 ], [ -74.030073644533516, 45.771205742876546 ] ] ] } },
{ "type": "Feature", "properties": { "hex_id": 567811, "centroid_lon": -73.63814753378027, "centroid_lat": 45.491779808320061, "occurrences_today": 1, "datetimes_today": "2026-05-18 00:01:39", "cumulative_total": 212.0 }, "geometry": { "type": "Polygon", "coordinates": [ [ [ -73.638272751103656, 45.486584460498399 ], [ -73.644606976652412, 45.489258229948611 ], [ -73.644482330067206, 45.494453588973101 ], [ -73.63802228226595, 45.496975151126236 ], [ -73.631687520175689, 45.494301013542234 ], [ -73.63181334241672, 45.489105682003341 ], [ -73.638272751103656, 45.486584460498399 ] ] ] } },
{ "type": "Feature", "properties": { "hex_id": 568421, "centroid_lon": -73.631939130312219, "centroid_lat": 45.483910345446489, "occurrences_today": 13, "datetimes_today": "2026-05-18 00:01:39, 2026-05-18 00:16:25, 2026-05-18 00:31:45, 2026-05-18 00:46:18, 2026-05-18 01:01:15, 2026-05-18 01:16:40, 2026-05-18 01:31:44, 2026-05-18 01:46:19, 2026-05-18 02:01:48, 2026-05-18 02:15:19, 2026-05-18 02:31:15, 2026-05-18 02:46:26, 2026-05-18 03:01:36", "cumulative_total": 287.0 }, "geometry": { "type": "Polygon", "coordinates": [ [ [ -73.63206488387371, 45.478715003871748 ], [ -73.638397934247578, 45.481389107661329 ], [ -73.638272751103656, 45.486584460498399 ], [ -73.63181334241672, 45.489105682003341 ], [ -73.62547975596506, 45.486431210121559 ], [ -73.625606114266603, 45.48123588489149 ], [ -73.63206488387371, 45.478715003871748 ] ] ] } },
{ "type": "Feature", "properties": { "hex_id": 476887, "centroid_lon": -74.586893235153639, "centroid_lat": 46.130529247563423, "occurrences_today": 6, "datetimes_today": "2026-05-18 00:01:39, 2026-05-18 00:16:25, 2026-05-18 00:31:45, 2026-05-18 00:46:18, 2026-05-18 01:01:15, 2026-05-18 01:16:40", "cumulative_total": 62.0 }, "geometry": { "type": "Polygon", "coordinates": [ [ [ -74.586932077389974, 46.125333148325261 ], [ -74.593384678011759, 46.127954403879798 ], [ -74.593346439030327, 46.133150504917275 ], [ -74.586854382224445, 46.13572534203152 ], [ -74.580401189042405, 46.133103719381076 ], [ -74.580440645222865, 46.127907626778359 ], [ -74.586932077389974, 46.125333148325261 ] ] ] } },
{ "type": "Feature", "properties": { "hex_id": 564773, "centroid_lon": -73.664781822388534, "centroid_lat": 45.718152476157414, "occurrences_today": 6, "datetimes_today": "2026-05-18 04:01:47, 2026-05-18 04:16:19, 2026-05-18 04:31:14, 2026-05-18 04:46:26, 2026-05-18 05:01:26, 2026-05-18 05:16:37", "cumulative_total": 50.0 }, "geometry": { "type": "Polygon", "coordinates": [ [ [ -73.664905563713702, 45.712957278134979 ], [ -73.671266375131637, 45.715629766677111 ], [ -73.671143211769831, 45.720824975691599 ], [ -73.664658047182058, 45.723347669173691 ], [ -73.658296691687767, 45.720674809870609 ], [ -73.658421044846179, 45.715479627911407 ], [ -73.664905563713702, 45.712957278134979 ] ] ] } },
{ "type": "Feature", "properties": { "hex_id": 282276, "centroid_lon": -76.719647503634448, "centroid_lat": 48.277042265393135, "occurrences_today": 26, "datetimes_today": "2026-05-18 00:01:39, 2026-05-18 00:16:25, 2026-05-18 00:31:45, 2026-05-18 00:46:18, 2026-05-18 01:01:15, 2026-05-18 01:16:40, 2026-05-18 01:31:44, 2026-05-18 01:46:19, 2026-05-18 02:01:48, 2026-05-18 02:15:19, 2026-05-18 02:31:15, 2026-05-18 02:46:26, 2026-05-18 03:01:36, 2026-05-18 03:16:15, 2026-05-18 03:31:26, 2026-05-18 03:46:40, 2026-05-18 04:01:47, 2026-05-18 04:16:19, 2026-05-18 04:31:14, 2026-05-18 04:46:26, 2026-05-18 05:01:26, 2026-05-18 05:16:37, 2026-05-18 05:31:26, 2026-05-18 05:46:25, 2026-05-18 06:01:15, 2026-05-18 06:16:19", "cumulative_total": 303.0 }, "geometry": { "type": "Polygon", "coordinates": [ [ [ -76.719473239218715, 48.271850328359804 ], [ -76.726295943304322, 48.274345355392327 ], [ -76.726470914289905, 48.279537271539553 ], [ -76.719821817451319, 48.282234197241927 ], [ -76.712998357385814, 48.279738797971852 ], [ -76.712824750156642, 48.274546845308322 ], [ -76.719473239218715, 48.271850328359804 ] ] ] } },
{ "type": "Feature", "properties": { "hex_id": 664260, "centroid_lon": -72.634315697047484, "centroid_lat": 45.319486315987142, "occurrences_today": 24, "datetimes_today": "2026-05-18 00:31:45, 2026-05-18 00:46:18, 2026-05-18 01:01:15, 2026-05-18 01:16:40, 2026-05-18 01:31:44, 2026-05-18 01:46:19, 2026-05-18 02:01:48, 2026-05-18 02:15:19, 2026-05-18 02:31:15, 2026-05-18 02:46:26, 2026-05-18 03:01:36, 2026-05-18 03:16:15, 2026-05-18 03:31:26, 2026-05-18 03:46:40, 2026-05-18 04:01:47, 2026-05-18 04:16:19, 2026-05-18 04:31:14, 2026-05-18 04:46:26, 2026-05-18 05:01:26, 2026-05-18 05:16:37, 2026-05-18 05:31:26, 2026-05-18 05:46:25, 2026-05-18 06:01:15, 2026-05-18 06:16:19", "cumulative_total": 77.0 }, "geometry": { "type": "Polygon", "coordinates": [ [ [ -72.634531870021206, 45.314293776660996 ], [ -72.640797575403241, 45.317021952220479 ], [ -72.640581954210219, 45.322214512523423 ], [ -72.634099465201956, 45.324678849764027 ], [ -72.627833266920874, 45.321950299168947 ], [ -72.628050050527449, 45.316757786432689 ], [ -72.634531870021206, 45.314293776660996 ] ] ] } },
{ "type": "Feature", "properties": { "hex_id": 664871, "centroid_lon": -72.627616424274734, "centroid_lat": 45.327142806351482, "occurrences_today": 24, "datetimes_today": "2026-05-18 00:31:45, 2026-05-18 00:46:18, 2026-05-18 01:01:15, 2026-05-18 01:16:40, 2026-05-18 01:31:44, 2026-05-18 01:46:19, 2026-05-18 02:01:48, 2026-05-18 02:15:19, 2026-05-18 02:31:15, 2026-05-18 02:46:26, 2026-05-18 03:01:36, 2026-05-18 03:16:15, 2026-05-18 03:31:26, 2026-05-18 03:46:40, 2026-05-18 04:01:47, 2026-05-18 04:16:19, 2026-05-18 04:31:14, 2026-05-18 04:46:26, 2026-05-18 05:01:26, 2026-05-18 05:16:37, 2026-05-18 05:31:26, 2026-05-18 05:46:25, 2026-05-18 06:01:15, 2026-05-18 06:16:19", "cumulative_total": 60.0 }, "geometry": { "type": "Polygon", "coordinates": [ [ [ -72.627833266920874, 45.321950299168947 ], [ -72.634099465201956, 45.324678849764027 ], [ -72.633883174464984, 45.329871377991353 ], [ -72.627399522569348, 45.332335307980031 ], [ -72.621132831448207, 45.329606382193219 ], [ -72.621350285043036, 45.324413901673282 ], [ -72.627833266920874, 45.321950299168947 ] ] ] } },
{ "type": "Feature", "properties": { "hex_id": 573309, "centroid_lon": -73.579202113613292, "centroid_lat": 45.545628297918817, "occurrences_today": 3, "datetimes_today": "2026-05-18 05:46:25, 2026-05-18 06:01:15, 2026-05-18 06:16:19", "cumulative_total": 152.0 }, "geometry": { "type": "Polygon", "coordinates": [ [ [ -73.579332995067688, 45.540433129291102 ], [ -73.585670333083741, 45.543110182277566 ], [ -73.585540023190703, 45.5483053627039 ], [ -73.579071196399056, 45.550823461507107 ], [ -73.572733322587496, 45.548146039154012 ], [ -73.572864811351081, 45.542950887428901 ], [ -73.579332995067688, 45.540433129291102 ] ] ] } },
{ "type": "Feature", "properties": { "hex_id": 564764, "centroid_lon": -73.66811098317045, "centroid_lat": 45.577880372613087, "occurrences_today": 10, "datetimes_today": "2026-05-18 00:01:39, 2026-05-18 00:16:25, 2026-05-18 00:31:45, 2026-05-18 00:46:18, 2026-05-18 01:01:15, 2026-05-18 01:16:40, 2026-05-18 01:31:44, 2026-05-18 01:46:19, 2026-05-18 02:01:48, 2026-05-18 02:15:19", "cumulative_total": 54.0 }, "geometry": { "type": "Polygon", "coordinates": [ [ [ -73.668233814003699, 45.57268503945027 ], [ -73.674579079588369, 45.575357232127999 ], [ -73.674456822497561, 45.580552576217158 ], [ -73.667988118762636, 45.583075700771616 ], [ -73.661642313015747, 45.58040313914924 ], [ -73.661765751154718, 45.575207821981756 ], [ -73.668233814003699, 45.57268503945027 ] ] ] } },
{ "type": "Feature", "properties": { "hex_id": 564154, "centroid_lon": -73.674334531987839, "centroid_lat": 45.585747915304466, "occurrences_today": 10, "datetimes_today": "2026-05-18 00:01:39, 2026-05-18 00:16:25, 2026-05-18 00:31:45, 2026-05-18 00:46:18, 2026-05-18 01:01:15, 2026-05-18 01:16:40, 2026-05-18 01:31:44, 2026-05-18 01:46:19, 2026-05-18 02:01:48, 2026-05-18 02:15:19", "cumulative_total": 161.0 }, "geometry": { "type": "Polygon", "coordinates": [ [ [ -73.674456822497561, 45.580552576217158 ], [ -73.68080326914729, 45.583224432695104 ], [ -73.680681552702637, 45.588419782648913 ], [ -73.674212208047962, 45.590943249389845 ], [ -73.667865220768945, 45.588271023925778 ], [ -73.667988118762636, 45.583075700771616 ], [ -73.674456822497561, 45.580552576217158 ] ] ] } },
{ "type": "Feature", "properties": { "hex_id": 501277, "centroid_lon": -74.333625442138313, "centroid_lat": 45.661652205546055, "occurrences_today": 6, "datetimes_today": "2026-05-18 03:01:36, 2026-05-18 03:16:15, 2026-05-18 03:31:26, 2026-05-18 03:46:40, 2026-05-18 04:01:47, 2026-05-18 04:16:19", "cumulative_total": 186.0 }, "geometry": { "type": "Polygon", "coordinates": [ [ [ -74.333687081055302, 45.656455894762253 ], [ -74.340073782874995, 45.659091302659832 ], [ -74.340012729140867, 45.664287617751512 ], [ -74.333563786352343, 45.666848511517642 ], [ -74.327176516221613, 45.664212739983611 ], [ -74.327238757184745, 45.65901643838486 ], [ -74.333687081055302, 45.656455894762253 ] ] ] } },
{ "type": "Feature", "properties": { "hex_id": 553165, "centroid_lon": -73.789680146540235, "centroid_lat": 45.587028406994023, "occurrences_today": 15, "datetimes_today": "2026-05-18 02:46:26, 2026-05-18 03:01:36, 2026-05-18 03:16:15, 2026-05-18 03:31:26, 2026-05-18 03:46:40, 2026-05-18 04:01:47, 2026-05-18 04:16:19, 2026-05-18 04:31:14, 2026-05-18 04:46:26, 2026-05-18 05:01:26, 2026-05-18 05:16:37, 2026-05-18 05:31:26, 2026-05-18 05:46:25, 2026-05-18 06:01:15, 2026-05-18 06:16:19", "cumulative_total": 66.0 }, "geometry": { "type": "Polygon", "coordinates": [ [ [ -73.78979180323482, 45.581832837214556 ], [ -73.796143996966322, 45.584498340923922 ], [ -73.796032915934006, 45.589693920426058 ], [ -73.789568459320591, 45.592223971813745 ], [ -73.783215720457008, 45.589558100187986 ], [ -73.783327983328675, 45.584362545155685 ], [ -73.78979180323482, 45.581832837214556 ] ] ] } },
{ "type": "Feature", "properties": { "hex_id": 553776, "centroid_lon": -73.783103426893717, "centroid_lat": 45.594753650258305, "occurrences_today": 14, "datetimes_today": "2026-05-18 03:01:36, 2026-05-18 03:16:15, 2026-05-18 03:31:26, 2026-05-18 03:46:40, 2026-05-18 04:01:47, 2026-05-18 04:16:19, 2026-05-18 04:31:14, 2026-05-18 04:46:26, 2026-05-18 05:01:26, 2026-05-18 05:16:37, 2026-05-18 05:31:26, 2026-05-18 05:46:25, 2026-05-18 06:01:15, 2026-05-18 06:16:19", "cumulative_total": 118.0 }, "geometry": { "type": "Polygon", "coordinates": [ [ [ -73.783215720457008, 45.589558100187986 ], [ -73.789568459320591, 45.592223971813745 ], [ -73.78945674156563, 45.597419531673701 ], [ -73.782991102628429, 45.599949195366577 ], [ -73.776637818663659, 45.597282955664326 ], [ -73.776750718726944, 45.592087420410422 ], [ -73.783215720457008, 45.589558100187986 ] ] ] } },
{ "type": "Feature", "properties": { "hex_id": 564153, "centroid_lon": -73.67470130327149, "centroid_lat": 45.570161883037002, "occurrences_today": 10, "datetimes_today": "2026-05-18 00:01:39, 2026-05-18 00:16:25, 2026-05-18 00:31:45, 2026-05-18 00:46:18, 2026-05-18 01:01:15, 2026-05-18 01:16:40, 2026-05-18 01:31:44, 2026-05-18 01:46:19, 2026-05-18 02:01:48, 2026-05-18 02:15:19", "cumulative_total": 94.0 }, "geometry": { "type": "Polygon", "coordinates": [ [ [ -73.674823493558151, 45.564966528944296 ], [ -73.681168218946823, 45.56763835283715 ], [ -73.68104660225822, 45.572833717789152 ], [ -73.674579079588369, 45.575357232127999 ], [ -73.668233814003699, 45.57268503945027 ], [ -73.668356611273666, 45.567489701283222 ], [ -73.674823493558151, 45.564966528944296 ] ] ] } },
{ "type": "Feature", "properties": { "hex_id": 664870, "centroid_lon": -72.628266775114184, "centroid_lat": 45.311565268142978, "occurrences_today": 18, "datetimes_today": "2026-05-18 00:31:45, 2026-05-18 00:46:18, 2026-05-18 01:01:15, 2026-05-18 01:16:40, 2026-05-18 01:31:44, 2026-05-18 01:46:19, 2026-05-18 02:01:48, 2026-05-18 02:15:19, 2026-05-18 02:31:15, 2026-05-18 02:46:26, 2026-05-18 03:01:36, 2026-05-18 03:16:15, 2026-05-18 03:31:26, 2026-05-18 03:46:40, 2026-05-18 04:01:47, 2026-05-18 04:16:19, 2026-05-18 04:31:14, 2026-05-18 04:46:26", "cumulative_total": 72.0 }, "geometry": { "type": "Polygon", "coordinates": [ [ [ -72.62848344070072, 45.30637274430012 ], [ -72.634747984142763, 45.30910123178586 ], [ -72.634531870021206, 45.314293776660996 ], [ -72.628050050527449, 45.316757786432689 ], [ -72.621785014630419, 45.314028923959164 ], [ -72.622002290662465, 45.308836426765524 ], [ -72.62848344070072, 45.30637274430012 ] ] ] } },
{ "type": "Feature", "properties": { "hex_id": 665481, "centroid_lon": -72.621567679430527, "centroid_lat": 45.319221415595166, "occurrences_today": 18, "datetimes_today": "2026-05-18 00:31:45, 2026-05-18 00:46:18, 2026-05-18 01:01:15, 2026-05-18 01:16:40, 2026-05-18 01:31:44, 2026-05-18 01:46:19, 2026-05-18 02:01:48, 2026-05-18 02:15:19, 2026-05-18 02:31:15, 2026-05-18 02:46:26, 2026-05-18 03:01:36, 2026-05-18 03:16:15, 2026-05-18 03:31:26, 2026-05-18 03:46:40, 2026-05-18 04:01:47, 2026-05-18 04:16:19, 2026-05-18 04:31:14, 2026-05-18 04:46:26", "cumulative_total": 31.0 }, "geometry": { "type": "Polygon", "coordinates": [ [ [ -72.621785014630419, 45.314028923959164 ], [ -72.628050050527449, 45.316757786432689 ], [ -72.627833266920874, 45.321950299168947 ], [ -72.621350285043036, 45.324413901673282 ], [ -72.615084756750164, 45.321684664055901 ], [ -72.615302702711233, 45.316492199141855 ], [ -72.621785014630419, 45.314028923959164 ] ] ] } },
{ "type": "Feature", "properties": { "hex_id": 666091, "centroid_lon": -72.615520589336697, "centroid_lat": 45.311299728665681, "occurrences_today": 18, "datetimes_today": "2026-05-18 00:31:45, 2026-05-18 00:46:18, 2026-05-18 01:01:15, 2026-05-18 01:16:40, 2026-05-18 01:31:44, 2026-05-18 01:46:19, 2026-05-18 02:01:48, 2026-05-18 02:15:19, 2026-05-18 02:31:15, 2026-05-18 02:46:26, 2026-05-18 03:01:36, 2026-05-18 03:16:15, 2026-05-18 03:31:26, 2026-05-18 03:46:40, 2026-05-18 04:01:47, 2026-05-18 04:16:19, 2026-05-18 04:31:14, 2026-05-18 04:46:26", "cumulative_total": 42.0 }, "geometry": { "type": "Polygon", "coordinates": [ [ [ -72.615738416646394, 45.306107252627712 ], [ -72.622002290662465, 45.308836426765524 ], [ -72.621785014630419, 45.314028923959164 ], [ -72.615302702711233, 45.316492199141855 ], [ -72.609038336743183, 45.313762649908092 ], [ -72.60925677462653, 45.308570200651388 ], [ -72.615738416646394, 45.306107252627712 ] ] ] } },
{ "type": "Feature", "properties": { "hex_id": 666092, "centroid_lon": -72.614866751433738, "centroid_lat": 45.32687712340757, "occurrences_today": 18, "datetimes_today": "2026-05-18 00:31:45, 2026-05-18 00:46:18, 2026-05-18 01:01:15, 2026-05-18 01:16:40, 2026-05-18 01:31:44, 2026-05-18 01:46:19, 2026-05-18 02:01:48, 2026-05-18 02:15:19, 2026-05-18 02:31:15, 2026-05-18 02:46:26, 2026-05-18 03:01:36, 2026-05-18 03:16:15, 2026-05-18 03:31:26, 2026-05-18 03:46:40, 2026-05-18 04:01:47, 2026-05-18 04:16:19, 2026-05-18 04:31:14, 2026-05-18 04:46:26", "cumulative_total": 35.0 }, "geometry": { "type": "Polygon", "coordinates": [ [ [ -72.615084756750164, 45.321684664055901 ], [ -72.621350285043036, 45.324413901673282 ], [ -72.621132831448207, 45.329606382193219 ], [ -72.614648686742115, 45.332069577196606 ], [ -72.608382666112732, 45.329339964279249 ], [ -72.608601282506129, 45.324147531722296 ], [ -72.615084756750164, 45.321684664055901 ] ] ] } },
{ "type": "Feature", "properties": { "hex_id": 666701, "centroid_lon": -72.609475153046205, "centroid_lat": 45.303377745828662, "occurrences_today": 18, "datetimes_today": "2026-05-18 00:31:45, 2026-05-18 00:46:18, 2026-05-18 01:01:15, 2026-05-18 01:16:40, 2026-05-18 01:31:44, 2026-05-18 01:46:19, 2026-05-18 02:01:48, 2026-05-18 02:15:19, 2026-05-18 02:31:15, 2026-05-18 02:46:26, 2026-05-18 03:01:36, 2026-05-18 03:16:15, 2026-05-18 03:31:26, 2026-05-18 03:46:40, 2026-05-18 04:01:47, 2026-05-18 04:16:19, 2026-05-18 04:31:14, 2026-05-18 04:46:26", "cumulative_total": 31.0 }, "geometry": { "type": "Polygon", "coordinates": [ [ [ -72.609693472022045, 45.298185285440212 ], [ -72.615956184660064, 45.300914771028204 ], [ -72.615738416646394, 45.306107252627712 ], [ -72.60925677462653, 45.308570200651388 ], [ -72.602993570480109, 45.305840340015386 ], [ -72.603212499842115, 45.300647906467482 ], [ -72.609693472022045, 45.298185285440212 ] ] ] } },
{ "type": "Feature", "properties": { "hex_id": 666702, "centroid_lon": -72.608819839376324, "centroid_lat": 45.318955093598483, "occurrences_today": 18, "datetimes_today": "2026-05-18 00:31:45, 2026-05-18 00:46:18, 2026-05-18 01:01:15, 2026-05-18 01:16:40, 2026-05-18 01:31:44, 2026-05-18 01:46:19, 2026-05-18 02:01:48, 2026-05-18 02:15:19, 2026-05-18 02:31:15, 2026-05-18 02:46:26, 2026-05-18 03:01:36, 2026-05-18 03:16:15, 2026-05-18 03:31:26, 2026-05-18 03:46:40, 2026-05-18 04:01:47, 2026-05-18 04:16:19, 2026-05-18 04:31:14, 2026-05-18 04:46:26", "cumulative_total": 31.0 }, "geometry": { "type": "Polygon", "coordinates": [ [ [ -72.609038336743183, 45.313762649908092 ], [ -72.615302702711233, 45.316492199141855 ], [ -72.615084756750164, 45.321684664055901 ], [ -72.608601282506129, 45.324147531722296 ], [ -72.602336424645571, 45.321417607236548 ], [ -72.602555532901718, 45.316225190400203 ], [ -72.609038336743183, 45.313762649908092 ] ] ] } },
{ "type": "Feature", "properties": { "hex_id": 667312, "centroid_lon": -72.602774581506608, "centroid_lat": 45.311032767993041, "occurrences_today": 18, "datetimes_today": "2026-05-18 00:31:45, 2026-05-18 00:46:18, 2026-05-18 01:01:15, 2026-05-18 01:16:40, 2026-05-18 01:31:44, 2026-05-18 01:46:19, 2026-05-18 02:01:48, 2026-05-18 02:15:19, 2026-05-18 02:31:15, 2026-05-18 02:46:26, 2026-05-18 03:01:36, 2026-05-18 03:16:15, 2026-05-18 03:31:26, 2026-05-18 03:46:40, 2026-05-18 04:01:47, 2026-05-18 04:16:19, 2026-05-18 04:31:14, 2026-05-18 04:46:26", "cumulative_total": 31.0 }, "geometry": { "type": "Polygon", "coordinates": [ [ [ -72.602993570480109, 45.305840340015386 ], [ -72.60925677462653, 45.308570200651388 ], [ -72.609038336743183, 45.313762649908092 ], [ -72.602555532901718, 45.316225190400203 ], [ -72.596291837306453, 45.313494954560191 ], [ -72.596511436981601, 45.308302553495849 ], [ -72.602993570480109, 45.305840340015386 ] ] ] } },
{ "type": "Feature", "properties": { "hex_id": 667922, "centroid_lon": -72.596730976877552, "centroid_lat": 45.303110146856767, "occurrences_today": 18, "datetimes_today": "2026-05-18 00:31:45, 2026-05-18 00:46:18, 2026-05-18 01:01:15, 2026-05-18 01:16:40, 2026-05-18 01:31:44, 2026-05-18 01:46:19, 2026-05-18 02:01:48, 2026-05-18 02:15:19, 2026-05-18 02:31:15, 2026-05-18 02:46:26, 2026-05-18 03:01:36, 2026-05-18 03:16:15, 2026-05-18 03:31:26, 2026-05-18 03:46:40, 2026-05-18 04:01:47, 2026-05-18 04:16:19, 2026-05-18 04:31:14, 2026-05-18 04:46:26", "cumulative_total": 31.0 }, "geometry": { "type": "Polygon", "coordinates": [ [ [ -72.596950457014245, 45.297917734643249 ], [ -72.603212499842115, 45.300647906467482 ], [ -72.602993570480109, 45.305840340015386 ], [ -72.596511436981601, 45.308302553495849 ], [ -72.590248903148279, 45.305572006515632 ], [ -72.590468993798993, 45.300379621274679 ], [ -72.596950457014245, 45.297917734643249 ] ] ] } },
{ "type": "Feature", "properties": { "hex_id": 667923, "centroid_lon": -72.59607217783217, "centroid_lat": 45.318687350049487, "occurrences_today": 18, "datetimes_today": "2026-05-18 00:31:45, 2026-05-18 00:46:18, 2026-05-18 01:01:15, 2026-05-18 01:16:40, 2026-05-18 01:31:44, 2026-05-18 01:46:19, 2026-05-18 02:01:48, 2026-05-18 02:15:19, 2026-05-18 02:31:15, 2026-05-18 02:46:26, 2026-05-18 03:01:36, 2026-05-18 03:16:15, 2026-05-18 03:31:26, 2026-05-18 03:46:40, 2026-05-18 04:01:47, 2026-05-18 04:16:19, 2026-05-18 04:31:14, 2026-05-18 04:46:26", "cumulative_total": 31.0 }, "geometry": { "type": "Polygon", "coordinates": [ [ [ -72.596291837306453, 45.313494954560191 ], [ -72.602555532901718, 45.316225190400203 ], [ -72.602336424645571, 45.321417607236548 ], [ -72.595852458538829, 45.323879739963502 ], [ -72.589588271554476, 45.321149128763473 ], [ -72.589808542046015, 45.315956760260313 ], [ -72.596291837306453, 45.313494954560191 ] ] ] } },
{ "type": "Feature", "properties": { "hex_id": 668532, "centroid_lon": -72.590689024542755, "centroid_lat": 45.295187230455056, "occurrences_today": 18, "datetimes_today": "2026-05-18 00:31:45, 2026-05-18 00:46:18, 2026-05-18 01:01:15, 2026-05-18 01:16:40, 2026-05-18 01:31:44, 2026-05-18 01:46:19, 2026-05-18 02:01:48, 2026-05-18 02:15:19, 2026-05-18 02:31:15, 2026-05-18 02:46:26, 2026-05-18 03:01:36, 2026-05-18 03:16:15, 2026-05-18 03:31:26, 2026-05-18 03:46:40, 2026-05-18 04:01:47, 2026-05-18 04:16:19, 2026-05-18 04:31:14, 2026-05-18 04:46:26", "cumulative_total": 91.0 }, "geometry": { "type": "Polygon", "coordinates": [ [ [ -72.590908995399502, 45.289994834057033 ], [ -72.597169877411602, 45.292725316855545 ], [ -72.596950457014245, 45.297917734643249 ], [ -72.590468993798993, 45.300379621274679 ], [ -72.584207621224479, 45.297648763368201 ], [ -72.584428202407651, 45.292456394001988 ], [ -72.590908995399502, 45.289994834057033 ] ] ] } },
{ "type": "Feature", "properties": { "hex_id": 668533, "centroid_lon": -72.590028752570603, "centroid_lat": 45.310764386177588, "occurrences_today": 18, "datetimes_today": "2026-05-18 00:31:45, 2026-05-18 00:46:18, 2026-05-18 01:01:15, 2026-05-18 01:16:40, 2026-05-18 01:31:44, 2026-05-18 01:46:19, 2026-05-18 02:01:48, 2026-05-18 02:15:19, 2026-05-18 02:31:15, 2026-05-18 02:46:26, 2026-05-18 03:01:36, 2026-05-18 03:16:15, 2026-05-18 03:31:26, 2026-05-18 03:46:40, 2026-05-18 04:01:47, 2026-05-18 04:16:19, 2026-05-18 04:31:14, 2026-05-18 04:46:26", "cumulative_total": 32.0 }, "geometry": { "type": "Polygon", "coordinates": [ [ [ -72.590248903148279, 45.305572006515632 ], [ -72.596511436981601, 45.308302553495849 ], [ -72.596291837306453, 45.313494954560191 ], [ -72.589808542046015, 45.315956760260313 ], [ -72.583545517267098, 45.313225837968133 ], [ -72.583766278674233, 45.308033485351558 ], [ -72.590248903148279, 45.305572006515632 ] ] ] } },
{ "type": "Feature", "properties": { "hex_id": 563543, "centroid_lon": -73.680924952328766, "centroid_lat": 45.578029077741803, "occurrences_today": 10, "datetimes_today": "2026-05-18 00:01:39, 2026-05-18 00:16:25, 2026-05-18 00:31:45, 2026-05-18 00:46:18, 2026-05-18 01:01:15, 2026-05-18 01:16:40, 2026-05-18 01:31:44, 2026-05-18 01:46:19, 2026-05-18 02:01:48, 2026-05-18 02:15:19", "cumulative_total": 75.0 }, "geometry": { "type": "Polygon", "coordinates": [ [ [ -73.68104660225822, 45.572833717789152 ], [ -73.68739250824504, 45.575505205440756 ], [ -73.687271432236116, 45.580700576192854 ], [ -73.68080326914729, 45.583224432695104 ], [ -73.674456822497561, 45.580552576217158 ], [ -73.674579079588369, 45.575357232127999 ], [ -73.68104660225822, 45.572833717789152 ] ] ] } },
{ "type": "Feature", "properties": { "hex_id": 562932, "centroid_lon": -73.687513551168806, "centroid_lat": 45.570309829691716, "occurrences_today": 10, "datetimes_today": "2026-05-18 00:01:39, 2026-05-18 00:16:25, 2026-05-18 00:31:45, 2026-05-18 00:46:18, 2026-05-18 01:01:15, 2026-05-18 01:16:40, 2026-05-18 01:31:44, 2026-05-18 01:46:19, 2026-05-18 02:01:48, 2026-05-18 02:15:19", "cumulative_total": 146.0 }, "geometry": { "type": "Polygon", "coordinates": [ [ [ -73.687634561018513, 45.565114448945842 ], [ -73.693979926308984, 45.567785567930933 ], [ -73.693859490235241, 45.5729809594092 ], [ -73.68739250824504, 45.575505205440756 ], [ -73.68104660225822, 45.572833717789152 ], [ -73.681168218946823, 45.56763835283715 ], [ -73.687634561018513, 45.565114448945842 ] ] ] } },
{ "type": "Feature", "properties": { "hex_id": 565375, "centroid_lon": -73.661518841135248, "centroid_lat": 45.585598451309956, "occurrences_today": 10, "datetimes_today": "2026-05-18 00:01:39, 2026-05-18 00:16:25, 2026-05-18 00:31:45, 2026-05-18 00:46:18, 2026-05-18 01:01:15, 2026-05-18 01:16:40, 2026-05-18 01:31:44, 2026-05-18 01:46:19, 2026-05-18 02:01:48, 2026-05-18 02:15:19", "cumulative_total": 92.0 }, "geometry": { "type": "Polygon", "coordinates": [ [ [ -73.661642313015747, 45.58040313914924 ], [ -73.667988118762636, 45.583075700771616 ], [ -73.667865220768945, 45.588271023925778 ], [ -73.661395335501894, 45.590793758463782 ], [ -73.655048989626735, 45.588120827736994 ], [ -73.655173069135543, 45.582925531641308 ], [ -73.661642313015747, 45.58040313914924 ] ] ] } },
{ "type": "Feature", "properties": { "hex_id": 629527, "centroid_lon": -72.960751124332432, "centroid_lat": 46.346914569407829, "occurrences_today": 4, "datetimes_today": "2026-05-18 05:31:26, 2026-05-18 05:46:25, 2026-05-18 06:01:15, 2026-05-18 06:16:19", "cumulative_total": 21.0 }, "geometry": { "type": "Polygon", "coordinates": [ [ [ -72.960944277756695, 46.341721827919372 ], [ -72.967341281080195, 46.344433860247079 ], [ -72.967148715151339, 46.349626619904988 ], [ -72.960557917619823, 46.35210730553672 ], [ -72.954160380098386, 46.349394887787575 ], [ -72.954354174288127, 46.344202169894444 ], [ -72.960944277756695, 46.341721827919372 ] ] ] } },
{ "type": "Feature", "properties": { "hex_id": 812058, "centroid_lon": -71.030990931366262, "centroid_lat": 46.163648700790496, "occurrences_today": 10, "datetimes_today": "2026-05-18 01:31:44, 2026-05-18 01:46:19, 2026-05-18 02:01:48, 2026-05-18 02:15:19, 2026-05-18 02:31:15, 2026-05-18 02:46:26, 2026-05-18 03:01:36, 2026-05-18 03:16:15, 2026-05-18 03:31:26, 2026-05-18 03:46:40", "cumulative_total": 73.0 }, "geometry": { "type": "Polygon", "coordinates": [ [ [ -71.031364253505856, 46.158464977065215 ], [ -71.037638157077723, 46.161281314600586 ], [ -71.037265387559813, 46.16646507517742 ], [ -71.030617506656256, 46.168832417453693 ], [ -71.02434315305058, 46.166015680486339 ], [ -71.024717130347341, 46.160832000739703 ], [ -71.031364253505856, 46.158464977065215 ] ] ] } },
{ "type": "Feature", "properties": { "hex_id": 563542, "centroid_lon": -73.681289802405757, "centroid_lat": 45.562442982885884, "occurrences_today": 10, "datetimes_today": "2026-05-18 00:01:39, 2026-05-18 00:16:25, 2026-05-18 00:31:45, 2026-05-18 00:46:18, 2026-05-18 01:01:15, 2026-05-18 01:16:40, 2026-05-18 01:31:44, 2026-05-18 01:46:19, 2026-05-18 02:01:48, 2026-05-18 02:15:19", "cumulative_total": 88.0 }, "geometry": { "type": "Polygon", "coordinates": [ [ [ -73.681411352646194, 45.557247607935459 ], [ -73.687755537805288, 45.559919063203161 ], [ -73.687634561018513, 45.565114448945842 ], [ -73.681168218946823, 45.56763835283715 ], [ -73.674823493558151, 45.564966528944296 ], [ -73.674945650459591, 45.559771169849917 ], [ -73.681411352646194, 45.557247607935459 ] ] ] } },
{ "type": "Feature", "properties": { "hex_id": 499471, "centroid_lon": -74.34825079035177, "centroid_lat": 46.05926793680181, "occurrences_today": 21, "datetimes_today": "2026-05-18 00:01:39, 2026-05-18 00:16:25, 2026-05-18 00:31:45, 2026-05-18 00:46:18, 2026-05-18 01:01:15, 2026-05-18 01:16:40, 2026-05-18 01:31:44, 2026-05-18 01:46:19, 2026-05-18 02:01:48, 2026-05-18 02:15:19, 2026-05-18 02:31:15, 2026-05-18 02:46:26, 2026-05-18 03:01:36, 2026-05-18 03:16:15, 2026-05-18 03:31:26, 2026-05-18 03:46:40, 2026-05-18 04:01:47, 2026-05-18 04:16:19, 2026-05-18 04:31:14, 2026-05-18 04:46:26, 2026-05-18 05:01:26", "cumulative_total": 36.0 }, "geometry": { "type": "Polygon", "coordinates": [ [ [ -74.348311917992334, 46.054071973904051 ], [ -74.354744798358553, 46.056706628646602 ], [ -74.354684268528516, 46.061902595752393 ], [ -74.348189645899296, 46.064463894891745 ], [ -74.341756184537317, 46.061828871600888 ], [ -74.341817926794604, 46.056632917784874 ], [ -74.348311917992334, 46.054071973904051 ] ] ] } },
{ "type": "Feature", "properties": { "hex_id": 500082, "centroid_lon": -74.341694425298542, "centroid_lat": 46.067024820607827, "occurrences_today": 21, "datetimes_today": "2026-05-18 00:01:39, 2026-05-18 00:16:25, 2026-05-18 00:31:45, 2026-05-18 00:46:18, 2026-05-18 01:01:15, 2026-05-18 01:16:40, 2026-05-18 01:31:44, 2026-05-18 01:46:19, 2026-05-18 02:01:48, 2026-05-18 02:15:19, 2026-05-18 02:31:15, 2026-05-18 02:46:26, 2026-05-18 03:01:36, 2026-05-18 03:16:15, 2026-05-18 03:31:26, 2026-05-18 03:46:40, 2026-05-18 04:01:47, 2026-05-18 04:16:19, 2026-05-18 04:31:14, 2026-05-18 04:46:26, 2026-05-18 05:01:26", "cumulative_total": 36.0 }, "geometry": { "type": "Polygon", "coordinates": [ [ [ -74.341756184537317, 46.061828871600888 ], [ -74.348189645899296, 46.064463894891745 ], [ -74.348128484629171, 46.069659848173842 ], [ -74.341632649072508, 46.072220764805714 ], [ -74.33519860673205, 46.069585372802734 ], [ -74.335260980920935, 46.06438943294593 ], [ -74.341756184537317, 46.061828871600888 ] ] ] } },
{ "type": "Feature", "properties": { "hex_id": 52063, "centroid_lon": -79.186472197681042, "centroid_lat": 47.364066568831156, "occurrences_today": 26, "datetimes_today": "2026-05-18 00:01:39, 2026-05-18 00:16:25, 2026-05-18 00:31:45, 2026-05-18 00:46:18, 2026-05-18 01:01:15, 2026-05-18 01:16:40, 2026-05-18 01:31:44, 2026-05-18 01:46:19, 2026-05-18 02:01:48, 2026-05-18 02:15:19, 2026-05-18 02:31:15, 2026-05-18 02:46:26, 2026-05-18 03:01:36, 2026-05-18 03:16:15, 2026-05-18 03:31:26, 2026-05-18 03:46:40, 2026-05-18 04:01:47, 2026-05-18 04:16:19, 2026-05-18 04:31:14, 2026-05-18 04:46:26, 2026-05-18 05:01:26, 2026-05-18 05:16:37, 2026-05-18 05:31:26, 2026-05-18 05:46:25, 2026-05-18 06:01:15, 2026-05-18 06:16:19", "cumulative_total": 64.0 }, "geometry": { "type": "Polygon", "coordinates": [ [ [ -79.186061603080049, 47.358885339578457 ], [ -79.192870676493968, 47.361234157432335 ], [ -79.193281971563863, 47.366415339383565 ], [ -79.186882906890261, 47.369247790663678 ], [ -79.180073018379076, 47.366898642365477 ], [ -79.179663009679032, 47.361717373299285 ], [ -79.186061603080049, 47.358885339578457 ] ] ] } },
{ "type": "Feature", "properties": { "hex_id": 52674, "centroid_lon": -79.180483141529308, "centroid_lat": 47.372079904019444, "occurrences_today": 26, "datetimes_today": "2026-05-18 00:01:39, 2026-05-18 00:16:25, 2026-05-18 00:31:45, 2026-05-18 00:46:18, 2026-05-18 01:01:15, 2026-05-18 01:16:40, 2026-05-18 01:31:44, 2026-05-18 01:46:19, 2026-05-18 02:01:48, 2026-05-18 02:15:19, 2026-05-18 02:31:15, 2026-05-18 02:46:26, 2026-05-18 03:01:36, 2026-05-18 03:16:15, 2026-05-18 03:31:26, 2026-05-18 03:46:40, 2026-05-18 04:01:47, 2026-05-18 04:16:19, 2026-05-18 04:31:14, 2026-05-18 04:46:26, 2026-05-18 05:01:26, 2026-05-18 05:16:37, 2026-05-18 05:31:26, 2026-05-18 05:46:25, 2026-05-18 06:01:15, 2026-05-18 06:16:19", "cumulative_total": 51.0 }, "geometry": { "type": "Polygon", "coordinates": [ [ [ -79.180073018379076, 47.366898642365477 ], [ -79.186882906890261, 47.369247790663678 ], [ -79.187293730747996, 47.374429005075022 ], [ -79.18089337916993, 47.377261158260211 ], [ -79.174082675440729, 47.374911679342482 ], [ -79.173673138547827, 47.369730377926921 ], [ -79.180073018379076, 47.366898642365477 ] ] ] } },
{ "type": "Feature", "properties": { "hex_id": 549501, "centroid_lon": -73.828454613883167, "centroid_lat": 45.57184242077075, "occurrences_today": 26, "datetimes_today": "2026-05-18 00:01:39, 2026-05-18 00:16:25, 2026-05-18 00:31:45, 2026-05-18 00:46:18, 2026-05-18 01:01:15, 2026-05-18 01:16:40, 2026-05-18 01:31:44, 2026-05-18 01:46:19, 2026-05-18 02:01:48, 2026-05-18 02:15:19, 2026-05-18 02:31:15, 2026-05-18 02:46:26, 2026-05-18 03:01:36, 2026-05-18 03:16:15, 2026-05-18 03:31:26, 2026-05-18 03:46:40, 2026-05-18 04:01:47, 2026-05-18 04:16:19, 2026-05-18 04:31:14, 2026-05-18 04:46:26, 2026-05-18 05:01:26, 2026-05-18 05:16:37, 2026-05-18 05:31:26, 2026-05-18 05:46:25, 2026-05-18 06:01:15, 2026-05-18 06:16:19", "cumulative_total": 150.0 }, "geometry": { "type": "Polygon", "coordinates": [ [ [ -73.828562636797145, 45.566646763914321 ], [ -73.834915010153367, 45.569310119447493 ], [ -73.834807562962069, 45.574505785638436 ], [ -73.828346561442572, 45.577038072680821 ], [ -73.821993641895247, 45.574374349790361 ], [ -73.822102270048617, 45.569178707279484 ], [ -73.828562636797145, 45.566646763914321 ] ] ] } },
{ "type": "Feature", "properties": { "hex_id": 796214, "centroid_lon": -71.167505381056415, "centroid_lat": 46.620414208774527, "occurrences_today": 13, "datetimes_today": "2026-05-18 00:16:25, 2026-05-18 00:46:18, 2026-05-18 01:01:15, 2026-05-18 01:16:40, 2026-05-18 01:31:44, 2026-05-18 01:46:19, 2026-05-18 02:01:48, 2026-05-18 02:15:19, 2026-05-18 02:31:15, 2026-05-18 02:46:26, 2026-05-18 03:01:36, 2026-05-18 03:16:15, 2026-05-18 03:31:26", "cumulative_total": 14.0 }, "geometry": { "type": "Polygon", "coordinates": [ [ [ -71.167871672909854, 46.615230056967391 ], [ -71.174204269095853, 46.618040526221527 ], [ -71.17383854576741, 46.623224713882955 ], [ -71.167138987948618, 46.625598353645209 ], [ -71.160805924509432, 46.622787479910684 ], [ -71.161172886107323, 46.61760337096046 ], [ -71.167871672909854, 46.615230056967391 ] ] ] } },
{ "type": "Feature", "properties": { "hex_id": 474373, "centroid_lon": -74.620419612247133, "centroid_lat": 45.008148184508606, "occurrences_today": 25, "datetimes_today": "2026-05-18 00:16:25, 2026-05-18 00:31:45, 2026-05-18 00:46:18, 2026-05-18 01:01:15, 2026-05-18 01:16:40, 2026-05-18 01:31:44, 2026-05-18 01:46:19, 2026-05-18 02:01:48, 2026-05-18 02:15:19, 2026-05-18 02:31:15, 2026-05-18 02:46:26, 2026-05-18 03:01:36, 2026-05-18 03:16:15, 2026-05-18 03:31:26, 2026-05-18 03:46:40, 2026-05-18 04:01:47, 2026-05-18 04:16:19, 2026-05-18 04:31:14, 2026-05-18 04:46:26, 2026-05-18 05:01:26, 2026-05-18 05:16:37, 2026-05-18 05:31:26, 2026-05-18 05:46:25, 2026-05-18 06:01:15, 2026-05-18 06:16:19", "cumulative_total": 68.0 }, "geometry": { "type": "Polygon", "coordinates": [ [ [ -74.620453932951278, 45.002951038773759 ], [ -74.626781196483364, 45.005570521837342 ], [ -74.626747444837122, 45.010767668955211 ], [ -74.620385282222344, 45.013345325473168 ], [ -74.614057458954534, 45.010725489717856 ], [ -74.614092358034156, 45.005528350199839 ], [ -74.620453932951278, 45.002951038773759 ] ] ] } },
{ "type": "Feature", "properties": { "hex_id": 474983, "centroid_lon": -74.614127247638891, "centroid_lat": 45.000331205910847, "occurrences_today": 1, "datetimes_today": "2026-05-18 00:01:39", "cumulative_total": 58.0 }, "geometry": { "type": "Polygon", "coordinates": [ [ [ -74.614162127771905, 44.995134056850887 ], [ -74.620488244337849, 44.99775388826864 ], [ -74.620453932951278, 45.002951038773759 ], [ -74.614092358034156, 45.005528350199839 ], [ -74.607765682195037, 45.002908166124691 ], [ -74.607801140543103, 44.997711023344365 ], [ -74.614162127771905, 44.995134056850887 ] ] ] } },
{ "type": "Feature", "properties": { "hex_id": 671653, "centroid_lon": -72.511716333457699, "centroid_lat": 46.361403589377282, "occurrences_today": 7, "datetimes_today": "2026-05-18 02:15:19, 2026-05-18 02:31:15, 2026-05-18 02:46:26, 2026-05-18 03:01:36, 2026-05-18 03:16:15, 2026-05-18 03:31:26, 2026-05-18 03:46:40", "cumulative_total": 15.0 }, "geometry": { "type": "Polygon", "coordinates": [ [ [ -72.511952113466037, 46.356212471914638 ], [ -72.518327510779699, 46.358949220222087 ], [ -72.518092312103278, 46.364140360297817 ], [ -72.511480488408921, 46.366594701178848 ], [ -72.505104574814922, 46.363857563232465 ], [ -72.505341001173321, 46.358666474110166 ], [ -72.511952113466037, 46.356212471914638 ] ] ] } },
{ "type": "Feature", "properties": { "hex_id": 552555, "centroid_lon": -73.795921804532966, "centroid_lat": 45.594889494970687, "occurrences_today": 15, "datetimes_today": "2026-05-18 02:46:26, 2026-05-18 03:01:36, 2026-05-18 03:16:15, 2026-05-18 03:31:26, 2026-05-18 03:46:40, 2026-05-18 04:01:47, 2026-05-18 04:16:19, 2026-05-18 04:31:14, 2026-05-18 04:46:26, 2026-05-18 05:01:26, 2026-05-18 05:16:37, 2026-05-18 05:31:26, 2026-05-18 05:46:25, 2026-05-18 06:01:15, 2026-05-18 06:16:19", "cumulative_total": 208.0 }, "geometry": { "type": "Polygon", "coordinates": [ [ [ -73.796032915934006, 45.589693920426058 ], [ -73.802386291520222, 45.592359085353003 ], [ -73.802275756104379, 45.597554669560012 ], [ -73.795810662752984, 45.600085064557746 ], [ -73.78945674156563, 45.597419531673701 ], [ -73.789568459320591, 45.592223971813745 ], [ -73.796032915934006, 45.589693920426058 ] ] ] } },
{ "type": "Feature", "properties": { "hex_id": 548891, "centroid_lon": -73.834700086400517, "centroid_lat": 45.579701446885146, "occurrences_today": 26, "datetimes_today": "2026-05-18 00:01:39, 2026-05-18 00:16:25, 2026-05-18 00:31:45, 2026-05-18 00:46:18, 2026-05-18 01:01:15, 2026-05-18 01:16:40, 2026-05-18 01:31:44, 2026-05-18 01:46:19, 2026-05-18 02:01:48, 2026-05-18 02:15:19, 2026-05-18 02:31:15, 2026-05-18 02:46:26, 2026-05-18 03:01:36, 2026-05-18 03:16:15, 2026-05-18 03:31:26, 2026-05-18 03:46:40, 2026-05-18 04:01:47, 2026-05-18 04:16:19, 2026-05-18 04:31:14, 2026-05-18 04:46:26, 2026-05-18 05:01:26, 2026-05-18 05:16:37, 2026-05-18 05:31:26, 2026-05-18 05:46:25, 2026-05-18 06:01:15, 2026-05-18 06:16:19", "cumulative_total": 49.0 }, "geometry": { "type": "Polygon", "coordinates": [ [ [ -73.834807562962069, 45.574505785638436 ], [ -73.841161117295229, 45.577168801783827 ], [ -73.841054216778986, 45.582364472304612 ], [ -73.834592580458789, 45.584897103187593 ], [ -73.828238479465412, 45.582233719644478 ], [ -73.828346561442572, 45.577038072680821 ], [ -73.834807562962069, 45.574505785638436 ] ] ] } },
{ "type": "Feature", "properties": { "hex_id": 392664, "centroid_lon": -75.483654379735896, "centroid_lat": 46.535544865568035, "occurrences_today": 26, "datetimes_today": "2026-05-18 00:01:39, 2026-05-18 00:16:25, 2026-05-18 00:31:45, 2026-05-18 00:46:18, 2026-05-18 01:01:15, 2026-05-18 01:16:40, 2026-05-18 01:31:44, 2026-05-18 01:46:19, 2026-05-18 02:01:48, 2026-05-18 02:15:19, 2026-05-18 02:31:15, 2026-05-18 02:46:26, 2026-05-18 03:01:36, 2026-05-18 03:16:15, 2026-05-18 03:31:26, 2026-05-18 03:46:40, 2026-05-18 04:01:47, 2026-05-18 04:16:19, 2026-05-18 04:31:14, 2026-05-18 04:46:26, 2026-05-18 05:01:26, 2026-05-18 05:16:37, 2026-05-18 05:31:26, 2026-05-18 05:46:25, 2026-05-18 06:01:15, 2026-05-18 06:16:19", "cumulative_total": 51.0 }, "geometry": { "type": "Polygon", "coordinates": [ [ [ -75.483608257359393, 46.530349186172664 ], [ -75.490151214669837, 46.532919274640285 ], [ -75.49019796523514, 46.53811494664042 ], [ -75.483700514875906, 46.540740540187116 ], [ -75.477156916610966, 46.538170088641458 ], [ -75.477111409664147, 46.53297440669418 ], [ -75.483608257359393, 46.530349186172664 ] ] ] } },
{ "type": "Feature", "properties": { "hex_id": 393275, "centroid_lon": -75.47720243615143, "centroid_lat": 46.543365765813391, "occurrences_today": 26, "datetimes_today": "2026-05-18 00:01:39, 2026-05-18 00:16:25, 2026-05-18 00:31:45, 2026-05-18 00:46:18, 2026-05-18 01:01:15, 2026-05-18 01:16:40, 2026-05-18 01:31:44, 2026-05-18 01:46:19, 2026-05-18 02:01:48, 2026-05-18 02:15:19, 2026-05-18 02:31:15, 2026-05-18 02:46:26, 2026-05-18 03:01:36, 2026-05-18 03:16:15, 2026-05-18 03:31:26, 2026-05-18 03:46:40, 2026-05-18 04:01:47, 2026-05-18 04:16:19, 2026-05-18 04:31:14, 2026-05-18 04:46:26, 2026-05-18 05:01:26, 2026-05-18 05:16:37, 2026-05-18 05:31:26, 2026-05-18 05:46:25, 2026-05-18 06:01:15, 2026-05-18 06:16:19", "cumulative_total": 41.0 }, "geometry": { "type": "Polygon", "coordinates": [ [ [ -75.477156916610966, 46.538170088641458 ], [ -75.483700514875906, 46.540740540187116 ], [ -75.483746662783844, 46.545936210029936 ], [ -75.477247968289873, 46.548561438210022 ], [ -75.470703729057291, 46.545990623417957 ], [ -75.470658825290641, 46.540794943759288 ], [ -75.477156916610966, 46.538170088641458 ] ] ] } },
{ "type": "Feature", "properties": { "hex_id": 64330, "centroid_lon": -79.124049554277647, "centroid_lat": 48.254852642453812, "occurrences_today": 5, "datetimes_today": "2026-05-18 00:01:39, 2026-05-18 00:16:25, 2026-05-18 00:31:45, 2026-05-18 00:46:18, 2026-05-18 01:01:15", "cumulative_total": 5.0 }, "geometry": { "type": "Polygon", "coordinates": [ [ [ -79.12363225593819, 48.249671809176803 ], [ -79.130559103798674, 48.252020678948462 ], [ -79.130977136343404, 48.25720146484295 ], [ -79.124466970621597, 48.260033468322135 ], [ -79.117539270530116, 48.257684256095658 ], [ -79.117122588433915, 48.252503382914966 ], [ -79.12363225593819, 48.249671809176803 ] ] ] } }
]
}
