{
"type": "FeatureCollection",
"name": "daily_2025-12-08",
"crs": { "type": "name", "properties": { "name": "urn:ogc:def:crs:OGC:1.3:CRS84" } },
"features": [
{ "type": "Feature", "properties": { "hex_id": 309, "count": 3, "date": "2025-12-08", "n_files": 22, "pct": 13.64 }, "geometry": { "type": "Polygon", "coordinates": [ [ [ -74.8553623, 48.6640648 ], [ -74.8552879, 48.6900343 ], [ -74.8892289, 48.7030566 ], [ -74.923227, 48.6900996 ], [ -74.9232664, 48.66413 ], [ -74.8893427, 48.6511176 ], [ -74.8553623, 48.6640648 ] ] ] } },
{ "type": "Feature", "properties": { "hex_id": 851, "count": 6, "date": "2025-12-08", "n_files": 22, "pct": 27.27 }, "geometry": { "type": "Polygon", "coordinates": [ [ [ -74.5720761, 45.9748653 ], [ -74.5718758, 46.0008464 ], [ -74.6040691, 46.0139534 ], [ -74.6364479, 46.0010701 ], [ -74.636618, 45.9750888 ], [ -74.6044394, 45.961991 ], [ -74.5720761, 45.9748653 ] ] ] } },
{ "type": "Feature", "properties": { "hex_id": 1045, "count": 3, "date": "2025-12-08", "n_files": 22, "pct": 13.64 }, "geometry": { "type": "Polygon", "coordinates": [ [ [ -74.4734149, 46.1693143 ], [ -74.4731668, 46.1952942 ], [ -74.5054495, 46.2084288 ], [ -74.5379655, 46.1955744 ], [ -74.538183, 46.1695943 ], [ -74.5059152, 46.1564689 ], [ -74.4734149, 46.1693143 ] ] ] } },
{ "type": "Feature", "properties": { "hex_id": 1109, "count": 3, "date": "2025-12-08", "n_files": 22, "pct": 13.64 }, "geometry": { "type": "Polygon", "coordinates": [ [ [ -74.4414256, 46.1301908 ], [ -74.4411628, 46.1561707 ], [ -74.4734149, 46.1693143 ], [ -74.5059152, 46.1564689 ], [ -74.506147500000012, 46.1304888 ], [ -74.4739101, 46.1173543 ], [ -74.4414256, 46.1301908 ] ] ] } },
{ "type": "Feature", "properties": { "hex_id": 1675, "count": 3, "date": "2025-12-08", "n_files": 22, "pct": 13.64 }, "geometry": { "type": "Polygon", "coordinates": [ [ [ -74.161359, 45.3879656 ], [ -74.1609745, 45.4139473 ], [ -74.1927367, 45.4271684 ], [ -74.2248696, 45.4143988 ], [ -74.2252248, 45.3884167 ], [ -74.1934765, 45.3752046 ], [ -74.161359, 45.3879656 ] ] ] } },
{ "type": "Feature", "properties": { "hex_id": 1748, "count": 6, "date": "2025-12-08", "n_files": 22, "pct": 27.27 }, "geometry": { "type": "Polygon", "coordinates": [ [ [ -74.1190763, 46.0502167 ], [ -74.118663, 46.0761951 ], [ -74.1507908, 46.089429 ], [ -74.1833175, 46.0766753 ], [ -74.1837005, 46.0506965 ], [ -74.1515871, 46.0374718 ], [ -74.1190763, 46.0502167 ] ] ] } },
{ "type": "Feature", "properties": { "hex_id": 2068, "count": 1, "date": "2025-12-08", "n_files": 22, "pct": 4.55 }, "geometry": { "type": "Polygon", "coordinates": [ [ [ -73.9567897, 46.0878229 ], [ -73.9562996, 46.1137999 ], [ -73.9884094, 46.1270793 ], [ -74.0209951, 46.1143724 ], [ -74.0214549, 46.0883949 ], [ -73.9893592, 46.0751248 ], [ -73.9567897, 46.0878229 ] ] ] } },
{ "type": "Feature", "properties": { "hex_id": 2123, "count": 2, "date": "2025-12-08", "n_files": 22, "pct": 9.09 }, "geometry": { "type": "Polygon", "coordinates": [ [ [ -73.9385707, 45.3471354 ], [ -73.9380847, 45.3731156 ], [ -73.9697712, 45.3863981 ], [ -74.00193, 45.3736914 ], [ -74.0023867, 45.3477106 ], [ -73.9707139, 45.3344372 ], [ -73.9385707, 45.3471354 ] ] ] } },
{ "type": "Feature", "properties": { "hex_id": 2132, "count": 1, "date": "2025-12-08", "n_files": 22, "pct": 4.55 }, "geometry": { "type": "Polygon", "coordinates": [ [ [ -73.92521450000001, 46.048558 ], [ -73.9247102, 46.0745349 ], [ -73.9567897, 46.0878229 ], [ -73.9893592, 46.0751248 ], [ -73.9898332, 46.0491474 ], [ -73.9577679, 46.0358686 ], [ -73.92521450000001, 46.048558 ] ] ] } },
{ "type": "Feature", "properties": { "hex_id": 2183, "count": 4, "date": "2025-12-08", "n_files": 22, "pct": 18.18 }, "geometry": { "type": "Polygon", "coordinates": [ [ [ -73.911878, 45.0740376 ], [ -73.9113846, 45.1000188 ], [ -73.9429144, 45.1133079 ], [ -73.9749242, 45.1006068 ], [ -73.9753889, 45.0746251 ], [ -73.9438725, 45.0613449 ], [ -73.911878, 45.0740376 ] ] ] } },
{ "type": "Feature", "properties": { "hex_id": 2191, "count": 4, "date": "2025-12-08", "n_files": 22, "pct": 18.18 }, "geometry": { "type": "Polygon", "coordinates": [ [ [ -73.8998482, 45.697553199999987 ], [ -73.8993383, 45.7235314 ], [ -73.9312115, 45.7368256 ], [ -73.9635807, 45.7241323 ], [ -73.9640608, 45.6981535 ], [ -73.9322015, 45.6848685 ], [ -73.8998482, 45.697553199999987 ] ] ] } },
{ "type": "Feature", "properties": { "hex_id": 2248, "count": 4, "date": "2025-12-08", "n_files": 22, "pct": 18.18 }, "geometry": { "type": "Polygon", "coordinates": [ [ [ -73.8793614, 45.1127019 ], [ -73.8788525, 45.1386827 ], [ -73.9103957, 45.1519809 ], [ -73.94243440000001, 45.1392892 ], [ -73.9429144, 45.1133079 ], [ -73.9113846, 45.1000188 ], [ -73.8793614, 45.1127019 ] ] ] } },
{ "type": "Feature", "properties": { "hex_id": 2252, "count": 4, "date": "2025-12-08", "n_files": 22, "pct": 18.18 }, "geometry": { "type": "Polygon", "coordinates": [ [ [ -73.8732091, 45.4244631 ], [ -73.8726918, 45.4504423 ], [ -73.9044056, 45.4637431 ], [ -73.9366229, 45.4510555 ], [ -73.9371109, 45.4250756 ], [ -73.9054108, 45.411784 ], [ -73.8732091, 45.4244631 ] ] ] } },
{ "type": "Feature", "properties": { "hex_id": 2380, "count": 7, "date": "2025-12-08", "n_files": 22, "pct": 31.82 }, "geometry": { "type": "Polygon", "coordinates": [ [ [ -73.8093094, 45.4238147 ], [ -73.8087629, 45.4497934 ], [ -73.8404609, 45.4631118 ], [ -73.8726918, 45.4504423 ], [ -73.8732091, 45.4244631 ], [ -73.8415247, 45.4111538 ], [ -73.8093094, 45.4238147 ] ] ] } },
{ "type": "Feature", "properties": { "hex_id": 2381, "count": 9, "date": "2025-12-08", "n_files": 22, "pct": 40.91 }, "geometry": { "type": "Polygon", "coordinates": [ [ [ -73.8076675, 45.5017505 ], [ -73.8071187, 45.5277288 ], [ -73.8388597, 45.5410479 ], [ -73.8711359, 45.5283795 ], [ -73.8716552, 45.5024006 ], [ -73.8399279, 45.4890906 ], [ -73.8076675, 45.5017505 ] ] ] } },
{ "type": "Feature", "properties": { "hex_id": 2445, "count": 7, "date": "2025-12-08", "n_files": 22, "pct": 31.82 }, "geometry": { "type": "Polygon", "coordinates": [ [ [ -73.7748289, 45.540379 ], [ -73.7742642, 45.5663569 ], [ -73.8060188, 45.5796851 ], [ -73.8383245, 45.5670263 ], [ -73.8388597, 45.5410479 ], [ -73.8071187, 45.5277288 ], [ -73.7748289, 45.540379 ] ] ] } },
{ "type": "Feature", "properties": { "hex_id": 2509, "count": 8, "date": "2025-12-08", "n_files": 22, "pct": 36.36 }, "geometry": { "type": "Polygon", "coordinates": [ [ [ -73.743682, 45.5010646 ], [ -73.7431038, 45.5270423 ], [ -73.7748289, 45.540379 ], [ -73.8071187, 45.5277288 ], [ -73.8076675, 45.5017505 ], [ -73.7759559, 45.488423 ], [ -73.743682, 45.5010646 ] ] ] } },
{ "type": "Feature", "properties": { "hex_id": 3023, "count": 4, "date": "2025-12-08", "n_files": 22, "pct": 18.18 }, "geometry": { "type": "Polygon", "coordinates": [ [ [ -73.4835751, 45.6538103 ], [ -73.4828734, 45.6797845 ], [ -73.5146203, 45.6931934 ], [ -73.5470555, 45.6806189 ], [ -73.5477275, 45.654644 ], [ -73.515994, 45.6412444 ], [ -73.4835751, 45.6538103 ] ] ] } },
{ "type": "Feature", "properties": { "hex_id": 3086, "count": 4, "date": "2025-12-08", "n_files": 22, "pct": 18.18 }, "geometry": { "type": "Polygon", "coordinates": [ [ [ -73.4525729, 45.6144191 ], [ -73.4518578, 45.640393 ], [ -73.4835751, 45.6538103 ], [ -73.515994, 45.6412444 ], [ -73.5166794, 45.6152696 ], [ -73.4849755, 45.6018616 ], [ -73.4525729, 45.6144191 ] ] ] } },
{ "type": "Feature", "properties": { "hex_id": 3339, "count": 8, "date": "2025-12-08", "n_files": 22, "pct": 36.36 }, "geometry": { "type": "Polygon", "coordinates": [ [ [ -73.331289, 45.3788533 ], [ -73.3305242, 45.4048268 ], [ -73.3620811, 45.4182761 ], [ -73.3943896, 45.4057427 ], [ -73.3951251, 45.3797683 ], [ -73.3635813, 45.3663283 ], [ -73.331289, 45.3788533 ] ] ] } },
{ "type": "Feature", "properties": { "hex_id": 4433, "count": 3, "date": "2025-12-08", "n_files": 22, "pct": 13.64 }, "geometry": { "type": "Polygon", "coordinates": [ [ [ -72.7719291, 45.7980445 ], [ -72.7708931, 45.8240075 ], [ -72.8025425, 45.8376124 ], [ -72.8352151, 45.8252448 ], [ -72.8362213, 45.7992807 ], [ -72.8045847, 45.7856854 ], [ -72.7719291, 45.7980445 ] ] ] } },
{ "type": "Feature", "properties": { "hex_id": 4497, "count": 3, "date": "2025-12-08", "n_files": 22, "pct": 13.64 }, "geometry": { "type": "Polygon", "coordinates": [ [ [ -72.7382076, 45.8363564 ], [ -72.7371545, 45.8623185 ], [ -72.7688168, 45.8759329 ], [ -72.8015193, 45.8635756 ], [ -72.8025425, 45.8376124 ], [ -72.7708931, 45.8240075 ], [ -72.7382076, 45.8363564 ] ] ] } },
{ "type": "Feature", "properties": { "hex_id": 4561, "count": 3, "date": "2025-12-08", "n_files": 22, "pct": 13.64 }, "geometry": { "type": "Polygon", "coordinates": [ [ [ -72.7076411, 45.7967722 ], [ -72.7065752, 45.822734 ], [ -72.7382076, 45.8363564 ], [ -72.7708931, 45.8240075 ], [ -72.7719291, 45.7980445 ], [ -72.7403094, 45.7844317 ], [ -72.7076411, 45.7967722 ] ] ] } },
{ "type": "Feature", "properties": { "hex_id": 5196, "count": 4, "date": "2025-12-08", "n_files": 22, "pct": 18.18 }, "geometry": { "type": "Polygon", "coordinates": [ [ [ -72.40429420000001, 45.4005177 ], [ -72.403104, 45.4264754 ], [ -72.434441, 45.4401764 ], [ -72.466956, 45.4279102 ], [ -72.4681171, 45.4019512 ], [ -72.4367922, 45.3882597 ], [ -72.40429420000001, 45.4005177 ] ] ] } },
{ "type": "Feature", "properties": { "hex_id": 5260, "count": 4, "date": "2025-12-08", "n_files": 22, "pct": 18.18 }, "geometry": { "type": "Polygon", "coordinates": [ [ [ -72.3705767, 45.4387232 ], [ -72.3693695, 45.46468 ], [ -72.4007187, 45.4783905 ], [ -72.433263, 45.4661346 ], [ -72.434441, 45.4401764 ], [ -72.403104, 45.4264754 ], [ -72.3705767, 45.4387232 ] ] ] } },
{ "type": "Feature", "properties": { "hex_id": 5324, "count": 4, "date": "2025-12-08", "n_files": 22, "pct": 18.18 }, "geometry": { "type": "Polygon", "coordinates": [ [ [ -72.3404762, 45.3990486 ], [ -72.3392568, 45.425005 ], [ -72.3705767, 45.4387232 ], [ -72.403104, 45.4264754 ], [ -72.40429420000001, 45.4005177 ], [ -72.3729864, 45.386809 ], [ -72.3404762, 45.3990486 ] ] ] } },
{ "type": "Feature", "properties": { "hex_id": 5388, "count": 4, "date": "2025-12-08", "n_files": 22, "pct": 18.18 }, "geometry": { "type": "Polygon", "coordinates": [ [ [ -72.3067174, 45.4372342 ], [ -72.3054809, 45.4631897 ], [ -72.336813, 45.4769174 ], [ -72.3693695, 45.46468 ], [ -72.3705767, 45.4387232 ], [ -72.3392568, 45.425005 ], [ -72.3067174, 45.4372342 ] ] ] } },
{ "type": "Feature", "properties": { "hex_id": 5450, "count": 1, "date": "2025-12-08", "n_files": 22, "pct": 4.55 }, "geometry": { "type": "Polygon", "coordinates": [ [ [ -72.284119, 45.2418106 ], [ -72.2828806, 45.2677665 ], [ -72.3141012, 45.2814981 ], [ -72.3465483, 45.2692645 ], [ -72.3477578, 45.2433072 ], [ -72.3165491, 45.229585 ], [ -72.284119, 45.2418106 ] ] ] } },
{ "type": "Feature", "properties": { "hex_id": 5597, "count": 7, "date": "2025-12-08", "n_files": 22, "pct": 31.82 }, "geometry": { "type": "Polygon", "coordinates": [ [ [ -72.1454069, 46.719452 ], [ -72.1440365, 46.7453981 ], [ -72.1760469, 46.7591832 ], [ -72.2094149, 46.7470123 ], [ -72.2107541, 46.7210647 ], [ -72.1787565, 46.7072895 ], [ -72.1454069, 46.719452 ] ] ] } },
{ "type": "Feature", "properties": { "hex_id": 5660, "count": 7, "date": "2025-12-08", "n_files": 22, "pct": 31.82 }, "geometry": { "type": "Polygon", "coordinates": [ [ [ -72.114811, 46.6797133 ], [ -72.1134278, 46.7056589 ], [ -72.1454069, 46.719452 ], [ -72.1787565, 46.7072895 ], [ -72.180108500000017, 46.6813424 ], [ -72.1481422, 46.6675593 ], [ -72.114811, 46.6797133 ] ] ] } },
{ "type": "Feature", "properties": { "hex_id": 5661, "count": 7, "date": "2025-12-08", "n_files": 22, "pct": 31.82 }, "geometry": { "type": "Polygon", "coordinates": [ [ [ -72.1106556, 46.7575496 ], [ -72.1092666, 46.7834948 ], [ -72.1412898, 46.7972899 ], [ -72.1746892, 46.7851298 ], [ -72.1760469, 46.7591832 ], [ -72.1440365, 46.7453981 ], [ -72.1106556, 46.7575496 ] ] ] } },
{ "type": "Feature", "properties": { "hex_id": 5710, "count": 5, "date": "2025-12-08", "n_files": 22, "pct": 22.73 }, "geometry": { "type": "Polygon", "coordinates": [ [ [ -72.141184400000014, 45.5501388 ], [ -72.1398668, 45.5760901 ], [ -72.1712178, 45.5898635 ], [ -72.2038744, 45.577676 ], [ -72.2051626, 45.5517233 ], [ -72.1738237, 45.5379594 ], [ -72.141184400000014, 45.5501388 ] ] ] } },
{ "type": "Feature", "properties": { "hex_id": 5725, "count": 7, "date": "2025-12-08", "n_files": 22, "pct": 31.82 }, "geometry": { "type": "Polygon", "coordinates": [ [ [ -72.0800654, 46.717802 ], [ -72.0786637, 46.7437466 ], [ -72.1106556, 46.7575496 ], [ -72.1440365, 46.7453981 ], [ -72.1454069, 46.719452 ], [ -72.1134278, 46.7056589 ], [ -72.0800654, 46.717802 ] ] ] } },
{ "type": "Feature", "properties": { "hex_id": 5789, "count": 7, "date": "2025-12-08", "n_files": 22, "pct": 31.82 }, "geometry": { "type": "Polygon", "coordinates": [ [ [ -72.0452701, 46.7558787 ], [ -72.0438498, 46.7818224 ], [ -72.075854400000011, 46.7956354 ], [ -72.1092666, 46.7834948 ], [ -72.1106556, 46.7575496 ], [ -72.0786637, 46.7437466 ], [ -72.0452701, 46.7558787 ] ] ] } },
{ "type": "Feature", "properties": { "hex_id": 5960, "count": 3, "date": "2025-12-08", "n_files": 22, "pct": 13.64 }, "geometry": { "type": "Polygon", "coordinates": [ [ [ -72.0377012, 45.079765599999988 ], [ -72.0363581, 45.105716699999988 ], [ -72.0674294, 45.1195124 ], [ -72.0998321, 45.1073476 ], [ -72.1011465, 45.081395 ], [ -72.0700869, 45.0676087 ], [ -72.0377012, 45.079765599999988 ] ] ] } },
{ "type": "Feature", "properties": { "hex_id": 6023, "count": 3, "date": "2025-12-08", "n_files": 22, "pct": 13.64 }, "geometry": { "type": "Polygon", "coordinates": [ [ [ -72.0080132, 45.0400118 ], [ -72.0066586, 45.0659624 ], [ -72.0377012, 45.079765599999988 ], [ -72.0700869, 45.0676087 ], [ -72.0714129, 45.0416567 ], [ -72.0403819, 45.0278629 ], [ -72.0080132, 45.0400118 ] ] ] } },
{ "type": "Feature", "properties": { "hex_id": 6024, "count": 3, "date": "2025-12-08", "n_files": 22, "pct": 13.64 }, "geometry": { "type": "Polygon", "coordinates": [ [ [ -72.0039438, 45.1178631 ], [ -72.0025836, 45.1438133 ], [ -72.0336665, 45.1576184 ], [ -72.0660979, 45.145464 ], [ -72.0674294, 45.1195124 ], [ -72.0363581, 45.105716699999988 ], [ -72.0039438, 45.1178631 ] ] ] } },
{ "type": "Feature", "properties": { "hex_id": 6088, "count": 3, "date": "2025-12-08", "n_files": 22, "pct": 13.64 }, "geometry": { "type": "Polygon", "coordinates": [ [ [ -71.9742613, 45.078101 ], [ -71.9728896, 45.1040506 ], [ -72.0039438, 45.1178631 ], [ -72.0363581, 45.105716699999988 ], [ -72.0377012, 45.079765599999988 ], [ -72.0066586, 45.0659624 ], [ -71.9742613, 45.078101 ] ] ] } },
{ "type": "Feature", "properties": { "hex_id": 6152, "count": 3, "date": "2025-12-08", "n_files": 22, "pct": 13.64 }, "geometry": { "type": "Polygon", "coordinates": [ [ [ -71.9404636, 45.1161787 ], [ -71.9390748, 45.1421273 ], [ -71.9701405, 45.1559493 ], [ -72.0025836, 45.1438133 ], [ -72.0039438, 45.1178631 ], [ -71.9728896, 45.1040506 ], [ -71.9404636, 45.1161787 ] ] ] } },
{ "type": "Feature", "properties": { "hex_id": 6605, "count": 7, "date": "2025-12-08", "n_files": 22, "pct": 31.82 }, "geometry": { "type": "Polygon", "coordinates": [ [ [ -71.6980513, 45.4602236 ], [ -71.6965344, 45.4861645 ], [ -71.7277215, 45.5000556 ], [ -71.7604139, 45.487996 ], [ -71.7619016, 45.4620534 ], [ -71.7307261, 45.448172 ], [ -71.6980513, 45.4602236 ] ] ] } },
{ "type": "Feature", "properties": { "hex_id": 6710, "count": 1, "date": "2025-12-08", "n_files": 22, "pct": 4.55 }, "geometry": { "type": "Polygon", "coordinates": [ [ [ -71.4582159, 48.6875948 ], [ -71.4563946, 48.7135146 ], [ -71.489413, 48.7275145 ], [ -71.5242391, 48.7155837 ], [ -71.5260257, 48.6896621 ], [ -71.4930209, 48.675673 ], [ -71.4582159, 48.6875948 ] ] ] } },
{ "type": "Feature", "properties": { "hex_id": 6711, "count": 1, "date": "2025-12-08", "n_files": 22, "pct": 4.55 }, "geometry": { "type": "Polygon", "coordinates": [ [ [ -71.4527442, 48.7653537 ], [ -71.4509151, 48.7912729 ], [ -71.4839818, 48.8052754 ], [ -71.518864, 48.7933477 ], [ -71.5206582, 48.7674265 ], [ -71.4876052, 48.7534349 ], [ -71.4527442, 48.7653537 ] ] ] } },
{ "type": "Feature", "properties": { "hex_id": 6733, "count": 7, "date": "2025-12-08", "n_files": 22, "pct": 31.82 }, "geometry": { "type": "Polygon", "coordinates": [ [ [ -71.6342073, 45.4583581 ], [ -71.6326612, 45.4842974 ], [ -71.6638305, 45.4982054 ], [ -71.6965344, 45.4861645 ], [ -71.6980513, 45.4602236 ], [ -71.6668935, 45.4463252 ], [ -71.6342073, 45.4583581 ] ] ] } },
{ "type": "Feature", "properties": { "hex_id": 6775, "count": 1, "date": "2025-12-08", "n_files": 22, "pct": 4.55 }, "geometry": { "type": "Polygon", "coordinates": [ [ [ -71.421555, 48.7254245 ], [ -71.4197124, 48.751343 ], [ -71.4527442, 48.7653537 ], [ -71.4876052, 48.7534349 ], [ -71.489413, 48.7275145 ], [ -71.4563946, 48.7135146 ], [ -71.421555, 48.7254245 ] ] ] } },
{ "type": "Feature", "properties": { "hex_id": 6776, "count": 1, "date": "2025-12-08", "n_files": 22, "pct": 4.55 }, "geometry": { "type": "Polygon", "coordinates": [ [ [ -71.4160194, 48.8031797 ], [ -71.4141689, 48.8290977 ], [ -71.4472491, 48.843111 ], [ -71.4821662, 48.8311953 ], [ -71.4839818, 48.8052754 ], [ -71.4509151, 48.7912729 ], [ -71.4160194, 48.8031797 ] ] ] } },
{ "type": "Feature", "properties": { "hex_id": 6839, "count": 1, "date": "2025-12-08", "n_files": 22, "pct": 4.55 }, "geometry": { "type": "Polygon", "coordinates": [ [ [ -71.3848381, 48.7632408 ], [ -71.3829741, 48.7891582 ], [ -71.4160194, 48.8031797 ], [ -71.4509151, 48.7912729 ], [ -71.4527442, 48.7653537 ], [ -71.4197124, 48.751343 ], [ -71.3848381, 48.7632408 ] ] ] } },
{ "type": "Feature", "properties": { "hex_id": 6840, "count": 1, "date": "2025-12-08", "n_files": 22, "pct": 4.55 }, "geometry": { "type": "Polygon", "coordinates": [ [ [ -71.3792383, 48.8409924 ], [ -71.3773663, 48.8669092 ], [ -71.41046, 48.8809333 ], [ -71.4454121, 48.8690297 ], [ -71.4472491, 48.843111 ], [ -71.4141689, 48.8290977 ], [ -71.3792383, 48.8409924 ] ] ] } },
{ "type": "Feature", "properties": { "hex_id": 6903, "count": 1, "date": "2025-12-08", "n_files": 22, "pct": 4.55 }, "geometry": { "type": "Polygon", "coordinates": [ [ [ -71.3537049, 48.7232946 ], [ -71.3518276, 48.7492112 ], [ -71.3848381, 48.7632408 ], [ -71.4197124, 48.751343 ], [ -71.421555, 48.7254245 ], [ -71.388558, 48.7114056 ], [ -71.3537049, 48.7232946 ] ] ] } },
{ "type": "Feature", "properties": { "hex_id": 6904, "count": 1, "date": "2025-12-08", "n_files": 22, "pct": 4.55 }, "geometry": { "type": "Polygon", "coordinates": [ [ [ -71.3480649, 48.801043899999989 ], [ -71.3461796, 48.8269601 ], [ -71.3792383, 48.8409924 ], [ -71.4141689, 48.8290977 ], [ -71.4160194, 48.8031797 ], [ -71.3829741, 48.7891582 ], [ -71.3480649, 48.801043899999989 ] ] ] } },
{ "type": "Feature", "properties": { "hex_id": 6967, "count": 1, "date": "2025-12-08", "n_files": 22, "pct": 4.55 }, "geometry": { "type": "Polygon", "coordinates": [ [ [ -71.316939800000014, 48.7610881 ], [ -71.3150411, 48.7870035 ], [ -71.3480649, 48.801043899999989 ], [ -71.3829741, 48.7891582 ], [ -71.3848381, 48.7632408 ], [ -71.3518276, 48.7492112 ], [ -71.316939800000014, 48.7610881 ] ] ] } },
{ "type": "Feature", "properties": { "hex_id": 7263, "count": 5, "date": "2025-12-08", "n_files": 22, "pct": 22.73 }, "geometry": { "type": "Polygon", "coordinates": [ [ [ -71.2857653, 46.8506406 ], [ -71.2839745, 46.8765638 ], [ -71.315826, 46.8905853 ], [ -71.3494564, 46.8786736 ], [ -71.3512159, 46.8527485 ], [ -71.3193763, 46.8387371 ], [ -71.2857653, 46.8506406 ] ] ] } },
{ "type": "Feature", "properties": { "hex_id": 7373, "count": 1, "date": "2025-12-08", "n_files": 22, "pct": 4.55 }, "geometry": { "type": "Polygon", "coordinates": [ [ [ -71.3150842, 45.4484966 ], [ -71.3133923, 45.474427 ], [ -71.3444721, 45.4884197 ], [ -71.3772327, 45.4764723 ], [ -71.3788954, 45.4505401 ], [ -71.3478268, 45.436557 ], [ -71.3150842, 45.4484966 ] ] ] } },
{ "type": "Feature", "properties": { "hex_id": 7379, "count": 1, "date": "2025-12-08", "n_files": 22, "pct": 4.55 }, "geometry": { "type": "Polygon", "coordinates": [ [ [ -71.2842739, 45.9152178 ], [ -71.2825399, 45.9411451 ], [ -71.3138645, 45.9551531 ], [ -71.3469117, 45.9432238 ], [ -71.3486158, 45.9172946 ], [ -71.3173026, 45.9032965 ], [ -71.2842739, 45.9152178 ] ] ] } },
{ "type": "Feature", "properties": { "hex_id": 7380, "count": 1, "date": "2025-12-08", "n_files": 22, "pct": 4.55 }, "geometry": { "type": "Polygon", "coordinates": [ [ [ -71.2790647, 45.9929993 ], [ -71.2773236, 46.0189262 ], [ -71.3086895, 46.0329367 ], [ -71.3417852, 46.0210105 ], [ -71.3434963, 45.9950818 ], [ -71.3121418, 45.9810811 ], [ -71.2790647, 45.9929993 ] ] ] } },
{ "type": "Feature", "properties": { "hex_id": 7381, "count": 2, "date": "2025-12-08", "n_files": 22, "pct": 9.09 }, "geometry": { "type": "Polygon", "coordinates": [ [ [ -71.2738341, 46.0707794 ], [ -71.2720857, 46.0967057 ], [ -71.3034932, 46.1107188 ], [ -71.3366375, 46.0987957 ], [ -71.3383558, 46.0728675 ], [ -71.3069598, 46.0588643 ], [ -71.2738341, 46.0707794 ] ] ] } },
{ "type": "Feature", "properties": { "hex_id": 7411, "count": 3, "date": "2025-12-08", "n_files": 22, "pct": 13.64 }, "geometry": { "type": "Polygon", "coordinates": [ [ [ -71.1063581, 48.4034597 ], [ -71.104376, 48.4293704 ], [ -71.1371108, 48.4434644 ], [ -71.1718148, 48.431637 ], [ -71.1737627, 48.4057243 ], [ -71.1410408, 48.391641 ], [ -71.1063581, 48.4034597 ] ] ] } },
{ "type": "Feature", "properties": { "hex_id": 7437, "count": 1, "date": "2025-12-08", "n_files": 22, "pct": 4.55 }, "geometry": { "type": "Polygon", "coordinates": [ [ [ -71.2806205, 45.4863556 ], [ -71.2789106, 45.5122848 ], [ -71.3100015, 45.5262872 ], [ -71.3427913, 45.5143507 ], [ -71.3444721, 45.4884197 ], [ -71.3133923, 45.474427 ], [ -71.2806205, 45.4863556 ] ] ] } },
{ "type": "Feature", "properties": { "hex_id": 7440, "count": 1, "date": "2025-12-08", "n_files": 22, "pct": 4.55 }, "geometry": { "type": "Polygon", "coordinates": [ [ [ -71.2651466, 45.7197123 ], [ -71.2634156, 45.74564 ], [ -71.2946283, 45.7596501 ], [ -71.3275608, 45.7477227 ], [ -71.3292624, 45.7217932 ], [ -71.2980609, 45.7077929 ], [ -71.2651466, 45.7197123 ] ] ] } },
{ "type": "Feature", "properties": { "hex_id": 7443, "count": 1, "date": "2025-12-08", "n_files": 22, "pct": 4.55 }, "geometry": { "type": "Polygon", "coordinates": [ [ [ -71.2494813, 45.9530554 ], [ -71.2477287, 45.978981499999989 ], [ -71.2790647, 45.9929993 ], [ -71.3121418, 45.9810811 ], [ -71.3138645, 45.9551531 ], [ -71.2825399, 45.9411451 ], [ -71.2494813, 45.9530554 ] ] ] } },
{ "type": "Feature", "properties": { "hex_id": 7445, "count": 2, "date": "2025-12-08", "n_files": 22, "pct": 9.09 }, "geometry": { "type": "Polygon", "coordinates": [ [ [ -71.2389299, 46.108609699999988 ], [ -71.2371629, 46.1345349 ], [ -71.2685818, 46.1485579 ], [ -71.3017563, 46.1366458 ], [ -71.3034932, 46.1107188 ], [ -71.2720857, 46.0967057 ], [ -71.2389299, 46.108609699999988 ] ] ] } },
{ "type": "Feature", "properties": { "hex_id": 7505, "count": 1, "date": "2025-12-08", "n_files": 22, "pct": 4.55 }, "geometry": { "type": "Polygon", "coordinates": [ [ [ -71.2304717, 45.7575485 ], [ -71.2287223, 45.783475 ], [ -71.2599463, 45.7974949 ], [ -71.2929084, 45.7855785 ], [ -71.2946283, 45.7596501 ], [ -71.2634156, 45.74564 ], [ -71.2304717, 45.7575485 ] ] ] } },
{ "type": "Feature", "properties": { "hex_id": 7507, "count": 1, "date": "2025-12-08", "n_files": 22, "pct": 4.55 }, "geometry": { "type": "Polygon", "coordinates": [ [ [ -71.2199391, 45.9131048 ], [ -71.2181752, 45.9390302 ], [ -71.2494813, 45.9530554 ], [ -71.2825399, 45.9411451 ], [ -71.2842739, 45.9152178 ], [ -71.2529792, 45.9012025 ], [ -71.2199391, 45.9131048 ] ] ] } },
{ "type": "Feature", "properties": { "hex_id": 7508, "count": 1, "date": "2025-12-08", "n_files": 22, "pct": 4.55 }, "geometry": { "type": "Polygon", "coordinates": [ [ [ -71.2146402, 45.9908806 ], [ -71.2128691, 46.0168056 ], [ -71.2442164, 46.0308333 ], [ -71.2773236, 46.0189262 ], [ -71.2790647, 45.9929993 ], [ -71.2477287, 45.978981499999989 ], [ -71.2146402, 45.9908806 ] ] ] } },
{ "type": "Feature", "properties": { "hex_id": 7568, "count": 1, "date": "2025-12-08", "n_files": 22, "pct": 4.55 }, "geometry": { "type": "Polygon", "coordinates": [ [ [ -71.201038, 45.7175956 ], [ -71.1992774, 45.7435214 ], [ -71.2304717, 45.7575485 ], [ -71.2634156, 45.74564 ], [ -71.2651466, 45.7197123 ], [ -71.2339635, 45.705695 ], [ -71.201038, 45.7175956 ] ] ] } },
{ "type": "Feature", "properties": { "hex_id": 7571, "count": 1, "date": "2025-12-08", "n_files": 22, "pct": 4.55 }, "geometry": { "type": "Polygon", "coordinates": [ [ [ -71.1851053, 45.9509214 ], [ -71.1833229, 45.9768457 ], [ -71.2146402, 45.9908806 ], [ -71.2477287, 45.978981499999989 ], [ -71.2494813, 45.9530554 ], [ -71.2181752, 45.9390302 ], [ -71.1851053, 45.9509214 ] ] ] } },
{ "type": "Feature", "properties": { "hex_id": 7572, "count": 1, "date": "2025-12-08", "n_files": 22, "pct": 4.55 }, "geometry": { "type": "Polygon", "coordinates": [ [ [ -71.1797506, 46.0286936 ], [ -71.1779609, 46.0546173 ], [ -71.2093196, 46.068655 ], [ -71.2424567, 46.0567589 ], [ -71.2442164, 46.0308333 ], [ -71.2128691, 46.0168056 ], [ -71.1797506, 46.0286936 ] ] ] } },
{ "type": "Feature", "properties": { "hex_id": 7635, "count": 1, "date": "2025-12-08", "n_files": 22, "pct": 4.55 }, "geometry": { "type": "Polygon", "coordinates": [ [ [ -71.1556115, 45.9109557 ], [ -71.1538178, 45.9368792 ], [ -71.1851053, 45.9509214 ], [ -71.2181752, 45.9390302 ], [ -71.2199391, 45.9131048 ], [ -71.1886629, 45.8990724 ], [ -71.1556115, 45.9109557 ] ] ] } },
{ "type": "Feature", "properties": { "hex_id": 7636, "count": 1, "date": "2025-12-08", "n_files": 22, "pct": 4.55 }, "geometry": { "type": "Polygon", "coordinates": [ [ [ -71.1502231, 45.9887257 ], [ -71.148422, 46.0146487 ], [ -71.1797506, 46.0286936 ], [ -71.2128691, 46.0168056 ], [ -71.2146402, 45.9908806 ], [ -71.1833229, 45.9768457 ], [ -71.1502231, 45.9887257 ] ] ] } },
{ "type": "Feature", "properties": { "hex_id": 7696, "count": 1, "date": "2025-12-08", "n_files": 22, "pct": 4.55 }, "geometry": { "type": "Polygon", "coordinates": [ [ [ -71.1369366, 45.715443 ], [ -71.1351464, 45.7413668 ], [ -71.1663224, 45.7554109 ], [ -71.1992774, 45.7435214 ], [ -71.201038, 45.7175956 ], [ -71.1698731, 45.7035613 ], [ -71.1369366, 45.715443 ] ] ] } },
{ "type": "Feature", "properties": { "hex_id": 7699, "count": 1, "date": "2025-12-08", "n_files": 22, "pct": 4.55 }, "geometry": { "type": "Polygon", "coordinates": [ [ [ -71.1207367, 45.9487513 ], [ -71.1189243, 45.974673599999988 ], [ -71.1502231, 45.9887257 ], [ -71.1833229, 45.9768457 ], [ -71.1851053, 45.9509214 ], [ -71.1538178, 45.9368792 ], [ -71.1207367, 45.9487513 ] ] ] } },
{ "type": "Feature", "properties": { "hex_id": 7700, "count": 1, "date": "2025-12-08", "n_files": 22, "pct": 4.55 }, "geometry": { "type": "Polygon", "coordinates": [ [ [ -71.1152922, 46.0265176 ], [ -71.1134724, 46.0524394 ], [ -71.1448124, 46.0664942 ], [ -71.1779609, 46.0546173 ], [ -71.1797506, 46.0286936 ], [ -71.148422, 46.0146487 ], [ -71.1152922, 46.0265176 ] ] ] } },
{ "type": "Feature", "properties": { "hex_id": 7760, "count": 1, "date": "2025-12-08", "n_files": 22, "pct": 4.55 }, "geometry": { "type": "Polygon", "coordinates": [ [ [ -71.1075913, 45.6754686 ], [ -71.1057901, 45.7013917 ], [ -71.1369366, 45.715443 ], [ -71.1698731, 45.7035613 ], [ -71.1716449, 45.6776362 ], [ -71.1405095, 45.6635948 ], [ -71.1075913, 45.6754686 ] ] ] } },
{ "type": "Feature", "properties": { "hex_id": 7763, "count": 1, "date": "2025-12-08", "n_files": 22, "pct": 4.55 }, "geometry": { "type": "Polygon", "coordinates": [ [ [ -71.0912914, 45.9087704 ], [ -71.0894678, 45.934692 ], [ -71.1207367, 45.9487513 ], [ -71.1538178, 45.9368792 ], [ -71.1556115, 45.9109557 ], [ -71.1243539, 45.8969062 ], [ -71.0912914, 45.9087704 ] ] ] } },
{ "type": "Feature", "properties": { "hex_id": 7764, "count": 1, "date": "2025-12-08", "n_files": 22, "pct": 4.55 }, "geometry": { "type": "Polygon", "coordinates": [ [ [ -71.0858133, 45.9865346 ], [ -71.0839822, 46.0124556 ], [ -71.1152922, 46.0265176 ], [ -71.148422, 46.0146487 ], [ -71.1502231, 45.9887257 ], [ -71.1189243, 45.974673599999988 ], [ -71.0858133, 45.9865346 ] ] ] } },
{ "type": "Feature", "properties": { "hex_id": 7823, "count": 1, "date": "2025-12-08", "n_files": 22, "pct": 4.55 }, "geometry": { "type": "Polygon", "coordinates": [ [ [ -71.0782866, 45.6354878 ], [ -71.0764743, 45.6614102 ], [ -71.1075913, 45.6754686 ], [ -71.1405095, 45.6635948 ], [ -71.1422924, 45.6376704 ], [ -71.1111864, 45.6236218 ], [ -71.0782866, 45.6354878 ] ] ] } },
{ "type": "Feature", "properties": { "hex_id": 7888, "count": 1, "date": "2025-12-08", "n_files": 22, "pct": 4.55 }, "geometry": { "type": "Polygon", "coordinates": [ [ [ -71.0435451, 45.6732651 ], [ -71.0417145, 45.6991863 ], [ -71.0728424, 45.7132545 ], [ -71.1057901, 45.7013917 ], [ -71.1075913, 45.6754686 ], [ -71.0764743, 45.6614102 ], [ -71.0435451, 45.6732651 ] ] ] } },
{ "type": "Feature", "properties": { "hex_id": 7892, "count": 2, "date": "2025-12-08", "n_files": 22, "pct": 9.09 }, "geometry": { "type": "Polygon", "coordinates": [ [ [ -71.021411, 45.9843072 ], [ -71.01955, 46.0102262 ], [ -71.0508412, 46.0243054 ], [ -71.0839822, 46.0124556 ], [ -71.0858133, 45.9865346 ], [ -71.0545332, 45.9724653 ], [ -71.021411, 45.9843072 ] ] ] } },
{ "type": "Feature", "properties": { "hex_id": 7951, "count": 1, "date": "2025-12-08", "n_files": 22, "pct": 4.55 }, "geometry": { "type": "Polygon", "coordinates": [ [ [ -71.0142882, 45.6332694 ], [ -71.0124466, 45.6591898 ], [ -71.0435451, 45.6732651 ], [ -71.0764743, 45.6614102 ], [ -71.0782866, 45.6354878 ], [ -71.047199, 45.6214223 ], [ -71.0142882, 45.6332694 ] ] ] } },
{ "type": "Feature", "properties": { "hex_id": 8016, "count": 1, "date": "2025-12-08", "n_files": 22, "pct": 4.55 }, "geometry": { "type": "Polygon", "coordinates": [ [ [ -70.9795064, 45.6710258 ], [ -70.977646300000018, 45.696945 ], [ -71.0087558, 45.7110301 ], [ -71.0417145, 45.6991863 ], [ -71.0435451, 45.6732651 ], [ -71.0124466, 45.6591898 ], [ -70.9795064, 45.6710258 ] ] ] } },
{ "type": "Feature", "properties": { "hex_id": 12477, "count": 2, "date": "2025-12-08", "n_files": 22, "pct": 9.09 }, "geometry": { "type": "Polygon", "coordinates": [ [ [ -68.3453823, 49.0952479 ], [ -68.3419164, 49.1210403 ], [ -68.3742238, 49.1359037 ], [ -68.409987, 49.1249633 ], [ -68.413418, 49.0991674 ], [ -68.3811207, 49.0843155 ], [ -68.3453823, 49.0952479 ] ] ] } },
{ "type": "Feature", "properties": { "hex_id": 13429, "count": 1, "date": "2025-12-08", "n_files": 22, "pct": 4.55 }, "geometry": { "type": "Polygon", "coordinates": [ [ [ -67.9288448, 48.4074754 ], [ -67.925251, 48.4332482 ], [ -67.9570029, 48.4482032 ], [ -67.9923394, 48.437374 ], [ -67.9958998, 48.4115974 ], [ -67.9641571, 48.3966538 ], [ -67.9288448, 48.4074754 ] ] ] } },
{ "type": "Feature", "properties": { "hex_id": 13492, "count": 1, "date": "2025-12-08", "n_files": 22, "pct": 4.55 }, "geometry": { "type": "Polygon", "coordinates": [ [ [ -67.9007292, 48.3667428 ], [ -67.8971264, 48.3925142 ], [ -67.9288448, 48.4074754 ], [ -67.9641571, 48.3966538 ], [ -67.9677266, 48.3708786 ], [ -67.9360172, 48.3559287 ], [ -67.9007292, 48.3667428 ] ] ] } },
{ "type": "Feature", "properties": { "hex_id": 13493, "count": 1, "date": "2025-12-08", "n_files": 22, "pct": 4.55 }, "geometry": { "type": "Polygon", "coordinates": [ [ [ -67.889905400000018, 48.4440562 ], [ -67.8862873, 48.4698267 ], [ -67.9180483, 48.484793 ], [ -67.9534182, 48.4739774 ], [ -67.9570029, 48.4482032 ], [ -67.925251, 48.4332482 ], [ -67.889905400000018, 48.4440562 ] ] ] } },
{ "type": "Feature", "properties": { "hex_id": 13557, "count": 1, "date": "2025-12-08", "n_files": 22, "pct": 4.55 }, "geometry": { "type": "Polygon", "coordinates": [ [ [ -67.8618051, 48.4033146 ], [ -67.8581779, 48.4290837 ], [ -67.889905400000018, 48.4440562 ], [ -67.925251, 48.4332482 ], [ -67.9288448, 48.4074754 ], [ -67.8971264, 48.3925142 ], [ -67.8618051, 48.4033146 ] ] ] } },
{ "type": "Feature", "properties": { "hex_id": 13558, "count": 1, "date": "2025-12-08", "n_files": 22, "pct": 4.55 }, "geometry": { "type": "Polygon", "coordinates": [ [ [ -67.8509083, 48.4806209 ], [ -67.8472657, 48.506389 ], [ -67.8790358, 48.5213667 ], [ -67.9144392, 48.5105649 ], [ -67.9180483, 48.484793 ], [ -67.8862873, 48.4698267 ], [ -67.8509083, 48.4806209 ] ] ] } },
{ "type": "Feature", "properties": { "hex_id": 13621, "count": 1, "date": "2025-12-08", "n_files": 22, "pct": 4.55 }, "geometry": { "type": "Polygon", "coordinates": [ [ [ -67.82282330000001, 48.4398703 ], [ -67.8191717, 48.465637 ], [ -67.8509083, 48.4806209 ], [ -67.8862873, 48.4698267 ], [ -67.889905400000018, 48.4440562 ], [ -67.8581779, 48.4290837 ], [ -67.82282330000001, 48.4398703 ] ] ] } },
{ "type": "Feature", "properties": { "hex_id": 13686, "count": 1, "date": "2025-12-08", "n_files": 22, "pct": 4.55 }, "geometry": { "type": "Polygon", "coordinates": [ [ [ -67.7837837, 48.4764099 ], [ -67.7801077, 48.5021743 ], [ -67.8118532, 48.5171695 ], [ -67.8472657, 48.506389 ], [ -67.8509083, 48.4806209 ], [ -67.8191717, 48.465637 ], [ -67.7837837, 48.4764099 ] ] ] } },
{ "type": "Feature", "properties": { "hex_id": 13749, "count": 1, "date": "2025-12-08", "n_files": 22, "pct": 4.55 }, "geometry": { "type": "Polygon", "coordinates": [ [ [ -67.7557566, 48.4356456 ], [ -67.7520716, 48.4614085 ], [ -67.7837837, 48.4764099 ], [ -67.8191717, 48.465637 ], [ -67.82282330000001, 48.4398703 ], [ -67.7911202, 48.4248803 ], [ -67.7557566, 48.4356456 ] ] ] } },
{ "type": "Feature", "properties": { "hex_id": 13750, "count": 1, "date": "2025-12-08", "n_files": 22, "pct": 4.55 }, "geometry": { "type": "Polygon", "coordinates": [ [ [ -67.7446862, 48.5129334 ], [ -67.7409856, 48.5386954 ], [ -67.7727401, 48.553702 ], [ -67.8081862, 48.5429353 ], [ -67.8118532, 48.5171695 ], [ -67.7801077, 48.5021743 ], [ -67.7446862, 48.5129334 ] ] ] } },
{ "type": "Feature", "properties": { "hex_id": 13814, "count": 1, "date": "2025-12-08", "n_files": 22, "pct": 4.55 }, "geometry": { "type": "Polygon", "coordinates": [ [ [ -67.7166747, 48.4721601 ], [ -67.7129652, 48.4979206 ], [ -67.7446862, 48.5129334 ], [ -67.7801077, 48.5021743 ], [ -67.7837837, 48.4764099 ], [ -67.7520716, 48.4614085 ], [ -67.7166747, 48.4721601 ] ] ] } },
{ "type": "Feature", "properties": { "hex_id": 13878, "count": 1, "date": "2025-12-08", "n_files": 22, "pct": 4.55 }, "geometry": { "type": "Polygon", "coordinates": [ [ [ -67.6775348, 48.5086584 ], [ -67.6738007, 48.5344165 ], [ -67.7055306, 48.5494407 ], [ -67.7409856, 48.5386954 ], [ -67.7446862, 48.5129334 ], [ -67.7129652, 48.4979206 ], [ -67.6775348, 48.5086584 ] ] ] } }
]
}
