{
"type": "FeatureCollection",
"name": "daily_2026-09-06",
"crs": { "type": "name", "properties": { "name": "urn:ogc:def:crs:OGC:1.3:CRS84" } },
"features": [
{ "type": "Feature", "properties": { "hex_id": 517724, "centroid_lon": -74.168728946012777, "centroid_lat": 45.091507749694479, "occurrences_today": 2, "datetimes_today": "2026-09-06 08:01:57, 2026-09-06 08:17:04", "cumulative_total": 150.0 }, "geometry": { "type": "Polygon", "coordinates": [ [ [ -74.168804324014729, 45.086311113754441 ], [ -74.175119755816311, 45.088955498193634 ], [ -74.175044943603439, 45.094152140010628 ], [ -74.168653547522027, 45.096704380786683 ], [ -74.162337570423546, 45.094059638248886 ], [ -74.162413534696583, 45.088863013097281 ], [ -74.168804324014729, 45.086311113754441 ] ] ] } },
{ "type": "Feature", "properties": { "hex_id": 542188, "centroid_lon": -73.901377978184456, "centroid_lat": 45.775237236973517, "occurrences_today": 22, "datetimes_today": "2026-09-06 03:02:29, 2026-09-06 03:17:00, 2026-09-06 03:32:06, 2026-09-06 03:46:39, 2026-09-06 04:02:42, 2026-09-06 04:16:47, 2026-09-06 04:32:06, 2026-09-06 04:46:56, 2026-09-06 05:02:17, 2026-09-06 05:17:05, 2026-09-06 05:31:55, 2026-09-06 05:46:39, 2026-09-06 06:02:15, 2026-09-06 06:17:34, 2026-09-06 06:31:47, 2026-09-06 06:46:41, 2026-09-06 07:01:54, 2026-09-06 07:14:13, 2026-09-06 07:31:55, 2026-09-06 07:47:09, 2026-09-06 08:01:57, 2026-09-06 08:17:04", "cumulative_total": 37.0 }, "geometry": { "type": "Polygon", "coordinates": [ [ [ -73.901479998731105, 45.770041634664267 ], [ -73.907858781663791, 45.772701084056337 ], [ -73.907757344044526, 45.777896695014697 ], [ -73.901275929681759, 45.780432834360049 ], [ -73.894896591782455, 45.777773015719355 ], [ -73.894999223203101, 45.772577427047146 ], [ -73.901479998731105, 45.770041634664267 ] ] ] } },
{ "type": "Feature", "properties": { "hex_id": 542798, "centroid_lon": -73.895101826508991, "centroid_lat": 45.767381833450159, "occurrences_today": 22, "datetimes_today": "2026-09-06 03:02:29, 2026-09-06 03:17:00, 2026-09-06 03:32:06, 2026-09-06 03:46:39, 2026-09-06 04:02:42, 2026-09-06 04:16:47, 2026-09-06 04:32:06, 2026-09-06 04:46:56, 2026-09-06 05:02:17, 2026-09-06 05:17:05, 2026-09-06 05:31:55, 2026-09-06 05:46:39, 2026-09-06 06:02:15, 2026-09-06 06:17:34, 2026-09-06 06:31:47, 2026-09-06 06:46:41, 2026-09-06 07:01:54, 2026-09-06 07:14:13, 2026-09-06 07:31:55, 2026-09-06 07:47:09, 2026-09-06 08:01:57, 2026-09-06 08:17:04", "cumulative_total": 37.0 }, "geometry": { "type": "Polygon", "coordinates": [ [ [ -73.89520440170962, 45.762186234928471 ], [ -73.901581991331156, 45.76484602743237 ], [ -73.901479998731105, 45.770041634664267 ], [ -73.894999223203101, 45.772577427047146 ], [ -73.888621079090981, 45.769917265334847 ], [ -73.888724264987957, 45.764721680513247 ], [ -73.89520440170962, 45.762186234928471 ] ] ] } },
{ "type": "Feature", "properties": { "hex_id": 543409, "centroid_lon": -73.888517864920601, "centroid_lat": 45.775112845229664, "occurrences_today": 22, "datetimes_today": "2026-09-06 03:02:29, 2026-09-06 03:17:00, 2026-09-06 03:32:06, 2026-09-06 03:46:39, 2026-09-06 04:02:42, 2026-09-06 04:16:47, 2026-09-06 04:32:06, 2026-09-06 04:46:56, 2026-09-06 05:02:17, 2026-09-06 05:17:05, 2026-09-06 05:31:55, 2026-09-06 05:46:39, 2026-09-06 06:02:15, 2026-09-06 06:17:34, 2026-09-06 06:31:47, 2026-09-06 06:46:41, 2026-09-06 07:01:54, 2026-09-06 07:14:13, 2026-09-06 07:31:55, 2026-09-06 07:47:09, 2026-09-06 08:01:57, 2026-09-06 08:17:04", "cumulative_total": 37.0 }, "geometry": { "type": "Polygon", "coordinates": [ [ [ -73.888621079090981, 45.769917265334847 ], [ -73.894999223203101, 45.772577427047146 ], [ -73.894896591782455, 45.777773015719355 ], [ -73.888414622467252, 45.780308420197635 ], [ -73.882035923893156, 45.777647889115684 ], [ -73.882139749086676, 45.77245232299029 ], [ -73.888621079090981, 45.769917265334847 ] ] ] } },
{ "type": "Feature", "properties": { "hex_id": 544019, "centroid_lon": -73.882243545838577, "centroid_lat": 45.767256751936003, "occurrences_today": 22, "datetimes_today": "2026-09-06 03:02:29, 2026-09-06 03:17:00, 2026-09-06 03:32:06, 2026-09-06 03:46:39, 2026-09-06 04:02:42, 2026-09-06 04:16:47, 2026-09-06 04:32:06, 2026-09-06 04:46:56, 2026-09-06 05:02:17, 2026-09-06 05:17:05, 2026-09-06 05:31:55, 2026-09-06 05:46:39, 2026-09-06 06:02:15, 2026-09-06 06:17:34, 2026-09-06 06:31:47, 2026-09-06 06:46:41, 2026-09-06 07:01:54, 2026-09-06 07:14:13, 2026-09-06 07:31:55, 2026-09-06 07:47:09, 2026-09-06 08:01:57, 2026-09-06 08:17:04", "cumulative_total": 38.0 }, "geometry": { "type": "Polygon", "coordinates": [ [ [ -73.882347314158494, 45.762061175952851 ], [ -73.888724264987957, 45.764721680513247 ], [ -73.888621079090981, 45.769917265334847 ], [ -73.882139749086676, 45.77245232299029 ], [ -73.875762244271073, 45.769791449100545 ], [ -73.875866623436309, 45.764595886949863 ], [ -73.882347314158494, 45.762061175952851 ] ] ] } },
{ "type": "Feature", "properties": { "hex_id": 544630, "centroid_lon": -73.875657836505638, "centroid_lat": 45.774987006320281, "occurrences_today": 22, "datetimes_today": "2026-09-06 03:02:29, 2026-09-06 03:17:00, 2026-09-06 03:32:06, 2026-09-06 03:46:39, 2026-09-06 04:02:42, 2026-09-06 04:16:47, 2026-09-06 04:32:06, 2026-09-06 04:46:56, 2026-09-06 05:02:17, 2026-09-06 05:17:05, 2026-09-06 05:31:55, 2026-09-06 05:46:39, 2026-09-06 06:02:15, 2026-09-06 06:17:34, 2026-09-06 06:31:47, 2026-09-06 06:46:41, 2026-09-06 07:01:54, 2026-09-06 07:14:13, 2026-09-06 07:31:55, 2026-09-06 07:47:09, 2026-09-06 08:01:57, 2026-09-06 08:17:04", "cumulative_total": 38.0 }, "geometry": { "type": "Polygon", "coordinates": [ [ [ -73.875762244271073, 45.769791449100545 ], [ -73.882139749086676, 45.77245232299029 ], [ -73.882035923893156, 45.777647889115684 ], [ -73.875553400130343, 45.780182558608978 ], [ -73.869175341357519, 45.777521315228633 ], [ -73.869280360295065, 45.772325771910772 ], [ -73.875762244271073, 45.769791449100545 ] ] ] } },
{ "type": "Feature", "properties": { "hex_id": 576980, "centroid_lon": -73.537547203150609, "centroid_lat": 45.669824348190332, "occurrences_today": 2, "datetimes_today": "2026-09-06 07:47:09, 2026-09-06 08:01:57", "cumulative_total": 176.0 }, "geometry": { "type": "Polygon", "coordinates": [ [ [ -73.537682505390165, 45.66462938817434 ], [ -73.544031660228939, 45.667308843062287 ], [ -73.543896932741063, 45.672503815320184 ], [ -73.537411863888209, 45.675019303148822 ], [ -73.531062171326838, 45.672339476925693 ], [ -73.531198085328441, 45.66714453427398 ], [ -73.537682505390165, 45.66462938817434 ] ] ] } },
{ "type": "Feature", "properties": { "hex_id": 577591, "centroid_lon": -73.530926220133964, "centroid_lat": 45.677534414517147, "occurrences_today": 2, "datetimes_today": "2026-09-06 07:47:09, 2026-09-06 08:01:57", "cumulative_total": 27.0 }, "geometry": { "type": "Polygon", "coordinates": [ [ [ -73.531062171326838, 45.672339476925693 ], [ -73.537411863888209, 45.675019303148822 ], [ -73.537276487590503, 45.680214253049726 ], [ -73.530790231737285, 45.682729347048237 ], [ -73.524440001490802, 45.680049149329875 ], [ -73.524576564770101, 45.6748542291731 ], [ -73.531062171326838, 45.672339476925693 ] ] ] } },
{ "type": "Feature", "properties": { "hex_id": 577592, "centroid_lon": -73.530518143282379, "centroid_lat": 45.693119196929047, "occurrences_today": 2, "datetimes_today": "2026-09-06 07:47:09, 2026-09-06 08:01:57", "cumulative_total": 81.0 }, "geometry": { "type": "Polygon", "coordinates": [ [ [ -73.530654206124282, 45.687924274518906 ], [ -73.537005623839235, 45.690604137678427 ], [ -73.536870136360662, 45.695799072406054 ], [ -73.53038204319904, 45.698314114278567 ], [ -73.524030087368473, 45.695633879421074 ], [ -73.524166762802594, 45.690438974453954 ], [ -73.530654206124282, 45.687924274518906 ] ] ] } },
{ "type": "Feature", "properties": { "hex_id": 578201, "centroid_lon": -73.524713090689659, "centroid_lat": 45.669659303953281, "occurrences_today": 2, "datetimes_today": "2026-09-06 07:47:09, 2026-09-06 08:01:57", "cumulative_total": 174.0 }, "geometry": { "type": "Polygon", "coordinates": [ [ [ -73.524849579262039, 45.664464373670505 ], [ -73.531198085328441, 45.66714453427398 ], [ -73.531062171326838, 45.672339476925693 ], [ -73.524576564770101, 45.6748542291731 ], [ -73.518227521486367, 45.672173697116982 ], [ -73.518364621964125, 45.666978784330958 ], [ -73.524849579262039, 45.664464373670505 ] ] ] } },
{ "type": "Feature", "properties": { "hex_id": 578202, "centroid_lon": -73.524303400839173, "centroid_lat": 45.685244064423529, "occurrences_today": 2, "datetimes_today": "2026-09-06 07:47:09, 2026-09-06 08:01:57", "cumulative_total": 21.0 }, "geometry": { "type": "Polygon", "coordinates": [ [ [ -73.524440001490802, 45.680049149329875 ], [ -73.530790231737285, 45.682729347048237 ], [ -73.530654206124282, 45.687924274518906 ], [ -73.524166762802594, 45.690438974453954 ], [ -73.51781599490873, 45.68775840508026 ], [ -73.517953207971331, 45.682563507491729 ], [ -73.524440001490802, 45.680049149329875 ] ] ] } },
{ "type": "Feature", "properties": { "hex_id": 578812, "centroid_lon": -73.518090383493004, "centroid_lat": 45.677368604837277, "occurrences_today": 2, "datetimes_today": "2026-09-06 07:47:09, 2026-09-06 08:01:57", "cumulative_total": 21.0 }, "geometry": { "type": "Polygon", "coordinates": [ [ [ -73.518227521486367, 45.672173697116982 ], [ -73.524576564770101, 45.6748542291731 ], [ -73.524440001490802, 45.680049149329875 ], [ -73.517953207971331, 45.682563507491729 ], [ -73.511603627508123, 45.679882603822946 ], [ -73.511741377731227, 45.674687713669854 ], [ -73.518227521486367, 45.672173697116982 ] ] ] } },
{ "type": "Feature", "properties": { "hex_id": 578813, "centroid_lon": -73.517678744292553, "centroid_lat": 45.692953297602777, "occurrences_today": 2, "datetimes_today": "2026-09-06 07:47:09, 2026-09-06 08:01:57", "cumulative_total": 71.0 }, "geometry": { "type": "Polygon", "coordinates": [ [ [ -73.51781599490873, 45.68775840508026 ], [ -73.524166762802594, 45.690438974453954 ], [ -73.524030087368473, 45.695633879421074 ], [ -73.517541456110109, 45.698148185059175 ], [ -73.511190150606765, 45.69546724387002 ], [ -73.511328013958604, 45.690272368923118 ], [ -73.51781599490873, 45.68775840508026 ] ] ] } },
{ "type": "Feature", "properties": { "hex_id": 579423, "centroid_lon": -73.511465839588155, "centroid_lat": 45.685077488907396, "occurrences_today": 2, "datetimes_today": "2026-09-06 07:47:09, 2026-09-06 08:01:57", "cumulative_total": 22.0 }, "geometry": { "type": "Polygon", "coordinates": [ [ [ -73.511603627508123, 45.679882603822946 ], [ -73.517953207971331, 45.682563507491729 ], [ -73.51781599490873, 45.68775840508026 ], [ -73.511328013958604, 45.690272368923118 ], [ -73.50497789635395, 45.687591093481586 ], [ -73.505116296828163, 45.682396226034832 ], [ -73.511603627508123, 45.679882603822946 ] ] ] } },
{ "type": "Feature", "properties": { "hex_id": 579424, "centroid_lon": -73.511052249519921, "centroid_lat": 45.700662113747995, "occurrences_today": 2, "datetimes_today": "2026-09-06 07:47:09, 2026-09-06 08:01:57", "cumulative_total": 73.0 }, "geometry": { "type": "Polygon", "coordinates": [ [ [ -73.511190150606765, 45.69546724387002 ], [ -73.517541456110109, 45.698148185059175 ], [ -73.517404130348751, 45.703343067449389 ], [ -73.510914310685337, 45.705856978556987 ], [ -73.504562467610597, 45.703175665392209 ], [ -73.504700981757949, 45.69798081316037 ], [ -73.511190150606765, 45.69546724387002 ] ] ] } },
{ "type": "Feature", "properties": { "hex_id": 580033, "centroid_lon": -73.505254659436858, "centroid_lat": 45.677201353516629, "occurrences_today": 2, "datetimes_today": "2026-09-06 07:47:09, 2026-09-06 08:01:57", "cumulative_total": 217.0 }, "geometry": { "type": "Polygon", "coordinates": [ [ [ -73.505392984192838, 45.672006475927034 ], [ -73.511741377731227, 45.674687713669854 ], [ -73.511603627508123, 45.679882603822946 ], [ -73.505116296828163, 45.682396226034832 ], [ -73.498767366616036, 45.679714616562038 ], [ -73.498906303744832, 45.674519756672197 ], [ -73.505392984192838, 45.672006475927034 ] ] ] } },
{ "type": "Feature", "properties": { "hex_id": 580034, "centroid_lon": -73.50483945800147, "centroid_lat": 45.692785955856806, "occurrences_today": 2, "datetimes_today": "2026-09-06 07:47:09, 2026-09-06 08:01:57", "cumulative_total": 82.0 }, "geometry": { "type": "Polygon", "coordinates": [ [ [ -73.50497789635395, 45.687591093481586 ], [ -73.511328013958604, 45.690272368923118 ], [ -73.511190150606765, 45.69546724387002 ], [ -73.504700981757949, 45.69798081316037 ], [ -73.49835032705009, 45.695299165786032 ], [ -73.498489378281477, 45.690104321119044 ], [ -73.50497789635395, 45.687591093481586 ] ] ] } },
{ "type": "Feature", "properties": { "hex_id": 580644, "centroid_lon": -73.498628391465857, "centroid_lat": 45.684909471377679, "occurrences_today": 2, "datetimes_today": "2026-09-06 07:47:09, 2026-09-06 08:01:57", "cumulative_total": 239.0 }, "geometry": { "type": "Polygon", "coordinates": [ [ [ -73.498767366616036, 45.679714616562038 ], [ -73.505116296828163, 45.682396226034832 ], [ -73.50497789635395, 45.687591093481586 ], [ -73.498489378281477, 45.690104321119044 ], [ -73.492139911433981, 45.687422339756225 ], [ -73.492279499281508, 45.682227502710852 ], [ -73.498767366616036, 45.679714616562038 ] ] ] } },
{ "type": "Feature", "properties": { "hex_id": 580645, "centroid_lon": -73.498211237758838, "centroid_lat": 45.70049400537853, "occurrences_today": 2, "datetimes_today": "2026-09-06 07:47:09, 2026-09-06 08:01:57", "cumulative_total": 40.0 }, "geometry": { "type": "Polygon", "coordinates": [ [ [ -73.49835032705009, 45.695299165786032 ], [ -73.504700981757949, 45.69798081316037 ], [ -73.504562467610597, 45.703175665392209 ], [ -73.498072110394915, 45.705688839896467 ], [ -73.491720918622264, 45.70300682042916 ], [ -73.49186062111724, 45.697811998615471 ], [ -73.49835032705009, 45.695299165786032 ] ] ] } },
{ "type": "Feature", "properties": { "hex_id": 581255, "centroid_lon": -73.492000285383511, "centroid_lat": 45.692617171724471, "occurrences_today": 2, "datetimes_today": "2026-09-06 07:47:09, 2026-09-06 08:01:57", "cumulative_total": 393.0 }, "geometry": { "type": "Polygon", "coordinates": [ [ [ -73.492139911433981, 45.687422339756225 ], [ -73.498489378281477, 45.690104321119044 ], [ -73.49835032705009, 45.695299165786032 ], [ -73.49186062111724, 45.697811998615471 ], [ -73.485510617672944, 45.695129645202563 ], [ -73.485650856745394, 45.689934831075199 ], [ -73.492139911433981, 45.687422339756225 ] ] ] } },
{ "type": "Feature", "properties": { "hex_id": 581866, "centroid_lon": -73.485370340215809, "centroid_lat": 45.700324454249845, "occurrences_today": 2, "datetimes_today": "2026-09-06 07:47:09, 2026-09-06 08:01:57", "cumulative_total": 154.0 }, "geometry": { "type": "Polygon", "coordinates": [ [ [ -73.485510617672944, 45.695129645202563 ], [ -73.49186062111724, 45.697811998615471 ], [ -73.491720918622264, 45.70300682042916 ], [ -73.485230024361073, 45.705519258216952 ], [ -73.478879484358728, 45.702836532593849 ], [ -73.479020375162648, 45.69764174145805 ], [ -73.485510617672944, 45.695129645202563 ] ] ] } },
{ "type": "Feature", "properties": { "hex_id": 582476, "centroid_lon": -73.479161227413016, "centroid_lat": 45.692446945239311, "occurrences_today": 2, "datetimes_today": "2026-09-06 07:47:09, 2026-09-06 08:01:57", "cumulative_total": 172.0 }, "geometry": { "type": "Polygon", "coordinates": [ [ [ -73.479302041122807, 45.687252143937698 ], [ -73.485650856745394, 45.689934831075199 ], [ -73.485510617672944, 45.695129645202563 ], [ -73.479020375162648, 45.69764174145805 ], [ -73.472671023449792, 45.694958682153327 ], [ -73.472812450324497, 45.689763898825255 ], [ -73.479302041122807, 45.687252143937698 ] ] ] } },
{ "type": "Feature", "properties": { "hex_id": 579421, "centroid_lon": -73.512292001908946, "centroid_lat": 45.653908102372931, "occurrences_today": 2, "datetimes_today": "2026-09-06 07:47:09, 2026-09-06 08:01:57", "cumulative_total": 387.0 }, "geometry": { "type": "Polygon", "coordinates": [ [ [ -73.512429563838126, 45.64871318687802 ], [ -73.51877569842992, 45.651394015579307 ], [ -73.518638710423261, 45.656588943562021 ], [ -73.51215440234634, 45.659103012799655 ], [ -73.505807731471762, 45.656421812731026 ], [ -73.505945904944227, 45.651226914856906 ], [ -73.512429563838126, 45.64871318687802 ] ] ] } },
{ "type": "Feature", "properties": { "hex_id": 580032, "centroid_lon": -73.505669520197529, "centroid_lat": 45.661616705534136, "occurrences_today": 2, "datetimes_today": "2026-09-06 07:47:09, 2026-09-06 08:01:57", "cumulative_total": 193.0 }, "geometry": { "type": "Polygon", "coordinates": [ [ [ -73.505807731471762, 45.656421812731026 ], [ -73.51215440234634, 45.659103012799655 ], [ -73.512016765137645, 45.66429791815812 ], [ -73.505531271108794, 45.666811593266182 ], [ -73.49918406398956, 45.664130021670296 ], [ -73.499322887131086, 45.65893514655842 ], [ -73.505807731471762, 45.656421812731026 ] ] ] } },
{ "type": "Feature", "properties": { "hex_id": 580642, "centroid_lon": -73.499461672302445, "centroid_lat": 45.653740266372743, "occurrences_today": 2, "datetimes_today": "2026-09-06 07:47:09, 2026-09-06 08:01:57", "cumulative_total": 280.0 }, "geometry": { "type": "Polygon", "coordinates": [ [ [ -73.499600419516426, 45.648545381113323 ], [ -73.505945904944227, 45.651226914856906 ], [ -73.505807731471762, 45.656421812731026 ], [ -73.499322887131086, 45.65893514655842 ], [ -73.492976865925542, 45.656253241330326 ], [ -73.493116224825627, 45.651058373824149 ], [ -73.499600419516426, 45.648545381113323 ] ] ] } },
{ "type": "Feature", "properties": { "hex_id": 576981, "centroid_lon": -73.537141074245014, "centroid_lat": 45.685409197892959, "occurrences_today": 2, "datetimes_today": "2026-09-06 07:47:09, 2026-09-06 08:01:57", "cumulative_total": 45.0 }, "geometry": { "type": "Polygon", "coordinates": [ [ [ -73.537276487590503, 45.680214253049726 ], [ -73.543627367152268, 45.682893744671404 ], [ -73.543492529026494, 45.688088701764556 ], [ -73.537005623839235, 45.690604137678427 ], [ -73.530654206124282, 45.687924274518906 ], [ -73.530790231737285, 45.682729347048237 ], [ -73.537276487590503, 45.680214253049726 ] ] ] } },
{ "type": "Feature", "properties": { "hex_id": 761431, "centroid_lon": -71.523545372745318, "centroid_lat": 46.873427443731224, "occurrences_today": 2, "datetimes_today": "2026-09-06 00:01:39, 2026-09-06 00:16:40", "cumulative_total": 171.0 }, "geometry": { "type": "Polygon", "coordinates": [ [ [ -71.523880627923376, 46.8682414611729 ], [ -71.530261896174679, 46.871033380731241 ], [ -71.529927223058465, 46.876219395858939 ], [ -71.523210024541271, 46.878613419728346 ], [ -71.516828267270228, 46.875821095169016 ], [ -71.517164197503831, 46.870635151808237 ], [ -71.523880627923376, 46.8682414611729 ] ] ] } },
{ "type": "Feature", "properties": { "hex_id": 566632, "centroid_lon": -73.635037698805021, "centroid_lat": 46.146508812850037, "occurrences_today": 17, "datetimes_today": "2026-09-06 00:01:39, 2026-09-06 00:16:40, 2026-09-06 00:32:07, 2026-09-06 00:46:46, 2026-09-06 01:02:34, 2026-09-06 01:16:42, 2026-09-06 01:31:40, 2026-09-06 01:47:24, 2026-09-06 02:01:40, 2026-09-06 02:16:40, 2026-09-06 02:30:11, 2026-09-06 02:47:18, 2026-09-06 03:02:29, 2026-09-06 03:17:00, 2026-09-06 03:32:06, 2026-09-06 03:46:39, 2026-09-06 04:02:42", "cumulative_total": 256.0 }, "geometry": { "type": "Polygon", "coordinates": [ [ [ -73.635166099527524, 46.141314069554674 ], [ -73.641574134359146, 46.14398855157522 ], [ -73.641446324456979, 46.149183306261996 ], [ -73.634909262737182, 46.151703551126239 ], [ -73.628500672436601, 46.149028692555497 ], [ -73.628629699312711, 46.14383396573669 ], [ -73.635166099527524, 46.141314069554674 ] ] ] } },
{ "type": "Feature", "properties": { "hex_id": 516503, "centroid_lon": -74.181435773739253, "centroid_lat": 45.091599536317304, "occurrences_today": 2, "datetimes_today": "2026-09-06 08:01:57, 2026-09-06 08:17:04", "cumulative_total": 86.0 }, "geometry": { "type": "Polygon", "coordinates": [ [ [ -74.181509999827384, 45.086402883840691 ], [ -74.187826037922747, 45.089046569801134 ], [ -74.187752377790289, 45.094243228028873 ], [ -74.18136152747536, 45.096796183949074 ], [ -74.175044943603439, 45.094152140010628 ], [ -74.175119755816311, 45.088955498193634 ], [ -74.181509999827384, 45.086402883840691 ] ] ] } },
{ "type": "Feature", "properties": { "hex_id": 565983, "centroid_lon": -73.656040676896865, "centroid_lat": 45.546558318714844, "occurrences_today": 34, "datetimes_today": "2026-09-06 00:01:39, 2026-09-06 00:16:40, 2026-09-06 00:32:07, 2026-09-06 00:46:46, 2026-09-06 01:02:34, 2026-09-06 01:16:42, 2026-09-06 01:31:40, 2026-09-06 01:47:24, 2026-09-06 02:01:40, 2026-09-06 02:16:40, 2026-09-06 02:30:11, 2026-09-06 02:47:18, 2026-09-06 03:02:29, 2026-09-06 03:17:00, 2026-09-06 03:32:06, 2026-09-06 03:46:39, 2026-09-06 04:02:42, 2026-09-06 04:16:47, 2026-09-06 04:32:06, 2026-09-06 04:46:56, 2026-09-06 05:02:17, 2026-09-06 05:17:05, 2026-09-06 05:31:55, 2026-09-06 05:46:39, 2026-09-06 06:02:15, 2026-09-06 06:17:34, 2026-09-06 06:31:47, 2026-09-06 06:46:41, 2026-09-06 07:01:54, 2026-09-06 07:14:13, 2026-09-06 07:31:55, 2026-09-06 07:47:09, 2026-09-06 08:01:57, 2026-09-06 08:17:04", "cumulative_total": 255.0 }, "geometry": { "type": "Polygon", "coordinates": [ [ [ -73.656164485456443, 45.541362982546694 ], [ -73.662505672051466, 45.544035813838079 ], [ -73.662382436123607, 45.54923116104483 ], [ -73.65591683450846, 45.551753649874186 ], [ -73.649575109116242, 45.549080449922414 ], [ -73.649699524124998, 45.543885129866283 ], [ -73.656164485456443, 45.541362982546694 ] ] ] } },
{ "type": "Feature", "properties": { "hex_id": 725969, "centroid_lon": -71.949990615000729, "centroid_lat": 46.059386153167637, "occurrences_today": 2, "datetimes_today": "2026-09-06 08:01:57, 2026-09-06 08:17:04", "cumulative_total": 45.0 }, "geometry": { "type": "Polygon", "coordinates": [ [ [ -71.950276548687214, 46.05419722520169 ], [ -71.9565883202159, 46.056963904349196 ], [ -71.956302950216838, 46.062152860267922 ], [ -71.949704602780386, 46.064575075023775 ], [ -71.943392346111494, 46.061808005365805 ], [ -71.943678921992557, 46.05661911152766 ], [ -71.950276548687214, 46.05419722520169 ] ] ] } },
{ "type": "Feature", "properties": { "hex_id": 578200, "centroid_lon": -73.525122444415672, "centroid_lat": 45.654074497916461, "occurrences_today": 2, "datetimes_today": "2026-09-06 07:47:09, 2026-09-06 08:01:57", "cumulative_total": 117.0 }, "geometry": { "type": "Polygon", "coordinates": [ [ [ -73.525258821022049, 45.648879552445365 ], [ -73.531605604310954, 45.651559675958133 ], [ -73.531469801807972, 45.656754633790101 ], [ -73.524986030499861, 45.659269438324856 ], [ -73.518638710423261, 45.656588943562021 ], [ -73.51877569842992, 45.651394015579307 ], [ -73.525258821022049, 45.648879552445365 ] ] ] } },
{ "type": "Feature", "properties": { "hex_id": 578810, "centroid_lon": -73.518912648971465, "centroid_lat": 45.646199082531211, "occurrences_today": 2, "datetimes_today": "2026-09-06 07:47:09, 2026-09-06 08:01:57", "cumulative_total": 101.0 }, "geometry": { "type": "Polygon", "coordinates": [ [ [ -73.519049562060502, 45.641004144417828 ], [ -73.525395160331556, 45.643684601911673 ], [ -73.525258821022049, 45.648879552445365 ], [ -73.51877569842992, 45.651394015579307 ], [ -73.512429563838126, 45.64871318687802 ], [ -73.512567088146582, 45.643518266315013 ], [ -73.519049562060502, 45.641004144417828 ] ] ] } },
{ "type": "Feature", "properties": { "hex_id": 578811, "centroid_lon": -73.518501684938883, "centroid_lat": 45.661783866479261, "occurrences_today": 2, "datetimes_today": "2026-09-06 07:47:09, 2026-09-06 08:01:57", "cumulative_total": 99.0 }, "geometry": { "type": "Polygon", "coordinates": [ [ [ -73.518638710423261, 45.656588943562021 ], [ -73.524986030499861, 45.659269438324856 ], [ -73.524849579262039, 45.664464373670505 ], [ -73.518364621964125, 45.666978784330958 ], [ -73.512016765137645, 45.66429791815812 ], [ -73.51215440234634, 45.659103012799655 ], [ -73.518638710423261, 45.656588943562021 ] ] ] } },
{ "type": "Feature", "properties": { "hex_id": 575138, "centroid_lon": -73.560987056609477, "centroid_lat": 45.5064241568654, "occurrences_today": 8, "datetimes_today": "2026-09-06 03:32:06, 2026-09-06 03:46:39, 2026-09-06 04:02:42, 2026-09-06 04:16:47, 2026-09-06 04:32:06, 2026-09-06 04:46:56, 2026-09-06 05:02:17, 2026-09-06 05:17:05", "cumulative_total": 297.0 }, "geometry": { "type": "Polygon", "coordinates": [ [ [ -73.561119434656476, 45.501228993724077 ], [ -73.567451528145881, 45.503907011489844 ], [ -73.567319720232248, 45.509102186600096 ], [ -73.560854642411101, 45.511619314960058 ], [ -73.554522014945761, 45.508940928155255 ], [ -73.554654999265367, 45.503745782094022 ], [ -73.561119434656476, 45.501228993724077 ] ] ] } },
{ "type": "Feature", "properties": { "hex_id": 557429, "centroid_lon": -73.748110317230925, "centroid_lat": 45.438471071349227, "occurrences_today": 7, "datetimes_today": "2026-09-06 06:46:41, 2026-09-06 07:01:54, 2026-09-06 07:14:13, 2026-09-06 07:31:55, 2026-09-06 07:47:09, 2026-09-06 08:01:57, 2026-09-06 08:17:04", "cumulative_total": 155.0 }, "geometry": { "type": "Polygon", "coordinates": [ [ [ -73.748225211895317, 45.433275447010622 ], [ -73.75455885184428, 45.435943133797061 ], [ -73.754444527795073, 45.44113876823868 ], [ -73.747995391212896, 45.443666690713904 ], [ -73.741661212007628, 45.440998637498197 ], [ -73.74177670863034, 45.43580302830091 ], [ -73.748225211895317, 45.433275447010622 ] ] ] } },
{ "type": "Feature", "properties": { "hex_id": 581852, "centroid_lon": -73.491229092079834, "centroid_lat": 45.482138101419537, "occurrences_today": 22, "datetimes_today": "2026-09-06 00:01:39, 2026-09-06 00:16:40, 2026-09-06 00:32:07, 2026-09-06 00:46:46, 2026-09-06 01:02:34, 2026-09-06 01:16:42, 2026-09-06 01:31:40, 2026-09-06 01:47:24, 2026-09-06 02:01:40, 2026-09-06 02:16:40, 2026-09-06 02:30:11, 2026-09-06 02:47:18, 2026-09-06 03:02:29, 2026-09-06 03:17:00, 2026-09-06 03:32:06, 2026-09-06 03:46:39, 2026-09-06 04:02:42, 2026-09-06 04:16:47, 2026-09-06 04:32:06, 2026-09-06 04:46:56, 2026-09-06 05:02:17, 2026-09-06 05:17:05", "cumulative_total": 238.0 }, "geometry": { "type": "Polygon", "coordinates": [ [ [ -73.491367768451909, 45.476943079092166 ], [ -73.497693763686229, 45.479624898798058 ], [ -73.497555655770043, 45.484819933776706 ], [ -73.491090377848636, 45.48733311867084 ], [ -73.484763852023903, 45.484650929586017 ], [ -73.484903134698314, 45.479455925050424 ], [ -73.491367768451909, 45.476943079092166 ] ] ] } },
{ "type": "Feature", "properties": { "hex_id": 581853, "centroid_lon": -73.490812835758007, "centroid_lat": 45.497723137944774, "occurrences_today": 16, "datetimes_today": "2026-09-06 00:01:39, 2026-09-06 00:16:40, 2026-09-06 00:32:07, 2026-09-06 00:46:46, 2026-09-06 01:02:34, 2026-09-06 01:16:42, 2026-09-06 01:31:40, 2026-09-06 01:47:24, 2026-09-06 02:01:40, 2026-09-06 02:16:40, 2026-09-06 02:30:11, 2026-09-06 02:47:18, 2026-09-06 03:02:29, 2026-09-06 03:17:00, 2026-09-06 03:32:06, 2026-09-06 03:46:39", "cumulative_total": 202.0 }, "geometry": { "type": "Polygon", "coordinates": [ [ [ -73.490951625745595, 45.492528130845947 ], [ -73.497279326809192, 45.495209988513835 ], [ -73.497141105739246, 45.500405008272097 ], [ -73.490674007873167, 45.502918139967221 ], [ -73.484345775795518, 45.500235912718949 ], [ -73.484485172585281, 45.49504092342039 ], [ -73.490951625745595, 45.492528130845947 ] ] ] } },
{ "type": "Feature", "properties": { "hex_id": 594679, "centroid_lon": -73.353974864196374, "centroid_lat": 45.581580191497345, "occurrences_today": 5, "datetimes_today": "2026-09-06 00:01:39, 2026-09-06 00:16:40, 2026-09-06 00:32:07, 2026-09-06 00:46:46, 2026-09-06 01:02:34", "cumulative_total": 203.0 }, "geometry": { "type": "Polygon", "coordinates": [ [ [ -73.3541266780163, 45.576385603190722 ], [ -73.360456962438903, 45.579075044687677 ], [ -73.360305718181806, 45.584269647025934 ], [ -73.353823008883751, 45.586774774664654 ], [ -73.347492196398022, 45.584084961257531 ], [ -73.347644621259533, 45.578890392186473 ], [ -73.3541266780163, 45.576385603190722 ] ] ] } },
{ "type": "Feature", "properties": { "hex_id": 553150, "centroid_lon": -73.794674632987324, "centroid_lat": 45.35322285763403, "occurrences_today": 6, "datetimes_today": "2026-09-06 07:01:54, 2026-09-06 07:14:13, 2026-09-06 07:31:55, 2026-09-06 07:47:09, 2026-09-06 08:01:57, 2026-09-06 08:17:04", "cumulative_total": 54.0 }, "geometry": { "type": "Polygon", "coordinates": [ [ [ -73.794784926602844, 45.348027064724931 ], [ -73.801111376491235, 45.3506921331822 ], [ -73.80100165155666, 45.355887935715607 ], [ -73.79456430930378, 45.358418645585949 ], [ -73.788237320807482, 45.355753212211106 ], [ -73.788348213161925, 45.350557433947685 ], [ -73.794784926602844, 45.348027064724931 ] ] ] } },
{ "type": "Feature", "properties": { "hex_id": 432934, "centroid_lon": -75.052958135631442, "centroid_lat": 46.178029339209495, "occurrences_today": 2, "datetimes_today": "2026-09-06 08:01:57, 2026-09-06 08:17:04", "cumulative_total": 324.0 }, "geometry": { "type": "Polygon", "coordinates": [ [ [ -75.052953147961361, 46.172833150307362 ], [ -75.059433393405499, 46.175428061144736 ], [ -75.05943899195799, 46.180624247100162 ], [ -75.052963124675443, 46.183225523366644 ], [ -75.046482266974735, 46.180630249540833 ], [ -75.046477888813612, 46.175434062503172 ], [ -75.052953147961361, 46.172833150307362 ] ] ] } },
{ "type": "Feature", "properties": { "hex_id": 570908, "centroid_lon": -73.588734593341343, "centroid_lat": 46.184918408087903, "occurrences_today": 34, "datetimes_today": "2026-09-06 00:01:39, 2026-09-06 00:16:40, 2026-09-06 00:32:07, 2026-09-06 00:46:46, 2026-09-06 01:02:34, 2026-09-06 01:16:42, 2026-09-06 01:31:40, 2026-09-06 01:47:24, 2026-09-06 02:01:40, 2026-09-06 02:16:40, 2026-09-06 02:30:11, 2026-09-06 02:47:18, 2026-09-06 03:02:29, 2026-09-06 03:17:00, 2026-09-06 03:32:06, 2026-09-06 03:46:39, 2026-09-06 04:02:42, 2026-09-06 04:16:47, 2026-09-06 04:32:06, 2026-09-06 04:46:56, 2026-09-06 05:02:17, 2026-09-06 05:17:05, 2026-09-06 05:31:55, 2026-09-06 05:46:39, 2026-09-06 06:02:15, 2026-09-06 06:17:34, 2026-09-06 06:31:47, 2026-09-06 06:46:41, 2026-09-06 07:01:54, 2026-09-06 07:14:13, 2026-09-06 07:31:55, 2026-09-06 07:47:09, 2026-09-06 08:01:57, 2026-09-06 08:17:04", "cumulative_total": 184.0 }, "geometry": { "type": "Polygon", "coordinates": [ [ [ -73.588867526842023, 46.179723801722112 ], [ -73.59527767456224, 46.182400887418403 ], [ -73.595145332441732, 46.187595505648247 ], [ -73.58860162323036, 46.190113009415533 ], [ -73.582190920746541, 46.187435546233516 ], [ -73.582324482225175, 46.182240956836004 ], [ -73.588867526842023, 46.179723801722112 ] ] ] } },
{ "type": "Feature", "properties": { "hex_id": 552551, "centroid_lon": -73.797253139252973, "centroid_lat": 45.532542273250669, "occurrences_today": 7, "datetimes_today": "2026-09-06 00:01:39, 2026-09-06 00:16:40, 2026-09-06 00:32:07, 2026-09-06 00:46:46, 2026-09-06 01:02:34, 2026-09-06 01:16:42, 2026-09-06 01:31:40", "cumulative_total": 589.0 }, "geometry": { "type": "Polygon", "coordinates": [ [ [ -73.797363886902062, 45.527346639219381 ], [ -73.803710362848776, 45.530011688368795 ], [ -73.803600189311723, 45.535207332036187 ], [ -73.797142361347213, 45.537737902325077 ], [ -73.790795341550222, 45.535072486020844 ], [ -73.790906693557872, 45.529876866647157 ], [ -73.797363886902062, 45.527346639219381 ] ] ] } },
{ "type": "Feature", "properties": { "hex_id": 564762, "centroid_lon": -73.668847464946097, "centroid_lat": 45.546708298574266, "occurrences_today": 34, "datetimes_today": "2026-09-06 00:01:39, 2026-09-06 00:16:40, 2026-09-06 00:32:07, 2026-09-06 00:46:46, 2026-09-06 01:02:34, 2026-09-06 01:16:42, 2026-09-06 01:31:40, 2026-09-06 01:47:24, 2026-09-06 02:01:40, 2026-09-06 02:16:40, 2026-09-06 02:30:11, 2026-09-06 02:47:18, 2026-09-06 03:02:29, 2026-09-06 03:17:00, 2026-09-06 03:32:06, 2026-09-06 03:46:39, 2026-09-06 04:02:42, 2026-09-06 04:16:47, 2026-09-06 04:32:06, 2026-09-06 04:46:56, 2026-09-06 05:02:17, 2026-09-06 05:17:05, 2026-09-06 05:31:55, 2026-09-06 05:46:39, 2026-09-06 06:02:15, 2026-09-06 06:17:34, 2026-09-06 06:31:47, 2026-09-06 06:46:41, 2026-09-06 07:01:54, 2026-09-06 07:14:13, 2026-09-06 07:31:55, 2026-09-06 07:47:09, 2026-09-06 08:01:57, 2026-09-06 08:17:04", "cumulative_total": 245.0 }, "geometry": { "type": "Polygon", "coordinates": [ [ [ -73.668970094568692, 45.541512935387196 ], [ -73.675311920964646, 45.544185062557546 ], [ -73.675189864151619, 45.549380436656485 ], [ -73.668724801816566, 45.551903656757482 ], [ -73.662382436123607, 45.54923116104483 ], [ -73.662505672051466, 45.544035813838079 ], [ -73.668970094568692, 45.541512935387196 ] ] ] } },
{ "type": "Feature", "properties": { "hex_id": 548902, "centroid_lon": -73.831136818258955, "centroid_lat": 45.751155494005452, "occurrences_today": 22, "datetimes_today": "2026-09-06 03:02:29, 2026-09-06 03:17:00, 2026-09-06 03:32:06, 2026-09-06 03:46:39, 2026-09-06 04:02:42, 2026-09-06 04:16:47, 2026-09-06 04:32:06, 2026-09-06 04:46:56, 2026-09-06 05:02:17, 2026-09-06 05:17:05, 2026-09-06 05:31:55, 2026-09-06 05:46:39, 2026-09-06 06:02:15, 2026-09-06 06:17:34, 2026-09-06 06:31:47, 2026-09-06 06:46:41, 2026-09-06 07:01:54, 2026-09-06 07:14:13, 2026-09-06 07:31:55, 2026-09-06 07:47:09, 2026-09-06 08:01:57, 2026-09-06 08:17:04", "cumulative_total": 125.0 }, "geometry": { "type": "Polygon", "coordinates": [ [ [ -73.83124526960826, 45.745959995944702 ], [ -73.837617916332306, 45.748623319261299 ], [ -73.837510046219052, 45.753818826666716 ], [ -73.83102833720092, 45.756350987120406 ], [ -73.824655138954554, 45.753687294193604 ], [ -73.824764201238608, 45.748491810488389 ], [ -73.83124526960826, 45.745959995944702 ] ] ] } },
{ "type": "Feature", "properties": { "hex_id": 549512, "centroid_lon": -73.824873233655808, "centroid_lat": 45.74329632183521, "occurrences_today": 22, "datetimes_today": "2026-09-06 03:02:29, 2026-09-06 03:17:00, 2026-09-06 03:32:06, 2026-09-06 03:46:39, 2026-09-06 04:02:42, 2026-09-06 04:16:47, 2026-09-06 04:32:06, 2026-09-06 04:46:56, 2026-09-06 05:02:17, 2026-09-06 05:17:05, 2026-09-06 05:31:55, 2026-09-06 05:46:39, 2026-09-06 06:02:15, 2026-09-06 06:17:34, 2026-09-06 06:31:47, 2026-09-06 06:46:41, 2026-09-06 07:01:54, 2026-09-06 07:14:13, 2026-09-06 07:31:55, 2026-09-06 07:47:09, 2026-09-06 08:01:57, 2026-09-06 08:17:04", "cumulative_total": 104.0 }, "geometry": { "type": "Polygon", "coordinates": [ [ [ -73.824982236216272, 45.73810082823411 ], [ -73.831353691258911, 45.740764492938176 ], [ -73.83124526960826, 45.745959995944702 ], [ -73.824764201238608, 45.748491810488389 ], [ -73.818392195147936, 45.745827776214817 ], [ -73.818501808464873, 45.74063229703215 ], [ -73.824982236216272, 45.73810082823411 ] ] ] } },
{ "type": "Feature", "properties": { "hex_id": 550123, "centroid_lon": -73.818282551806078, "centroid_lat": 45.751023250447332, "occurrences_today": 22, "datetimes_today": "2026-09-06 03:02:29, 2026-09-06 03:17:00, 2026-09-06 03:32:06, 2026-09-06 03:46:39, 2026-09-06 04:02:42, 2026-09-06 04:16:47, 2026-09-06 04:32:06, 2026-09-06 04:46:56, 2026-09-06 05:02:17, 2026-09-06 05:17:05, 2026-09-06 05:31:55, 2026-09-06 05:46:39, 2026-09-06 06:02:15, 2026-09-06 06:17:34, 2026-09-06 06:31:47, 2026-09-06 06:46:41, 2026-09-06 07:01:54, 2026-09-06 07:14:13, 2026-09-06 07:31:55, 2026-09-06 07:47:09, 2026-09-06 08:01:57, 2026-09-06 08:17:04", "cumulative_total": 132.0 }, "geometry": { "type": "Polygon", "coordinates": [ [ [ -73.818392195147936, 45.745827776214817 ], [ -73.824764201238608, 45.748491810488389 ], [ -73.824655138954554, 45.753687294193604 ], [ -73.818172878429181, 45.756218719729659 ], [ -73.811800321320817, 45.75355431572553 ], [ -73.811910575745387, 45.748358855980975 ], [ -73.818392195147936, 45.745827776214817 ] ] ] } },
{ "type": "Feature", "properties": { "hex_id": 581865, "centroid_lon": -73.485791057446136, "centroid_lat": 45.684740011867824, "occurrences_today": 2, "datetimes_today": "2026-09-06 07:47:09, 2026-09-06 08:01:57", "cumulative_total": 241.0 }, "geometry": { "type": "Polygon", "coordinates": [ [ [ -73.485931219788057, 45.679545187580572 ], [ -73.492279499281508, 45.682227502710852 ], [ -73.492139911433981, 45.687422339756225 ], [ -73.485650856745394, 45.689934831075199 ], [ -73.479302041122807, 45.687252143937698 ], [ -73.47944281630501, 45.682057337553331 ], [ -73.485931219788057, 45.679545187580572 ] ] ] } },
{ "type": "Feature", "properties": { "hex_id": 564764, "centroid_lon": -73.66811098317045, "centroid_lat": 45.577880372613087, "occurrences_today": 2, "datetimes_today": "2026-09-06 08:01:57, 2026-09-06 08:17:04", "cumulative_total": 66.0 }, "geometry": { "type": "Polygon", "coordinates": [ [ [ -73.668233814003699, 45.57268503945027 ], [ -73.674579079588369, 45.575357232127999 ], [ -73.674456822497561, 45.580552576217158 ], [ -73.667988118762636, 45.583075700771616 ], [ -73.661642313015747, 45.58040313914924 ], [ -73.661765751154718, 45.575207821981756 ], [ -73.668233814003699, 45.57268503945027 ] ] ] } },
{ "type": "Feature", "properties": { "hex_id": 579411, "centroid_lon": -73.516402546026328, "centroid_lat": 45.498058433285706, "occurrences_today": 16, "datetimes_today": "2026-09-06 00:01:39, 2026-09-06 00:16:40, 2026-09-06 00:32:07, 2026-09-06 00:46:46, 2026-09-06 01:02:34, 2026-09-06 01:16:42, 2026-09-06 01:31:40, 2026-09-06 01:47:24, 2026-09-06 02:01:40, 2026-09-06 02:16:40, 2026-09-06 02:30:11, 2026-09-06 02:47:18, 2026-09-06 03:02:29, 2026-09-06 03:17:00, 2026-09-06 03:32:06, 2026-09-06 03:46:39", "cumulative_total": 213.0 }, "geometry": { "type": "Polygon", "coordinates": [ [ [ -73.516538984819107, 45.4928633657888 ], [ -73.522867973870191, 45.495543821110431 ], [ -73.522732104353452, 45.500738901014358 ], [ -73.516266069977704, 45.503253495717246 ], [ -73.509936548912648, 45.500572671048289 ], [ -73.510073594224835, 45.495377621088231 ], [ -73.516538984819107, 45.4928633657888 ] ] ] } },
{ "type": "Feature", "properties": { "hex_id": 580632, "centroid_lon": -73.503607634527341, "centroid_lat": 45.497891501947556, "occurrences_today": 22, "datetimes_today": "2026-09-06 00:01:39, 2026-09-06 00:16:40, 2026-09-06 00:32:07, 2026-09-06 00:46:46, 2026-09-06 01:02:34, 2026-09-06 01:16:42, 2026-09-06 01:31:40, 2026-09-06 01:47:24, 2026-09-06 02:01:40, 2026-09-06 02:16:40, 2026-09-06 02:30:11, 2026-09-06 02:47:18, 2026-09-06 03:02:29, 2026-09-06 03:17:00, 2026-09-06 03:32:06, 2026-09-06 03:46:39, 2026-09-06 04:02:42, 2026-09-06 04:16:47, 2026-09-06 04:32:06, 2026-09-06 04:46:56, 2026-09-06 05:02:17, 2026-09-06 05:17:05", "cumulative_total": 271.0 }, "geometry": { "type": "Polygon", "coordinates": [ [ [ -73.50374524893644, 45.492696464520733 ], [ -73.510073594224835, 45.495377621088231 ], [ -73.509936548912648, 45.500572671048289 ], [ -73.503469982541702, 45.503086534303513 ], [ -73.497141105739246, 45.500405008272097 ], [ -73.497279326809192, 45.495209988513835 ], [ -73.50374524893644, 45.492696464520733 ] ] ] } },
{ "type": "Feature", "properties": { "hex_id": 524458, "centroid_lon": -74.094272403073404, "centroid_lat": 45.37937802122083, "occurrences_today": 6, "datetimes_today": "2026-09-06 00:01:39, 2026-09-06 00:16:40, 2026-09-06 00:32:07, 2026-09-06 00:46:46, 2026-09-06 01:02:34, 2026-09-06 01:16:42", "cumulative_total": 211.0 }, "geometry": { "type": "Polygon", "coordinates": [ [ [ -74.094355360142842, 45.374181750837181 ], [ -74.100699031904114, 45.376830341468228 ], [ -74.100616648262985, 45.382026618510409 ], [ -74.094189423379177, 45.384574286737823 ], [ -74.08784520081818, 45.381925333706377 ], [ -74.087928753933141, 45.376729074912213 ], [ -74.094355360142842, 45.374181750837181 ] ] ] } },
{ "type": "Feature", "properties": { "hex_id": 580631, "centroid_lon": -73.504020365075377, "centroid_lat": 45.482306374454943, "occurrences_today": 22, "datetimes_today": "2026-09-06 00:01:39, 2026-09-06 00:16:40, 2026-09-06 00:32:07, 2026-09-06 00:46:46, 2026-09-06 01:02:34, 2026-09-06 01:16:42, 2026-09-06 01:31:40, 2026-09-06 01:47:24, 2026-09-06 02:01:40, 2026-09-06 02:16:40, 2026-09-06 02:30:11, 2026-09-06 02:47:18, 2026-09-06 03:02:29, 2026-09-06 03:17:00, 2026-09-06 03:32:06, 2026-09-06 03:46:39, 2026-09-06 04:02:42, 2026-09-06 04:16:47, 2026-09-06 04:32:06, 2026-09-06 04:46:56, 2026-09-06 05:02:17, 2026-09-06 05:17:05", "cumulative_total": 291.0 }, "geometry": { "type": "Polygon", "coordinates": [ [ [ -73.504157866830411, 45.47711132181616 ], [ -73.510484505752018, 45.479792440800118 ], [ -73.510347572631972, 45.484987505964042 ], [ -73.503882825781588, 45.487501422023172 ], [ -73.497555655770043, 45.484819933776706 ], [ -73.497693763686229, 45.479624898798058 ], [ -73.504157866830411, 45.47711132181616 ] ] ] } },
{ "type": "Feature", "properties": { "hex_id": 760210, "centroid_lon": -71.536643839340314, "centroid_lat": 46.873824960448943, "occurrences_today": 2, "datetimes_today": "2026-09-06 00:01:39, 2026-09-06 00:16:40", "cumulative_total": 95.0 }, "geometry": { "type": "Polygon", "coordinates": [ [ [ -71.536977837526067, 46.868638906264799 ], [ -71.543359873354575, 46.871430113594087 ], [ -71.54302645745247, 46.876616200220141 ], [ -71.536309748475588, 46.879011008085541 ], [ -71.529927223058465, 46.876219395858939 ], [ -71.530261896174679, 46.871033380731241 ], [ -71.536977837526067, 46.868638906264799 ] ] ] } },
{ "type": "Feature", "properties": { "hex_id": 760820, "centroid_lon": -71.530596476454534, "centroid_lat": 46.865847359049496, "occurrences_today": 2, "datetimes_today": "2026-09-06 00:01:39, 2026-09-06 00:16:40", "cumulative_total": 151.0 }, "geometry": { "type": "Polygon", "coordinates": [ [ [ -71.53093096393026, 46.860661330814338 ], [ -71.537311743065047, 46.863452845533764 ], [ -71.536977837526067, 46.868638906264799 ], [ -71.530261896174679, 46.871033380731241 ], [ -71.523880627923376, 46.8682414611729 ], [ -71.524215790107775, 46.863055472054 ], [ -71.53093096393026, 46.860661330814338 ] ] ] } },
{ "type": "Feature", "properties": { "hex_id": 551330, "centroid_lon": -73.810057443003345, "centroid_lat": 45.532676389663983, "occurrences_today": 7, "datetimes_today": "2026-09-06 00:01:39, 2026-09-06 00:16:40, 2026-09-06 00:32:07, 2026-09-06 00:46:46, 2026-09-06 01:02:34, 2026-09-06 01:16:42, 2026-09-06 01:31:40", "cumulative_total": 477.0 }, "geometry": { "type": "Polygon", "coordinates": [ [ [ -73.810167012327454, 45.527480731470405 ], [ -73.816514122411945, 45.530145075303736 ], [ -73.816405127375859, 45.535340743006408 ], [ -73.809947843744268, 45.537872042905072 ], [ -73.803600189311723, 45.535207332036187 ], [ -73.803710362848776, 45.530011688368795 ], [ -73.810167012327454, 45.527480731470405 ] ] ] } },
{ "type": "Feature", "properties": { "hex_id": 551940, "centroid_lon": -73.80382050629504, "centroid_lat": 45.524816039746703, "occurrences_today": 7, "datetimes_today": "2026-09-06 00:01:39, 2026-09-06 00:16:40, 2026-09-06 00:32:07, 2026-09-06 00:46:46, 2026-09-06 01:02:34, 2026-09-06 01:16:42, 2026-09-06 01:31:40", "cumulative_total": 526.0 }, "geometry": { "type": "Polygon", "coordinates": [ [ [ -73.803930619660662, 45.519620386169976 ], [ -73.810276551726687, 45.522285068324351 ], [ -73.810167012327454, 45.527480731470405 ], [ -73.803710362848776, 45.530011688368795 ], [ -73.797363886902062, 45.527346639219381 ], [ -73.797474604304611, 45.52215100023119 ], [ -73.803930619660662, 45.519620386169976 ] ] ] } },
{ "type": "Feature", "properties": { "hex_id": 799275, "centroid_lon": -71.125472368999738, "centroid_lat": 46.751505067510266, "occurrences_today": 1, "datetimes_today": "2026-09-06 07:01:54", "cumulative_total": 87.0 }, "geometry": { "type": "Polygon", "coordinates": [ [ [ -71.125844370472024, 46.746321291368069 ], [ -71.132189569331317, 46.749134437685804 ], [ -71.131818139730399, 46.754318250177491 ], [ -71.125100264520299, 46.756688836658704 ], [ -71.118754596814583, 46.75387528373971 ], [ -71.119127273129777, 46.748691551007205 ], [ -71.125844370472024, 46.746321291368069 ] ] ] } },
{ "type": "Feature", "properties": { "hex_id": 525069, "centroid_lon": -74.087761624915203, "centroid_lat": 45.387121587632237, "occurrences_today": 6, "datetimes_today": "2026-09-06 00:01:39, 2026-09-06 00:16:40, 2026-09-06 00:32:07, 2026-09-06 00:46:46, 2026-09-06 01:02:34, 2026-09-06 01:16:42", "cumulative_total": 81.0 }, "geometry": { "type": "Polygon", "coordinates": [ [ [ -74.08784520081818, 45.381925333706377 ], [ -74.094189423379177, 45.384574286737823 ], [ -74.094106421052572, 45.389770547388153 ], [ -74.087678026216608, 45.392317836689749 ], [ -74.08133325287865, 45.389668521098436 ], [ -74.081417425146, 45.384472278829719 ], [ -74.08784520081818, 45.381925333706377 ] ] ] } },
{ "type": "Feature", "properties": { "hex_id": 580643, "centroid_lon": -73.499045202865076, "centroid_lat": 45.669324891708243, "occurrences_today": 2, "datetimes_today": "2026-09-06 07:47:09, 2026-09-06 08:01:57", "cumulative_total": 221.0 }, "geometry": { "type": "Polygon", "coordinates": [ [ [ -73.49918406398956, 45.664130021670296 ], [ -73.505531271108794, 45.666811593266182 ], [ -73.505392984192838, 45.672006475927034 ], [ -73.498906303744832, 45.674519756672197 ], [ -73.492558560419241, 45.671837813389089 ], [ -73.492698033735195, 45.666642961112899 ], [ -73.49918406398956, 45.664130021670296 ] ] ] } },
{ "type": "Feature", "properties": { "hex_id": 581254, "centroid_lon": -73.49241904893897, "centroid_lat": 45.677032660588452, "occurrences_today": 2, "datetimes_today": "2026-09-06 07:47:09, 2026-09-06 08:01:57", "cumulative_total": 258.0 }, "geometry": { "type": "Polygon", "coordinates": [ [ [ -73.492558560419241, 45.671837813389089 ], [ -73.498906303744832, 45.674519756672197 ], [ -73.498767366616036, 45.679714616562038 ], [ -73.492279499281508, 45.682227502710852 ], [ -73.485931219788057, 45.679545187580572 ], [ -73.486071343784133, 45.67435035821353 ], [ -73.492558560419241, 45.671837813389089 ] ] ] } },
{ "type": "Feature", "properties": { "hex_id": 1674224, "centroid_lon": -61.515424197950843, "centroid_lat": 47.615753743715075, "occurrences_today": 6, "datetimes_today": "2026-09-06 03:02:29, 2026-09-06 03:17:00, 2026-09-06 03:32:06, 2026-09-06 03:46:39, 2026-09-06 04:02:42, 2026-09-06 04:16:47", "cumulative_total": 35.0 }, "geometry": { "type": "Polygon", "coordinates": [ [ [ -61.516747357796554, 47.610702254102584 ], [ -61.522555553747232, 47.614002672176774 ], [ -61.521232800610065, 47.619054281854496 ], [ -61.514100676722755, 47.620805200918447 ], [ -61.5082924355073, 47.617504315368535 ], [ -61.509616363321122, 47.61245297828637 ], [ -61.516747357796554, 47.610702254102584 ] ] ] } },
{ "type": "Feature", "properties": { "hex_id": 1674835, "centroid_lon": -61.506968146103119, "centroid_lat": 47.622555620011148, "occurrences_today": 6, "datetimes_today": "2026-09-06 03:02:29, 2026-09-06 03:17:00, 2026-09-06 03:32:06, 2026-09-06 03:46:39, 2026-09-06 04:02:42, 2026-09-06 04:16:47", "cumulative_total": 19.0 }, "geometry": { "type": "Polygon", "coordinates": [ [ [ -61.5082924355073, 47.617504315368535 ], [ -61.514100676722755, 47.620805200918447 ], [ -61.512776793989474, 47.625856625702497 ], [ -61.505643494985655, 47.627606892204007 ], [ -61.499835208874025, 47.62430553906308 ], [ -61.501160266539465, 47.61925438706762 ], [ -61.5082924355073, 47.617504315368535 ] ] ] } },
{ "type": "Feature", "properties": { "hex_id": 567242, "centroid_lon": -73.628758690682176, "centroid_lat": 46.138639233896193, "occurrences_today": 17, "datetimes_today": "2026-09-06 00:01:39, 2026-09-06 00:16:40, 2026-09-06 00:32:07, 2026-09-06 00:46:46, 2026-09-06 01:02:34, 2026-09-06 01:16:42, 2026-09-06 01:31:40, 2026-09-06 01:47:24, 2026-09-06 02:01:40, 2026-09-06 02:16:40, 2026-09-06 02:30:11, 2026-09-06 02:47:18, 2026-09-06 03:02:29, 2026-09-06 03:17:00, 2026-09-06 03:32:06, 2026-09-06 03:46:39, 2026-09-06 04:02:42", "cumulative_total": 225.0 }, "geometry": { "type": "Polygon", "coordinates": [ [ [ -73.628887646557146, 46.133444497034063 ], [ -73.63529446491674, 46.136119321240265 ], [ -73.635166099527524, 46.141314069554674 ], [ -73.628629699312711, 46.14383396573669 ], [ -73.62222232596794, 46.141158765022965 ], [ -73.622351907811051, 46.135964044700707 ], [ -73.628887646557146, 46.133444497034063 ] ] ] } },
{ "type": "Feature", "properties": { "hex_id": 580021, "centroid_lon": -73.510210602127088, "centroid_lat": 45.490182566060113, "occurrences_today": 22, "datetimes_today": "2026-09-06 00:01:39, 2026-09-06 00:16:40, 2026-09-06 00:32:07, 2026-09-06 00:46:46, 2026-09-06 01:02:34, 2026-09-06 01:16:42, 2026-09-06 01:31:40, 2026-09-06 01:47:24, 2026-09-06 02:01:40, 2026-09-06 02:16:40, 2026-09-06 02:30:11, 2026-09-06 02:47:18, 2026-09-06 03:02:29, 2026-09-06 03:17:00, 2026-09-06 03:32:06, 2026-09-06 03:46:39, 2026-09-06 04:02:42, 2026-09-06 04:16:47, 2026-09-06 04:32:06, 2026-09-06 04:46:56, 2026-09-06 05:02:17, 2026-09-06 05:17:05", "cumulative_total": 198.0 }, "geometry": { "type": "Polygon", "coordinates": [ [ [ -73.510347572631972, 45.484987505964042 ], [ -73.516675386368576, 45.487668293226626 ], [ -73.516538984819107, 45.4928633657888 ], [ -73.510073594224835, 45.495377621088231 ], [ -73.50374524893644, 45.492696464520733 ], [ -73.503882825781588, 45.487501422023172 ], [ -73.510347572631972, 45.484987505964042 ] ] ] } },
{ "type": "Feature", "properties": { "hex_id": 581242, "centroid_lon": -73.49741751014858, "centroid_lat": 45.490014963681993, "occurrences_today": 22, "datetimes_today": "2026-09-06 00:01:39, 2026-09-06 00:16:40, 2026-09-06 00:32:07, 2026-09-06 00:46:46, 2026-09-06 01:02:34, 2026-09-06 01:16:42, 2026-09-06 01:31:40, 2026-09-06 01:47:24, 2026-09-06 02:01:40, 2026-09-06 02:16:40, 2026-09-06 02:30:11, 2026-09-06 02:47:18, 2026-09-06 03:02:29, 2026-09-06 03:17:00, 2026-09-06 03:32:06, 2026-09-06 03:46:39, 2026-09-06 04:02:42, 2026-09-06 04:16:47, 2026-09-06 04:32:06, 2026-09-06 04:46:56, 2026-09-06 05:02:17, 2026-09-06 05:17:05", "cumulative_total": 336.0 }, "geometry": { "type": "Polygon", "coordinates": [ [ [ -73.497555655770043, 45.484819933776706 ], [ -73.503882825781588, 45.487501422023172 ], [ -73.50374524893644, 45.492696464520733 ], [ -73.497279326809192, 45.495209988513835 ], [ -73.490951625745595, 45.492528130845947 ], [ -73.491090377848636, 45.48733311867084 ], [ -73.497555655770043, 45.484819933776706 ] ] ] } },
{ "type": "Feature", "properties": { "hex_id": 478686, "centroid_lon": -74.571389333654054, "centroid_lat": 45.623816557740732, "occurrences_today": 4, "datetimes_today": "2026-09-06 07:31:55, 2026-09-06 07:47:09, 2026-09-06 08:01:57, 2026-09-06 08:17:04", "cumulative_total": 30.0 }, "geometry": { "type": "Polygon", "coordinates": [ [ [ -74.571428927942677, 45.61862000601586 ], [ -74.577822585813749, 45.621242163661762 ], [ -74.577783578638488, 45.626438717303536 ], [ -74.571349728534059, 45.629013104690948 ], [ -74.564955494382815, 45.626390586220623 ], [ -74.564995686612505, 45.621194041252188 ], [ -74.571428927942677, 45.61862000601586 ] ] ] } },
{ "type": "Feature", "properties": { "hex_id": 479907, "centroid_lon": -74.558561858334699, "centroid_lat": 45.623767710858409, "occurrences_today": 4, "datetimes_today": "2026-09-06 07:31:55, 2026-09-06 07:47:09, 2026-09-06 08:01:57, 2026-09-06 08:17:04", "cumulative_total": 27.0 }, "geometry": { "type": "Polygon", "coordinates": [ [ [ -74.558602637510177, 45.618571167935855 ], [ -74.564995686612505, 45.621194041252188 ], [ -74.564955494382815, 45.626390586220623 ], [ -74.558521068003728, 45.628964249004717 ], [ -74.552127443112951, 45.626341014737818 ], [ -74.552168820385958, 45.62114447870227 ], [ -74.558602637510177, 45.618571167935855 ] ] ] } },
{ "type": "Feature", "properties": { "hex_id": 451215, "centroid_lon": -74.859956038464802, "centroid_lat": 45.64791983126716, "occurrences_today": 8, "datetimes_today": "2026-09-06 00:01:39, 2026-09-06 00:16:40, 2026-09-06 00:32:07, 2026-09-06 00:46:46, 2026-09-06 01:02:34, 2026-09-06 01:16:42, 2026-09-06 01:31:40, 2026-09-06 01:47:24", "cumulative_total": 44.0 }, "geometry": { "type": "Polygon", "coordinates": [ [ [ -74.859968986456579, 45.642723171486317 ], [ -74.866378874293275, 45.645329186797632 ], [ -74.866366517869352, 45.650525845588199 ], [ -74.85994308692986, 45.653116486297179 ], [ -74.85353261106907, 45.650510112734771 ], [ -74.853546154170658, 45.645313456779427 ], [ -74.859968986456579, 45.642723171486317 ] ] ] } },
{ "type": "Feature", "properties": { "hex_id": 591019, "centroid_lon": -73.39107793841481, "centroid_lat": 45.628879686331523, "occurrences_today": 2, "datetimes_today": "2026-09-06 01:31:40, 2026-09-06 01:47:24", "cumulative_total": 112.0 }, "geometry": { "type": "Polygon", "coordinates": [ [ [ -73.391226575941459, 45.623685045491257 ], [ -73.397563951685115, 45.626372504592588 ], [ -73.397415885657878, 45.63156715911186 ], [ -73.390929260239474, 45.634074322049514 ], [ -73.384591353651913, 45.631386490776841 ], [ -73.384740603312991, 45.626191868802586 ], [ -73.391226575941459, 45.623685045491257 ] ] ] } },
{ "type": "Feature", "properties": { "hex_id": 581243, "centroid_lon": -73.49700284692608, "centroid_lat": 45.505600022956706, "occurrences_today": 16, "datetimes_today": "2026-09-06 00:01:39, 2026-09-06 00:16:40, 2026-09-06 00:32:07, 2026-09-06 00:46:46, 2026-09-06 01:02:34, 2026-09-06 01:16:42, 2026-09-06 01:31:40, 2026-09-06 01:47:24, 2026-09-06 02:01:40, 2026-09-06 02:16:40, 2026-09-06 02:30:11, 2026-09-06 02:47:18, 2026-09-06 03:02:29, 2026-09-06 03:17:00, 2026-09-06 03:32:06, 2026-09-06 03:46:39", "cumulative_total": 257.0 }, "geometry": { "type": "Polygon", "coordinates": [ [ [ -73.497141105739246, 45.500405008272097 ], [ -73.503469982541702, 45.503086534303513 ], [ -73.503332292966931, 45.508281561588518 ], [ -73.496864550357003, 45.51079503256755 ], [ -73.490535142078386, 45.508113136913188 ], [ -73.490674007873167, 45.502918139967221 ], [ -73.497141105739246, 45.500405008272097 ] ] ] } },
{ "type": "Feature", "properties": { "hex_id": 396264, "centroid_lon": -75.436724813566741, "centroid_lat": 45.553629972707498, "occurrences_today": 6, "datetimes_today": "2026-09-06 03:02:29, 2026-09-06 03:17:00, 2026-09-06 03:32:06, 2026-09-06 03:46:39, 2026-09-06 04:02:42, 2026-09-06 04:16:47", "cumulative_total": 82.0 }, "geometry": { "type": "Polygon", "coordinates": [ [ [ -75.436684568292989, 45.548433362422081 ], [ -75.443110140724983, 45.551007000978231 ], [ -75.443150981837633, 45.556203604429982 ], [ -75.436765069840575, 45.558826578216994 ], [ -75.430338890567768, 45.55625258846392 ], [ -75.430299230136526, 45.551055976185467 ], [ -75.436684568292989, 45.548433362422081 ] ] ] } },
{ "type": "Feature", "properties": { "hex_id": 591630, "centroid_lon": -73.384442063173651, "centroid_lat": 45.636581107625794, "occurrences_today": 2, "datetimes_today": "2026-09-06 01:31:40, 2026-09-06 01:47:24", "cumulative_total": 131.0 }, "geometry": { "type": "Polygon", "coordinates": [ [ [ -73.384591353651913, 45.631386490776841 ], [ -73.390929260239474, 45.634074322049514 ], [ -73.390780541401767, 45.639268952645139 ], [ -73.38429273186442, 45.641775719349319 ], [ -73.377954294474122, 45.639087515745757 ], [ -73.378104197410167, 45.633892917833649 ], [ -73.384591353651913, 45.631386490776841 ] ] ] } },
{ "type": "Feature", "properties": { "hex_id": 548901, "centroid_lon": -73.831462083220913, "centroid_lat": 45.735568984985917, "occurrences_today": 22, "datetimes_today": "2026-09-06 03:02:29, 2026-09-06 03:17:00, 2026-09-06 03:32:06, 2026-09-06 03:46:39, 2026-09-06 04:02:42, 2026-09-06 04:16:47, 2026-09-06 04:32:06, 2026-09-06 04:46:56, 2026-09-06 05:02:17, 2026-09-06 05:17:05, 2026-09-06 05:31:55, 2026-09-06 05:46:39, 2026-09-06 06:02:15, 2026-09-06 06:17:34, 2026-09-06 06:31:47, 2026-09-06 06:46:41, 2026-09-06 07:01:54, 2026-09-06 07:14:13, 2026-09-06 07:31:55, 2026-09-06 07:47:09, 2026-09-06 08:01:57, 2026-09-06 08:17:04", "cumulative_total": 107.0 }, "geometry": { "type": "Polygon", "coordinates": [ [ [ -73.831570445504269, 45.730373472087983 ], [ -73.837941349468736, 45.733036767383538 ], [ -73.837833567947186, 45.738232289619667 ], [ -73.831353691258911, 45.740764492938176 ], [ -73.824982236216272, 45.73810082823411 ], [ -73.825091208930061, 45.73290532968511 ], [ -73.831570445504269, 45.730373472087983 ] ] ] } },
{ "type": "Feature", "properties": { "hex_id": 550122, "centroid_lon": -73.81861139176705, "centroid_lat": 45.735436812899366, "occurrences_today": 22, "datetimes_today": "2026-09-06 03:02:29, 2026-09-06 03:17:00, 2026-09-06 03:32:06, 2026-09-06 03:46:39, 2026-09-06 04:02:42, 2026-09-06 04:16:47, 2026-09-06 04:32:06, 2026-09-06 04:46:56, 2026-09-06 05:02:17, 2026-09-06 05:17:05, 2026-09-06 05:31:55, 2026-09-06 05:46:39, 2026-09-06 06:02:15, 2026-09-06 06:17:34, 2026-09-06 06:31:47, 2026-09-06 06:46:41, 2026-09-06 07:01:54, 2026-09-06 07:14:13, 2026-09-06 07:31:55, 2026-09-06 07:47:09, 2026-09-06 08:01:57, 2026-09-06 08:17:04", "cumulative_total": 156.0 }, "geometry": { "type": "Polygon", "coordinates": [ [ [ -73.818720945064584, 45.730241323816529 ], [ -73.825091208930061, 45.73290532968511 ], [ -73.824982236216272, 45.73810082823411 ], [ -73.818501808464873, 45.74063229703215 ], [ -73.812130994025352, 45.737967921634777 ], [ -73.812241157901155, 45.732772447033213 ], [ -73.818720945064584, 45.730241323816529 ] ] ] } },
{ "type": "Feature", "properties": { "hex_id": 426182, "centroid_lon": -75.122954556229786, "centroid_lat": 45.608964319384917, "occurrences_today": 5, "datetimes_today": "2026-09-06 07:14:13, 2026-09-06 07:31:55, 2026-09-06 07:47:09, 2026-09-06 08:01:57, 2026-09-06 08:17:04", "cumulative_total": 96.0 }, "geometry": { "type": "Polygon", "coordinates": [ [ [ -75.122943203688891, 45.603767620448863 ], [ -75.129360800193737, 45.606358889863181 ], [ -75.129372746411704, 45.611555585147862 ], [ -75.122965911875781, 45.614161013570637 ], [ -75.116547718588251, 45.611569389052093 ], [ -75.116536956620365, 45.606372691279873 ], [ -75.122943203688891, 45.603767620448863 ] ] ] } },
{ "type": "Feature", "properties": { "hex_id": 735690, "centroid_lon": -71.887606072456251, "centroid_lat": 45.324952329483487, "occurrences_today": 11, "datetimes_today": "2026-09-06 02:01:40, 2026-09-06 02:16:40, 2026-09-06 02:30:11, 2026-09-06 02:47:18, 2026-09-06 03:02:29, 2026-09-06 03:17:00, 2026-09-06 03:32:06, 2026-09-06 03:46:39, 2026-09-06 04:02:42, 2026-09-06 04:16:47, 2026-09-06 04:32:06", "cumulative_total": 54.0 }, "geometry": { "type": "Polygon", "coordinates": [ [ [ -71.887890474145863, 45.319763036756349 ], [ -71.894118708076491, 45.322531260632815 ], [ -71.893834847616816, 45.327720581528673 ], [ -71.887321593357001, 45.330141616076929 ], [ -71.881092895618949, 45.32737301071208 ], [ -71.881377915922357, 45.322183752350874 ], [ -71.887890474145863, 45.319763036756349 ] ] ] } },
{ "type": "Feature", "properties": { "hex_id": 736301, "centroid_lon": -71.880807797735784, "centroid_lat": 45.332562262933685, "occurrences_today": 11, "datetimes_today": "2026-09-06 02:01:40, 2026-09-06 02:16:40, 2026-09-06 02:30:11, 2026-09-06 02:47:18, 2026-09-06 03:02:29, 2026-09-06 03:17:00, 2026-09-06 03:32:06, 2026-09-06 03:46:39, 2026-09-06 04:02:42, 2026-09-06 04:16:47, 2026-09-06 04:32:06", "cumulative_total": 44.0 }, "geometry": { "type": "Polygon", "coordinates": [ [ [ -71.881092895618949, 45.32737301071208 ], [ -71.887321593357001, 45.330141616076929 ], [ -71.887037036822321, 45.335330896536199 ], [ -71.880522622247028, 45.337751509015177 ], [ -71.874293460779057, 45.334982522007643 ], [ -71.874579177590419, 45.329793304227351 ], [ -71.881092895618949, 45.32737301071208 ] ] ] } },
{ "type": "Feature", "properties": { "hex_id": 579422, "centroid_lon": -73.51187909027017, "centroid_lat": 45.669492818448212, "occurrences_today": 2, "datetimes_today": "2026-09-06 07:47:09, 2026-09-06 08:01:57", "cumulative_total": 115.0 }, "geometry": { "type": "Polygon", "coordinates": [ [ [ -73.512016765137645, 45.66429791815812 ], [ -73.518364621964125, 45.666978784330958 ], [ -73.518227521486367, 45.672173697116982 ], [ -73.511741377731227, 45.674687713669854 ], [ -73.505392984192838, 45.672006475927034 ], [ -73.505531271108794, 45.666811593266182 ], [ -73.512016765137645, 45.66429791815812 ] ] ] } },
{ "type": "Feature", "properties": { "hex_id": 426792, "centroid_lon": -75.116526197595164, "centroid_lat": 45.601175988757525, "occurrences_today": 5, "datetimes_today": "2026-09-06 07:14:13, 2026-09-06 07:31:55, 2026-09-06 07:47:09, 2026-09-06 08:01:57, 2026-09-06 08:17:04", "cumulative_total": 75.0 }, "geometry": { "type": "Polygon", "coordinates": [ [ [ -75.116515441511652, 45.595979281485043 ], [ -75.122931854252073, 45.598570916762462 ], [ -75.122943203688891, 45.603767620448863 ], [ -75.116536956620365, 45.606372691279873 ], [ -75.110119947584465, 45.603780700929853 ], [ -75.110109781913565, 45.598583994886269 ], [ -75.116515441511652, 45.595979281485043 ] ] ] } },
{ "type": "Feature", "properties": { "hex_id": 523847, "centroid_lon": -74.100781393083608, "centroid_lat": 45.371634059561082, "occurrences_today": 6, "datetimes_today": "2026-09-06 00:01:39, 2026-09-06 00:16:40, 2026-09-06 00:32:07, 2026-09-06 00:46:46, 2026-09-06 01:02:34, 2026-09-06 01:16:42", "cumulative_total": 46.0 }, "geometry": { "type": "Polygon", "coordinates": [ [ [ -74.100863731808985, 45.366437772788977 ], [ -74.107206852747922, 45.369086001179063 ], [ -74.107125087302762, 45.374282294543796 ], [ -74.100699031904114, 45.376830341468228 ], [ -74.094355360142842, 45.374181750837181 ], [ -74.094438294595051, 45.368985475586932 ], [ -74.100863731808985, 45.366437772788977 ] ] ] } },
{ "type": "Feature", "properties": { "hex_id": 525068, "centroid_lon": -74.088012284267734, "centroid_lat": 45.371532811249764, "occurrences_today": 6, "datetimes_today": "2026-09-06 00:01:39, 2026-09-06 00:16:40, 2026-09-06 00:32:07, 2026-09-06 00:46:46, 2026-09-06 01:02:34, 2026-09-06 01:16:42", "cumulative_total": 38.0 }, "geometry": { "type": "Polygon", "coordinates": [ [ [ -74.088095791829559, 45.366336542719033 ], [ -74.094438294595051, 45.368985475586932 ], [ -74.094355360142842, 45.374181750837181 ], [ -74.087928753933141, 45.376729074912213 ], [ -74.081585700834594, 45.374079779682283 ], [ -74.081669804271186, 45.368883522803635 ], [ -74.088095791829559, 45.366336542719033 ] ] ] } },
{ "type": "Feature", "properties": { "hex_id": 525679, "centroid_lon": -74.081501574462095, "centroid_lat": 45.379276031691006, "occurrences_today": 6, "datetimes_today": "2026-09-06 00:01:39, 2026-09-06 00:16:40, 2026-09-06 00:32:07, 2026-09-06 00:46:46, 2026-09-06 01:02:34, 2026-09-06 01:16:42", "cumulative_total": 40.0 }, "geometry": { "type": "Polygon", "coordinates": [ [ [ -74.081585700834594, 45.374079779682283 ], [ -74.087928753933141, 45.376729074912213 ], [ -74.08784520081818, 45.381925333706377 ], [ -74.081417425146, 45.384472278829719 ], [ -74.075073821737362, 45.381822621078356 ], [ -74.075158544303306, 45.376626380789375 ], [ -74.081585700834594, 45.374079779682283 ] ] ] } },
{ "type": "Feature", "properties": { "hex_id": 1024054, "centroid_lon": -68.511207490563905, "centroid_lat": 48.426074774953655, "occurrences_today": 2, "datetimes_today": "2026-09-06 07:31:55, 2026-09-06 07:47:09", "cumulative_total": 31.0 }, "geometry": { "type": "Polygon", "coordinates": [ [ [ -68.511867187281382, 48.420913944693559 ], [ -68.518252400436026, 48.423874426898784 ], [ -68.517593281698879, 48.429035319967994 ], [ -68.510547607530427, 48.43123559381128 ], [ -68.504162002744962, 48.428274661934203 ], [ -68.504822463691823, 48.423113905954303 ], [ -68.511867187281382, 48.420913944693559 ] ] ] } },
{ "type": "Feature", "properties": { "hex_id": 549513, "centroid_lon": -73.824546046793586, "centroid_lat": 45.75888277295077, "occurrences_today": 22, "datetimes_today": "2026-09-06 03:02:29, 2026-09-06 03:17:00, 2026-09-06 03:32:06, 2026-09-06 03:46:39, 2026-09-06 04:02:42, 2026-09-06 04:16:47, 2026-09-06 04:32:06, 2026-09-06 04:46:56, 2026-09-06 05:02:17, 2026-09-06 05:17:05, 2026-09-06 05:31:55, 2026-09-06 05:46:39, 2026-09-06 06:02:15, 2026-09-06 06:17:34, 2026-09-06 06:31:47, 2026-09-06 06:46:41, 2026-09-06 07:01:54, 2026-09-06 07:14:13, 2026-09-06 07:31:55, 2026-09-06 07:47:09, 2026-09-06 08:01:57, 2026-09-06 08:17:04", "cumulative_total": 241.0 }, "geometry": { "type": "Polygon", "coordinates": [ [ [ -73.824655138954554, 45.753687294193604 ], [ -73.83102833720092, 45.756350987120406 ], [ -73.83091982642415, 45.761546475289499 ], [ -73.824436924745584, 45.76407824675988 ], [ -73.818063175007083, 45.761414184061735 ], [ -73.818172878429181, 45.756218719729659 ], [ -73.824655138954554, 45.753687294193604 ] ] ] } },
{ "type": "Feature", "properties": { "hex_id": 583087, "centroid_lon": -73.472529557865627, "centroid_lat": 45.700153460395683, "occurrences_today": 2, "datetimes_today": "2026-09-06 07:47:09, 2026-09-06 08:01:57", "cumulative_total": 22.0 }, "geometry": { "type": "Polygon", "coordinates": [ [ [ -73.472671023449792, 45.694958682153327 ], [ -73.479020375162648, 45.69764174145805 ], [ -73.478879484358728, 45.702836532593849 ], [ -73.472388053558944, 45.705348233552193 ], [ -73.466038165794885, 45.702664801920157 ], [ -73.466180244868767, 45.697470041722006 ], [ -73.472671023449792, 45.694958682153327 ] ] ] } },
{ "type": "Feature", "properties": { "hex_id": 544629, "centroid_lon": -73.875970974011025, "centroid_lat": 45.759400319868249, "occurrences_today": 22, "datetimes_today": "2026-09-06 03:02:29, 2026-09-06 03:17:00, 2026-09-06 03:32:06, 2026-09-06 03:46:39, 2026-09-06 04:02:42, 2026-09-06 04:16:47, 2026-09-06 04:32:06, 2026-09-06 04:46:56, 2026-09-06 05:02:17, 2026-09-06 05:17:05, 2026-09-06 05:31:55, 2026-09-06 05:46:39, 2026-09-06 06:02:15, 2026-09-06 06:17:34, 2026-09-06 06:31:47, 2026-09-06 06:46:41, 2026-09-06 07:01:54, 2026-09-06 07:14:13, 2026-09-06 07:31:55, 2026-09-06 07:47:09, 2026-09-06 08:01:57, 2026-09-06 08:17:04", "cumulative_total": 69.0 }, "geometry": { "type": "Polygon", "coordinates": [ [ [ -73.876075296004842, 45.754204747855738 ], [ -73.882451054056006, 45.756865595040864 ], [ -73.882347314158494, 45.762061175952851 ], [ -73.875866623436309, 45.764595886949863 ], [ -73.869490311874543, 45.761934670475775 ], [ -73.869595244535901, 45.756739112358723 ], [ -73.876075296004842, 45.754204747855738 ] ] ] } },
{ "type": "Feature", "properties": { "hex_id": 545239, "centroid_lon": -73.869700148457966, "centroid_lat": 45.751543549308693, "occurrences_today": 22, "datetimes_today": "2026-09-06 03:02:29, 2026-09-06 03:17:00, 2026-09-06 03:32:06, 2026-09-06 03:46:39, 2026-09-06 04:02:42, 2026-09-06 04:16:47, 2026-09-06 04:32:06, 2026-09-06 04:46:56, 2026-09-06 05:02:17, 2026-09-06 05:17:05, 2026-09-06 05:31:55, 2026-09-06 05:46:39, 2026-09-06 06:02:15, 2026-09-06 06:17:34, 2026-09-06 06:31:47, 2026-09-06 06:46:41, 2026-09-06 07:01:54, 2026-09-06 07:14:13, 2026-09-06 07:31:55, 2026-09-06 07:47:09, 2026-09-06 08:01:57, 2026-09-06 08:17:04", "cumulative_total": 69.0 }, "geometry": { "type": "Polygon", "coordinates": [ [ [ -73.869805023650429, 45.746347981325719 ], [ -73.876179589427451, 45.749009170912345 ], [ -73.876075296004842, 45.754204747855738 ], [ -73.869595244535901, 45.756739112358723 ], [ -73.863220125723487, 45.75407755352358 ], [ -73.863325611405685, 45.748881999499055 ], [ -73.869805023650429, 45.746347981325719 ] ] ] } },
{ "type": "Feature", "properties": { "hex_id": 545850, "centroid_lon": -73.863114611143587, "centroid_lat": 45.759273102613008, "occurrences_today": 22, "datetimes_today": "2026-09-06 03:02:29, 2026-09-06 03:17:00, 2026-09-06 03:32:06, 2026-09-06 03:46:39, 2026-09-06 04:02:42, 2026-09-06 04:16:47, 2026-09-06 04:32:06, 2026-09-06 04:46:56, 2026-09-06 05:02:17, 2026-09-06 05:17:05, 2026-09-06 05:31:55, 2026-09-06 05:46:39, 2026-09-06 06:02:15, 2026-09-06 06:17:34, 2026-09-06 06:31:47, 2026-09-06 06:46:41, 2026-09-06 07:01:54, 2026-09-06 07:14:13, 2026-09-06 07:31:55, 2026-09-06 07:47:09, 2026-09-06 08:01:57, 2026-09-06 08:17:04", "cumulative_total": 69.0 }, "geometry": { "type": "Polygon", "coordinates": [ [ [ -73.863220125723487, 45.75407755352358 ], [ -73.869595244535901, 45.756739112358723 ], [ -73.869490311874543, 45.761934670475775 ], [ -73.863009067656279, 45.764468646767327 ], [ -73.856633395837648, 45.761806718522465 ], [ -73.856739521233706, 45.756611183460876 ], [ -73.863220125723487, 45.75407755352358 ] ] ] } },
{ "type": "Feature", "properties": { "hex_id": 546460, "centroid_lon": -73.856845617563977, "centroid_lat": 45.751415643462067, "occurrences_today": 22, "datetimes_today": "2026-09-06 03:02:29, 2026-09-06 03:17:00, 2026-09-06 03:32:06, 2026-09-06 03:46:39, 2026-09-06 04:02:42, 2026-09-06 04:16:47, 2026-09-06 04:32:06, 2026-09-06 04:46:56, 2026-09-06 05:02:17, 2026-09-06 05:17:05, 2026-09-06 05:31:55, 2026-09-06 05:46:39, 2026-09-06 06:02:15, 2026-09-06 06:17:34, 2026-09-06 06:31:47, 2026-09-06 06:46:41, 2026-09-06 07:01:54, 2026-09-06 07:14:13, 2026-09-06 07:31:55, 2026-09-06 07:47:09, 2026-09-06 08:01:57, 2026-09-06 08:17:04", "cumulative_total": 69.0 }, "geometry": { "type": "Polygon", "coordinates": [ [ [ -73.856951684838279, 45.746220098526074 ], [ -73.863325611405685, 45.748881999499055 ], [ -73.863220125723487, 45.75407755352358 ], [ -73.856739521233706, 45.756611183460876 ], [ -73.85036504213511, 45.753948913118691 ], [ -73.850471720047651, 45.748753382273499 ], [ -73.856951684838279, 45.746220098526074 ] ] ] } },
{ "type": "Feature", "properties": { "hex_id": 546461, "centroid_lon": -73.856527241365953, "centroid_lat": 45.76700224864679, "occurrences_today": 22, "datetimes_today": "2026-09-06 03:02:29, 2026-09-06 03:17:00, 2026-09-06 03:32:06, 2026-09-06 03:46:39, 2026-09-06 04:02:42, 2026-09-06 04:16:47, 2026-09-06 04:32:06, 2026-09-06 04:46:56, 2026-09-06 05:02:17, 2026-09-06 05:17:05, 2026-09-06 05:31:55, 2026-09-06 05:46:39, 2026-09-06 06:02:15, 2026-09-06 06:17:34, 2026-09-06 06:31:47, 2026-09-06 06:46:41, 2026-09-06 07:01:54, 2026-09-06 07:14:13, 2026-09-06 07:31:55, 2026-09-06 07:47:09, 2026-09-06 08:01:57, 2026-09-06 08:17:04", "cumulative_total": 81.0 }, "geometry": { "type": "Polygon", "coordinates": [ [ [ -73.856633395837648, 45.761806718522465 ], [ -73.863009067656279, 45.764468646767327 ], [ -73.862903495251771, 45.769664185986478 ], [ -73.856421057808816, 45.772197773833803 ], [ -73.850044833013371, 45.769535476018021 ], [ -73.850151598627846, 45.764339959990998 ], [ -73.856633395837648, 45.761806718522465 ] ] ] } },
{ "type": "Feature", "properties": { "hex_id": 547070, "centroid_lon": -73.850578368745957, "centroid_lat": 45.743557846489011, "occurrences_today": 22, "datetimes_today": "2026-09-06 03:02:29, 2026-09-06 03:17:00, 2026-09-06 03:32:06, 2026-09-06 03:46:39, 2026-09-06 04:02:42, 2026-09-06 04:16:47, 2026-09-06 04:32:06, 2026-09-06 04:46:56, 2026-09-06 05:02:17, 2026-09-06 05:17:05, 2026-09-06 05:31:55, 2026-09-06 05:46:39, 2026-09-06 06:02:15, 2026-09-06 06:17:34, 2026-09-06 06:31:47, 2026-09-06 06:46:41, 2026-09-06 07:01:54, 2026-09-06 07:14:13, 2026-09-06 07:31:55, 2026-09-06 07:47:09, 2026-09-06 08:01:57, 2026-09-06 08:17:04", "cumulative_total": 69.0 }, "geometry": { "type": "Polygon", "coordinates": [ [ [ -73.850684988239891, 45.738362305765257 ], [ -73.857057723066404, 45.741024548652952 ], [ -73.856951684838279, 45.746220098526074 ], [ -73.850471720047651, 45.748753382273499 ], [ -73.844098433164632, 45.746090770057144 ], [ -73.844205663118899, 45.740895243487124 ], [ -73.850684988239891, 45.738362305765257 ] ] ] } },
{ "type": "Feature", "properties": { "hex_id": 547071, "centroid_lon": -73.850258334998472, "centroid_lat": 45.759144439024531, "occurrences_today": 22, "datetimes_today": "2026-09-06 03:02:29, 2026-09-06 03:17:00, 2026-09-06 03:32:06, 2026-09-06 03:46:39, 2026-09-06 04:02:42, 2026-09-06 04:16:47, 2026-09-06 04:32:06, 2026-09-06 04:46:56, 2026-09-06 05:02:17, 2026-09-06 05:17:05, 2026-09-06 05:31:55, 2026-09-06 05:46:39, 2026-09-06 06:02:15, 2026-09-06 06:17:34, 2026-09-06 06:31:47, 2026-09-06 06:46:41, 2026-09-06 07:01:54, 2026-09-06 07:14:13, 2026-09-06 07:31:55, 2026-09-06 07:47:09, 2026-09-06 08:01:57, 2026-09-06 08:17:04", "cumulative_total": 79.0 }, "geometry": { "type": "Polygon", "coordinates": [ [ [ -73.85036504213511, 45.753948913118691 ], [ -73.856739521233706, 45.756611183460876 ], [ -73.856633395837648, 45.761806718522465 ], [ -73.850151598627846, 45.764339959990998 ], [ -73.843776567027589, 45.761677320118437 ], [ -73.843883885128903, 45.75648180837284 ], [ -73.85036504213511, 45.753948913118691 ] ] ] } },
{ "type": "Feature", "properties": { "hex_id": 547681, "centroid_lon": -73.843991173837935, "centroid_lat": 45.751286291685716, "occurrences_today": 22, "datetimes_today": "2026-09-06 03:02:29, 2026-09-06 03:17:00, 2026-09-06 03:32:06, 2026-09-06 03:46:39, 2026-09-06 04:02:42, 2026-09-06 04:16:47, 2026-09-06 04:32:06, 2026-09-06 04:46:56, 2026-09-06 05:02:17, 2026-09-06 05:17:05, 2026-09-06 05:31:55, 2026-09-06 05:46:39, 2026-09-06 06:02:15, 2026-09-06 06:17:34, 2026-09-06 06:31:47, 2026-09-06 06:46:41, 2026-09-06 07:01:54, 2026-09-06 07:14:13, 2026-09-06 07:31:55, 2026-09-06 07:47:09, 2026-09-06 08:01:57, 2026-09-06 08:17:04", "cumulative_total": 77.0 }, "geometry": { "type": "Polygon", "coordinates": [ [ [ -73.844098433164632, 45.746090770057144 ], [ -73.850471720047651, 45.748753382273499 ], [ -73.85036504213511, 45.753948913118691 ], [ -73.843883885128903, 45.75648180837284 ], [ -73.837510046219052, 45.753818826666716 ], [ -73.837617916332306, 45.748623319261299 ], [ -73.844098433164632, 45.746090770057144 ] ] ] } },
{ "type": "Feature", "properties": { "hex_id": 548291, "centroid_lon": -73.83772575690503, "centroid_lat": 45.743427806912273, "occurrences_today": 22, "datetimes_today": "2026-09-06 03:02:29, 2026-09-06 03:17:00, 2026-09-06 03:32:06, 2026-09-06 03:46:39, 2026-09-06 04:02:42, 2026-09-06 04:16:47, 2026-09-06 04:32:06, 2026-09-06 04:46:56, 2026-09-06 05:02:17, 2026-09-06 05:17:05, 2026-09-06 05:31:55, 2026-09-06 05:46:39, 2026-09-06 06:02:15, 2026-09-06 06:17:34, 2026-09-06 06:31:47, 2026-09-06 06:46:41, 2026-09-06 07:01:54, 2026-09-06 07:14:13, 2026-09-06 07:31:55, 2026-09-06 07:47:09, 2026-09-06 08:01:57, 2026-09-06 08:17:04", "cumulative_total": 77.0 }, "geometry": { "type": "Polygon", "coordinates": [ [ [ -73.837833567947186, 45.738232289619667 ], [ -73.844205663118899, 45.740895243487124 ], [ -73.844098433164632, 45.746090770057144 ], [ -73.837617916332306, 45.748623319261299 ], [ -73.83124526960826, 45.745959995944702 ], [ -73.831353691258911, 45.740764492938176 ], [ -73.837833567947186, 45.738232289619667 ] ] ] } },
{ "type": "Feature", "properties": { "hex_id": 577590, "centroid_lon": -73.531333962151308, "centroid_lat": 45.661949586562081, "occurrences_today": 2, "datetimes_today": "2026-09-06 07:47:09, 2026-09-06 08:01:57", "cumulative_total": 13.0 }, "geometry": { "type": "Polygon", "coordinates": [ [ [ -73.531469801807972, 45.656754633790101 ], [ -73.53781777061937, 45.65943442310094 ], [ -73.537682505390165, 45.66462938817434 ], [ -73.531198085328441, 45.66714453427398 ], [ -73.524849579262039, 45.664464373670505 ], [ -73.524986030499861, 45.659269438324856 ], [ -73.531469801807972, 45.656754633790101 ] ] ] } },
{ "type": "Feature", "properties": { "hex_id": 793784, "centroid_lon": -71.180405382653888, "centroid_lat": 46.807916142100112, "occurrences_today": 2, "datetimes_today": "2026-09-06 08:01:57, 2026-09-06 08:17:04", "cumulative_total": 132.0 }, "geometry": { "type": "Polygon", "coordinates": [ [ [ -71.180772840724501, 46.802732082537396 ], [ -71.187127556990077, 46.805542435106666 ], [ -71.18676067342156, 46.810726530527077 ], [ -71.180037822750634, 46.81310019472874 ], [ -71.173682633833238, 46.810289435233166 ], [ -71.174050768203315, 46.805105418528861 ], [ -71.180772840724501, 46.802732082537396 ] ] ] } },
{ "type": "Feature", "properties": { "hex_id": 1389180, "centroid_lon": -64.374231091670183, "centroid_lat": 48.849777204226186, "occurrences_today": 4, "datetimes_today": "2026-09-06 06:17:34, 2026-09-06 06:31:47, 2026-09-06 06:46:41, 2026-09-06 07:01:54", "cumulative_total": 16.0 }, "geometry": { "type": "Polygon", "coordinates": [ [ [ -64.3753236585883, 48.844672606377642 ], [ -64.38147568086751, 48.847849192615243 ], [ -64.380383617358206, 48.852953890592339 ], [ -64.373138217524115, 48.854881779290402 ], [ -64.366985999118938, 48.851704715270763 ], [ -64.368079376564026, 48.846600240399098 ], [ -64.3753236585883, 48.844672606377642 ] ] ] } },
{ "type": "Feature", "properties": { "hex_id": 955072, "centroid_lon": -69.263001025561707, "centroid_lat": 48.536324255191708, "occurrences_today": 9, "datetimes_today": "2026-09-06 06:17:34, 2026-09-06 06:31:47, 2026-09-06 06:46:41, 2026-09-06 07:01:54, 2026-09-06 07:14:13, 2026-09-06 07:31:55, 2026-09-06 07:47:09, 2026-09-06 08:01:57, 2026-09-06 08:17:04", "cumulative_total": 44.0 }, "geometry": { "type": "Polygon", "coordinates": [ [ [ -69.263586823704188, 48.53115625793977 ], [ -69.270033017033171, 48.534076988160393 ], [ -69.269447814961694, 48.53924504124177 ], [ -69.262415061462647, 48.541492242478625 ], [ -69.255968438049194, 48.538571066105447 ], [ -69.256554998159331, 48.533403134717602 ], [ -69.263586823704188, 48.53115625793977 ] ] ] } },
{ "type": "Feature", "properties": { "hex_id": 670399, "centroid_lon": -72.547613920698353, "centroid_lat": 45.847732596011568, "occurrences_today": 2, "datetimes_today": "2026-09-06 08:01:57, 2026-09-06 08:17:04", "cumulative_total": 4.0 }, "geometry": { "type": "Polygon", "coordinates": [ [ [ -72.547842175693191, 45.842540869672185 ], [ -72.554161484612834, 45.84527470309196 ], [ -72.553933795783053, 45.850466451468961 ], [ -72.54738560314604, 45.852924316728256 ], [ -72.541065790629418, 45.850190100721385 ], [ -72.541294674325584, 45.844998402107308 ], [ -72.547842175693191, 45.842540869672185 ] ] ] } },
{ "type": "Feature", "properties": { "hex_id": 547682, "centroid_lon": -73.84366921952406, "centroid_lat": 45.766872826922494, "occurrences_today": 22, "datetimes_today": "2026-09-06 03:02:29, 2026-09-06 03:17:00, 2026-09-06 03:32:06, 2026-09-06 03:46:39, 2026-09-06 04:02:42, 2026-09-06 04:16:47, 2026-09-06 04:32:06, 2026-09-06 04:46:56, 2026-09-06 05:02:17, 2026-09-06 05:17:05, 2026-09-06 05:31:55, 2026-09-06 05:46:39, 2026-09-06 06:02:15, 2026-09-06 06:17:34, 2026-09-06 06:31:47, 2026-09-06 06:46:41, 2026-09-06 07:01:54, 2026-09-06 07:14:13, 2026-09-06 07:31:55, 2026-09-06 07:47:09, 2026-09-06 08:01:57, 2026-09-06 08:17:04", "cumulative_total": 35.0 }, "geometry": { "type": "Polygon", "coordinates": [ [ [ -73.843776567027589, 45.761677320118437 ], [ -73.850151598627846, 45.764339959990998 ], [ -73.850044833013371, 45.769535476018021 ], [ -73.843561842608381, 45.772068328784925 ], [ -73.837186258536192, 45.769405319220823 ], [ -73.837294217330978, 45.764209826646521 ], [ -73.843776567027589, 45.761677320118437 ] ] ] } },
{ "type": "Feature", "properties": { "hex_id": 548292, "centroid_lon": -73.837402146555277, "centroid_lat": 45.759014329128462, "occurrences_today": 22, "datetimes_today": "2026-09-06 03:02:29, 2026-09-06 03:17:00, 2026-09-06 03:32:06, 2026-09-06 03:46:39, 2026-09-06 04:02:42, 2026-09-06 04:16:47, 2026-09-06 04:32:06, 2026-09-06 04:46:56, 2026-09-06 05:02:17, 2026-09-06 05:17:05, 2026-09-06 05:31:55, 2026-09-06 05:46:39, 2026-09-06 06:02:15, 2026-09-06 06:17:34, 2026-09-06 06:31:47, 2026-09-06 06:46:41, 2026-09-06 07:01:54, 2026-09-06 07:14:13, 2026-09-06 07:31:55, 2026-09-06 07:47:09, 2026-09-06 08:01:57, 2026-09-06 08:17:04", "cumulative_total": 33.0 }, "geometry": { "type": "Polygon", "coordinates": [ [ [ -73.837510046219052, 45.753818826666716 ], [ -73.843883885128903, 45.75648180837284 ], [ -73.843776567027589, 45.761677320118437 ], [ -73.837294217330978, 45.764209826646521 ], [ -73.83091982642415, 45.761546475289499 ], [ -73.83102833720092, 45.756350987120406 ], [ -73.837510046219052, 45.753818826666716 ] ] ] } },
{ "type": "Feature", "properties": { "hex_id": 1107723, "centroid_lon": -67.52294796845176, "centroid_lat": 48.841566921626629, "occurrences_today": 2, "datetimes_today": "2026-09-06 08:01:57, 2026-09-06 08:17:04", "cumulative_total": 50.0 }, "geometry": { "type": "Polygon", "coordinates": [ [ [ -67.523718776650568, 48.836417367535859 ], [ -67.530089507549022, 48.839432591823595 ], [ -67.529319270795853, 48.844582218431299 ], [ -67.522176941621936, 48.846716462011962 ], [ -67.515805857948465, 48.843700775576643 ], [ -67.516577456144717, 48.838551307776832 ], [ -67.523718776650568, 48.836417367535859 ] ] ] } },
{ "type": "Feature", "properties": { "hex_id": 545240, "centroid_lon": -73.869385350464171, "centroid_lat": 45.767130223659805, "occurrences_today": 22, "datetimes_today": "2026-09-06 03:02:29, 2026-09-06 03:17:00, 2026-09-06 03:32:06, 2026-09-06 03:46:39, 2026-09-06 04:02:42, 2026-09-06 04:16:47, 2026-09-06 04:32:06, 2026-09-06 04:46:56, 2026-09-06 05:02:17, 2026-09-06 05:17:05, 2026-09-06 05:31:55, 2026-09-06 05:46:39, 2026-09-06 06:02:15, 2026-09-06 06:17:34, 2026-09-06 06:31:47, 2026-09-06 06:46:41, 2026-09-06 07:01:54, 2026-09-06 07:14:13, 2026-09-06 07:31:55, 2026-09-06 07:47:09, 2026-09-06 08:01:57, 2026-09-06 08:17:04", "cumulative_total": 23.0 }, "geometry": { "type": "Polygon", "coordinates": [ [ [ -73.869490311874543, 45.761934670475775 ], [ -73.875866623436309, 45.764595886949863 ], [ -73.875762244271073, 45.769791449100545 ], [ -73.869280360295065, 45.772325771910772 ], [ -73.862903495251771, 45.769664185986478 ], [ -73.863009067656279, 45.764468646767327 ], [ -73.869490311874543, 45.761934670475775 ] ] ] } },
{ "type": "Feature", "properties": { "hex_id": 1024665, "centroid_lon": -68.503501355262628, "centroid_lat": 48.433435406496685, "occurrences_today": 2, "datetimes_today": "2026-09-06 07:31:55, 2026-09-06 07:47:09", "cumulative_total": 30.0 }, "geometry": { "type": "Polygon", "coordinates": [ [ [ -68.504162002744962, 48.428274661934203 ], [ -68.510547607530427, 48.43123559381128 ], [ -68.509887538113915, 48.436396401263949 ], [ -68.502840521177745, 48.438596139639252 ], [ -68.496454524962544, 48.435634757930004 ], [ -68.497115937046189, 48.430474087746234 ], [ -68.504162002744962, 48.428274661934203 ] ] ] } },
{ "type": "Feature", "properties": { "hex_id": 923262, "centroid_lon": -69.71649883787876, "centroid_lat": 47.560300460529447, "occurrences_today": 2, "datetimes_today": "2026-09-06 08:01:57, 2026-09-06 08:17:04", "cumulative_total": 2.0 }, "geometry": { "type": "Polygon", "coordinates": [ [ [ -69.71702032001275, 47.555127630290563 ], [ -69.723377586335516, 47.558019564099418 ], [ -69.722856677250661, 47.563192444843423 ], [ -69.715977210011928, 47.565473281731947 ], [ -69.709619516398533, 47.562580919227912 ], [ -69.710141717263141, 47.557408148598043 ], [ -69.71702032001275, 47.555127630290563 ] ] ] } }
]
}
