{
"type": "FeatureCollection",
"name": "daily_2025-11-26",
"crs": { "type": "name", "properties": { "name": "urn:ogc:def:crs:OGC:1.3:CRS84" } },
"features": [
{ "type": "Feature", "properties": { "hex_id": 910, "count": 4, "date": "2025-11-26", "n_files": 22, "pct": 18.18 }, "geometry": { "type": "Polygon", "coordinates": [ [ [ -74.542684, 45.6239851 ], [ -74.5424726, 45.6499677 ], [ -74.5744578, 45.663083 ], [ -74.60664, 45.6502067 ], [ -74.6068218, 45.6242239 ], [ -74.574851, 45.6111176 ], [ -74.542684, 45.6239851 ] ] ] } },
{ "type": "Feature", "properties": { "hex_id": 974, "count": 4, "date": "2025-11-26", "n_files": 22, "pct": 18.18 }, "geometry": { "type": "Polygon", "coordinates": [ [ [ -74.5109541, 45.5848783 ], [ -74.5107284, 45.610861 ], [ -74.542684, 45.6239851 ], [ -74.574851, 45.6111176 ], [ -74.5750472, 45.5851347 ], [ -74.5431059, 45.5720196 ], [ -74.5109541, 45.5848783 ] ] ] } },
{ "type": "Feature", "properties": { "hex_id": 975, "count": 4, "date": "2025-11-26", "n_files": 22, "pct": 18.18 }, "geometry": { "type": "Polygon", "coordinates": [ [ [ -74.5102759, 45.6628259 ], [ -74.5100492, 45.6888082 ], [ -74.5420489, 45.7019325 ], [ -74.5742608, 45.6890655 ], [ -74.5744578, 45.663083 ], [ -74.5424726, 45.6499677 ], [ -74.5102759, 45.6628259 ] ] ] } },
{ "type": "Feature", "properties": { "hex_id": 981, "count": 5, "date": "2025-11-26", "n_files": 22, "pct": 22.73 }, "geometry": { "type": "Polygon", "coordinates": [ [ [ -74.506147500000012, 46.1304888 ], [ -74.5059152, 46.1564689 ], [ -74.538183, 46.1695943 ], [ -74.5706685, 46.1567304 ], [ -74.5708704, 46.1307501 ], [ -74.5386173, 46.1176338 ], [ -74.506147500000012, 46.1304888 ] ] ] } },
{ "type": "Feature", "properties": { "hex_id": 1038, "count": 4, "date": "2025-11-26", "n_files": 22, "pct": 18.18 }, "geometry": { "type": "Polygon", "coordinates": [ [ [ -74.478547, 45.6237104 ], [ -74.478306, 45.6496927 ], [ -74.5102759, 45.6628259 ], [ -74.5424726, 45.6499677 ], [ -74.542684, 45.6239851 ], [ -74.5107284, 45.610861 ], [ -74.478547, 45.6237104 ] ] ] } },
{ "type": "Feature", "properties": { "hex_id": 1102, "count": 4, "date": "2025-11-26", "n_files": 22, "pct": 18.18 }, "geometry": { "type": "Polygon", "coordinates": [ [ [ -74.4468621, 45.584586 ], [ -74.4466067, 45.6105684 ], [ -74.478547, 45.6237104 ], [ -74.5107284, 45.610861 ], [ -74.5109541, 45.5848783 ], [ -74.4790281, 45.5717453 ], [ -74.4468621, 45.584586 ] ] ] } },
{ "type": "Feature", "properties": { "hex_id": 1103, "count": 4, "date": "2025-11-26", "n_files": 22, "pct": 18.18 }, "geometry": { "type": "Polygon", "coordinates": [ [ [ -74.446095, 45.6625328 ], [ -74.4458386, 45.6885148 ], [ -74.4778229, 45.701657 ], [ -74.5100492, 45.6888082 ], [ -74.5102759, 45.6628259 ], [ -74.478306, 45.6496927 ], [ -74.446095, 45.6625328 ] ] ] } },
{ "type": "Feature", "properties": { "hex_id": 1166, "count": 4, "date": "2025-11-26", "n_files": 22, "pct": 18.18 }, "geometry": { "type": "Polygon", "coordinates": [ [ [ -74.4144111, 45.6233996 ], [ -74.4141404, 45.6493817 ], [ -74.446095, 45.6625328 ], [ -74.478306, 45.6496927 ], [ -74.478547, 45.6237104 ], [ -74.4466067, 45.6105684 ], [ -74.4144111, 45.6233996 ] ] ] } },
{ "type": "Feature", "properties": { "hex_id": 1230, "count": 4, "date": "2025-11-26", "n_files": 22, "pct": 18.18 }, "geometry": { "type": "Polygon", "coordinates": [ [ [ -74.382771, 45.5842577 ], [ -74.3824861, 45.6102397 ], [ -74.4144111, 45.6233996 ], [ -74.4466067, 45.6105684 ], [ -74.4468621, 45.584586 ], [ -74.4149513, 45.5714351 ], [ -74.382771, 45.5842577 ] ] ] } },
{ "type": "Feature", "properties": { "hex_id": 1939, "count": 6, "date": "2025-11-26", "n_files": 22, "pct": 27.27 }, "geometry": { "type": "Polygon", "coordinates": [ [ [ -74.0228303, 46.0104617 ], [ -74.0223724, 46.0364395 ], [ -74.0544538, 46.0497003 ], [ -74.0869789, 46.0369739 ], [ -74.0874065, 46.0109956 ], [ -74.0553393, 45.9977441 ], [ -74.0228303, 46.0104617 ] ] ] } },
{ "type": "Feature", "properties": { "hex_id": 2182, "count": 6, "date": "2025-11-26", "n_files": 22, "pct": 27.27 }, "geometry": { "type": "Polygon", "coordinates": [ [ [ -73.9133543, 44.9960931 ], [ -73.9128629, 45.0220747 ], [ -73.9443506, 45.0353632 ], [ -73.9763163, 45.0226612 ], [ -73.976779, 44.996679 ], [ -73.9453047, 44.9833995 ], [ -73.9133543, 44.9960931 ] ] ] } },
{ "type": "Feature", "properties": { "hex_id": 2310, "count": 6, "date": "2025-11-26", "n_files": 22, "pct": 27.27 }, "geometry": { "type": "Polygon", "coordinates": [ [ [ -73.8499316, 44.995472 ], [ -73.8494115, 45.021453 ], [ -73.8808838, 45.0347589 ], [ -73.9128629, 45.0220747 ], [ -73.9133543, 44.9960931 ], [ -73.8818953, 44.9827962 ], [ -73.8499316, 44.995472 ] ] ] } },
{ "type": "Feature", "properties": { "hex_id": 2317, "count": 10, "date": "2025-11-26", "n_files": 22, "pct": 45.45 }, "geometry": { "type": "Polygon", "coordinates": [ [ [ -73.8388597, 45.5410479 ], [ -73.8383245, 45.5670263 ], [ -73.870095, 45.5803369 ], [ -73.902387, 45.567659899999988 ], [ -73.9028927, 45.5416809 ], [ -73.8711359, 45.5283795 ], [ -73.8388597, 45.5410479 ] ] ] } },
{ "type": "Feature", "properties": { "hex_id": 2375, "count": 6, "date": "2025-11-26", "n_files": 22, "pct": 27.27 }, "geometry": { "type": "Polygon", "coordinates": [ [ [ -73.8174192, 45.0341193 ], [ -73.8168836, 45.0600998 ], [ -73.8483692, 45.0734147 ], [ -73.880377, 45.06074 ], [ -73.8808838, 45.0347589 ], [ -73.8494115, 45.021453 ], [ -73.8174192, 45.0341193 ] ] ] } },
{ "type": "Feature", "properties": { "hex_id": 2380, "count": 10, "date": "2025-11-26", "n_files": 22, "pct": 45.45 }, "geometry": { "type": "Polygon", "coordinates": [ [ [ -73.8093094, 45.4238147 ], [ -73.8087629, 45.4497934 ], [ -73.8404609, 45.4631118 ], [ -73.8726918, 45.4504423 ], [ -73.8732091, 45.4244631 ], [ -73.8415247, 45.4111538 ], [ -73.8093094, 45.4238147 ] ] ] } },
{ "type": "Feature", "properties": { "hex_id": 2381, "count": 1, "date": "2025-11-26", "n_files": 22, "pct": 4.55 }, "geometry": { "type": "Polygon", "coordinates": [ [ [ -73.8076675, 45.5017505 ], [ -73.8071187, 45.5277288 ], [ -73.8388597, 45.5410479 ], [ -73.8711359, 45.5283795 ], [ -73.8716552, 45.5024006 ], [ -73.8399279, 45.4890906 ], [ -73.8076675, 45.5017505 ] ] ] } },
{ "type": "Feature", "properties": { "hex_id": 2438, "count": 6, "date": "2025-11-26", "n_files": 22, "pct": 27.27 }, "geometry": { "type": "Polygon", "coordinates": [ [ [ -73.786511, 44.9948156 ], [ -73.7859623, 45.0207961 ], [ -73.8174192, 45.0341193 ], [ -73.8494115, 45.021453 ], [ -73.8499316, 44.995472 ], [ -73.818488, 44.9821578 ], [ -73.786511, 44.9948156 ] ] ] } },
{ "type": "Feature", "properties": { "hex_id": 2444, "count": 10, "date": "2025-11-26", "n_files": 22, "pct": 45.45 }, "geometry": { "type": "Polygon", "coordinates": [ [ [ -73.7765183, 45.4624447 ], [ -73.7759559, 45.488423 ], [ -73.8076675, 45.5017505 ], [ -73.8399279, 45.4890906 ], [ -73.8404609, 45.4631118 ], [ -73.8087629, 45.4497934 ], [ -73.7765183, 45.4624447 ] ] ] } },
{ "type": "Feature", "properties": { "hex_id": 2510, "count": 2, "date": "2025-11-26", "n_files": 22, "pct": 9.09 }, "geometry": { "type": "Polygon", "coordinates": [ [ [ -73.7419449, 45.5789974 ], [ -73.7413643, 45.6049747 ], [ -73.7731325, 45.6183122 ], [ -73.8054678, 45.6056631 ], [ -73.8060188, 45.5796851 ], [ -73.7742642, 45.5663569 ], [ -73.7419449, 45.5789974 ] ] ] } },
{ "type": "Feature", "properties": { "hex_id": 2511, "count": 1, "date": "2025-11-26", "n_files": 22, "pct": 4.55 }, "geometry": { "type": "Polygon", "coordinates": [ [ [ -73.7402007, 45.656929 ], [ -73.7396177, 45.682906 ], [ -73.7714292, 45.6962442 ], [ -73.8038101, 45.6835962 ], [ -73.8043634, 45.6576186 ], [ -73.7725656, 45.6442896 ], [ -73.7402007, 45.656929 ] ] ] } },
{ "type": "Feature", "properties": { "hex_id": 2512, "count": 7, "date": "2025-11-26", "n_files": 22, "pct": 31.82 }, "geometry": { "type": "Polygon", "coordinates": [ [ [ -73.7384493, 45.7348596 ], [ -73.7378639, 45.7608362 ], [ -73.7697189, 45.7741751 ], [ -73.8021455, 45.7615283 ], [ -73.8027011, 45.735551 ], [ -73.7708599, 45.7222213 ], [ -73.7384493, 45.7348596 ] ] ] } },
{ "type": "Feature", "properties": { "hex_id": 2570, "count": 1, "date": "2025-11-26", "n_files": 22, "pct": 4.55 }, "geometry": { "type": "Polygon", "coordinates": [ [ [ -73.7161116, 45.3058738 ], [ -73.7155247, 45.3318521 ], [ -73.7471349, 45.3451957 ], [ -73.7793187, 45.3325518 ], [ -73.7798765, 45.3065728 ], [ -73.7482796, 45.2932384 ], [ -73.7161116, 45.3058738 ] ] ] } },
{ "type": "Feature", "properties": { "hex_id": 2573, "count": 2, "date": "2025-11-26", "n_files": 22, "pct": 9.09 }, "geometry": { "type": "Polygon", "coordinates": [ [ [ -73.7108004, 45.5396742 ], [ -73.7102063, 45.5656515 ], [ -73.7419449, 45.5789974 ], [ -73.7742642, 45.5663569 ], [ -73.7748289, 45.540379 ], [ -73.7431038, 45.5270423 ], [ -73.7108004, 45.5396742 ] ] ] } },
{ "type": "Feature", "properties": { "hex_id": 2575, "count": 7, "date": "2025-11-26", "n_files": 22, "pct": 31.82 }, "geometry": { "type": "Polygon", "coordinates": [ [ [ -73.7072232, 45.6955356 ], [ -73.7066241, 45.7215121 ], [ -73.7384493, 45.7348596 ], [ -73.7708599, 45.7222213 ], [ -73.7714292, 45.6962442 ], [ -73.7396177, 45.682906 ], [ -73.7072232, 45.6955356 ] ] ] } },
{ "type": "Feature", "properties": { "hex_id": 2635, "count": 1, "date": "2025-11-26", "n_files": 22, "pct": 4.55 }, "geometry": { "type": "Polygon", "coordinates": [ [ [ -73.6833275, 45.3444778 ], [ -73.6827248, 45.3704556 ], [ -73.7143484, 45.3838084 ], [ -73.7465614, 45.3711741 ], [ -73.7471349, 45.3451957 ], [ -73.7155247, 45.3318521 ], [ -73.6833275, 45.3444778 ] ] ] } },
{ "type": "Feature", "properties": { "hex_id": 2638, "count": 2, "date": "2025-11-26", "n_files": 22, "pct": 9.09 }, "geometry": { "type": "Polygon", "coordinates": [ [ [ -73.6778734, 45.5782737 ], [ -73.6772632, 45.6042504 ], [ -73.7090155, 45.6176055 ], [ -73.7413643, 45.6049747 ], [ -73.7419449, 45.5789974 ], [ -73.7102063, 45.5656515 ], [ -73.6778734, 45.5782737 ] ] ] } },
{ "type": "Feature", "properties": { "hex_id": 2640, "count": 7, "date": "2025-11-26", "n_files": 22, "pct": 31.82 }, "geometry": { "type": "Polygon", "coordinates": [ [ [ -73.6741999, 45.734132 ], [ -73.6735847, 45.7601079 ], [ -73.7054235, 45.7734646 ], [ -73.7378639, 45.7608362 ], [ -73.7384493, 45.7348596 ], [ -73.7066241, 45.7215121 ], [ -73.6741999, 45.734132 ] ] ] } },
{ "type": "Feature", "properties": { "hex_id": 2698, "count": 1, "date": "2025-11-26", "n_files": 22, "pct": 4.55 }, "geometry": { "type": "Polygon", "coordinates": [ [ [ -73.6523491, 45.3051391 ], [ -73.6517331, 45.3311168 ], [ -73.6833275, 45.3444778 ], [ -73.7155247, 45.3318521 ], [ -73.7161116, 45.3058738 ], [ -73.6845305, 45.292521799999989 ], [ -73.6523491, 45.3051391 ] ] ] } },
{ "type": "Feature", "properties": { "hex_id": 2701, "count": 4, "date": "2025-11-26", "n_files": 22, "pct": 18.18 }, "geometry": { "type": "Polygon", "coordinates": [ [ [ -73.6467744, 45.5389336 ], [ -73.6461507, 45.5649101 ], [ -73.6778734, 45.5782737 ], [ -73.7102063, 45.5656515 ], [ -73.7108004, 45.5396742 ], [ -73.6790912, 45.5263199 ], [ -73.6467744, 45.5389336 ] ] ] } },
{ "type": "Feature", "properties": { "hex_id": 2763, "count": 1, "date": "2025-11-26", "n_files": 22, "pct": 4.55 }, "geometry": { "type": "Polygon", "coordinates": [ [ [ -73.6195226, 45.3437244 ], [ -73.6188907, 45.3697015 ], [ -73.6504985, 45.3830717 ], [ -73.6827248, 45.3704556 ], [ -73.6833275, 45.3444778 ], [ -73.6517331, 45.3311168 ], [ -73.6195226, 45.3437244 ] ] ] } },
{ "type": "Feature", "properties": { "hex_id": 2766, "count": 1, "date": "2025-11-26", "n_files": 22, "pct": 4.55 }, "geometry": { "type": "Polygon", "coordinates": [ [ [ -73.6138044, 45.5775141 ], [ -73.6131647, 45.6034901 ], [ -73.6449009, 45.6168628 ], [ -73.6772632, 45.6042504 ], [ -73.6778734, 45.5782737 ], [ -73.6461507, 45.5649101 ], [ -73.6138044, 45.5775141 ] ] ] } },
{ "type": "Feature", "properties": { "hex_id": 2829, "count": 1, "date": "2025-11-26", "n_files": 22, "pct": 4.55 }, "geometry": { "type": "Polygon", "coordinates": [ [ [ -73.5827509, 45.5381571 ], [ -73.5820977, 45.5641329 ], [ -73.6138044, 45.5775141 ], [ -73.6461507, 45.5649101 ], [ -73.6467744, 45.5389336 ], [ -73.6150812, 45.5255617 ], [ -73.5827509, 45.5381571 ] ] ] } },
{ "type": "Feature", "properties": { "hex_id": 2831, "count": 1, "date": "2025-11-26", "n_files": 22, "pct": 4.55 }, "geometry": { "type": "Polygon", "coordinates": [ [ [ -73.5788186, 45.6940102 ], [ -73.5781601, 45.7199853 ], [ -73.609953, 45.7333682 ], [ -73.6423908, 45.7207668 ], [ -73.6430196, 45.694791 ], [ -73.6112403, 45.6814173 ], [ -73.5788186, 45.6940102 ] ] ] } },
{ "type": "Feature", "properties": { "hex_id": 2903, "count": 2, "date": "2025-11-26", "n_files": 22, "pct": 9.09 }, "geometry": { "type": "Polygon", "coordinates": [ [ [ -73.5313424, 46.278007 ], [ -73.5306479, 46.3039789 ], [ -73.5627621, 46.3173775 ], [ -73.5955569, 46.3047947 ], [ -73.5962208, 46.2788221 ], [ -73.5641205, 46.265433 ], [ -73.5313424, 46.278007 ] ] ] } },
{ "type": "Feature", "properties": { "hex_id": 3273, "count": 2, "date": "2025-11-26", "n_files": 22, "pct": 9.09 }, "geometry": { "type": "Polygon", "coordinates": [ [ [ -73.3688001, 45.1845069 ], [ -73.3680576, 45.2104818 ], [ -73.3995172, 45.2239198 ], [ -73.4317063, 45.2113737 ], [ -73.4324198, 45.185398 ], [ -73.4009733, 45.1719692 ], [ -73.3688001, 45.1845069 ] ] ] } },
{ "type": "Feature", "properties": { "hex_id": 3339, "count": 3, "date": "2025-11-26", "n_files": 22, "pct": 13.64 }, "geometry": { "type": "Polygon", "coordinates": [ [ [ -73.331289, 45.3788533 ], [ -73.3305242, 45.4048268 ], [ -73.3620811, 45.4182761 ], [ -73.3943896, 45.4057427 ], [ -73.3951251, 45.3797683 ], [ -73.3635813, 45.3663283 ], [ -73.331289, 45.3788533 ] ] ] } },
{ "type": "Feature", "properties": { "hex_id": 3341, "count": 2, "date": "2025-11-26", "n_files": 22, "pct": 9.09 }, "geometry": { "type": "Polygon", "coordinates": [ [ [ -73.3266849, 45.5346923 ], [ -73.3259138, 45.5606651 ], [ -73.3575557, 45.5741165 ], [ -73.3899554, 45.5615859 ], [ -73.3906969, 45.5356123 ], [ -73.3590683, 45.5221702 ], [ -73.3266849, 45.5346923 ] ] ] } },
{ "type": "Feature", "properties": { "hex_id": 3469, "count": 2, "date": "2025-11-26", "n_files": 22, "pct": 9.09 }, "geometry": { "type": "Polygon", "coordinates": [ [ [ -73.262676, 45.5337365 ], [ -73.2618755, 45.5597084 ], [ -73.293501, 45.5731773 ], [ -73.3259138, 45.5606651 ], [ -73.3266849, 45.5346923 ], [ -73.2950725, 45.5212327 ], [ -73.262676, 45.5337365 ] ] ] } },
{ "type": "Feature", "properties": { "hex_id": 3866, "count": 4, "date": "2025-11-26", "n_files": 22, "pct": 18.18 }, "geometry": { "type": "Polygon", "coordinates": [ [ [ -73.0350861, 46.54335 ], [ -73.0341484, 46.5693139 ], [ -73.0662905, 46.5828519 ], [ -73.0993568, 46.5704163 ], [ -73.1002635, 46.5444514 ], [ -73.068135, 46.5309231 ], [ -73.0350861, 46.54335 ] ] ] } },
{ "type": "Feature", "properties": { "hex_id": 4553, "count": 1, "date": "2025-11-26", "n_files": 22, "pct": 4.55 }, "geometry": { "type": "Polygon", "coordinates": [ [ [ -72.7327889, 45.173648 ], [ -72.7317574, 45.1996131 ], [ -72.7630544, 45.2132234 ], [ -72.7953704, 45.2008593 ], [ -72.796373, 45.1748931 ], [ -72.7650885, 45.1612921 ], [ -72.7327889, 45.173648 ] ] ] } },
{ "type": "Feature", "properties": { "hex_id": 4616, "count": 1, "date": "2025-11-26", "n_files": 22, "pct": 4.55 }, "geometry": { "type": "Polygon", "coordinates": [ [ [ -72.7025646, 45.1340651 ], [ -72.7015208, 45.1600298 ], [ -72.7327889, 45.173648 ], [ -72.7650885, 45.1612921 ], [ -72.7661034, 45.1353262 ], [ -72.7348477, 45.1217174 ], [ -72.7025646, 45.1340651 ] ] ] } },
{ "type": "Feature", "properties": { "hex_id": 4759, "count": 9, "date": "2025-11-26", "n_files": 22, "pct": 40.91 }, "geometry": { "type": "Polygon", "coordinates": [ [ [ -72.5892842, 46.3009909 ], [ -72.5881435, 46.3269482 ], [ -72.6200301, 46.3406073 ], [ -72.6530444, 46.3282995 ], [ -72.6541545, 46.302341 ], [ -72.6222809, 46.2886915 ], [ -72.5892842, 46.3009909 ] ] ] } },
{ "type": "Feature", "properties": { "hex_id": 4824, "count": 9, "date": "2025-11-26", "n_files": 22, "pct": 40.91 }, "geometry": { "type": "Polygon", "coordinates": [ [ [ -72.5551162, 46.339237 ], [ -72.5539578, 46.3651935 ], [ -72.5858573, 46.3788623 ], [ -72.6189023, 46.366565 ], [ -72.6200301, 46.3406073 ], [ -72.5881435, 46.3269482 ], [ -72.5551162, 46.339237 ] ] ] } },
{ "type": "Feature", "properties": { "hex_id": 4887, "count": 2, "date": "2025-11-26", "n_files": 22, "pct": 9.09 }, "geometry": { "type": "Polygon", "coordinates": [ [ [ -72.5244187, 46.2996041 ], [ -72.5232473, 46.3255601 ], [ -72.5551162, 46.339237 ], [ -72.5881435, 46.3269482 ], [ -72.5892842, 46.3009909 ], [ -72.5574282, 46.2873237 ], [ -72.5244187, 46.2996041 ] ] ] } },
{ "type": "Feature", "properties": { "hex_id": 5455, "count": 3, "date": "2025-11-26", "n_files": 22, "pct": 13.64 }, "geometry": { "type": "Polygon", "coordinates": [ [ [ -72.2653645, 45.631134 ], [ -72.2641005, 45.6570877 ], [ -72.2955279, 45.6708286 ], [ -72.328207, 45.6586061 ], [ -72.3294415, 45.632651 ], [ -72.2980263, 45.6189197 ], [ -72.2653645, 45.631134 ] ] ] } },
{ "type": "Feature", "properties": { "hex_id": 5519, "count": 3, "date": "2025-11-26", "n_files": 22, "pct": 13.64 }, "geometry": { "type": "Polygon", "coordinates": [ [ [ -72.2314091, 45.6692916 ], [ -72.2301278, 45.6952444 ], [ -72.2615673, 45.7089948 ], [ -72.2942761, 45.6967828 ], [ -72.2955279, 45.6708286 ], [ -72.2641005, 45.6570877 ], [ -72.2314091, 45.6692916 ] ] ] } },
{ "type": "Feature", "properties": { "hex_id": 5770, "count": 2, "date": "2025-11-26", "n_files": 22, "pct": 9.09 }, "geometry": { "type": "Polygon", "coordinates": [ [ [ -72.1230775, 45.276842599999988 ], [ -72.1217641, 45.3027948 ], [ -72.1529625, 45.31657 ], [ -72.1854625, 45.3043835 ], [ -72.1867469, 45.2784299 ], [ -72.1555603, 45.2646642 ], [ -72.1230775, 45.276842599999988 ] ] ] } },
{ "type": "Feature", "properties": { "hex_id": 5775, "count": 7, "date": "2025-11-26", "n_files": 22, "pct": 31.82 }, "geometry": { "type": "Polygon", "coordinates": [ [ [ -72.1031875, 45.6661097 ], [ -72.101847, 45.6920597 ], [ -72.1332516, 45.7058446 ], [ -72.1659847, 45.69367 ], [ -72.1672957, 45.6677186 ], [ -72.1359031, 45.6539433 ], [ -72.1031875, 45.6661097 ] ] ] } },
{ "type": "Feature", "properties": { "hex_id": 5840, "count": 7, "date": "2025-11-26", "n_files": 22, "pct": 31.82 }, "geometry": { "type": "Polygon", "coordinates": [ [ [ -72.0691019, 45.7042156 ], [ -72.0677438, 45.7301646 ], [ -72.0991605, 45.7439592 ], [ -72.1319232, 45.7317951 ], [ -72.1332516, 45.7058446 ], [ -72.101847, 45.6920597 ], [ -72.0691019, 45.7042156 ] ] ] } },
{ "type": "Feature", "properties": { "hex_id": 5898, "count": 2, "date": "2025-11-26", "n_files": 22, "pct": 9.09 }, "geometry": { "type": "Polygon", "coordinates": [ [ [ -72.0594135, 45.2752199 ], [ -72.0580711, 45.3011706 ], [ -72.0892523, 45.3149628 ], [ -72.1217641, 45.3027948 ], [ -72.1230775, 45.276842599999988 ], [ -72.0919081, 45.2630599 ], [ -72.0594135, 45.2752199 ] ] ] } },
{ "type": "Feature", "properties": { "hex_id": 5903, "count": 7, "date": "2025-11-26", "n_files": 22, "pct": 31.82 }, "geometry": { "type": "Polygon", "coordinates": [ [ [ -72.0390849, 45.6644649 ], [ -72.0377148, 45.6904134 ], [ -72.0691019, 45.7042156 ], [ -72.101847, 45.6920597 ], [ -72.1031875, 45.6661097 ], [ -72.0718125, 45.6523172 ], [ -72.0390849, 45.6644649 ] ] ] } },
{ "type": "Feature", "properties": { "hex_id": 5914, "count": 3, "date": "2025-11-26", "n_files": 22, "pct": 13.64 }, "geometry": { "type": "Polygon", "coordinates": [ [ [ -71.992864900000015, 46.5206847 ], [ -71.9914313, 46.5466282 ], [ -72.0232861, 46.5604529 ], [ -72.056562, 46.5483241 ], [ -72.0579647, 46.5223791 ], [ -72.0261224, 46.5085644 ], [ -71.992864900000015, 46.5206847 ] ] ] } },
{ "type": "Feature", "properties": { "hex_id": 5979, "count": 3, "date": "2025-11-26", "n_files": 22, "pct": 13.64 }, "geometry": { "type": "Polygon", "coordinates": [ [ [ -71.9581429, 46.5587377 ], [ -71.9566908, 46.5846801 ], [ -71.9885581, 46.598514699999988 ], [ -72.0218649, 46.5863969 ], [ -72.0232861, 46.5604529 ], [ -71.9914313, 46.5466282 ], [ -71.9581429, 46.5587377 ] ] ] } },
{ "type": "Feature", "properties": { "hex_id": 6042, "count": 3, "date": "2025-11-26", "n_files": 22, "pct": 13.64 }, "geometry": { "type": "Polygon", "coordinates": [ [ [ -71.9277711, 46.5189533 ], [ -71.9263066, 46.5448953 ], [ -71.9581429, 46.5587377 ], [ -71.9914313, 46.5466282 ], [ -71.992864900000015, 46.5206847 ], [ -71.9610411, 46.5068523 ], [ -71.9277711, 46.5189533 ] ] ] } },
{ "type": "Feature", "properties": { "hex_id": 6090, "count": 3, "date": "2025-11-26", "n_files": 22, "pct": 13.64 }, "geometry": { "type": "Polygon", "coordinates": [ [ [ -71.9660029, 45.2337963 ], [ -71.96462, 45.259745 ], [ -71.9957549, 45.2735617 ], [ -72.0282613, 45.2614202 ], [ -72.0296153, 45.23547 ], [ -71.998492, 45.2216628 ], [ -71.9660029, 45.2337963 ] ] ] } },
{ "type": "Feature", "properties": { "hex_id": 6107, "count": 3, "date": "2025-11-26", "n_files": 22, "pct": 13.64 }, "geometry": { "type": "Polygon", "coordinates": [ [ [ -71.8930057, 46.5569854 ], [ -71.8915226, 46.5829263 ], [ -71.9233714, 46.5967786 ], [ -71.9566908, 46.5846801 ], [ -71.9581429, 46.5587377 ], [ -71.9263066, 46.5448953 ], [ -71.8930057, 46.5569854 ] ] ] } },
{ "type": "Feature", "properties": { "hex_id": 6153, "count": 3, "date": "2025-11-26", "n_files": 22, "pct": 13.64 }, "geometry": { "type": "Polygon", "coordinates": [ [ [ -71.9362913, 45.194024 ], [ -71.9348968, 45.2199722 ], [ -71.9660029, 45.2337963 ], [ -71.998492, 45.2216628 ], [ -71.9998577, 45.1957131 ], [ -71.9687632, 45.1818985 ], [ -71.9362913, 45.194024 ] ] ] } },
{ "type": "Feature", "properties": { "hex_id": 6170, "count": 3, "date": "2025-11-26", "n_files": 22, "pct": 13.64 }, "geometry": { "type": "Polygon", "coordinates": [ [ [ -71.8626834, 46.5171849 ], [ -71.8611879, 46.5431253 ], [ -71.8930057, 46.5569854 ], [ -71.9263066, 46.5448953 ], [ -71.9277711, 46.5189533 ], [ -71.8959658, 46.5051031 ], [ -71.8626834, 46.5171849 ] ] ] } },
{ "type": "Feature", "properties": { "hex_id": 6389, "count": 3, "date": "2025-11-26", "n_files": 22, "pct": 13.64 }, "geometry": { "type": "Polygon", "coordinates": [ [ [ -71.6355295, 48.5760265 ], [ -71.633806, 48.6019516 ], [ -71.6668048, 48.6159002 ], [ -71.7015134, 48.603913 ], [ -71.7032024, 48.5779861 ], [ -71.6702172, 48.5640481 ], [ -71.6355295, 48.5760265 ] ] ] } },
{ "type": "Feature", "properties": { "hex_id": 6428, "count": 4, "date": "2025-11-26", "n_files": 22, "pct": 18.18 }, "geometry": { "type": "Polygon", "coordinates": [ [ [ -71.7231508, 46.6691571 ], [ -71.7215806, 46.6950932 ], [ -71.7534478, 46.7089932 ], [ -71.7868729, 46.6969472 ], [ -71.788412, 46.671009399999988 ], [ -71.7565571, 46.6571194 ], [ -71.7231508, 46.6691571 ] ] ] } },
{ "type": "Feature", "properties": { "hex_id": 6452, "count": 3, "date": "2025-11-26", "n_files": 22, "pct": 13.64 }, "geometry": { "type": "Polygon", "coordinates": [ [ [ -71.6043022, 48.5361451 ], [ -71.6025652, 48.5620696 ], [ -71.6355295, 48.5760265 ], [ -71.6702172, 48.5640481 ], [ -71.6719198, 48.5381219 ], [ -71.6389691, 48.5241757 ], [ -71.6043022, 48.5361451 ] ] ] } },
{ "type": "Feature", "properties": { "hex_id": 6493, "count": 4, "date": "2025-11-26", "n_files": 22, "pct": 18.18 }, "geometry": { "type": "Polygon", "coordinates": [ [ [ -71.6881432, 46.7071198 ], [ -71.6865541, 46.7330548 ], [ -71.7184337, 46.7469649 ], [ -71.75189, 46.7349299 ], [ -71.7534478, 46.7089932 ], [ -71.7215806, 46.6950932 ], [ -71.6881432, 46.7071198 ] ] ] } },
{ "type": "Feature", "properties": { "hex_id": 6517, "count": 6, "date": "2025-11-26", "n_files": 22, "pct": 27.27 }, "geometry": { "type": "Polygon", "coordinates": [ [ [ -71.567864, 48.5740272 ], [ -71.566106, 48.5999505 ], [ -71.5990838, 48.6139181 ], [ -71.633806, 48.6019516 ], [ -71.6355295, 48.5760265 ], [ -71.6025652, 48.5620696 ], [ -71.567864, 48.5740272 ] ] ] } },
{ "type": "Feature", "properties": { "hex_id": 6870, "count": 5, "date": "2025-11-26", "n_files": 22, "pct": 22.73 }, "geometry": { "type": "Polygon", "coordinates": [ [ [ -71.5270725, 46.156714 ], [ -71.525438, 46.1826472 ], [ -71.5569617, 46.1965935 ], [ -71.5901081, 46.1845968 ], [ -71.5917124, 46.1586619 ], [ -71.5602005, 46.1447254 ], [ -71.5270725, 46.156714 ] ] ] } },
{ "type": "Feature", "properties": { "hex_id": 7262, "count": 8, "date": "2025-11-26", "n_files": 22, "pct": 36.36 }, "geometry": { "type": "Polygon", "coordinates": [ [ [ -71.291123, 46.7728702 ], [ -71.2893396, 46.7987938 ], [ -71.3211478, 46.8128128 ], [ -71.3547275, 46.8008979 ], [ -71.3564796, 46.7749724 ], [ -71.3246833, 46.7609636 ], [ -71.291123, 46.7728702 ] ] ] } },
{ "type": "Feature", "properties": { "hex_id": 7283, "count": 3, "date": "2025-11-26", "n_files": 22, "pct": 13.64 }, "geometry": { "type": "Polygon", "coordinates": [ [ [ -71.1737627, 48.4057243 ], [ -71.1718148, 48.431637 ], [ -71.2045708, 48.4457124 ], [ -71.2392618, 48.4338642 ], [ -71.2411757, 48.4079495 ], [ -71.2084326, 48.3938849 ], [ -71.1737627, 48.4057243 ] ] ] } },
{ "type": "Feature", "properties": { "hex_id": 7539, "count": 1, "date": "2025-11-26", "n_files": 22, "pct": 4.55 }, "geometry": { "type": "Polygon", "coordinates": [ [ [ -71.0389619, 48.4011557 ], [ -71.0369457, 48.4270643 ], [ -71.0696592, 48.441177 ], [ -71.104376, 48.4293704 ], [ -71.1063581, 48.4034597 ], [ -71.0736574, 48.3893577 ], [ -71.0389619, 48.4011557 ] ] ] } },
{ "type": "Feature", "properties": { "hex_id": 7542, "count": 4, "date": "2025-11-26", "n_files": 22, "pct": 18.18 }, "geometry": { "type": "Polygon", "coordinates": [ [ [ -71.0207128, 48.634326699999988 ], [ -71.0186707, 48.6602337 ], [ -71.0515258, 48.6743551 ], [ -71.08641, 48.6625586 ], [ -71.0884176, 48.6366495 ], [ -71.0555755, 48.622539 ], [ -71.0207128, 48.634326699999988 ] ] ] } },
{ "type": "Feature", "properties": { "hex_id": 7605, "count": 4, "date": "2025-11-26", "n_files": 22, "pct": 18.18 }, "geometry": { "type": "Polygon", "coordinates": [ [ [ -70.9899473, 48.5942912 ], [ -70.9878923, 48.6201974 ], [ -71.0207128, 48.634326699999988 ], [ -71.0555755, 48.622539 ], [ -71.057596, 48.5966307 ], [ -71.0247884, 48.5825122 ], [ -70.9899473, 48.5942912 ] ] ] } },
{ "type": "Feature", "properties": { "hex_id": 7606, "count": 4, "date": "2025-11-26", "n_files": 22, "pct": 18.18 }, "geometry": { "type": "Polygon", "coordinates": [ [ [ -70.9837736, 48.6720092 ], [ -70.9817098, 48.6979148 ], [ -71.0145778, 48.7120471 ], [ -71.0494966, 48.7002629 ], [ -71.0515258, 48.6743551 ], [ -71.0186707, 48.6602337 ], [ -70.9837736, 48.6720092 ] ] ] } },
{ "type": "Feature", "properties": { "hex_id": 7669, "count": 4, "date": "2025-11-26", "n_files": 22, "pct": 18.18 }, "geometry": { "type": "Polygon", "coordinates": [ [ [ -70.9592289, 48.5542485 ], [ -70.9571612, 48.5801539 ], [ -70.9899473, 48.5942912 ], [ -71.0247884, 48.5825122 ], [ -71.0268218, 48.5566047 ], [ -70.9940485, 48.5424782 ], [ -70.9592289, 48.5542485 ] ] ] } },
{ "type": "Feature", "properties": { "hex_id": 7670, "count": 4, "date": "2025-11-26", "n_files": 22, "pct": 18.18 }, "geometry": { "type": "Polygon", "coordinates": [ [ [ -70.9530168, 48.6319641 ], [ -70.9509401, 48.657869 ], [ -70.9837736, 48.6720092 ], [ -71.0186707, 48.6602337 ], [ -71.0207128, 48.634326699999988 ], [ -70.9878923, 48.6201974 ], [ -70.9530168, 48.6319641 ] ] ] } },
{ "type": "Feature", "properties": { "hex_id": 7695, "count": 2, "date": "2025-11-26", "n_files": 22, "pct": 9.09 }, "geometry": { "type": "Polygon", "coordinates": [ [ [ -71.1422924, 45.6376704 ], [ -71.1405095, 45.6635948 ], [ -71.1716449, 45.6776362 ], [ -71.204552, 45.6657435 ], [ -71.2063055, 45.639817199999989 ], [ -71.1751812, 45.6257856 ], [ -71.1422924, 45.6376704 ] ] ] } },
{ "type": "Feature", "properties": { "hex_id": 7733, "count": 4, "date": "2025-11-26", "n_files": 22, "pct": 18.18 }, "geometry": { "type": "Polygon", "coordinates": [ [ [ -70.9223073, 48.591912 ], [ -70.9202179, 48.617816 ], [ -70.9530168, 48.6319641 ], [ -70.9878923, 48.6201974 ], [ -70.9899473, 48.5942912 ], [ -70.9571612, 48.5801539 ], [ -70.9223073, 48.591912 ] ] ] } },
{ "type": "Feature", "properties": { "hex_id": 7734, "count": 4, "date": "2025-11-26", "n_files": 22, "pct": 18.18 }, "geometry": { "type": "Polygon", "coordinates": [ [ [ -70.9160301, 48.6696235 ], [ -70.9139318, 48.695527 ], [ -70.946778, 48.7096781 ], [ -70.9817098, 48.6979148 ], [ -70.9837736, 48.6720092 ], [ -70.9509401, 48.657869 ], [ -70.9160301, 48.6696235 ] ] ] } },
{ "type": "Feature", "properties": { "hex_id": 7759, "count": 2, "date": "2025-11-26", "n_files": 22, "pct": 9.09 }, "geometry": { "type": "Polygon", "coordinates": [ [ [ -71.1129803, 45.5976982 ], [ -71.1111864, 45.6236218 ], [ -71.1422924, 45.6376704 ], [ -71.1751812, 45.6257856 ], [ -71.1769457, 45.59986 ], [ -71.1458508, 45.5858212 ], [ -71.1129803, 45.5976982 ] ] ] } },
{ "type": "Feature", "properties": { "hex_id": 7760, "count": 2, "date": "2025-11-26", "n_files": 22, "pct": 9.09 }, "geometry": { "type": "Polygon", "coordinates": [ [ [ -71.1075913, 45.6754686 ], [ -71.1057901, 45.7013917 ], [ -71.1369366, 45.715443 ], [ -71.1698731, 45.7035613 ], [ -71.1716449, 45.6776362 ], [ -71.1405095, 45.6635948 ], [ -71.1075913, 45.6754686 ] ] ] } },
{ "type": "Feature", "properties": { "hex_id": 7797, "count": 4, "date": "2025-11-26", "n_files": 22, "pct": 18.18 }, "geometry": { "type": "Polygon", "coordinates": [ [ [ -70.8916449, 48.5518528 ], [ -70.8895428, 48.577756 ], [ -70.9223073, 48.591912 ], [ -70.9571612, 48.5801539 ], [ -70.9592289, 48.5542485 ], [ -70.9264772, 48.5401034 ], [ -70.8916449, 48.5518528 ] ] ] } },
{ "type": "Feature", "properties": { "hex_id": 7798, "count": 4, "date": "2025-11-26", "n_files": 22, "pct": 18.18 }, "geometry": { "type": "Polygon", "coordinates": [ [ [ -70.8853295, 48.6295619 ], [ -70.8832184, 48.6554645 ], [ -70.9160301, 48.6696235 ], [ -70.9509401, 48.657869 ], [ -70.9530168, 48.6319641 ], [ -70.9202179, 48.617816 ], [ -70.8853295, 48.6295619 ] ] ] } },
{ "type": "Feature", "properties": { "hex_id": 7823, "count": 2, "date": "2025-11-26", "n_files": 22, "pct": 9.09 }, "geometry": { "type": "Polygon", "coordinates": [ [ [ -71.0782866, 45.6354878 ], [ -71.0764743, 45.6614102 ], [ -71.1075913, 45.6754686 ], [ -71.1405095, 45.6635948 ], [ -71.1422924, 45.6376704 ], [ -71.1111864, 45.6236218 ], [ -71.0782866, 45.6354878 ] ] ] } },
{ "type": "Feature", "properties": { "hex_id": 7860, "count": 4, "date": "2025-11-26", "n_files": 22, "pct": 18.18 }, "geometry": { "type": "Polygon", "coordinates": [ [ [ -70.8610296, 48.5117865 ], [ -70.8589148, 48.5376889 ], [ -70.8916449, 48.5518528 ], [ -70.9264772, 48.5401034 ], [ -70.9285577, 48.5141988 ], [ -70.8958402, 48.5000458 ], [ -70.8610296, 48.5117865 ] ] ] } },
{ "type": "Feature", "properties": { "hex_id": 7861, "count": 14, "date": "2025-11-26", "n_files": 22, "pct": 63.64 }, "geometry": { "type": "Polygon", "coordinates": [ [ [ -70.8546762, 48.5894932 ], [ -70.8525523, 48.615395 ], [ -70.8853295, 48.6295619 ], [ -70.9202179, 48.617816 ], [ -70.9223073, 48.591912 ], [ -70.8895428, 48.577756 ], [ -70.8546762, 48.5894932 ] ] ] } },
{ "type": "Feature", "properties": { "hex_id": 7862, "count": 4, "date": "2025-11-26", "n_files": 22, "pct": 18.18 }, "geometry": { "type": "Polygon", "coordinates": [ [ [ -70.8482956, 48.6671981 ], [ -70.8461627, 48.6930994 ], [ -70.8789872, 48.7072693 ], [ -70.9139318, 48.695527 ], [ -70.9160301, 48.6696235 ], [ -70.8832184, 48.6554645 ], [ -70.8482956, 48.6671981 ] ] ] } },
{ "type": "Feature", "properties": { "hex_id": 7925, "count": 4, "date": "2025-11-26", "n_files": 22, "pct": 18.18 }, "geometry": { "type": "Polygon", "coordinates": [ [ [ -70.8240698, 48.5494174 ], [ -70.8219334, 48.5753185 ], [ -70.8546762, 48.5894932 ], [ -70.8895428, 48.577756 ], [ -70.8916449, 48.5518528 ], [ -70.8589148, 48.5376889 ], [ -70.8240698, 48.5494174 ] ] ] } },
{ "type": "Feature", "properties": { "hex_id": 7926, "count": 15, "date": "2025-11-26", "n_files": 22, "pct": 68.18 }, "geometry": { "type": "Polygon", "coordinates": [ [ [ -70.8176513, 48.6271199 ], [ -70.8155057, 48.6530204 ], [ -70.8482956, 48.6671981 ], [ -70.8832184, 48.6554645 ], [ -70.8853295, 48.6295619 ], [ -70.8525523, 48.615395 ], [ -70.8176513, 48.6271199 ] ] ] } },
{ "type": "Feature", "properties": { "hex_id": 7927, "count": 4, "date": "2025-11-26", "n_files": 22, "pct": 18.18 }, "geometry": { "type": "Polygon", "coordinates": [ [ [ -70.8112054, 48.7048207 ], [ -70.8090506, 48.7307206 ], [ -70.8418878, 48.7449014 ], [ -70.876867, 48.7331714 ], [ -70.8789872, 48.7072693 ], [ -70.8461627, 48.6930994 ], [ -70.8112054, 48.7048207 ] ] ] } },
{ "type": "Feature", "properties": { "hex_id": 7989, "count": 14, "date": "2025-11-26", "n_files": 22, "pct": 63.64 }, "geometry": { "type": "Polygon", "coordinates": [ [ [ -70.7870541, 48.5870347 ], [ -70.7848959, 48.6129343 ], [ -70.8176513, 48.6271199 ], [ -70.8525523, 48.615395 ], [ -70.8546762, 48.5894932 ], [ -70.8219334, 48.5753185 ], [ -70.7870541, 48.5870347 ] ] ] } },
{ "type": "Feature", "properties": { "hex_id": 7990, "count": 4, "date": "2025-11-26", "n_files": 22, "pct": 18.18 }, "geometry": { "type": "Polygon", "coordinates": [ [ [ -70.7805702, 48.664733 ], [ -70.7784028, 48.6906321 ], [ -70.8112054, 48.7048207 ], [ -70.8461627, 48.6930994 ], [ -70.8482956, 48.6671981 ], [ -70.8155057, 48.6530204 ], [ -70.7805702, 48.664733 ] ] ] } },
{ "type": "Feature", "properties": { "hex_id": 8054, "count": 14, "date": "2025-11-26", "n_files": 22, "pct": 63.64 }, "geometry": { "type": "Polygon", "coordinates": [ [ [ -70.7499822, 48.6246383 ], [ -70.7478022, 48.6505365 ], [ -70.7805702, 48.664733 ], [ -70.8155057, 48.6530204 ], [ -70.8176513, 48.6271199 ], [ -70.7848959, 48.6129343 ], [ -70.7499822, 48.6246383 ] ] ] } },
{ "type": "Feature", "properties": { "hex_id": 8470, "count": 3, "date": "2025-11-26", "n_files": 22, "pct": 13.64 }, "geometry": { "type": "Polygon", "coordinates": [ [ [ -70.716663900000015, 46.1681537 ], [ -70.7146478, 46.1940619 ], [ -70.7459562, 46.2082253 ], [ -70.7792699, 46.196470399999988 ], [ -70.7812559, 46.1705601 ], [ -70.749958400000011, 46.1564067 ], [ -70.716663900000015, 46.1681537 ] ] ] } },
{ "type": "Feature", "properties": { "hex_id": 8534, "count": 3, "date": "2025-11-26", "n_files": 22, "pct": 13.64 }, "geometry": { "type": "Polygon", "coordinates": [ [ [ -70.6874127, 46.1280758 ], [ -70.6853856, 46.1539832 ], [ -70.716663900000015, 46.1681537 ], [ -70.749958400000011, 46.1564067 ], [ -70.7519553, 46.1304971 ], [ -70.7206879, 46.1163367 ], [ -70.6874127, 46.1280758 ] ] ] } },
{ "type": "Feature", "properties": { "hex_id": 8598, "count": 3, "date": "2025-11-26", "n_files": 22, "pct": 13.64 }, "geometry": { "type": "Polygon", "coordinates": [ [ [ -70.6520803, 46.1657109 ], [ -70.650034, 46.1916169 ], [ -70.6813232, 46.2057975 ], [ -70.7146478, 46.1940619 ], [ -70.716663900000015, 46.1681537 ], [ -70.6853856, 46.1539832 ], [ -70.6520803, 46.1657109 ] ] ] } },
{ "type": "Feature", "properties": { "hex_id": 8792, "count": 3, "date": "2025-11-26", "n_files": 22, "pct": 13.64 }, "geometry": { "type": "Polygon", "coordinates": [ [ [ -70.545786, 46.278539 ], [ -70.5436815, 46.3044408 ], [ -70.5750033, 46.3186517 ], [ -70.6084188, 46.3069505 ], [ -70.610493, 46.2810465 ], [ -70.579182, 46.2668458 ], [ -70.545786, 46.278539 ] ] ] } },
{ "type": "Feature", "properties": { "hex_id": 8856, "count": 5, "date": "2025-11-26", "n_files": 22, "pct": 22.73 }, "geometry": { "type": "Polygon", "coordinates": [ [ [ -70.5102552, 46.3161225 ], [ -70.5081311, 46.3420229 ], [ -70.5394638, 46.3562439 ], [ -70.5729097, 46.3445543 ], [ -70.5750033, 46.3186517 ], [ -70.5436815, 46.3044408 ], [ -70.5102552, 46.3161225 ] ] ] } },
{ "type": "Feature", "properties": { "hex_id": 8865, "count": 7, "date": "2025-11-26", "n_files": 22, "pct": 31.82 }, "geometry": { "type": "Polygon", "coordinates": [ [ [ -70.4518646, 47.0153643 ], [ -70.4496598, 47.0412594 ], [ -70.4813704, 47.055509 ], [ -70.5152746, 47.0438531 ], [ -70.5174479, 47.0179556 ], [ -70.4857485, 47.0037164 ], [ -70.4518646, 47.0153643 ] ] ] } },
{ "type": "Feature", "properties": { "hex_id": 8920, "count": 2, "date": "2025-11-26", "n_files": 22, "pct": 9.09 }, "geometry": { "type": "Polygon", "coordinates": [ [ [ -70.4810878, 46.2759951 ], [ -70.4789529, 46.3018946 ], [ -70.5102552, 46.3161225 ], [ -70.5436815, 46.3044408 ], [ -70.545786, 46.278539 ], [ -70.5144945, 46.2643212 ], [ -70.4810878, 46.2759951 ] ] ] } },
{ "type": "Feature", "properties": { "hex_id": 8984, "count": 2, "date": "2025-11-26", "n_files": 22, "pct": 9.09 }, "geometry": { "type": "Polygon", "coordinates": [ [ [ -70.4455158, 46.3135569 ], [ -70.4433614, 46.3394549 ], [ -70.4746744, 46.353693 ], [ -70.5081311, 46.3420229 ], [ -70.5102552, 46.3161225 ], [ -70.4789529, 46.3018946 ], [ -70.4455158, 46.3135569 ] ] ] } },
{ "type": "Feature", "properties": { "hex_id": 10857, "count": 3, "date": "2025-11-26", "n_files": 22, "pct": 13.64 }, "geometry": { "type": "Polygon", "coordinates": [ [ [ -69.375108, 47.5520923 ], [ -69.3723311, 47.5779416 ], [ -69.4040341, 47.5924906 ], [ -69.4385037, 47.5811794 ], [ -69.4412483, 47.5553272 ], [ -69.4095556, 47.540789 ], [ -69.375108, 47.5520923 ] ] ] } },
{ "type": "Feature", "properties": { "hex_id": 10921, "count": 3, "date": "2025-11-26", "n_files": 22, "pct": 13.64 }, "geometry": { "type": "Polygon", "coordinates": [ [ [ -69.3378512, 47.5892323 ], [ -69.335052300000015, 47.6150798 ], [ -69.3667656, 47.6296395 ], [ -69.4012675, 47.618341 ], [ -69.4040341, 47.5924906 ], [ -69.3723311, 47.5779416 ], [ -69.3378512, 47.5892323 ] ] ] } },
{ "type": "Feature", "properties": { "hex_id": 10985, "count": 3, "date": "2025-11-26", "n_files": 22, "pct": 13.64 }, "geometry": { "type": "Polygon", "coordinates": [ [ [ -69.3089793, 47.5488195 ], [ -69.3061702, 47.5746658 ], [ -69.3378512, 47.5892323 ], [ -69.3723311, 47.5779416 ], [ -69.375108, 47.5520923 ], [ -69.3434372, 47.5375366 ], [ -69.3089793, 47.5488195 ] ] ] } }
]
}
