{
"type": "FeatureCollection",
"name": "daily_2026-01-23",
"crs": { "type": "name", "properties": { "name": "urn:ogc:def:crs:OGC:1.3:CRS84" } },
"features": [
{ "type": "Feature", "properties": { "hex_id": 779742, "centroid_lon": -71.331345151533398, "centroid_lat": 46.805066242518869, "occurrences_today": 3, "datetimes_today": "2026-01-23 00:01:36, 2026-01-23 00:16:52, 2026-01-23 00:32:14", "cumulative_total": 16.0 }, "geometry": { "type": "Polygon", "coordinates": [ [ [ -71.331698073722677, 46.799881285340206 ], [ -71.3380608393811, 46.802683454074078 ], [ -71.337708494038765, 46.807868445646804 ], [ -71.330992131526642, 46.810251192933478 ], [ -71.32462888685572, 46.807448618542857 ], [ -71.324982483675527, 46.802263702589023 ], [ -71.331698073722677, 46.799881285340206 ] ] ] } },
{ "type": "Feature", "properties": { "hex_id": 780963, "centroid_lon": -71.318266316987746, "centroid_lat": 46.804645707396226, "occurrences_today": 4, "datetimes_today": "2026-01-23 00:01:36, 2026-01-23 00:16:52, 2026-01-23 00:32:14, 2026-01-23 00:45:07", "cumulative_total": 17.0 }, "geometry": { "type": "Polygon", "coordinates": [ [ [ -71.318620490431201, 46.799460825963017 ], [ -71.324982483675527, 46.802263702589023 ], [ -71.32462888685572, 46.807448618542857 ], [ -71.317912045381973, 46.809830582050964 ], [ -71.311549573693298, 46.80702729966675 ], [ -71.311904421888741, 46.801842459599342 ], [ -71.318620490431201, 46.799460825963017 ] ] ] } },
{ "type": "Feature", "properties": { "hex_id": 781574, "centroid_lon": -71.311194627146151, "centroid_lat": 46.812212132948112, "occurrences_today": 3, "datetimes_today": "2026-01-23 00:01:36, 2026-01-23 00:16:52, 2026-01-23 00:32:14", "cumulative_total": 30.0 }, "geometry": { "type": "Polygon", "coordinates": [ [ [ -71.311549573693298, 46.80702729966675 ], [ -71.317912045381973, 46.809830582050964 ], [ -71.317557675579906, 46.81501544992652 ], [ -71.310839582213205, 46.817396959442704 ], [ -71.304476632182315, 46.814593271139238 ], [ -71.304832253826248, 46.80940847930556 ], [ -71.311549573693298, 46.80702729966675 ] ] ] } },
{ "type": "Feature", "properties": { "hex_id": 779743, "centroid_lon": -71.330285797925043, "centroid_lat": 46.820621073467748, "occurrences_today": 4, "datetimes_today": "2026-01-23 00:01:36, 2026-01-23 00:16:52, 2026-01-23 00:32:14, 2026-01-23 00:45:07", "cumulative_total": 16.0 }, "geometry": { "type": "Polygon", "coordinates": [ [ [ -71.330639013668502, 46.81543613658333 ], [ -71.33700351033427, 46.818238408519953 ], [ -71.336650871904425, 46.823423379818955 ], [ -71.329932484262386, 46.825806003586003 ], [ -71.323567508219199, 46.8230033257719 ], [ -71.323921399161534, 46.817818430134999 ], [ -71.330639013668502, 46.81543613658333 ] ] ] } },
{ "type": "Feature", "properties": { "hex_id": 779132, "centroid_lon": -71.337356051034419, "centroid_lat": 46.813053430462325, "occurrences_today": 4, "datetimes_today": "2026-01-23 00:01:36, 2026-01-23 00:16:52, 2026-01-23 00:32:14, 2026-01-23 00:45:07", "cumulative_total": 4.0 }, "geometry": { "type": "Polygon", "coordinates": [ [ [ -71.337708494038765, 46.807868445646804 ], [ -71.344072511225448, 46.810670311867092 ], [ -71.343720645412958, 46.815855331023648 ], [ -71.33700351033427, 46.818238408519953 ], [ -71.330639013668502, 46.81543613658333 ], [ -71.330992131526642, 46.810251192933478 ], [ -71.337708494038765, 46.807868445646804 ] ] ] } },
{ "type": "Feature", "properties": { "hex_id": 780353, "centroid_lon": -71.324275192029035, "centroid_lat": 46.812633527725069, "occurrences_today": 4, "datetimes_today": "2026-01-23 00:01:36, 2026-01-23 00:16:52, 2026-01-23 00:32:14, 2026-01-23 00:45:07", "cumulative_total": 4.0 }, "geometry": { "type": "Polygon", "coordinates": [ [ [ -71.32462888685572, 46.807448618542857 ], [ -71.330992131526642, 46.810251192933478 ], [ -71.330639013668502, 46.81543613658333 ], [ -71.323921399161534, 46.817818430134999 ], [ -71.317557675579906, 46.81501544992652 ], [ -71.317912045381973, 46.809830582050964 ], [ -71.32462888685572, 46.807448618542857 ] ] ] } }
]
}
