{
"type": "FeatureCollection",
"name": "daily_2025-12-11",
"crs": { "type": "name", "properties": { "name": "urn:ogc:def:crs:OGC:1.3:CRS84" } },
"features": [
{ "type": "Feature", "properties": { "hex_id": 404, "count": 9, "date": "2025-12-11", "n_files": 16, "pct": 56.25 }, "geometry": { "type": "Polygon", "coordinates": [ [ [ -74.797549, 46.0924044 ], [ -74.7974539, 46.1183855 ], [ -74.8297691, 46.1314288 ], [ -74.8621643, 46.1184819 ], [ -74.8622291, 46.0925007 ], [ -74.8299289, 46.0794665 ], [ -74.797549, 46.0924044 ] ] ] } },
{ "type": "Feature", "properties": { "hex_id": 405, "count": 9, "date": "2025-12-11", "n_files": 16, "pct": 56.25 }, "geometry": { "type": "Polygon", "coordinates": [ [ [ -74.7972633, 46.1703474 ], [ -74.7971677, 46.1963282 ], [ -74.8295285, 46.2093714 ], [ -74.8619696, 46.1964248 ], [ -74.8620346, 46.1704439 ], [ -74.829689, 46.1574098 ], [ -74.7972633, 46.1703474 ] ] ] } },
{ "type": "Feature", "properties": { "hex_id": 469, "count": 9, "date": "2025-12-11", "n_files": 16, "pct": 56.25 }, "geometry": { "type": "Polygon", "coordinates": [ [ [ -74.7650436, 46.1313141 ], [ -74.7649331, 46.157295 ], [ -74.7972633, 46.1703474 ], [ -74.829689, 46.1574098 ], [ -74.8297691, 46.1314288 ], [ -74.7974539, 46.1183855 ], [ -74.7650436, 46.1313141 ] ] ] } },
{ "type": "Feature", "properties": { "hex_id": 532, "count": 9, "date": "2025-12-11", "n_files": 16, "pct": 56.25 }, "geometry": { "type": "Polygon", "coordinates": [ [ [ -74.7328694, 46.0922716 ], [ -74.7327439, 46.1182526 ], [ -74.7650436, 46.1313141 ], [ -74.7974539, 46.1183855 ], [ -74.797549, 46.0924044 ], [ -74.7652643, 46.079352 ], [ -74.7328694, 46.0922716 ] ] ] } },
{ "type": "Feature", "properties": { "hex_id": 533, "count": 9, "date": "2025-12-11", "n_files": 16, "pct": 56.25 }, "geometry": { "type": "Polygon", "coordinates": [ [ [ -74.7324923, 46.1702142 ], [ -74.7323663, 46.1961948 ], [ -74.7647115, 46.2092564 ], [ -74.7971677, 46.1963282 ], [ -74.7972633, 46.1703474 ], [ -74.7649331, 46.157295 ], [ -74.7324923, 46.1702142 ] ] ] } },
{ "type": "Feature", "properties": { "hex_id": 597, "count": 9, "date": "2025-12-11", "n_files": 16, "pct": 56.25 }, "geometry": { "type": "Polygon", "coordinates": [ [ [ -74.7003186, 46.1311627 ], [ -74.7001776, 46.1571435 ], [ -74.7324923, 46.1702142 ], [ -74.7649331, 46.157295 ], [ -74.7650436, 46.1313141 ], [ -74.7327439, 46.1182526 ], [ -74.7003186, 46.1311627 ] ] ] } },
{ "type": "Feature", "properties": { "hex_id": 659, "count": 7, "date": "2025-12-11", "n_files": 16, "pct": 43.75 }, "geometry": { "type": "Polygon", "coordinates": [ [ [ -74.6686567, 46.0141589 ], [ -74.6685014, 46.040140099999988 ], [ -74.7007404, 46.0532198 ], [ -74.7331199, 46.0403092 ], [ -74.7332449, 46.0143279 ], [ -74.7010207, 46.0012572 ], [ -74.6686567, 46.0141589 ] ] ] } },
{ "type": "Feature", "properties": { "hex_id": 660, "count": 9, "date": "2025-12-11", "n_files": 16, "pct": 56.25 }, "geometry": { "type": "Polygon", "coordinates": [ [ [ -74.6681902, 46.0921021 ], [ -74.6680343, 46.1180829 ], [ -74.7003186, 46.1311627 ], [ -74.7327439, 46.1182526 ], [ -74.7328694, 46.0922716 ], [ -74.7006, 46.079200899999989 ], [ -74.6681902, 46.0921021 ] ] ] } },
{ "type": "Feature", "properties": { "hex_id": 724, "count": 7, "date": "2025-12-11", "n_files": 16, "pct": 43.75 }, "geometry": { "type": "Polygon", "coordinates": [ [ [ -74.6361071, 46.0530323 ], [ -74.6359364, 46.0790132 ], [ -74.6681902, 46.0921021 ], [ -74.7006, 46.079200899999989 ], [ -74.7007404, 46.0532198 ], [ -74.6685014, 46.040140099999988 ], [ -74.6361071, 46.0530323 ] ] ] } },
{ "type": "Feature", "properties": { "hex_id": 725, "count": 9, "date": "2025-12-11", "n_files": 16, "pct": 56.25 }, "geometry": { "type": "Polygon", "coordinates": [ [ [ -74.6355942, 46.1309747 ], [ -74.6354227, 46.1569553 ], [ -74.6677219, 46.1700443 ], [ -74.7001776, 46.1571435 ], [ -74.7003186, 46.1311627 ], [ -74.6680343, 46.1180829 ], [ -74.6355942, 46.1309747 ] ] ] } },
{ "type": "Feature", "properties": { "hex_id": 787, "count": 7, "date": "2025-12-11", "n_files": 16, "pct": 43.75 }, "geometry": { "type": "Polygon", "coordinates": [ [ [ -74.6040691, 46.0139534 ], [ -74.6038836, 46.0399344 ], [ -74.6361071, 46.0530323 ], [ -74.6685014, 46.040140099999988 ], [ -74.6686567, 46.0141589 ], [ -74.6364479, 46.0010701 ], [ -74.6040691, 46.0139534 ] ] ] } },
{ "type": "Feature", "properties": { "hex_id": 788, "count": 9, "date": "2025-12-11", "n_files": 16, "pct": 56.25 }, "geometry": { "type": "Polygon", "coordinates": [ [ [ -74.6035117, 46.091896 ], [ -74.6033254, 46.1178767 ], [ -74.6355942, 46.1309747 ], [ -74.6680343, 46.1180829 ], [ -74.6681902, 46.0921021 ], [ -74.6359364, 46.0790132 ], [ -74.6035117, 46.091896 ] ] ] } },
{ "type": "Feature", "properties": { "hex_id": 852, "count": 7, "date": "2025-12-11", "n_files": 16, "pct": 43.75 }, "geometry": { "type": "Polygon", "coordinates": [ [ [ -74.5714745, 46.0528082 ], [ -74.5712734, 46.078789 ], [ -74.6035117, 46.091896 ], [ -74.6359364, 46.0790132 ], [ -74.6361071, 46.0530323 ], [ -74.6038836, 46.0399344 ], [ -74.5714745, 46.0528082 ] ] ] } },
{ "type": "Feature", "properties": { "hex_id": 853, "count": 7, "date": "2025-12-11", "n_files": 16, "pct": 43.75 }, "geometry": { "type": "Polygon", "coordinates": [ [ [ -74.5708704, 46.1307501 ], [ -74.5706685, 46.1567304 ], [ -74.6029521, 46.1698377 ], [ -74.6354227, 46.1569553 ], [ -74.6355942, 46.1309747 ], [ -74.6033254, 46.1178767 ], [ -74.5708704, 46.1307501 ] ] ] } },
{ "type": "Feature", "properties": { "hex_id": 916, "count": 7, "date": "2025-12-11", "n_files": 16, "pct": 43.75 }, "geometry": { "type": "Polygon", "coordinates": [ [ [ -74.538834, 46.0916534 ], [ -74.5386173, 46.1176338 ], [ -74.5708704, 46.1307501 ], [ -74.6033254, 46.1178767 ], [ -74.6035117, 46.091896 ], [ -74.5712734, 46.078789 ], [ -74.538834, 46.0916534 ] ] ] } },
{ "type": "Feature", "properties": { "hex_id": 1490, "count": 2, "date": "2025-12-11", "n_files": 16, "pct": 12.5 }, "geometry": { "type": "Polygon", "coordinates": [ [ [ -74.2504323, 45.895262 ], [ -74.2500825, 45.9212419 ], [ -74.2821529, 45.9344389 ], [ -74.3145588, 45.9216468 ], [ -74.3148785, 45.8956665 ], [ -74.2828224, 45.8824787 ], [ -74.2504323, 45.895262 ] ] ] } },
{ "type": "Feature", "properties": { "hex_id": 1553, "count": 2, "date": "2025-12-11", "n_files": 16, "pct": 12.5 }, "geometry": { "type": "Polygon", "coordinates": [ [ [ -74.218756, 45.8560762 ], [ -74.2183919, 45.8820561 ], [ -74.2504323, 45.895262 ], [ -74.2828224, 45.8824787 ], [ -74.2831565, 45.8564984 ], [ -74.2511304, 45.8433017 ], [ -74.218756, 45.8560762 ] ] ] } },
{ "type": "Feature", "properties": { "hex_id": 1618, "count": 2, "date": "2025-12-11", "n_files": 16, "pct": 12.5 }, "geometry": { "type": "Polygon", "coordinates": [ [ [ -74.1859875, 45.894821 ], [ -74.1856077, 45.9208006 ], [ -74.2176623, 45.9340156 ], [ -74.2500825, 45.9212419 ], [ -74.2504323, 45.895262 ], [ -74.2183919, 45.8820561 ], [ -74.1859875, 45.894821 ] ] ] } },
{ "type": "Feature", "properties": { "hex_id": 1684, "count": 2, "date": "2025-12-11", "n_files": 16, "pct": 12.5 }, "geometry": { "type": "Polygon", "coordinates": [ [ [ -74.1507908, 46.089429 ], [ -74.1503918, 46.1154075 ], [ -74.1825499, 46.1286326 ], [ -74.215092700000014, 46.1158701 ], [ -74.2154613, 46.0898912 ], [ -74.1833175, 46.0766753 ], [ -74.1507908, 46.089429 ] ] ] } },
{ "type": "Feature", "properties": { "hex_id": 1738, "count": 4, "date": "2025-12-11", "n_files": 16, "pct": 25.0 }, "geometry": { "type": "Polygon", "coordinates": [ [ [ -74.131216, 45.2708085 ], [ -74.1308193, 45.2967905 ], [ -74.1625093, 45.3100198 ], [ -74.1945822, 45.297258 ], [ -74.1949498, 45.2712755 ], [ -74.1632736, 45.2580553 ], [ -74.131216, 45.2708085 ] ] ] } },
{ "type": "Feature", "properties": { "hex_id": 1740, "count": 1, "date": "2025-12-11", "n_files": 16, "pct": 6.25 }, "geometry": { "type": "Polygon", "coordinates": [ [ [ -74.1288277, 45.4266989 ], [ -74.1284277, 45.4526802 ], [ -74.1602039, 45.4659103 ], [ -74.1923661, 45.4531502 ], [ -74.1927367, 45.4271684 ], [ -74.1609745, 45.4139473 ], [ -74.1288277, 45.4266989 ] ] ] } },
{ "type": "Feature", "properties": { "hex_id": 1748, "count": 2, "date": "2025-12-11", "n_files": 16, "pct": 12.5 }, "geometry": { "type": "Polygon", "coordinates": [ [ [ -74.1190763, 46.0502167 ], [ -74.118663, 46.0761951 ], [ -74.1507908, 46.089429 ], [ -74.1833175, 46.0766753 ], [ -74.1837005, 46.0506965 ], [ -74.1515871, 46.0374718 ], [ -74.1190763, 46.0502167 ] ] ] } },
{ "type": "Feature", "properties": { "hex_id": 1749, "count": 2, "date": "2025-12-11", "n_files": 16, "pct": 12.5 }, "geometry": { "type": "Polygon", "coordinates": [ [ [ -74.1178347, 46.1281515 ], [ -74.1174197, 46.1541295 ], [ -74.1495922, 46.167364 ], [ -74.1821654, 46.1546111 ], [ -74.1825499, 46.1286326 ], [ -74.1503918, 46.1154075 ], [ -74.1178347, 46.1281515 ] ] ] } },
{ "type": "Feature", "properties": { "hex_id": 1802, "count": 4, "date": "2025-12-11", "n_files": 16, "pct": 25.0 }, "geometry": { "type": "Polygon", "coordinates": [ [ [ -74.0987326, 45.309534299999989 ], [ -74.0983205, 45.3355159 ], [ -74.1300243, 45.3487542 ], [ -74.1621264, 45.3360018 ], [ -74.1625093, 45.3100198 ], [ -74.1308193, 45.2967905 ], [ -74.0987326, 45.309534299999989 ] ] ] } },
{ "type": "Feature", "properties": { "hex_id": 1803, "count": 1, "date": "2025-12-11", "n_files": 16, "pct": 6.25 }, "geometry": { "type": "Polygon", "coordinates": [ [ [ -74.0974946, 45.3874788 ], [ -74.0970809, 45.4134601 ], [ -74.1288277, 45.4266989 ], [ -74.1609745, 45.4139473 ], [ -74.161359, 45.3879656 ], [ -74.129626, 45.3747359 ], [ -74.0974946, 45.3874788 ] ] ] } },
{ "type": "Feature", "properties": { "hex_id": 1811, "count": 2, "date": "2025-12-11", "n_files": 16, "pct": 12.5 }, "geometry": { "type": "Polygon", "coordinates": [ [ [ -74.0874065, 46.0109956 ], [ -74.0869789, 46.0369739 ], [ -74.1190763, 46.0502167 ], [ -74.1515871, 46.0374718 ], [ -74.1519844, 46.011493 ], [ -74.1199013, 45.998259499999989 ], [ -74.0874065, 46.0109956 ] ] ] } },
{ "type": "Feature", "properties": { "hex_id": 1812, "count": 2, "date": "2025-12-11", "n_files": 16, "pct": 12.5 }, "geometry": { "type": "Polygon", "coordinates": [ [ [ -74.0861219, 46.0889303 ], [ -74.0856926, 46.1149082 ], [ -74.1178347, 46.1281515 ], [ -74.1503918, 46.1154075 ], [ -74.1507908, 46.089429 ], [ -74.118663, 46.0761951 ], [ -74.0861219, 46.0889303 ] ] ] } },
{ "type": "Feature", "properties": { "hex_id": 1815, "count": 5, "date": "2025-12-11", "n_files": 16, "pct": 31.25 }, "geometry": { "type": "Polygon", "coordinates": [ [ [ -74.0822364, 46.3227277 ], [ -74.0818017, 46.3487046 ], [ -74.1140788, 46.3619494 ], [ -74.1467762, 46.3492079 ], [ -74.1471801, 46.3232305 ], [ -74.1149175, 46.3099951 ], [ -74.0822364, 46.3227277 ] ] ] } },
{ "type": "Feature", "properties": { "hex_id": 1866, "count": 4, "date": "2025-12-11", "n_files": 16, "pct": 25.0 }, "geometry": { "type": "Polygon", "coordinates": [ [ [ -74.0674837, 45.2703059 ], [ -74.0670579, 45.2962874 ], [ -74.0987326, 45.309534299999989 ], [ -74.1308193, 45.2967905 ], [ -74.131216, 45.2708085 ], [ -74.099555, 45.2575707 ], [ -74.0674837, 45.2703059 ] ] ] } },
{ "type": "Feature", "properties": { "hex_id": 1867, "count": 2, "date": "2025-12-11", "n_files": 16, "pct": 12.5 }, "geometry": { "type": "Polygon", "coordinates": [ [ [ -74.0662046, 45.3482502 ], [ -74.0657771, 45.3742315 ], [ -74.0974946, 45.3874788 ], [ -74.129626, 45.3747359 ], [ -74.1300243, 45.3487542 ], [ -74.0983205, 45.3355159 ], [ -74.0662046, 45.3482502 ] ] ] } },
{ "type": "Feature", "properties": { "hex_id": 1875, "count": 2, "date": "2025-12-11", "n_files": 16, "pct": 12.5 }, "geometry": { "type": "Polygon", "coordinates": [ [ [ -74.0557811, 45.9717658 ], [ -74.0553393, 45.9977441 ], [ -74.0874065, 46.0109956 ], [ -74.1199013, 45.998259499999989 ], [ -74.1203129, 45.9722808 ], [ -74.0882599, 45.9590385 ], [ -74.0557811, 45.9717658 ] ] ] } },
{ "type": "Feature", "properties": { "hex_id": 1876, "count": 2, "date": "2025-12-11", "n_files": 16, "pct": 12.5 }, "geometry": { "type": "Polygon", "coordinates": [ [ [ -74.0544538, 46.0497003 ], [ -74.0540102, 46.0756782 ], [ -74.0861219, 46.0889303 ], [ -74.118663, 46.0761951 ], [ -74.1190763, 46.0502167 ], [ -74.0869789, 46.0369739 ], [ -74.0544538, 46.0497003 ] ] ] } },
{ "type": "Feature", "properties": { "hex_id": 1877, "count": 3, "date": "2025-12-11", "n_files": 16, "pct": 18.75 }, "geometry": { "type": "Polygon", "coordinates": [ [ [ -74.0531211, 46.1276337 ], [ -74.0526757, 46.1536113 ], [ -74.0848321, 46.1668638 ], [ -74.1174197, 46.1541295 ], [ -74.1178347, 46.1281515 ], [ -74.0856926, 46.1149082 ], [ -74.0531211, 46.1276337 ] ] ] } },
{ "type": "Feature", "properties": { "hex_id": 1880, "count": 5, "date": "2025-12-11", "n_files": 16, "pct": 31.25 }, "geometry": { "type": "Polygon", "coordinates": [ [ [ -74.0490899, 46.3614274 ], [ -74.0486388, 46.3874038 ], [ -74.0809305, 46.400658 ], [ -74.1136586, 46.3879263 ], [ -74.1140788, 46.3619494 ], [ -74.0818017, 46.3487046 ], [ -74.0490899, 46.3614274 ] ] ] } },
{ "type": "Feature", "properties": { "hex_id": 1930, "count": 4, "date": "2025-12-11", "n_files": 16, "pct": 25.0 }, "geometry": { "type": "Polygon", "coordinates": [ [ [ -74.0349575, 45.3090132 ], [ -74.0345163, 45.3349944 ], [ -74.0662046, 45.3482502 ], [ -74.0983205, 45.3355159 ], [ -74.0987326, 45.309534299999989 ], [ -74.0670579, 45.2962874 ], [ -74.0349575, 45.3090132 ] ] ] } },
{ "type": "Feature", "properties": { "hex_id": 1938, "count": 2, "date": "2025-12-11", "n_files": 16, "pct": 12.5 }, "geometry": { "type": "Polygon", "coordinates": [ [ [ -74.0242, 45.9325273 ], [ -74.023744, 45.9585056 ], [ -74.0557811, 45.9717658 ], [ -74.0882599, 45.9590385 ], [ -74.0886857, 45.9330598 ], [ -74.0566628, 45.9198088 ], [ -74.0242, 45.9325273 ] ] ] } },
{ "type": "Feature", "properties": { "hex_id": 1939, "count": 2, "date": "2025-12-11", "n_files": 16, "pct": 12.5 }, "geometry": { "type": "Polygon", "coordinates": [ [ [ -74.0228303, 46.0104617 ], [ -74.0223724, 46.0364395 ], [ -74.0544538, 46.0497003 ], [ -74.0869789, 46.0369739 ], [ -74.0874065, 46.0109956 ], [ -74.0553393, 45.9977441 ], [ -74.0228303, 46.0104617 ] ] ] } },
{ "type": "Feature", "properties": { "hex_id": 1940, "count": 3, "date": "2025-12-11", "n_files": 16, "pct": 18.75 }, "geometry": { "type": "Polygon", "coordinates": [ [ [ -74.0214549, 46.0883949 ], [ -74.0209951, 46.1143724 ], [ -74.0531211, 46.1276337 ], [ -74.0856926, 46.1149082 ], [ -74.0861219, 46.0889303 ], [ -74.0540102, 46.0756782 ], [ -74.0214549, 46.0883949 ] ] ] } },
{ "type": "Feature", "properties": { "hex_id": 1943, "count": 5, "date": "2025-12-11", "n_files": 16, "pct": 31.25 }, "geometry": { "type": "Polygon", "coordinates": [ [ [ -74.0172945, 46.322188 ], [ -74.016829, 46.3481644 ], [ -74.0490899, 46.3614274 ], [ -74.0818017, 46.3487046 ], [ -74.0822364, 46.3227277 ], [ -74.04999, 46.3094741 ], [ -74.0172945, 46.322188 ] ] ] } },
{ "type": "Feature", "properties": { "hex_id": 1994, "count": 2, "date": "2025-12-11", "n_files": 16, "pct": 12.5 }, "geometry": { "type": "Polygon", "coordinates": [ [ [ -74.0037532, 45.269767699999989 ], [ -74.0032983, 45.2957488 ], [ -74.0349575, 45.3090132 ], [ -74.0670579, 45.2962874 ], [ -74.0674837, 45.2703059 ], [ -74.0358381, 45.2570505 ], [ -74.0037532, 45.269767699999989 ] ] ] } },
{ "type": "Feature", "properties": { "hex_id": 1995, "count": 2, "date": "2025-12-11", "n_files": 16, "pct": 12.5 }, "geometry": { "type": "Polygon", "coordinates": [ [ [ -74.0023867, 45.3477106 ], [ -74.00193, 45.3736914 ], [ -74.033632, 45.3869563 ], [ -74.0657771, 45.3742315 ], [ -74.0662046, 45.3482502 ], [ -74.0345163, 45.3349944 ], [ -74.0023867, 45.3477106 ] ] ] } },
{ "type": "Feature", "properties": { "hex_id": 2003, "count": 2, "date": "2025-12-11", "n_files": 16, "pct": 12.5 }, "geometry": { "type": "Polygon", "coordinates": [ [ [ -73.9912511, 45.9712144 ], [ -73.9907791, 45.9971922 ], [ -74.0228303, 46.0104617 ], [ -74.0553393, 45.9977441 ], [ -74.0557811, 45.9717658 ], [ -74.023744, 45.9585056 ], [ -73.9912511, 45.9712144 ] ] ] } },
{ "type": "Feature", "properties": { "hex_id": 2004, "count": 2, "date": "2025-12-11", "n_files": 16, "pct": 12.5 }, "geometry": { "type": "Polygon", "coordinates": [ [ [ -73.9898332, 46.0491474 ], [ -73.9893592, 46.0751248 ], [ -74.0214549, 46.0883949 ], [ -74.0540102, 46.0756782 ], [ -74.0544538, 46.0497003 ], [ -74.0223724, 46.0364395 ], [ -73.9898332, 46.0491474 ] ] ] } },
{ "type": "Feature", "properties": { "hex_id": 2005, "count": 3, "date": "2025-12-11", "n_files": 16, "pct": 18.75 }, "geometry": { "type": "Polygon", "coordinates": [ [ [ -73.9884094, 46.1270793 ], [ -73.9879335, 46.1530564 ], [ -74.0200738, 46.166327 ], [ -74.0526757, 46.1536113 ], [ -74.0531211, 46.1276337 ], [ -74.0209951, 46.1143724 ], [ -73.9884094, 46.1270793 ] ] ] } },
{ "type": "Feature", "properties": { "hex_id": 2058, "count": 2, "date": "2025-12-11", "n_files": 16, "pct": 12.5 }, "geometry": { "type": "Polygon", "coordinates": [ [ [ -73.9711842, 45.3084565 ], [ -73.9707139, 45.3344372 ], [ -74.0023867, 45.3477106 ], [ -74.0345163, 45.3349944 ], [ -74.0349575, 45.3090132 ], [ -74.0032983, 45.2957488 ], [ -73.9711842, 45.3084565 ] ] ] } },
{ "type": "Feature", "properties": { "hex_id": 2066, "count": 2, "date": "2025-12-11", "n_files": 16, "pct": 12.5 }, "geometry": { "type": "Polygon", "coordinates": [ [ [ -73.9597161, 45.9319585 ], [ -73.9592301, 45.9579362 ], [ -73.9912511, 45.9712144 ], [ -74.023744, 45.9585056 ], [ -74.0242, 45.9325273 ], [ -73.9921931, 45.9192584 ], [ -73.9597161, 45.9319585 ] ] ] } },
{ "type": "Feature", "properties": { "hex_id": 2067, "count": 2, "date": "2025-12-11", "n_files": 16, "pct": 12.5 }, "geometry": { "type": "Polygon", "coordinates": [ [ [ -73.9582559, 46.0098913 ], [ -73.9577679, 46.0358686 ], [ -73.9898332, 46.0491474 ], [ -74.0223724, 46.0364395 ], [ -74.0228303, 46.0104617 ], [ -73.9907791, 45.9971922 ], [ -73.9582559, 46.0098913 ] ] ] } },
{ "type": "Feature", "properties": { "hex_id": 2068, "count": 3, "date": "2025-12-11", "n_files": 16, "pct": 18.75 }, "geometry": { "type": "Polygon", "coordinates": [ [ [ -73.9567897, 46.0878229 ], [ -73.9562996, 46.1137999 ], [ -73.9884094, 46.1270793 ], [ -74.0209951, 46.1143724 ], [ -74.0214549, 46.0883949 ], [ -73.9893592, 46.0751248 ], [ -73.9567897, 46.0878229 ] ] ] } },
{ "type": "Feature", "properties": { "hex_id": 2069, "count": 2, "date": "2025-12-11", "n_files": 16, "pct": 12.5 }, "geometry": { "type": "Polygon", "coordinates": [ [ [ -73.9553174, 46.1657535 ], [ -73.9548253, 46.1917301 ], [ -73.9869798, 46.2050101 ], [ -74.0196122, 46.1923041 ], [ -74.0200738, 46.166327 ], [ -73.9879335, 46.1530564 ], [ -73.9553174, 46.1657535 ] ] ] } },
{ "type": "Feature", "properties": { "hex_id": 2131, "count": 2, "date": "2025-12-11", "n_files": 16, "pct": 12.5 }, "geometry": { "type": "Polygon", "coordinates": [ [ [ -73.926723, 45.9706265 ], [ -73.9262208, 45.996603799999988 ], [ -73.9582559, 46.0098913 ], [ -73.9907791, 45.9971922 ], [ -73.9912511, 45.9712144 ], [ -73.9592301, 45.9579362 ], [ -73.926723, 45.9706265 ] ] ] } },
{ "type": "Feature", "properties": { "hex_id": 2132, "count": 2, "date": "2025-12-11", "n_files": 16, "pct": 12.5 }, "geometry": { "type": "Polygon", "coordinates": [ [ [ -73.92521450000001, 46.048558 ], [ -73.9247102, 46.0745349 ], [ -73.9567897, 46.0878229 ], [ -73.9893592, 46.0751248 ], [ -73.9898332, 46.0491474 ], [ -73.9577679, 46.0358686 ], [ -73.92521450000001, 46.048558 ] ] ] } },
{ "type": "Feature", "properties": { "hex_id": 2133, "count": 2, "date": "2025-12-11", "n_files": 16, "pct": 12.5 }, "geometry": { "type": "Polygon", "coordinates": [ [ [ -73.9236997, 46.1264883 ], [ -73.9231934, 46.1524648 ], [ -73.9553174, 46.1657535 ], [ -73.9879335, 46.1530564 ], [ -73.9884094, 46.1270793 ], [ -73.9562996, 46.1137999 ], [ -73.9236997, 46.1264883 ] ] ] } },
{ "type": "Feature", "properties": { "hex_id": 2191, "count": 3, "date": "2025-12-11", "n_files": 16, "pct": 18.75 }, "geometry": { "type": "Polygon", "coordinates": [ [ [ -73.8998482, 45.697553199999987 ], [ -73.8993383, 45.7235314 ], [ -73.9312115, 45.7368256 ], [ -73.9635807, 45.7241323 ], [ -73.9640608, 45.6981535 ], [ -73.9322015, 45.6848685 ], [ -73.8998482, 45.697553199999987 ] ] ] } },
{ "type": "Feature", "properties": { "hex_id": 2196, "count": 3, "date": "2025-12-11", "n_files": 16, "pct": 18.75 }, "geometry": { "type": "Polygon", "coordinates": [ [ [ -73.8921265, 46.0872144 ], [ -73.8916061, 46.1131909 ], [ -73.9236997, 46.1264883 ], [ -73.9562996, 46.1137999 ], [ -73.9567897, 46.0878229 ], [ -73.9247102, 46.0745349 ], [ -73.8921265, 46.0872144 ] ] ] } },
{ "type": "Feature", "properties": { "hex_id": 2197, "count": 2, "date": "2025-12-11", "n_files": 16, "pct": 12.5 }, "geometry": { "type": "Polygon", "coordinates": [ [ [ -73.890563, 46.1651434 ], [ -73.8900404, 46.1911194 ], [ -73.9221786, 46.2044175 ], [ -73.9548253, 46.1917301 ], [ -73.9553174, 46.1657535 ], [ -73.9231934, 46.1524648 ], [ -73.890563, 46.1651434 ] ] ] } },
{ "type": "Feature", "properties": { "hex_id": 2256, "count": 3, "date": "2025-12-11", "n_files": 16, "pct": 18.75 }, "geometry": { "type": "Polygon", "coordinates": [ [ [ -73.8669553, 45.7362064 ], [ -73.8664295, 45.7621842 ], [ -73.8983165, 45.7754876 ], [ -73.9307155, 45.762804 ], [ -73.9312115, 45.7368256 ], [ -73.8993383, 45.7235314 ], [ -73.8669553, 45.7362064 ] ] ] } },
{ "type": "Feature", "properties": { "hex_id": 2261, "count": 2, "date": "2025-12-11", "n_files": 16, "pct": 12.5 }, "geometry": { "type": "Polygon", "coordinates": [ [ [ -73.858992, 46.1258606 ], [ -73.8584553, 46.1518366 ], [ -73.890563, 46.1651434 ], [ -73.9231934, 46.1524648 ], [ -73.9236997, 46.1264883 ], [ -73.8916061, 46.1131909 ], [ -73.858992, 46.1258606 ] ] ] } },
{ "type": "Feature", "properties": { "hex_id": 2262, "count": 2, "date": "2025-12-11", "n_files": 16, "pct": 12.5 }, "geometry": { "type": "Polygon", "coordinates": [ [ [ -73.8573796, 46.2037881 ], [ -73.8568406, 46.2297637 ], [ -73.888993, 46.243071199999989 ], [ -73.9216702, 46.2303936 ], [ -73.9221786, 46.2044175 ], [ -73.8900404, 46.1911194 ], [ -73.8573796, 46.2037881 ] ] ] } },
{ "type": "Feature", "properties": { "hex_id": 2316, "count": 5, "date": "2025-12-11", "n_files": 16, "pct": 31.25 }, "geometry": { "type": "Polygon", "coordinates": [ [ [ -73.8404609, 45.4631118 ], [ -73.8399279, 45.4890906 ], [ -73.8716552, 45.5024006 ], [ -73.903902, 45.4897225 ], [ -73.9044056, 45.4637431 ], [ -73.8726918, 45.4504423 ], [ -73.8404609, 45.4631118 ] ] ] } },
{ "type": "Feature", "properties": { "hex_id": 2319, "count": 3, "date": "2025-12-11", "n_files": 16, "pct": 18.75 }, "geometry": { "type": "Polygon", "coordinates": [ [ [ -73.8356376, 45.6969167 ], [ -73.835098, 45.7228944 ], [ -73.8669553, 45.7362064 ], [ -73.8993383, 45.7235314 ], [ -73.8998482, 45.697553199999987 ], [ -73.8680047, 45.6842504 ], [ -73.8356376, 45.6969167 ] ] ] } },
{ "type": "Feature", "properties": { "hex_id": 2325, "count": 2, "date": "2025-12-11", "n_files": 16, "pct": 12.5 }, "geometry": { "type": "Polygon", "coordinates": [ [ [ -73.8258108, 46.1644965 ], [ -73.8252577, 46.190472 ], [ -73.8573796, 46.2037881 ], [ -73.8900404, 46.1911194 ], [ -73.890563, 46.1651434 ], [ -73.8584553, 46.1518366 ], [ -73.8258108, 46.1644965 ] ] ] } },
{ "type": "Feature", "properties": { "hex_id": 2444, "count": 5, "date": "2025-12-11", "n_files": 16, "pct": 31.25 }, "geometry": { "type": "Polygon", "coordinates": [ [ [ -73.7765183, 45.4624447 ], [ -73.7759559, 45.488423 ], [ -73.8076675, 45.5017505 ], [ -73.8399279, 45.4890906 ], [ -73.8404609, 45.4631118 ], [ -73.8087629, 45.4497934 ], [ -73.7765183, 45.4624447 ] ] ] } },
{ "type": "Feature", "properties": { "hex_id": 2573, "count": 3, "date": "2025-12-11", "n_files": 16, "pct": 18.75 }, "geometry": { "type": "Polygon", "coordinates": [ [ [ -73.7108004, 45.5396742 ], [ -73.7102063, 45.5656515 ], [ -73.7419449, 45.5789974 ], [ -73.7742642, 45.5663569 ], [ -73.7748289, 45.540379 ], [ -73.7431038, 45.5270423 ], [ -73.7108004, 45.5396742 ] ] ] } },
{ "type": "Feature", "properties": { "hex_id": 2706, "count": 11, "date": "2025-12-11", "n_files": 16, "pct": 68.75 }, "geometry": { "type": "Polygon", "coordinates": [ [ [ -73.6373294, 45.9285686 ], [ -73.6366928, 45.9545432 ], [ -73.6686327, 45.9679109 ], [ -73.7011955, 45.955294599999988 ], [ -73.701802, 45.9293193 ], [ -73.6698758, 45.9159609 ], [ -73.6373294, 45.9285686 ] ] ] } },
{ "type": "Feature", "properties": { "hex_id": 2770, "count": 11, "date": "2025-12-11", "n_files": 16, "pct": 68.75 }, "geometry": { "type": "Polygon", "coordinates": [ [ [ -73.6060698, 45.8892179 ], [ -73.6054195, 45.9151924 ], [ -73.6373294, 45.9285686 ], [ -73.6698758, 45.9159609 ], [ -73.6704961, 45.8899857 ], [ -73.6385999, 45.8766189 ], [ -73.6060698, 45.8892179 ] ] ] } },
{ "type": "Feature", "properties": { "hex_id": 2832, "count": 1, "date": "2025-12-11", "n_files": 16, "pct": 6.25 }, "geometry": { "type": "Polygon", "coordinates": [ [ [ -73.5768404, 45.7719351 ], [ -73.5761791, 45.7979098 ], [ -73.6080154, 45.8112936 ], [ -73.6404993, 45.7986934 ], [ -73.6411307, 45.772718 ], [ -73.609308, 45.7593435 ], [ -73.5768404, 45.7719351 ] ] ] } },
{ "type": "Feature", "properties": { "hex_id": 2834, "count": 11, "date": "2025-12-11", "n_files": 16, "pct": 68.75 }, "geometry": { "type": "Polygon", "coordinates": [ [ [ -73.5728594, 45.9277815 ], [ -73.5721927, 45.9537554 ], [ -73.6041162, 45.967141 ], [ -73.6366928, 45.9545432 ], [ -73.6373294, 45.9285686 ], [ -73.6054195, 45.9151924 ], [ -73.5728594, 45.9277815 ] ] ] } },
{ "type": "Feature", "properties": { "hex_id": 3463, "count": 5, "date": "2025-12-11", "n_files": 16, "pct": 31.25 }, "geometry": { "type": "Polygon", "coordinates": [ [ [ -73.2768996, 45.0662209 ], [ -73.2761185, 45.0921951 ], [ -73.3074914, 45.1056574 ], [ -73.3396327, 45.0931364 ], [ -73.340385, 45.0671614 ], [ -73.3090249, 45.0537082 ], [ -73.2768996, 45.0662209 ] ] ] } },
{ "type": "Feature", "properties": { "hex_id": 3539, "count": 6, "date": "2025-12-11", "n_files": 16, "pct": 37.5 }, "geometry": { "type": "Polygon", "coordinates": [ [ [ -73.2170781, 45.9617569 ], [ -73.2162443, 45.9877261 ], [ -73.2480984, 46.001210099999987 ], [ -73.2807729, 45.9887154 ], [ -73.2815766, 45.9627452 ], [ -73.2497359, 45.9492707 ], [ -73.2170781, 45.9617569 ] ] ] } },
{ "type": "Feature", "properties": { "hex_id": 3602, "count": 6, "date": "2025-12-11", "n_files": 16, "pct": 37.5 }, "geometry": { "type": "Polygon", "coordinates": [ [ [ -73.1861013, 45.9222956 ], [ -73.185254200000017, 45.9482646 ], [ -73.2170781, 45.9617569 ], [ -73.2497359, 45.9492707 ], [ -73.250553, 45.9233008 ], [ -73.2187424, 45.9098179 ], [ -73.1861013, 45.9222956 ] ] ] } },
{ "type": "Feature", "properties": { "hex_id": 3667, "count": 6, "date": "2025-12-11", "n_files": 16, "pct": 37.5 }, "geometry": { "type": "Polygon", "coordinates": [ [ [ -73.1525831, 45.9607321 ], [ -73.1517191, 45.9867005 ], [ -73.1835564, 46.0002022 ], [ -73.2162443, 45.9877261 ], [ -73.2170781, 45.9617569 ], [ -73.185254200000017, 45.9482646 ], [ -73.1525831, 45.9607321 ] ] ] } },
{ "type": "Feature", "properties": { "hex_id": 4506, "count": 1, "date": "2025-12-11", "n_files": 16, "pct": 6.25 }, "geometry": { "type": "Polygon", "coordinates": [ [ [ -72.7092604, 46.5372864 ], [ -72.7081675, 46.5632449 ], [ -72.7402214, 46.576873 ], [ -72.7733551, 46.5645329 ], [ -72.774417, 46.5385733 ], [ -72.7423763, 46.524955 ], [ -72.7092604, 46.5372864 ] ] ] } },
{ "type": "Feature", "properties": { "hex_id": 4570, "count": 1, "date": "2025-12-11", "n_files": 16, "pct": 6.25 }, "geometry": { "type": "Polygon", "coordinates": [ [ [ -72.6783436, 46.497692099999988 ], [ -72.6772375, 46.5236501 ], [ -72.7092604, 46.5372864 ], [ -72.7423763, 46.524955 ], [ -72.7434515, 46.4989957 ], [ -72.7114418, 46.4853691 ], [ -72.6783436, 46.497692099999988 ] ] ] } },
{ "type": "Feature", "properties": { "hex_id": 4571, "count": 1, "date": "2025-12-11", "n_files": 16, "pct": 6.25 }, "geometry": { "type": "Polygon", "coordinates": [ [ [ -72.6750205, 46.5755658 ], [ -72.6739098, 46.6015235 ], [ -72.705977, 46.6151614 ], [ -72.7391418, 46.6028318 ], [ -72.7402214, 46.576873 ], [ -72.7081675, 46.5632449 ], [ -72.6750205, 46.5755658 ] ] ] } },
{ "type": "Feature", "properties": { "hex_id": 4634, "count": 1, "date": "2025-12-11", "n_files": 16, "pct": 6.25 }, "geometry": { "type": "Polygon", "coordinates": [ [ [ -72.6441083, 46.5359625 ], [ -72.6429844, 46.5619197 ], [ -72.6750205, 46.5755658 ], [ -72.7081675, 46.5632449 ], [ -72.7092604, 46.5372864 ], [ -72.6772375, 46.5236501 ], [ -72.6441083, 46.5359625 ] ] ] } },
{ "type": "Feature", "properties": { "hex_id": 4699, "count": 1, "date": "2025-12-11", "n_files": 16, "pct": 6.25 }, "geometry": { "type": "Polygon", "coordinates": [ [ [ -72.6098243, 46.5742215 ], [ -72.6086824, 46.6001779 ], [ -72.6407318, 46.6138338 ], [ -72.6739098, 46.6015235 ], [ -72.6750205, 46.5755658 ], [ -72.6429844, 46.5619197 ], [ -72.6098243, 46.5742215 ] ] ] } },
{ "type": "Feature", "properties": { "hex_id": 4760, "count": 5, "date": "2025-12-11", "n_files": 16, "pct": 31.25 }, "geometry": { "type": "Polygon", "coordinates": [ [ [ -72.5858573, 46.3788623 ], [ -72.5847119, 46.4048192 ], [ -72.6166422, 46.41848 ], [ -72.6497049, 46.4061741 ], [ -72.6508196, 46.3802161 ], [ -72.6189023, 46.366565 ], [ -72.5858573, 46.3788623 ] ] ] } },
{ "type": "Feature", "properties": { "hex_id": 4825, "count": 5, "date": "2025-12-11", "n_files": 16, "pct": 31.25 }, "geometry": { "type": "Polygon", "coordinates": [ [ [ -72.5516362, 46.417106 ], [ -72.5504729, 46.443062 ], [ -72.5824163, 46.4567325 ], [ -72.6155098, 46.4444372 ], [ -72.6166422, 46.41848 ], [ -72.5847119, 46.4048192 ], [ -72.5516362, 46.417106 ] ] ] } },
{ "type": "Feature", "properties": { "hex_id": 5066, "count": 3, "date": "2025-12-11", "n_files": 16, "pct": 18.75 }, "geometry": { "type": "Polygon", "coordinates": [ [ [ -72.4750501, 45.2461942 ], [ -72.4738986, 45.272154 ], [ -72.50517, 45.2858345 ], [ -72.5375808, 45.2735456 ], [ -72.5387034, 45.2475845 ], [ -72.5074442, 45.2339135 ], [ -72.4750501, 45.2461942 ] ] ] } },
{ "type": "Feature", "properties": { "hex_id": 5137, "count": 5, "date": "2025-12-11", "n_files": 16, "pct": 31.25 }, "geometry": { "type": "Polygon", "coordinates": [ [ [ -72.4166005, 45.8295338 ], [ -72.4153981, 45.8554898 ], [ -72.446974, 45.8691917 ], [ -72.47974, 45.856928 ], [ -72.4809125, 45.8309706 ], [ -72.449349, 45.8172783 ], [ -72.4166005, 45.8295338 ] ] ] } },
{ "type": "Feature", "properties": { "hex_id": 5202, "count": 5, "date": "2025-12-11", "n_files": 16, "pct": 31.25 }, "geometry": { "type": "Polygon", "coordinates": [ [ [ -72.3826197, 45.8677348 ], [ -72.3813998, 45.8936899 ], [ -72.4129883, 45.9074014 ], [ -72.4457841, 45.8951481 ], [ -72.446974, 45.8691917 ], [ -72.4153981, 45.8554898 ], [ -72.3826197, 45.8677348 ] ] ] } },
{ "type": "Feature", "properties": { "hex_id": 5265, "count": 5, "date": "2025-12-11", "n_files": 16, "pct": 31.25 }, "geometry": { "type": "Polygon", "coordinates": [ [ [ -72.3522934, 45.8280608 ], [ -72.3510611, 45.8540154 ], [ -72.3826197, 45.8677348 ], [ -72.4153981, 45.8554898 ], [ -72.4166005, 45.8295338 ], [ -72.3850544, 45.8158241 ], [ -72.3522934, 45.8280608 ] ] ] } },
{ "type": "Feature", "properties": { "hex_id": 5329, "count": 5, "date": "2025-12-11", "n_files": 16, "pct": 31.25 }, "geometry": { "type": "Polygon", "coordinates": [ [ [ -72.3220093, 45.7883794 ], [ -72.3207647, 45.8143336 ], [ -72.3522934, 45.8280608 ], [ -72.3850544, 45.8158241 ], [ -72.3862692, 45.7898685 ], [ -72.3547529, 45.7761509 ], [ -72.3220093, 45.7883794 ] ] ] } },
{ "type": "Feature", "properties": { "hex_id": 5330, "count": 5, "date": "2025-12-11", "n_files": 16, "pct": 31.25 }, "geometry": { "type": "Polygon", "coordinates": [ [ [ -72.3182703, 45.8662416 ], [ -72.3170205, 45.8921954 ], [ -72.3485915, 45.9059244 ], [ -72.3813998, 45.8936899 ], [ -72.3826197, 45.8677348 ], [ -72.3510611, 45.8540154 ], [ -72.3182703, 45.8662416 ] ] ] } },
{ "type": "Feature", "properties": { "hex_id": 5393, "count": 5, "date": "2025-12-11", "n_files": 16, "pct": 31.25 }, "geometry": { "type": "Polygon", "coordinates": [ [ [ -72.2879913, 45.8265516 ], [ -72.2867292, 45.8525049 ], [ -72.3182703, 45.8662416 ], [ -72.3510611, 45.8540154 ], [ -72.3522934, 45.8280608 ], [ -72.3207647, 45.8143336 ], [ -72.2879913, 45.8265516 ] ] ] } },
{ "type": "Feature", "properties": { "hex_id": 5597, "count": 6, "date": "2025-12-11", "n_files": 16, "pct": 37.5 }, "geometry": { "type": "Polygon", "coordinates": [ [ [ -72.1454069, 46.719452 ], [ -72.1440365, 46.7453981 ], [ -72.1760469, 46.7591832 ], [ -72.2094149, 46.7470123 ], [ -72.2107541, 46.7210647 ], [ -72.1787565, 46.7072895 ], [ -72.1454069, 46.719452 ] ] ] } },
{ "type": "Feature", "properties": { "hex_id": 5660, "count": 6, "date": "2025-12-11", "n_files": 16, "pct": 37.5 }, "geometry": { "type": "Polygon", "coordinates": [ [ [ -72.114811, 46.6797133 ], [ -72.1134278, 46.7056589 ], [ -72.1454069, 46.719452 ], [ -72.1787565, 46.7072895 ], [ -72.180108500000017, 46.6813424 ], [ -72.1481422, 46.6675593 ], [ -72.114811, 46.6797133 ] ] ] } },
{ "type": "Feature", "properties": { "hex_id": 5661, "count": 6, "date": "2025-12-11", "n_files": 16, "pct": 37.5 }, "geometry": { "type": "Polygon", "coordinates": [ [ [ -72.1106556, 46.7575496 ], [ -72.1092666, 46.7834948 ], [ -72.1412898, 46.7972899 ], [ -72.1746892, 46.7851298 ], [ -72.1760469, 46.7591832 ], [ -72.1440365, 46.7453981 ], [ -72.1106556, 46.7575496 ] ] ] } },
{ "type": "Feature", "properties": { "hex_id": 5725, "count": 6, "date": "2025-12-11", "n_files": 16, "pct": 37.5 }, "geometry": { "type": "Polygon", "coordinates": [ [ [ -72.0800654, 46.717802 ], [ -72.0786637, 46.7437466 ], [ -72.1106556, 46.7575496 ], [ -72.1440365, 46.7453981 ], [ -72.1454069, 46.719452 ], [ -72.1134278, 46.7056589 ], [ -72.0800654, 46.717802 ] ] ] } },
{ "type": "Feature", "properties": { "hex_id": 5789, "count": 6, "date": "2025-12-11", "n_files": 16, "pct": 37.5 }, "geometry": { "type": "Polygon", "coordinates": [ [ [ -72.0452701, 46.7558787 ], [ -72.0438498, 46.7818224 ], [ -72.075854400000011, 46.7956354 ], [ -72.1092666, 46.7834948 ], [ -72.1106556, 46.7575496 ], [ -72.0786637, 46.7437466 ], [ -72.0452701, 46.7558787 ] ] ] } },
{ "type": "Feature", "properties": { "hex_id": 7263, "count": 6, "date": "2025-12-11", "n_files": 16, "pct": 37.5 }, "geometry": { "type": "Polygon", "coordinates": [ [ [ -71.2857653, 46.8506406 ], [ -71.2839745, 46.8765638 ], [ -71.315826, 46.8905853 ], [ -71.3494564, 46.8786736 ], [ -71.3512159, 46.8527485 ], [ -71.3193763, 46.8387371 ], [ -71.2857653, 46.8506406 ] ] ] } },
{ "type": "Feature", "properties": { "hex_id": 7391, "count": 6, "date": "2025-12-11", "n_files": 16, "pct": 37.5 }, "geometry": { "type": "Polygon", "coordinates": [ [ [ -71.2203222, 46.8484954 ], [ -71.2185, 46.8744166 ], [ -71.2503321, 46.8884559 ], [ -71.2839745, 46.8765638 ], [ -71.2857653, 46.8506406 ], [ -71.2539452, 46.8366115 ], [ -71.2203222, 46.8484954 ] ] ] } },
{ "type": "Feature", "properties": { "hex_id": 10541, "count": 4, "date": "2025-12-11", "n_files": 16, "pct": 25.0 }, "geometry": { "type": "Polygon", "coordinates": [ [ [ -69.5037606, 47.9091517 ], [ -69.5010129, 47.9350051 ], [ -69.5329651, 47.9495278 ], [ -69.5676543, 47.9381862 ], [ -69.5703691, 47.91233 ], [ -69.5384276, 47.8978182 ], [ -69.5037606, 47.9091517 ] ] ] } },
{ "type": "Feature", "properties": { "hex_id": 10669, "count": 4, "date": "2025-12-11", "n_files": 16, "pct": 25.0 }, "geometry": { "type": "Polygon", "coordinates": [ [ [ -69.4371637, 47.9059349 ], [ -69.4343831, 47.9317854 ], [ -69.466313, 47.9463259 ], [ -69.5010129, 47.9350051 ], [ -69.5037606, 47.9091517 ], [ -69.4718413, 47.8946221 ], [ -69.4371637, 47.9059349 ] ] ] } },
{ "type": "Feature", "properties": { "hex_id": 15036, "count": 2, "date": "2025-12-11", "n_files": 16, "pct": 12.5 }, "geometry": { "type": "Polygon", "coordinates": [ [ [ -67.0004039, 48.931374 ], [ -66.9962656, 48.9570892 ], [ -67.0280224, 48.9723046 ], [ -67.0639093, 48.9617931 ], [ -67.0680135, 48.9360736 ], [ -67.0362649, 48.9208699 ], [ -67.0004039, 48.931374 ] ] ] } },
{ "type": "Feature", "properties": { "hex_id": 15101, "count": 2, "date": "2025-12-11", "n_files": 16, "pct": 12.5 }, "geometry": { "type": "Polygon", "coordinates": [ [ [ -66.9603705, 48.967579 ], [ -66.9562064, 48.9932915 ], [ -66.9879715, 49.0085185 ], [ -67.0238924, 48.9980214 ], [ -67.0280224, 48.9723046 ], [ -66.9962656, 48.9570892 ], [ -66.9603705, 48.967579 ] ] ] } },
{ "type": "Feature", "properties": { "hex_id": 15164, "count": 2, "date": "2025-12-11", "n_files": 16, "pct": 12.5 }, "geometry": { "type": "Polygon", "coordinates": [ [ [ -66.9328119, 48.9266351 ], [ -66.9286396, 48.9523461 ], [ -66.9603705, 48.967579 ], [ -66.9962656, 48.9570892 ], [ -67.0004039, 48.931374 ], [ -66.9686811, 48.9161528 ], [ -66.9328119, 48.9266351 ] ] ] } },
{ "type": "Feature", "properties": { "hex_id": 15165, "count": 7, "date": "2025-12-11", "n_files": 16, "pct": 43.75 }, "geometry": { "type": "Polygon", "coordinates": [ [ [ -66.9202772, 49.0037668 ], [ -66.9160871, 49.0294766 ], [ -66.9478604, 49.0447154 ], [ -66.9838155, 49.0342326 ], [ -66.9879715, 49.0085185 ], [ -66.9562064, 48.9932915 ], [ -66.9202772, 49.0037668 ] ] ] } },
{ "type": "Feature", "properties": { "hex_id": 15228, "count": 2, "date": "2025-12-11", "n_files": 16, "pct": 12.5 }, "geometry": { "type": "Polygon", "coordinates": [ [ [ -66.9052953, 48.885687 ], [ -66.9011149, 48.9113964 ], [ -66.9328119, 48.9266351 ], [ -66.9686811, 48.9161528 ], [ -66.9728275, 48.890439099999988 ], [ -66.9411387, 48.8752121 ], [ -66.9052953, 48.885687 ] ] ] } },
{ "type": "Feature", "properties": { "hex_id": 15229, "count": 2, "date": "2025-12-11", "n_files": 16, "pct": 12.5 }, "geometry": { "type": "Polygon", "coordinates": [ [ [ -66.8927363, 48.962814 ], [ -66.8885381, 48.9885223 ], [ -66.9202772, 49.0037668 ], [ -66.9562064, 48.9932915 ], [ -66.9603705, 48.967579 ], [ -66.9286396, 48.9523461 ], [ -66.8927363, 48.962814 ] ] ] } },
{ "type": "Feature", "properties": { "hex_id": 15230, "count": 7, "date": "2025-12-11", "n_files": 16, "pct": 43.75 }, "geometry": { "type": "Polygon", "coordinates": [ [ [ -66.8801237, 49.0399376 ], [ -66.8759076, 49.0656446 ], [ -66.907689, 49.0808951 ], [ -66.9436785, 49.0704268 ], [ -66.9478604, 49.0447154 ], [ -66.9160871, 49.0294766 ], [ -66.8801237, 49.0399376 ] ] ] } },
{ "type": "Feature", "properties": { "hex_id": 15292, "count": 2, "date": "2025-12-11", "n_files": 16, "pct": 12.5 }, "geometry": { "type": "Polygon", "coordinates": [ [ [ -66.8652376, 48.921857 ], [ -66.8610313, 48.9475636 ], [ -66.8927363, 48.962814 ], [ -66.9286396, 48.9523461 ], [ -66.9328119, 48.9266351 ], [ -66.9011149, 48.9113964 ], [ -66.8652376, 48.921857 ] ] ] } },
{ "type": "Feature", "properties": { "hex_id": 15293, "count": 7, "date": "2025-12-11", "n_files": 16, "pct": 43.75 }, "geometry": { "type": "Polygon", "coordinates": [ [ [ -66.8526008, 48.9989758 ], [ -66.8483765, 49.0246813 ], [ -66.8801237, 49.0399376 ], [ -66.9160871, 49.0294766 ], [ -66.9202772, 49.0037668 ], [ -66.8885381, 48.9885223 ], [ -66.8526008, 48.9989758 ] ] ] } },
{ "type": "Feature", "properties": { "hex_id": 15357, "count": 2, "date": "2025-12-11", "n_files": 16, "pct": 12.5 }, "geometry": { "type": "Polygon", "coordinates": [ [ [ -66.82512, 48.9580098 ], [ -66.8208877, 48.9837137 ], [ -66.8526008, 48.9989758 ], [ -66.8885381, 48.9885223 ], [ -66.8927363, 48.962814 ], [ -66.8610313, 48.9475636 ], [ -66.82512, 48.9580098 ] ] ] } },
{ "type": "Feature", "properties": { "hex_id": 15358, "count": 7, "date": "2025-12-11", "n_files": 16, "pct": 43.75 }, "geometry": { "type": "Polygon", "coordinates": [ [ [ -66.8124051, 49.0351203 ], [ -66.8081547, 49.0608231 ], [ -66.83991, 49.0760911 ], [ -66.8759076, 49.0656446 ], [ -66.8801237, 49.0399376 ], [ -66.8483765, 49.0246813 ], [ -66.8124051, 49.0351203 ] ] ] } },
{ "type": "Feature", "properties": { "hex_id": 15420, "count": 2, "date": "2025-12-11", "n_files": 16, "pct": 12.5 }, "geometry": { "type": "Polygon", "coordinates": [ [ [ -66.7976812, 48.9170396 ], [ -66.7934409, 48.9427419 ], [ -66.82512, 48.9580098 ], [ -66.8610313, 48.9475636 ], [ -66.8652376, 48.921857 ], [ -66.8335666, 48.9066008 ], [ -66.7976812, 48.9170396 ] ] ] } },
{ "type": "Feature", "properties": { "hex_id": 15421, "count": 2, "date": "2025-12-11", "n_files": 16, "pct": 12.5 }, "geometry": { "type": "Polygon", "coordinates": [ [ [ -66.7849423, 48.9941454 ], [ -66.7806839, 49.0198465 ], [ -66.8124051, 49.0351203 ], [ -66.8483765, 49.0246813 ], [ -66.8526008, 48.9989758 ], [ -66.8208877, 48.9837137 ], [ -66.7849423, 48.9941454 ] ] ] } }
]
}
