{
"type": "FeatureCollection",
"name": "daily_2026-04-16",
"crs": { "type": "name", "properties": { "name": "urn:ogc:def:crs:OGC:1.3:CRS84" } },
"features": [
{ "type": "Feature", "properties": { "hex_id": 793886, "centroid_lon": -71.063005143230157, "centroid_lat": 48.393908934035565, "occurrences_today": 5, "datetimes_today": "2026-04-16 00:02:00, 2026-04-16 00:17:04, 2026-04-16 00:31:41, 2026-04-16 00:46:53, 2026-04-16 01:01:52", "cumulative_total": 90.0 }, "geometry": { "type": "Polygon", "coordinates": [ [ [ -71.063405492841369, 48.388727033096245 ], [ -71.069943469312705, 48.391548702848702 ], [ -71.06954374398731, 48.396730641951279 ], [ -71.062604680143693, 48.399090827795284 ], [ -71.056066192882298, 48.396268727813208 ], [ -71.056467280213568, 48.391086872287445 ], [ -71.063405492841369, 48.388727033096245 ] ] ] } },
{ "type": "Feature", "properties": { "hex_id": 380999, "centroid_lon": -75.596453542026623, "centroid_lat": 45.513931768304907, "occurrences_today": 4, "datetimes_today": "2026-04-16 07:01:46, 2026-04-16 07:16:58, 2026-04-16 07:31:54, 2026-04-16 08:04:39", "cumulative_total": 53.0 }, "geometry": { "type": "Polygon", "coordinates": [ [ [ -75.596398653807469, 45.508735252568734 ], [ -75.602826879894266, 45.51129991074346 ], [ -75.602882364658896, 45.516496418024296 ], [ -75.596508445240588, 45.519128279241272 ], [ -75.590079607611003, 45.51656327201826 ], [ -75.590025300947545, 45.511366752691188 ], [ -75.596398653807469, 45.508735252568734 ] ] ] } },
{ "type": "Feature", "properties": { "hex_id": 302255, "centroid_lon": -76.426195819350198, "centroid_lat": 45.670282811136367, "occurrences_today": 2, "datetimes_today": "2026-04-16 07:31:54, 2026-04-16 08:04:39", "cumulative_total": 50.0 }, "geometry": { "type": "Polygon", "coordinates": [ [ [ -76.426063868703153, 45.665087768526007 ], [ -76.432546768343514, 45.667604991629069 ], [ -76.432679330346801, 45.672800017249308 ], [ -76.426327806103743, 45.675477848704382 ], [ -76.419844258994544, 45.672960283471575 ], [ -76.419712883609421, 45.667765228978304 ], [ -76.426063868703153, 45.665087768526007 ] ] ] } },
{ "type": "Feature", "properties": { "hex_id": 302866, "centroid_lon": -76.419975670330061, "centroid_lat": 45.678155332925108, "occurrences_today": 2, "datetimes_today": "2026-04-16 07:31:54, 2026-04-16 08:04:39", "cumulative_total": 50.0 }, "geometry": { "type": "Polygon", "coordinates": [ [ [ -76.419844258994544, 45.672960283471575 ], [ -76.426327806103743, 45.675477848704382 ], [ -76.426459828975993, 45.680672881229967 ], [ -76.420107117628064, 45.683350377338826 ], [ -76.413622923013591, 45.680832469812167 ], [ -76.41349208726443, 45.675637408535387 ], [ -76.419844258994544, 45.672960283471575 ] ] ] } },
{ "type": "Feature", "properties": { "hex_id": 550717, "centroid_lon": -73.817276254689901, "centroid_lat": 45.493775262779621, "occurrences_today": 1, "datetimes_today": "2026-04-16 08:04:39", "cumulative_total": 128.0 }, "geometry": { "type": "Polygon", "coordinates": [ [ [ -73.817385011852949, 45.488579555476036 ], [ -73.823728135975642, 45.491243475824646 ], [ -73.823619952020906, 45.496439192557688 ], [ -73.817167467827602, 45.498970965133282 ], [ -73.810823800200808, 45.496306678309082 ], [ -73.810933160261428, 45.491110985449403 ], [ -73.817385011852949, 45.488579555476036 ] ] ] } },
{ "type": "Feature", "properties": { "hex_id": 559905, "centroid_lon": -73.710416648109714, "centroid_lat": 45.968110267380069, "occurrences_today": 5, "datetimes_today": "2026-04-16 04:31:44, 2026-04-16 04:47:06, 2026-04-16 05:02:15, 2026-04-16 05:17:04, 2026-04-16 05:32:07", "cumulative_total": 12.0 }, "geometry": { "type": "Polygon", "coordinates": [ [ [ -73.71053720692494, 45.962915202652084 ], [ -73.716928551508033, 45.965585362276876 ], [ -73.716808578984541, 45.970780437600709 ], [ -73.710296056181519, 45.973305327118624 ], [ -73.703904158425289, 45.970634793960578 ], [ -73.704025336633961, 45.965439744883454 ], [ -73.71053720692494, 45.962915202652084 ] ] ] } },
{ "type": "Feature", "properties": { "hex_id": 740170, "centroid_lon": -71.648103959866177, "centroid_lat": 48.537150395885533, "occurrences_today": 6, "datetimes_today": "2026-04-16 04:47:06, 2026-04-16 05:02:15, 2026-04-16 05:17:04, 2026-04-16 05:32:07, 2026-04-16 05:46:50, 2026-04-16 06:01:52", "cumulative_total": 7.0 }, "geometry": { "type": "Polygon", "coordinates": [ [ [ -71.648446603348731, 48.531965248845232 ], [ -71.65503681268585, 48.534754695999226 ], [ -71.654694808683971, 48.539939875457968 ], [ -71.647761218989288, 48.542335536418094 ], [ -71.641170467583507, 48.539545661890799 ], [ -71.641513847905685, 48.534360553848082 ], [ -71.648446603348731, 48.531965248845232 ] ] ] } },
{ "type": "Feature", "properties": { "hex_id": 774858, "centroid_lon": -71.383663413894311, "centroid_lat": 46.806733465340834, "occurrences_today": 8, "datetimes_today": "2026-04-16 00:02:00, 2026-04-16 00:17:04, 2026-04-16 00:31:41, 2026-04-16 00:46:53, 2026-04-16 01:01:52, 2026-04-16 01:16:59, 2026-04-16 01:32:29, 2026-04-16 01:47:45", "cumulative_total": 79.0 }, "geometry": { "type": "Polygon", "coordinates": [ [ [ -71.384011330054093, 46.801548207855717 ], [ -71.390377180702799, 46.804347543256242 ], [ -71.390029842281436, 46.809532834628833 ], [ -71.383315401296755, 46.811918716119095 ], [ -71.376949069364116, 46.809118975468863 ], [ -71.377297659666695, 46.803933758644824 ], [ -71.384011330054093, 46.801548207855717 ] ] ] } },
{ "type": "Feature", "properties": { "hex_id": 569644, "centroid_lon": -73.618384475011538, "centroid_lat": 45.514928170336702, "occurrences_today": 1, "datetimes_today": "2026-04-16 08:04:39", "cumulative_total": 309.0 }, "geometry": { "type": "Polygon", "coordinates": [ [ [ -73.618511611654952, 45.509732886634225 ], [ -73.624847446724587, 45.512407760963612 ], [ -73.624720881248862, 45.517603056069809 ], [ -73.61825730364373, 45.520123449015763 ], [ -73.611920932136627, 45.517448206074725 ], [ -73.612048674660471, 45.512252938863924 ], [ -73.618511611654952, 45.509732886634225 ] ] ] } },
{ "type": "Feature", "properties": { "hex_id": 568421, "centroid_lon": -73.631939130312219, "centroid_lat": 45.483910345446489, "occurrences_today": 3, "datetimes_today": "2026-04-16 07:16:58, 2026-04-16 07:31:54, 2026-04-16 08:04:39", "cumulative_total": 203.0 }, "geometry": { "type": "Polygon", "coordinates": [ [ [ -73.63206488387371, 45.478715003871748 ], [ -73.638397934247578, 45.481389107661329 ], [ -73.638272751103656, 45.486584460498399 ], [ -73.63181334241672, 45.489105682003341 ], [ -73.62547975596506, 45.486431210121559 ], [ -73.625606114266603, 45.48123588489149 ], [ -73.63206488387371, 45.478715003871748 ] ] ] } },
{ "type": "Feature", "properties": { "hex_id": 560517, "centroid_lon": -73.70341911263678, "centroid_lat": 45.991414940349621, "occurrences_today": 5, "datetimes_today": "2026-04-16 04:31:44, 2026-04-16 04:47:06, 2026-04-16 05:02:15, 2026-04-16 05:17:04, 2026-04-16 05:32:07", "cumulative_total": 40.0 }, "geometry": { "type": "Polygon", "coordinates": [ [ [ -73.703540424049621, 45.986219911240404 ], [ -73.709934081606505, 45.988890476397202 ], [ -73.709813357113845, 45.994085516177506 ], [ -73.703297767894597, 45.996609964466735 ], [ -73.696903556752545, 45.993939025410491 ], [ -73.697025488403554, 45.988744012030104 ], [ -73.703540424049621, 45.986219911240404 ] ] ] } },
{ "type": "Feature", "properties": { "hex_id": 561127, "centroid_lon": -73.69714738656522, "centroid_lat": 45.98354899365517, "occurrences_today": 5, "datetimes_today": "2026-04-16 04:31:44, 2026-04-16 04:47:06, 2026-04-16 05:02:15, 2026-04-16 05:17:04, 2026-04-16 05:32:07", "cumulative_total": 40.0 }, "geometry": { "type": "Polygon", "coordinates": [ [ [ -73.697269251248926, 45.978353970285738 ], [ -73.703661702144416, 45.981024877139113 ], [ -73.703540424049621, 45.986219911240404 ], [ -73.697025488403554, 45.988744012030104 ], [ -73.690632484402812, 45.986072731319233 ], [ -73.690754969141977, 45.98087772374177 ], [ -73.697269251248926, 45.978353970285738 ] ] ] } },
{ "type": "Feature", "properties": { "hex_id": 561737, "centroid_lon": -73.690877420243325, "centroid_lat": 45.975682711167401, "occurrences_today": 5, "datetimes_today": "2026-04-16 04:31:44, 2026-04-16 04:47:06, 2026-04-16 05:02:15, 2026-04-16 05:17:04, 2026-04-16 05:32:07", "cumulative_total": 40.0 }, "geometry": { "type": "Polygon", "coordinates": [ [ [ -73.690999837718252, 45.970487693596134 ], [ -73.697391082466041, 45.973158941921888 ], [ -73.697269251248926, 45.978353970285738 ], [ -73.690754969141977, 45.98087772374177 ], [ -73.684363171768496, 45.97820610160052 ], [ -73.684486209116216, 45.973011099884339 ], [ -73.690999837718252, 45.970487693596134 ] ] ] } },
{ "type": "Feature", "properties": { "hex_id": 791347, "centroid_lon": -71.20107431474095, "centroid_lat": 46.886549689458882, "occurrences_today": 5, "datetimes_today": "2026-04-16 06:47:04, 2026-04-16 07:01:46, 2026-04-16 07:16:58, 2026-04-16 07:31:54, 2026-04-16 08:04:39", "cumulative_total": 24.0 }, "geometry": { "type": "Polygon", "coordinates": [ [ [ -71.201440792183746, 46.881365576655845 ], [ -71.207805703805647, 46.884175051431924 ], [ -71.207439803641833, 46.889359199946462 ], [ -71.200707735627063, 46.891733795346369 ], [ -71.194342348414878, 46.888923912736985 ], [ -71.194709504772462, 46.883739842627818 ], [ -71.201440792183746, 46.881365576655845 ] ] ] } },
{ "type": "Feature", "properties": { "hex_id": 791958, "centroid_lon": -71.193975090195423, "centroid_lat": 46.894107975922772, "occurrences_today": 5, "datetimes_today": "2026-04-16 06:47:04, 2026-04-16 07:01:46, 2026-04-16 07:16:58, 2026-04-16 07:31:54, 2026-04-16 08:04:39", "cumulative_total": 44.0 }, "geometry": { "type": "Polygon", "coordinates": [ [ [ -71.194342348414878, 46.888923912736985 ], [ -71.200707735627063, 46.891733795346369 ], [ -71.200341054806842, 46.89691789431761 ], [ -71.19360773007871, 46.899292032184405 ], [ -71.187241867382198, 46.896481741580487 ], [ -71.187609804862788, 46.891297721171163 ], [ -71.194342348414878, 46.888923912736985 ] ] ] } },
{ "type": "Feature", "properties": { "hex_id": 792568, "centroid_lon": -71.187977640290597, "centroid_lat": 46.886113693830573, "occurrences_today": 5, "datetimes_today": "2026-04-16 06:47:04, 2026-04-16 07:01:46, 2026-04-16 07:16:58, 2026-04-16 07:31:54, 2026-04-16 08:04:39", "cumulative_total": 12.0 }, "geometry": { "type": "Polygon", "coordinates": [ [ [ -71.188345373701068, 46.880929659559456 ], [ -71.194709504772462, 46.883739842627818 ], [ -71.194342348414878, 46.888923912736985 ], [ -71.187609804862788, 46.891297721171163 ], [ -71.181245198773553, 46.888487130169018 ], [ -71.18161361121885, 46.883303138733297 ], [ -71.188345373701068, 46.880929659559456 ] ] ] } },
{ "type": "Feature", "properties": { "hex_id": 569032, "centroid_lon": -73.625353363163427, "centroid_lat": 45.491626530331175, "occurrences_today": 3, "datetimes_today": "2026-04-16 07:16:58, 2026-04-16 07:31:54, 2026-04-16 08:04:39", "cumulative_total": 86.0 }, "geometry": { "type": "Polygon", "coordinates": [ [ [ -73.62547975596506, 45.486431210121559 ], [ -73.63181334241672, 45.489105682003341 ], [ -73.631687520175689, 45.494301013542234 ], [ -73.625226935850151, 45.496821845520273 ], [ -73.61889281335533, 45.494147005387092 ], [ -73.61901981121764, 45.488951701591724 ], [ -73.62547975596506, 45.486431210121559 ] ] ] } },
{ "type": "Feature", "properties": { "hex_id": 608087, "centroid_lon": -73.224306459999482, "centroid_lat": 45.221049450619006, "occurrences_today": 4, "datetimes_today": "2026-04-16 00:02:00, 2026-04-16 00:17:04, 2026-04-16 00:31:41, 2026-04-16 00:46:53", "cumulative_total": 19.0 }, "geometry": { "type": "Polygon", "coordinates": [ [ [ -73.224468184733283, 45.215854884788541 ], [ -73.230752472782271, 45.218550978441797 ], [ -73.230591305130261, 45.223745559471382 ], [ -73.224144691256754, 45.22624401125065 ], [ -73.217859890142222, 45.223547549070204 ], [ -73.218022215952075, 45.218353003701438 ], [ -73.224468184733283, 45.215854884788541 ] ] ] } },
{ "type": "Feature", "properties": { "hex_id": 564787, "centroid_lon": -73.659553950130345, "centroid_lat": 45.936346271712686, "occurrences_today": 5, "datetimes_today": "2026-04-16 04:31:44, 2026-04-16 04:47:06, 2026-04-16 05:02:15, 2026-04-16 05:17:04, 2026-04-16 05:32:07", "cumulative_total": 13.0 }, "geometry": { "type": "Polygon", "coordinates": [ [ [ -73.659679124378258, 45.931151284006106 ], [ -73.666064346086316, 45.933824236333656 ], [ -73.665939756443407, 45.939019235135937 ], [ -73.659428741516152, 45.941541254410346 ], [ -73.65304296957521, 45.938867928477706 ], [ -73.653168762782727, 45.933672956941244 ], [ -73.659679124378258, 45.931151284006106 ] ] ] } },
{ "type": "Feature", "properties": { "hex_id": 564788, "centroid_lon": -73.659178221142184, "centroid_lat": 45.951931204778695, "occurrences_today": 5, "datetimes_today": "2026-04-16 04:31:44, 2026-04-16 04:47:06, 2026-04-16 05:02:15, 2026-04-16 05:17:04, 2026-04-16 05:32:07", "cumulative_total": 19.0 }, "geometry": { "type": "Polygon", "coordinates": [ [ [ -73.659303498523983, 45.946736232099035 ], [ -73.665690474524894, 45.949409217721161 ], [ -73.665565782226068, 45.954604201503997 ], [ -73.65905290935909, 45.957126172449243 ], [ -73.652665382682358, 45.954452813017994 ], [ -73.652791279536743, 45.949257856516141 ], [ -73.659303498523983, 45.946736232099035 ] ] ] } },
{ "type": "Feature", "properties": { "hex_id": 565397, "centroid_lon": -73.653294521464758, "centroid_lat": 45.928477980393374, "occurrences_today": 5, "datetimes_today": "2026-04-16 04:31:44, 2026-04-16 04:47:06, 2026-04-16 05:02:15, 2026-04-16 05:17:04, 2026-04-16 05:32:07", "cumulative_total": 13.0 }, "geometry": { "type": "Polygon", "coordinates": [ [ [ -73.653420245633001, 45.923282998834154 ], [ -73.659804264271528, 45.925956291290703 ], [ -73.659679124378258, 45.931151284006106 ], [ -73.653168762782727, 45.933672956941244 ], [ -73.646784194388886, 45.93099929092179 ], [ -73.646910537334179, 45.925804325595607 ], [ -73.653420245633001, 45.923282998834154 ] ] ] } },
{ "type": "Feature", "properties": { "hex_id": 565398, "centroid_lon": -73.652917141830443, "centroid_lat": 45.944062895002702, "occurrences_today": 5, "datetimes_today": "2026-04-16 04:31:44, 2026-04-16 04:47:06, 2026-04-16 05:02:15, 2026-04-16 05:17:04, 2026-04-16 05:32:07", "cumulative_total": 19.0 }, "geometry": { "type": "Polygon", "coordinates": [ [ [ -73.65304296957521, 45.938867928477706 ], [ -73.659428741516152, 45.941541254410346 ], [ -73.659303498523983, 45.946736232099035 ], [ -73.652791279536743, 45.949257856516141 ], [ -73.646404957398033, 45.946584156816584 ], [ -73.646531404432594, 45.941389206532335 ], [ -73.65304296957521, 45.938867928477706 ] ] ] } },
{ "type": "Feature", "properties": { "hex_id": 566008, "centroid_lon": -73.64665781675896, "centroid_lat": 45.936194251234063, "occurrences_today": 5, "datetimes_today": "2026-04-16 04:31:44, 2026-04-16 04:47:06, 2026-04-16 05:02:15, 2026-04-16 05:17:04, 2026-04-16 05:32:07", "cumulative_total": 13.0 }, "geometry": { "type": "Polygon", "coordinates": [ [ [ -73.646784194388886, 45.93099929092179 ], [ -73.653168762782727, 45.933672956941244 ], [ -73.65304296957521, 45.938867928477706 ], [ -73.646531404432594, 45.941389206532335 ], [ -73.640146286318668, 45.938715166788192 ], [ -73.640273283055649, 45.933520222779585 ], [ -73.646784194388886, 45.93099929092179 ] ] ] } },
{ "type": "Feature", "properties": { "hex_id": 583689, "centroid_lon": -73.469719620215557, "centroid_lat": 45.56759938321926, "occurrences_today": 5, "datetimes_today": "2026-04-16 06:32:04, 2026-04-16 06:47:04, 2026-04-16 07:01:46, 2026-04-16 07:16:58, 2026-04-16 07:31:54", "cumulative_total": 284.0 }, "geometry": { "type": "Polygon", "coordinates": [ [ [ -73.469860692694226, 45.562404490748897 ], [ -73.476195116312155, 45.56508757348417 ], [ -73.476054614564163, 45.570282478840518 ], [ -73.469578509184288, 45.572794270603524 ], [ -73.463243553394776, 45.570110817204863 ], [ -73.463385235143775, 45.564915942771194 ], [ -73.469860692694226, 45.562404490748897 ] ] ] } },
{ "type": "Feature", "properties": { "hex_id": 575748, "centroid_lon": -73.554787947279237, "centroid_lat": 45.498550630983495, "occurrences_today": 30, "datetimes_today": "2026-04-16 00:02:00, 2026-04-16 00:17:04, 2026-04-16 00:31:41, 2026-04-16 00:46:53, 2026-04-16 01:01:52, 2026-04-16 01:16:59, 2026-04-16 01:32:29, 2026-04-16 01:47:45, 2026-04-16 02:01:52, 2026-04-16 02:24:03, 2026-04-16 02:48:14, 2026-04-16 03:01:43, 2026-04-16 03:17:11, 2026-04-16 03:31:56, 2026-04-16 03:46:56, 2026-04-16 04:01:43, 2026-04-16 04:17:03, 2026-04-16 04:31:44, 2026-04-16 04:47:06, 2026-04-16 05:02:15, 2026-04-16 05:17:04, 2026-04-16 05:32:07, 2026-04-16 05:46:50, 2026-04-16 06:01:52, 2026-04-16 06:32:04, 2026-04-16 06:47:04, 2026-04-16 07:01:46, 2026-04-16 07:16:58, 2026-04-16 07:31:54, 2026-04-16 08:04:39", "cumulative_total": 86.0 }, "geometry": { "type": "Polygon", "coordinates": [ [ [ -73.554920858999523, 45.493355474823765 ], [ -73.561251776564234, 45.496033825536159 ], [ -73.561119434656476, 45.501228993724077 ], [ -73.554654999265367, 45.503745782094022 ], [ -73.548323548187781, 45.501067062384728 ], [ -73.548457066001987, 45.495871923366849 ], [ -73.554920858999523, 45.493355474823765 ] ] ] } },
{ "type": "Feature", "properties": { "hex_id": 555629, "centroid_lon": -73.756452378015126, "centroid_lat": 45.929647268736524, "occurrences_today": 3, "datetimes_today": "2026-04-16 05:02:15, 2026-04-16 05:17:04, 2026-04-16 05:32:07", "cumulative_total": 56.0 }, "geometry": { "type": "Polygon", "coordinates": [ [ [ -73.756568477991607, 45.92445207646707 ], [ -73.76295770566341, 45.927119656265077 ], [ -73.762842191416766, 45.932314858662153 ], [ -73.756336246165134, 45.93484245603365 ], [ -73.749946464642434, 45.932174503632979 ], [ -73.75006318221142, 45.926979326529001 ], [ -73.756568477991607, 45.92445207646707 ] ] ] } },
{ "type": "Feature", "properties": { "hex_id": 556239, "centroid_lon": -73.750179867747292, "centroid_lat": 45.92178414445037, "occurrences_today": 3, "datetimes_today": "2026-04-16 05:02:15, 2026-04-16 05:17:04, 2026-04-16 05:32:07", "cumulative_total": 72.0 }, "geometry": { "type": "Polygon", "coordinates": [ [ [ -73.750296521260864, 45.916588957397153 ], [ -73.756684546105362, 45.919256879225365 ], [ -73.756568477991607, 45.92445207646707 ], [ -73.75006318221142, 45.926979326529001 ], [ -73.743674603994805, 45.924311032139613 ], [ -73.743791874919637, 45.919115860314974 ], [ -73.750296521260864, 45.916588957397153 ] ] ] } },
{ "type": "Feature", "properties": { "hex_id": 557459, "centroid_lon": -73.737640114771835, "centroid_lat": 45.906056886208098, "occurrences_today": 5, "datetimes_today": "2026-04-16 04:31:44, 2026-04-16 04:47:06, 2026-04-16 05:02:15, 2026-04-16 05:17:04, 2026-04-16 05:32:07", "cumulative_total": 60.0 }, "geometry": { "type": "Polygon", "coordinates": [ [ [ -73.737757873924494, 45.900861709762935 ], [ -73.744143494647162, 45.903530314979712 ], [ -73.744026320234894, 45.908725501734963 ], [ -73.737522323299913, 45.911252057674105 ], [ -73.731136150161632, 45.908583079979245 ], [ -73.731254526362974, 45.903387918888761 ], [ -73.737757873924494, 45.900861709762935 ] ] ] } },
{ "type": "Feature", "properties": { "hex_id": 557460, "centroid_lon": -73.737286643354381, "centroid_lat": 45.92164238566842, "occurrences_today": 5, "datetimes_today": "2026-04-16 04:31:44, 2026-04-16 04:47:06, 2026-04-16 05:02:15, 2026-04-16 05:17:04, 2026-04-16 05:32:07", "cumulative_total": 60.0 }, "geometry": { "type": "Polygon", "coordinates": [ [ [ -73.737404499497757, 45.916447224160898 ], [ -73.743791874919637, 45.919115860314974 ], [ -73.743674603994805, 45.924311032139613 ], [ -73.737168754858828, 45.926837542196637 ], [ -73.73078082657608, 45.924168533361041 ], [ -73.730899300279191, 45.918973387215438 ], [ -73.737404499497757, 45.916447224160898 ] ] ] } },
{ "type": "Feature", "properties": { "hex_id": 558069, "centroid_lon": -73.731372870085778, "centroid_lat": 45.898192752816769, "occurrences_today": 5, "datetimes_today": "2026-04-16 04:31:44, 2026-04-16 04:47:06, 2026-04-16 05:02:15, 2026-04-16 05:17:04, 2026-04-16 05:32:07", "cumulative_total": 60.0 }, "geometry": { "type": "Polygon", "coordinates": [ [ [ -73.731491181341042, 45.892997581763339 ], [ -73.737875600768845, 45.895666528338658 ], [ -73.737757873924494, 45.900861709762935 ], [ -73.731254526362974, 45.903387918888761 ], [ -73.724869554997298, 45.900718599876946 ], [ -73.724988483120015, 45.895523444241206 ], [ -73.731491181341042, 45.892997581763339 ] ] ] } },
{ "type": "Feature", "properties": { "hex_id": 558070, "centroid_lon": -73.731017741470694, "centroid_lat": 45.913778236088156, "occurrences_today": 5, "datetimes_today": "2026-04-16 04:31:44, 2026-04-16 04:47:06, 2026-04-16 05:02:15, 2026-04-16 05:17:04, 2026-04-16 05:32:07", "cumulative_total": 60.0 }, "geometry": { "type": "Polygon", "coordinates": [ [ [ -73.731136150161632, 45.908583079979245 ], [ -73.737522323299913, 45.911252057674105 ], [ -73.737404499497757, 45.916447224160898 ], [ -73.730899300279191, 45.918973387215438 ], [ -73.724512574758251, 45.916304036880682 ], [ -73.724631600827493, 45.911108896196744 ], [ -73.731136150161632, 45.908583079979245 ] ] ] } },
{ "type": "Feature", "properties": { "hex_id": 558680, "centroid_lon": -73.724750594236809, "centroid_lat": 45.905913750528818, "occurrences_today": 5, "datetimes_today": "2026-04-16 04:31:44, 2026-04-16 04:47:06, 2026-04-16 05:02:15, 2026-04-16 05:17:04, 2026-04-16 05:32:07", "cumulative_total": 60.0 }, "geometry": { "type": "Polygon", "coordinates": [ [ [ -73.724869554997298, 45.900718599876946 ], [ -73.731254526362974, 45.903387918888761 ], [ -73.731136150161632, 45.908583079979245 ], [ -73.724631600827493, 45.911108896196744 ], [ -73.718246077557041, 45.908439204586664 ], [ -73.718365655514432, 45.90324406942279 ], [ -73.724869554997298, 45.900718599876946 ] ] ] } },
{ "type": "Feature", "properties": { "hex_id": 573312, "centroid_lon": -73.578022569888091, "centroid_lat": 45.592384588784441, "occurrences_today": 8, "datetimes_today": "2026-04-16 05:46:50, 2026-04-16 06:01:52, 2026-04-16 06:32:04, 2026-04-16 06:47:04, 2026-04-16 07:01:46, 2026-04-16 07:16:58, 2026-04-16 07:31:54, 2026-04-16 08:04:39", "cumulative_total": 200.0 }, "geometry": { "type": "Polygon", "coordinates": [ [ [ -73.578153773614019, 45.587189465514491 ], [ -73.584496261263496, 45.58986662478123 ], [ -73.584365630494986, 45.595061759872991 ], [ -73.577891330293994, 45.597579707014226 ], [ -73.571548305561294, 45.594902177775907 ], [ -73.571680118100744, 45.58970707143262 ], [ -73.578153773614019, 45.587189465514491 ] ] ] } },
{ "type": "Feature", "properties": { "hex_id": 547062, "centroid_lon": -73.853129198813264, "centroid_lat": 45.6188635059831, "occurrences_today": 2, "datetimes_today": "2026-04-16 07:31:54, 2026-04-16 08:04:39", "cumulative_total": 117.0 }, "geometry": { "type": "Polygon", "coordinates": [ [ [ -73.853235120349567, 45.613667846730195 ], [ -73.859593952120008, 45.616329870665574 ], [ -73.85948860806846, 45.621525539017298 ], [ -73.853023248307935, 45.62405916029779 ], [ -73.846663868026639, 45.621396768643017 ], [ -73.846770396006974, 45.61620112349194 ], [ -73.853235120349567, 45.613667846730195 ] ] ] } },
{ "type": "Feature", "properties": { "hex_id": 674673, "centroid_lon": -72.502230376629456, "centroid_lat": 45.854543904050608, "occurrences_today": 9, "datetimes_today": "2026-04-16 00:02:00, 2026-04-16 00:17:04, 2026-04-16 00:31:41, 2026-04-16 00:46:53, 2026-04-16 01:01:52, 2026-04-16 01:16:59, 2026-04-16 01:32:29, 2026-04-16 01:47:45, 2026-04-16 02:01:52", "cumulative_total": 44.0 }, "geometry": { "type": "Polygon", "coordinates": [ [ [ -72.502462908252795, 45.849352361941783 ], [ -72.508780644117522, 45.852088674293967 ], [ -72.508548678204619, 45.857280238886318 ], [ -72.501997781273374, 45.859735440503862 ], [ -72.495679543441739, 45.856998745077988 ], [ -72.495912704486699, 45.851807231173254 ], [ -72.502462908252795, 45.849352361941783 ] ] ] } },
{ "type": "Feature", "properties": { "hex_id": 379778, "centroid_lon": -75.609255687370847, "centroid_lat": 45.513864202993496, "occurrences_today": 4, "datetimes_today": "2026-04-16 07:01:46, 2026-04-16 07:16:58, 2026-04-16 07:31:54, 2026-04-16 08:04:39", "cumulative_total": 50.0 }, "geometry": { "type": "Polygon", "coordinates": [ [ [ -75.609199621218977, 45.508667699431705 ], [ -75.615628413381572, 45.511231634246641 ], [ -75.615685076232126, 45.516428129222732 ], [ -75.609311768839277, 45.519060701753261 ], [ -75.602882364658896, 45.516496418024296 ], [ -75.602826879894266, 45.51129991074346 ], [ -75.609199621218977, 45.508667699431705 ] ] ] } },
{ "type": "Feature", "properties": { "hex_id": 380388, "centroid_lon": -75.60277141028277, "centroid_lat": 45.506103398661729, "occurrences_today": 4, "datetimes_today": "2026-04-16 07:01:46, 2026-04-16 07:16:58, 2026-04-16 07:31:54, 2026-04-16 08:04:39", "cumulative_total": 98.0 }, "geometry": { "type": "Polygon", "coordinates": [ [ [ -75.60271595581932, 45.500906881779066 ], [ -75.609143570378507, 45.503471191067881 ], [ -75.609199621218977, 45.508667699431705 ], [ -75.602826879894266, 45.51129991074346 ], [ -75.596398653807469, 45.508735252568734 ], [ -75.596343780578081, 45.503538732032773 ], [ -75.60271595581932, 45.500906881779066 ] ] ] } },
{ "type": "Feature", "properties": { "hex_id": 564785, "centroid_lon": -73.660304480531323, "centroid_lat": 45.905176270341798, "occurrences_today": 5, "datetimes_today": "2026-04-16 04:31:44, 2026-04-16 04:47:06, 2026-04-16 05:02:15, 2026-04-16 05:17:04, 2026-04-16 05:32:07", "cumulative_total": 41.0 }, "geometry": { "type": "Polygon", "coordinates": [ [ [ -73.660429448826164, 45.899981252583096 ], [ -73.666811166245949, 45.902654138388634 ], [ -73.666686781601612, 45.907849167228122 ], [ -73.66017947794009, 45.910371283091976 ], [ -73.653797211172019, 45.907698024089065 ], [ -73.653922797402146, 45.902503022485106 ], [ -73.660429448826164, 45.899981252583096 ] ] ] } },
{ "type": "Feature", "properties": { "hex_id": 565395, "centroid_lon": -73.654048349176946, "centroid_lat": 45.897308015870117, "occurrences_today": 5, "datetimes_today": "2026-04-16 04:31:44, 2026-04-16 04:47:06, 2026-04-16 05:02:15, 2026-04-16 05:17:04, 2026-04-16 05:32:07", "cumulative_total": 112.0 }, "geometry": { "type": "Polygon", "coordinates": [ [ [ -73.654173866508131, 45.89211300424418 ], [ -73.660554382836224, 45.894786229815907 ], [ -73.660429448826164, 45.899981252583096 ], [ -73.653922797402146, 45.902503022485106 ], [ -73.64754173220237, 45.899829423758106 ], [ -73.647667867286629, 45.894634428349754 ], [ -73.654173866508131, 45.89211300424418 ] ] ] } },
{ "type": "Feature", "properties": { "hex_id": 559294, "centroid_lon": -73.717048491089599, "centroid_lat": 45.960390281966085, "occurrences_today": 5, "datetimes_today": "2026-04-16 04:31:44, 2026-04-16 04:47:06, 2026-04-16 05:02:15, 2026-04-16 05:17:04, 2026-04-16 05:32:07", "cumulative_total": 10.0 }, "geometry": { "type": "Polygon", "coordinates": [ [ [ -73.717168397740423, 45.95519519666837 ], [ -73.723559189116742, 45.95786498292204 ], [ -73.723439868609049, 45.963060078747652 ], [ -73.716928551508033, 45.965585362276876 ], [ -73.71053720692494, 45.962915202652084 ], [ -73.710657732638424, 45.957720132934718 ], [ -73.717168397740423, 45.95519519666837 ] ] ] } },
{ "type": "Feature", "properties": { "hex_id": 560515, "centroid_lon": -73.704146481569879, "centroid_lat": 45.960244690814477, "occurrences_today": 5, "datetimes_today": "2026-04-16 04:31:44, 2026-04-16 04:47:06, 2026-04-16 05:02:15, 2026-04-16 05:17:04, 2026-04-16 05:32:07", "cumulative_total": 16.0 }, "geometry": { "type": "Polygon", "coordinates": [ [ [ -73.70426759324431, 45.955049631753731 ], [ -73.710657732638424, 45.957720132934718 ], [ -73.71053720692494, 45.962915202652084 ], [ -73.704025336633961, 45.965439744883454 ], [ -73.697634644546014, 45.962768870211121 ], [ -73.697756375431567, 45.957573826864312 ], [ -73.70426759324431, 45.955049631753731 ] ] ] } },
{ "type": "Feature", "properties": { "hex_id": 560516, "centroid_lon": -73.703782946932549, "centroid_lat": 45.975829838045826, "occurrences_today": 5, "datetimes_today": "2026-04-16 04:31:44, 2026-04-16 04:47:06, 2026-04-16 05:02:15, 2026-04-16 05:17:04, 2026-04-16 05:32:07", "cumulative_total": 119.0 }, "geometry": { "type": "Polygon", "coordinates": [ [ [ -73.703904158425289, 45.970634793960578 ], [ -73.710296056181519, 45.973305327118624 ], [ -73.710175431129088, 45.978500381867697 ], [ -73.703661702144416, 45.981024877139113 ], [ -73.697269251248926, 45.978353970285738 ], [ -73.697391082466041, 45.973158941921888 ], [ -73.703904158425289, 45.970634793960578 ] ] ] } },
{ "type": "Feature", "properties": { "hex_id": 561126, "centroid_lon": -73.697512880227947, "centroid_lat": 45.967963908563668, "occurrences_today": 5, "datetimes_today": "2026-04-16 04:31:44, 2026-04-16 04:47:06, 2026-04-16 05:02:15, 2026-04-16 05:17:04, 2026-04-16 05:32:07", "cumulative_total": 11.0 }, "geometry": { "type": "Polygon", "coordinates": [ [ [ -73.697634644546014, 45.962768870211121 ], [ -73.704025336633961, 45.965439744883454 ], [ -73.703904158425289, 45.970634793960578 ], [ -73.697391082466041, 45.973158941921888 ], [ -73.690999837718252, 45.970487693596134 ], [ -73.691122221578169, 45.965292671028074 ], [ -73.697634644546014, 45.962768870211121 ] ] ] } },
{ "type": "Feature", "properties": { "hex_id": 561736, "centroid_lon": -73.691244571834531, "centroid_lat": 45.960097643463264, "occurrences_today": 5, "datetimes_today": "2026-04-16 04:31:44, 2026-04-16 04:47:06, 2026-04-16 05:02:15, 2026-04-16 05:17:04, 2026-04-16 05:32:07", "cumulative_total": 11.0 }, "geometry": { "type": "Polygon", "coordinates": [ [ [ -73.691366888498735, 45.954902610901755 ], [ -73.697756375431567, 45.957573826864312 ], [ -73.697634644546014, 45.962768870211121 ], [ -73.691122221578169, 45.965292671028074 ], [ -73.684732182464558, 45.962621081454103 ], [ -73.684855118488144, 45.95742606474014 ], [ -73.691366888498735, 45.954902610901755 ] ] ] } },
{ "type": "Feature", "properties": { "hex_id": 562346, "centroid_lon": -73.684978020759957, "centroid_lat": 45.952231043027027, "occurrences_today": 5, "datetimes_today": "2026-04-16 04:31:44, 2026-04-16 04:47:06, 2026-04-16 05:02:15, 2026-04-16 05:17:04, 2026-04-16 05:32:07", "cumulative_total": 11.0 }, "geometry": { "type": "Polygon", "coordinates": [ [ [ -73.685100889291434, 45.947036016314847 ], [ -73.691489171582162, 45.949707573343609 ], [ -73.691366888498735, 45.954902610901755 ], [ -73.684855118488144, 45.95742606474014 ], [ -73.678466284495414, 45.954754134141936 ], [ -73.678589772203807, 45.949559123340329 ], [ -73.685100889291434, 45.947036016314847 ] ] ] } },
{ "type": "Feature", "properties": { "hex_id": 562347, "centroid_lon": -73.684609212677742, "centroid_lat": 45.967816093168857, "occurrences_today": 5, "datetimes_today": "2026-04-16 04:31:44, 2026-04-16 04:47:06, 2026-04-16 05:02:15, 2026-04-16 05:17:04, 2026-04-16 05:32:07", "cumulative_total": 11.0 }, "geometry": { "type": "Polygon", "coordinates": [ [ [ -73.684732182464558, 45.962621081454103 ], [ -73.691122221578169, 45.965292671028074 ], [ -73.690999837718252, 45.970487693596134 ], [ -73.684486209116216, 45.973011099884339 ], [ -73.678095617856158, 45.970339136536865 ], [ -73.678219207333115, 45.96514414074025 ], [ -73.684732182464558, 45.962621081454103 ] ] ] } },
{ "type": "Feature", "properties": { "hex_id": 562957, "centroid_lon": -73.678342762875673, "centroid_lat": 45.959949139941919, "occurrences_today": 5, "datetimes_today": "2026-04-16 04:31:44, 2026-04-16 04:47:06, 2026-04-16 05:02:15, 2026-04-16 05:17:04, 2026-04-16 05:32:07", "cumulative_total": 11.0 }, "geometry": { "type": "Polygon", "coordinates": [ [ [ -73.678466284495414, 45.954754134141936 ], [ -73.684855118488144, 45.95742606474014 ], [ -73.684732182464558, 45.962621081454103 ], [ -73.678219207333115, 45.96514414074025 ], [ -73.67182982167283, 45.962471836410629 ], [ -73.671953962800032, 45.957276846591803 ], [ -73.678466284495414, 45.954754134141936 ] ] ] } },
{ "type": "Feature", "properties": { "hex_id": 563567, "centroid_lon": -73.672078069844829, "centroid_lat": 45.952081851768867, "occurrences_today": 5, "datetimes_today": "2026-04-16 04:31:44, 2026-04-16 04:47:06, 2026-04-16 05:02:15, 2026-04-16 05:17:04, 2026-04-16 05:32:07", "cumulative_total": 11.0 }, "geometry": { "type": "Polygon", "coordinates": [ [ [ -73.672202142818833, 45.946886851941855 ], [ -73.678589772203807, 45.949559123340329 ], [ -73.678466284495414, 45.954754134141936 ], [ -73.671953962800032, 45.957276846591803 ], [ -73.665565782226068, 45.954604201503997 ], [ -73.665690474524894, 45.949409217721161 ], [ -73.672202142818833, 45.946886851941855 ] ] ] } },
{ "type": "Feature", "properties": { "hex_id": 564177, "centroid_lon": -73.665815132593465, "centroid_lat": 45.944214228931799, "occurrences_today": 5, "datetimes_today": "2026-04-16 04:31:44, 2026-04-16 04:47:06, 2026-04-16 05:02:15, 2026-04-16 05:17:04, 2026-04-16 05:32:07", "cumulative_total": 11.0 }, "geometry": { "type": "Polygon", "coordinates": [ [ [ -73.665939756443407, 45.939019235135937 ], [ -73.672326181733553, 45.941691847110832 ], [ -73.672202142818833, 45.946886851941855 ], [ -73.665690474524894, 45.949409217721161 ], [ -73.659303498523983, 45.946736232099035 ], [ -73.659428741516152, 45.941541254410346 ], [ -73.665939756443407, 45.939019235135937 ] ] ] } },
{ "type": "Feature", "properties": { "hex_id": 564178, "centroid_lon": -73.665441055685349, "centroid_lat": 45.959799180280193, "occurrences_today": 5, "datetimes_today": "2026-04-16 04:31:44, 2026-04-16 04:47:06, 2026-04-16 05:02:15, 2026-04-16 05:17:04, 2026-04-16 05:32:07", "cumulative_total": 11.0 }, "geometry": { "type": "Polygon", "coordinates": [ [ [ -73.665565782226068, 45.954604201503997 ], [ -73.671953962800032, 45.957276846591803 ], [ -73.67182982167283, 45.962471836410629 ], [ -73.665316294891127, 45.964994154049741 ], [ -73.658927563163004, 45.962321135110635 ], [ -73.65905290935909, 45.957126172449243 ], [ -73.665565782226068, 45.954604201503997 ] ] ] } },
{ "type": "Feature", "properties": { "hex_id": 558686, "centroid_lon": -73.722603706844637, "centroid_lat": 45.999425609957022, "occurrences_today": 6, "datetimes_today": "2026-04-16 04:31:44, 2026-04-16 04:47:06, 2026-04-16 05:02:15, 2026-04-16 05:17:04, 2026-04-16 05:32:07, 2026-04-16 05:46:50", "cumulative_total": 15.0 }, "geometry": { "type": "Polygon", "coordinates": [ [ [ -73.722723256982988, 45.994230549024238 ], [ -73.729118774824997, 45.996900056293882 ], [ -73.728999812120804, 46.002095127708003 ], [ -73.722484123857271, 46.004620665904881 ], [ -73.71608805143569, 46.001950784814269 ], [ -73.716208221846045, 45.996755739413409 ], [ -73.722723256982988, 45.994230549024238 ] ] ] } },
{ "type": "Feature", "properties": { "hex_id": 559296, "centroid_lon": -73.716328359247228, "centroid_lat": 45.991560689025235, "occurrences_today": 5, "datetimes_today": "2026-04-16 04:31:44, 2026-04-16 04:47:06, 2026-04-16 05:02:15, 2026-04-16 05:17:04, 2026-04-16 05:32:07", "cumulative_total": 29.0 }, "geometry": { "type": "Polygon", "coordinates": [ [ [ -73.716448463650451, 45.986365633649832 ], [ -73.722842774283521, 45.989035483106619 ], [ -73.722723256982988, 45.994230549024238 ], [ -73.716208221846045, 45.996755739413409 ], [ -73.709813357113845, 45.994085516177506 ], [ -73.709934081606505, 45.988890476397202 ], [ -73.716448463650451, 45.986365633649832 ] ] ] } },
{ "type": "Feature", "properties": { "hex_id": 659991, "centroid_lon": -72.676066067858557, "centroid_lat": 45.390503238247746, "occurrences_today": 30, "datetimes_today": "2026-04-16 00:02:00, 2026-04-16 00:17:04, 2026-04-16 00:31:41, 2026-04-16 00:46:53, 2026-04-16 01:01:52, 2026-04-16 01:16:59, 2026-04-16 01:32:29, 2026-04-16 01:47:45, 2026-04-16 02:01:52, 2026-04-16 02:24:03, 2026-04-16 02:48:14, 2026-04-16 03:01:43, 2026-04-16 03:17:11, 2026-04-16 03:31:56, 2026-04-16 03:46:56, 2026-04-16 04:01:43, 2026-04-16 04:17:03, 2026-04-16 04:31:44, 2026-04-16 04:47:06, 2026-04-16 05:02:15, 2026-04-16 05:17:04, 2026-04-16 05:32:07, 2026-04-16 05:46:50, 2026-04-16 06:01:52, 2026-04-16 06:32:04, 2026-04-16 06:47:04, 2026-04-16 07:01:46, 2026-04-16 07:16:58, 2026-04-16 07:31:54, 2026-04-16 08:04:39", "cumulative_total": 65.0 }, "geometry": { "type": "Polygon", "coordinates": [ [ [ -72.676278954053871, 45.385310608552885 ], [ -72.682554469543518, 45.388036656399713 ], [ -72.682342137790229, 45.393229306694394 ], [ -72.675853123635903, 45.395695862419636 ], [ -72.669577111741262, 45.392969438998833 ], [ -72.669790610386556, 45.387776835490754 ], [ -72.676278954053871, 45.385310608552885 ] ] ] } },
{ "type": "Feature", "properties": { "hex_id": 675318, "centroid_lon": -72.471317684332604, "centroid_lat": 46.391694304566379, "occurrences_today": 5, "datetimes_today": "2026-04-16 00:02:00, 2026-04-16 00:17:04, 2026-04-16 00:31:41, 2026-04-16 00:46:53, 2026-04-16 01:01:52", "cumulative_total": 31.0 }, "geometry": { "type": "Polygon", "coordinates": [ [ [ -72.471557543238816, 46.386503375286821 ], [ -72.477934291740098, 46.389242394767557 ], [ -72.477695014504263, 46.394433347071455 ], [ -72.47107775923682, 46.396885228154105 ], [ -72.464700495266101, 46.394145818276442 ], [ -72.464941002009525, 46.388954917779301 ], [ -72.471557543238816, 46.386503375286821 ] ] ] } },
{ "type": "Feature", "properties": { "hex_id": 552550, "centroid_lon": -73.79758529147081, "centroid_lat": 45.516955356286196, "occurrences_today": 5, "datetimes_today": "2026-04-16 05:02:15, 2026-04-16 05:17:04, 2026-04-16 05:32:07, 2026-04-16 05:46:50, 2026-04-16 06:01:52", "cumulative_total": 85.0 }, "geometry": { "type": "Polygon", "coordinates": [ [ [ -73.797695948410777, 45.511759707384449 ], [ -73.804040702955703, 45.514424727638684 ], [ -73.803930619660662, 45.519620386169976 ], [ -73.797474604304611, 45.52215100023119 ], [ -73.791129306346065, 45.519485613022425 ], [ -73.791240567147042, 45.514289978771529 ], [ -73.797695948410777, 45.511759707384449 ] ] ] } },
{ "type": "Feature", "properties": { "hex_id": 559269, "centroid_lon": -73.725950886324625, "centroid_lat": 45.570745049915324, "occurrences_today": 2, "datetimes_today": "2026-04-16 07:31:54, 2026-04-16 08:04:39", "cumulative_total": 176.0 }, "geometry": { "type": "Polygon", "coordinates": [ [ [ -73.726068354664704, 45.565549590761997 ], [ -73.732415636858647, 45.568218594161024 ], [ -73.732298742827325, 45.573414063665837 ], [ -73.725833385877806, 45.575940504086148 ], [ -73.719485561487261, 45.573271132376327 ], [ -73.719603636232037, 45.568075688621647 ], [ -73.726068354664704, 45.565549590761997 ] ] ] } },
{ "type": "Feature", "properties": { "hex_id": 582464, "centroid_lon": -73.484206340941796, "centroid_lat": 45.5054308969383, "occurrences_today": 6, "datetimes_today": "2026-04-16 00:02:00, 2026-04-16 00:17:04, 2026-04-16 00:31:41, 2026-04-16 00:46:53, 2026-04-16 01:01:52, 2026-04-16 01:16:59", "cumulative_total": 66.0 }, "geometry": { "type": "Polygon", "coordinates": [ [ [ -73.484345775795518, 45.500235912718949 ], [ -73.490674007873167, 45.502918139967221 ], [ -73.490535142078386, 45.508113136913188 ], [ -73.484066868011325, 45.510625876078329 ], [ -73.477738104957879, 45.507943279090661 ], [ -73.477878146934501, 45.502748312741709 ], [ -73.484345775795518, 45.500235912718949 ] ] ] } },
{ "type": "Feature", "properties": { "hex_id": 550110, "centroid_lon": -73.822536485932545, "centroid_lat": 45.54839608775147, "occurrences_today": 2, "datetimes_today": "2026-04-16 07:31:54, 2026-04-16 08:04:39", "cumulative_total": 57.0 }, "geometry": { "type": "Polygon", "coordinates": [ [ [ -73.822644965770991, 45.543200420498586 ], [ -73.828994433385162, 45.54586408702604 ], [ -73.828886528478506, 45.551059763667396 ], [ -73.822427976451038, 45.553591750056043 ], [ -73.816077963553099, 45.550927716412126 ], [ -73.816187047956433, 45.545732063560664 ], [ -73.822644965770991, 45.543200420498586 ] ] ] } },
{ "type": "Feature", "properties": { "hex_id": 656938, "centroid_lon": -72.708292648207774, "centroid_lat": 45.383359273998238, "occurrences_today": 6, "datetimes_today": "2026-04-16 06:32:04, 2026-04-16 06:47:04, 2026-04-16 07:01:46, 2026-04-16 07:16:58, 2026-04-16 07:31:54, 2026-04-16 08:04:39", "cumulative_total": 14.0 }, "geometry": { "type": "Polygon", "coordinates": [ [ [ -72.708502531573643, 45.378166519895679 ], [ -72.71477888916607, 45.380890813839976 ], [ -72.714569560487362, 45.386083588226505 ], [ -72.708082707636635, 45.388552022599256 ], [ -72.70180585257188, 45.385827353455738 ], [ -72.702016347811082, 45.380634625202681 ], [ -72.708502531573643, 45.378166519895679 ] ] ] } },
{ "type": "Feature", "properties": { "hex_id": 652654, "centroid_lon": -72.759420498650314, "centroid_lat": 45.220667868137866, "occurrences_today": 9, "datetimes_today": "2026-04-16 00:02:00, 2026-04-16 00:17:04, 2026-04-16 00:31:41, 2026-04-16 00:46:53, 2026-04-16 01:01:52, 2026-04-16 01:16:59, 2026-04-16 01:32:29, 2026-04-16 01:47:45, 2026-04-16 02:01:52", "cumulative_total": 40.0 }, "geometry": { "type": "Polygon", "coordinates": [ [ [ -72.759624541821807, 45.215474781894308 ], [ -72.765885820494319, 45.218196038762393 ], [ -72.765682327985687, 45.223389144731613 ], [ -72.759216399970171, 45.225860948916733 ], [ -72.752954626152672, 45.223139319367029 ], [ -72.753159275477188, 45.217946258377467 ], [ -72.759624541821807, 45.215474781894308 ] ] ] } },
{ "type": "Feature", "properties": { "hex_id": 551940, "centroid_lon": -73.80382050629504, "centroid_lat": 45.524816039746703, "occurrences_today": 5, "datetimes_today": "2026-04-16 05:02:15, 2026-04-16 05:17:04, 2026-04-16 05:32:07, 2026-04-16 05:46:50, 2026-04-16 06:01:52", "cumulative_total": 223.0 }, "geometry": { "type": "Polygon", "coordinates": [ [ [ -73.803930619660662, 45.519620386169976 ], [ -73.810276551726687, 45.522285068324351 ], [ -73.810167012327454, 45.527480731470405 ], [ -73.803710362848776, 45.530011688368795 ], [ -73.797363886902062, 45.527346639219381 ], [ -73.797474604304611, 45.52215100023119 ], [ -73.803930619660662, 45.519620386169976 ] ] ] } },
{ "type": "Feature", "properties": { "hex_id": 545841, "centroid_lon": -73.865953390182426, "centroid_lat": 45.618991545107889, "occurrences_today": 2, "datetimes_today": "2026-04-16 07:31:54, 2026-04-16 08:04:39", "cumulative_total": 42.0 }, "geometry": { "type": "Polygon", "coordinates": [ [ [ -73.866058127937151, 45.613795862786063 ], [ -73.872417594640169, 45.616457178665179 ], [ -73.872313434546484, 45.621652869958332 ], [ -73.865848623782256, 45.624187222495728 ], [ -73.85948860806846, 45.621525539017298 ], [ -73.859593952120008, 45.616329870665574 ], [ -73.866058127937151, 45.613795862786063 ] ] ] } },
{ "type": "Feature", "properties": { "hex_id": 740044, "centroid_lon": -71.770987452054257, "centroid_lat": 46.576706243249859, "occurrences_today": 1, "datetimes_today": "2026-04-16 08:04:39", "cumulative_total": 54.0 }, "geometry": { "type": "Polygon", "coordinates": [ [ [ -71.771295661876479, 46.571518676702226 ], [ -71.777656292584979, 46.574296343189332 ], [ -71.777348659483039, 46.579483939715672 ], [ -71.770679157027089, 46.581893803499426 ], [ -71.764318034817919, 46.579115738103539 ], [ -71.764626906536023, 46.57392820789908 ], [ -71.771295661876479, 46.571518676702226 ] ] ] } },
{ "type": "Feature", "properties": { "hex_id": 546451, "centroid_lon": -73.85969926736918, "centroid_lat": 45.611134197377773, "occurrences_today": 2, "datetimes_today": "2026-04-16 07:31:54, 2026-04-16 08:04:39", "cumulative_total": 94.0 }, "geometry": { "type": "Polygon", "coordinates": [ [ [ -73.859804553825654, 45.605938519153966 ], [ -73.866162837056066, 45.608600175530285 ], [ -73.866058127937151, 45.613795862786063 ], [ -73.859593952120008, 45.616329870665574 ], [ -73.853235120349567, 45.613667846730195 ], [ -73.853341012926606, 45.608472182539124 ], [ -73.859804553825654, 45.605938519153966 ] ] ] } },
{ "type": "Feature", "properties": { "hex_id": 559295, "centroid_lon": -73.716688573507909, "centroid_lat": 45.975975507937513, "occurrences_today": 5, "datetimes_today": "2026-04-16 04:31:44, 2026-04-16 04:47:06, 2026-04-16 05:02:15, 2026-04-16 05:17:04, 2026-04-16 05:32:07", "cumulative_total": 8.0 }, "geometry": { "type": "Polygon", "coordinates": [ [ [ -73.716808578984541, 45.970780437600709 ], [ -73.723201129269654, 45.973450255445172 ], [ -73.723081710415698, 45.978645336317022 ], [ -73.716568535066955, 45.981170573287237 ], [ -73.710175431129088, 45.978500381867697 ], [ -73.710296056181519, 45.973305327118624 ], [ -73.716808578984541, 45.970780437600709 ] ] ] } },
{ "type": "Feature", "properties": { "hex_id": 558685, "centroid_lon": -73.722962258757363, "centroid_lat": 45.983840412204195, "occurrences_today": 5, "datetimes_today": "2026-04-16 04:31:44, 2026-04-16 04:47:06, 2026-04-16 05:02:15, 2026-04-16 05:17:04, 2026-04-16 05:32:07", "cumulative_total": 20.0 }, "geometry": { "type": "Polygon", "coordinates": [ [ [ -73.723081710415698, 45.978645336317022 ], [ -73.729475466916057, 45.981314812156917 ], [ -73.729356602211524, 45.986509898518285 ], [ -73.722842774283521, 45.989035483106619 ], [ -73.716448463650451, 45.986365633649832 ], [ -73.716568535066955, 45.981170573287237 ], [ -73.723081710415698, 45.978645336317022 ] ] ] } },
{ "type": "Feature", "properties": { "hex_id": 559906, "centroid_lon": -73.710054772941177, "centroid_lat": 45.983695431627247, "occurrences_today": 5, "datetimes_today": "2026-04-16 04:31:44, 2026-04-16 04:47:06, 2026-04-16 05:02:15, 2026-04-16 05:17:04, 2026-04-16 05:32:07", "cumulative_total": 128.0 }, "geometry": { "type": "Polygon", "coordinates": [ [ [ -73.710175431129088, 45.978500381867697 ], [ -73.716568535066955, 45.981170573287237 ], [ -73.716448463650451, 45.986365633649832 ], [ -73.709934081606505, 45.988890476397202 ], [ -73.703540424049621, 45.986219911240404 ], [ -73.703661702144416, 45.981024877139113 ], [ -73.710175431129088, 45.978500381867697 ] ] ] } },
{ "type": "Feature", "properties": { "hex_id": 556851, "centroid_lon": -73.743205198259375, "centroid_lat": 45.945091669667967, "occurrences_today": 3, "datetimes_today": "2026-04-16 05:02:15, 2026-04-16 05:17:04, 2026-04-16 05:32:07", "cumulative_total": 131.0 }, "geometry": { "type": "Polygon", "coordinates": [ [ [ -73.743322598020512, 45.939896517751521 ], [ -73.74971293336155, 45.942564842916845 ], [ -73.74959611962791, 45.947760005096612 ], [ -73.743087766261809, 45.950286816607225 ], [ -73.736696877135159, 45.947618118515223 ], [ -73.736814895149266, 45.942422981904805 ], [ -73.743322598020512, 45.939896517751521 ] ] ] } },
{ "type": "Feature", "properties": { "hex_id": 600781, "centroid_lon": -73.291329672466006, "centroid_lat": 45.533888935133149, "occurrences_today": 1, "datetimes_today": "2026-04-16 08:04:39", "cumulative_total": 88.0 }, "geometry": { "type": "Polygon", "coordinates": [ [ [ -73.291487000689401, 45.528694469852077 ], [ -73.29780890694758, 45.531387285532027 ], [ -73.297652145992544, 45.536581765447814 ], [ -73.291172301268929, 45.5390833952451 ], [ -73.28484987072332, 45.536390207687241 ], [ -73.285007809174331, 45.531195762274521 ], [ -73.291487000689401, 45.528694469852077 ] ] ] } },
{ "type": "Feature", "properties": { "hex_id": 492104, "centroid_lon": -74.432330953712722, "centroid_lat": 45.420535291606512, "occurrences_today": 7, "datetimes_today": "2026-04-16 00:02:00, 2026-04-16 00:17:04, 2026-04-16 00:31:41, 2026-04-16 00:46:53, 2026-04-16 01:01:52, 2026-04-16 01:16:59, 2026-04-16 01:32:29", "cumulative_total": 123.0 }, "geometry": { "type": "Polygon", "coordinates": [ [ [ -74.432383023386407, 45.415338663970743 ], [ -74.438747257152087, 45.417968557348544 ], [ -74.438695766555753, 45.423165188277707 ], [ -74.432278869830085, 45.42573191444712 ], [ -74.425914071198392, 45.423101661425626 ], [ -74.425966734153619, 45.417905041942831 ], [ -74.432383023386407, 45.415338663970743 ] ] ] } },
{ "type": "Feature", "properties": { "hex_id": 492715, "centroid_lon": -74.42586139387187, "centroid_lat": 45.428298276112201, "occurrences_today": 7, "datetimes_today": "2026-04-16 00:02:00, 2026-04-16 00:17:04, 2026-04-16 00:31:41, 2026-04-16 00:46:53, 2026-04-16 01:01:52, 2026-04-16 01:16:59, 2026-04-16 01:32:29", "cumulative_total": 123.0 }, "geometry": { "type": "Polygon", "coordinates": [ [ [ -74.425914071198392, 45.423101661425626 ], [ -74.432278869830085, 45.42573191444712 ], [ -74.432226771733724, 45.430928532492523 ], [ -74.425808702169263, 45.433494886002556 ], [ -74.419443338685923, 45.430864273177114 ], [ -74.419496609613859, 45.425667666710048 ], [ -74.425914071198392, 45.423101661425626 ] ] ] } },
{ "type": "Feature", "properties": { "hex_id": 493325, "centroid_lon": -74.41954986600814, "centroid_lat": 45.420471055445695, "occurrences_today": 7, "datetimes_today": "2026-04-16 00:02:00, 2026-04-16 00:17:04, 2026-04-16 00:31:41, 2026-04-16 00:46:53, 2026-04-16 01:01:52, 2026-04-16 01:16:59, 2026-04-16 01:32:29", "cumulative_total": 123.0 }, "geometry": { "type": "Polygon", "coordinates": [ [ [ -74.419603107873655, 45.415274439384056 ], [ -74.425966734153619, 45.417905041942831 ], [ -74.425914071198392, 45.423101661425626 ], [ -74.419496609613859, 45.425667666710048 ], [ -74.413132418954845, 45.423036704383541 ], [ -74.413186254254541, 45.417840096604756 ], [ -74.419603107873655, 45.415274439384056 ] ] ] } },
{ "type": "Feature", "properties": { "hex_id": 564174, "centroid_lon": -73.666935516764411, "centroid_lat": 45.897459104543138, "occurrences_today": 5, "datetimes_today": "2026-04-16 04:31:44, 2026-04-16 04:47:06, 2026-04-16 05:02:15, 2026-04-16 05:17:04, 2026-04-16 05:32:07", "cumulative_total": 157.0 }, "geometry": { "type": "Polygon", "coordinates": [ [ [ -73.667059833168551, 45.892264065691741 ], [ -73.673441001205276, 45.894936578461518 ], [ -73.673317268304302, 45.900131628325838 ], [ -73.666811166245949, 45.902654138388634 ], [ -73.660429448826164, 45.899981252583096 ], [ -73.660554382836224, 45.894786229815907 ], [ -73.667059833168551, 45.892264065691741 ] ] ] } },
{ "type": "Feature", "properties": { "hex_id": 563566, "centroid_lon": -73.672450186600599, "centroid_lat": 45.936496837275875, "occurrences_today": 5, "datetimes_today": "2026-04-16 04:31:44, 2026-04-16 04:47:06, 2026-04-16 05:02:15, 2026-04-16 05:17:04, 2026-04-16 05:32:07", "cumulative_total": 109.0 }, "geometry": { "type": "Polygon", "coordinates": [ [ [ -73.672574157431498, 45.931301822437028 ], [ -73.678960031976146, 45.933974060926552 ], [ -73.678836645932677, 45.939169086732583 ], [ -73.672326181733553, 45.941691847110832 ], [ -73.665939756443407, 45.939019235135937 ], [ -73.666064346086316, 45.933824236333656 ], [ -73.672574157431498, 45.931301822437028 ] ] ] } },
{ "type": "Feature", "properties": { "hex_id": 556240, "centroid_lon": -73.749829715029435, "centroid_lat": 45.937369675762284, "occurrences_today": 3, "datetimes_today": "2026-04-16 05:02:15, 2026-04-16 05:17:04, 2026-04-16 05:32:07", "cumulative_total": 65.0 }, "geometry": { "type": "Polygon", "coordinates": [ [ [ -73.749946464642434, 45.932174503632979 ], [ -73.756336246165134, 45.93484245603365 ], [ -73.756220082430801, 45.940037638358426 ], [ -73.74971293336155, 45.942564842916845 ], [ -73.743322598020512, 45.939896517751521 ], [ -73.743439965556178, 45.934701360857936 ], [ -73.749946464642434, 45.932174503632979 ] ] ] } },
{ "type": "Feature", "properties": { "hex_id": 557461, "centroid_lon": -73.73693288076727, "centroid_lat": 45.937227840314875, "occurrences_today": 5, "datetimes_today": "2026-04-16 04:31:44, 2026-04-16 04:47:06, 2026-04-16 05:02:15, 2026-04-16 05:17:04, 2026-04-16 05:32:07", "cumulative_total": 80.0 }, "geometry": { "type": "Polygon", "coordinates": [ [ [ -73.737050834000115, 45.932032693745455 ], [ -73.743439965556178, 45.934701360857936 ], [ -73.743322598020512, 45.939896517751521 ], [ -73.736814895149266, 45.942422981904805 ], [ -73.730425210286654, 45.939753941907263 ], [ -73.730543781590853, 45.934558810707003 ], [ -73.737050834000115, 45.932032693745455 ] ] ] } },
{ "type": "Feature", "properties": { "hex_id": 562342, "centroid_lon": -73.686450219548789, "centroid_lat": 45.889890392558357, "occurrences_today": 5, "datetimes_today": "2026-04-16 04:31:44, 2026-04-16 04:47:06, 2026-04-16 05:02:15, 2026-04-16 05:17:04, 2026-04-16 05:32:07", "cumulative_total": 45.0 }, "geometry": { "type": "Polygon", "coordinates": [ [ [ -73.686572684088304, 45.884695305861804 ], [ -73.692953953428528, 45.887366732929301 ], [ -73.692832072426526, 45.892561830442546 ], [ -73.68632772140603, 45.895085474256504 ], [ -73.679945902137234, 45.892413674434508 ], [ -73.680068983806095, 45.887218603618436 ], [ -73.686572684088304, 45.884695305861804 ] ] ] } },
{ "type": "Feature", "properties": { "hex_id": 562953, "centroid_lon": -73.679822786694828, "centroid_lat": 45.897608740249694, "occurrences_today": 5, "datetimes_today": "2026-04-16 04:31:44, 2026-04-16 04:47:06, 2026-04-16 05:02:15, 2026-04-16 05:17:04, 2026-04-16 05:32:07", "cumulative_total": 45.0 }, "geometry": { "type": "Polygon", "coordinates": [ [ [ -73.679945902137234, 45.892413674434508 ], [ -73.68632772140603, 45.895085474256504 ], [ -73.686205189648661, 45.900280550956246 ], [ -73.679699637467422, 45.902803801063968 ], [ -73.673317268304302, 45.900131628325838 ], [ -73.673441001205276, 45.894936578461518 ], [ -73.679945902137234, 45.892413674434508 ] ] ] } },
{ "type": "Feature", "properties": { "hex_id": 563563, "centroid_lon": -73.673564700162359, "centroid_lat": 45.889741523593848, "occurrences_today": 5, "datetimes_today": "2026-04-16 04:31:44, 2026-04-16 04:47:06, 2026-04-16 05:02:15, 2026-04-16 05:17:04, 2026-04-16 05:32:07", "cumulative_total": 109.0 }, "geometry": { "type": "Polygon", "coordinates": [ [ [ -73.673688365187033, 45.884546463722806 ], [ -73.680068983806095, 45.887218603618436 ], [ -73.679945902137234, 45.892413674434508 ], [ -73.673441001205276, 45.894936578461518 ], [ -73.667059833168551, 45.892264065691741 ], [ -73.667184115469951, 45.887069021834478 ], [ -73.673688365187033, 45.884546463722806 ] ] ] } },
{ "type": "Feature", "properties": { "hex_id": 563564, "centroid_lon": -73.673193501447912, "centroid_lat": 45.905326673186693, "occurrences_today": 5, "datetimes_today": "2026-04-16 04:31:44, 2026-04-16 04:47:06, 2026-04-16 05:02:15, 2026-04-16 05:17:04, 2026-04-16 05:32:07", "cumulative_total": 38.0 }, "geometry": { "type": "Polygon", "coordinates": [ [ [ -73.673317268304302, 45.900131628325838 ], [ -73.679699637467422, 45.902803801063968 ], [ -73.679576454443563, 45.907998856877235 ], [ -73.67306970062458, 45.910521713044041 ], [ -73.666686781601612, 45.907849167228122 ], [ -73.666811166245949, 45.902654138388634 ], [ -73.673317268304302, 45.900131628325838 ] ] ] } },
{ "type": "Feature", "properties": { "hex_id": 564175, "centroid_lon": -73.666562362819803, "centroid_lat": 45.913044191061587, "occurrences_today": 5, "datetimes_today": "2026-04-16 04:31:44, 2026-04-16 04:47:06, 2026-04-16 05:02:15, 2026-04-16 05:17:04, 2026-04-16 05:32:07", "cumulative_total": 38.0 }, "geometry": { "type": "Polygon", "coordinates": [ [ [ -73.666686781601612, 45.907849167228122 ], [ -73.67306970062458, 45.910521713044041 ], [ -73.672945865822811, 45.915716747897818 ], [ -73.66643790988897, 45.918239209888931 ], [ -73.660054441040799, 45.915566290833567 ], [ -73.66017947794009, 45.910371283091976 ], [ -73.666686781601612, 45.907849167228122 ] ] ] } },
{ "type": "Feature", "properties": { "hex_id": 564784, "centroid_lon": -73.660679282573113, "centroid_lat": 45.889591202040357, "occurrences_today": 5, "datetimes_today": "2026-04-16 04:31:44, 2026-04-16 04:47:06, 2026-04-16 05:02:15, 2026-04-16 05:17:04, 2026-04-16 05:32:07", "cumulative_total": 106.0 }, "geometry": { "type": "Polygon", "coordinates": [ [ [ -73.660804148048456, 45.884396169256426 ], [ -73.667184115469951, 45.887069021834478 ], [ -73.667059833168551, 45.892264065691741 ], [ -73.660554382836224, 45.894786229815907 ], [ -73.654173866508131, 45.89211300424418 ], [ -73.654299349407353, 45.88691798760734 ], [ -73.660804148048456, 45.884396169256426 ] ] ] } },
{ "type": "Feature", "properties": { "hex_id": 565396, "centroid_lon": -73.653671590474943, "centroid_lat": 45.912893020681935, "occurrences_today": 5, "datetimes_today": "2026-04-16 04:31:44, 2026-04-16 04:47:06, 2026-04-16 05:02:15, 2026-04-16 05:17:04, 2026-04-16 05:32:07", "cumulative_total": 38.0 }, "geometry": { "type": "Polygon", "coordinates": [ [ [ -73.653797211172019, 45.907698024089065 ], [ -73.66017947794009, 45.910371283091976 ], [ -73.660054441040799, 45.915566290833567 ], [ -73.653545935299164, 45.918088012263652 ], [ -73.647163119217808, 45.915414379901719 ], [ -73.647289358179705, 45.910219399534157 ], [ -73.653797211172019, 45.907698024089065 ] ] ] } },
{ "type": "Feature", "properties": { "hex_id": 566007, "centroid_lon": -73.647036845606564, "centroid_lat": 45.920609355255564, "occurrences_today": 5, "datetimes_today": "2026-04-16 04:31:44, 2026-04-16 04:47:06, 2026-04-16 05:02:15, 2026-04-16 05:17:04, 2026-04-16 05:32:07", "cumulative_total": 38.0 }, "geometry": { "type": "Polygon", "coordinates": [ [ [ -73.647163119217808, 45.915414379901719 ], [ -73.653545935299164, 45.918088012263652 ], [ -73.653420245633001, 45.923282998834154 ], [ -73.646910537334179, 45.925804325595607 ], [ -73.640527171974739, 45.923130319712939 ], [ -73.640654064180467, 45.917935360655015 ], [ -73.647163119217808, 45.915414379901719 ] ] ] } },
{ "type": "Feature", "properties": { "hex_id": 558072, "centroid_lon": -73.730306606426694, "centroid_lat": 45.944949068125645, "occurrences_today": 5, "datetimes_today": "2026-04-16 04:31:44, 2026-04-16 04:47:06, 2026-04-16 05:02:15, 2026-04-16 05:17:04, 2026-04-16 05:32:07", "cumulative_total": 57.0 }, "geometry": { "type": "Polygon", "coordinates": [ [ [ -73.730425210286654, 45.939753941907263 ], [ -73.736814895149266, 45.942422981904805 ], [ -73.736696877135159, 45.947618118515223 ], [ -73.730187969999903, 45.950144189362071 ], [ -73.723797731863797, 45.947474776317478 ], [ -73.723916954125372, 45.942279665538614 ], [ -73.730425210286654, 45.939753941907263 ] ] ] } },
{ "type": "Feature", "properties": { "hex_id": 560513, "centroid_lon": -73.704872653089623, "centroid_lat": 45.929074261575188, "occurrences_today": 5, "datetimes_today": "2026-04-16 04:31:44, 2026-04-16 04:47:06, 2026-04-16 05:02:15, 2026-04-16 05:17:04, 2026-04-16 05:32:07", "cumulative_total": 67.0 }, "geometry": { "type": "Polygon", "coordinates": [ [ [ -73.704993565432247, 45.923879172564916 ], [ -73.711380192412093, 45.926549609856878 ], [ -73.711259865073131, 45.931744709509289 ], [ -73.704751707553214, 45.934269345593989 ], [ -73.698364528769133, 45.931598535218335 ], [ -73.698486059297949, 45.926403461907171 ], [ -73.704993565432247, 45.923879172564916 ] ] ] } },
{ "type": "Feature", "properties": { "hex_id": 559297, "centroid_lon": -73.715967848004937, "centroid_lat": 46.007145825227795, "occurrences_today": 5, "datetimes_today": "2026-04-16 04:31:44, 2026-04-16 04:47:06, 2026-04-16 05:02:15, 2026-04-16 05:17:04, 2026-04-16 05:32:07", "cumulative_total": 11.0 }, "geometry": { "type": "Polygon", "coordinates": [ [ [ -73.71608805143569, 46.001950784814269 ], [ -73.722484123857271, 46.004620665904881 ], [ -73.722364508009747, 46.009815716867813 ], [ -73.715847611542557, 46.012340860653929 ], [ -73.709450984575, 46.009670605580013 ], [ -73.709571808609368, 46.004475580768968 ], [ -73.71608805143569, 46.001950784814269 ] ] ] } },
{ "type": "Feature", "properties": { "hex_id": 561732, "centroid_lon": -73.692710157980201, "centroid_lat": 45.897756922959843, "occurrences_today": 5, "datetimes_today": "2026-04-16 04:31:44, 2026-04-16 04:47:06, 2026-04-16 05:02:15, 2026-04-16 05:17:04, 2026-04-16 05:32:07", "cumulative_total": 9.0 }, "geometry": { "type": "Polygon", "coordinates": [ [ [ -73.692832072426526, 45.892561830442546 ], [ -73.699214542450676, 45.895232917171057 ], [ -73.699093211871102, 45.900428020444537 ], [ -73.692588210078227, 45.902952010481165 ], [ -73.686205189648661, 45.900280550956246 ], [ -73.68632772140603, 45.895085474256504 ], [ -73.692832072426526, 45.892561830442546 ] ] ] } },
{ "type": "Feature", "properties": { "hex_id": 562345, "centroid_lon": -73.68534652517927, "centroid_lat": 45.93664594789346, "occurrences_today": 5, "datetimes_today": "2026-04-16 04:31:44, 2026-04-16 04:47:06, 2026-04-16 05:02:15, 2026-04-16 05:17:04, 2026-04-16 05:32:07", "cumulative_total": 23.0 }, "geometry": { "type": "Polygon", "coordinates": [ [ [ -73.685469292558523, 45.931450906184395 ], [ -73.691855819461907, 45.934122430689897 ], [ -73.691733637052366, 45.939317483237623 ], [ -73.685223724094058, 45.941840984603644 ], [ -73.678836645932677, 45.939169086732583 ], [ -73.678960031976146, 45.933974060926552 ], [ -73.685469292558523, 45.931450906184395 ] ] ] } },
{ "type": "Feature", "properties": { "hex_id": 562955, "centroid_lon": -73.67908338415431, "centroid_lat": 45.928779030119173, "occurrences_today": 5, "datetimes_today": "2026-04-16 04:31:44, 2026-04-16 04:47:06, 2026-04-16 05:02:15, 2026-04-16 05:17:04, 2026-04-16 05:32:07", "cumulative_total": 19.0 }, "geometry": { "type": "Polygon", "coordinates": [ [ [ -73.679206702478638, 45.923583994310484 ], [ -73.685592026243228, 45.926255859476477 ], [ -73.685469292558523, 45.931450906184395 ], [ -73.678960031976146, 45.933974060926552 ], [ -73.672574157431498, 45.931301822437028 ], [ -73.672698094237802, 45.926106802594376 ], [ -73.679206702478638, 45.923583994310484 ] ] ] } },
{ "type": "Feature", "properties": { "hex_id": 558076, "centroid_lon": -73.728880816727838, "centroid_lat": 46.007290194139614, "occurrences_today": 6, "datetimes_today": "2026-04-16 04:31:44, 2026-04-16 04:47:06, 2026-04-16 05:02:15, 2026-04-16 05:17:04, 2026-04-16 05:32:07, 2026-04-16 05:46:50", "cumulative_total": 15.0 }, "geometry": { "type": "Polygon", "coordinates": [ [ [ -73.728999812120804, 46.002095127708003 ], [ -73.735396537685688, 46.004764292566051 ], [ -73.735278130058532, 46.009959369418098 ], [ -73.728761788634984, 46.012485255588651 ], [ -73.722364508009747, 46.009815716867813 ], [ -73.722484123857271, 46.004620665904881 ], [ -73.728999812120804, 46.002095127708003 ] ] ] } },
{ "type": "Feature", "properties": { "hex_id": 558687, "centroid_lon": -73.722244859290882, "centroid_lat": 46.015010762845733, "occurrences_today": 5, "datetimes_today": "2026-04-16 04:31:44, 2026-04-16 04:47:06, 2026-04-16 05:02:15, 2026-04-16 05:17:04, 2026-04-16 05:32:07", "cumulative_total": 14.0 }, "geometry": { "type": "Polygon", "coordinates": [ [ [ -73.722364508009747, 46.009815716867813 ], [ -73.728761788634984, 46.012485255588651 ], [ -73.728642727831144, 46.01768031205507 ], [ -73.722125177689477, 46.0202058038386 ], [ -73.715727342037326, 46.017535891092585 ], [ -73.715847611542557, 46.012340860653929 ], [ -73.722364508009747, 46.009815716867813 ] ] ] } },
{ "type": "Feature", "properties": { "hex_id": 556241, "centroid_lon": -73.749479273817613, "centroid_lat": 45.952955162301549, "occurrences_today": 3, "datetimes_today": "2026-04-16 05:02:15, 2026-04-16 05:17:04, 2026-04-16 05:32:07", "cumulative_total": 28.0 }, "geometry": { "type": "Polygon", "coordinates": [ [ [ -73.74959611962791, 45.947760005096612 ], [ -73.755987659265813, 45.950427988090667 ], [ -73.755871399813486, 45.955623155498053 ], [ -73.749362395919761, 45.958150314531586 ], [ -73.742970302016886, 45.955481958569273 ], [ -73.743087766261809, 45.950286816607225 ], [ -73.74959611962791, 45.947760005096612 ] ] ] } },
{ "type": "Feature", "properties": { "hex_id": 561735, "centroid_lon": -73.691611421096241, "centroid_lat": 45.944512530788877, "occurrences_today": 5, "datetimes_today": "2026-04-16 04:31:44, 2026-04-16 04:47:06, 2026-04-16 05:02:15, 2026-04-16 05:17:04, 2026-04-16 05:32:07", "cumulative_total": 28.0 }, "geometry": { "type": "Polygon", "coordinates": [ [ [ -73.691733637052366, 45.939317483237623 ], [ -73.698121367606802, 45.941988666858876 ], [ -73.697999736950621, 45.94718372518814 ], [ -73.691489171582162, 45.949707573343609 ], [ -73.685100889291434, 45.947036016314847 ], [ -73.685223724094058, 45.941840984603644 ], [ -73.691733637052366, 45.939317483237623 ] ] ] } },
{ "type": "Feature", "properties": { "hex_id": 558048, "centroid_lon": -73.738763525306865, "centroid_lat": 45.570887249980423, "occurrences_today": 2, "datetimes_today": "2026-04-16 07:31:54, 2026-04-16 08:04:39", "cumulative_total": 12.0 }, "geometry": { "type": "Polygon", "coordinates": [ [ [ -73.738879813078555, 45.565691765208662 ], [ -73.745227733305711, 45.568360063125191 ], [ -73.745112020020059, 45.573555558121413 ], [ -73.73864720575088, 45.576082729774356 ], [ -73.732298742827325, 45.573414063665837 ], [ -73.732415636858647, 45.568218594161024 ], [ -73.738879813078555, 45.565691765208662 ] ] ] } },
{ "type": "Feature", "properties": { "hex_id": 653875, "centroid_lon": -72.746693458645211, "centroid_lat": 45.220417356689644, "occurrences_today": 9, "datetimes_today": "2026-04-16 00:02:00, 2026-04-16 00:17:04, 2026-04-16 00:31:41, 2026-04-16 00:46:53, 2026-04-16 01:01:52, 2026-04-16 01:16:59, 2026-04-16 01:32:29, 2026-04-16 01:47:45, 2026-04-16 02:01:52", "cumulative_total": 25.0 }, "geometry": { "type": "Polygon", "coordinates": [ [ [ -72.746898658447847, 45.215224315549065 ], [ -72.753159275477188, 45.217946258377467 ], [ -72.752954626152672, 45.223139319367029 ], [ -72.746488203019922, 45.225610392357389 ], [ -72.740227091344394, 45.222888076738393 ], [ -72.74043289742923, 45.217695060983253 ], [ -72.746898658447847, 45.215224315549065 ] ] ] } },
{ "type": "Feature", "properties": { "hex_id": 557462, "centroid_lon": -73.736578826713924, "centroid_lat": 45.95281325014605, "occurrences_today": 5, "datetimes_today": "2026-04-16 04:31:44, 2026-04-16 04:47:06, 2026-04-16 05:02:15, 2026-04-16 05:17:04, 2026-04-16 05:32:07", "cumulative_total": 5.0 }, "geometry": { "type": "Polygon", "coordinates": [ [ [ -73.736696877135159, 45.947618118515223 ], [ -73.743087766261809, 45.950286816607225 ], [ -73.742970302016886, 45.955481958569273 ], [ -73.736460743874545, 45.958008376797245 ], [ -73.730069300995211, 45.955339305616505 ], [ -73.730187969999903, 45.950144189362071 ], [ -73.736696877135159, 45.947618118515223 ] ] ] } },
{ "type": "Feature", "properties": { "hex_id": 557463, "centroid_lon": -73.736224480897334, "centroid_lat": 45.968398615160538, "occurrences_today": 5, "datetimes_today": "2026-04-16 04:31:44, 2026-04-16 04:47:06, 2026-04-16 05:02:15, 2026-04-16 05:17:04, 2026-04-16 05:32:07", "cumulative_total": 5.0 }, "geometry": { "type": "Polygon", "coordinates": [ [ [ -73.736342628606025, 45.963203498468758 ], [ -73.742735276741101, 45.965872227561448 ], [ -73.74261771568834, 45.971067354591476 ], [ -73.736106300737475, 45.973593726872515 ], [ -73.729713098403167, 45.97092462448731 ], [ -73.729831865207927, 45.965729523179171 ], [ -73.736342628606025, 45.963203498468758 ] ] ] } },
{ "type": "Feature", "properties": { "hex_id": 557464, "centroid_lon": -73.735869843020112, "centroid_lat": 45.983983935356925, "occurrences_today": 5, "datetimes_today": "2026-04-16 04:31:44, 2026-04-16 04:47:06, 2026-04-16 05:02:15, 2026-04-16 05:17:04, 2026-04-16 05:32:07", "cumulative_total": 5.0 }, "geometry": { "type": "Polygon", "coordinates": [ [ [ -73.73598808811542, 45.978788833604661 ], [ -73.742382496698212, 45.98145759371922 ], [ -73.742264838738905, 45.986652705816809 ], [ -73.735751565440523, 45.98917903212925 ], [ -73.729356602211524, 45.986509898518285 ], [ -73.729475466916057, 45.981314812156917 ], [ -73.73598808811542, 45.978788833604661 ] ] ] } },
{ "type": "Feature", "properties": { "hex_id": 557465, "centroid_lon": -73.735514912784367, "centroid_lat": 45.999569210733867, "occurrences_today": 5, "datetimes_today": "2026-04-16 04:31:44, 2026-04-16 04:47:06, 2026-04-16 05:02:15, 2026-04-16 05:17:04, 2026-04-16 05:32:07", "cumulative_total": 5.0 }, "geometry": { "type": "Polygon", "coordinates": [ [ [ -73.735633255365627, 45.994374123921581 ], [ -73.742029425836904, 45.997042915079192 ], [ -73.741911670872199, 46.002238012243879 ], [ -73.735396537685688, 46.004764292566051 ], [ -73.728999812120804, 46.002095127708003 ], [ -73.729118774824997, 45.996900056293882 ], [ -73.735633255365627, 45.994374123921581 ] ] ] } },
{ "type": "Feature", "properties": { "hex_id": 558071, "centroid_lon": -73.730662320350305, "centroid_lat": 45.929363674524922, "occurrences_today": 5, "datetimes_today": "2026-04-16 04:31:44, 2026-04-16 04:47:06, 2026-04-16 05:02:15, 2026-04-16 05:17:04, 2026-04-16 05:32:07", "cumulative_total": 5.0 }, "geometry": { "type": "Polygon", "coordinates": [ [ [ -73.73078082657608, 45.924168533361041 ], [ -73.737168754858828, 45.926837542196637 ], [ -73.737050834000115, 45.932032693745455 ], [ -73.730543781590853, 45.934558810707003 ], [ -73.724155300480234, 45.93188942902799 ], [ -73.724274424595706, 45.926694303296372 ], [ -73.73078082657608, 45.924168533361041 ] ] ] } },
{ "type": "Feature", "properties": { "hex_id": 558073, "centroid_lon": -73.72995059940159, "centroid_lat": 45.960534416888883, "occurrences_today": 5, "datetimes_today": "2026-04-16 04:31:44, 2026-04-16 04:47:06, 2026-04-16 05:02:15, 2026-04-16 05:17:04, 2026-04-16 05:32:07", "cumulative_total": 5.0 }, "geometry": { "type": "Polygon", "coordinates": [ [ [ -73.730069300995211, 45.955339305616505 ], [ -73.736460743874545, 45.958008376797245 ], [ -73.736342628606025, 45.963203498468758 ], [ -73.729831865207927, 45.965729523179171 ], [ -73.723439868609049, 45.963060078747652 ], [ -73.723559189116742, 45.95786498292204 ], [ -73.730069300995211, 45.955339305616505 ] ] ] } },
{ "type": "Feature", "properties": { "hex_id": 558074, "centroid_lon": -73.729594298976252, "centroid_lat": 45.976119720813251, "occurrences_today": 5, "datetimes_today": "2026-04-16 04:31:44, 2026-04-16 04:47:06, 2026-04-16 05:02:15, 2026-04-16 05:17:04, 2026-04-16 05:32:07", "cumulative_total": 5.0 }, "geometry": { "type": "Polygon", "coordinates": [ [ [ -73.729713098403167, 45.97092462448731 ], [ -73.736106300737475, 45.973593726872515 ], [ -73.73598808811542, 45.978788833604661 ], [ -73.729475466916057, 45.981314812156917 ], [ -73.723081710415698, 45.978645336317022 ], [ -73.723201129269654, 45.973450255445172 ], [ -73.729713098403167, 45.97092462448731 ] ] ] } },
{ "type": "Feature", "properties": { "hex_id": 558075, "centroid_lon": -73.729237704851514, "centroid_lat": 45.991704979897278, "occurrences_today": 5, "datetimes_today": "2026-04-16 04:31:44, 2026-04-16 04:47:06, 2026-04-16 05:02:15, 2026-04-16 05:17:04, 2026-04-16 05:32:07", "cumulative_total": 5.0 }, "geometry": { "type": "Polygon", "coordinates": [ [ [ -73.729356602211524, 45.986509898518285 ], [ -73.735751565440523, 45.98917903212925 ], [ -73.735633255365627, 45.994374123921581 ], [ -73.729118774824997, 45.996900056293882 ], [ -73.722723256982988, 45.994230549024238 ], [ -73.722842774283521, 45.989035483106619 ], [ -73.729356602211524, 45.986509898518285 ] ] ] } },
{ "type": "Feature", "properties": { "hex_id": 558681, "centroid_lon": -73.724393516018011, "centroid_lat": 45.921499172580575, "occurrences_today": 5, "datetimes_today": "2026-04-16 04:31:44, 2026-04-16 04:47:06, 2026-04-16 05:02:15, 2026-04-16 05:17:04, 2026-04-16 05:32:07", "cumulative_total": 5.0 }, "geometry": { "type": "Polygon", "coordinates": [ [ [ -73.724512574758251, 45.916304036880682 ], [ -73.730899300279191, 45.918973387215438 ], [ -73.73078082657608, 45.924168533361041 ], [ -73.724274424595706, 45.926694303296372 ], [ -73.717887146725275, 45.924024580159859 ], [ -73.71800682317361, 45.918829459955262 ], [ -73.724512574758251, 45.916304036880682 ] ] ] } },
{ "type": "Feature", "properties": { "hex_id": 558682, "centroid_lon": -73.724036143660484, "centroid_lat": 45.937084549775435, "occurrences_today": 5, "datetimes_today": "2026-04-16 04:31:44, 2026-04-16 04:47:06, 2026-04-16 05:02:15, 2026-04-16 05:17:04, 2026-04-16 05:32:07", "cumulative_total": 5.0 }, "geometry": { "type": "Polygon", "coordinates": [ [ [ -73.724155300480234, 45.93188942902799 ], [ -73.730543781590853, 45.934558810707003 ], [ -73.730425210286654, 45.939753941907263 ], [ -73.723916954125372, 45.942279665538614 ], [ -73.717527920220121, 45.939609910854244 ], [ -73.717647695259686, 45.934414805609407 ], [ -73.724155300480234, 45.93188942902799 ] ] ] } },
{ "type": "Feature", "properties": { "hex_id": 558683, "centroid_lon": -73.72367847686462, "centroid_lat": 45.952669882111977, "occurrences_today": 5, "datetimes_today": "2026-04-16 04:31:44, 2026-04-16 04:47:06, 2026-04-16 05:02:15, 2026-04-16 05:17:04, 2026-04-16 05:32:07", "cumulative_total": 5.0 }, "geometry": { "type": "Polygon", "coordinates": [ [ [ -73.723797731863797, 45.947474776317478 ], [ -73.730187969999903, 45.950144189362071 ], [ -73.730069300995211, 45.955339305616505 ], [ -73.723559189116742, 45.95786498292204 ], [ -73.717168397740423, 45.95519519666837 ], [ -73.717288271471645, 45.95000010638379 ], [ -73.723797731863797, 45.947474776317478 ] ] ] } },
{ "type": "Feature", "properties": { "hex_id": 558684, "centroid_lon": -73.7233205153304, "centroid_lat": 45.968255169588701, "occurrences_today": 5, "datetimes_today": "2026-04-16 04:31:44, 2026-04-16 04:47:06, 2026-04-16 05:02:15, 2026-04-16 05:17:04, 2026-04-16 05:32:07", "cumulative_total": 5.0 }, "geometry": { "type": "Polygon", "coordinates": [ [ [ -73.723439868609049, 45.963060078747652 ], [ -73.729831865207927, 45.965729523179171 ], [ -73.729713098403167, 45.97092462448731 ], [ -73.723201129269654, 45.973450255445172 ], [ -73.716808578984541, 45.970780437600709 ], [ -73.716928551508033, 45.965585362276876 ], [ -73.723439868609049, 45.963060078747652 ] ] ] } },
{ "type": "Feature", "properties": { "hex_id": 559290, "centroid_lon": -73.718485200663778, "centroid_lat": 45.898048929272605, "occurrences_today": 5, "datetimes_today": "2026-04-16 04:31:44, 2026-04-16 04:47:06, 2026-04-16 05:02:15, 2026-04-16 05:17:04, 2026-04-16 05:32:07", "cumulative_total": 5.0 }, "geometry": { "type": "Polygon", "coordinates": [ [ [ -73.718604713016191, 45.892853784136172 ], [ -73.724988483120015, 45.895523444241206 ], [ -73.724869554997298, 45.900718599876946 ], [ -73.718365655514432, 45.90324406942279 ], [ -73.711981333983402, 45.900574036761178 ], [ -73.712101463351303, 45.895378907175704 ], [ -73.718604713016191, 45.892853784136172 ] ] ] } },
{ "type": "Feature", "properties": { "hex_id": 559291, "centroid_lon": -73.71812646678049, "centroid_lat": 45.913634334764176, "occurrences_today": 5, "datetimes_today": "2026-04-16 04:31:44, 2026-04-16 04:47:06, 2026-04-16 05:02:15, 2026-04-16 05:17:04, 2026-04-16 05:32:07", "cumulative_total": 5.0 }, "geometry": { "type": "Polygon", "coordinates": [ [ [ -73.718246077557041, 45.908439204586664 ], [ -73.724631600827493, 45.911108896196744 ], [ -73.724512574758251, 45.916304036880682 ], [ -73.71800682317361, 45.918829459955262 ], [ -73.711620748031706, 45.916159395585154 ], [ -73.711740976334781, 45.910964280965956 ], [ -73.718246077557041, 45.908439204586664 ] ] ] } },
{ "type": "Feature", "properties": { "hex_id": 559292, "centroid_lon": -73.717767437424357, "centroid_lat": 45.929219695377945, "occurrences_today": 5, "datetimes_today": "2026-04-16 04:31:44, 2026-04-16 04:47:06, 2026-04-16 05:02:15, 2026-04-16 05:17:04, 2026-04-16 05:32:07", "cumulative_total": 5.0 }, "geometry": { "type": "Polygon", "coordinates": [ [ [ -73.717887146725275, 45.924024580159859 ], [ -73.724274424595706, 45.926694303296372 ], [ -73.724155300480234, 45.93188942902799 ], [ -73.717647695259686, 45.934414805609407 ], [ -73.711259865073131, 45.931744709509289 ], [ -73.711380192412093, 45.926549609856878 ], [ -73.717887146725275, 45.924024580159859 ] ] ] } },
{ "type": "Feature", "properties": { "hex_id": 559293, "centroid_lon": -73.717408112294493, "centroid_lat": 45.9448050111124, "occurrences_today": 5, "datetimes_today": "2026-04-16 04:31:44, 2026-04-16 04:47:06, 2026-04-16 05:02:15, 2026-04-16 05:17:04, 2026-04-16 05:32:07", "cumulative_total": 5.0 }, "geometry": { "type": "Polygon", "coordinates": [ [ [ -73.717527920220121, 45.939609910854244 ], [ -73.723916954125372, 45.942279665538614 ], [ -73.723797731863797, 45.947474776317478 ], [ -73.717288271471645, 45.95000010638379 ], [ -73.710898684805173, 45.94732997853211 ], [ -73.711019111280876, 45.942134893846969 ], [ -73.717527920220121, 45.939609910854244 ] ] ] } },
{ "type": "Feature", "properties": { "hex_id": 559901, "centroid_lon": -73.71186117164828, "centroid_lat": 45.905769161357945, "occurrences_today": 5, "datetimes_today": "2026-04-16 04:31:44, 2026-04-16 04:47:06, 2026-04-16 05:02:15, 2026-04-16 05:17:04, 2026-04-16 05:32:07", "cumulative_total": 5.0 }, "geometry": { "type": "Polygon", "coordinates": [ [ [ -73.711981333983402, 45.900574036761178 ], [ -73.718365655514432, 45.90324406942279 ], [ -73.718246077557041, 45.908439204586664 ], [ -73.711740976334781, 45.910964280965956 ], [ -73.705356103409997, 45.908293875586025 ], [ -73.705476883090029, 45.903098766610562 ], [ -73.711981333983402, 45.900574036761178 ] ] ] } },
{ "type": "Feature", "properties": { "hex_id": 559902, "centroid_lon": -73.711500486727871, "centroid_lat": 45.921354505215483, "occurrences_today": 5, "datetimes_today": "2026-04-16 04:31:44, 2026-04-16 04:47:06, 2026-04-16 05:02:15, 2026-04-16 05:17:04, 2026-04-16 05:32:07", "cumulative_total": 5.0 }, "geometry": { "type": "Polygon", "coordinates": [ [ [ -73.711620748031706, 45.916159395585154 ], [ -73.71800682317361, 45.918829459955262 ], [ -73.717887146725275, 45.924024580159859 ], [ -73.711380192412093, 45.926549609856878 ], [ -73.704993565432247, 45.923879172564916 ], [ -73.705114444592354, 45.918684078563267 ], [ -73.711620748031706, 45.916159395585154 ] ] ] } },
{ "type": "Feature", "properties": { "hex_id": 559903, "centroid_lon": -73.711139504699801, "centroid_lat": 45.936939804172688, "occurrences_today": 5, "datetimes_today": "2026-04-16 04:31:44, 2026-04-16 04:47:06, 2026-04-16 05:02:15, 2026-04-16 05:17:04, 2026-04-16 05:32:07", "cumulative_total": 5.0 }, "geometry": { "type": "Polygon", "coordinates": [ [ [ -73.711259865073131, 45.931744709509289 ], [ -73.717647695259686, 45.934414805609407 ], [ -73.717527920220121, 45.939609910854244 ], [ -73.711019111280876, 45.942134893846969 ], [ -73.704630728811765, 45.939464424621328 ], [ -73.704751707553214, 45.934269345593989 ], [ -73.711259865073131, 45.931744709509289 ] ] ] } },
{ "type": "Feature", "properties": { "hex_id": 559904, "centroid_lon": -73.710778225261436, "centroid_lat": 45.952525058228048, "occurrences_today": 5, "datetimes_today": "2026-04-16 04:31:44, 2026-04-16 04:47:06, 2026-04-16 05:02:15, 2026-04-16 05:17:04, 2026-04-16 05:32:07", "cumulative_total": 5.0 }, "geometry": { "type": "Polygon", "coordinates": [ [ [ -73.710898684805173, 45.94732997853211 ], [ -73.717288271471645, 45.95000010638379 ], [ -73.717168397740423, 45.95519519666837 ], [ -73.710657732638424, 45.957720132934718 ], [ -73.70426759324431, 45.955049631753731 ], [ -73.704388671668582, 45.949854567701244 ], [ -73.710898684805173, 45.94732997853211 ] ] ] } },
{ "type": "Feature", "properties": { "hex_id": 559907, "centroid_lon": -73.709692599451884, "centroid_lat": 45.999280550968116, "occurrences_today": 5, "datetimes_today": "2026-04-16 04:31:44, 2026-04-16 04:47:06, 2026-04-16 05:02:15, 2026-04-16 05:17:04, 2026-04-16 05:32:07", "cumulative_total": 5.0 }, "geometry": { "type": "Polygon", "coordinates": [ [ [ -73.709813357113845, 45.994085516177506 ], [ -73.716208221846045, 45.996755739413409 ], [ -73.71608805143569, 46.001950784814269 ], [ -73.709571808609368, 46.004475580768968 ], [ -73.703176389811759, 46.001804983591668 ], [ -73.703297767894597, 45.996609964466735 ], [ -73.709813357113845, 45.994085516177506 ] ] ] } },
{ "type": "Feature", "properties": { "hex_id": 560511, "centroid_lon": -73.70559762963255, "centroid_lat": 45.897903652643926, "occurrences_today": 5, "datetimes_today": "2026-04-16 04:31:44, 2026-04-16 04:47:06, 2026-04-16 05:02:15, 2026-04-16 05:17:04, 2026-04-16 05:32:07", "cumulative_total": 5.0 }, "geometry": { "type": "Polygon", "coordinates": [ [ [ -73.705718343048758, 45.892708533686211 ], [ -73.712101463351303, 45.895378907175704 ], [ -73.711981333983402, 45.900574036761178 ], [ -73.705476883090029, 45.903098766610562 ], [ -73.699093211871102, 45.900428020444537 ], [ -73.699214542450676, 45.895232917171057 ], [ -73.705718343048758, 45.892708533686211 ] ] ] } },
{ "type": "Feature", "properties": { "hex_id": 560512, "centroid_lon": -73.705235290581186, "centroid_lat": 45.913488979570289, "occurrences_today": 5, "datetimes_today": "2026-04-16 04:31:44, 2026-04-16 04:47:06, 2026-04-16 05:02:15, 2026-04-16 05:17:04, 2026-04-16 05:32:07", "cumulative_total": 5.0 }, "geometry": { "type": "Polygon", "coordinates": [ [ [ -73.705356103409997, 45.908293875586025 ], [ -73.711740976334781, 45.910964280965956 ], [ -73.711620748031706, 45.916159395585154 ], [ -73.705114444592354, 45.918684078563267 ], [ -73.698729020307454, 45.916013300303291 ], [ -73.698850450810795, 45.910818212010696 ], [ -73.705356103409997, 45.908293875586025 ] ] ] } },
{ "type": "Feature", "properties": { "hex_id": 560514, "centroid_lon": -73.704509716853977, "centroid_lat": 45.944659498657096, "occurrences_today": 5, "datetimes_today": "2026-04-16 04:31:44, 2026-04-16 04:47:06, 2026-04-16 05:02:15, 2026-04-16 05:17:04, 2026-04-16 05:32:07", "cumulative_total": 5.0 }, "geometry": { "type": "Polygon", "coordinates": [ [ [ -73.704630728811765, 45.939464424621328 ], [ -73.711019111280876, 45.942134893846969 ], [ -73.710898684805173, 45.94732997853211 ], [ -73.704388671668582, 45.949854567701244 ], [ -73.697999736950621, 45.94718372518814 ], [ -73.698121367606802, 45.941988666858876 ], [ -73.704630728811765, 45.939464424621328 ] ] ] } },
{ "type": "Feature", "properties": { "hex_id": 561122, "centroid_lon": -73.698971847994912, "centroid_lat": 45.905623118724428, "occurrences_today": 5, "datetimes_today": "2026-04-16 04:31:44, 2026-04-16 04:47:06, 2026-04-16 05:02:15, 2026-04-16 05:17:04, 2026-04-16 05:32:07", "cumulative_total": 5.0 }, "geometry": { "type": "Polygon", "coordinates": [ [ [ -73.699093211871102, 45.900428020444537 ], [ -73.705476883090029, 45.903098766610562 ], [ -73.705356103409997, 45.908293875586025 ], [ -73.698850450810795, 45.910818212010696 ], [ -73.692466228709264, 45.908147093006434 ], [ -73.692588210078227, 45.902952010481165 ], [ -73.699093211871102, 45.900428020444537 ] ] ] } },
{ "type": "Feature", "properties": { "hex_id": 561123, "centroid_lon": -73.698607556473618, "centroid_lat": 45.921208383602135, "occurrences_today": 5, "datetimes_today": "2026-04-16 04:31:44, 2026-04-16 04:47:06, 2026-04-16 05:02:15, 2026-04-16 05:17:04, 2026-04-16 05:32:07", "cumulative_total": 5.0 }, "geometry": { "type": "Polygon", "coordinates": [ [ [ -73.698729020307454, 45.916013300303291 ], [ -73.705114444592354, 45.918684078563267 ], [ -73.704993565432247, 45.923879172564916 ], [ -73.698486059297949, 45.926403461907171 ], [ -73.692100083686796, 45.923732310605317 ], [ -73.692222165524896, 45.91853724306857 ], [ -73.698729020307454, 45.916013300303291 ] ] ] } },
{ "type": "Feature", "properties": { "hex_id": 561124, "centroid_lon": -73.69824296487586, "centroid_lat": 45.936793603535584, "occurrences_today": 5, "datetimes_today": "2026-04-16 04:31:44, 2026-04-16 04:47:06, 2026-04-16 05:02:15, 2026-04-16 05:17:04, 2026-04-16 05:32:07", "cumulative_total": 5.0 }, "geometry": { "type": "Polygon", "coordinates": [ [ [ -73.698364528769133, 45.931598535218335 ], [ -73.704751707553214, 45.934269345593989 ], [ -73.704630728811765, 45.939464424621328 ], [ -73.698121367606802, 45.941988666858876 ], [ -73.691733637052366, 45.939317483237623 ], [ -73.691855819461907, 45.934122430689897 ], [ -73.698364528769133, 45.931598535218335 ] ] ] } },
{ "type": "Feature", "properties": { "hex_id": 561125, "centroid_lon": -73.697878072896003, "centroid_lat": 45.952378778523297, "occurrences_today": 5, "datetimes_today": "2026-04-16 04:31:44, 2026-04-16 04:47:06, 2026-04-16 05:02:15, 2026-04-16 05:17:04, 2026-04-16 05:32:07", "cumulative_total": 5.0 }, "geometry": { "type": "Polygon", "coordinates": [ [ [ -73.697999736950621, 45.94718372518814 ], [ -73.704388671668582, 45.949854567701244 ], [ -73.70426759324431, 45.955049631753731 ], [ -73.697756375431567, 45.957573826864312 ], [ -73.691366888498735, 45.954902610901755 ], [ -73.691489171582162, 45.949707573343609 ], [ -73.697999736950621, 45.94718372518814 ] ] ] } },
{ "type": "Feature", "properties": { "hex_id": 561733, "centroid_lon": -73.692344213861944, "centroid_lat": 45.913342170535586, "occurrences_today": 5, "datetimes_today": "2026-04-16 04:31:44, 2026-04-16 04:47:06, 2026-04-16 05:02:15, 2026-04-16 05:17:04, 2026-04-16 05:32:07", "cumulative_total": 5.0 }, "geometry": { "type": "Polygon", "coordinates": [ [ [ -73.692466228709264, 45.908147093006434 ], [ -73.698850450810795, 45.910818212010696 ], [ -73.698729020307454, 45.916013300303291 ], [ -73.692222165524896, 45.91853724306857 ], [ -73.685837392574754, 45.915865751064338 ], [ -73.685960025244427, 45.910670689360209 ], [ -73.692466228709264, 45.908147093006434 ] ] ] } },
{ "type": "Feature", "properties": { "hex_id": 561734, "centroid_lon": -73.691977968336246, "centroid_lat": 45.92892737314579, "occurrences_today": 5, "datetimes_today": "2026-04-16 04:31:44, 2026-04-16 04:47:06, 2026-04-16 05:02:15, 2026-04-16 05:17:04, 2026-04-16 05:32:07", "cumulative_total": 5.0 }, "geometry": { "type": "Polygon", "coordinates": [ [ [ -73.692100083686796, 45.923732310605317 ], [ -73.698486059297949, 45.926403461907171 ], [ -73.698364528769133, 45.931598535218335 ], [ -73.691855819461907, 45.934122430689897 ], [ -73.685469292558523, 45.931450906184395 ], [ -73.685592026243228, 45.926255859476477 ], [ -73.692100083686796, 45.923732310605317 ] ] ] } },
{ "type": "Feature", "properties": { "hex_id": 562343, "centroid_lon": -73.686082624265268, "centroid_lat": 45.905475622657512, "occurrences_today": 5, "datetimes_today": "2026-04-16 04:31:44, 2026-04-16 04:47:06, 2026-04-16 05:02:15, 2026-04-16 05:17:04, 2026-04-16 05:32:07", "cumulative_total": 5.0 }, "geometry": { "type": "Polygon", "coordinates": [ [ [ -73.686205189648661, 45.900280550956246 ], [ -73.692588210078227, 45.902952010481165 ], [ -73.692466228709264, 45.908147093006434 ], [ -73.685960025244427, 45.910670689360209 ], [ -73.679576454443563, 45.907998856877235 ], [ -73.679699637467422, 45.902803801063968 ], [ -73.686205189648661, 45.900280550956246 ] ] ] } },
{ "type": "Feature", "properties": { "hex_id": 562344, "centroid_lon": -73.685714726244825, "centroid_lat": 45.921060807769756, "occurrences_today": 5, "datetimes_today": "2026-04-16 04:31:44, 2026-04-16 04:47:06, 2026-04-16 05:02:15, 2026-04-16 05:17:04, 2026-04-16 05:32:07", "cumulative_total": 5.0 }, "geometry": { "type": "Polygon", "coordinates": [ [ [ -73.685837392574754, 45.915865751064338 ], [ -73.692222165524896, 45.91853724306857 ], [ -73.692100083686796, 45.923732310605317 ], [ -73.685592026243228, 45.926255859476477 ], [ -73.679206702478638, 45.923583994310484 ], [ -73.679329986960653, 45.91838895350056 ], [ -73.685837392574754, 45.915865751064338 ] ] ] } },
{ "type": "Feature", "properties": { "hex_id": 562954, "centroid_lon": -73.679453237611796, "centroid_lat": 45.913193907689454, "occurrences_today": 5, "datetimes_today": "2026-04-16 04:31:44, 2026-04-16 04:47:06, 2026-04-16 05:02:15, 2026-04-16 05:17:04, 2026-04-16 05:32:07", "cumulative_total": 5.0 }, "geometry": { "type": "Polygon", "coordinates": [ [ [ -73.679576454443563, 45.907998856877235 ], [ -73.685960025244427, 45.910670689360209 ], [ -73.685837392574754, 45.915865751064338 ], [ -73.679329986960653, 45.91838895350056 ], [ -73.672945865822811, 45.915716747897818 ], [ -73.67306970062458, 45.910521713044041 ], [ -73.679576454443563, 45.907998856877235 ] ] ] } },
{ "type": "Feature", "properties": { "hex_id": 562956, "centroid_lon": -73.678713226012405, "centroid_lat": 45.944364107537204, "occurrences_today": 5, "datetimes_today": "2026-04-16 04:31:44, 2026-04-16 04:47:06, 2026-04-16 05:02:15, 2026-04-16 05:17:04, 2026-04-16 05:32:07", "cumulative_total": 5.0 }, "geometry": { "type": "Polygon", "coordinates": [ [ [ -73.678836645932677, 45.939169086732583 ], [ -73.685223724094058, 45.941840984603644 ], [ -73.685100889291434, 45.947036016314847 ], [ -73.678589772203807, 45.949559123340329 ], [ -73.672202142818833, 45.946886851941855 ], [ -73.672326181733553, 45.941691847110832 ], [ -73.678836645932677, 45.939169086732583 ] ] ] } },
{ "type": "Feature", "properties": { "hex_id": 563565, "centroid_lon": -73.672821997031065, "centroid_lat": 45.920911777747939, "occurrences_today": 5, "datetimes_today": "2026-04-16 04:31:44, 2026-04-16 04:47:06, 2026-04-16 05:02:15, 2026-04-16 05:17:04, 2026-04-16 05:32:07", "cumulative_total": 5.0 }, "geometry": { "type": "Polygon", "coordinates": [ [ [ -73.672945865822811, 45.915716747897818 ], [ -73.679329986960653, 45.91838895350056 ], [ -73.679206702478638, 45.923583994310484 ], [ -73.672698094237802, 45.926106802594376 ], [ -73.666313422797501, 45.923434223710096 ], [ -73.66643790988897, 45.918239209888931 ], [ -73.672945865822811, 45.915716747897818 ] ] ] } },
{ "type": "Feature", "properties": { "hex_id": 564176, "centroid_lon": -73.666188901533815, "centroid_lat": 45.928629232525033, "occurrences_today": 5, "datetimes_today": "2026-04-16 04:31:44, 2026-04-16 04:47:06, 2026-04-16 05:02:15, 2026-04-16 05:17:04, 2026-04-16 05:32:07", "cumulative_total": 5.0 }, "geometry": { "type": "Polygon", "coordinates": [ [ [ -73.666313422797501, 45.923434223710096 ], [ -73.672698094237802, 45.926106802594376 ], [ -73.672574157431498, 45.931301822437028 ], [ -73.666064346086316, 45.933824236333656 ], [ -73.659679124378258, 45.931151284006106 ], [ -73.659804264271528, 45.925956291290703 ], [ -73.666313422797501, 45.923434223710096 ] ] ] } },
{ "type": "Feature", "properties": { "hex_id": 564786, "centroid_lon": -73.65992936982181, "centroid_lat": 45.920761293566493, "occurrences_today": 5, "datetimes_today": "2026-04-16 04:31:44, 2026-04-16 04:47:06, 2026-04-16 05:02:15, 2026-04-16 05:17:04, 2026-04-16 05:32:07", "cumulative_total": 5.0 }, "geometry": { "type": "Polygon", "coordinates": [ [ [ -73.660054441040799, 45.915566290833567 ], [ -73.66643790988897, 45.918239209888931 ], [ -73.666313422797501, 45.923434223710096 ], [ -73.659804264271528, 45.925956291290703 ], [ -73.653420245633001, 45.923282998834154 ], [ -73.653545935299164, 45.918088012263652 ], [ -73.660054441040799, 45.915566290833567 ] ] ] } },
{ "type": "Feature", "properties": { "hex_id": 556850, "centroid_lon": -73.743557300877299, "centroid_lat": 45.929506198987291, "occurrences_today": 3, "datetimes_today": "2026-04-16 05:02:15, 2026-04-16 05:17:04, 2026-04-16 05:32:07", "cumulative_total": 3.0 }, "geometry": { "type": "Polygon", "coordinates": [ [ [ -73.743674603994805, 45.924311032139613 ], [ -73.75006318221142, 45.926979326529001 ], [ -73.749946464642434, 45.932174503632979 ], [ -73.743439965556178, 45.934701360857936 ], [ -73.737050834000115, 45.932032693745455 ], [ -73.737168754858828, 45.926837542196637 ], [ -73.743674603994805, 45.924311032139613 ] ] ] } },
{ "type": "Feature", "properties": { "hex_id": 556852, "centroid_lon": -73.742852805513621, "centroid_lat": 45.960677095554011, "occurrences_today": 3, "datetimes_today": "2026-04-16 05:02:15, 2026-04-16 05:17:04, 2026-04-16 05:32:07", "cumulative_total": 3.0 }, "geometry": { "type": "Polygon", "coordinates": [ [ [ -73.742970302016886, 45.955481958569273 ], [ -73.749362395919761, 45.958150314531586 ], [ -73.749245485923467, 45.96334546178668 ], [ -73.742735276741101, 45.965872227561448 ], [ -73.736342628606025, 45.963203498468758 ], [ -73.736460743874545, 45.958008376797245 ], [ -73.742970302016886, 45.955481958569273 ] ] ] } },
{ "type": "Feature", "properties": { "hex_id": 559908, "centroid_lon": -73.709330127337495, "centroid_lat": 46.014865625401193, "occurrences_today": 3, "datetimes_today": "2026-04-16 05:02:15, 2026-04-16 05:17:04, 2026-04-16 05:32:07", "cumulative_total": 3.0 }, "geometry": { "type": "Polygon", "coordinates": [ [ [ -73.709450984575, 46.009670605580013 ], [ -73.715847611542557, 46.012340860653929 ], [ -73.715727342037326, 46.017535891092585 ], [ -73.709209236885556, 46.020060640232458 ], [ -73.702812055405801, 46.017390011012893 ], [ -73.702933533578701, 46.012195006864808 ], [ -73.709450984575, 46.009670605580013 ] ] ] } },
{ "type": "Feature", "properties": { "hex_id": 657548, "centroid_lon": -72.702226785695984, "centroid_lat": 45.375441891444019, "occurrences_today": 6, "datetimes_today": "2026-04-16 06:32:04, 2026-04-16 06:47:04, 2026-04-16 07:01:46, 2026-04-16 07:16:58, 2026-04-16 07:31:54, 2026-04-16 08:04:39", "cumulative_total": 6.0 }, "geometry": { "type": "Polygon", "coordinates": [ [ [ -72.702437166245744, 45.370249152180037 ], [ -72.708712357753356, 45.372973760291849 ], [ -72.708502531573643, 45.378166519895679 ], [ -72.702016347811082, 45.380634625202681 ], [ -72.69574065927813, 45.377909641939091 ], [ -72.695951651513937, 45.372716928584232 ], [ -72.702437166245744, 45.370249152180037 ] ] ] } },
{ "type": "Feature", "properties": { "hex_id": 1651009, "centroid_lon": -61.823512878907344, "centroid_lat": 47.402190155090842, "occurrences_today": 1, "datetimes_today": "2026-04-16 08:04:39", "cumulative_total": 1.0 }, "geometry": { "type": "Polygon", "coordinates": [ [ [ -61.824796720442123, 47.397132030740615 ], [ -61.830606602212065, 47.40041582577124 ], [ -61.829323169472403, 47.40547406747703 ], [ -61.822228687343781, 47.407248248455531 ], [ -61.816418746866752, 47.40396398966994 ], [ -61.817703347106907, 47.398906013716939 ], [ -61.824796720442123, 47.397132030740615 ] ] ] } }
]
}
