{
"type": "FeatureCollection",
"name": "daily_2026-07-24",
"crs": { "type": "name", "properties": { "name": "urn:ogc:def:crs:OGC:1.3:CRS84" } },
"features": [
{ "type": "Feature", "properties": { "hex_id": 477480, "centroid_lon": -74.582477489882692, "centroid_lat": 45.857704236518195, "occurrences_today": 24, "datetimes_today": "2026-07-24 00:02:05, 2026-07-24 00:16:40, 2026-07-24 00:31:58, 2026-07-24 00:46:49, 2026-07-24 01:01:55, 2026-07-24 01:16:40, 2026-07-24 01:33:10, 2026-07-24 01:47:11, 2026-07-24 02:01:42, 2026-07-24 02:18:40, 2026-07-24 02:31:44, 2026-07-24 02:46:50, 2026-07-24 03:01:40, 2026-07-24 03:16:36, 2026-07-24 03:31:53, 2026-07-24 03:47:12, 2026-07-24 04:02:00, 2026-07-24 04:18:15, 2026-07-24 04:31:38, 2026-07-24 04:46:53, 2026-07-24 05:01:54, 2026-07-24 05:22:07, 2026-07-24 05:33:06, 2026-07-24 05:46:52", "cumulative_total": 650.0 }, "geometry": { "type": "Polygon", "coordinates": [ [ [ -74.582516375627165, 45.852507891021503 ], [ -74.588937228901088, 45.855129414088736 ], [ -74.588898937705238, 45.860325761408468 ], [ -74.582438593470044, 45.862900577242634 ], [ -74.576017156317477, 45.860278690509539 ], [ -74.576056647275138, 45.855082351673552 ], [ -74.582516375627165, 45.852507891021503 ] ] ] } },
{ "type": "Feature", "properties": { "hex_id": 519023, "centroid_lon": -74.137527076605622, "centroid_lat": 46.307290013521417, "occurrences_today": 5, "datetimes_today": "2026-07-24 00:02:05, 2026-07-24 00:16:40, 2026-07-24 00:31:58, 2026-07-24 00:46:49, 2026-07-24 01:01:55", "cumulative_total": 79.0 }, "geometry": { "type": "Polygon", "coordinates": [ [ [ -74.137608669485275, 46.302094529944263 ], [ -74.144060132233363, 46.304741059659719 ], [ -74.143979142219237, 46.309936549608565 ], [ -74.137445461215421, 46.312485492244882 ], [ -74.130993418116191, 46.309838588721689 ], [ -74.131075636364201, 46.304643116436381 ], [ -74.137608669485275, 46.302094529944263 ] ] ] } },
{ "type": "Feature", "properties": { "hex_id": 519634, "centroid_lon": -74.130911177184402, "centroid_lat": 46.315034056151674, "occurrences_today": 5, "datetimes_today": "2026-07-24 00:02:05, 2026-07-24 00:16:40, 2026-07-24 00:31:58, 2026-07-24 00:46:49, 2026-07-24 01:01:55", "cumulative_total": 181.0 }, "geometry": { "type": "Polygon", "coordinates": [ [ [ -74.130993418116191, 46.309838588721689 ], [ -74.137445461215421, 46.312485492244882 ], [ -74.137363823306956, 46.317680966114715 ], [ -74.130828913561032, 46.32022951872635 ], [ -74.124376290133924, 46.317582241230468 ], [ -74.124459156772843, 46.312386785162097 ], [ -74.130993418116191, 46.309838588721689 ] ] ] } },
{ "type": "Feature", "properties": { "hex_id": 520244, "centroid_lon": -74.124542000554683, "centroid_lat": 46.30719132423674, "occurrences_today": 5, "datetimes_today": "2026-07-24 00:02:05, 2026-07-24 00:16:40, 2026-07-24 00:31:58, 2026-07-24 00:46:49, 2026-07-24 01:01:55", "cumulative_total": 106.0 }, "geometry": { "type": "Polygon", "coordinates": [ [ [ -74.124624821487274, 46.30199585845439 ], [ -74.131075636364201, 46.304643116436381 ], [ -74.130993418116191, 46.309838588721689 ], [ -74.124459156772843, 46.312386785162097 ], [ -74.118007762064479, 46.309739153246952 ], [ -74.118091208523069, 46.30454369889101 ], [ -74.124624821487274, 46.30199585845439 ] ] ] } },
{ "type": "Feature", "properties": { "hex_id": 598338, "centroid_lon": -73.317398095528219, "centroid_lat": 45.518685531312855, "occurrences_today": 6, "datetimes_today": "2026-07-24 00:02:05, 2026-07-24 00:16:40, 2026-07-24 00:31:58, 2026-07-24 00:46:49, 2026-07-24 01:01:55, 2026-07-24 01:16:40", "cumulative_total": 155.0 }, "geometry": { "type": "Polygon", "coordinates": [ [ [ -73.317552942086053, 45.513490982078999 ], [ -73.323874451361021, 45.516182354937719 ], [ -73.323720171975268, 45.521376918545386 ], [ -73.317243206681695, 45.523880075390508 ], [ -73.310921172530385, 45.521188331086279 ], [ -73.311076628534806, 45.515993801446911 ], [ -73.317552942086053, 45.513490982078999 ] ] ] } },
{ "type": "Feature", "properties": { "hex_id": 1323799, "centroid_lon": -65.264346822968562, "centroid_lat": 48.031566575594795, "occurrences_today": 3, "datetimes_today": "2026-07-24 05:22:07, 2026-07-24 05:33:06, 2026-07-24 05:46:52", "cumulative_total": 36.0 }, "geometry": { "type": "Polygon", "coordinates": [ [ [ -65.265320419944004, 48.026446974874901 ], [ -65.271443629646086, 48.029572156230081 ], [ -65.270470532627073, 48.034691848144902 ], [ -65.263372954844598, 48.036686156821744 ], [ -65.257249516382188, 48.033560513731523 ], [ -65.258223884367396, 48.028441023762923 ], [ -65.265320419944004, 48.026446974874901 ] ] ] } },
{ "type": "Feature", "properties": { "hex_id": 598320, "centroid_lon": -73.325699664502892, "centroid_lat": 45.238172497523614, "occurrences_today": 5, "datetimes_today": "2026-07-24 00:16:40, 2026-07-24 00:31:58, 2026-07-24 00:46:49, 2026-07-24 01:01:55, 2026-07-24 01:16:40", "cumulative_total": 60.0 }, "geometry": { "type": "Polygon", "coordinates": [ [ [ -73.32585224836636, 45.232977670046402 ], [ -73.332143356746798, 45.235668271186142 ], [ -73.331991331846453, 45.240863112875289 ], [ -73.325547039107363, 45.24336731985165 ], [ -73.319255413302756, 45.240676350892358 ], [ -73.319408597647595, 45.235481542840098 ], [ -73.32585224836636, 45.232977670046402 ] ] ] } },
{ "type": "Feature", "properties": { "hex_id": 691138, "centroid_lon": -72.342221048945561, "centroid_lat": 45.562512126477202, "occurrences_today": 6, "datetimes_today": "2026-07-24 04:31:38, 2026-07-24 04:46:53, 2026-07-24 05:01:54, 2026-07-24 05:22:07, 2026-07-24 05:33:06, 2026-07-24 05:46:52", "cumulative_total": 90.0 }, "geometry": { "type": "Polygon", "coordinates": [ [ [ -72.342465960664569, 45.55732097171191 ], [ -72.348743287366958, 45.560065365791687 ], [ -72.348498930365309, 45.565256544466514 ], [ -72.341976070348878, 45.567703275475829 ], [ -72.335698255818016, 45.564958500709636 ], [ -72.335943789109635, 45.559767375684821 ], [ -72.342465960664569, 45.55732097171191 ] ] ] } },
{ "type": "Feature", "properties": { "hex_id": 575129, "centroid_lon": -73.564548614360177, "centroid_lat": 45.366152980958915, "occurrences_today": 1, "datetimes_today": "2026-07-24 05:46:52", "cumulative_total": 257.0 }, "geometry": { "type": "Polygon", "coordinates": [ [ [ -73.564680020885561, 45.360957681591152 ], [ -73.570996778966204, 45.363635377175065 ], [ -73.570865938423523, 45.368830688441925 ], [ -73.564417172008845, 45.371348275282415 ], [ -73.558099883777444, 45.368670212466299 ], [ -73.558231892099485, 45.363474930106072 ], [ -73.564680020885561, 45.360957681591152 ] ] ] } },
{ "type": "Feature", "properties": { "hex_id": 769367, "centroid_lon": -71.438927288064932, "centroid_lat": 46.863028851825696, "occurrences_today": 22, "datetimes_today": "2026-07-24 00:02:05, 2026-07-24 00:16:40, 2026-07-24 00:31:58, 2026-07-24 00:46:49, 2026-07-24 01:01:55, 2026-07-24 01:16:40, 2026-07-24 01:33:10, 2026-07-24 01:47:11, 2026-07-24 02:01:42, 2026-07-24 02:18:40, 2026-07-24 02:31:44, 2026-07-24 02:46:50, 2026-07-24 03:01:40, 2026-07-24 03:16:36, 2026-07-24 03:31:53, 2026-07-24 03:47:12, 2026-07-24 04:02:00, 2026-07-24 04:18:15, 2026-07-24 04:31:38, 2026-07-24 04:46:53, 2026-07-24 05:01:54, 2026-07-24 05:22:07", "cumulative_total": 162.0 }, "geometry": { "type": "Polygon", "coordinates": [ [ [ -71.439270568457616, 46.857843331403323 ], [ -71.445645965333128, 46.860639826095706 ], [ -71.445303265321712, 46.865825379904884 ], [ -71.438583912441487, 46.86821436559773 ], [ -71.43220803043198, 46.865417465344102 ], [ -71.432551986403638, 46.860231985025791 ], [ -71.439270568457616, 46.857843331403323 ] ] ] } },
{ "type": "Feature", "properties": { "hex_id": 770588, "centroid_lon": -71.425832824174677, "centroid_lat": 46.862620226415416, "occurrences_today": 22, "datetimes_today": "2026-07-24 00:02:05, 2026-07-24 00:16:40, 2026-07-24 00:31:58, 2026-07-24 00:46:49, 2026-07-24 01:01:55, 2026-07-24 01:16:40, 2026-07-24 01:33:10, 2026-07-24 01:47:11, 2026-07-24 02:01:42, 2026-07-24 02:18:40, 2026-07-24 02:31:44, 2026-07-24 02:46:50, 2026-07-24 03:01:40, 2026-07-24 03:16:36, 2026-07-24 03:31:53, 2026-07-24 03:47:12, 2026-07-24 04:02:00, 2026-07-24 04:18:15, 2026-07-24 04:31:38, 2026-07-24 04:46:53, 2026-07-24 05:01:54, 2026-07-24 05:22:07", "cumulative_total": 119.0 }, "geometry": { "type": "Polygon", "coordinates": [ [ [ -71.426177360304777, 46.857434779611019 ], [ -71.432551986403638, 46.860231985025791 ], [ -71.43220803043198, 46.865417465344102 ], [ -71.425488192467341, 46.867805666555412 ], [ -71.419113081803843, 46.865008055476729 ], [ -71.419458293636453, 46.85982264891755 ], [ -71.426177360304777, 46.857434779611019 ] ] ] } },
{ "type": "Feature", "properties": { "hex_id": 574519, "centroid_lon": -73.570735062207973, "centroid_lat": 45.374025994667115, "occurrences_today": 1, "datetimes_today": "2026-07-24 05:46:52", "cumulative_total": 283.0 }, "geometry": { "type": "Polygon", "coordinates": [ [ [ -73.570865938423523, 45.368830688441925 ], [ -73.577183864301489, 45.371508052456839 ], [ -73.577053554386737, 45.376703370522094 ], [ -73.570604150307616, 45.379221295850535 ], [ -73.564285693819613, 45.376543564561572 ], [ -73.564417172008845, 45.371348275282415 ], [ -73.570865938423523, 45.368830688441925 ] ] ] } },
{ "type": "Feature", "properties": { "hex_id": 725324, "centroid_lon": -71.985566548330709, "centroid_lat": 45.522468836891527, "occurrences_today": 21, "datetimes_today": "2026-07-24 00:02:05, 2026-07-24 00:16:40, 2026-07-24 00:31:58, 2026-07-24 00:46:49, 2026-07-24 01:01:55, 2026-07-24 01:16:40, 2026-07-24 01:33:10, 2026-07-24 01:47:11, 2026-07-24 02:01:42, 2026-07-24 02:18:40, 2026-07-24 02:31:44, 2026-07-24 02:46:50, 2026-07-24 03:01:40, 2026-07-24 03:16:36, 2026-07-24 03:31:53, 2026-07-24 03:47:12, 2026-07-24 04:02:00, 2026-07-24 04:18:15, 2026-07-24 04:31:38, 2026-07-24 04:46:53, 2026-07-24 05:01:54", "cumulative_total": 65.0 }, "geometry": { "type": "Polygon", "coordinates": [ [ [ -71.985843909672042, 45.517279248650247 ], [ -71.992098500002768, 45.52004272204767 ], [ -71.991821687017378, 45.525232337619762 ], [ -71.985289111310692, 45.527658419076481 ], [ -71.979034048315341, 45.52489456246952 ], [ -71.979312033665963, 45.519705007679384 ], [ -71.985843909672042, 45.517279248650247 ] ] ] } },
{ "type": "Feature", "properties": { "hex_id": 641807, "centroid_lon": -72.786455180308764, "centroid_lat": 47.434788120986262, "occurrences_today": 1, "datetimes_today": "2026-07-24 05:46:52", "cumulative_total": 40.0 }, "geometry": { "type": "Polygon", "coordinates": [ [ [ -72.786672953562629, 47.429596957514768 ], [ -72.793189533205194, 47.43232032095483 ], [ -72.79297238012964, 47.437511504769667 ], [ -72.786237346090431, 47.439979278973077 ], [ -72.779720207244793, 47.437255513884146 ], [ -72.779938661619909, 47.43206437630964 ], [ -72.786672953562629, 47.429596957514768 ] ] ] } },
{ "type": "Feature", "properties": { "hex_id": 597117, "centroid_lon": -73.330196569936291, "centroid_lat": 45.518873385125325, "occurrences_today": 6, "datetimes_today": "2026-07-24 00:02:05, 2026-07-24 00:16:40, 2026-07-24 00:31:58, 2026-07-24 00:46:49, 2026-07-24 01:01:55, 2026-07-24 01:16:40", "cumulative_total": 184.0 }, "geometry": { "type": "Polygon", "coordinates": [ [ [ -73.330350240014667, 45.513678802055239 ], [ -73.336672400550654, 45.516369475224778 ], [ -73.336519297825973, 45.521564072542766 ], [ -73.330042857890177, 45.524067963045376 ], [ -73.323720171975268, 45.521376918545386 ], [ -73.323874451361021, 45.516182354937719 ], [ -73.330350240014667, 45.513678802055239 ] ] ] } },
{ "type": "Feature", "properties": { "hex_id": 740171, "centroid_lon": -71.647075444910996, "centroid_lat": 48.552705797957636, "occurrences_today": 2, "datetimes_today": "2026-07-24 05:33:06, 2026-07-24 05:46:52", "cumulative_total": 47.0 }, "geometry": { "type": "Polygon", "coordinates": [ [ [ -71.647418380682694, 48.547520670442317 ], [ -71.654010508992798, 48.550310214872425 ], [ -71.653668213232848, 48.555495374827004 ], [ -71.64673241163878, 48.557890918963473 ], [ -71.640139740835167, 48.55510094692491 ], [ -71.640483414083704, 48.549915858429785 ], [ -71.647418380682694, 48.547520670442317 ] ] ] } },
{ "type": "Feature", "properties": { "hex_id": 586132, "centroid_lon": -73.443668379006894, "centroid_lat": 45.582837678536997, "occurrences_today": 24, "datetimes_today": "2026-07-24 00:02:05, 2026-07-24 00:16:40, 2026-07-24 00:31:58, 2026-07-24 00:46:49, 2026-07-24 01:01:55, 2026-07-24 01:16:40, 2026-07-24 01:33:10, 2026-07-24 01:47:11, 2026-07-24 02:01:42, 2026-07-24 02:18:40, 2026-07-24 02:31:44, 2026-07-24 02:46:50, 2026-07-24 03:01:40, 2026-07-24 03:16:36, 2026-07-24 03:31:53, 2026-07-24 03:47:12, 2026-07-24 04:02:00, 2026-07-24 04:18:15, 2026-07-24 04:31:38, 2026-07-24 04:46:53, 2026-07-24 05:01:54, 2026-07-24 05:22:07, 2026-07-24 05:33:06, 2026-07-24 05:46:52", "cumulative_total": 476.0 }, "geometry": { "type": "Polygon", "coordinates": [ [ [ -73.443811928717309, 45.577642863716243 ], [ -73.450146767823824, 45.580327390611075 ], [ -73.450003788946503, 45.585522218579065 ], [ -73.443524790060124, 45.588032488259884 ], [ -73.437189419363435, 45.585347590266551 ], [ -73.437333579130112, 45.580152793755531 ], [ -73.443811928717309, 45.577642863716243 ] ] ] } },
{ "type": "Feature", "properties": { "hex_id": 547051, "centroid_lon": -73.856609371988966, "centroid_lat": 45.447404143543835, "occurrences_today": 24, "datetimes_today": "2026-07-24 00:02:05, 2026-07-24 00:16:40, 2026-07-24 00:31:58, 2026-07-24 00:46:49, 2026-07-24 01:01:55, 2026-07-24 01:16:40, 2026-07-24 01:33:10, 2026-07-24 01:47:11, 2026-07-24 02:01:42, 2026-07-24 02:18:40, 2026-07-24 02:31:44, 2026-07-24 02:46:50, 2026-07-24 03:01:40, 2026-07-24 03:16:36, 2026-07-24 03:31:53, 2026-07-24 03:47:12, 2026-07-24 04:02:00, 2026-07-24 04:18:15, 2026-07-24 04:31:38, 2026-07-24 04:46:53, 2026-07-24 05:01:54, 2026-07-24 05:22:07, 2026-07-24 05:33:06, 2026-07-24 05:46:52", "cumulative_total": 192.0 }, "geometry": { "type": "Polygon", "coordinates": [ [ [ -73.856714342988852, 45.442208321356482 ], [ -73.863054205467463, 45.444870046201515 ], [ -73.86294980680232, 45.450065877418957 ], [ -73.85650437233933, 45.452599960794544 ], [ -73.850163966180546, 45.449937870430894 ], [ -73.850269538155317, 45.444742062274699 ], [ -73.856714342988852, 45.442208321356482 ] ] ] } },
{ "type": "Feature", "properties": { "hex_id": 695446, "centroid_lon": -72.271275614365578, "centroid_lat": 46.098693774753613, "occurrences_today": 2, "datetimes_today": "2026-07-24 00:02:05, 2026-07-24 00:16:40", "cumulative_total": 175.0 }, "geometry": { "type": "Polygon", "coordinates": [ [ [ -72.271531802987681, 46.093503411679137 ], [ -72.277864858584934, 46.096252763222552 ], [ -72.277609239648314, 46.10144315114529 ], [ -72.271019355324327, 46.103884131989176 ], [ -72.264685800472691, 46.101134392169385 ], [ -72.264942629175479, 46.095944059847547 ], [ -72.271531802987681, 46.093503411679137 ] ] ] } },
{ "type": "Feature", "properties": { "hex_id": 569628, "centroid_lon": -73.624448078279585, "centroid_lat": 45.265548887688979, "occurrences_today": 2, "datetimes_today": "2026-07-24 05:33:06, 2026-07-24 05:46:52", "cumulative_total": 115.0 }, "geometry": { "type": "Polygon", "coordinates": [ [ [ -73.624573561752996, 45.260353362957922 ], [ -73.6308821618168, 45.263027692829361 ], [ -73.630757242140547, 45.268223228845287 ], [ -73.62432256063488, 45.270744407400542 ], [ -73.61801343095091, 45.268069712119939 ], [ -73.61813951238139, 45.262874203757193 ], [ -73.624573561752996, 45.260353362957922 ] ] ] } },
{ "type": "Feature", "properties": { "hex_id": 585522, "centroid_lon": -73.449860770987485, "centroid_lat": 45.590717041452002, "occurrences_today": 24, "datetimes_today": "2026-07-24 00:02:05, 2026-07-24 00:16:40, 2026-07-24 00:31:58, 2026-07-24 00:46:49, 2026-07-24 01:01:55, 2026-07-24 01:16:40, 2026-07-24 01:33:10, 2026-07-24 01:47:11, 2026-07-24 02:01:42, 2026-07-24 02:18:40, 2026-07-24 02:31:44, 2026-07-24 02:46:50, 2026-07-24 03:01:40, 2026-07-24 03:16:36, 2026-07-24 03:31:53, 2026-07-24 03:47:12, 2026-07-24 04:02:00, 2026-07-24 04:18:15, 2026-07-24 04:31:38, 2026-07-24 04:46:53, 2026-07-24 05:01:54, 2026-07-24 05:22:07, 2026-07-24 05:33:06, 2026-07-24 05:46:52", "cumulative_total": 323.0 }, "geometry": { "type": "Polygon", "coordinates": [ [ [ -73.450003788946503, 45.585522218579065 ], [ -73.456339808962156, 45.588206413782544 ], [ -73.456197362158704, 45.593401249743714 ], [ -73.449717713933609, 45.595911859229822 ], [ -73.443381161863812, 45.593227292884833 ], [ -73.443524790060124, 45.588032488259884 ], [ -73.450003788946503, 45.585522218579065 ] ] ] } },
{ "type": "Feature", "properties": { "hex_id": 576976, "centroid_lon": -73.539168390081457, "centroid_lat": 45.607484494229034, "occurrences_today": 1, "datetimes_today": "2026-07-24 00:02:05", "cumulative_total": 78.0 }, "geometry": { "type": "Polygon", "coordinates": [ [ [ -73.539303249018218, 45.602289473529986 ], [ -73.545645518982752, 45.604968781722548 ], [ -73.545511232930195, 45.610163814631591 ], [ -73.539033494271138, 45.612679509871633 ], [ -73.532690688302154, 45.609999831153267 ], [ -73.532826156984257, 45.604804827785372 ], [ -73.539303249018218, 45.602289473529986 ] ] ] } },
{ "type": "Feature", "properties": { "hex_id": 653277, "centroid_lon": -72.745343304699205, "centroid_lat": 45.41527872923961, "occurrences_today": 2, "datetimes_today": "2026-07-24 05:33:06, 2026-07-24 05:46:52", "cumulative_total": 80.0 }, "geometry": { "type": "Polygon", "coordinates": [ [ [ -72.745550026405837, 45.410085870765442 ], [ -72.751831722222761, 45.412808215365239 ], [ -72.751625556660798, 45.418001093775487 ], [ -72.745136526626155, 45.420471582235663 ], [ -72.738854331040429, 45.417748862356547 ], [ -72.739061665239277, 45.41255602936063 ], [ -72.745550026405837, 45.410085870765442 ] ] ] } },
{ "type": "Feature", "properties": { "hex_id": 642418, "centroid_lon": -72.779501691712667, "centroid_lat": 47.442446645969348, "occurrences_today": 1, "datetimes_today": "2026-07-24 05:46:52", "cumulative_total": 31.0 }, "geometry": { "type": "Polygon", "coordinates": [ [ [ -72.779720207244793, 47.437255513884146 ], [ -72.786237346090431, 47.439979278973077 ], [ -72.786019450886073, 47.445170431474999 ], [ -72.779283115001945, 47.447637772565045 ], [ -72.772765417017936, 47.444913605658243 ], [ -72.77298461403484, 47.439722499548246 ], [ -72.779720207244793, 47.437255513884146 ] ] ] } },
{ "type": "Feature", "properties": { "hex_id": 669147, "centroid_lon": -72.581334593573985, "centroid_lat": 45.365149056977401, "occurrences_today": 2, "datetimes_today": "2026-07-24 00:02:05, 2026-07-24 00:16:40", "cumulative_total": 91.0 }, "geometry": { "type": "Polygon", "coordinates": [ [ [ -72.581555957031895, 45.359956760211801 ], [ -72.587823946410083, 45.362687875890543 ], [ -72.587603135314779, 45.367880194164812 ], [ -72.581113169800375, 45.370341348156323 ], [ -72.574844688385326, 45.367609856396712 ], [ -72.575066664501435, 45.362417586790365 ], [ -72.581555957031895, 45.359956760211801 ] ] ] } },
{ "type": "Feature", "properties": { "hex_id": 669757, "centroid_lon": -72.575288580153611, "centroid_lat": 45.357225311593069, "occurrences_today": 2, "datetimes_today": "2026-07-24 00:02:05, 2026-07-24 00:16:40", "cumulative_total": 81.0 }, "geometry": { "type": "Polygon", "coordinates": [ [ [ -72.575510435362091, 45.352033030805089 ], [ -72.581777260194272, 45.354764457859794 ], [ -72.581555957031895, 45.359956760211801 ], [ -72.575066664501435, 45.362417586790365 ], [ -72.568799348076936, 45.35968578370305 ], [ -72.56902181575505, 45.354493530133645 ], [ -72.575510435362091, 45.352033030805089 ] ] ] } },
{ "type": "Feature", "properties": { "hex_id": 670368, "centroid_lon": -72.56857681978677, "centroid_lat": 45.364878031677215, "occurrences_today": 2, "datetimes_today": "2026-07-24 00:02:05, 2026-07-24 00:16:40", "cumulative_total": 37.0 }, "geometry": { "type": "Polygon", "coordinates": [ [ [ -72.568799348076936, 45.35968578370305 ], [ -72.575066664501435, 45.362417586790365 ], [ -72.574844688385326, 45.367609856396712 ], [ -72.568354230864301, 45.370070274055827 ], [ -72.562086422908166, 45.36733809477969 ], [ -72.562309563984471, 45.362145874097145 ], [ -72.568799348076936, 45.35968578370305 ] ] ] } },
{ "type": "Feature", "properties": { "hex_id": 788890, "centroid_lon": -71.243547571809771, "centroid_lat": 46.654118281423138, "occurrences_today": 5, "datetimes_today": "2026-07-24 00:02:05, 2026-07-24 00:16:40, 2026-07-24 00:31:58, 2026-07-24 00:46:49, 2026-07-24 01:01:55", "cumulative_total": 104.0 }, "geometry": { "type": "Polygon", "coordinates": [ [ [ -71.243907028985419, 46.648933703270913 ], [ -71.250247662768587, 46.651740172563869 ], [ -71.249888776368863, 46.656924785859594 ], [ -71.243188015215893, 46.659302852722924 ], [ -71.236846910092154, 46.656495979108705 ], [ -71.237207037427666, 46.65131144301872 ], [ -71.243907028985419, 46.648933703270913 ] ] ] } },
{ "type": "Feature", "properties": { "hex_id": 649685, "centroid_lon": -72.739077445902367, "centroid_lat": 46.522011885964154, "occurrences_today": 8, "datetimes_today": "2026-07-24 00:02:05, 2026-07-24 00:16:40, 2026-07-24 00:31:58, 2026-07-24 00:46:49, 2026-07-24 01:01:55, 2026-07-24 01:16:40, 2026-07-24 01:33:10, 2026-07-24 01:47:11", "cumulative_total": 98.0 }, "geometry": { "type": "Polygon", "coordinates": [ [ [ -72.739292897699471, 46.516820059378269 ], [ -72.745698636351307, 46.519544589719267 ], [ -72.745483774296318, 46.524736436740966 ], [ -72.738861934537937, 46.527203707046183 ], [ -72.732455665721588, 46.524478786962888 ], [ -72.732671766807613, 46.5192869863833 ], [ -72.739292897699471, 46.516820059378269 ] ] ] } },
{ "type": "Feature", "properties": { "hex_id": 826063, "centroid_lon": -70.924187483537196, "centroid_lat": 45.590827898857782, "occurrences_today": 7, "datetimes_today": "2026-07-24 02:46:50, 2026-07-24 03:01:40, 2026-07-24 03:16:36, 2026-07-24 03:31:53, 2026-07-24 03:47:12, 2026-07-24 04:02:00, 2026-07-24 04:18:15", "cumulative_total": 61.0 }, "geometry": { "type": "Polygon", "coordinates": [ [ [ -70.924563255212007, 45.585644334539651 ], [ -70.930769056654285, 45.588464428418945 ], [ -70.930393819336842, 45.593648030211511 ], [ -70.923811609365387, 45.596011456032841 ], [ -70.917605376079905, 45.593190969443846 ], [ -70.917981784574749, 45.588007449806831 ], [ -70.924563255212007, 45.585644334539651 ] ] ] } },
{ "type": "Feature", "properties": { "hex_id": 826673, "centroid_lon": -70.918358090431198, "centroid_lat": 45.582823923019703, "occurrences_today": 7, "datetimes_today": "2026-07-24 02:46:50, 2026-07-24 03:01:40, 2026-07-24 03:16:36, 2026-07-24 03:31:53, 2026-07-24 03:47:12, 2026-07-24 04:02:00, 2026-07-24 04:18:15", "cumulative_total": 84.0 }, "geometry": { "type": "Polygon", "coordinates": [ [ [ -70.918734293683642, 45.577640389083328 ], [ -70.924938924424168, 45.580460763079323 ], [ -70.924563255212007, 45.585644334539651 ], [ -70.917981784574749, 45.588007449806831 ], [ -70.911776722415141, 45.585186683160217 ], [ -70.912153562277496, 45.58000319396065 ], [ -70.918734293683642, 45.577640389083328 ] ] ] } },
{ "type": "Feature", "properties": { "hex_id": 827284, "centroid_lon": -70.911399779773049, "centroid_lat": 45.590370165202614, "occurrences_today": 7, "datetimes_today": "2026-07-24 02:46:50, 2026-07-24 03:01:40, 2026-07-24 03:16:36, 2026-07-24 03:31:53, 2026-07-24 03:47:12, 2026-07-24 04:02:00, 2026-07-24 04:18:15", "cumulative_total": 47.0 }, "geometry": { "type": "Polygon", "coordinates": [ [ [ -70.911776722415141, 45.585186683160217 ], [ -70.917981784574749, 45.588007449806831 ], [ -70.917605376079905, 45.593190969443846 ], [ -70.911022734316788, 45.595553640086948 ], [ -70.904817240841354, 45.592732480636798 ], [ -70.905194820410415, 45.587549043410682 ], [ -70.911776722415141, 45.585186683160217 ] ] ] } },
{ "type": "Feature", "properties": { "hex_id": 684486, "centroid_lon": -72.365987828812408, "centroid_lat": 46.55299539703239, "occurrences_today": 4, "datetimes_today": "2026-07-24 05:01:54, 2026-07-24 05:22:07, 2026-07-24 05:33:06, 2026-07-24 05:46:52", "cumulative_total": 61.0 }, "geometry": { "type": "Polygon", "coordinates": [ [ [ -72.366239082072624, 46.547805045524498 ], [ -72.372628814298167, 46.55055015496869 ], [ -72.372378146159534, 46.555740530612923 ], [ -72.365736506077653, 46.558185742763456 ], [ -72.35934625821703, 46.555440239848757 ], [ -72.359598166049437, 46.550249918320603 ], [ -72.366239082072624, 46.547805045524498 ] ] ] } },
{ "type": "Feature", "properties": { "hex_id": 641197, "centroid_lon": -72.792755166260619, "centroid_lat": 47.442702683104237, "occurrences_today": 1, "datetimes_today": "2026-07-24 05:46:52", "cumulative_total": 122.0 }, "geometry": { "type": "Polygon", "coordinates": [ [ [ -72.79297238012964, 47.437511504769667 ], [ -72.799490261104026, 47.440234527553038 ], [ -72.799273667776859, 47.445425726170782 ], [ -72.792537891576643, 47.447893855958313 ], [ -72.786019450886073, 47.445170431474999 ], [ -72.786237346090431, 47.439979278973077 ], [ -72.79297238012964, 47.437511504769667 ] ] ] } },
{ "type": "Feature", "properties": { "hex_id": 459173, "centroid_lon": -74.775195155637007, "centroid_lat": 45.982960093297294, "occurrences_today": 24, "datetimes_today": "2026-07-24 00:02:05, 2026-07-24 00:16:40, 2026-07-24 00:31:58, 2026-07-24 00:46:49, 2026-07-24 01:01:55, 2026-07-24 01:16:40, 2026-07-24 01:33:10, 2026-07-24 01:47:11, 2026-07-24 02:01:42, 2026-07-24 02:18:40, 2026-07-24 02:31:44, 2026-07-24 02:46:50, 2026-07-24 03:01:40, 2026-07-24 03:16:36, 2026-07-24 03:31:53, 2026-07-24 03:47:12, 2026-07-24 04:02:00, 2026-07-24 04:18:15, 2026-07-24 04:31:38, 2026-07-24 04:46:53, 2026-07-24 05:01:54, 2026-07-24 05:22:07, 2026-07-24 05:33:06, 2026-07-24 05:46:52", "cumulative_total": 188.0 }, "geometry": { "type": "Polygon", "coordinates": [ [ [ -74.775216184483526, 45.977763764088486 ], [ -74.781660592412521, 45.980374443458125 ], [ -74.781640164587046, 45.985570772546424 ], [ -74.775174121012142, 45.988156417752698 ], [ -74.768729117841431, 45.985545375054791 ], [ -74.768750753485364, 45.980349050544625 ], [ -74.775216184483526, 45.977763764088486 ] ] ] } },
{ "type": "Feature", "properties": { "hex_id": 459783, "centroid_lon": -74.768772383186047, "centroid_lat": 45.975152721280594, "occurrences_today": 24, "datetimes_today": "2026-07-24 00:02:05, 2026-07-24 00:16:40, 2026-07-24 00:31:58, 2026-07-24 00:46:49, 2026-07-24 01:01:55, 2026-07-24 01:16:40, 2026-07-24 01:33:10, 2026-07-24 01:47:11, 2026-07-24 02:01:42, 2026-07-24 02:18:40, 2026-07-24 02:31:44, 2026-07-24 02:46:50, 2026-07-24 03:01:40, 2026-07-24 03:16:36, 2026-07-24 03:31:53, 2026-07-24 03:47:12, 2026-07-24 04:02:00, 2026-07-24 04:18:15, 2026-07-24 04:31:38, 2026-07-24 04:46:53, 2026-07-24 05:01:54, 2026-07-24 05:22:07, 2026-07-24 05:33:06, 2026-07-24 05:46:52", "cumulative_total": 132.0 }, "geometry": { "type": "Polygon", "coordinates": [ [ [ -74.768794006945541, 45.969956387262663 ], [ -74.775237207553687, 45.972567430126226 ], [ -74.775216184483526, 45.977763764088486 ], [ -74.768750753485364, 45.980349050544625 ], [ -74.762306958130111, 45.97773764438729 ], [ -74.762329188518123, 45.972541315133299 ], [ -74.768794006945541, 45.969956387262663 ] ] ] } },
{ "type": "Feature", "properties": { "hex_id": 477481, "centroid_lon": -74.582360768625762, "centroid_lat": 45.873293244374942, "occurrences_today": 24, "datetimes_today": "2026-07-24 00:02:05, 2026-07-24 00:16:40, 2026-07-24 00:31:58, 2026-07-24 00:46:49, 2026-07-24 01:01:55, 2026-07-24 01:16:40, 2026-07-24 01:33:10, 2026-07-24 01:47:11, 2026-07-24 02:01:42, 2026-07-24 02:18:40, 2026-07-24 02:31:44, 2026-07-24 02:46:50, 2026-07-24 03:01:40, 2026-07-24 03:16:36, 2026-07-24 03:31:53, 2026-07-24 03:47:12, 2026-07-24 04:02:00, 2026-07-24 04:18:15, 2026-07-24 04:31:38, 2026-07-24 04:46:53, 2026-07-24 05:01:54, 2026-07-24 05:22:07, 2026-07-24 05:33:06, 2026-07-24 05:46:52", "cumulative_total": 329.0 }, "geometry": { "type": "Polygon", "coordinates": [ [ [ -74.5823996863856, 45.868096913194883 ], [ -74.588822323793721, 45.870718441733644 ], [ -74.588784001070962, 45.875914774739137 ], [ -74.582321840186879, 45.878489570782861 ], [ -74.575898618422514, 45.875867678379478 ], [ -74.575938141894838, 45.870671353862463 ], [ -74.5823996863856, 45.868096913194883 ] ] ] } },
{ "type": "Feature", "properties": { "hex_id": 478092, "centroid_lon": -74.575859084104621, "centroid_lat": 45.881063998123551, "occurrences_today": 24, "datetimes_today": "2026-07-24 00:02:05, 2026-07-24 00:16:40, 2026-07-24 00:31:58, 2026-07-24 00:46:49, 2026-07-24 01:01:55, 2026-07-24 01:16:40, 2026-07-24 01:33:10, 2026-07-24 01:47:11, 2026-07-24 02:01:42, 2026-07-24 02:18:40, 2026-07-24 02:31:44, 2026-07-24 02:46:50, 2026-07-24 03:01:40, 2026-07-24 03:16:36, 2026-07-24 03:31:53, 2026-07-24 03:47:12, 2026-07-24 04:02:00, 2026-07-24 04:18:15, 2026-07-24 04:31:38, 2026-07-24 04:46:53, 2026-07-24 05:01:54, 2026-07-24 05:22:07, 2026-07-24 05:33:06, 2026-07-24 05:46:52", "cumulative_total": 304.0 }, "geometry": { "type": "Polygon", "coordinates": [ [ [ -74.575898618422514, 45.875867678379478 ], [ -74.582321840186879, 45.878489570782861 ], [ -74.582282901065355, 45.883685892418619 ], [ -74.575819538937466, 45.886260313094702 ], [ -74.569395732827815, 45.883638056663592 ], [ -74.569435873187658, 45.878441743649617 ], [ -74.575898618422514, 45.875867678379478 ] ] ] } },
{ "type": "Feature", "properties": { "hex_id": 570849, "centroid_lon": -73.611704899382062, "centroid_lat": 45.26539467410025, "occurrences_today": 2, "datetimes_today": "2026-07-24 05:33:06, 2026-07-24 05:46:52", "cumulative_total": 145.0 }, "geometry": { "type": "Polygon", "coordinates": [ [ [ -73.611831544434537, 45.260199177147818 ], [ -73.61813951238139, 45.262874203757193 ], [ -73.61801343095091, 45.268069712119939 ], [ -73.611578219842201, 45.270590166028171 ], [ -73.605269722766465, 45.267914773893018 ], [ -73.605396965916825, 45.262719293439361 ], [ -73.611831544434537, 45.260199177147818 ] ] ] } },
{ "type": "Feature", "properties": { "hex_id": 643028, "centroid_lon": -72.773203749702148, "centroid_lat": 47.434531387944311, "occurrences_today": 1, "datetimes_today": "2026-07-24 05:46:52", "cumulative_total": 33.0 }, "geometry": { "type": "Polygon", "coordinates": [ [ [ -72.773422824041532, 47.429340270846645 ], [ -72.779938661619909, 47.43206437630964 ], [ -72.779720207244793, 47.437255513884146 ], [ -72.77298461403484, 47.439722499548246 ], [ -72.766468217830962, 47.436997992318567 ], [ -72.766687973440881, 47.43180690126043 ], [ -72.773422824041532, 47.429340270846645 ] ] ] } },
{ "type": "Feature", "properties": { "hex_id": 467708, "centroid_lon": -74.685878816051215, "centroid_lat": 45.795677130532951, "occurrences_today": 2, "datetimes_today": "2026-07-24 00:02:05, 2026-07-24 00:16:40", "cumulative_total": 197.0 }, "geometry": { "type": "Polygon", "coordinates": [ [ [ -74.685908008486493, 45.790480668409835 ], [ -74.692326633075481, 45.793096404213522 ], [ -74.692298034588376, 45.798292867111137 ], [ -74.685849615613137, 45.800873587894522 ], [ -74.679430405080112, 45.79825749023874 ], [ -74.679460199463648, 45.793061033716967 ], [ -74.685908008486493, 45.790480668409835 ] ] ] } },
{ "type": "Feature", "properties": { "hex_id": 471372, "centroid_lon": -74.647179441119846, "centroid_lat": 45.811153786150932, "occurrences_today": 24, "datetimes_today": "2026-07-24 00:02:05, 2026-07-24 00:16:40, 2026-07-24 00:31:58, 2026-07-24 00:46:49, 2026-07-24 01:01:55, 2026-07-24 01:16:40, 2026-07-24 01:33:10, 2026-07-24 01:47:11, 2026-07-24 02:01:42, 2026-07-24 02:18:40, 2026-07-24 02:31:44, 2026-07-24 02:46:50, 2026-07-24 03:01:40, 2026-07-24 03:16:36, 2026-07-24 03:31:53, 2026-07-24 03:47:12, 2026-07-24 04:02:00, 2026-07-24 04:18:15, 2026-07-24 04:31:38, 2026-07-24 04:46:53, 2026-07-24 05:01:54, 2026-07-24 05:22:07, 2026-07-24 05:33:06, 2026-07-24 05:46:52", "cumulative_total": 276.0 }, "geometry": { "type": "Polygon", "coordinates": [ [ [ -74.647212247682347, 45.805957358624447 ], [ -74.65363082178294, 45.808575260975687 ], [ -74.653598609151544, 45.813771689668542 ], [ -74.647146625562101, 45.816350208912226 ], [ -74.640727466527167, 45.813731944127639 ], [ -74.640760876012962, 45.808535522598028 ], [ -74.647212247682347, 45.805957358624447 ] ] ] } },
{ "type": "Feature", "properties": { "hex_id": 471982, "centroid_lon": -74.640794276341012, "centroid_lat": 45.803339096302544, "occurrences_today": 24, "datetimes_today": "2026-07-24 00:02:05, 2026-07-24 00:16:40, 2026-07-24 00:31:58, 2026-07-24 00:46:49, 2026-07-24 01:01:55, 2026-07-24 01:16:40, 2026-07-24 01:33:10, 2026-07-24 01:47:11, 2026-07-24 02:01:42, 2026-07-24 02:18:40, 2026-07-24 02:31:44, 2026-07-24 02:46:50, 2026-07-24 03:01:40, 2026-07-24 03:16:36, 2026-07-24 03:31:53, 2026-07-24 03:47:12, 2026-07-24 04:02:00, 2026-07-24 04:18:15, 2026-07-24 04:31:38, 2026-07-24 04:46:53, 2026-07-24 05:01:54, 2026-07-24 05:22:07, 2026-07-24 05:33:06, 2026-07-24 05:46:52", "cumulative_total": 307.0 }, "geometry": { "type": "Polygon", "coordinates": [ [ [ -74.640827667514415, 45.798142665241151 ], [ -74.647245045252618, 45.800760926332707 ], [ -74.647212247682347, 45.805957358624447 ], [ -74.640760876012962, 45.808535522598028 ], [ -74.634342913827851, 45.805916899108304 ], [ -74.634376907755893, 45.800720474108459 ], [ -74.640827667514415, 45.798142665241151 ] ] ] } },
{ "type": "Feature", "properties": { "hex_id": 476259, "centroid_lon": -74.595358687227261, "centroid_lat": 45.857750577167565, "occurrences_today": 24, "datetimes_today": "2026-07-24 00:02:05, 2026-07-24 00:16:40, 2026-07-24 00:31:58, 2026-07-24 00:46:49, 2026-07-24 01:01:55, 2026-07-24 01:16:40, 2026-07-24 01:33:10, 2026-07-24 01:47:11, 2026-07-24 02:01:42, 2026-07-24 02:18:40, 2026-07-24 02:31:44, 2026-07-24 02:46:50, 2026-07-24 03:01:40, 2026-07-24 03:16:36, 2026-07-24 03:31:53, 2026-07-24 03:47:12, 2026-07-24 04:02:00, 2026-07-24 04:18:15, 2026-07-24 04:31:38, 2026-07-24 04:46:53, 2026-07-24 05:01:54, 2026-07-24 05:22:07, 2026-07-24 05:33:06, 2026-07-24 05:46:52", "cumulative_total": 417.0 }, "geometry": { "type": "Polygon", "coordinates": [ [ [ -74.595396373369084, 45.852554223318741 ], [ -74.601817842032602, 45.855175024617459 ], [ -74.601780750609237, 45.860371380159251 ], [ -74.595320990746359, 45.862946926245691 ], [ -74.588898937705238, 45.860325761408468 ], [ -74.588937228901088, 45.855129414088736 ], [ -74.595396373369084, 45.852554223318741 ] ] ] } },
{ "type": "Feature", "properties": { "hex_id": 759586, "centroid_lon": -71.556621008735874, "centroid_lat": 46.663981291960695, "occurrences_today": 2, "datetimes_today": "2026-07-24 05:33:06, 2026-07-24 05:46:52", "cumulative_total": 23.0 }, "geometry": { "type": "Polygon", "coordinates": [ [ [ -71.556950658728411, 46.658794937680554 ], [ -71.563309622936842, 46.661584482947362 ], [ -71.562980549003342, 46.666770869344447 ], [ -71.556291267525822, 46.669167639724876 ], [ -71.549931818491629, 46.666377692577008 ], [ -71.550262135729227, 46.66119137699625 ], [ -71.556950658728411, 46.658794937680554 ] ] ] } },
{ "type": "Feature", "properties": { "hex_id": 790110, "centroid_lon": -71.231588269826872, "centroid_lat": 46.638135248511517, "occurrences_today": 5, "datetimes_today": "2026-07-24 00:02:05, 2026-07-24 00:16:40, 2026-07-24 00:31:58, 2026-07-24 00:46:49, 2026-07-24 01:01:55", "cumulative_total": 14.0 }, "geometry": { "type": "Polygon", "coordinates": [ [ [ -71.231948668644776, 46.632950727093849 ], [ -71.238286822142044, 46.635757793595374 ], [ -71.237926993418299, 46.640942350261319 ], [ -71.23122777135282, 46.643319763064341 ], [ -71.224889147434723, 46.640512292361109 ], [ -71.225250215968558, 46.635327813122828 ], [ -71.231948668644776, 46.632950727093849 ] ] ] } },
{ "type": "Feature", "properties": { "hex_id": 412764, "centroid_lon": -75.264978505434001, "centroid_lat": 45.811391260634942, "occurrences_today": 5, "datetimes_today": "2026-07-24 00:02:05, 2026-07-24 00:16:40, 2026-07-24 00:31:58, 2026-07-24 00:46:49, 2026-07-24 01:01:55", "cumulative_total": 225.0 }, "geometry": { "type": "Polygon", "coordinates": [ [ [ -75.264953866479516, 45.806194790308822 ], [ -75.271401236076812, 45.80877792242481 ], [ -75.271426476862558, 45.813974387649672 ], [ -75.265003151144313, 45.816587726203757 ], [ -75.258555172958751, 45.814004237908222 ], [ -75.258531129081973, 45.80880776730347 ], [ -75.264953866479516, 45.806194790308822 ] ] ] } },
{ "type": "Feature", "properties": { "hex_id": 413985, "centroid_lon": -75.252107790014975, "centroid_lat": 45.811420383327707, "occurrences_today": 5, "datetimes_today": "2026-07-24 00:02:05, 2026-07-24 00:16:40, 2026-07-24 00:31:58, 2026-07-24 00:46:49, 2026-07-24 01:01:55", "cumulative_total": 216.0 }, "geometry": { "type": "Polygon", "coordinates": [ [ [ -75.25208434780879, 45.806223907752837 ], [ -75.258531129081973, 45.80880776730347 ], [ -75.258555172958751, 45.814004237908222 ], [ -75.252131238648857, 45.816616854146254 ], [ -75.245683849276276, 45.814032638283244 ], [ -75.24566100231516, 45.808836162559899 ], [ -75.25208434780879, 45.806223907752837 ] ] ] } },
{ "type": "Feature", "properties": { "hex_id": 721097, "centroid_lon": -71.991460897992454, "centroid_lat": 46.247560026271252, "occurrences_today": 1, "datetimes_today": "2026-07-24 05:46:52", "cumulative_total": 183.0 }, "geometry": { "type": "Polygon", "coordinates": [ [ [ -71.991744804510517, 46.242371070689224 ], [ -71.998079872573797, 46.245135952204414 ], [ -71.997796536062097, 46.250324935436176 ], [ -71.991176913307214, 46.252748975772938 ], [ -71.984841353418105, 46.249983701612933 ], [ -71.985125908083006, 46.244794779826684 ], [ -71.991744804510517, 46.242371070689224 ] ] ] } },
{ "type": "Feature", "properties": { "hex_id": 730223, "centroid_lon": -71.92164789506522, "centroid_lat": 45.754620540053971, "occurrences_today": 9, "datetimes_today": "2026-07-24 00:46:49, 2026-07-24 01:01:55, 2026-07-24 01:16:40, 2026-07-24 01:33:10, 2026-07-24 01:47:11, 2026-07-24 02:01:42, 2026-07-24 02:18:40, 2026-07-24 02:31:44, 2026-07-24 02:46:50", "cumulative_total": 46.0 }, "geometry": { "type": "Polygon", "coordinates": [ [ [ -71.921933433206746, 45.749431471985154 ], [ -71.928210008292893, 45.752198938531109 ], [ -71.927925024351055, 45.757388034665759 ], [ -71.921362278798, 45.759809602000374 ], [ -71.915085227650991, 45.757041748696743 ], [ -71.915371398091565, 45.751852714880698 ], [ -71.921933433206746, 45.749431471985154 ] ] ] } },
{ "type": "Feature", "properties": { "hex_id": 390784, "centroid_lon": -75.49637007960429, "centroid_lat": 45.779441093191039, "occurrences_today": 3, "datetimes_today": "2026-07-24 02:18:40, 2026-07-24 02:31:44, 2026-07-24 02:46:50", "cumulative_total": 65.0 }, "geometry": { "type": "Polygon", "coordinates": [ [ [ -75.49632397655472, 45.774244733321133 ], [ -75.50277822641408, 45.776814794706631 ], [ -75.50282493316206, 45.782011147116435 ], [ -75.496416195289711, 45.784637448277863 ], [ -75.489961329093958, 45.782067033508355 ], [ -75.489915817111239, 45.776870671026693 ], [ -75.49632397655472, 45.774244733321133 ] ] ] } },
{ "type": "Feature", "properties": { "hex_id": 391394, "centroid_lon": -75.489870317598559, "centroid_lat": 45.771674303762865, "occurrences_today": 3, "datetimes_today": "2026-07-24 02:18:40, 2026-07-24 02:31:44, 2026-07-24 02:46:50", "cumulative_total": 73.0 }, "geometry": { "type": "Polygon", "coordinates": [ [ [ -75.489824830551697, 45.766477931716821 ], [ -75.49627788613671, 45.769048368668138 ], [ -75.49632397655472, 45.774244733321133 ], [ -75.489915817111239, 45.776870671026693 ], [ -75.483462145687156, 45.774299880720534 ], [ -75.483417249549831, 45.769103506128914 ], [ -75.489824830551697, 45.766477931716821 ] ] ] } },
{ "type": "Feature", "properties": { "hex_id": 509838, "centroid_lon": -74.240822223177602, "centroid_lat": 45.879329237241322, "occurrences_today": 24, "datetimes_today": "2026-07-24 00:02:05, 2026-07-24 00:16:40, 2026-07-24 00:31:58, 2026-07-24 00:46:49, 2026-07-24 01:01:55, 2026-07-24 01:16:40, 2026-07-24 01:33:10, 2026-07-24 01:47:11, 2026-07-24 02:01:42, 2026-07-24 02:18:40, 2026-07-24 02:31:44, 2026-07-24 02:46:50, 2026-07-24 03:01:40, 2026-07-24 03:16:36, 2026-07-24 03:31:53, 2026-07-24 03:47:12, 2026-07-24 04:02:00, 2026-07-24 04:18:15, 2026-07-24 04:31:38, 2026-07-24 04:46:53, 2026-07-24 05:01:54, 2026-07-24 05:22:07, 2026-07-24 05:33:06, 2026-07-24 05:46:52", "cumulative_total": 336.0 }, "geometry": { "type": "Polygon", "coordinates": [ [ [ -74.240892980697993, 45.874133230155564 ], [ -74.247300005053106, 45.876773853954127 ], [ -74.247229838247037, 45.881969866307074 ], [ -74.240751446241106, 45.88452523949632 ], [ -74.234343850591074, 45.881884248395771 ], [ -74.234415218235327, 45.876688251473425 ], [ -74.240892980697993, 45.874133230155564 ] ] ] } },
{ "type": "Feature", "properties": { "hex_id": 587383, "centroid_lon": -73.417665295177443, "centroid_lat": 46.050171926800139, "occurrences_today": 13, "datetimes_today": "2026-07-24 00:02:05, 2026-07-24 00:16:40, 2026-07-24 00:31:58, 2026-07-24 00:46:49, 2026-07-24 01:01:55, 2026-07-24 01:16:40, 2026-07-24 01:33:10, 2026-07-24 01:47:11, 2026-07-24 02:01:42, 2026-07-24 02:18:40, 2026-07-24 02:31:44, 2026-07-24 02:46:50, 2026-07-24 03:01:40", "cumulative_total": 183.0 }, "geometry": { "type": "Polygon", "coordinates": [ [ [ -73.417813639906115, 46.044977603307515 ], [ -73.424199813535083, 46.047664038871396 ], [ -73.424052053577029, 46.052858375897962 ], [ -73.417516909667199, 46.055366245179911 ], [ -73.411130192056149, 46.05267943227517 ], [ -73.411279162323112, 46.047485127495051 ], [ -73.417813639906115, 46.044977603307515 ] ] ] } },
{ "type": "Feature", "properties": { "hex_id": 475039, "centroid_lon": -74.608130395929564, "centroid_lat": 45.873384522997782, "occurrences_today": 24, "datetimes_today": "2026-07-24 00:02:05, 2026-07-24 00:16:40, 2026-07-24 00:31:58, 2026-07-24 00:46:49, 2026-07-24 01:01:55, 2026-07-24 01:16:40, 2026-07-24 01:33:10, 2026-07-24 01:47:11, 2026-07-24 02:01:42, 2026-07-24 02:18:40, 2026-07-24 02:31:44, 2026-07-24 02:46:50, 2026-07-24 03:01:40, 2026-07-24 03:16:36, 2026-07-24 03:31:53, 2026-07-24 03:47:12, 2026-07-24 04:02:00, 2026-07-24 04:18:15, 2026-07-24 04:31:38, 2026-07-24 04:46:53, 2026-07-24 05:01:54, 2026-07-24 05:22:07, 2026-07-24 05:33:06, 2026-07-24 05:46:52", "cumulative_total": 278.0 }, "geometry": { "type": "Polygon", "coordinates": [ [ [ -74.608166912498405, 45.868188175366008 ], [ -74.614590781216222, 45.870808259451657 ], [ -74.614554860024299, 45.876004608648522 ], [ -74.60809386934055, 45.878580865860442 ], [ -74.601669415267693, 45.875960418165192 ], [ -74.601706537230214, 45.870764076933085 ], [ -74.608166912498405, 45.868188175366008 ] ] ] } },
{ "type": "Feature", "properties": { "hex_id": 475649, "centroid_lon": -74.601743649009592, "centroid_lat": 45.865567730931126, "occurrences_today": 13, "datetimes_today": "2026-07-24 00:02:05, 2026-07-24 00:16:40, 2026-07-24 00:31:58, 2026-07-24 00:46:49, 2026-07-24 01:01:55, 2026-07-24 01:16:40, 2026-07-24 01:33:10, 2026-07-24 01:47:11, 2026-07-24 02:01:42, 2026-07-24 02:18:40, 2026-07-24 02:31:44, 2026-07-24 02:46:50, 2026-07-24 03:01:40", "cumulative_total": 267.0 }, "geometry": { "type": "Polygon", "coordinates": [ [ [ -74.601780750609237, 45.860371380159251 ], [ -74.608203419050454, 45.8629918229651 ], [ -74.608166912498405, 45.868188175366008 ], [ -74.601706537230214, 45.870764076933085 ], [ -74.595283283922853, 45.868143270553155 ], [ -74.595320990746359, 45.862946926245691 ], [ -74.601780750609237, 45.860371380159251 ] ] ] } },
{ "type": "Feature", "properties": { "hex_id": 475650, "centroid_lon": -74.601632283118548, "centroid_lat": 45.881156754627426, "occurrences_today": 24, "datetimes_today": "2026-07-24 00:02:05, 2026-07-24 00:16:40, 2026-07-24 00:31:58, 2026-07-24 00:46:49, 2026-07-24 01:01:55, 2026-07-24 01:16:40, 2026-07-24 01:33:10, 2026-07-24 01:47:11, 2026-07-24 02:01:42, 2026-07-24 02:18:40, 2026-07-24 02:31:44, 2026-07-24 02:46:50, 2026-07-24 03:01:40, 2026-07-24 03:16:36, 2026-07-24 03:31:53, 2026-07-24 03:47:12, 2026-07-24 04:02:00, 2026-07-24 04:18:15, 2026-07-24 04:31:38, 2026-07-24 04:46:53, 2026-07-24 05:01:54, 2026-07-24 05:22:07, 2026-07-24 05:33:06, 2026-07-24 05:46:52", "cumulative_total": 278.0 }, "geometry": { "type": "Polygon", "coordinates": [ [ [ -74.601669415267693, 45.875960418165192 ], [ -74.60809386934055, 45.878580865860442 ], [ -74.608057332727938, 45.883777203953976 ], [ -74.60159514077931, 45.886353086319851 ], [ -74.595170101361703, 45.883732274851837 ], [ -74.595207839234035, 45.878535944856225 ], [ -74.601669415267693, 45.875960418165192 ] ] ] } },
{ "type": "Feature", "properties": { "hex_id": 476260, "centroid_lon": -74.595245566753249, "centroid_lat": 45.873339610089999, "occurrences_today": 24, "datetimes_today": "2026-07-24 00:02:05, 2026-07-24 00:16:40, 2026-07-24 00:31:58, 2026-07-24 00:46:49, 2026-07-24 01:01:55, 2026-07-24 01:16:40, 2026-07-24 01:33:10, 2026-07-24 01:47:11, 2026-07-24 02:01:42, 2026-07-24 02:18:40, 2026-07-24 02:31:44, 2026-07-24 02:46:50, 2026-07-24 03:01:40, 2026-07-24 03:16:36, 2026-07-24 03:31:53, 2026-07-24 03:47:12, 2026-07-24 04:02:00, 2026-07-24 04:18:15, 2026-07-24 04:31:38, 2026-07-24 04:46:53, 2026-07-24 05:01:54, 2026-07-24 05:22:07, 2026-07-24 05:33:06, 2026-07-24 05:46:52", "cumulative_total": 278.0 }, "geometry": { "type": "Polygon", "coordinates": [ [ [ -74.595283283922853, 45.868143270553155 ], [ -74.601706537230214, 45.870764076933085 ], [ -74.601669415267693, 45.875960418165192 ], [ -74.595207839234035, 45.878535944856225 ], [ -74.588784001070962, 45.875914774739137 ], [ -74.588822323793721, 45.870718441733644 ], [ -74.595283283922853, 45.868143270553155 ] ] ] } },
{ "type": "Feature", "properties": { "hex_id": 476870, "centroid_lon": -74.588860636003972, "centroid_lat": 45.865522103956778, "occurrences_today": 24, "datetimes_today": "2026-07-24 00:02:05, 2026-07-24 00:16:40, 2026-07-24 00:31:58, 2026-07-24 00:46:49, 2026-07-24 01:01:55, 2026-07-24 01:16:40, 2026-07-24 01:33:10, 2026-07-24 01:47:11, 2026-07-24 02:01:42, 2026-07-24 02:18:40, 2026-07-24 02:31:44, 2026-07-24 02:46:50, 2026-07-24 03:01:40, 2026-07-24 03:16:36, 2026-07-24 03:31:53, 2026-07-24 03:47:12, 2026-07-24 04:02:00, 2026-07-24 04:18:15, 2026-07-24 04:31:38, 2026-07-24 04:46:53, 2026-07-24 05:01:54, 2026-07-24 05:22:07, 2026-07-24 05:33:06, 2026-07-24 05:46:52", "cumulative_total": 364.0 }, "geometry": { "type": "Polygon", "coordinates": [ [ [ -74.588898937705238, 45.860325761408468 ], [ -74.595320990746359, 45.862946926245691 ], [ -74.595283283922853, 45.868143270553155 ], [ -74.588822323793721, 45.870718441733644 ], [ -74.5823996863856, 45.868096913194883 ], [ -74.582438593470044, 45.862900577242634 ], [ -74.588898937705238, 45.860325761408468 ] ] ] } },
{ "type": "Feature", "properties": { "hex_id": 476871, "centroid_lon": -74.588745667832086, "centroid_lat": 45.881111102973236, "occurrences_today": 24, "datetimes_today": "2026-07-24 00:02:05, 2026-07-24 00:16:40, 2026-07-24 00:31:58, 2026-07-24 00:46:49, 2026-07-24 01:01:55, 2026-07-24 01:16:40, 2026-07-24 01:33:10, 2026-07-24 01:47:11, 2026-07-24 02:01:42, 2026-07-24 02:18:40, 2026-07-24 02:31:44, 2026-07-24 02:46:50, 2026-07-24 03:01:40, 2026-07-24 03:16:36, 2026-07-24 03:31:53, 2026-07-24 03:47:12, 2026-07-24 04:02:00, 2026-07-24 04:18:15, 2026-07-24 04:31:38, 2026-07-24 04:46:53, 2026-07-24 05:01:54, 2026-07-24 05:22:07, 2026-07-24 05:33:06, 2026-07-24 05:46:52", "cumulative_total": 278.0 }, "geometry": { "type": "Polygon", "coordinates": [ [ [ -74.588784001070962, 45.875914774739137 ], [ -74.595207839234035, 45.878535944856225 ], [ -74.595170101361703, 45.883732274851837 ], [ -74.588707324073539, 45.886307426436005 ], [ -74.582282901065355, 45.883685892418619 ], [ -74.582321840186879, 45.878489570782861 ], [ -74.588784001070962, 45.875914774739137 ] ] ] } },
{ "type": "Feature", "properties": { "hex_id": 478091, "centroid_lon": -74.575977654525261, "centroid_lat": 45.86547502457249, "occurrences_today": 24, "datetimes_today": "2026-07-24 00:02:05, 2026-07-24 00:16:40, 2026-07-24 00:31:58, 2026-07-24 00:46:49, 2026-07-24 01:01:55, 2026-07-24 01:16:40, 2026-07-24 01:33:10, 2026-07-24 01:47:11, 2026-07-24 02:01:42, 2026-07-24 02:18:40, 2026-07-24 02:31:44, 2026-07-24 02:46:50, 2026-07-24 03:01:40, 2026-07-24 03:16:36, 2026-07-24 03:31:53, 2026-07-24 03:47:12, 2026-07-24 04:02:00, 2026-07-24 04:18:15, 2026-07-24 04:31:38, 2026-07-24 04:46:53, 2026-07-24 05:01:54, 2026-07-24 05:22:07, 2026-07-24 05:33:06, 2026-07-24 05:46:52", "cumulative_total": 295.0 }, "geometry": { "type": "Polygon", "coordinates": [ [ [ -74.576017156317477, 45.860278690509539 ], [ -74.582438593470044, 45.862900577242634 ], [ -74.5823996863856, 45.868096913194883 ], [ -74.575938141894838, 45.870671353862463 ], [ -74.569516120874567, 45.86804910330045 ], [ -74.569556228209095, 45.862852775965216 ], [ -74.576017156317477, 45.860278690509539 ] ] ] } },
{ "type": "Feature", "properties": { "hex_id": 478702, "centroid_lon": -74.569476002535325, "centroid_lat": 45.873245425861917, "occurrences_today": 24, "datetimes_today": "2026-07-24 00:02:05, 2026-07-24 00:16:40, 2026-07-24 00:31:58, 2026-07-24 00:46:49, 2026-07-24 01:01:55, 2026-07-24 01:16:40, 2026-07-24 01:33:10, 2026-07-24 01:47:11, 2026-07-24 02:01:42, 2026-07-24 02:18:40, 2026-07-24 02:31:44, 2026-07-24 02:46:50, 2026-07-24 03:01:40, 2026-07-24 03:16:36, 2026-07-24 03:31:53, 2026-07-24 03:47:12, 2026-07-24 04:02:00, 2026-07-24 04:18:15, 2026-07-24 04:31:38, 2026-07-24 04:46:53, 2026-07-24 05:01:54, 2026-07-24 05:22:07, 2026-07-24 05:33:06, 2026-07-24 05:46:52", "cumulative_total": 346.0 }, "geometry": { "type": "Polygon", "coordinates": [ [ [ -74.569516120874567, 45.86804910330045 ], [ -74.575938141894838, 45.870671353862463 ], [ -74.575898618422514, 45.875867678379478 ], [ -74.569435873187658, 45.878441743649617 ], [ -74.563013268310783, 45.87581912909566 ], [ -74.563053992521631, 45.870622813328971 ], [ -74.569516120874567, 45.86804910330045 ] ] ] } },
{ "type": "Feature", "properties": { "hex_id": 597778, "centroid_lon": -73.29993217901621, "centroid_lat": 46.305696814331419, "occurrences_today": 15, "datetimes_today": "2026-07-24 02:18:40, 2026-07-24 02:31:44, 2026-07-24 02:46:50, 2026-07-24 03:01:40, 2026-07-24 03:16:36, 2026-07-24 03:31:53, 2026-07-24 03:47:12, 2026-07-24 04:02:00, 2026-07-24 04:18:15, 2026-07-24 04:31:38, 2026-07-24 04:46:53, 2026-07-24 05:01:54, 2026-07-24 05:22:07, 2026-07-24 05:33:06, 2026-07-24 05:46:52", "cumulative_total": 36.0 }, "geometry": { "type": "Polygon", "coordinates": [ [ [ -73.300092984855098, 46.30050303024391 ], [ -73.306502538386326, 46.303196256463217 ], [ -73.306342323642468, 46.308390055332616 ], [ -73.299771328828257, 46.310890593247578 ], [ -73.293361228558638, 46.308196985265013 ], [ -73.293522669826416, 46.303003221197031 ], [ -73.300092984855098, 46.30050303024391 ] ] ] } },
{ "type": "Feature", "properties": { "hex_id": 746166, "centroid_lon": -71.689690286976813, "centroid_lat": 46.839387245461772, "occurrences_today": 11, "datetimes_today": "2026-07-24 00:02:05, 2026-07-24 00:16:40, 2026-07-24 00:31:58, 2026-07-24 00:46:49, 2026-07-24 01:01:55, 2026-07-24 01:16:40, 2026-07-24 01:33:10, 2026-07-24 01:47:11, 2026-07-24 02:01:42, 2026-07-24 02:18:40, 2026-07-24 02:31:44", "cumulative_total": 138.0 }, "geometry": { "type": "Polygon", "coordinates": [ [ [ -71.690009158747714, 46.834200338953082 ], [ -71.696395606581689, 46.836983111010902 ], [ -71.696077318447394, 46.842170048446349 ], [ -71.68937132675137, 46.844574145580779 ], [ -71.682984383750664, 46.841790970376373 ], [ -71.683303927582031, 46.836604101251098 ], [ -71.690009158747714, 46.834200338953082 ] ] ] } },
{ "type": "Feature", "properties": { "hex_id": 746776, "centroid_lon": -71.683623382800903, "centroid_lat": 46.831417225729922, "occurrences_today": 11, "datetimes_today": "2026-07-24 00:02:05, 2026-07-24 00:16:40, 2026-07-24 00:31:58, 2026-07-24 00:46:49, 2026-07-24 01:01:55, 2026-07-24 01:16:40, 2026-07-24 01:33:10, 2026-07-24 01:47:11, 2026-07-24 02:01:42, 2026-07-24 02:18:40, 2026-07-24 02:31:44", "cumulative_total": 138.0 }, "geometry": { "type": "Polygon", "coordinates": [ [ [ -71.683942749438032, 46.826230343813357 ], [ -71.690327942094754, 46.829013426055276 ], [ -71.690009158747714, 46.834200338953082 ], [ -71.683303927582031, 46.836604101251098 ], [ -71.676918240232339, 46.833820615919898 ], [ -71.677238278710576, 46.828633771446917 ], [ -71.683942749438032, 46.826230343813357 ] ] ] } },
{ "type": "Feature", "properties": { "hex_id": 747386, "centroid_lon": -71.6775582284492, "centroid_lat": 46.823446920572323, "occurrences_today": 11, "datetimes_today": "2026-07-24 00:02:05, 2026-07-24 00:16:40, 2026-07-24 00:31:58, 2026-07-24 00:46:49, 2026-07-24 01:01:55, 2026-07-24 01:16:40, 2026-07-24 01:33:10, 2026-07-24 01:47:11, 2026-07-24 02:01:42, 2026-07-24 02:18:40, 2026-07-24 02:31:44", "cumulative_total": 124.0 }, "geometry": { "type": "Polygon", "coordinates": [ [ [ -71.677878089479023, 46.818260063296684 ], [ -71.684262027524099, 46.821043455502 ], [ -71.683942749438032, 46.826230343813357 ], [ -71.677238278710576, 46.828633771446917 ], [ -71.670853846445951, 46.825849976209653 ], [ -71.67117437909755, 46.820663156437725 ], [ -71.677878089479023, 46.818260063296684 ] ] ] } },
{ "type": "Feature", "properties": { "hex_id": 747387, "centroid_lon": -71.676598112983754, "centroid_lat": 46.83900745399071, "occurrences_today": 11, "datetimes_today": "2026-07-24 00:02:05, 2026-07-24 00:16:40, 2026-07-24 00:31:58, 2026-07-24 00:46:49, 2026-07-24 01:01:55, 2026-07-24 01:16:40, 2026-07-24 01:33:10, 2026-07-24 01:47:11, 2026-07-24 02:01:42, 2026-07-24 02:18:40, 2026-07-24 02:31:44", "cumulative_total": 138.0 }, "geometry": { "type": "Polygon", "coordinates": [ [ [ -71.676918240232339, 46.833820615919898 ], [ -71.683303927582031, 46.836604101251098 ], [ -71.682984383750664, 46.841790970376373 ], [ -71.676277896933982, 46.844194285658773 ], [ -71.669891714983621, 46.841410397075968 ], [ -71.670212514419831, 46.836223596529337 ], [ -71.676918240232339, 46.833820615919898 ] ] ] } },
{ "type": "Feature", "properties": { "hex_id": 747996, "centroid_lon": -71.671494822882636, "centroid_lat": 46.815476330258477, "occurrences_today": 11, "datetimes_today": "2026-07-24 00:02:05, 2026-07-24 00:16:40, 2026-07-24 00:31:58, 2026-07-24 00:46:49, 2026-07-24 01:01:55, 2026-07-24 01:16:40, 2026-07-24 01:33:10, 2026-07-24 01:47:11, 2026-07-24 02:01:42, 2026-07-24 02:18:40, 2026-07-24 02:31:44", "cumulative_total": 124.0 }, "geometry": { "type": "Polygon", "coordinates": [ [ [ -71.671815177831974, 46.810289497672485 ], [ -71.678197861830753, 46.813073199620561 ], [ -71.677878089479023, 46.818260063296684 ], [ -71.67117437909755, 46.820663156437725 ], [ -71.664791201352301, 46.817879051515042 ], [ -71.665112227704185, 46.812692256492852 ], [ -71.671815177831974, 46.810289497672485 ] ] ] } },
{ "type": "Feature", "properties": { "hex_id": 747997, "centroid_lon": -71.670533224896985, "centroid_lat": 46.831036789573723, "occurrences_today": 11, "datetimes_today": "2026-07-24 00:02:05, 2026-07-24 00:16:40, 2026-07-24 00:31:58, 2026-07-24 00:46:49, 2026-07-24 01:01:55, 2026-07-24 01:16:40, 2026-07-24 01:33:10, 2026-07-24 01:47:11, 2026-07-24 02:01:42, 2026-07-24 02:18:40, 2026-07-24 02:31:44", "cumulative_total": 124.0 }, "geometry": { "type": "Polygon", "coordinates": [ [ [ -71.670853846445951, 46.825849976209653 ], [ -71.677238278710576, 46.828633771446917 ], [ -71.676918240232339, 46.833820615919898 ], [ -71.670212514419831, 46.836223596529337 ], [ -71.66382758802807, 46.833439398097894 ], [ -71.664148881545131, 46.828252622318132 ], [ -71.670853846445951, 46.825849976209653 ] ] ] } },
{ "type": "Feature", "properties": { "hex_id": 747998, "centroid_lon": -71.669570826557518, "centroid_lat": 46.846597191213021, "occurrences_today": 11, "datetimes_today": "2026-07-24 00:02:05, 2026-07-24 00:16:40, 2026-07-24 00:31:58, 2026-07-24 00:46:49, 2026-07-24 01:01:55, 2026-07-24 01:16:40, 2026-07-24 01:33:10, 2026-07-24 01:47:11, 2026-07-24 02:01:42, 2026-07-24 02:18:40, 2026-07-24 02:31:44", "cumulative_total": 148.0 }, "geometry": { "type": "Polygon", "coordinates": [ [ [ -71.669891714983621, 46.841410397075968 ], [ -71.676277896933982, 46.844194285658773 ], [ -71.675957592052228, 46.849381110923524 ], [ -71.669249849110642, 46.851783978939956 ], [ -71.662863172652166, 46.84899968694323 ], [ -71.663184733612525, 46.843812930411012 ], [ -71.669891714983621, 46.841410397075968 ] ] ] } },
{ "type": "Feature", "properties": { "hex_id": 748607, "centroid_lon": -71.664470085976248, "centroid_lat": 46.823065840123661, "occurrences_today": 11, "datetimes_today": "2026-07-24 00:02:05, 2026-07-24 00:16:40, 2026-07-24 00:31:58, 2026-07-24 00:46:49, 2026-07-24 01:01:55, 2026-07-24 01:16:40, 2026-07-24 01:33:10, 2026-07-24 01:47:11, 2026-07-24 02:01:42, 2026-07-24 02:18:40, 2026-07-24 02:31:44", "cumulative_total": 124.0 }, "geometry": { "type": "Polygon", "coordinates": [ [ [ -71.664791201352301, 46.817879051515042 ], [ -71.67117437909755, 46.820663156437725 ], [ -71.670853846445951, 46.825849976209653 ], [ -71.664148881545131, 46.828252622318132 ], [ -71.657765210145925, 46.825468114258683 ], [ -71.658086997270601, 46.82028136329447 ], [ -71.664791201352301, 46.817879051515042 ] ] ] } },
{ "type": "Feature", "properties": { "hex_id": 748608, "centroid_lon": -71.663506205394185, "centroid_lat": 46.83862616746238, "occurrences_today": 11, "datetimes_today": "2026-07-24 00:02:05, 2026-07-24 00:16:40, 2026-07-24 00:31:58, 2026-07-24 00:46:49, 2026-07-24 01:01:55, 2026-07-24 01:16:40, 2026-07-24 01:33:10, 2026-07-24 01:47:11, 2026-07-24 02:01:42, 2026-07-24 02:18:40, 2026-07-24 02:31:44", "cumulative_total": 137.0 }, "geometry": { "type": "Polygon", "coordinates": [ [ [ -71.66382758802807, 46.833439398097894 ], [ -71.670212514419831, 46.836223596529337 ], [ -71.669891714983621, 46.841410397075968 ], [ -71.663184733612525, 46.843812930411012 ], [ -71.656799313186298, 46.841028328623096 ], [ -71.657121368134725, 46.835841596923565 ], [ -71.66382758802807, 46.833439398097894 ] ] ] } },
{ "type": "Feature", "properties": { "hex_id": 748609, "centroid_lon": -71.662541522482172, "centroid_lat": 46.854186437058466, "occurrences_today": 11, "datetimes_today": "2026-07-24 00:02:05, 2026-07-24 00:16:40, 2026-07-24 00:31:58, 2026-07-24 00:46:49, 2026-07-24 01:01:55, 2026-07-24 01:16:40, 2026-07-24 01:33:10, 2026-07-24 01:47:11, 2026-07-24 02:01:42, 2026-07-24 02:18:40, 2026-07-24 02:31:44", "cumulative_total": 148.0 }, "geometry": { "type": "Polygon", "coordinates": [ [ [ -71.662863172652166, 46.84899968694323 ], [ -71.669249849110642, 46.851783978939956 ], [ -71.66892878261207, 46.856970760256168 ], [ -71.662219783071578, 46.859373180756151 ], [ -71.65583261219777, 46.856588485183167 ], [ -71.656154935248821, 46.851401772753469 ], [ -71.662863172652166, 46.84899968694323 ] ] ] } },
{ "type": "Feature", "properties": { "hex_id": 749217, "centroid_lon": -71.658408695182601, "centroid_lat": 46.815094605909827, "occurrences_today": 11, "datetimes_today": "2026-07-24 00:02:05, 2026-07-24 00:16:40, 2026-07-24 00:31:58, 2026-07-24 00:46:49, 2026-07-24 01:01:55, 2026-07-24 01:16:40, 2026-07-24 01:33:10, 2026-07-24 01:47:11, 2026-07-24 02:01:42, 2026-07-24 02:18:40, 2026-07-24 02:31:44", "cumulative_total": 123.0 }, "geometry": { "type": "Polygon", "coordinates": [ [ [ -71.658730303912833, 46.809907842105332 ], [ -71.665112227704185, 46.812692256492852 ], [ -71.664791201352301, 46.817879051515042 ], [ -71.658086997270601, 46.82028136329447 ], [ -71.651704580298116, 46.817496545827595 ], [ -71.652026860557555, 46.812309819727545 ], [ -71.658730303912833, 46.809907842105332 ] ] ] } },
{ "type": "Feature", "properties": { "hex_id": 749218, "centroid_lon": -71.657443333777621, "centroid_lat": 46.830654858801914, "occurrences_today": 11, "datetimes_today": "2026-07-24 00:02:05, 2026-07-24 00:16:40, 2026-07-24 00:31:58, 2026-07-24 00:46:49, 2026-07-24 01:01:55, 2026-07-24 01:16:40, 2026-07-24 01:33:10, 2026-07-24 01:47:11, 2026-07-24 02:01:42, 2026-07-24 02:18:40, 2026-07-24 02:31:44", "cumulative_total": 124.0 }, "geometry": { "type": "Polygon", "coordinates": [ [ [ -71.657765210145925, 46.825468114258683 ], [ -71.664148881545131, 46.828252622318132 ], [ -71.66382758802807, 46.833439398097894 ], [ -71.657121368134725, 46.835841596923565 ], [ -71.65073720317433, 46.833056685565147 ], [ -71.651059751637504, 46.827869978746961 ], [ -71.657765210145925, 46.825468114258683 ] ] ] } },
{ "type": "Feature", "properties": { "hex_id": 749219, "centroid_lon": -71.656477168901318, "centroid_lat": 46.846215053899904, "occurrences_today": 11, "datetimes_today": "2026-07-24 00:02:05, 2026-07-24 00:16:40, 2026-07-24 00:31:58, 2026-07-24 00:46:49, 2026-07-24 01:01:55, 2026-07-24 01:16:40, 2026-07-24 01:33:10, 2026-07-24 01:47:11, 2026-07-24 02:01:42, 2026-07-24 02:18:40, 2026-07-24 02:31:44", "cumulative_total": 158.0 }, "geometry": { "type": "Polygon", "coordinates": [ [ [ -71.656799313186298, 46.841028328623096 ], [ -71.663184733612525, 46.843812930411012 ], [ -71.662863172652166, 46.84899968694323 ], [ -71.656154935248821, 46.851401772753469 ], [ -71.64976902088101, 46.848616767446785 ], [ -71.650091837827134, 46.84343007991562 ], [ -71.656799313186298, 46.841028328623096 ] ] ] } },
{ "type": "Feature", "properties": { "hex_id": 749828, "centroid_lon": -71.65138221066843, "centroid_lat": 46.822683265500913, "occurrences_today": 11, "datetimes_today": "2026-07-24 00:02:05, 2026-07-24 00:16:40, 2026-07-24 00:31:58, 2026-07-24 00:46:49, 2026-07-24 01:01:55, 2026-07-24 01:16:40, 2026-07-24 01:33:10, 2026-07-24 01:47:11, 2026-07-24 02:01:42, 2026-07-24 02:18:40, 2026-07-24 02:31:44", "cumulative_total": 124.0 }, "geometry": { "type": "Polygon", "coordinates": [ [ [ -71.651704580298116, 46.817496545827595 ], [ -71.658086997270601, 46.82028136329447 ], [ -71.657765210145925, 46.825468114258683 ], [ -71.651059751637504, 46.827869978746961 ], [ -71.644676841576768, 46.825084758038606 ], [ -71.644999883081695, 46.819898076150388 ], [ -71.651704580298116, 46.817496545827595 ] ] ] } },
{ "type": "Feature", "properties": { "hex_id": 749829, "centroid_lon": -71.650414565247871, "centroid_lat": 46.83824338595489, "occurrences_today": 11, "datetimes_today": "2026-07-24 00:02:05, 2026-07-24 00:16:40, 2026-07-24 00:31:58, 2026-07-24 00:46:49, 2026-07-24 01:01:55, 2026-07-24 01:16:40, 2026-07-24 01:33:10, 2026-07-24 01:47:11, 2026-07-24 02:01:42, 2026-07-24 02:18:40, 2026-07-24 02:31:44", "cumulative_total": 124.0 }, "geometry": { "type": "Polygon", "coordinates": [ [ [ -71.65073720317433, 46.833056685565147 ], [ -71.657121368134725, 46.835841596923565 ], [ -71.656799313186298, 46.841028328623096 ], [ -71.650091837827134, 46.84343007991562 ], [ -71.643707179398547, 46.840644765095981 ], [ -71.644030489766266, 46.835458102511978 ], [ -71.65073720317433, 46.833056685565147 ] ] ] } },
{ "type": "Feature", "properties": { "hex_id": 749830, "centroid_lon": -71.649446114378478, "centroid_lat": 46.853803448547801, "occurrences_today": 11, "datetimes_today": "2026-07-24 00:02:05, 2026-07-24 00:16:40, 2026-07-24 00:31:58, 2026-07-24 00:46:49, 2026-07-24 01:01:55, 2026-07-24 01:16:40, 2026-07-24 01:33:10, 2026-07-24 01:47:11, 2026-07-24 02:01:42, 2026-07-24 02:18:40, 2026-07-24 02:31:44", "cumulative_total": 149.0 }, "geometry": { "type": "Polygon", "coordinates": [ [ [ -71.64976902088101, 46.848616767446785 ], [ -71.656154935248821, 46.851401772753469 ], [ -71.65583261219777, 46.856588485183167 ], [ -71.649123118288429, 46.858990123218085 ], [ -71.642736710072185, 46.856204714230344 ], [ -71.643060289582635, 46.851018070955746 ], [ -71.64976902088101, 46.848616767446785 ] ] ] } },
{ "type": "Feature", "properties": { "hex_id": 750438, "centroid_lon": -71.645322835027841, "centroid_lat": 46.814711387828581, "occurrences_today": 11, "datetimes_today": "2026-07-24 00:02:05, 2026-07-24 00:16:40, 2026-07-24 00:31:58, 2026-07-24 00:46:49, 2026-07-24 01:01:55, 2026-07-24 01:16:40, 2026-07-24 01:33:10, 2026-07-24 01:47:11, 2026-07-24 02:01:42, 2026-07-24 02:18:40, 2026-07-24 02:31:44", "cumulative_total": 123.0 }, "geometry": { "type": "Polygon", "coordinates": [ [ [ -71.645645697446227, 46.80952469307374 ], [ -71.652026860557555, 46.812309819727545 ], [ -71.651704580298116, 46.817496545827595 ], [ -71.644999883081695, 46.819898076150388 ], [ -71.638618227354684, 46.817112546312622 ], [ -71.638941761428754, 46.811925889402914 ], [ -71.645645697446227, 46.80952469307374 ] ] ] } },
{ "type": "Feature", "properties": { "hex_id": 750439, "centroid_lon": -71.644353710481965, "centroid_lat": 46.830271433492676, "occurrences_today": 11, "datetimes_today": "2026-07-24 00:02:05, 2026-07-24 00:16:40, 2026-07-24 00:31:58, 2026-07-24 00:46:49, 2026-07-24 01:01:55, 2026-07-24 01:16:40, 2026-07-24 01:33:10, 2026-07-24 01:47:11, 2026-07-24 02:01:42, 2026-07-24 02:18:40, 2026-07-24 02:31:44", "cumulative_total": 124.0 }, "geometry": { "type": "Polygon", "coordinates": [ [ [ -71.644676841576768, 46.825084758038606 ], [ -71.651059751637504, 46.827869978746961 ], [ -71.65073720317433, 46.833056685565147 ], [ -71.644030489766266, 46.835458102511978 ], [ -71.637647086710373, 46.832672478399999 ], [ -71.637970890026608, 46.827485840811732 ], [ -71.644676841576768, 46.825084758038606 ] ] ] } },
{ "type": "Feature", "properties": { "hex_id": 750440, "centroid_lon": -71.643383779347701, "centroid_lat": 46.845831421244085, "occurrences_today": 11, "datetimes_today": "2026-07-24 00:02:05, 2026-07-24 00:16:40, 2026-07-24 00:31:58, 2026-07-24 00:46:49, 2026-07-24 01:01:55, 2026-07-24 01:16:40, 2026-07-24 01:33:10, 2026-07-24 01:47:11, 2026-07-24 02:01:42, 2026-07-24 02:18:40, 2026-07-24 02:31:44", "cumulative_total": 133.0 }, "geometry": { "type": "Polygon", "coordinates": [ [ [ -71.643707179398547, 46.840644765095981 ], [ -71.650091837827134, 46.84343007991562 ], [ -71.64976902088101, 46.848616767446785 ], [ -71.643060289582635, 46.851018070955746 ], [ -71.636675137779108, 46.848232352512632 ], [ -71.636999210617788, 46.843045734251021 ], [ -71.643707179398547, 46.840644765095981 ] ] ] } },
{ "type": "Feature", "properties": { "hex_id": 751049, "centroid_lon": -71.638294603564333, "centroid_lat": 46.822299196782417, "occurrences_today": 11, "datetimes_today": "2026-07-24 00:02:05, 2026-07-24 00:16:40, 2026-07-24 00:31:58, 2026-07-24 00:46:49, 2026-07-24 01:01:55, 2026-07-24 01:16:40, 2026-07-24 01:33:10, 2026-07-24 01:47:11, 2026-07-24 02:01:42, 2026-07-24 02:18:40, 2026-07-24 02:31:44", "cumulative_total": 123.0 }, "geometry": { "type": "Polygon", "coordinates": [ [ [ -71.638618227354684, 46.817112546312622 ], [ -71.644999883081695, 46.819898076150388 ], [ -71.644676841576768, 46.825084758038606 ], [ -71.637970890026608, 46.827485840811732 ], [ -71.631588741777136, 46.82469990762791 ], [ -71.631913037569149, 46.819513295083944 ], [ -71.638618227354684, 46.817112546312622 ] ] ] } },
{ "type": "Feature", "properties": { "hex_id": 751050, "centroid_lon": -71.637323193584479, "centroid_lat": 46.837859109546621, "occurrences_today": 11, "datetimes_today": "2026-07-24 00:02:05, 2026-07-24 00:16:40, 2026-07-24 00:31:58, 2026-07-24 00:46:49, 2026-07-24 01:01:55, 2026-07-24 01:16:40, 2026-07-24 01:33:10, 2026-07-24 01:47:11, 2026-07-24 02:01:42, 2026-07-24 02:18:40, 2026-07-24 02:31:44", "cumulative_total": 124.0 }, "geometry": { "type": "Polygon", "coordinates": [ [ [ -71.637647086710373, 46.832672478399999 ], [ -71.644030489766266, 46.835458102511978 ], [ -71.643707179398547, 46.840644765095981 ], [ -71.636999210617788, 46.843045734251021 ], [ -71.630615314660119, 46.8402597065732 ], [ -71.630939880353822, 46.83507311337312 ], [ -71.637647086710373, 46.832672478399999 ] ] ] } },
{ "type": "Feature", "properties": { "hex_id": 751660, "centroid_lon": -71.631264356049087, "centroid_lat": 46.829886513724503, "occurrences_today": 11, "datetimes_today": "2026-07-24 00:02:05, 2026-07-24 00:16:40, 2026-07-24 00:31:58, 2026-07-24 00:46:49, 2026-07-24 01:01:55, 2026-07-24 01:16:40, 2026-07-24 01:33:10, 2026-07-24 01:47:11, 2026-07-24 02:01:42, 2026-07-24 02:18:40, 2026-07-24 02:31:44", "cumulative_total": 123.0 }, "geometry": { "type": "Polygon", "coordinates": [ [ [ -71.631588741777136, 46.82469990762791 ], [ -71.637970890026608, 46.827485840811732 ], [ -71.637647086710373, 46.832672478399999 ], [ -71.630939880353822, 46.83507311337312 ], [ -71.624557239675354, 46.832286776681116 ], [ -71.624882297751242, 46.827100208591091 ], [ -71.631588741777136, 46.82469990762791 ] ] ] } },
{ "type": "Feature", "properties": { "hex_id": 751661, "centroid_lon": -71.630290658936772, "centroid_lat": 46.84544629332413, "occurrences_today": 11, "datetimes_today": "2026-07-24 00:02:05, 2026-07-24 00:16:40, 2026-07-24 00:31:58, 2026-07-24 00:46:49, 2026-07-24 01:01:55, 2026-07-24 01:16:40, 2026-07-24 01:33:10, 2026-07-24 01:47:11, 2026-07-24 02:01:42, 2026-07-24 02:18:40, 2026-07-24 02:31:44", "cumulative_total": 163.0 }, "geometry": { "type": "Polygon", "coordinates": [ [ [ -71.630615314660119, 46.8402597065732 ], [ -71.636999210617788, 46.843045734251021 ], [ -71.636675137779108, 46.848232352512632 ], [ -71.629965913152532, 46.850632873625386 ], [ -71.623581524386694, 46.847846442219513 ], [ -71.62390685302438, 46.842659893495913 ], [ -71.630615314660119, 46.8402597065732 ] ] ] } },
{ "type": "Feature", "properties": { "hex_id": 955031, "centroid_lon": -69.333827335780541, "centroid_lat": 47.900586413238905, "occurrences_today": 1, "datetimes_today": "2026-07-24 05:46:52", "cumulative_total": 20.0 }, "geometry": { "type": "Polygon", "coordinates": [ [ [ -69.334393169221286, 47.895417204673429 ], [ -69.340767246566571, 47.898331152594153 ], [ -69.340201989955986, 47.903500415633026 ], [ -69.333261343536108, 47.905755612069342 ], [ -69.326886848192544, 47.902841227818371 ], [ -69.327453417210748, 47.897672083529329 ], [ -69.334393169221286, 47.895417204673429 ] ] ] } },
{ "type": "Feature", "properties": { "hex_id": 845023, "centroid_lon": -70.684655966102653, "centroid_lat": 46.119896476972507, "occurrences_today": 3, "datetimes_today": "2026-07-24 05:22:07, 2026-07-24 05:33:06, 2026-07-24 05:46:52", "cumulative_total": 95.0 }, "geometry": { "type": "Polygon", "coordinates": [ [ [ -70.685061186661258, 46.114714985531343 ], [ -70.691311200981474, 46.117549598335415 ], [ -70.690906526261486, 46.122731129886354 ], [ -70.684250634320307, 46.125077960934213 ], [ -70.67800018540413, 46.122242946569237 ], [ -70.678406062987335, 46.117061502781972 ], [ -70.685061186661258, 46.114714985531343 ] ] ] } },
{ "type": "Feature", "properties": { "hex_id": 730226, "centroid_lon": -71.919074532972033, "centroid_lat": 45.80132187710813, "occurrences_today": 7, "datetimes_today": "2026-07-24 00:02:05, 2026-07-24 00:16:40, 2026-07-24 00:31:58, 2026-07-24 00:46:49, 2026-07-24 01:01:55, 2026-07-24 01:16:40, 2026-07-24 01:33:10", "cumulative_total": 324.0 }, "geometry": { "type": "Polygon", "coordinates": [ [ [ -71.919360775194122, 45.796132864158082 ], [ -71.925642343428208, 45.798900583494081 ], [ -71.925356656744214, 45.804089624559367 ], [ -71.918788212386701, 45.806510883931495 ], [ -71.91250616699098, 45.803742777207226 ], [ -71.912793043087945, 45.798553798563731 ], [ -71.919360775194122, 45.796132864158082 ] ] ] } },
{ "type": "Feature", "properties": { "hex_id": 400600, "centroid_lon": -75.398833788176233, "centroid_lat": 46.528078243339664, "occurrences_today": 3, "datetimes_today": "2026-07-24 00:02:05, 2026-07-24 00:16:40, 2026-07-24 00:31:58", "cumulative_total": 27.0 }, "geometry": { "type": "Polygon", "coordinates": [ [ [ -75.398795764248206, 46.522882497810805 ], [ -75.405333854526745, 46.525457456452926 ], [ -75.405372505304115, 46.530653195464815 ], [ -75.398871822625765, 46.533273984103317 ], [ -75.39233309497456, 46.530698661586015 ], [ -75.392295687377995, 46.525502914372431 ], [ -75.398795764248206, 46.522882497810805 ] ] ] } },
{ "type": "Feature", "properties": { "hex_id": 401210, "centroid_lon": -75.392258290129192, "centroid_lat": 46.520307162394396, "occurrences_today": 3, "datetimes_today": "2026-07-24 00:02:05, 2026-07-24 00:16:40, 2026-07-24 00:31:58", "cumulative_total": 27.0 }, "geometry": { "type": "Polygon", "coordinates": [ [ [ -75.392220903224569, 46.515111405651894 ], [ -75.398757750838044, 46.517686747516713 ], [ -75.398795764248206, 46.522882497810805 ], [ -75.392295687377995, 46.525502914372431 ], [ -75.38575820291301, 46.522927208663098 ], [ -75.385721432173312, 46.517731450303671 ], [ -75.392220903224569, 46.515111405651894 ] ] ] } },
{ "type": "Feature", "properties": { "hex_id": 790109, "centroid_lon": -71.232669167449558, "centroid_lat": 46.622581663666857, "occurrences_today": 5, "datetimes_today": "2026-07-24 00:02:05, 2026-07-24 00:16:40, 2026-07-24 00:31:58, 2026-07-24 00:46:49, 2026-07-24 01:01:55", "cumulative_total": 28.0 }, "geometry": { "type": "Polygon", "coordinates": [ [ [ -71.233029267505088, 46.617397121659018 ], [ -71.239365711638669, 46.62020408245742 ], [ -71.23900618121796, 46.625388659692682 ], [ -71.232308967840893, 46.627766198812054 ], [ -71.225972053642778, 46.624958834031489 ], [ -71.226332822851944, 46.619774334179922 ], [ -71.233029267505088, 46.617397121659018 ] ] ] } },
{ "type": "Feature", "properties": { "hex_id": 567819, "centroid_lon": -73.635132034288262, "centroid_lat": 45.616466651216669, "occurrences_today": 7, "datetimes_today": "2026-07-24 04:18:15, 2026-07-24 04:31:38, 2026-07-24 04:46:53, 2026-07-24 05:01:54, 2026-07-24 05:22:07, 2026-07-24 05:33:06, 2026-07-24 05:46:52", "cumulative_total": 71.0 }, "geometry": { "type": "Polygon", "coordinates": [ [ [ -73.635258075370913, 45.611271423787848 ], [ -73.641606041425291, 45.613945462787065 ], [ -73.641480574806749, 45.619140701478045 ], [ -73.635005958737878, 45.621661873628156 ], [ -73.62865745269292, 45.618987464885009 ], [ -73.628784102695818, 45.613792253800433 ], [ -73.635258075370913, 45.611271423787848 ] ] ] } },
{ "type": "Feature", "properties": { "hex_id": 649070, "centroid_lon": -72.748486446354434, "centroid_lat": 46.452050078080916, "occurrences_today": 21, "datetimes_today": "2026-07-24 00:02:05, 2026-07-24 00:16:40, 2026-07-24 00:31:58, 2026-07-24 00:46:49, 2026-07-24 01:01:55, 2026-07-24 01:16:40, 2026-07-24 01:33:10, 2026-07-24 01:47:11, 2026-07-24 02:01:42, 2026-07-24 02:18:40, 2026-07-24 02:31:44, 2026-07-24 02:46:50, 2026-07-24 03:01:40, 2026-07-24 03:16:36, 2026-07-24 03:31:53, 2026-07-24 03:47:12, 2026-07-24 04:02:00, 2026-07-24 04:18:15, 2026-07-24 04:31:38, 2026-07-24 04:46:53, 2026-07-24 05:01:54", "cumulative_total": 80.0 }, "geometry": { "type": "Polygon", "coordinates": [ [ [ -72.748700478859774, 46.446858154089441 ], [ -72.755098624570849, 46.449582050803507 ], [ -72.754885179744235, 46.454773995109015 ], [ -72.748272354727973, 46.457241996576073 ], [ -72.741873680469467, 46.45451771113261 ], [ -72.742088359754334, 46.449325813017943 ], [ -72.748700478859774, 46.446858154089441 ] ] ] } },
{ "type": "Feature", "properties": { "hex_id": 789498, "centroid_lon": -71.239725142693558, "centroid_lat": 46.615019498367168, "occurrences_today": 5, "datetimes_today": "2026-07-24 00:02:05, 2026-07-24 00:16:40, 2026-07-24 00:31:58, 2026-07-24 00:46:49, 2026-07-24 01:01:55", "cumulative_total": 11.0 }, "geometry": { "type": "Polygon", "coordinates": [ [ [ -71.240084474416861, 46.60983490742268 ], [ -71.24642044838312, 46.612641464398607 ], [ -71.24606168617585, 46.617826090497388 ], [ -71.239365711638669, 46.62020408245742 ], [ -71.233029267505088, 46.617397121659018 ], [ -71.233389268041762, 46.612212572789254 ], [ -71.240084474416861, 46.60983490742268 ] ] ] } },
{ "type": "Feature", "properties": { "hex_id": 401211, "centroid_lon": -75.39237051292244, "centroid_lat": 46.535894404035197, "occurrences_today": 3, "datetimes_today": "2026-07-24 00:02:05, 2026-07-24 00:16:40, 2026-07-24 00:31:58", "cumulative_total": 32.0 }, "geometry": { "type": "Polygon", "coordinates": [ [ [ -75.39233309497456, 46.530698661586015 ], [ -75.398871822625765, 46.533273984103317 ], [ -75.398909867600423, 46.538469720101844 ], [ -75.39240794122523, 46.541090141720012 ], [ -75.38586857619056, 46.538514455159302 ], [ -75.385831774918131, 46.533318711090857 ], [ -75.39233309497456, 46.530698661586015 ] ] ] } },
{ "type": "Feature", "properties": { "hex_id": 789499, "centroid_lon": -71.238646551397181, "centroid_lat": 46.630573230072244, "occurrences_today": 5, "datetimes_today": "2026-07-24 00:02:05, 2026-07-24 00:16:40, 2026-07-24 00:31:58, 2026-07-24 00:46:49, 2026-07-24 01:01:55", "cumulative_total": 20.0 }, "geometry": { "type": "Polygon", "coordinates": [ [ [ -71.23900618121796, 46.625388659692682 ], [ -71.245343864191454, 46.628195322152287 ], [ -71.244984804345933, 46.633379927706933 ], [ -71.238286822142044, 46.635757793595374 ], [ -71.231948668644776, 46.632950727093849 ], [ -71.232308967840893, 46.627766198812054 ], [ -71.23900618121796, 46.625388659692682 ] ] ] } },
{ "type": "Feature", "properties": { "hex_id": 790720, "centroid_lon": -71.225611184693108, "centroid_lat": 46.630143327012689, "occurrences_today": 5, "datetimes_today": "2026-07-24 00:02:05, 2026-07-24 00:16:40, 2026-07-24 00:31:58, 2026-07-24 00:46:49, 2026-07-24 01:01:55", "cumulative_total": 20.0 }, "geometry": { "type": "Polygon", "coordinates": [ [ [ -71.225972053642778, 46.624958834031489 ], [ -71.232308967840893, 46.627766198812054 ], [ -71.231948668644776, 46.632950727093849 ], [ -71.225250215968558, 46.635327813122828 ], [ -71.218912831808979, 46.632520044200341 ], [ -71.219274370252691, 46.62733559345704 ], [ -71.225972053642778, 46.624958834031489 ] ] ] } },
{ "type": "Feature", "properties": { "hex_id": 647849, "centroid_lon": -72.761497416911666, "centroid_lat": 46.452305599441871, "occurrences_today": 21, "datetimes_today": "2026-07-24 00:02:05, 2026-07-24 00:16:40, 2026-07-24 00:31:58, 2026-07-24 00:46:49, 2026-07-24 01:01:55, 2026-07-24 01:16:40, 2026-07-24 01:33:10, 2026-07-24 01:47:11, 2026-07-24 02:01:42, 2026-07-24 02:18:40, 2026-07-24 02:31:44, 2026-07-24 02:46:50, 2026-07-24 03:01:40, 2026-07-24 03:16:36, 2026-07-24 03:31:53, 2026-07-24 03:47:12, 2026-07-24 04:02:00, 2026-07-24 04:18:15, 2026-07-24 04:31:38, 2026-07-24 04:46:53, 2026-07-24 05:01:54", "cumulative_total": 58.0 }, "geometry": { "type": "Polygon", "coordinates": [ [ [ -72.761710215098418, 46.447113629396966 ], [ -72.768109066210016, 46.449836809671304 ], [ -72.767896855902464, 46.455028799901498 ], [ -72.761284559944016, 46.457497563999141 ], [ -72.754885179744235, 46.454773995109015 ], [ -72.755098624570849, 46.449582050803507 ], [ -72.761710215098418, 46.447113629396966 ] ] ] } },
{ "type": "Feature", "properties": { "hex_id": 399990, "centroid_lon": -75.405411166776801, "centroid_lat": 46.535848929710774, "occurrences_today": 3, "datetimes_today": "2026-07-24 00:02:05, 2026-07-24 00:16:40, 2026-07-24 00:31:58", "cumulative_total": 18.0 }, "geometry": { "type": "Polygon", "coordinates": [ [ [ -75.405372505304115, 46.530653195464815 ], [ -75.411911838758002, 46.533227770647962 ], [ -75.41195112742399, 46.538423498308383 ], [ -75.405449838948485, 46.54104465919081 ], [ -75.398909867600423, 46.538469720101844 ], [ -75.398871822625765, 46.533273984103317 ], [ -75.405372505304115, 46.530653195464815 ] ] ] } },
{ "type": "Feature", "properties": { "hex_id": 400601, "centroid_lon": -75.398947923103862, "centroid_lat": 46.543665451335258, "occurrences_today": 3, "datetimes_today": "2026-07-24 00:02:05, 2026-07-24 00:16:40, 2026-07-24 00:31:58", "cumulative_total": 18.0 }, "geometry": { "type": "Polygon", "coordinates": [ [ [ -75.398909867600423, 46.538469720101844 ], [ -75.405449838948485, 46.54104465919081 ], [ -75.405488521822861, 46.546240383904987 ], [ -75.398985989139703, 46.548861177803595 ], [ -75.392445379886482, 46.546285874640525 ], [ -75.39240794122523, 46.541090141720012 ], [ -75.398909867600423, 46.538469720101844 ] ] ] } },
{ "type": "Feature", "properties": { "hex_id": 771309, "centroid_lon": -71.299376704199574, "centroid_lat": 48.581006924085074, "occurrences_today": 15, "datetimes_today": "2026-07-24 00:02:05, 2026-07-24 00:16:40, 2026-07-24 00:31:58, 2026-07-24 00:46:49, 2026-07-24 01:01:55, 2026-07-24 01:16:40, 2026-07-24 01:33:10, 2026-07-24 01:47:11, 2026-07-24 02:01:42, 2026-07-24 02:18:40, 2026-07-24 02:31:44, 2026-07-24 02:46:50, 2026-07-24 03:01:40, 2026-07-24 03:16:36, 2026-07-24 03:31:53", "cumulative_total": 20.0 }, "geometry": { "type": "Polygon", "coordinates": [ [ [ -71.299755531850565, 48.575823763391703 ], [ -71.30633096049047, 48.578632838706518 ], [ -71.305952767782202, 48.583816035349621 ], [ -71.298997768837211, 48.586190077875258 ], [ -71.292421812985481, 48.583380571572818 ], [ -71.292801383251458, 48.578197453803696 ], [ -71.299755531850565, 48.575823763391703 ] ] ] } },
{ "type": "Feature", "properties": { "hex_id": 788279, "centroid_lon": -71.250606449937763, "centroid_lat": 46.646555552423365, "occurrences_today": 5, "datetimes_today": "2026-07-24 00:02:05, 2026-07-24 00:16:40, 2026-07-24 00:31:58, 2026-07-24 00:46:49, 2026-07-24 01:01:55", "cumulative_total": 29.0 }, "geometry": { "type": "Polygon", "coordinates": [ [ [ -71.25096513791064, 46.641370925438821 ], [ -71.257305300250437, 46.644176990570408 ], [ -71.256947182934326, 46.649361652625245 ], [ -71.250247662768587, 46.651740172563869 ], [ -71.243907028985419, 46.648933703270913 ], [ -71.244266386777156, 46.643749118266996 ], [ -71.25096513791064, 46.641370925438821 ] ] ] } },
{ "type": "Feature", "properties": { "hex_id": 789500, "centroid_lon": -71.237567065191612, "centroid_lat": 46.646126900069333, "occurrences_today": 5, "datetimes_today": "2026-07-24 00:02:05, 2026-07-24 00:16:40, 2026-07-24 00:31:58, 2026-07-24 00:46:49, 2026-07-24 01:01:55", "cumulative_total": 38.0 }, "geometry": { "type": "Polygon", "coordinates": [ [ [ -71.237926993418299, 46.640942350261319 ], [ -71.244266386777156, 46.643749118266996 ], [ -71.243907028985419, 46.648933703270913 ], [ -71.237207037427666, 46.65131144301872 ], [ -71.230867173188273, 46.648504270751538 ], [ -71.23122777135282, 46.643319763064341 ], [ -71.237926993418299, 46.640942350261319 ] ] ] } },
{ "type": "Feature", "properties": { "hex_id": 329762, "centroid_lon": -76.148445117195578, "centroid_lat": 46.211244211814275, "occurrences_today": 10, "datetimes_today": "2026-07-24 03:31:53, 2026-07-24 03:47:12, 2026-07-24 04:02:00, 2026-07-24 04:18:15, 2026-07-24 04:31:38, 2026-07-24 04:46:53, 2026-07-24 05:01:54, 2026-07-24 05:22:07, 2026-07-24 05:33:06, 2026-07-24 05:46:52", "cumulative_total": 97.0 }, "geometry": { "type": "Polygon", "coordinates": [ [ [ -76.148336836882933, 46.206049096322289 ], [ -76.154871316731416, 46.20858136712679 ], [ -76.154980222736967, 46.213776468377652 ], [ -76.148553427342065, 46.216439322367322 ], [ -76.142018291961733, 46.213906699711075 ], [ -76.141910607518355, 46.208711574983099 ], [ -76.148336836882933, 46.206049096322289 ] ] ] } },
{ "type": "Feature", "properties": { "hex_id": 330983, "centroid_lon": -76.135483752618853, "centroid_lat": 46.211373696816253, "occurrences_today": 10, "datetimes_today": "2026-07-24 03:31:53, 2026-07-24 03:47:12, 2026-07-24 04:02:00, 2026-07-24 04:18:15, 2026-07-24 04:31:38, 2026-07-24 04:46:53, 2026-07-24 05:01:54, 2026-07-24 05:22:07, 2026-07-24 05:33:06, 2026-07-24 05:46:52", "cumulative_total": 97.0 }, "geometry": { "type": "Polygon", "coordinates": [ [ [ -76.135376693715443, 46.20617855798173 ], [ -76.141910607518355, 46.208711574983099 ], [ -76.142018291961733, 46.213906699711075 ], [ -76.13559084101972, 46.216568830716227 ], [ -76.12905627217431, 46.214035461720897 ], [ -76.128949809323501, 46.20884031378057 ], [ -76.135376693715443, 46.20617855798173 ] ] ] } },
{ "type": "Feature", "properties": { "hex_id": 891501, "centroid_lon": -70.082611745001614, "centroid_lat": 47.342773568086763, "occurrences_today": 1, "datetimes_today": "2026-07-24 05:46:52", "cumulative_total": 4.0 }, "geometry": { "type": "Polygon", "coordinates": [ [ [ -70.083093504300763, 47.337597586079163 ], [ -70.089447160041956, 47.340468987840012 ], [ -70.088965973445028, 47.345645016668591 ], [ -70.082129851407046, 47.347949541658146 ], [ -70.075775757282585, 47.345077716988506 ], [ -70.076258223532321, 47.339901790305341 ], [ -70.083093504300763, 47.337597586079163 ] ] ] } },
{ "type": "Feature", "properties": { "hex_id": 793162, "centroid_lon": -71.199541350280384, "centroid_lat": 46.629279074669803, "occurrences_today": 5, "datetimes_today": "2026-07-24 00:02:05, 2026-07-24 00:16:40, 2026-07-24 00:31:58, 2026-07-24 00:46:49, 2026-07-24 01:01:55", "cumulative_total": 6.0 }, "geometry": { "type": "Polygon", "coordinates": [ [ [ -71.199904697177985, 46.6240947372821 ], [ -71.20624007244821, 46.626903506174827 ], [ -71.205877294860258, 46.632087879114017 ], [ -71.199177902926948, 46.634463405157 ], [ -71.19284205882019, 46.631654231922795 ], [ -71.193206075448671, 46.626469937053294 ], [ -71.199904697177985, 46.6240947372821 ] ] ] } },
{ "type": "Feature", "properties": { "hex_id": 793773, "centroid_lon": -71.192477941548347, "centroid_lat": 46.636838519884002, "occurrences_today": 5, "datetimes_today": "2026-07-24 00:02:05, 2026-07-24 00:16:40, 2026-07-24 00:31:58, 2026-07-24 00:46:49, 2026-07-24 01:01:55", "cumulative_total": 6.0 }, "geometry": { "type": "Polygon", "coordinates": [ [ [ -71.19284205882019, 46.631654231922795 ], [ -71.199177902926948, 46.634463405157 ], [ -71.198814355083059, 46.639647728742929 ], [ -71.192113723598439, 46.642022800936189 ], [ -71.185777410759158, 46.639213223200834 ], [ -71.186142198102317, 46.634028977839577 ], [ -71.19284205882019, 46.631654231922795 ] ] ] } },
{ "type": "Feature", "properties": { "hex_id": 793774, "centroid_lon": -71.191384985525545, "centroid_lat": 46.652391342310374, "occurrences_today": 5, "datetimes_today": "2026-07-24 00:02:05, 2026-07-24 00:16:40, 2026-07-24 00:31:58, 2026-07-24 00:46:49, 2026-07-24 01:01:55", "cumulative_total": 6.0 }, "geometry": { "type": "Polygon", "coordinates": [ [ [ -71.191749404935749, 46.647207075078541 ], [ -71.198086957785307, 46.650016355207946 ], [ -71.197723108262096, 46.655200658085519 ], [ -71.191020465333068, 46.657575602630878 ], [ -71.18468244339617, 46.654765917780566 ], [ -71.185047533440866, 46.649581693172088 ], [ -71.191749404935749, 46.647207075078541 ] ] ] } },
{ "type": "Feature", "properties": { "hex_id": 794384, "centroid_lon": -71.18541252255028, "centroid_lat": 46.644397461645241, "occurrences_today": 5, "datetimes_today": "2026-07-24 00:02:05, 2026-07-24 00:16:40, 2026-07-24 00:31:58, 2026-07-24 00:46:49, 2026-07-24 01:01:55", "cumulative_total": 6.0 }, "geometry": { "type": "Polygon", "coordinates": [ [ [ -71.185777410759158, 46.639213223200834 ], [ -71.192113723598439, 46.642022800936189 ], [ -71.191749404935749, 46.647207075078541 ], [ -71.185047533440866, 46.649581693172088 ], [ -71.178710751973298, 46.646771710775909 ], [ -71.179076310594098, 46.641587515013256 ], [ -71.185777410759158, 46.639213223200834 ] ] ] } },
{ "type": "Feature", "properties": { "hex_id": 794994, "centroid_lon": -71.179441768161468, "centroid_lat": 46.636403312325982, "occurrences_today": 5, "datetimes_today": "2026-07-24 00:02:05, 2026-07-24 00:16:40, 2026-07-24 00:31:58, 2026-07-24 00:46:49, 2026-07-24 01:01:55", "cumulative_total": 6.0 }, "geometry": { "type": "Polygon", "coordinates": [ [ [ -71.179807124710209, 46.631219102714844 ], [ -71.186142198102317, 46.634028977839577 ], [ -71.185777410759158, 46.639213223200834 ], [ -71.179076310594098, 46.641587515013256 ], [ -71.17274076903243, 46.638777235287826 ], [ -71.173106795770551, 46.633593068416872 ], [ -71.179807124710209, 46.631219102714844 ] ] ] } },
{ "type": "Feature", "properties": { "hex_id": 795605, "centroid_lon": -71.172374641088012, "centroid_lat": 46.643961395227102, "occurrences_today": 5, "datetimes_today": "2026-07-24 00:02:05, 2026-07-24 00:16:40, 2026-07-24 00:31:58, 2026-07-24 00:46:49, 2026-07-24 01:01:55", "cumulative_total": 6.0 }, "geometry": { "type": "Polygon", "coordinates": [ [ [ -71.17274076903243, 46.638777235287826 ], [ -71.179076310594098, 46.641587515013256 ], [ -71.178710751973298, 46.646771710775909 ], [ -71.172008411902368, 46.649145548233946 ], [ -71.165672402275732, 46.646334863748152 ], [ -71.166039200750077, 46.641150746630927 ], [ -71.17274076903243, 46.638777235287826 ] ] ] } },
{ "type": "Feature", "properties": { "hex_id": 873207, "centroid_lon": -70.251097424670036, "centroid_lat": 47.677277054371558, "occurrences_today": 6, "datetimes_today": "2026-07-24 00:02:05, 2026-07-24 00:16:40, 2026-07-24 00:31:58, 2026-07-24 00:46:49, 2026-07-24 01:01:55, 2026-07-24 01:16:40", "cumulative_total": 33.0 }, "geometry": { "type": "Polygon", "coordinates": [ [ [ -70.251568192023939, 47.672100086308923 ], [ -70.257971026678575, 47.674963736778032 ], [ -70.257500845540562, 47.680140750344513 ], [ -70.25062652542745, 47.682454014211174 ], [ -70.244223236468926, 47.679589937374821 ], [ -70.24469472188072, 47.674413023107249 ], [ -70.251568192023939, 47.672100086308923 ] ] ] } },
{ "type": "Feature", "properties": { "hex_id": 787669, "centroid_lon": -71.256588966575322, "centroid_lat": 46.654546307842971, "occurrences_today": 5, "datetimes_today": "2026-07-24 00:02:05, 2026-07-24 00:16:40, 2026-07-24 00:31:58, 2026-07-24 00:46:49, 2026-07-24 01:01:55", "cumulative_total": 5.0 }, "geometry": { "type": "Polygon", "coordinates": [ [ [ -71.256947182934326, 46.649361652625245 ], [ -71.26328858580105, 46.652167418767448 ], [ -71.262930940439858, 46.657352109003014 ], [ -71.256230651139248, 46.659730956222845 ], [ -71.249888776368863, 46.656924785859594 ], [ -71.250247662768587, 46.651740172563869 ], [ -71.256947182934326, 46.649361652625245 ] ] ] } },
{ "type": "Feature", "properties": { "hex_id": 788889, "centroid_lon": -71.244625645219244, "centroid_lat": 46.638564526412068, "occurrences_today": 5, "datetimes_today": "2026-07-24 00:02:05, 2026-07-24 00:16:40, 2026-07-24 00:31:58, 2026-07-24 00:46:49, 2026-07-24 01:01:55", "cumulative_total": 5.0 }, "geometry": { "type": "Polygon", "coordinates": [ [ [ -71.244984804345933, 46.633379927706933 ], [ -71.251323726721409, 46.636186291610962 ], [ -71.25096513791064, 46.641370925438821 ], [ -71.244266386777156, 46.643749118266996 ], [ -71.237926993418299, 46.640942350261319 ], [ -71.238286822142044, 46.635757793595374 ], [ -71.244984804345933, 46.633379927706933 ] ] ] } },
{ "type": "Feature", "properties": { "hex_id": 790111, "centroid_lon": -71.23050647529881, "centroid_lat": 46.653688771572405, "occurrences_today": 5, "datetimes_today": "2026-07-24 00:02:05, 2026-07-24 00:16:40, 2026-07-24 00:31:58, 2026-07-24 00:46:49, 2026-07-24 01:01:55", "cumulative_total": 5.0 }, "geometry": { "type": "Polygon", "coordinates": [ [ [ -71.230867173188273, 46.648504270751538 ], [ -71.237207037427666, 46.65131144301872 ], [ -71.236846910092154, 46.656495979108705 ], [ -71.230145677650057, 46.658873265526175 ], [ -71.223805342633227, 46.656065688837614 ], [ -71.224166710801498, 46.650881230219262 ], [ -71.230867173188273, 46.648504270751538 ] ] ] } },
{ "type": "Feature", "properties": { "hex_id": 790719, "centroid_lon": -71.226693492354983, "centroid_lat": 46.614589827458772, "occurrences_today": 5, "datetimes_today": "2026-07-24 00:02:05, 2026-07-24 00:16:40, 2026-07-24 00:31:58, 2026-07-24 00:46:49, 2026-07-24 01:01:55", "cumulative_total": 5.0 }, "geometry": { "type": "Polygon", "coordinates": [ [ [ -71.227054062186227, 46.609405313868741 ], [ -71.233389268041762, 46.612212572789254 ], [ -71.233029267505088, 46.617397121659018 ], [ -71.226332822851944, 46.619774334179922 ], [ -71.219997147390799, 46.616966671336996 ], [ -71.220358386154047, 46.611782199961752 ], [ -71.227054062186227, 46.609405313868741 ] ] ] } },
{ "type": "Feature", "properties": { "hex_id": 790721, "centroid_lon": -71.224527979057186, "centroid_lat": 46.645696764726843, "occurrences_today": 5, "datetimes_today": "2026-07-24 00:02:05, 2026-07-24 00:16:40, 2026-07-24 00:31:58, 2026-07-24 00:46:49, 2026-07-24 01:01:55", "cumulative_total": 5.0 }, "geometry": { "type": "Polygon", "coordinates": [ [ [ -71.224889147434723, 46.640512292361109 ], [ -71.23122777135282, 46.643319763064341 ], [ -71.230867173188273, 46.648504270751538 ], [ -71.224166710801498, 46.650881230219262 ], [ -71.217827616565771, 46.648073355154509 ], [ -71.218189455, 46.642888925049832 ], [ -71.224889147434723, 46.640512292361109 ] ] ] } },
{ "type": "Feature", "properties": { "hex_id": 791330, "centroid_lon": -71.219635808768473, "centroid_lat": 46.622151135835679, "occurrences_today": 5, "datetimes_today": "2026-07-24 00:02:05, 2026-07-24 00:16:40, 2026-07-24 00:31:58, 2026-07-24 00:46:49, 2026-07-24 01:01:55", "cumulative_total": 5.0 }, "geometry": { "type": "Polygon", "coordinates": [ [ [ -71.219997147390799, 46.616966671336996 ], [ -71.226332822851944, 46.619774334179922 ], [ -71.225972053642778, 46.624958834031489 ], [ -71.219274370252691, 46.62733559345704 ], [ -71.212938225289079, 46.624527526532056 ], [ -71.213300233183588, 46.619343104329765 ], [ -71.219997147390799, 46.616966671336996 ] ] ] } },
{ "type": "Feature", "properties": { "hex_id": 791331, "centroid_lon": -71.218551193402902, "centroid_lat": 46.637704488064855, "occurrences_today": 5, "datetimes_today": "2026-07-24 00:02:05, 2026-07-24 00:16:40, 2026-07-24 00:31:58, 2026-07-24 00:46:49, 2026-07-24 01:01:55", "cumulative_total": 5.0 }, "geometry": { "type": "Polygon", "coordinates": [ [ [ -71.218912831808979, 46.632520044200341 ], [ -71.225250215968558, 46.635327813122828 ], [ -71.224889147434723, 46.640512292361109 ], [ -71.218189455, 46.642888925049832 ], [ -71.211851600982257, 46.640080751825714 ], [ -71.212213909222925, 46.634896350280776 ], [ -71.218912831808979, 46.632520044200341 ] ] ] } },
{ "type": "Feature", "properties": { "hex_id": 791332, "centroid_lon": -71.217465678065736, "centroid_lat": 46.653257778378162, "occurrences_today": 5, "datetimes_today": "2026-07-24 00:02:05, 2026-07-24 00:16:40, 2026-07-24 00:31:58, 2026-07-24 00:46:49, 2026-07-24 01:01:55", "cumulative_total": 5.0 }, "geometry": { "type": "Polygon", "coordinates": [ [ [ -71.217827616565771, 46.648073355154509 ], [ -71.224166710801498, 46.650881230219262 ], [ -71.223805342633227, 46.656065688837614 ], [ -71.21710363946535, 46.658442194720038 ], [ -71.210764075015462, 46.655633915133933 ], [ -71.211126683913079, 46.650449534253049 ], [ -71.217827616565771, 46.648073355154509 ] ] ] } },
{ "type": "Feature", "properties": { "hex_id": 791941, "centroid_lon": -71.212576117313688, "centroid_lat": 46.629711941849294, "occurrences_today": 5, "datetimes_today": "2026-07-24 00:02:05, 2026-07-24 00:16:40, 2026-07-24 00:31:58, 2026-07-24 00:46:49, 2026-07-24 01:01:55", "cumulative_total": 5.0 }, "geometry": { "type": "Polygon", "coordinates": [ [ [ -71.212938225289079, 46.624527526532056 ], [ -71.219274370252691, 46.62733559345704 ], [ -71.218912831808979, 46.632520044200341 ], [ -71.212213909222925, 46.634896350280776 ], [ -71.205877294860258, 46.632087879114017 ], [ -71.20624007244821, 46.626903506174827 ], [ -71.212938225289079, 46.624527526532056 ] ] ] } },
{ "type": "Feature", "properties": { "hex_id": 791942, "centroid_lon": -71.211489192557167, "centroid_lat": 46.645265146483389, "occurrences_today": 5, "datetimes_today": "2026-07-24 00:02:05, 2026-07-24 00:16:40, 2026-07-24 00:31:58, 2026-07-24 00:46:49, 2026-07-24 01:01:55", "cumulative_total": 5.0 }, "geometry": { "type": "Polygon", "coordinates": [ [ [ -71.211851600982257, 46.640080751825714 ], [ -71.218189455, 46.642888925049832 ], [ -71.217827616565771, 46.648073355154509 ], [ -71.211126683913079, 46.650449534253049 ], [ -71.204788360140739, 46.647640956567521 ], [ -71.205151438741112, 46.642456604311121 ], [ -71.211851600982257, 46.640080751825714 ] ] ] } },
{ "type": "Feature", "properties": { "hex_id": 792552, "centroid_lon": -71.205514416969436, "centroid_lat": 46.637272245159707, "occurrences_today": 5, "datetimes_today": "2026-07-24 00:02:05, 2026-07-24 00:16:40, 2026-07-24 00:31:58, 2026-07-24 00:46:49, 2026-07-24 01:01:55", "cumulative_total": 5.0 }, "geometry": { "type": "Polygon", "coordinates": [ [ [ -71.205877294860258, 46.632087879114017 ], [ -71.212213909222925, 46.634896350280776 ], [ -71.211851600982257, 46.640080751825714 ], [ -71.205151438741112, 46.642456604311121 ], [ -71.198814355083059, 46.639647728742929 ], [ -71.199177902926948, 46.634463405157 ], [ -71.205877294860258, 46.632087879114017 ] ] ] } },
{ "type": "Feature", "properties": { "hex_id": 792553, "centroid_lon": -71.204425181133644, "centroid_lat": 46.652825301928154, "occurrences_today": 5, "datetimes_today": "2026-07-24 00:02:05, 2026-07-24 00:16:40, 2026-07-24 00:31:58, 2026-07-24 00:46:49, 2026-07-24 01:01:55", "cumulative_total": 5.0 }, "geometry": { "type": "Polygon", "coordinates": [ [ [ -71.204788360140739, 46.647640956567521 ], [ -71.211126683913079, 46.650449534253049 ], [ -71.210764075015462, 46.655633915133933 ], [ -71.204061901685236, 46.658009640392251 ], [ -71.197723108262096, 46.655200658085519 ], [ -71.198086957785307, 46.650016355207946 ], [ -71.204788360140739, 46.647640956567521 ] ] ] } },
{ "type": "Feature", "properties": { "hex_id": 793163, "centroid_lon": -71.198450706714056, "centroid_lat": 46.644832045426817, "occurrences_today": 5, "datetimes_today": "2026-07-24 00:02:05, 2026-07-24 00:16:40, 2026-07-24 00:31:58, 2026-07-24 00:46:49, 2026-07-24 01:01:55", "cumulative_total": 5.0 }, "geometry": { "type": "Polygon", "coordinates": [ [ [ -71.198814355083059, 46.639647728742929 ], [ -71.205151438741112, 46.642456604311121 ], [ -71.204788360140739, 46.647640956567521 ], [ -71.198086957785307, 46.650016355207946 ], [ -71.191749404935749, 46.647207075078541 ], [ -71.192113723598439, 46.642022800936189 ], [ -71.198814355083059, 46.639647728742929 ] ] ] } }
]
}
