{
"type": "FeatureCollection",
"name": "daily_2026-05-05",
"crs": { "type": "name", "properties": { "name": "urn:ogc:def:crs:OGC:1.3:CRS84" } },
"features": [
{ "type": "Feature", "properties": { "hex_id": 146759, "centroid_lon": -78.227590965538681, "centroid_lat": 48.462780078810312, "occurrences_today": 18, "datetimes_today": "2026-05-05 00:01:27, 2026-05-05 00:16:25, 2026-05-05 00:31:42, 2026-05-05 00:42:08, 2026-05-05 01:01:25, 2026-05-05 01:16:42, 2026-05-05 01:31:29, 2026-05-05 01:46:48, 2026-05-05 02:02:57, 2026-05-05 02:23:30, 2026-05-05 02:46:37, 2026-05-05 03:01:31, 2026-05-05 03:31:43, 2026-05-05 03:46:38, 2026-05-05 04:01:48, 2026-05-05 04:16:49, 2026-05-05 04:31:36, 2026-05-05 05:03:24", "cumulative_total": 71.0 }, "geometry": { "type": "Polygon", "coordinates": [ [ [ -78.227261875725787, 48.457594217067964 ], [ -78.234178816626567, 48.459997395717309 ], [ -78.234508638851608, 48.465183219897099 ], [ -78.227920148798972, 48.467965934178459 ], [ -78.221002382021695, 48.465562398992446 ], [ -78.220673931207429, 48.460376506133017 ], [ -78.227261875725787, 48.457594217067964 ] ] ] } },
{ "type": "Feature", "properties": { "hex_id": 147369, "centroid_lon": -78.220345573629871, "centroid_lat": 48.455190606906591, "occurrences_today": 18, "datetimes_today": "2026-05-05 00:01:27, 2026-05-05 00:16:25, 2026-05-05 00:31:42, 2026-05-05 00:42:08, 2026-05-05 01:01:25, 2026-05-05 01:16:42, 2026-05-05 01:31:29, 2026-05-05 01:46:48, 2026-05-05 02:02:57, 2026-05-05 02:23:30, 2026-05-05 02:46:37, 2026-05-05 03:01:31, 2026-05-05 03:31:43, 2026-05-05 03:46:38, 2026-05-05 04:01:48, 2026-05-05 04:16:49, 2026-05-05 04:31:36, 2026-05-05 05:03:24", "cumulative_total": 71.0 }, "geometry": { "type": "Polygon", "coordinates": [ [ [ -78.220017309255226, 48.450004701313681 ], [ -78.226932879326426, 48.452408348951948 ], [ -78.227261875725787, 48.457594217067964 ], [ -78.220673931207429, 48.460376506133017 ], [ -78.213757535891702, 48.457972501967426 ], [ -78.213429910372625, 48.45278656533538 ], [ -78.220017309255226, 48.450004701313681 ] ] ] } },
{ "type": "Feature", "properties": { "hex_id": 147980, "centroid_lon": -78.214085254436839, "centroid_lat": 48.463158432239659, "occurrences_today": 1, "datetimes_today": "2026-05-05 05:03:24", "cumulative_total": 43.0 }, "geometry": { "type": "Polygon", "coordinates": [ [ [ -78.213757535891702, 48.457972501967426 ], [ -78.220673931207429, 48.460376506133017 ], [ -78.221002382021695, 48.465562398992446 ], [ -78.214413066041772, 48.468344356151547 ], [ -78.207495845380251, 48.46593999527574 ], [ -78.207168766078183, 48.460754034022344 ], [ -78.213757535891702, 48.457972501967426 ] ] ] } },
{ "type": "Feature", "properties": { "hex_id": 149201, "centroid_lon": -78.200579264155635, "centroid_lat": 48.463535202959193, "occurrences_today": 1, "datetimes_today": "2026-05-05 05:03:24", "cumulative_total": 43.0 }, "geometry": { "type": "Polygon", "coordinates": [ [ [ -78.200252916979437, 48.45834920444274 ], [ -78.207168766078183, 48.460754034022344 ], [ -78.207495845380251, 48.46593999527574 ], [ -78.200905704003986, 48.468721195129106 ], [ -78.193989030090435, 48.466316008665864 ], [ -78.193663322401548, 48.461129979304197 ], [ -78.200252916979437, 48.45834920444274 ] ] ] } },
{ "type": "Feature", "properties": { "hex_id": 526331, "centroid_lon": -74.064386653001435, "centroid_lat": 46.026118653981044, "occurrences_today": 5, "datetimes_today": "2026-05-05 01:46:48, 2026-05-05 02:02:57, 2026-05-05 02:23:30, 2026-05-05 02:46:37, 2026-05-05 03:01:31", "cumulative_total": 19.0 }, "geometry": { "type": "Polygon", "coordinates": [ [ [ -74.064474300927671, 46.020923017947972 ], [ -74.070889616726561, 46.023573531197421 ], [ -74.070802561742497, 46.028769174293096 ], [ -74.06429898098115, 46.031314285140056 ], [ -74.057883096338244, 46.028663400998518 ], [ -74.057971361292488, 46.023467776967898 ], [ -74.064474300927671, 46.020923017947972 ] ] ] } },
{ "type": "Feature", "properties": { "hex_id": 526942, "centroid_lon": -74.057794807119564, "centroid_lat": 46.033859020153308, "occurrences_today": 5, "datetimes_today": "2026-05-05 01:46:48, 2026-05-05 02:02:57, 2026-05-05 02:23:30, 2026-05-05 02:46:37, 2026-05-05 03:01:31", "cumulative_total": 19.0 }, "geometry": { "type": "Polygon", "coordinates": [ [ [ -74.057883096338244, 46.028663400998518 ], [ -74.06429898098115, 46.031314285140056 ], [ -74.064211284858615, 46.036509911425007 ], [ -74.05770649362826, 46.039054634432233 ], [ -74.051290040165995, 46.036403379235495 ], [ -74.051378946745174, 46.031207772152513 ], [ -74.057883096338244, 46.028663400998518 ] ] ] } },
{ "type": "Feature", "properties": { "hex_id": 527552, "centroid_lon": -74.051467828889557, "centroid_lat": 46.02601216019189, "occurrences_today": 5, "datetimes_today": "2026-05-05 01:46:48, 2026-05-05 02:02:57, 2026-05-05 02:23:30, 2026-05-05 02:46:37, 2026-05-05 03:01:31", "cumulative_total": 27.0 }, "geometry": { "type": "Polygon", "coordinates": [ [ [ -74.051556686607455, 46.020816543353639 ], [ -74.057971361292488, 46.023467776967898 ], [ -74.057883096338244, 46.028663400998518 ], [ -74.051378946745174, 46.031207772152513 ], [ -74.044963703727149, 46.028556167522645 ], [ -74.045053178626858, 46.023360562820187 ], [ -74.051556686607455, 46.020816543353639 ] ] ] } },
{ "type": "Feature", "properties": { "hex_id": 668137, "centroid_lon": -72.441752168846747, "centroid_lat": 48.651041916909335, "occurrences_today": 2, "datetimes_today": "2026-05-05 00:01:27, 2026-05-05 00:16:25", "cumulative_total": 20.0 }, "geometry": { "type": "Polygon", "coordinates": [ [ [ -72.442014793079096, 48.64585315950324 ], [ -72.44866506669824, 48.648598045475602 ], [ -72.448403099524896, 48.653786827305801 ], [ -72.441489469780819, 48.656230668556056 ], [ -72.434838613949893, 48.653485360616138 ], [ -72.435101970047512, 48.648296633465662 ], [ -72.442014793079096, 48.64585315950324 ] ] ] } },
{ "type": "Feature", "properties": { "hex_id": 598338, "centroid_lon": -73.317398095528219, "centroid_lat": 45.518685531312855, "occurrences_today": 10, "datetimes_today": "2026-05-05 01:16:42, 2026-05-05 01:31:29, 2026-05-05 01:46:48, 2026-05-05 02:02:57, 2026-05-05 02:23:30, 2026-05-05 02:46:37, 2026-05-05 03:01:31, 2026-05-05 03:31:43, 2026-05-05 03:46:38, 2026-05-05 04:01:48", "cumulative_total": 99.0 }, "geometry": { "type": "Polygon", "coordinates": [ [ [ -73.317552942086053, 45.513490982078999 ], [ -73.323874451361021, 45.516182354937719 ], [ -73.323720171975268, 45.521376918545386 ], [ -73.317243206681695, 45.523880075390508 ], [ -73.310921172530385, 45.521188331086279 ], [ -73.311076628534806, 45.515993801446911 ], [ -73.317552942086053, 45.513490982078999 ] ] ] } },
{ "type": "Feature", "properties": { "hex_id": 785239, "centroid_lon": -71.269800411983795, "centroid_lat": 46.842046477619455, "occurrences_today": 7, "datetimes_today": "2026-05-05 01:46:48, 2026-05-05 02:02:57, 2026-05-05 02:23:30, 2026-05-05 02:46:37, 2026-05-05 03:01:31, 2026-05-05 03:31:43, 2026-05-05 03:46:38", "cumulative_total": 140.0 }, "geometry": { "type": "Polygon", "coordinates": [ [ [ -71.270159710116872, 46.836861914639286 ], [ -71.276523318834251, 46.839667529888708 ], [ -71.276164597706938, 46.844852127884273 ], [ -71.269441014223403, 46.847231033764842 ], [ -71.263076928144827, 46.844425011850596 ], [ -71.263436902876464, 46.839240490787361 ], [ -71.270159710116872, 46.836861914639286 ] ] ] } },
{ "type": "Feature", "properties": { "hex_id": 536668, "centroid_lon": -73.96656732909905, "centroid_lat": 45.378293882592615, "occurrences_today": 1, "datetimes_today": "2026-05-05 00:01:27", "cumulative_total": 162.0 }, "geometry": { "type": "Polygon", "coordinates": [ [ [ -73.966661978124989, 45.373097807529348 ], [ -73.972999442283182, 45.375753437892527 ], [ -73.97290536497087, 45.380949520882353 ], [ -73.966472654260897, 45.38348995275377 ], [ -73.960134644205624, 45.380833958784542 ], [ -73.960229890748764, 45.375637896614222 ], [ -73.966661978124989, 45.373097807529348 ] ] ] } },
{ "type": "Feature", "properties": { "hex_id": 565983, "centroid_lon": -73.656040676896865, "centroid_lat": 45.546558318714844, "occurrences_today": 1, "datetimes_today": "2026-05-05 00:42:08", "cumulative_total": 126.0 }, "geometry": { "type": "Polygon", "coordinates": [ [ [ -73.656164485456443, 45.541362982546694 ], [ -73.662505672051466, 45.544035813838079 ], [ -73.662382436123607, 45.54923116104483 ], [ -73.65591683450846, 45.551753649874186 ], [ -73.649575109116242, 45.549080449922414 ], [ -73.649699524124998, 45.543885129866283 ], [ -73.656164485456443, 45.541362982546694 ] ] ] } },
{ "type": "Feature", "properties": { "hex_id": 566589, "centroid_lon": -73.651313830836969, "centroid_lat": 45.476345513139954, "occurrences_today": 15, "datetimes_today": "2026-05-05 00:42:08, 2026-05-05 01:01:25, 2026-05-05 01:16:42, 2026-05-05 01:31:29, 2026-05-05 01:46:48, 2026-05-05 02:02:57, 2026-05-05 02:23:30, 2026-05-05 02:46:37, 2026-05-05 03:01:31, 2026-05-05 03:31:43, 2026-05-05 03:46:38, 2026-05-05 04:01:48, 2026-05-05 04:16:49, 2026-05-05 04:31:36, 2026-05-05 05:03:24", "cumulative_total": 302.0 }, "geometry": { "type": "Polygon", "coordinates": [ [ [ -73.65143777110525, 45.471150122933118 ], [ -73.657770923468206, 45.47382315659339 ], [ -73.657647553651699, 45.479018557869246 ], [ -73.651189856732543, 45.481540898336519 ], [ -73.644856167759627, 45.478867496860872 ], [ -73.644980712304474, 45.473672122797765 ], [ -73.65143777110525, 45.471150122933118 ] ] ] } },
{ "type": "Feature", "properties": { "hex_id": 649617, "centroid_lon": -72.78182454529238, "centroid_lat": 45.462765631416644, "occurrences_today": 4, "datetimes_today": "2026-05-05 03:46:38, 2026-05-05 04:01:48, 2026-05-05 04:16:49, 2026-05-05 04:31:36", "cumulative_total": 7.0 }, "geometry": { "type": "Polygon", "coordinates": [ [ [ -72.782028260692755, 45.457572686956901 ], [ -72.788316976082911, 45.460293135283365 ], [ -72.788113818737813, 45.465486099342094 ], [ -72.78162077431233, 45.467958570420663 ], [ -72.775331556455868, 45.465237746531578 ], [ -72.775535885472578, 45.460044827190728 ], [ -72.782028260692755, 45.457572686956901 ] ] ] } },
{ "type": "Feature", "properties": { "hex_id": 727765, "centroid_lon": -71.960831786594966, "centroid_lat": 45.506222071812715, "occurrences_today": 17, "datetimes_today": "2026-05-05 00:01:27, 2026-05-05 00:16:25, 2026-05-05 00:31:42, 2026-05-05 00:42:08, 2026-05-05 01:01:25, 2026-05-05 01:16:42, 2026-05-05 01:31:29, 2026-05-05 01:46:48, 2026-05-05 02:02:57, 2026-05-05 02:23:30, 2026-05-05 02:46:37, 2026-05-05 03:01:31, 2026-05-05 03:31:43, 2026-05-05 03:46:38, 2026-05-05 04:01:48, 2026-05-05 04:16:49, 2026-05-05 04:31:36", "cumulative_total": 19.0 }, "geometry": { "type": "Polygon", "coordinates": [ [ [ -71.961111263401406, 45.501032587404332 ], [ -71.967362810962882, 45.503797346339873 ], [ -71.967083881678207, 45.508986858308425 ], [ -71.960552233549308, 45.511411550143926 ], [ -71.954300214718032, 45.508646408000544 ], [ -71.954580315259918, 45.503456957293487 ], [ -71.961111263401406, 45.501032587404332 ] ] ] } },
{ "type": "Feature", "properties": { "hex_id": 374282, "centroid_lon": -75.666588740854337, "centroid_lat": 45.490158362228286, "occurrences_today": 5, "datetimes_today": "2026-05-05 03:46:38, 2026-05-05 04:01:48, 2026-05-05 04:16:49, 2026-05-05 04:31:36, 2026-05-05 05:03:24", "cumulative_total": 107.0 }, "geometry": { "type": "Polygon", "coordinates": [ [ [ -75.666527449570594, 45.484961894993098 ], [ -75.672956096792873, 45.487522614437296 ], [ -75.673017984726627, 45.492719072505452 ], [ -75.666650048877088, 45.495354824650882 ], [ -75.660220788262961, 45.492793757183271 ], [ -75.660160076895835, 45.487597285658211 ], [ -75.666527449570594, 45.484961894993098 ] ] ] } },
{ "type": "Feature", "properties": { "hex_id": 517725, "centroid_lon": -74.16850268904696, "centroid_lat": 45.107097628427553, "occurrences_today": 12, "datetimes_today": "2026-05-05 00:01:27, 2026-05-05 00:16:25, 2026-05-05 00:31:42, 2026-05-05 00:42:08, 2026-05-05 01:01:25, 2026-05-05 01:16:42, 2026-05-05 01:31:29, 2026-05-05 01:46:48, 2026-05-05 02:02:57, 2026-05-05 02:23:30, 2026-05-05 02:46:37, 2026-05-05 03:01:31", "cumulative_total": 40.0 }, "geometry": { "type": "Polygon", "coordinates": [ [ [ -74.168578128535685, 45.10190100703106 ], [ -74.174895258163986, 45.104545409105569 ], [ -74.174820384923876, 45.109742036383466 ], [ -74.168427229049001, 45.112294244976155 ], [ -74.162109553684701, 45.109649484607537 ], [ -74.162185579924454, 45.104452874004046 ], [ -74.168578128535685, 45.10190100703106 ] ] ] } },
{ "type": "Feature", "properties": { "hex_id": 1231057, "centroid_lon": -66.126125411390802, "centroid_lat": 48.944703444086329, "occurrences_today": 18, "datetimes_today": "2026-05-05 00:01:27, 2026-05-05 00:16:25, 2026-05-05 00:31:42, 2026-05-05 00:42:08, 2026-05-05 01:01:25, 2026-05-05 01:16:42, 2026-05-05 01:31:29, 2026-05-05 01:46:48, 2026-05-05 02:02:57, 2026-05-05 02:23:30, 2026-05-05 02:46:37, 2026-05-05 03:01:31, 2026-05-05 03:31:43, 2026-05-05 03:46:38, 2026-05-05 04:01:48, 2026-05-05 04:16:49, 2026-05-05 04:31:36, 2026-05-05 05:03:24", "cumulative_total": 129.0 }, "geometry": { "type": "Polygon", "coordinates": [ [ [ -66.12704248119303, 48.939572007719761 ], [ -66.133330315550808, 48.942660700449188 ], [ -66.132413790859587, 48.947792222073559 ], [ -66.125208081963478, 48.949834863055074 ], [ -66.118919962166686, 48.946745698884364 ], [ -66.119837836611225, 48.941614365240405 ], [ -66.12704248119303, 48.939572007719761 ] ] ] } },
{ "type": "Feature", "properties": { "hex_id": 1231668, "centroid_lon": -66.11800182786601, "centroid_lat": 48.951877015109162, "occurrences_today": 18, "datetimes_today": "2026-05-05 00:01:27, 2026-05-05 00:16:25, 2026-05-05 00:31:42, 2026-05-05 00:42:08, 2026-05-05 01:01:25, 2026-05-05 01:16:42, 2026-05-05 01:31:29, 2026-05-05 01:46:48, 2026-05-05 02:02:57, 2026-05-05 02:23:30, 2026-05-05 02:46:37, 2026-05-05 03:01:31, 2026-05-05 03:31:43, 2026-05-05 03:46:38, 2026-05-05 04:01:48, 2026-05-05 04:16:49, 2026-05-05 04:31:36, 2026-05-05 05:03:24", "cumulative_total": 129.0 }, "geometry": { "type": "Polygon", "coordinates": [ [ [ -66.118919962166686, 48.946745698884364 ], [ -66.125208081963478, 48.949834863055074 ], [ -66.124290492817266, 48.954966264621241 ], [ -66.117083433615335, 48.957008313910045 ], [ -66.110795028661087, 48.953918678146685 ], [ -66.111713967972264, 48.948787464754147 ], [ -66.118919962166686, 48.946745698884364 ] ] ] } },
{ "type": "Feature", "properties": { "hex_id": 1232278, "centroid_lon": -66.112632647196278, "centroid_lat": 48.943656233921132, "occurrences_today": 18, "datetimes_today": "2026-05-05 00:01:27, 2026-05-05 00:16:25, 2026-05-05 00:31:42, 2026-05-05 00:42:08, 2026-05-05 01:01:25, 2026-05-05 01:16:42, 2026-05-05 01:31:29, 2026-05-05 01:46:48, 2026-05-05 02:02:57, 2026-05-05 02:23:30, 2026-05-05 02:46:37, 2026-05-05 03:01:31, 2026-05-05 03:31:43, 2026-05-05 03:46:38, 2026-05-05 04:01:48, 2026-05-05 04:16:49, 2026-05-05 04:31:36, 2026-05-05 05:03:24", "cumulative_total": 129.0 }, "geometry": { "type": "Polygon", "coordinates": [ [ [ -66.113551066427021, 48.938524985652428 ], [ -66.119837836611225, 48.941614365240405 ], [ -66.118919962166686, 48.946745698884364 ], [ -66.111713967972264, 48.948787464754147 ], [ -66.105426913042066, 48.945697613672841 ], [ -66.106346136958365, 48.940566468282029 ], [ -66.113551066427021, 48.938524985652428 ] ] ] } },
{ "type": "Feature", "properties": { "hex_id": 1232279, "centroid_lon": -66.109875829168715, "centroid_lat": 48.959049874093914, "occurrences_today": 18, "datetimes_today": "2026-05-05 00:01:27, 2026-05-05 00:16:25, 2026-05-05 00:31:42, 2026-05-05 00:42:08, 2026-05-05 01:01:25, 2026-05-05 01:16:42, 2026-05-05 01:31:29, 2026-05-05 01:46:48, 2026-05-05 02:02:57, 2026-05-05 02:23:30, 2026-05-05 02:46:37, 2026-05-05 03:01:31, 2026-05-05 03:31:43, 2026-05-05 03:46:38, 2026-05-05 04:01:48, 2026-05-05 04:16:49, 2026-05-05 04:31:36, 2026-05-05 05:03:24", "cumulative_total": 129.0 }, "geometry": { "type": "Polygon", "coordinates": [ [ [ -66.110795028661087, 48.953918678146685 ], [ -66.117083433615335, 48.957008313910045 ], [ -66.116164779320698, 48.962139595282174 ], [ -66.108956369401128, 48.96418105259103 ], [ -66.102667679571397, 48.96109094508369 ], [ -66.103587684442644, 48.955959852078486 ], [ -66.110795028661087, 48.953918678146685 ] ] ] } },
{ "type": "Feature", "properties": { "hex_id": 1232889, "centroid_lon": -66.104507428901513, "centroid_lat": 48.950828741606593, "occurrences_today": 18, "datetimes_today": "2026-05-05 00:01:27, 2026-05-05 00:16:25, 2026-05-05 00:31:42, 2026-05-05 00:42:08, 2026-05-05 01:01:25, 2026-05-05 01:16:42, 2026-05-05 01:31:29, 2026-05-05 01:46:48, 2026-05-05 02:02:57, 2026-05-05 02:23:30, 2026-05-05 02:46:37, 2026-05-05 03:01:31, 2026-05-05 03:31:43, 2026-05-05 03:46:38, 2026-05-05 04:01:48, 2026-05-05 04:16:49, 2026-05-05 04:31:36, 2026-05-05 05:03:24", "cumulative_total": 129.0 }, "geometry": { "type": "Polygon", "coordinates": [ [ [ -66.105426913042066, 48.945697613672841 ], [ -66.111713967972264, 48.948787464754147 ], [ -66.110795028661087, 48.953918678146685 ], [ -66.103587684442644, 48.955959852078486 ], [ -66.097300345048382, 48.95286952935259 ], [ -66.098220634242566, 48.947738504406431 ], [ -66.105426913042066, 48.945697613672841 ] ] ] } },
{ "type": "Feature", "properties": { "hex_id": 1233500, "centroid_lon": -66.096379795304742, "centroid_lat": 48.958000536815476, "occurrences_today": 18, "datetimes_today": "2026-05-05 00:01:27, 2026-05-05 00:16:25, 2026-05-05 00:31:42, 2026-05-05 00:42:08, 2026-05-05 01:01:25, 2026-05-05 01:16:42, 2026-05-05 01:31:29, 2026-05-05 01:46:48, 2026-05-05 02:02:57, 2026-05-05 02:23:30, 2026-05-05 02:46:37, 2026-05-05 03:01:31, 2026-05-05 03:31:43, 2026-05-05 03:46:38, 2026-05-05 04:01:48, 2026-05-05 04:16:49, 2026-05-05 04:31:36, 2026-05-05 05:03:24", "cumulative_total": 129.0 }, "geometry": { "type": "Polygon", "coordinates": [ [ [ -66.097300345048382, 48.95286952935259 ], [ -66.103587684442644, 48.955959852078486 ], [ -66.102667679571397, 48.96109094508369 ], [ -66.095458984917485, 48.963131526790264 ], [ -66.089171361341542, 48.960040732268524 ], [ -66.090092716507002, 48.954909827903037 ], [ -66.097300345048382, 48.95286952935259 ] ] ] } },
{ "type": "Feature", "properties": { "hex_id": 1234111, "centroid_lon": -66.088249745301184, "centroid_lat": 48.965171619124497, "occurrences_today": 18, "datetimes_today": "2026-05-05 00:01:27, 2026-05-05 00:16:25, 2026-05-05 00:31:42, 2026-05-05 00:42:08, 2026-05-05 01:01:25, 2026-05-05 01:16:42, 2026-05-05 01:31:29, 2026-05-05 01:46:48, 2026-05-05 02:02:57, 2026-05-05 02:23:30, 2026-05-05 02:46:37, 2026-05-05 03:01:31, 2026-05-05 03:31:43, 2026-05-05 03:46:38, 2026-05-05 04:01:48, 2026-05-05 04:16:49, 2026-05-05 04:31:36, 2026-05-05 05:03:24", "cumulative_total": 129.0 }, "geometry": { "type": "Polygon", "coordinates": [ [ [ -66.089171361341542, 48.960040732268524 ], [ -66.095458984917485, 48.963131526790264 ], [ -66.094537913792422, 48.968262499272136 ], [ -66.087327868291652, 48.97030248846611 ], [ -66.081039960816767, 48.967211221997296 ], [ -66.081962382647262, 48.962080438348558 ], [ -66.089171361341542, 48.960040732268524 ] ] ] } },
{ "type": "Feature", "properties": { "hex_id": 1234722, "centroid_lon": -66.080117277785675, "centroid_lat": 48.972341988110202, "occurrences_today": 18, "datetimes_today": "2026-05-05 00:01:27, 2026-05-05 00:16:25, 2026-05-05 00:31:42, 2026-05-05 00:42:08, 2026-05-05 01:01:25, 2026-05-05 01:16:42, 2026-05-05 01:31:29, 2026-05-05 01:46:48, 2026-05-05 02:02:57, 2026-05-05 02:23:30, 2026-05-05 02:46:37, 2026-05-05 03:01:31, 2026-05-05 03:31:43, 2026-05-05 03:46:38, 2026-05-05 04:01:48, 2026-05-05 04:16:49, 2026-05-05 04:31:36, 2026-05-05 05:03:24", "cumulative_total": 129.0 }, "geometry": { "type": "Polygon", "coordinates": [ [ [ -66.081039960816767, 48.967211221997296 ], [ -66.087327868291652, 48.97030248846611 ], [ -66.086405730218587, 48.975433340288539 ], [ -66.079194333459569, 48.977472736682479 ], [ -66.072906142368907, 48.974380998115336 ], [ -66.073829631558567, 48.969250335319551 ], [ -66.081039960816767, 48.967211221997296 ] ] ] } },
{ "type": "Feature", "properties": { "hex_id": 1235332, "centroid_lon": -66.07475285931622, "centroid_lat": 48.96411965496651, "occurrences_today": 18, "datetimes_today": "2026-05-05 00:01:27, 2026-05-05 00:16:25, 2026-05-05 00:31:42, 2026-05-05 00:42:08, 2026-05-05 01:01:25, 2026-05-05 01:16:42, 2026-05-05 01:31:29, 2026-05-05 01:46:48, 2026-05-05 02:02:57, 2026-05-05 02:23:30, 2026-05-05 02:46:37, 2026-05-05 03:01:31, 2026-05-05 03:31:43, 2026-05-05 03:46:38, 2026-05-05 04:01:48, 2026-05-05 04:16:49, 2026-05-05 04:31:36, 2026-05-05 05:03:24", "cumulative_total": 129.0 }, "geometry": { "type": "Polygon", "coordinates": [ [ [ -66.075675825736312, 48.95898895706101 ], [ -66.081962382647262, 48.962080438348558 ], [ -66.081039960816767, 48.967211221997296 ], [ -66.073829631558567, 48.969250335319551 ], [ -66.067542791442818, 48.966158382033292 ], [ -66.068466563695608, 48.961027787490444 ], [ -66.075675825736312, 48.95898895706101 ] ] ] } },
{ "type": "Feature", "properties": { "hex_id": 1235943, "centroid_lon": -66.066618757621072, "centroid_lat": 48.971288959002216, "occurrences_today": 18, "datetimes_today": "2026-05-05 00:01:27, 2026-05-05 00:16:25, 2026-05-05 00:31:42, 2026-05-05 00:42:08, 2026-05-05 01:01:25, 2026-05-05 01:16:42, 2026-05-05 01:31:29, 2026-05-05 01:46:48, 2026-05-05 02:02:57, 2026-05-05 02:23:30, 2026-05-05 02:46:37, 2026-05-05 03:01:31, 2026-05-05 03:31:43, 2026-05-05 03:46:38, 2026-05-05 04:01:48, 2026-05-05 04:16:49, 2026-05-05 04:31:36, 2026-05-05 05:03:24", "cumulative_total": 129.0 }, "geometry": { "type": "Polygon", "coordinates": [ [ [ -66.067542791442818, 48.966158382033292 ], [ -66.073829631558567, 48.969250335319551 ], [ -66.072906142368907, 48.974380998115336 ], [ -66.065694462135824, 48.976419518392369 ], [ -66.059407339098783, 48.973327092956232 ], [ -66.060332179121531, 48.968196619459896 ], [ -66.067542791442818, 48.966158382033292 ] ] ] } },
{ "type": "Feature", "properties": { "hex_id": 1236554, "centroid_lon": -66.058482237181011, "centroid_lat": 48.978457548852262, "occurrences_today": 18, "datetimes_today": "2026-05-05 00:01:27, 2026-05-05 00:16:25, 2026-05-05 00:31:42, 2026-05-05 00:42:08, 2026-05-05 01:01:25, 2026-05-05 01:16:42, 2026-05-05 01:31:29, 2026-05-05 01:46:48, 2026-05-05 02:02:57, 2026-05-05 02:23:30, 2026-05-05 02:46:37, 2026-05-05 03:01:31, 2026-05-05 03:31:43, 2026-05-05 03:46:38, 2026-05-05 04:01:48, 2026-05-05 04:16:49, 2026-05-05 04:31:36, 2026-05-05 05:03:24", "cumulative_total": 129.0 }, "geometry": { "type": "Polygon", "coordinates": [ [ [ -66.059407339098783, 48.973327092956232 ], [ -66.065694462135824, 48.976419518392369 ], [ -66.064769904892472, 48.981550060198863 ], [ -66.057556873273541, 48.983587987143125 ], [ -66.051269467599155, 48.980495089405956 ], [ -66.052195376086317, 48.975364737092541 ], [ -66.059407339098783, 48.973327092956232 ] ] ] } },
{ "type": "Feature", "properties": { "hex_id": 1237165, "centroid_lon": -66.050343296890631, "centroid_lat": 48.985625424092675, "occurrences_today": 18, "datetimes_today": "2026-05-05 00:01:27, 2026-05-05 00:16:25, 2026-05-05 00:31:42, 2026-05-05 00:42:08, 2026-05-05 01:01:25, 2026-05-05 01:16:42, 2026-05-05 01:31:29, 2026-05-05 01:46:48, 2026-05-05 02:02:57, 2026-05-05 02:23:30, 2026-05-05 02:46:37, 2026-05-05 03:01:31, 2026-05-05 03:31:43, 2026-05-05 03:46:38, 2026-05-05 04:01:48, 2026-05-05 04:16:49, 2026-05-05 04:31:36, 2026-05-05 05:03:24", "cumulative_total": 129.0 }, "geometry": { "type": "Polygon", "coordinates": [ [ [ -66.051269467599155, 48.980495089405956 ], [ -66.057556873273541, 48.983587987143125 ], [ -66.056631247281643, 48.988718407823946 ], [ -66.049416863865929, 48.990755741147773 ], [ -66.043129175838516, 48.987662370958418 ], [ -66.044056153484973, 48.982532139964412 ], [ -66.051269467599155, 48.980495089405956 ] ] ] } },
{ "type": "Feature", "properties": { "hex_id": 1237775, "centroid_lon": -66.044982868678403, "centroid_lat": 48.977401891322124, "occurrences_today": 18, "datetimes_today": "2026-05-05 00:01:27, 2026-05-05 00:16:25, 2026-05-05 00:31:42, 2026-05-05 00:42:08, 2026-05-05 01:01:25, 2026-05-05 01:16:42, 2026-05-05 01:31:29, 2026-05-05 01:46:48, 2026-05-05 02:02:57, 2026-05-05 02:23:30, 2026-05-05 02:46:37, 2026-05-05 03:01:31, 2026-05-05 03:31:43, 2026-05-05 03:46:38, 2026-05-05 04:01:48, 2026-05-05 04:16:49, 2026-05-05 04:31:36, 2026-05-05 05:03:24", "cumulative_total": 129.0 }, "geometry": { "type": "Polygon", "coordinates": [ [ [ -66.045909321513662, 48.972271625036456 ], [ -66.052195376086317, 48.975364737092541 ], [ -66.051269467599155, 48.980495089405956 ], [ -66.044056153484973, 48.982532139964412 ], [ -66.037769816969814, 48.97943855555598 ], [ -66.038697076416511, 48.9743083930084 ], [ -66.045909321513662, 48.972271625036456 ] ] ] } },
{ "type": "Feature", "properties": { "hex_id": 1238386, "centroid_lon": -66.036842294933322, "centroid_lat": 48.984568700438615, "occurrences_today": 18, "datetimes_today": "2026-05-05 00:01:27, 2026-05-05 00:16:25, 2026-05-05 00:31:42, 2026-05-05 00:42:08, 2026-05-05 01:01:25, 2026-05-05 01:16:42, 2026-05-05 01:31:29, 2026-05-05 01:46:48, 2026-05-05 02:02:57, 2026-05-05 02:23:30, 2026-05-05 02:46:37, 2026-05-05 03:01:31, 2026-05-05 03:31:43, 2026-05-05 03:46:38, 2026-05-05 04:01:48, 2026-05-05 04:16:49, 2026-05-05 04:31:36, 2026-05-05 05:03:24", "cumulative_total": 129.0 }, "geometry": { "type": "Polygon", "coordinates": [ [ [ -66.037769816969814, 48.97943855555598 ], [ -66.044056153484973, 48.982532139964412 ], [ -66.043129175838516, 48.987662370958418 ], [ -66.035914510212081, 48.989698827651345 ], [ -66.02962789203913, 48.986604770739504 ], [ -66.030556221055448, 48.981474729705099 ], [ -66.037769816969814, 48.97943855555598 ] ] ] } },
{ "type": "Feature", "properties": { "hex_id": 1238997, "centroid_lon": -66.028699300106311, "centroid_lat": 48.991734794082426, "occurrences_today": 18, "datetimes_today": "2026-05-05 00:01:27, 2026-05-05 00:16:25, 2026-05-05 00:31:42, 2026-05-05 00:42:08, 2026-05-05 01:01:25, 2026-05-05 01:16:42, 2026-05-05 01:31:29, 2026-05-05 01:46:48, 2026-05-05 02:02:57, 2026-05-05 02:23:30, 2026-05-05 02:46:37, 2026-05-05 03:01:31, 2026-05-05 03:31:43, 2026-05-05 03:46:38, 2026-05-05 04:01:48, 2026-05-05 04:16:49, 2026-05-05 04:31:36, 2026-05-05 05:03:24", "cumulative_total": 129.0 }, "geometry": { "type": "Polygon", "coordinates": [ [ [ -66.02962789203913, 48.986604770739504 ], [ -66.035914510212081, 48.989698827651345 ], [ -66.034986462711103, 48.99482893718934 ], [ -66.027770445161906, 48.996864799728982 ], [ -66.021483545616263, 48.993770270162656 ], [ -66.022412944897383, 48.988640350778134 ], [ -66.02962789203913, 48.986604770739504 ] ] ] } },
{ "type": "Feature", "properties": { "hex_id": 1239608, "centroid_lon": -66.020553883091651, "centroid_lat": 48.998900171829163, "occurrences_today": 18, "datetimes_today": "2026-05-05 00:01:27, 2026-05-05 00:16:25, 2026-05-05 00:31:42, 2026-05-05 00:42:08, 2026-05-05 01:01:25, 2026-05-05 01:16:42, 2026-05-05 01:31:29, 2026-05-05 01:46:48, 2026-05-05 02:02:57, 2026-05-05 02:23:30, 2026-05-05 02:46:37, 2026-05-05 03:01:31, 2026-05-05 03:31:43, 2026-05-05 03:46:38, 2026-05-05 04:01:48, 2026-05-05 04:16:49, 2026-05-05 04:31:36, 2026-05-05 05:03:24", "cumulative_total": 129.0 }, "geometry": { "type": "Polygon", "coordinates": [ [ [ -66.021483545616263, 48.993770270162656 ], [ -66.027770445161906, 48.996864799728982 ], [ -66.026841327110787, 49.001994787674249 ], [ -66.019623957228362, 49.004030055772738 ], [ -66.013336776595523, 49.00093505340088 ], [ -66.014267246837065, 48.995805255803042 ], [ -66.021483545616263, 48.993770270162656 ] ] ] } },
{ "type": "Feature", "properties": { "hex_id": 1240218, "centroid_lon": -66.015197453603221, "centroid_lat": 48.990675440465509, "occurrences_today": 18, "datetimes_today": "2026-05-05 00:01:27, 2026-05-05 00:16:25, 2026-05-05 00:31:42, 2026-05-05 00:42:08, 2026-05-05 01:01:25, 2026-05-05 01:16:42, 2026-05-05 01:31:29, 2026-05-05 01:46:48, 2026-05-05 02:02:57, 2026-05-05 02:23:30, 2026-05-05 02:46:37, 2026-05-05 03:01:31, 2026-05-05 03:31:43, 2026-05-05 03:46:38, 2026-05-05 04:01:48, 2026-05-05 04:16:49, 2026-05-05 04:31:36, 2026-05-05 05:03:24", "cumulative_total": 129.0 }, "geometry": { "type": "Polygon", "coordinates": [ [ [ -66.016127396989233, 48.985545607393256 ], [ -66.022412944897383, 48.988640350778134 ], [ -66.021483545616263, 48.993770270162656 ], [ -66.014267246837065, 48.995805255803042 ], [ -66.007981418251774, 48.992710039712669 ], [ -66.008912169027596, 48.987580310754367 ], [ -66.016127396989233, 48.985545607393256 ] ] ] } },
{ "type": "Feature", "properties": { "hex_id": 1240829, "centroid_lon": -66.007050403863957, "centroid_lat": 48.997839750914558, "occurrences_today": 18, "datetimes_today": "2026-05-05 00:01:27, 2026-05-05 00:16:25, 2026-05-05 00:31:42, 2026-05-05 00:42:08, 2026-05-05 01:01:25, 2026-05-05 01:16:42, 2026-05-05 01:31:29, 2026-05-05 01:46:48, 2026-05-05 02:02:57, 2026-05-05 02:23:30, 2026-05-05 02:46:37, 2026-05-05 03:01:31, 2026-05-05 03:31:43, 2026-05-05 03:46:38, 2026-05-05 04:01:48, 2026-05-05 04:16:49, 2026-05-05 04:31:36, 2026-05-05 05:03:24", "cumulative_total": 129.0 }, "geometry": { "type": "Polygon", "coordinates": [ [ [ -66.007981418251774, 48.992710039712669 ], [ -66.014267246837065, 48.995805255803042 ], [ -66.013336776595523, 49.00093505340088 ], [ -66.006119125768777, 49.002969444355116 ], [ -65.999833016792252, 48.999873755408316 ], [ -66.000764838938352, 48.994744148430662 ], [ -66.007981418251774, 48.992710039712669 ] ] ] } },
{ "type": "Feature", "properties": { "hex_id": 538484, "centroid_lon": -73.951867268304397, "centroid_lat": 45.136497732999153, "occurrences_today": 7, "datetimes_today": "2026-05-05 00:01:27, 2026-05-05 00:16:25, 2026-05-05 00:31:42, 2026-05-05 00:42:08, 2026-05-05 01:01:25, 2026-05-05 01:16:42, 2026-05-05 01:31:29", "cumulative_total": 89.0 }, "geometry": { "type": "Polygon", "coordinates": [ [ [ -73.951962458051867, 45.131301461283961 ], [ -73.95827258462252, 45.133957771070136 ], [ -73.958177959180446, 45.139154050814327 ], [ -73.951772052671146, 45.141693999808531 ], [ -73.945461387685214, 45.139037329299967 ], [ -73.945557167615249, 45.13384107058333 ], [ -73.951962458051867, 45.131301461283961 ] ] ] } },
{ "type": "Feature", "properties": { "hex_id": 539095, "centroid_lon": -73.945365581708145, "centroid_lat": 45.144233583108885, "occurrences_today": 7, "datetimes_today": "2026-05-05 00:01:27, 2026-05-05 00:16:25, 2026-05-05 00:31:42, 2026-05-05 00:42:08, 2026-05-05 01:01:25, 2026-05-05 01:16:42, 2026-05-05 01:31:29", "cumulative_total": 88.0 }, "geometry": { "type": "Polygon", "coordinates": [ [ [ -73.945461387685214, 45.139037329299967 ], [ -73.951772052671146, 45.141693999808531 ], [ -73.951676811143471, 45.146890261712052 ], [ -73.945269749675418, 45.149429832010021 ], [ -73.938958546300114, 45.146772800621221 ], [ -73.939054942773566, 45.141576559878438 ], [ -73.945461387685214, 45.139037329299967 ] ] ] } },
{ "type": "Feature", "properties": { "hex_id": 540316, "centroid_lon": -73.932647933578153, "centroid_lat": 45.14411542464039, "occurrences_today": 7, "datetimes_today": "2026-05-05 00:01:27, 2026-05-05 00:16:25, 2026-05-05 00:31:42, 2026-05-05 00:42:08, 2026-05-05 01:01:25, 2026-05-05 01:16:42, 2026-05-05 01:31:29", "cumulative_total": 88.0 }, "geometry": { "type": "Polygon", "coordinates": [ [ [ -73.932744894331023, 45.138919192117811 ], [ -73.939054942773566, 45.141576559878438 ], [ -73.938958546300114, 45.146772800621221 ], [ -73.932550946455692, 45.149311652251349 ], [ -73.926240360107712, 45.146653923491627 ], [ -73.926337911500823, 45.141457704164608 ], [ -73.932744894331023, 45.138919192117811 ] ] ] } },
{ "type": "Feature", "properties": { "hex_id": 47268, "centroid_lon": -79.354589902977793, "centroid_lat": 48.745144927706697, "occurrences_today": 5, "datetimes_today": "2026-05-05 02:23:30, 2026-05-05 02:46:37, 2026-05-05 03:01:31, 2026-05-05 03:31:43, 2026-05-05 03:46:38", "cumulative_total": 12.0 }, "geometry": { "type": "Polygon", "coordinates": [ [ [ -79.354141671020898, 48.739966083906651 ], [ -79.361147053419543, 48.742298574571187 ], [ -79.361596041959729, 48.747477367950168 ], [ -79.355038262600004, 48.750323763747019 ], [ -79.348031995929503, 48.747990927309807 ], [ -79.347584392937108, 48.742812040919787 ], [ -79.354141671020898, 48.739966083906651 ] ] ] } },
{ "type": "Feature", "properties": { "hex_id": 304689, "centroid_lon": -76.397426542944743, "centroid_lat": 45.545916647307379, "occurrences_today": 1, "datetimes_today": "2026-05-05 00:01:27", "cumulative_total": 69.0 }, "geometry": { "type": "Polygon", "coordinates": [ [ [ -76.397297812696351, 45.540721426734997 ], [ -76.403765018176031, 45.543240520349663 ], [ -76.403894355472687, 45.548435724259988 ], [ -76.397555308365696, 45.551111862849851 ], [ -76.391087460659307, 45.54859242831256 ], [ -76.390959302298427, 45.54339719617262 ], [ -76.397297812696351, 45.540721426734997 ] ] ] } },
{ "type": "Feature", "properties": { "hex_id": 162020, "centroid_lon": -78.057346762555525, "centroid_lat": 48.444055530170161, "occurrences_today": 11, "datetimes_today": "2026-05-05 00:01:27, 2026-05-05 00:16:25, 2026-05-05 00:31:42, 2026-05-05 00:42:08, 2026-05-05 01:01:25, 2026-05-05 01:16:42, 2026-05-05 01:31:29, 2026-05-05 01:46:48, 2026-05-05 02:02:57, 2026-05-05 02:23:30, 2026-05-05 02:46:37", "cumulative_total": 121.0 }, "geometry": { "type": "Polygon", "coordinates": [ [ [ -78.057035219052935, 48.438868804425823 ], [ -78.063942009621357, 48.441282455162039 ], [ -78.06425428278645, 48.446469145245466 ], [ -78.057658394512401, 48.449242249711503 ], [ -78.050750785811161, 48.446828240567839 ], [ -78.050439883548847, 48.441641485436875 ], [ -78.057035219052935, 48.438868804425823 ] ] ] } },
{ "type": "Feature", "properties": { "hex_id": 645969, "centroid_lon": -72.811104479413814, "centroid_lat": 45.697187051135451, "occurrences_today": 1, "datetimes_today": "2026-05-05 05:03:24", "cumulative_total": 40.0 }, "geometry": { "type": "Polygon", "coordinates": [ [ [ -72.811307156284897, 45.691994218336667 ], [ -72.817623163857547, 45.694713458457386 ], [ -72.817421052420357, 45.699906310657788 ], [ -72.810901747088039, 45.70237987849238 ], [ -72.804585229545523, 45.699660260062927 ], [ -72.804788527286505, 45.694467452172326 ], [ -72.811307156284897, 45.691994218336667 ] ] ] } },
{ "type": "Feature", "properties": { "hex_id": 373671, "centroid_lon": -75.67289422575594, "centroid_lat": 45.482326151555299, "occurrences_today": 5, "datetimes_today": "2026-05-05 03:46:38, 2026-05-05 04:01:48, 2026-05-05 04:16:49, 2026-05-05 04:31:36, 2026-05-05 05:03:24", "cumulative_total": 51.0 }, "geometry": { "type": "Polygon", "coordinates": [ [ [ -75.672832371610127, 45.477129683859495 ], [ -75.679260405457498, 45.479690055442624 ], [ -75.679322856084241, 45.484886513908087 ], [ -75.672956096792873, 45.487522614437296 ], [ -75.666527449570594, 45.484961894993098 ], [ -75.66646617502029, 45.479765422945306 ], [ -75.672832371610127, 45.477129683859495 ] ] ] } },
{ "type": "Feature", "properties": { "hex_id": 785819, "centroid_lon": -71.295781209391251, "centroid_lat": 46.367420525243674, "occurrences_today": 3, "datetimes_today": "2026-05-05 00:01:27, 2026-05-05 00:16:25, 2026-05-05 00:31:42", "cumulative_total": 28.0 }, "geometry": { "type": "Polygon", "coordinates": [ [ [ -71.29613214679577, 46.362235377758772 ], [ -71.302443233002379, 46.365038166531647 ], [ -71.302092858478375, 46.370223348467917 ], [ -71.29543017528357, 46.372605665952193 ], [ -71.289118622916149, 46.369802477148447 ], [ -71.289470219871234, 46.364617370956928 ], [ -71.29613214679577, 46.362235377758772 ] ] ] } },
{ "type": "Feature", "properties": { "hex_id": 785820, "centroid_lon": -71.294727816826295, "centroid_lat": 46.382975927037215, "occurrences_today": 3, "datetimes_today": "2026-05-05 00:01:27, 2026-05-05 00:16:25, 2026-05-05 00:31:42", "cumulative_total": 28.0 }, "geometry": { "type": "Polygon", "coordinates": [ [ [ -71.295079044439632, 46.377790799883606 ], [ -71.301391819740573, 46.380593692030828 ], [ -71.301041155460624, 46.385778853656028 ], [ -71.294376492410436, 46.388161047412311 ], [ -71.288063250595215, 46.385357755017026 ], [ -71.288415138311322, 46.380172669179203 ], [ -71.295079044439632, 46.377790799883606 ] ] ] } },
{ "type": "Feature", "properties": { "hex_id": 786429, "centroid_lon": -71.289821719972338, "centroid_lat": 46.359432257982284, "occurrences_today": 3, "datetimes_today": "2026-05-05 00:01:27, 2026-05-05 00:16:25, 2026-05-05 00:31:42", "cumulative_total": 101.0 }, "geometry": { "type": "Polygon", "coordinates": [ [ [ -71.290173123252586, 46.354247138225212 ], [ -71.29648298753024, 46.357050223498199 ], [ -71.29613214679577, 46.362235377758772 ], [ -71.289470219871234, 46.364617370956928 ], [ -71.283159889885226, 46.36181388571179 ], [ -71.283511952498955, 46.356628807306265 ], [ -71.290173123252586, 46.354247138225212 ] ] ] } },
{ "type": "Feature", "properties": { "hex_id": 786430, "centroid_lon": -71.288766929073901, "centroid_lat": 46.374987576556109, "occurrences_today": 3, "datetimes_today": "2026-05-05 00:01:27, 2026-05-05 00:16:25, 2026-05-05 00:31:42", "cumulative_total": 28.0 }, "geometry": { "type": "Polygon", "coordinates": [ [ [ -71.289118622916149, 46.369802477148447 ], [ -71.29543017528357, 46.372605665952193 ], [ -71.295079044439632, 46.377790799883606 ], [ -71.288415138311322, 46.380172669179203 ], [ -71.282103119882521, 46.377369080186135 ], [ -71.282455473610227, 46.372184022152446 ], [ -71.289118622916149, 46.369802477148447 ] ] ] } },
{ "type": "Feature", "properties": { "hex_id": 786431, "centroid_lon": -71.287711265892369, "centroid_lat": 46.39054283406886, "occurrences_today": 3, "datetimes_today": "2026-05-05 00:01:27, 2026-05-05 00:16:25, 2026-05-05 00:31:42", "cumulative_total": 28.0 }, "geometry": { "type": "Polygon", "coordinates": [ [ [ -71.288063250595215, 46.385357755017026 ], [ -71.294376492410436, 46.388161047412311 ], [ -71.294025071158856, 46.393346161008161 ], [ -71.28735918416956, 46.395727906333995 ], [ -71.281045475939663, 46.39292421353214 ], [ -71.281398121080514, 46.387739175876703 ], [ -71.288063250595215, 46.385357755017026 ] ] ] } },
{ "type": "Feature", "properties": { "hex_id": 786432, "centroid_lon": -71.286654729531065, "centroid_lat": 46.406098030501305, "occurrences_today": 3, "datetimes_today": "2026-05-05 00:01:27, 2026-05-05 00:16:25, 2026-05-05 00:31:42", "cumulative_total": 28.0 }, "geometry": { "type": "Polygon", "coordinates": [ [ [ -71.287007005393548, 46.400912971811707 ], [ -71.293321938015893, 46.40371636785936 ], [ -71.292970226058088, 46.408901461113267 ], [ -71.286302356548831, 46.411283082402079 ], [ -71.279986957158201, 46.408479285730429 ], [ -71.280339894011817, 46.40329426845971 ], [ -71.287007005393548, 46.400912971811707 ] ] ] } },
{ "type": "Feature", "properties": { "hex_id": 787040, "centroid_lon": -71.282807730266711, "centroid_lat": 46.366998957327418, "occurrences_today": 3, "datetimes_today": "2026-05-05 00:01:27, 2026-05-05 00:16:25, 2026-05-05 00:31:42", "cumulative_total": 53.0 }, "geometry": { "type": "Polygon", "coordinates": [ [ [ -71.283159889885226, 46.36181388571179 ], [ -71.289470219871234, 46.364617370956928 ], [ -71.289118622916149, 46.369802477148447 ], [ -71.282455473610227, 46.372184022152446 ], [ -71.27614467801537, 46.369380136776769 ], [ -71.27649749730206, 46.36419510659325 ], [ -71.283159889885226, 46.36181388571179 ] ] ] } },
{ "type": "Feature", "properties": { "hex_id": 787041, "centroid_lon": -71.281750669050368, "centroid_lat": 46.382554131427796, "occurrences_today": 3, "datetimes_today": "2026-05-05 00:01:27, 2026-05-05 00:16:25, 2026-05-05 00:31:42", "cumulative_total": 52.0 }, "geometry": { "type": "Polygon", "coordinates": [ [ [ -71.282103119882521, 46.377369080186135 ], [ -71.288415138311322, 46.380172669179203 ], [ -71.288063250595215, 46.385357755017026 ], [ -71.281398121080514, 46.387739175876703 ], [ -71.275085636689994, 46.384935186535877 ], [ -71.275438747742655, 46.3797501767488 ], [ -71.282103119882521, 46.377369080186135 ] ] ] } },
{ "type": "Feature", "properties": { "hex_id": 787042, "centroid_lon": -71.280692733594535, "centroid_lat": 46.398109244393389, "occurrences_today": 3, "datetimes_today": "2026-05-05 00:01:27, 2026-05-05 00:16:25, 2026-05-05 00:31:42", "cumulative_total": 28.0 }, "geometry": { "type": "Polygon", "coordinates": [ [ [ -71.281045475939663, 46.39292421353214 ], [ -71.28735918416956, 46.395727906333995 ], [ -71.287007005393548, 46.400912971811707 ], [ -71.280339894011817, 46.40329426845971 ], [ -71.274025719467048, 46.400490175092699 ], [ -71.274379122585557, 46.395305185708551 ], [ -71.281045475939663, 46.39292421353214 ] ] ] } },
{ "type": "Feature", "properties": { "hex_id": 787651, "centroid_lon": -71.275791761506667, "centroid_lat": 46.374565160162192, "occurrences_today": 3, "datetimes_today": "2026-05-05 00:01:27, 2026-05-05 00:16:25, 2026-05-05 00:31:42", "cumulative_total": 28.0 }, "geometry": { "type": "Polygon", "coordinates": [ [ [ -71.27614467801537, 46.369380136776769 ], [ -71.282455473610227, 46.372184022152446 ], [ -71.282103119882521, 46.377369080186135 ], [ -71.275438747742655, 46.3797501767488 ], [ -71.269127486638752, 46.376945891084191 ], [ -71.269481063150479, 46.371760909211481 ], [ -71.27614467801537, 46.369380136776769 ] ] ] } },
{ "type": "Feature", "properties": { "hex_id": 791315, "centroid_lon": -71.23579767200269, "centroid_lat": 46.388843436106285, "occurrences_today": 9, "datetimes_today": "2026-05-05 00:16:25, 2026-05-05 00:31:42, 2026-05-05 00:42:08, 2026-05-05 01:01:25, 2026-05-05 01:16:42, 2026-05-05 01:31:29, 2026-05-05 01:46:48, 2026-05-05 02:02:57, 2026-05-05 02:23:30", "cumulative_total": 43.0 }, "geometry": { "type": "Polygon", "coordinates": [ [ [ -71.236154550790999, 46.383658662894732 ], [ -71.242464760191112, 46.386464742025147 ], [ -71.242108443983042, 46.391649550278849 ], [ -71.235440694853438, 46.394028202473784 ], [ -71.229130021250867, 46.39122172253888 ], [ -71.229487560946666, 46.386036991279155 ], [ -71.236154550790999, 46.383658662894732 ] ] ] } },
{ "type": "Feature", "properties": { "hex_id": 165078, "centroid_lon": -78.028685482993282, "centroid_lat": 48.530530993989245, "occurrences_today": 18, "datetimes_today": "2026-05-05 00:01:27, 2026-05-05 00:16:25, 2026-05-05 00:31:42, 2026-05-05 00:42:08, 2026-05-05 01:01:25, 2026-05-05 01:16:42, 2026-05-05 01:31:29, 2026-05-05 01:46:48, 2026-05-05 02:02:57, 2026-05-05 02:23:30, 2026-05-05 02:46:37, 2026-05-05 03:01:31, 2026-05-05 03:31:43, 2026-05-05 03:46:38, 2026-05-05 04:01:48, 2026-05-05 04:16:49, 2026-05-05 04:31:36, 2026-05-05 05:03:24", "cumulative_total": 68.0 }, "geometry": { "type": "Polygon", "coordinates": [ [ [ -78.028375918991955, 48.525344208403602 ], [ -78.03529338661501, 48.527759334720294 ], [ -78.035603683384579, 48.532946084907032 ], [ -78.028995135005104, 48.535717773397046 ], [ -78.022076846587339, 48.533302287175637 ], [ -78.021767927375706, 48.528115472440525 ], [ -78.028375918991955, 48.525344208403602 ] ] ] } },
{ "type": "Feature", "properties": { "hex_id": 166299, "centroid_lon": -78.015159203154298, "centroid_lat": 48.530886370347901, "occurrences_today": 18, "datetimes_today": "2026-05-05 00:01:27, 2026-05-05 00:16:25, 2026-05-05 00:31:42, 2026-05-05 00:42:08, 2026-05-05 01:01:25, 2026-05-05 01:16:42, 2026-05-05 01:31:29, 2026-05-05 01:46:48, 2026-05-05 02:02:57, 2026-05-05 02:23:30, 2026-05-05 02:46:37, 2026-05-05 03:01:31, 2026-05-05 03:31:43, 2026-05-05 03:46:38, 2026-05-05 04:01:48, 2026-05-05 04:16:49, 2026-05-05 04:31:36, 2026-05-05 05:03:24", "cumulative_total": 68.0 }, "geometry": { "type": "Polygon", "coordinates": [ [ [ -78.01485101656381, 48.52569952036378 ], [ -78.021767927375706, 48.528115472440525 ], [ -78.022076846587339, 48.533302287175637 ], [ -78.01546747736522, 48.536073214167217 ], [ -78.008549746295799, 48.533656902013455 ], [ -78.008242204737826, 48.528470023016723 ], [ -78.01485101656381, 48.52569952036378 ] ] ] } },
{ "type": "Feature", "properties": { "hex_id": 522626, "centroid_lon": -74.113550569261875, "centroid_lat": 45.371733880542735, "occurrences_today": 1, "datetimes_today": "2026-05-05 04:31:36", "cumulative_total": 22.0 }, "geometry": { "type": "Polygon", "coordinates": [ [ [ -74.113631739128266, 45.366537575786325 ], [ -74.119975477774005, 45.369185099560198 ], [ -74.119894881358292, 45.374381410782298 ], [ -74.113469377260003, 45.376930180437441 ], [ -74.107125087302762, 45.374282294543796 ], [ -74.107206852747922, 45.369086001179063 ], [ -74.113631739128266, 45.366537575786325 ] ] ] } },
{ "type": "Feature", "properties": { "hex_id": 551338, "centroid_lon": -73.807418775554453, "centroid_lat": 45.657370700436289, "occurrences_today": 5, "datetimes_today": "2026-05-05 01:46:48, 2026-05-05 02:02:57, 2026-05-05 02:23:30, 2026-05-05 02:46:37, 2026-05-05 03:01:31", "cumulative_total": 49.0 }, "geometry": { "type": "Polygon", "coordinates": [ [ [ -73.807529066102049, 45.652175161117356 ], [ -73.813890002224653, 45.654839733767439 ], [ -73.813780289720313, 45.660035282647598 ], [ -73.807308454829283, 45.662566234801453 ], [ -73.80094697084607, 45.659901293509868 ], [ -73.80105786960435, 45.654705768770796 ], [ -73.807529066102049, 45.652175161117356 ] ] ] } },
{ "type": "Feature", "properties": { "hex_id": 555002, "centroid_lon": -73.768579277090396, "centroid_lat": 45.672548651600749, "occurrences_today": 10, "datetimes_today": "2026-05-05 01:46:48, 2026-05-05 02:02:57, 2026-05-05 02:23:30, 2026-05-05 02:46:37, 2026-05-05 03:01:31, 2026-05-05 03:31:43, 2026-05-05 03:46:38, 2026-05-05 04:01:48, 2026-05-05 04:16:49, 2026-05-05 04:31:36", "cumulative_total": 70.0 }, "geometry": { "type": "Polygon", "coordinates": [ [ [ -73.768693219257813, 45.667353200768275 ], [ -73.775053971835575, 45.670019927938405 ], [ -73.774940607649555, 45.675215388721462 ], [ -73.768465303740896, 45.677744097465819 ], [ -73.76210400436905, 45.67507700109384 ], [ -73.762218555689444, 45.66988156524426 ], [ -73.768693219257813, 45.667353200768275 ] ] ] } },
{ "type": "Feature", "properties": { "hex_id": 659403, "centroid_lon": -72.667983086175539, "centroid_lat": 45.741124291189131, "occurrences_today": 1, "datetimes_today": "2026-05-05 05:03:24", "cumulative_total": 6.0 }, "geometry": { "type": "Polygon", "coordinates": [ [ [ -72.668199339003905, 45.735932011242731 ], [ -72.674512957572958, 45.738659110050392 ], [ -72.674297269448999, 45.743851410814777 ], [ -72.6677667741519, 45.746316565599024 ], [ -72.661452650083717, 45.743589086645613 ], [ -72.661669526791798, 45.738396833118486 ], [ -72.668199339003905, 45.735932011242731 ] ] ] } },
{ "type": "Feature", "properties": { "hex_id": 785821, "centroid_lon": -71.293673553038403, "centroid_lat": 46.398531267824097, "occurrences_today": 3, "datetimes_today": "2026-05-05 00:01:27, 2026-05-05 00:16:25, 2026-05-05 00:31:42", "cumulative_total": 19.0 }, "geometry": { "type": "Polygon", "coordinates": [ [ [ -71.294025071158856, 46.393346161008161 ], [ -71.300339536913171, 46.396149156590411 ], [ -71.299988582579417, 46.401334297898174 ], [ -71.293321938015893, 46.40371636785936 ], [ -71.287007005393548, 46.400912971811707 ], [ -71.28735918416956, 46.395727906333995 ], [ -71.294025071158856, 46.393346161008161 ] ] ] } },
{ "type": "Feature", "properties": { "hex_id": 758269, "centroid_lon": -71.660615424919769, "centroid_lat": 45.170416926258639, "occurrences_today": 7, "datetimes_today": "2026-05-05 00:01:27, 2026-05-05 00:16:25, 2026-05-05 00:31:42, 2026-05-05 00:42:08, 2026-05-05 01:01:25, 2026-05-05 01:16:42, 2026-05-05 01:31:29", "cumulative_total": 18.0 }, "geometry": { "type": "Polygon", "coordinates": [ [ [ -71.660918907084977, 45.165228653106254 ], [ -71.667118934019626, 45.168008533865063 ], [ -71.666815985380794, 45.173196837267028 ], [ -71.660311860319908, 45.1756051930765 ], [ -71.654111382307207, 45.172824930933267 ], [ -71.654415480406087, 45.167636694428069 ], [ -71.660918907084977, 45.165228653106254 ] ] ] } },
{ "type": "Feature", "properties": { "hex_id": 703362, "centroid_lon": -72.203386681132841, "centroid_lat": 45.77746045613501, "occurrences_today": 15, "datetimes_today": "2026-05-05 00:01:27, 2026-05-05 00:16:25, 2026-05-05 00:31:42, 2026-05-05 00:42:08, 2026-05-05 01:01:25, 2026-05-05 01:16:42, 2026-05-05 01:31:29, 2026-05-05 01:46:48, 2026-05-05 02:02:57, 2026-05-05 02:23:30, 2026-05-05 02:46:37, 2026-05-05 03:01:31, 2026-05-05 03:31:43, 2026-05-05 03:46:38, 2026-05-05 04:01:48", "cumulative_total": 17.0 }, "geometry": { "type": "Polygon", "coordinates": [ [ [ -72.203646314400686, 45.772270097428439 ], [ -72.209940081394222, 45.775022438915009 ], [ -72.209681007166083, 45.780212822976054 ], [ -72.203126976789164, 45.782650808958365 ], [ -72.196832721843734, 45.779898082809808 ], [ -72.197092985203128, 45.774707755405608 ], [ -72.203646314400686, 45.772270097428439 ] ] ] } },
{ "type": "Feature", "properties": { "hex_id": 585498, "centroid_lon": -73.460058948274764, "centroid_lat": 45.216676777987011, "occurrences_today": 11, "datetimes_today": "2026-05-05 01:31:29, 2026-05-05 01:46:48, 2026-05-05 02:02:57, 2026-05-05 02:23:30, 2026-05-05 02:46:37, 2026-05-05 03:01:31, 2026-05-05 03:31:43, 2026-05-05 03:46:38, 2026-05-05 04:01:48, 2026-05-05 04:16:49, 2026-05-05 04:31:36", "cumulative_total": 11.0 }, "geometry": { "type": "Polygon", "coordinates": [ [ [ -73.46019918555919, 45.211481588542995 ], [ -73.466494485761928, 45.214164848706915 ], [ -73.466354808624104, 45.219360051039736 ], [ -73.459918672826035, 45.221871962343606 ], [ -73.453622850647349, 45.219188335862718 ], [ -73.453763686229976, 45.213993164458749 ], [ -73.46019918555919, 45.211481588542995 ] ] ] } },
{ "type": "Feature", "properties": { "hex_id": 148590, "centroid_lon": -78.206841779625265, "centroid_lat": 48.455568066415772, "occurrences_today": 1, "datetimes_today": "2026-05-05 05:03:24", "cumulative_total": 1.0 }, "geometry": { "type": "Polygon", "coordinates": [ [ [ -78.206514885987815, 48.45038209245655 ], [ -78.213429910372625, 48.45278656533538 ], [ -78.213757535891702, 48.457972501967426 ], [ -78.207168766078183, 48.460754034022344 ], [ -78.200252916979437, 48.45834920444274 ], [ -78.199926662441769, 48.453163199580267 ], [ -78.206514885987815, 48.45038209245655 ] ] ] } }
]
}
