{
"type": "FeatureCollection",
"name": "daily_2026-03-14",
"crs": { "type": "name", "properties": { "name": "urn:ogc:def:crs:OGC:1.3:CRS84" } },
"features": [
{ "type": "Feature", "properties": { "hex_id": 759559, "centroid_lon": -71.58302987507922, "centroid_lat": 46.24386553721132, "occurrences_today": 12, "datetimes_today": "2026-03-14 00:01:31, 2026-03-14 00:16:45, 2026-03-14 00:31:25, 2026-03-14 00:43:52, 2026-03-14 01:01:27, 2026-03-14 01:16:31, 2026-03-14 01:31:20, 2026-03-14 01:46:44, 2026-03-14 02:01:37, 2026-03-14 02:16:30, 2026-03-14 02:29:11, 2026-03-14 02:46:27", "cumulative_total": 222.0 }, "geometry": { "type": "Polygon", "coordinates": [ [ [ -71.583352239674028, 46.238678657146117 ], [ -71.589665054601994, 46.241465621980261 ], [ -71.589343253644614, 46.246652533651812 ], [ -71.582707421768447, 46.249052410809355 ], [ -71.576394131934165, 46.246265049950061 ], [ -71.576717148852083, 46.241078208023858 ], [ -71.583352239674028, 46.238678657146117 ] ] ] } },
{ "type": "Feature", "properties": { "hex_id": 760780, "centroid_lon": -71.570081494589459, "centroid_lat": 46.243477356387935, "occurrences_today": 12, "datetimes_today": "2026-03-14 00:01:31, 2026-03-14 00:16:45, 2026-03-14 00:31:25, 2026-03-14 00:43:52, 2026-03-14 01:01:27, 2026-03-14 01:16:31, 2026-03-14 01:31:20, 2026-03-14 01:46:44, 2026-03-14 02:01:37, 2026-03-14 02:16:30, 2026-03-14 02:29:11, 2026-03-14 02:46:27", "cumulative_total": 222.0 }, "geometry": { "type": "Polygon", "coordinates": [ [ [ -71.570405074932879, 46.238290546192836 ], [ -71.576717148852083, 46.241078208023858 ], [ -71.576394131934165, 46.246265049950061 ], [ -71.569757825197158, 46.248664160102798 ], [ -71.563445276916553, 46.245876102144692 ], [ -71.563769509703974, 46.240689330226402 ], [ -71.570405074932879, 46.238290546192836 ] ] ] } },
{ "type": "Feature", "properties": { "hex_id": 559881, "centroid_lon": -73.719012939665575, "centroid_lat": 45.594052857545286, "occurrences_today": 12, "datetimes_today": "2026-03-14 00:01:31, 2026-03-14 00:16:45, 2026-03-14 00:31:25, 2026-03-14 00:43:52, 2026-03-14 01:01:27, 2026-03-14 01:16:31, 2026-03-14 01:31:20, 2026-03-14 01:46:44, 2026-03-14 02:01:37, 2026-03-14 02:16:30, 2026-03-14 02:29:11, 2026-03-14 02:46:27", "cumulative_total": 71.0 }, "geometry": { "type": "Polygon", "coordinates": [ [ [ -73.719131143569101, 45.588857433730638 ], [ -73.725480691788832, 45.591526836702869 ], [ -73.725363062807006, 45.596722270942983 ], [ -73.718894703445216, 45.599248276374801 ], [ -73.712544612626061, 45.5965785047308 ], [ -73.712663423757235, 45.591383096391475 ], [ -73.719131143569101, 45.588857433730638 ] ] ] } },
{ "type": "Feature", "properties": { "hex_id": 576360, "centroid_lon": -73.547789112207852, "centroid_lat": 45.521847567936248, "occurrences_today": 12, "datetimes_today": "2026-03-14 00:01:31, 2026-03-14 00:16:45, 2026-03-14 00:31:25, 2026-03-14 00:43:52, 2026-03-14 01:01:27, 2026-03-14 01:16:31, 2026-03-14 01:31:20, 2026-03-14 01:46:44, 2026-03-14 02:01:37, 2026-03-14 02:16:30, 2026-03-14 02:29:11, 2026-03-14 02:46:27", "cumulative_total": 93.0 }, "geometry": { "type": "Polygon", "coordinates": [ [ [ -73.547922775935774, 45.516652449126525 ], [ -73.554255937340585, 45.519331205129539 ], [ -73.554122844030616, 45.524526336042406 ], [ -73.547655411970894, 45.527042681693686 ], [ -73.54132171666329, 45.524363556333263 ], [ -73.541455987305966, 45.519168454743493 ], [ -73.547922775935774, 45.516652449126525 ] ] ] } },
{ "type": "Feature", "properties": { "hex_id": 764443, "centroid_lon": -71.531237959994812, "centroid_lat": 46.24230403063271, "occurrences_today": 12, "datetimes_today": "2026-03-14 00:01:31, 2026-03-14 00:16:45, 2026-03-14 00:31:25, 2026-03-14 00:43:52, 2026-03-14 01:01:27, 2026-03-14 01:16:31, 2026-03-14 01:31:20, 2026-03-14 01:46:44, 2026-03-14 02:01:37, 2026-03-14 02:16:30, 2026-03-14 02:29:11, 2026-03-14 02:46:27", "cumulative_total": 197.0 }, "geometry": { "type": "Polygon", "coordinates": [ [ [ -71.531565187035625, 46.237117431622913 ], [ -71.537875035207207, 46.23990718342182 ], [ -71.53754837095525, 46.245093814536766 ], [ -71.530910642906576, 46.24749062312285 ], [ -71.524600322008936, 46.244700474891737 ], [ -71.524928201855289, 46.239513914572186 ], [ -71.531565187035625, 46.237117431622913 ] ] ] } },
{ "type": "Feature", "properties": { "hex_id": 765664, "centroid_lon": -71.518290654083216, "centroid_lat": 46.241909994548465, "occurrences_today": 12, "datetimes_today": "2026-03-14 00:01:31, 2026-03-14 00:16:45, 2026-03-14 00:31:25, 2026-03-14 00:43:52, 2026-03-14 01:01:27, 2026-03-14 01:16:31, 2026-03-14 01:31:20, 2026-03-14 01:46:44, 2026-03-14 02:01:37, 2026-03-14 02:16:30, 2026-03-14 02:29:11, 2026-03-14 02:46:27", "cumulative_total": 197.0 }, "geometry": { "type": "Polygon", "coordinates": [ [ [ -71.518619096505915, 46.236723466458656 ], [ -71.524928201855289, 46.239513914572186 ], [ -71.524600322008936, 46.244700474891737 ], [ -71.517962121280348, 46.247096516105358 ], [ -71.51165254375023, 46.244305671458179 ], [ -71.511981639098593, 46.239119182196475 ], [ -71.518619096505915, 46.236723466458656 ] ] ] } },
{ "type": "Feature", "properties": { "hex_id": 647857, "centroid_lon": -72.756372579539686, "centroid_lat": 46.576911233698269, "occurrences_today": 12, "datetimes_today": "2026-03-14 00:01:31, 2026-03-14 00:16:45, 2026-03-14 00:31:25, 2026-03-14 00:43:52, 2026-03-14 01:01:27, 2026-03-14 01:16:31, 2026-03-14 01:31:20, 2026-03-14 01:46:44, 2026-03-14 02:01:37, 2026-03-14 02:16:30, 2026-03-14 02:29:11, 2026-03-14 02:46:27", "cumulative_total": 23.0 }, "geometry": { "type": "Polygon", "coordinates": [ [ [ -72.756586794067374, 46.571719395420075 ], [ -72.762999798561097, 46.574443061305871 ], [ -72.762786175768554, 46.579634919870799 ], [ -72.756158305743227, 46.58210306648332 ], [ -72.749744768793377, 46.579379010280817 ], [ -72.749959634304531, 46.574187197849284 ], [ -72.756586794067374, 46.571719395420075 ] ] ] } },
{ "type": "Feature", "properties": { "hex_id": 454905, "centroid_lon": -74.820103903413738, "centroid_lat": 46.068779027544579, "occurrences_today": 12, "datetimes_today": "2026-03-14 00:01:31, 2026-03-14 00:16:45, 2026-03-14 00:31:25, 2026-03-14 00:43:52, 2026-03-14 01:01:27, 2026-03-14 01:16:31, 2026-03-14 01:31:20, 2026-03-14 01:46:44, 2026-03-14 02:01:37, 2026-03-14 02:16:30, 2026-03-14 02:29:11, 2026-03-14 02:46:27", "cumulative_total": 196.0 }, "geometry": { "type": "Polygon", "coordinates": [ [ [ -74.820120781822624, 46.063582762306787 ], [ -74.826577277596755, 46.066190887352469 ], [ -74.826561003531111, 46.071387152016783 ], [ -74.820087020361939, 46.073975288032202 ], [ -74.813629924888261, 46.071366799020105 ], [ -74.813647412281711, 46.066170538024942 ], [ -74.820120781822624, 46.063582762306787 ] ] ] } },
{ "type": "Feature", "properties": { "hex_id": 455515, "centroid_lon": -74.813664894866235, "centroid_lat": 46.060974272279246, "occurrences_today": 12, "datetimes_today": "2026-03-14 00:01:31, 2026-03-14 00:16:45, 2026-03-14 00:31:25, 2026-03-14 00:43:52, 2026-03-14 01:01:27, 2026-03-14 01:16:31, 2026-03-14 01:31:20, 2026-03-14 01:46:44, 2026-03-14 02:01:37, 2026-03-14 02:16:30, 2026-03-14 02:29:11, 2026-03-14 02:46:27", "cumulative_total": 196.0 }, "geometry": { "type": "Polygon", "coordinates": [ [ [ -74.81368237264347, 46.055778001783011 ], [ -74.820137655590202, 46.058386492318796 ], [ -74.820120781822624, 46.063582762306787 ], [ -74.813647412281711, 46.066170538024942 ], [ -74.807191530133437, 46.063561683557019 ], [ -74.80720961672597, 46.058365417368982 ], [ -74.81368237264347, 46.055778001783011 ] ] ] } },
{ "type": "Feature", "properties": { "hex_id": 456126, "centroid_lon": -74.807173438565997, "centroid_lat": 46.068757944994132, "occurrences_today": 12, "datetimes_today": "2026-03-14 00:01:31, 2026-03-14 00:16:45, 2026-03-14 00:31:25, 2026-03-14 00:43:52, 2026-03-14 01:01:27, 2026-03-14 01:16:31, 2026-03-14 01:31:20, 2026-03-14 01:46:44, 2026-03-14 02:01:37, 2026-03-14 02:16:30, 2026-03-14 02:29:11, 2026-03-14 02:46:27", "cumulative_total": 196.0 }, "geometry": { "type": "Polygon", "coordinates": [ [ [ -74.807191530133437, 46.063561683557019 ], [ -74.813647412281711, 46.066170538024942 ], [ -74.813629924888261, 46.071366799020105 ], [ -74.807155342021929, 46.073954201680394 ], [ -74.800698860677116, 46.071344983115765 ], [ -74.800717561393469, 46.066148726053484 ], [ -74.807191530133437, 46.063561683557019 ] ] ] } },
{ "type": "Feature", "properties": { "hex_id": 456736, "centroid_lon": -74.800736256967241, "centroid_lat": 46.060952464239961, "occurrences_today": 12, "datetimes_today": "2026-03-14 00:01:31, 2026-03-14 00:16:45, 2026-03-14 00:31:25, 2026-03-14 00:43:52, 2026-03-14 01:01:27, 2026-03-14 01:16:31, 2026-03-14 01:31:20, 2026-03-14 01:46:44, 2026-03-14 02:01:37, 2026-03-14 02:16:30, 2026-03-14 02:29:11, 2026-03-14 02:46:27", "cumulative_total": 195.0 }, "geometry": { "type": "Polygon", "coordinates": [ [ [ -74.800754947400165, 46.05575619767513 ], [ -74.80720961672597, 46.058365417368982 ], [ -74.807191530133437, 46.063561683557019 ], [ -74.800717561393469, 46.066148726053484 ], [ -74.794262293368988, 46.063539142297323 ], [ -74.794281592781402, 46.058342880172908 ], [ -74.800754947400165, 46.05575619767513 ] ] ] } },
{ "type": "Feature", "properties": { "hex_id": 457347, "centroid_lon": -74.794242988648065, "centroid_lat": 46.068735399670068, "occurrences_today": 12, "datetimes_today": "2026-03-14 00:01:31, 2026-03-14 00:16:45, 2026-03-14 00:31:25, 2026-03-14 00:43:52, 2026-03-14 01:01:27, 2026-03-14 01:16:31, 2026-03-14 01:31:20, 2026-03-14 01:46:44, 2026-03-14 02:01:37, 2026-03-14 02:16:30, 2026-03-14 02:29:11, 2026-03-14 02:46:27", "cumulative_total": 190.0 }, "geometry": { "type": "Polygon", "coordinates": [ [ [ -74.794262293368988, 46.063539142297323 ], [ -74.800717561393469, 46.066148726053484 ], [ -74.800698860677116, 46.071344983115765 ], [ -74.794223678616845, 46.073931652291201 ], [ -74.787767811899016, 46.071321704308168 ], [ -74.787787725933001, 46.066125451442495 ], [ -74.794262293368988, 46.063539142297323 ] ] ] } },
{ "type": "Feature", "properties": { "hex_id": 774215, "centroid_lon": -71.423616550387194, "centroid_lat": 46.301342539701992, "occurrences_today": 12, "datetimes_today": "2026-03-14 00:01:31, 2026-03-14 00:16:45, 2026-03-14 00:31:25, 2026-03-14 00:43:52, 2026-03-14 01:01:27, 2026-03-14 01:16:31, 2026-03-14 01:31:20, 2026-03-14 01:46:44, 2026-03-14 02:01:37, 2026-03-14 02:16:30, 2026-03-14 02:29:11, 2026-03-14 02:46:27", "cumulative_total": 202.0 }, "geometry": { "type": "Polygon", "coordinates": [ [ [ -71.423954612463703, 46.296156594964863 ], [ -71.430265248347794, 46.298952310127007 ], [ -71.42992774916425, 46.304138288042886 ], [ -71.423278395221757, 46.306528477804314 ], [ -71.416967289549561, 46.303732364538206 ], [ -71.41730600757613, 46.298546459680189 ], [ -71.423954612463703, 46.296156594964863 ] ] ] } },
{ "type": "Feature", "properties": { "hex_id": 764444, "centroid_lon": -71.530255738464817, "centroid_lat": 46.257863788541727, "occurrences_today": 12, "datetimes_today": "2026-03-14 00:01:31, 2026-03-14 00:16:45, 2026-03-14 00:31:25, 2026-03-14 00:43:52, 2026-03-14 01:01:27, 2026-03-14 01:16:31, 2026-03-14 01:31:20, 2026-03-14 01:46:44, 2026-03-14 02:01:37, 2026-03-14 02:16:30, 2026-03-14 02:29:11, 2026-03-14 02:46:27", "cumulative_total": 215.0 }, "geometry": { "type": "Polygon", "coordinates": [ [ [ -71.530583235740167, 46.252677209092717 ], [ -71.5368947727315, 46.255467057225964 ], [ -71.536567838698303, 46.26065366879898 ], [ -71.529928151049788, 46.263050361469205 ], [ -71.523616140971399, 46.260260116688436 ], [ -71.523944291597815, 46.255073575950483 ], [ -71.530583235740167, 46.252677209092717 ] ] ] } },
{ "type": "Feature", "properties": { "hex_id": 765054, "centroid_lon": -71.524272351933377, "centroid_lat": 46.249887028684704, "occurrences_today": 12, "datetimes_today": "2026-03-14 00:01:31, 2026-03-14 00:16:45, 2026-03-14 00:31:25, 2026-03-14 00:43:52, 2026-03-14 01:01:27, 2026-03-14 01:16:31, 2026-03-14 01:31:20, 2026-03-14 01:46:44, 2026-03-14 02:01:37, 2026-03-14 02:16:30, 2026-03-14 02:29:11, 2026-03-14 02:46:27", "cumulative_total": 215.0 }, "geometry": { "type": "Polygon", "coordinates": [ [ [ -71.524600322008936, 46.244700474891737 ], [ -71.530910642906576, 46.24749062312285 ], [ -71.530583235740167, 46.252677209092717 ], [ -71.523944291597815, 46.255073575950483 ], [ -71.517633498066431, 46.252283031128741 ], [ -71.517962121280348, 46.247096516105358 ], [ -71.524600322008936, 46.244700474891737 ] ] ] } },
{ "type": "Feature", "properties": { "hex_id": 702770, "centroid_lon": -72.195322031300236, "centroid_lat": 46.065674883169038, "occurrences_today": 12, "datetimes_today": "2026-03-14 00:01:31, 2026-03-14 00:16:45, 2026-03-14 00:31:25, 2026-03-14 00:43:52, 2026-03-14 01:01:27, 2026-03-14 01:16:31, 2026-03-14 01:31:20, 2026-03-14 01:46:44, 2026-03-14 02:01:37, 2026-03-14 02:16:30, 2026-03-14 02:29:11, 2026-03-14 02:46:27", "cumulative_total": 174.0 }, "geometry": { "type": "Polygon", "coordinates": [ [ [ -72.195585042292592, 46.060484822984535 ], [ -72.201910420504291, 46.063238229229171 ], [ -72.201647977066045, 46.068428314986271 ], [ -72.195058948048327, 46.070864937453997 ], [ -72.188733074554378, 46.068111142711089 ], [ -72.188996725335812, 46.062921114064082 ], [ -72.195585042292592, 46.060484822984535 ] ] ] } },
{ "type": "Feature", "properties": { "hex_id": 739410, "centroid_lon": -71.798980995448687, "centroid_lat": 46.211148981825872, "occurrences_today": 12, "datetimes_today": "2026-03-14 00:01:31, 2026-03-14 00:16:45, 2026-03-14 00:31:25, 2026-03-14 00:43:52, 2026-03-14 01:01:27, 2026-03-14 01:16:31, 2026-03-14 01:31:20, 2026-03-14 01:46:44, 2026-03-14 02:01:37, 2026-03-14 02:16:30, 2026-03-14 02:29:11, 2026-03-14 02:46:27", "cumulative_total": 108.0 }, "geometry": { "type": "Polygon", "coordinates": [ [ [ -71.799282664110564, 46.205960939900763 ], [ -71.805603391485434, 46.208736158425253 ], [ -71.805302288793101, 46.213924229849226 ], [ -71.798679243783141, 46.216337017495988 ], [ -71.792358033456566, 46.213561405181579 ], [ -71.792660351063347, 46.208373399075839 ], [ -71.799282664110564, 46.205960939900763 ] ] ] } },
{ "type": "Feature", "properties": { "hex_id": 758950, "centroid_lon": -71.5880551638665, "centroid_lat": 46.267400115722438, "occurrences_today": 12, "datetimes_today": "2026-03-14 00:01:31, 2026-03-14 00:16:45, 2026-03-14 00:31:25, 2026-03-14 00:43:52, 2026-03-14 01:01:27, 2026-03-14 01:16:31, 2026-03-14 01:31:20, 2026-03-14 01:46:44, 2026-03-14 02:01:37, 2026-03-14 02:16:30, 2026-03-14 02:29:11, 2026-03-14 02:46:27", "cumulative_total": 197.0 }, "geometry": { "type": "Polygon", "coordinates": [ [ [ -71.588377319263827, 46.262213229898315 ], [ -71.594693042563563, 46.264999988166799 ], [ -71.594371451591272, 46.270186905562802 ], [ -71.587732919783505, 46.27258699508323 ], [ -71.581416720759549, 46.269799840517827 ], [ -71.581739529237296, 46.264612992794447 ], [ -71.588377319263827, 46.262213229898315 ] ] ] } },
{ "type": "Feature", "properties": { "hex_id": 759560, "centroid_lon": -71.582062248877804, "centroid_lat": 46.259426138601526, "occurrences_today": 12, "datetimes_today": "2026-03-14 00:01:31, 2026-03-14 00:16:45, 2026-03-14 00:31:25, 2026-03-14 00:43:52, 2026-03-14 01:01:27, 2026-03-14 01:16:31, 2026-03-14 01:31:20, 2026-03-14 01:46:44, 2026-03-14 02:01:37, 2026-03-14 02:16:30, 2026-03-14 02:29:11, 2026-03-14 02:46:27", "cumulative_total": 197.0 }, "geometry": { "type": "Polygon", "coordinates": [ [ [ -71.582384879711412, 46.254239277939604 ], [ -71.588699386005786, 46.257026337611435 ], [ -71.588377319263827, 46.262213229898315 ], [ -71.581739529237296, 46.264612992794447 ], [ -71.575424547673322, 46.261825536882313 ], [ -71.575747831375153, 46.256638714379868 ], [ -71.582384879711412, 46.254239277939604 ] ] ] } },
{ "type": "Feature", "properties": { "hex_id": 760171, "centroid_lon": -71.575101174982748, "centroid_lat": 46.267012352908949, "occurrences_today": 12, "datetimes_today": "2026-03-14 00:01:31, 2026-03-14 00:16:45, 2026-03-14 00:31:25, 2026-03-14 00:43:52, 2026-03-14 01:01:27, 2026-03-14 01:16:31, 2026-03-14 01:31:20, 2026-03-14 01:46:44, 2026-03-14 02:01:37, 2026-03-14 02:16:30, 2026-03-14 02:29:11, 2026-03-14 02:46:27", "cumulative_total": 197.0 }, "geometry": { "type": "Polygon", "coordinates": [ [ [ -71.575424547673322, 46.261825536882313 ], [ -71.581739529237296, 46.264612992794447 ], [ -71.581416720759549, 46.269799840517827 ], [ -71.574777713273065, 46.272199162459202 ], [ -71.568462256530594, 46.269411310148072 ], [ -71.568786282422707, 46.264224532360096 ], [ -71.575424547673322, 46.261825536882313 ] ] ] } },
{ "type": "Feature", "properties": { "hex_id": 760172, "centroid_lon": -71.574130522674594, "centroid_lat": 46.282572762128162, "occurrences_today": 12, "datetimes_today": "2026-03-14 00:01:31, 2026-03-14 00:16:45, 2026-03-14 00:31:25, 2026-03-14 00:43:52, 2026-03-14 01:01:27, 2026-03-14 01:16:31, 2026-03-14 01:31:20, 2026-03-14 01:46:44, 2026-03-14 02:01:37, 2026-03-14 02:16:30, 2026-03-14 02:29:11, 2026-03-14 02:46:27", "cumulative_total": 197.0 }, "geometry": { "type": "Polygon", "coordinates": [ [ [ -71.574454162513803, 46.277385965532467 ], [ -71.580770837170959, 46.280173516553518 ], [ -71.580447761999352, 46.285360344864635 ], [ -71.573806793724955, 46.287759552245667 ], [ -71.567489643525832, 46.284971604610234 ], [ -71.567813937112646, 46.279784846273742 ], [ -71.574454162513803, 46.277385965532467 ] ] ] } },
{ "type": "Feature", "properties": { "hex_id": 760781, "centroid_lon": -71.569110219144207, "centroid_lat": 46.259037748089497, "occurrences_today": 12, "datetimes_today": "2026-03-14 00:01:31, 2026-03-14 00:16:45, 2026-03-14 00:31:25, 2026-03-14 00:43:52, 2026-03-14 01:01:27, 2026-03-14 01:16:31, 2026-03-14 01:31:20, 2026-03-14 01:46:44, 2026-03-14 02:01:37, 2026-03-14 02:16:30, 2026-03-14 02:29:11, 2026-03-14 02:46:27", "cumulative_total": 197.0 }, "geometry": { "type": "Polygon", "coordinates": [ [ [ -71.569434066725549, 46.253850957336851 ], [ -71.575747831375153, 46.256638714379868 ], [ -71.575424547673322, 46.261825536882313 ], [ -71.568786282422707, 46.264224532360096 ], [ -71.562472043048984, 46.261436378974764 ], [ -71.562796543619541, 46.256249626519484 ], [ -71.569434066725549, 46.253850957336851 ] ] ] } },
{ "type": "Feature", "properties": { "hex_id": 761391, "centroid_lon": -71.563120954898579, "centroid_lat": 46.251062867575918, "occurrences_today": 12, "datetimes_today": "2026-03-14 00:01:31, 2026-03-14 00:16:45, 2026-03-14 00:31:25, 2026-03-14 00:43:52, 2026-03-14 01:01:27, 2026-03-14 01:16:31, 2026-03-14 01:31:20, 2026-03-14 01:46:44, 2026-03-14 02:01:37, 2026-03-14 02:16:30, 2026-03-14 02:29:11, 2026-03-14 02:46:27", "cumulative_total": 197.0 }, "geometry": { "type": "Polygon", "coordinates": [ [ [ -71.563445276916553, 46.245876102144692 ], [ -71.569757825197158, 46.248664160102798 ], [ -71.569434066725549, 46.253850957336851 ], [ -71.562796543619541, 46.256249626519484 ], [ -71.556483521068856, 46.253461172275728 ], [ -71.556808495863777, 46.248274445200508 ], [ -71.563445276916553, 46.245876102144692 ] ] ] } },
{ "type": "Feature", "properties": { "hex_id": 761392, "centroid_lon": -71.562147453156385, "centroid_lat": 46.266623124941169, "occurrences_today": 12, "datetimes_today": "2026-03-14 00:01:31, 2026-03-14 00:16:45, 2026-03-14 00:31:25, 2026-03-14 00:43:52, 2026-03-14 01:01:27, 2026-03-14 01:16:31, 2026-03-14 01:31:20, 2026-03-14 01:46:44, 2026-03-14 02:01:37, 2026-03-14 02:16:30, 2026-03-14 02:29:11, 2026-03-14 02:46:27", "cumulative_total": 197.0 }, "geometry": { "type": "Polygon", "coordinates": [ [ [ -71.562472043048984, 46.261436378974764 ], [ -71.568786282422707, 46.264224532360096 ], [ -71.568462256530594, 46.269411310148072 ], [ -71.561822773911231, 46.271809864418103 ], [ -71.555508059904838, 46.269021314531834 ], [ -71.55583330311994, 46.263834606942005 ], [ -71.562472043048984, 46.261436378974764 ] ] ] } },
{ "type": "Feature", "properties": { "hex_id": 761397, "centroid_lon": -71.557267865339369, "centroid_lat": 46.344423535361209, "occurrences_today": 12, "datetimes_today": "2026-03-14 00:01:31, 2026-03-14 00:16:45, 2026-03-14 00:31:25, 2026-03-14 00:43:52, 2026-03-14 01:01:27, 2026-03-14 01:16:31, 2026-03-14 01:31:20, 2026-03-14 01:46:44, 2026-03-14 02:01:37, 2026-03-14 02:16:30, 2026-03-14 02:29:11, 2026-03-14 02:46:27", "cumulative_total": 197.0 }, "geometry": { "type": "Polygon", "coordinates": [ [ [ -71.557593798732299, 46.339236886800499 ], [ -71.563916514039761, 46.342025518166928 ], [ -71.563591146924495, 46.347212198643255 ], [ -71.556941842134407, 46.349610177423386 ], [ -71.550618650376663, 46.346821148477524 ], [ -71.55094523982855, 46.341634538396661 ], [ -71.557593798732299, 46.339236886800499 ] ] ] } },
{ "type": "Feature", "properties": { "hex_id": 762002, "centroid_lon": -71.556158456831085, "centroid_lat": 46.258647892856445, "occurrences_today": 12, "datetimes_today": "2026-03-14 00:01:31, 2026-03-14 00:16:45, 2026-03-14 00:31:25, 2026-03-14 00:43:52, 2026-03-14 01:01:27, 2026-03-14 01:16:31, 2026-03-14 01:31:20, 2026-03-14 01:46:44, 2026-03-14 02:01:37, 2026-03-14 02:16:30, 2026-03-14 02:29:11, 2026-03-14 02:46:27", "cumulative_total": 197.0 }, "geometry": { "type": "Polygon", "coordinates": [ [ [ -71.556483521068856, 46.253461172275728 ], [ -71.562796543619541, 46.256249626519484 ], [ -71.562472043048984, 46.261436378974764 ], [ -71.55583330311994, 46.263834606942005 ], [ -71.549519806390705, 46.261045756254092 ], [ -71.549845523738497, 46.255859074108606 ], [ -71.556483521068856, 46.253461172275728 ] ] ] } },
{ "type": "Feature", "properties": { "hex_id": 762003, "centroid_lon": -71.555182727155199, "centroid_lat": 46.274208015625312, "occurrences_today": 12, "datetimes_today": "2026-03-14 00:01:31, 2026-03-14 00:16:45, 2026-03-14 00:31:25, 2026-03-14 00:43:52, 2026-03-14 01:01:27, 2026-03-14 01:16:31, 2026-03-14 01:31:20, 2026-03-14 01:46:44, 2026-03-14 02:01:37, 2026-03-14 02:16:30, 2026-03-14 02:29:11, 2026-03-14 02:46:27", "cumulative_total": 197.0 }, "geometry": { "type": "Polygon", "coordinates": [ [ [ -71.555508059904838, 46.269021314531834 ], [ -71.561822773911231, 46.271809864418103 ], [ -71.561498005283013, 46.276996597404946 ], [ -71.554857304840453, 46.279394710221837 ], [ -71.548542116293063, 46.276605763675988 ], [ -71.54886810269862, 46.27141910103839 ], [ -71.555508059904838, 46.269021314531834 ] ] ] } },
{ "type": "Feature", "properties": { "hex_id": 762005, "centroid_lon": -71.553228848718177, "centroid_lat": 46.305328085728902, "occurrences_today": 12, "datetimes_today": "2026-03-14 00:01:31, 2026-03-14 00:16:45, 2026-03-14 00:31:25, 2026-03-14 00:43:52, 2026-03-14 01:01:27, 2026-03-14 01:16:31, 2026-03-14 01:31:20, 2026-03-14 01:46:44, 2026-03-14 02:01:37, 2026-03-14 02:16:30, 2026-03-14 02:29:11, 2026-03-14 02:46:27", "cumulative_total": 196.0 }, "geometry": { "type": "Polygon", "coordinates": [ [ [ -71.553554719317901, 46.300141423626258 ], [ -71.559872820326305, 46.302930164966767 ], [ -71.559547514757725, 46.308116859000421 ], [ -71.552902888369445, 46.310514741330948 ], [ -71.546584312094211, 46.307725602899673 ], [ -71.54691083744342, 46.302538979294241 ], [ -71.553554719317901, 46.300141423626258 ] ] ] } },
{ "type": "Feature", "properties": { "hex_id": 762007, "centroid_lon": -71.551271739316277, "centroid_lat": 46.336447921810958, "occurrences_today": 12, "datetimes_today": "2026-03-14 00:01:31, 2026-03-14 00:16:45, 2026-03-14 00:31:25, 2026-03-14 00:43:52, 2026-03-14 01:01:27, 2026-03-14 01:16:31, 2026-03-14 01:31:20, 2026-03-14 01:46:44, 2026-03-14 02:01:37, 2026-03-14 02:16:30, 2026-03-14 02:29:11, 2026-03-14 02:46:27", "cumulative_total": 197.0 }, "geometry": { "type": "Polygon", "coordinates": [ [ [ -71.551598148870625, 46.331261298721024 ], [ -71.557919642343961, 46.334050231741827 ], [ -71.557593798732299, 46.339236886800499 ], [ -71.55094523982855, 46.341634538396661 ], [ -71.544623270361285, 46.338845207853403 ], [ -71.544950335760916, 46.333658623302114 ], [ -71.551598148870625, 46.331261298721024 ] ] ] } },
{ "type": "Feature", "properties": { "hex_id": 762612, "centroid_lon": -71.550171151461626, "centroid_lat": 46.250672385461726, "occurrences_today": 12, "datetimes_today": "2026-03-14 00:01:31, 2026-03-14 00:16:45, 2026-03-14 00:31:25, 2026-03-14 00:43:52, 2026-03-14 01:01:27, 2026-03-14 01:16:31, 2026-03-14 01:31:20, 2026-03-14 01:46:44, 2026-03-14 02:01:37, 2026-03-14 02:16:30, 2026-03-14 02:29:11, 2026-03-14 02:46:27", "cumulative_total": 197.0 }, "geometry": { "type": "Polygon", "coordinates": [ [ [ -71.550496689590659, 46.245485690314055 ], [ -71.556808495863777, 46.248274445200508 ], [ -71.556483521068856, 46.253461172275728 ], [ -71.549845523738497, 46.255859074108606 ], [ -71.543533243740654, 46.253069922834747 ], [ -71.543859434767285, 46.247883266180914 ], [ -71.550496689590659, 46.245485690314055 ] ] ] } },
{ "type": "Feature", "properties": { "hex_id": 762613, "centroid_lon": -71.549193999387626, "centroid_lat": 46.266232431897549, "occurrences_today": 12, "datetimes_today": "2026-03-14 00:01:31, 2026-03-14 00:16:45, 2026-03-14 00:31:25, 2026-03-14 00:43:52, 2026-03-14 01:01:27, 2026-03-14 01:16:31, 2026-03-14 01:31:20, 2026-03-14 01:46:44, 2026-03-14 02:01:37, 2026-03-14 02:16:30, 2026-03-14 02:29:11, 2026-03-14 02:46:27", "cumulative_total": 197.0 }, "geometry": { "type": "Polygon", "coordinates": [ [ [ -71.549519806390705, 46.261045756254092 ], [ -71.55583330311994, 46.263834606942005 ], [ -71.555508059904838, 46.269021314531834 ], [ -71.54886810269862, 46.27141910103839 ], [ -71.542554131882653, 46.268629853747704 ], [ -71.542880592328999, 46.263443216618754 ], [ -71.549519806390705, 46.261045756254092 ] ] ] } },
{ "type": "Feature", "properties": { "hex_id": 762617, "centroid_lon": -71.545277311075154, "centroid_lat": 46.328472032240278, "occurrences_today": 12, "datetimes_today": "2026-03-14 00:01:31, 2026-03-14 00:16:45, 2026-03-14 00:31:25, 2026-03-14 00:43:52, 2026-03-14 01:01:27, 2026-03-14 01:16:31, 2026-03-14 01:31:20, 2026-03-14 01:46:44, 2026-03-14 02:01:37, 2026-03-14 02:16:30, 2026-03-14 02:29:11, 2026-03-14 02:46:27", "cumulative_total": 197.0 }, "geometry": { "type": "Polygon", "coordinates": [ [ [ -71.545604196334793, 46.323285434668513 ], [ -71.551924468522358, 46.326074669127436 ], [ -71.551598148870625, 46.331261298721024 ], [ -71.544950335760916, 46.333658623302114 ], [ -71.538629588035448, 46.330868991377734 ], [ -71.538957128926768, 46.325682432403383 ], [ -71.545604196334793, 46.323285434668513 ] ] ] } },
{ "type": "Feature", "properties": { "hex_id": 762618, "centroid_lon": -71.544296114845409, "centroid_lat": 46.344031785893513, "occurrences_today": 12, "datetimes_today": "2026-03-14 00:01:31, 2026-03-14 00:16:45, 2026-03-14 00:31:25, 2026-03-14 00:43:52, 2026-03-14 01:01:27, 2026-03-14 01:16:31, 2026-03-14 01:31:20, 2026-03-14 01:46:44, 2026-03-14 02:01:37, 2026-03-14 02:16:30, 2026-03-14 02:29:11, 2026-03-14 02:46:27", "cumulative_total": 197.0 }, "geometry": { "type": "Polygon", "coordinates": [ [ [ -71.544623270361285, 46.338845207853403 ], [ -71.55094523982855, 46.341634538396661 ], [ -71.550618650376663, 46.346821148477524 ], [ -71.54396886918245, 46.349218357421869 ], [ -71.537646423813698, 46.346428629197128 ], [ -71.537974235509807, 46.341242089775214 ], [ -71.544623270361285, 46.338845207853403 ] ] ] } },
{ "type": "Feature", "properties": { "hex_id": 763223, "centroid_lon": -71.543206962938115, "centroid_lat": 46.258256572980905, "occurrences_today": 12, "datetimes_today": "2026-03-14 00:01:31, 2026-03-14 00:16:45, 2026-03-14 00:31:25, 2026-03-14 00:43:52, 2026-03-14 01:01:27, 2026-03-14 01:16:31, 2026-03-14 01:31:20, 2026-03-14 01:46:44, 2026-03-14 02:01:37, 2026-03-14 02:16:30, 2026-03-14 02:29:11, 2026-03-14 02:46:27", "cumulative_total": 197.0 }, "geometry": { "type": "Polygon", "coordinates": [ [ [ -71.543533243740654, 46.253069922834747 ], [ -71.549845523738497, 46.255859074108606 ], [ -71.549519806390705, 46.261045756254092 ], [ -71.542880592328999, 46.263443216618754 ], [ -71.536567838698303, 46.26065366879898 ], [ -71.5368947727315, 46.255467057225964 ], [ -71.543533243740654, 46.253069922834747 ] ] ] } },
{ "type": "Feature", "properties": { "hex_id": 763228, "centroid_lon": -71.53830195690675, "centroid_lat": 46.336055543835215, "occurrences_today": 12, "datetimes_today": "2026-03-14 00:01:31, 2026-03-14 00:16:45, 2026-03-14 00:31:25, 2026-03-14 00:43:52, 2026-03-14 01:01:27, 2026-03-14 01:16:31, 2026-03-14 01:31:20, 2026-03-14 01:46:44, 2026-03-14 02:01:37, 2026-03-14 02:16:30, 2026-03-14 02:29:11, 2026-03-14 02:46:27", "cumulative_total": 197.0 }, "geometry": { "type": "Polygon", "coordinates": [ [ [ -71.538629588035448, 46.330868991377734 ], [ -71.544950335760916, 46.333658623302114 ], [ -71.544623270361285, 46.338845207853403 ], [ -71.537974235509807, 46.341242089775214 ], [ -71.53165301233895, 46.338452060226402 ], [ -71.531981299434065, 46.333265546445887 ], [ -71.538629588035448, 46.330868991377734 ] ] ] } },
{ "type": "Feature", "properties": { "hex_id": 763833, "centroid_lon": -71.537221616806903, "centroid_lat": 46.250280439138344, "occurrences_today": 12, "datetimes_today": "2026-03-14 00:01:31, 2026-03-14 00:16:45, 2026-03-14 00:31:25, 2026-03-14 00:43:52, 2026-03-14 01:01:27, 2026-03-14 01:16:31, 2026-03-14 01:31:20, 2026-03-14 01:46:44, 2026-03-14 02:01:37, 2026-03-14 02:16:30, 2026-03-14 02:29:11, 2026-03-14 02:46:27", "cumulative_total": 197.0 }, "geometry": { "type": "Polygon", "coordinates": [ [ [ -71.53754837095525, 46.245093814536766 ], [ -71.543859434767285, 46.247883266180914 ], [ -71.543533243740654, 46.253069922834747 ], [ -71.5368947727315, 46.255467057225964 ], [ -71.530583235740167, 46.252677209092717 ], [ -71.530910642906576, 46.24749062312285 ], [ -71.53754837095525, 46.245093814536766 ] ] ] } },
{ "type": "Feature", "properties": { "hex_id": 763834, "centroid_lon": -71.536240814676603, "centroid_lat": 46.265840273856796, "occurrences_today": 12, "datetimes_today": "2026-03-14 00:01:31, 2026-03-14 00:16:45, 2026-03-14 00:31:25, 2026-03-14 00:43:52, 2026-03-14 01:01:27, 2026-03-14 01:16:31, 2026-03-14 01:31:20, 2026-03-14 01:46:44, 2026-03-14 02:01:37, 2026-03-14 02:16:30, 2026-03-14 02:29:11, 2026-03-14 02:46:27", "cumulative_total": 195.0 }, "geometry": { "type": "Polygon", "coordinates": [ [ [ -71.536567838698303, 46.26065366879898 ], [ -71.542880592328999, 46.263443216618754 ], [ -71.542554131882653, 46.268629853747704 ], [ -71.535913700635675, 46.271026872398814 ], [ -71.529600473464257, 46.268236927874561 ], [ -71.529928151049788, 46.263050361469205 ], [ -71.536567838698303, 46.26065366879898 ] ] ] } },
{ "type": "Feature", "properties": { "hex_id": 763838, "centroid_lon": -71.532309496108979, "centroid_lat": 46.328079026141552, "occurrences_today": 12, "datetimes_today": "2026-03-14 00:01:31, 2026-03-14 00:16:45, 2026-03-14 00:31:25, 2026-03-14 00:43:52, 2026-03-14 01:01:27, 2026-03-14 01:16:31, 2026-03-14 01:31:20, 2026-03-14 01:46:44, 2026-03-14 02:01:37, 2026-03-14 02:16:30, 2026-03-14 02:29:11, 2026-03-14 02:46:27", "cumulative_total": 197.0 }, "geometry": { "type": "Polygon", "coordinates": [ [ [ -71.532637602394644, 46.322892499314051 ], [ -71.538957128926768, 46.325682432403383 ], [ -71.538629588035448, 46.330868991377734 ], [ -71.531981299434065, 46.333265546445887 ], [ -71.52566129791235, 46.330475215789214 ], [ -71.525990059950672, 46.325288727697377 ], [ -71.532637602394644, 46.322892499314051 ] ] ] } },
{ "type": "Feature", "properties": { "hex_id": 764448, "centroid_lon": -71.526318731447873, "centroid_lat": 46.320102233076035, "occurrences_today": 12, "datetimes_today": "2026-03-14 00:01:31, 2026-03-14 00:16:45, 2026-03-14 00:31:25, 2026-03-14 00:43:52, 2026-03-14 01:01:27, 2026-03-14 01:16:31, 2026-03-14 01:31:20, 2026-03-14 01:46:44, 2026-03-14 02:01:37, 2026-03-14 02:16:30, 2026-03-14 02:29:11, 2026-03-14 02:46:27", "cumulative_total": 197.0 }, "geometry": { "type": "Polygon", "coordinates": [ [ [ -71.526647312434932, 46.314915731925772 ], [ -71.532965618321938, 46.31770596596396 ], [ -71.532637602394644, 46.322892499314051 ], [ -71.525990059950672, 46.325288727697377 ], [ -71.519671279529518, 46.322498096148941 ], [ -71.520000516055518, 46.317311633793075 ], [ -71.526647312434932, 46.314915731925772 ] ] ] } },
{ "type": "Feature", "properties": { "hex_id": 765059, "centroid_lon": -71.519341952310626, "centroid_lat": 46.327684551968936, "occurrences_today": 12, "datetimes_today": "2026-03-14 00:01:31, 2026-03-14 00:16:45, 2026-03-14 00:31:25, 2026-03-14 00:43:52, 2026-03-14 01:01:27, 2026-03-14 01:16:31, 2026-03-14 01:31:20, 2026-03-14 01:46:44, 2026-03-14 02:01:37, 2026-03-14 02:16:30, 2026-03-14 02:29:11, 2026-03-14 02:46:27", "cumulative_total": 197.0 }, "geometry": { "type": "Polygon", "coordinates": [ [ [ -71.519671279529518, 46.322498096148941 ], [ -71.525990059950672, 46.325288727697377 ], [ -71.52566129791235, 46.330475215789214 ], [ -71.519012534367818, 46.332871001252471 ], [ -71.512693279505513, 46.33007997203493 ], [ -71.513023262597869, 46.324893555088892 ], [ -71.519671279529518, 46.322498096148941 ] ] ] } },
{ "type": "Feature", "properties": { "hex_id": 765665, "centroid_lon": -71.517304784410626, "centroid_lat": 46.257469539618015, "occurrences_today": 12, "datetimes_today": "2026-03-14 00:01:31, 2026-03-14 00:16:45, 2026-03-14 00:31:25, 2026-03-14 00:43:52, 2026-03-14 01:01:27, 2026-03-14 01:16:31, 2026-03-14 01:31:20, 2026-03-14 01:46:44, 2026-03-14 02:01:37, 2026-03-14 02:16:30, 2026-03-14 02:29:11, 2026-03-14 02:46:27", "cumulative_total": 196.0 }, "geometry": { "type": "Polygon", "coordinates": [ [ [ -71.517633498066431, 46.252283031128741 ], [ -71.523944291597815, 46.255073575950483 ], [ -71.523616140971399, 46.260260116688436 ], [ -71.516975980282012, 46.262656041572484 ], [ -71.510664714209497, 46.259865100001726 ], [ -71.510994081336605, 46.254678630361433 ], [ -71.517633498066431, 46.252283031128741 ] ] ] } },
{ "type": "Feature", "properties": { "hex_id": 765666, "centroid_lon": -71.516318100482806, "centroid_lat": 46.273029025874699, "occurrences_today": 12, "datetimes_today": "2026-03-14 00:01:31, 2026-03-14 00:16:45, 2026-03-14 00:31:25, 2026-03-14 00:43:52, 2026-03-14 01:01:27, 2026-03-14 01:16:31, 2026-03-14 01:31:20, 2026-03-14 01:46:44, 2026-03-14 02:01:37, 2026-03-14 02:16:30, 2026-03-14 02:29:11, 2026-03-14 02:46:27", "cumulative_total": 196.0 }, "geometry": { "type": "Polygon", "coordinates": [ [ [ -71.516647085649723, 46.267842536991587 ], [ -71.522959568722698, 46.270633178578407 ], [ -71.522631147038695, 46.275819699729198 ], [ -71.51598902475034, 46.278215508221173 ], [ -71.509676068775462, 46.275424469669801 ], [ -71.510005707959891, 46.270238019656524 ], [ -71.516647085649723, 46.267842536991587 ] ] ] } },
{ "type": "Feature", "properties": { "hex_id": 765669, "centroid_lon": -71.513353154814553, "centroid_lat": 46.319707131599998, "occurrences_today": 12, "datetimes_today": "2026-03-14 00:01:31, 2026-03-14 00:16:45, 2026-03-14 00:31:25, 2026-03-14 00:43:52, 2026-03-14 01:01:27, 2026-03-14 01:16:31, 2026-03-14 01:31:20, 2026-03-14 01:46:44, 2026-03-14 02:01:37, 2026-03-14 02:16:30, 2026-03-14 02:29:11, 2026-03-14 02:46:27", "cumulative_total": 197.0 }, "geometry": { "type": "Polygon", "coordinates": [ [ [ -71.513682956186642, 46.314520701568881 ], [ -71.520000516055518, 46.317311633793075 ], [ -71.519671279529518, 46.322498096148941 ], [ -71.513023262597869, 46.324893555088892 ], [ -71.506705228743016, 46.322102225252799 ], [ -71.507035685774696, 46.316915834154301 ], [ -71.513682956186642, 46.314520701568881 ] ] ] } },
{ "type": "Feature", "properties": { "hex_id": 766277, "centroid_lon": -71.509346338843301, "centroid_lat": 46.280610913139476, "occurrences_today": 12, "datetimes_today": "2026-03-14 00:01:31, 2026-03-14 00:16:45, 2026-03-14 00:31:25, 2026-03-14 00:43:52, 2026-03-14 01:01:27, 2026-03-14 01:16:31, 2026-03-14 01:31:20, 2026-03-14 01:46:44, 2026-03-14 02:01:37, 2026-03-14 02:16:30, 2026-03-14 02:29:11, 2026-03-14 02:46:27", "cumulative_total": 196.0 }, "geometry": { "type": "Polygon", "coordinates": [ [ [ -71.509676068775462, 46.275424469669801 ], [ -71.51598902475034, 46.278215508221173 ], [ -71.515659858421387, 46.283401984030419 ], [ -71.50901651813237, 46.285797350064939 ], [ -71.502703089348529, 46.283005914390444 ], [ -71.503033473631646, 46.277819509870071 ], [ -71.509676068775462, 46.275424469669801 ] ] ] } },
{ "type": "Feature", "properties": { "hex_id": 766279, "centroid_lon": -71.507366051810166, "centroid_lat": 46.311729436507221, "occurrences_today": 12, "datetimes_today": "2026-03-14 00:01:31, 2026-03-14 00:16:45, 2026-03-14 00:31:25, 2026-03-14 00:43:52, 2026-03-14 01:01:27, 2026-03-14 01:16:31, 2026-03-14 01:31:20, 2026-03-14 01:46:44, 2026-03-14 02:01:37, 2026-03-14 02:16:30, 2026-03-14 02:29:11, 2026-03-14 02:46:27", "cumulative_total": 197.0 }, "geometry": { "type": "Polygon", "coordinates": [ [ [ -71.507696326880492, 46.306543032312177 ], [ -71.514012666745202, 46.309334264996174 ], [ -71.513682956186642, 46.314520701568881 ], [ -71.507035685774696, 46.316915834154301 ], [ -71.500718872378897, 46.31412420391559 ], [ -71.501049802895011, 46.308937838711799 ], [ -71.507696326880492, 46.306543032312177 ] ] ] } },
{ "type": "Feature", "properties": { "hex_id": 766890, "centroid_lon": -71.500387850714986, "centroid_lat": 46.319310562564425, "occurrences_today": 12, "datetimes_today": "2026-03-14 00:01:31, 2026-03-14 00:16:45, 2026-03-14 00:31:25, 2026-03-14 00:43:52, 2026-03-14 01:01:27, 2026-03-14 01:16:31, 2026-03-14 01:31:20, 2026-03-14 01:46:44, 2026-03-14 02:01:37, 2026-03-14 02:16:30, 2026-03-14 02:29:11, 2026-03-14 02:46:27", "cumulative_total": 197.0 }, "geometry": { "type": "Polygon", "coordinates": [ [ [ -71.500718872378897, 46.31412420391559 ], [ -71.507035685774696, 46.316915834154301 ], [ -71.506705228743016, 46.322102225252799 ], [ -71.500056737872058, 46.324496914657658 ], [ -71.493739451038593, 46.321704886705483 ], [ -71.49407112848256, 46.316518567127538 ], [ -71.500718872378897, 46.31412420391559 ] ] ] } },
{ "type": "Feature", "properties": { "hex_id": 767500, "centroid_lon": -71.494402714595978, "centroid_lat": 46.311332240987603, "occurrences_today": 12, "datetimes_today": "2026-03-14 00:01:31, 2026-03-14 00:16:45, 2026-03-14 00:31:25, 2026-03-14 00:43:52, 2026-03-14 01:01:27, 2026-03-14 01:16:31, 2026-03-14 01:31:20, 2026-03-14 01:46:44, 2026-03-14 02:01:37, 2026-03-14 02:16:30, 2026-03-14 02:29:11, 2026-03-14 02:46:27", "cumulative_total": 197.0 }, "geometry": { "type": "Polygon", "coordinates": [ [ [ -71.494734209410055, 46.306145908286339 ], [ -71.501049802895011, 46.308937838711799 ], [ -71.500718872378897, 46.31412420391559 ], [ -71.49407112848256, 46.316518567127538 ], [ -71.487755062014585, 46.31372623904587 ], [ -71.48808721239476, 46.30853994547406 ], [ -71.494734209410055, 46.306145908286339 ] ] ] } },
{ "type": "Feature", "properties": { "hex_id": 768110, "centroid_lon": -71.488419271324133, "centroid_lat": 46.303353645334532, "occurrences_today": 12, "datetimes_today": "2026-03-14 00:01:31, 2026-03-14 00:16:45, 2026-03-14 00:31:25, 2026-03-14 00:43:52, 2026-03-14 01:01:27, 2026-03-14 01:16:31, 2026-03-14 01:31:20, 2026-03-14 01:46:44, 2026-03-14 02:01:37, 2026-03-14 02:16:30, 2026-03-14 02:29:11, 2026-03-14 02:46:27", "cumulative_total": 197.0 }, "geometry": { "type": "Polygon", "coordinates": [ [ [ -71.488751238833999, 46.298167338627898 ], [ -71.495065612956026, 46.300959569024357 ], [ -71.494734209410055, 46.306145908286339 ], [ -71.48808721239476, 46.30853994547406 ], [ -71.481772365743979, 46.305747317478719 ], [ -71.482104988605997, 46.300561049960109 ], [ -71.488751238833999, 46.298167338627898 ] ] ] } },
{ "type": "Feature", "properties": { "hex_id": 769331, "centroid_lon": -71.475458174612356, "centroid_lat": 46.302954357105271, "occurrences_today": 12, "datetimes_today": "2026-03-14 00:01:31, 2026-03-14 00:16:45, 2026-03-14 00:31:25, 2026-03-14 00:43:52, 2026-03-14 01:01:27, 2026-03-14 01:16:31, 2026-03-14 01:31:20, 2026-03-14 01:46:44, 2026-03-14 02:01:37, 2026-03-14 02:16:30, 2026-03-14 02:29:11, 2026-03-14 02:46:27", "cumulative_total": 197.0 }, "geometry": { "type": "Polygon", "coordinates": [ [ [ -71.475791361224381, 46.29776812226676 ], [ -71.482104988605997, 46.300561049960109 ], [ -71.481772365743979, 46.305747317478719 ], [ -71.47512489624684, 46.308140585363226 ], [ -71.468810796884398, 46.305347259969729 ], [ -71.469144638968558, 46.300161064457448 ], [ -71.475791361224381, 46.29776812226676 ] ] ] } },
{ "type": "Feature", "properties": { "hex_id": 770552, "centroid_lon": -71.462497353161069, "centroid_lat": 46.302553602346421, "occurrences_today": 12, "datetimes_today": "2026-03-14 00:01:31, 2026-03-14 00:16:45, 2026-03-14 00:31:25, 2026-03-14 00:43:52, 2026-03-14 01:01:27, 2026-03-14 01:16:31, 2026-03-14 01:31:20, 2026-03-14 01:46:44, 2026-03-14 02:01:37, 2026-03-14 02:16:30, 2026-03-14 02:29:11, 2026-03-14 02:46:27", "cumulative_total": 197.0 }, "geometry": { "type": "Polygon", "coordinates": [ [ [ -71.462831758781164, 46.29736743963894 ], [ -71.469144638968558, 46.300161064457448 ], [ -71.468810796884398, 46.305347259969729 ], [ -71.462162855453514, 46.307739758459853 ], [ -71.455849503833349, 46.304945735840072 ], [ -71.456184565045362, 46.299759612597022 ], [ -71.462831758781164, 46.29736743963894 ] ] ] } },
{ "type": "Feature", "properties": { "hex_id": 771163, "centroid_lon": -71.455514350351194, "centroid_lat": 46.31013185248198, "occurrences_today": 12, "datetimes_today": "2026-03-14 00:01:31, 2026-03-14 00:16:45, 2026-03-14 00:31:25, 2026-03-14 00:43:52, 2026-03-14 01:01:27, 2026-03-14 01:16:31, 2026-03-14 01:31:20, 2026-03-14 01:46:44, 2026-03-14 02:01:37, 2026-03-14 02:16:30, 2026-03-14 02:29:11, 2026-03-14 02:46:27", "cumulative_total": 197.0 }, "geometry": { "type": "Polygon", "coordinates": [ [ [ -71.455849503833349, 46.304945735840072 ], [ -71.462162855453514, 46.307739758459853 ], [ -71.461828265627076, 46.312925907978595 ], [ -71.45517910456735, 46.315317962522116 ], [ -71.448865281608946, 46.31252354194249 ], [ -71.449201091016931, 46.307337464844757 ], [ -71.455849503833349, 46.304945735840072 ] ] ] } },
{ "type": "Feature", "properties": { "hex_id": 771773, "centroid_lon": -71.449536807972024, "centroid_lat": 46.302151381138806, "occurrences_today": 12, "datetimes_today": "2026-03-14 00:01:31, 2026-03-14 00:16:45, 2026-03-14 00:31:25, 2026-03-14 00:43:52, 2026-03-14 01:01:27, 2026-03-14 01:16:31, 2026-03-14 01:31:20, 2026-03-14 01:46:44, 2026-03-14 02:01:37, 2026-03-14 02:16:30, 2026-03-14 02:29:11, 2026-03-14 02:46:27", "cumulative_total": 197.0 }, "geometry": { "type": "Polygon", "coordinates": [ [ [ -71.449872432505799, 46.296965290825256 ], [ -71.456184565045362, 46.299759612597022 ], [ -71.455849503833349, 46.304945735840072 ], [ -71.449201091016931, 46.307337464844757 ], [ -71.442888487592711, 46.3045427451707 ], [ -71.443224767837975, 46.299356694459789 ], [ -71.449872432505799, 46.296965290825256 ] ] ] } },
{ "type": "Feature", "properties": { "hex_id": 772384, "centroid_lon": -71.442552114743393, "centroid_lat": 46.309728789266906, "occurrences_today": 12, "datetimes_today": "2026-03-14 00:01:31, 2026-03-14 00:16:45, 2026-03-14 00:31:25, 2026-03-14 00:43:52, 2026-03-14 01:01:27, 2026-03-14 01:16:31, 2026-03-14 01:31:20, 2026-03-14 01:46:44, 2026-03-14 02:01:37, 2026-03-14 02:16:30, 2026-03-14 02:29:11, 2026-03-14 02:46:27", "cumulative_total": 197.0 }, "geometry": { "type": "Polygon", "coordinates": [ [ [ -71.442888487592711, 46.3045427451707 ], [ -71.449201091016931, 46.307337464844757 ], [ -71.448865281608946, 46.31252354194249 ], [ -71.442215649258358, 46.314914826747746 ], [ -71.435902575044381, 46.312119709012862 ], [ -71.436239603939057, 46.306933704599111 ], [ -71.442888487592711, 46.3045427451707 ] ] ] } },
{ "type": "Feature", "properties": { "hex_id": 772994, "centroid_lon": -71.4365765400469, "centroid_lat": 46.301747693563527, "occurrences_today": 12, "datetimes_today": "2026-03-14 00:01:31, 2026-03-14 00:16:45, 2026-03-14 00:31:25, 2026-03-14 00:43:52, 2026-03-14 01:01:27, 2026-03-14 01:16:31, 2026-03-14 01:31:20, 2026-03-14 01:46:44, 2026-03-14 02:01:37, 2026-03-14 02:16:30, 2026-03-14 02:29:11, 2026-03-14 02:46:27", "cumulative_total": 197.0 }, "geometry": { "type": "Polygon", "coordinates": [ [ [ -71.43691338339957, 46.296561675906773 ], [ -71.443224767837975, 46.299356694459789 ], [ -71.442888487592711, 46.3045427451707 ], [ -71.436239603939057, 46.306933704599111 ], [ -71.42992774916425, 46.304138288042886 ], [ -71.430265248347794, 46.298952310127007 ], [ -71.43691338339957, 46.296561675906773 ] ] ] } },
{ "type": "Feature", "properties": { "hex_id": 772995, "centroid_lon": -71.43556545333108, "centroid_lat": 46.317305706804113, "occurrences_today": 12, "datetimes_today": "2026-03-14 00:01:31, 2026-03-14 00:16:45, 2026-03-14 00:31:25, 2026-03-14 00:43:52, 2026-03-14 01:01:27, 2026-03-14 01:16:31, 2026-03-14 01:31:20, 2026-03-14 01:46:44, 2026-03-14 02:01:37, 2026-03-14 02:16:30, 2026-03-14 02:29:11, 2026-03-14 02:46:27", "cumulative_total": 197.0 }, "geometry": { "type": "Polygon", "coordinates": [ [ [ -71.435902575044381, 46.312119709012862 ], [ -71.442215649258358, 46.314914826747746 ], [ -71.441879091105903, 46.32010085761258 ], [ -71.435228238767465, 46.322491697972247 ], [ -71.428914693858857, 46.319696182017978 ], [ -71.429252471951557, 46.314510223989039 ], [ -71.435902575044381, 46.312119709012862 ] ] ] } },
{ "type": "Feature", "properties": { "hex_id": 773605, "centroid_lon": -71.429590157042753, "centroid_lat": 46.309324259330452, "occurrences_today": 12, "datetimes_today": "2026-03-14 00:01:31, 2026-03-14 00:16:45, 2026-03-14 00:31:25, 2026-03-14 00:43:52, 2026-03-14 01:01:27, 2026-03-14 01:16:31, 2026-03-14 01:31:20, 2026-03-14 01:46:44, 2026-03-14 02:01:37, 2026-03-14 02:16:30, 2026-03-14 02:29:11, 2026-03-14 02:46:27", "cumulative_total": 197.0 }, "geometry": { "type": "Polygon", "coordinates": [ [ [ -71.42992774916425, 46.304138288042886 ], [ -71.436239603939057, 46.306933704599111 ], [ -71.435902575044381, 46.312119709012862 ], [ -71.429252471951557, 46.314510223989039 ], [ -71.422940146935545, 46.31171440927114 ], [ -71.423278395221757, 46.306528477804314 ], [ -71.42992774916425, 46.304138288042886 ] ] ] } },
{ "type": "Feature", "properties": { "hex_id": 773606, "centroid_lon": -71.42857682273285, "centroid_lat": 46.324882133416637, "occurrences_today": 12, "datetimes_today": "2026-03-14 00:01:31, 2026-03-14 00:16:45, 2026-03-14 00:31:25, 2026-03-14 00:43:52, 2026-03-14 01:01:27, 2026-03-14 01:16:31, 2026-03-14 01:31:20, 2026-03-14 01:46:44, 2026-03-14 02:01:37, 2026-03-14 02:16:30, 2026-03-14 02:29:11, 2026-03-14 02:46:27", "cumulative_total": 197.0 }, "geometry": { "type": "Polygon", "coordinates": [ [ [ -71.428914693858857, 46.319696182017978 ], [ -71.435228238767465, 46.322491697972247 ], [ -71.434890931321746, 46.327677682516565 ], [ -71.42823885854169, 46.330068078184361 ], [ -71.421924843033835, 46.3272721638522 ], [ -71.422263370873452, 46.322086252295747 ], [ -71.428914693858857, 46.319696182017978 ] ] ] } },
{ "type": "Feature", "properties": { "hex_id": 774216, "centroid_lon": -71.42260180549674, "centroid_lat": 46.316900334101845, "occurrences_today": 12, "datetimes_today": "2026-03-14 00:01:31, 2026-03-14 00:16:45, 2026-03-14 00:31:25, 2026-03-14 00:43:52, 2026-03-14 01:01:27, 2026-03-14 01:16:31, 2026-03-14 01:31:20, 2026-03-14 01:46:44, 2026-03-14 02:01:37, 2026-03-14 02:16:30, 2026-03-14 02:29:11, 2026-03-14 02:46:27", "cumulative_total": 197.0 }, "geometry": { "type": "Polygon", "coordinates": [ [ [ -71.422940146935545, 46.31171440927114 ], [ -71.429252471951557, 46.314510223989039 ], [ -71.428914693858857, 46.319696182017978 ], [ -71.422263370873452, 46.322086252295747 ], [ -71.415950575711747, 46.319290039257687 ], [ -71.416289573649266, 46.314104154327623 ], [ -71.422940146935545, 46.31171440927114 ] ] ] } },
{ "type": "Feature", "properties": { "hex_id": 774827, "centroid_lon": -71.415611484406725, "centroid_lat": 46.324475917543772, "occurrences_today": 12, "datetimes_today": "2026-03-14 00:01:31, 2026-03-14 00:16:45, 2026-03-14 00:31:25, 2026-03-14 00:43:52, 2026-03-14 01:01:27, 2026-03-14 01:16:31, 2026-03-14 01:31:20, 2026-03-14 01:46:44, 2026-03-14 02:01:37, 2026-03-14 02:16:30, 2026-03-14 02:29:11, 2026-03-14 02:46:27", "cumulative_total": 197.0 }, "geometry": { "type": "Polygon", "coordinates": [ [ [ -71.415950575711747, 46.319290039257687 ], [ -71.422263370873452, 46.322086252295747 ], [ -71.421924843033835, 46.3272721638522 ], [ -71.415272299702309, 46.329661789185238 ], [ -71.408959034490593, 46.326865177668495 ], [ -71.409298782628454, 46.321679339362973 ], [ -71.415950575711747, 46.319290039257687 ] ] ] } },
{ "type": "Feature", "properties": { "hex_id": 776048, "centroid_lon": -71.402646426278864, "centroid_lat": 46.324068234324123, "occurrences_today": 12, "datetimes_today": "2026-03-14 00:01:31, 2026-03-14 00:16:45, 2026-03-14 00:31:25, 2026-03-14 00:43:52, 2026-03-14 01:01:27, 2026-03-14 01:16:31, 2026-03-14 01:31:20, 2026-03-14 01:46:44, 2026-03-14 02:01:37, 2026-03-14 02:16:30, 2026-03-14 02:29:11, 2026-03-14 02:46:27", "cumulative_total": 197.0 }, "geometry": { "type": "Polygon", "coordinates": [ [ [ -71.402986737667035, 46.318882429413613 ], [ -71.409298782628454, 46.321679339362973 ], [ -71.408959034490593, 46.326865177668495 ], [ -71.402306021157017, 46.329254032576273 ], [ -71.39599350669495, 46.326456724047581 ], [ -71.396334475035061, 46.321270959256019 ], [ -71.402986737667035, 46.318882429413613 ] ] ] } },
{ "type": "Feature", "properties": { "hex_id": 656969, "centroid_lon": -72.688520860047674, "centroid_lat": 45.86626132386607, "occurrences_today": 12, "datetimes_today": "2026-03-14 00:01:31, 2026-03-14 00:16:45, 2026-03-14 00:31:25, 2026-03-14 00:43:52, 2026-03-14 01:01:27, 2026-03-14 01:16:31, 2026-03-14 01:31:20, 2026-03-14 01:46:44, 2026-03-14 02:01:37, 2026-03-14 02:16:30, 2026-03-14 02:29:11, 2026-03-14 02:46:27", "cumulative_total": 81.0 }, "geometry": { "type": "Polygon", "coordinates": [ [ [ -72.688736146490498, 45.86106908250526 ], [ -72.695064734105287, 45.863795280395422 ], [ -72.694850016424056, 45.868987542423696 ], [ -72.688305514582055, 45.87145355970145 ], [ -72.681976417238474, 45.868726980227294 ], [ -72.682192331445719, 45.863534765124456 ], [ -72.688736146490498, 45.86106908250526 ] ] ] } },
{ "type": "Feature", "properties": { "hex_id": 713161, "centroid_lon": -72.075256409749684, "centroid_lat": 46.25753088835777, "occurrences_today": 12, "datetimes_today": "2026-03-14 00:01:31, 2026-03-14 00:16:45, 2026-03-14 00:31:25, 2026-03-14 00:43:52, 2026-03-14 01:01:27, 2026-03-14 01:16:31, 2026-03-14 01:31:20, 2026-03-14 01:46:44, 2026-03-14 02:01:37, 2026-03-14 02:16:30, 2026-03-14 02:29:11, 2026-03-14 02:46:27", "cumulative_total": 49.0 }, "geometry": { "type": "Polygon", "coordinates": [ [ [ -72.075532511683235, 46.252341547988763 ], [ -72.081873146448245, 46.255101902024471 ], [ -72.081597616094939, 46.260291269232319 ], [ -72.074980231782277, 46.262720222719395 ], [ -72.06863910148391, 46.259959476622505 ], [ -72.068915851005571, 46.254770169165468 ], [ -72.075532511683235, 46.252341547988763 ] ] ] } },
{ "type": "Feature", "properties": { "hex_id": 716860, "centroid_lon": -72.005710758391018, "centroid_lat": 46.81692262401679, "occurrences_today": 12, "datetimes_today": "2026-03-14 00:01:31, 2026-03-14 00:16:45, 2026-03-14 00:31:25, 2026-03-14 00:43:52, 2026-03-14 01:01:27, 2026-03-14 01:16:31, 2026-03-14 01:31:20, 2026-03-14 01:46:44, 2026-03-14 02:01:37, 2026-03-14 02:16:30, 2026-03-14 02:29:11, 2026-03-14 02:46:27", "cumulative_total": 49.0 }, "geometry": { "type": "Polygon", "coordinates": [ [ [ -72.005998991760336, 46.811734119055401 ], [ -72.012400018714501, 46.814499553991105 ], [ -72.012112373240882, 46.819688086768799 ], [ -72.005422445066074, 46.822111122889304 ], [ -71.99902091018572, 46.819345287801681 ], [ -71.999309811378623, 46.814156816812549 ], [ -72.005998991760336, 46.811734119055401 ] ] ] } },
{ "type": "Feature", "properties": { "hex_id": 432919, "centroid_lon": -75.052735043565619, "centroid_lat": 45.944196140475484, "occurrences_today": 12, "datetimes_today": "2026-03-14 00:01:31, 2026-03-14 00:16:45, 2026-03-14 00:31:25, 2026-03-14 00:43:52, 2026-03-14 01:01:27, 2026-03-14 01:16:31, 2026-03-14 01:31:20, 2026-03-14 01:46:44, 2026-03-14 02:01:37, 2026-03-14 02:16:30, 2026-03-14 02:29:11, 2026-03-14 02:46:27", "cumulative_total": 15.0 }, "geometry": { "type": "Polygon", "coordinates": [ [ [ -75.052730117239321, 45.938999738008704 ], [ -75.059183046264593, 45.941594781357963 ], [ -75.059188575957748, 45.946791180881981 ], [ -75.052739971244932, 45.949392538195582 ], [ -75.04628643749956, 45.946797134820827 ], [ -75.046282113187573, 45.941600734223599 ], [ -75.052730117239321, 45.938999738008704 ] ] ] } },
{ "type": "Feature", "properties": { "hex_id": 492749, "centroid_lon": -74.420411926945818, "centroid_lat": 45.958327780484019, "occurrences_today": 12, "datetimes_today": "2026-03-14 00:01:31, 2026-03-14 00:16:45, 2026-03-14 00:31:25, 2026-03-14 00:43:52, 2026-03-14 01:01:27, 2026-03-14 01:16:31, 2026-03-14 01:31:20, 2026-03-14 01:46:44, 2026-03-14 02:01:37, 2026-03-14 02:16:30, 2026-03-14 02:29:11, 2026-03-14 02:46:27", "cumulative_total": 14.0 }, "geometry": { "type": "Polygon", "coordinates": [ [ [ -74.420466095840865, 45.953131654979558 ], [ -74.426890796932582, 45.95576225608513 ], [ -74.426837223618875, 45.960958385057801 ], [ -74.420357743171422, 45.963523901193149 ], [ -74.413932461380242, 45.960892933539355 ], [ -74.413987240730933, 45.955696816364096 ], [ -74.420466095840865, 45.953131654979558 ] ] ] } }
]
}
