{
"type": "FeatureCollection",
"name": "daily_2025-11-14",
"crs": { "type": "name", "properties": { "name": "urn:ogc:def:crs:OGC:1.3:CRS84" } },
"features": [
{ "type": "Feature", "properties": { "hex_id": 2255, "count": 4, "date": "2025-11-14", "n_files": 20, "pct": 20.0 }, "geometry": { "type": "Polygon", "coordinates": [ [ [ -73.8685284, 45.6582722 ], [ -73.8680047, 45.6842504 ], [ -73.8998482, 45.697553199999987 ], [ -73.9322015, 45.6848685 ], [ -73.9326955, 45.6588898 ], [ -73.9008658, 45.6455962 ], [ -73.8685284, 45.6582722 ] ] ] } },
{ "type": "Feature", "properties": { "hex_id": 3024, "count": 1, "date": "2025-11-14", "n_files": 20, "pct": 5.0 }, "geometry": { "type": "Polygon", "coordinates": [ [ [ -73.4814672, 45.7317324 ], [ -73.4807627, 45.7577062 ], [ -73.5125528, 45.7711161 ], [ -73.545034, 45.7585429 ], [ -73.5457087, 45.7325684 ], [ -73.5139321, 45.7191678 ], [ -73.4814672, 45.7317324 ] ] ] } },
{ "type": "Feature", "properties": { "hex_id": 3086, "count": 1, "date": "2025-11-14", "n_files": 20, "pct": 5.0 }, "geometry": { "type": "Polygon", "coordinates": [ [ [ -73.4525729, 45.6144191 ], [ -73.4518578, 45.640393 ], [ -73.4835751, 45.6538103 ], [ -73.515994, 45.6412444 ], [ -73.5166794, 45.6152696 ], [ -73.4849755, 45.6018616 ], [ -73.4525729, 45.6144191 ] ] ] } },
{ "type": "Feature", "properties": { "hex_id": 4746, "count": 2, "date": "2025-11-14", "n_files": 20, "pct": 10.0 }, "geometry": { "type": "Polygon", "coordinates": [ [ [ -72.6325726, 45.2885479 ], [ -72.6314912, 45.3145106 ], [ -72.6628252, 45.328149 ], [ -72.6952282, 45.3158153 ], [ -72.6962805, 45.2898514 ], [ -72.6649589, 45.2762224 ], [ -72.6325726, 45.2885479 ] ] ] } },
{ "type": "Feature", "properties": { "hex_id": 5257, "count": 2, "date": "2025-11-14", "n_files": 20, "pct": 10.0 }, "geometry": { "type": "Polygon", "coordinates": [ [ [ -72.3813685, 45.2051051 ], [ -72.380176, 45.2310632 ], [ -72.4114016, 45.2447684 ], [ -72.4438077, 45.2325061 ], [ -72.4449714, 45.2065466 ], [ -72.4137578, 45.1928508 ], [ -72.3813685, 45.2051051 ] ] ] } },
{ "type": "Feature", "properties": { "hex_id": 5320, "count": 2, "date": "2025-11-14", "n_files": 20, "pct": 10.0 }, "geometry": { "type": "Polygon", "coordinates": [ [ [ -72.3549802, 45.0875606 ], [ -72.3537806, 45.1135187 ], [ -72.3849365, 45.1272298 ], [ -72.4172802, 45.1149734 ], [ -72.4184512, 45.089014 ], [ -72.3873072, 45.0753123 ], [ -72.3549802, 45.0875606 ] ] ] } },
{ "type": "Feature", "properties": { "hex_id": 5384, "count": 2, "date": "2025-11-14", "n_files": 20, "pct": 10.0 }, "geometry": { "type": "Polygon", "coordinates": [ [ [ -72.321425, 45.1257569 ], [ -72.3202085, 45.1517141 ], [ -72.3513764, 45.1654346 ], [ -72.3837488, 45.1531884 ], [ -72.3849365, 45.1272298 ], [ -72.3537806, 45.1135187 ], [ -72.321425, 45.1257569 ] ] ] } },
{ "type": "Feature", "properties": { "hex_id": 5448, "count": 2, "date": "2025-11-14", "n_files": 20, "pct": 10.0 }, "geometry": { "type": "Polygon", "coordinates": [ [ [ -72.2915142, 45.0860721 ], [ -72.2902858, 45.1120288 ], [ -72.321425, 45.1257569 ], [ -72.3537806, 45.1135187 ], [ -72.3549802, 45.0875606 ], [ -72.323853, 45.073842 ], [ -72.2915142, 45.0860721 ] ] ] } },
{ "type": "Feature", "properties": { "hex_id": 5969, "count": 14, "date": "2025-11-14", "n_files": 20, "pct": 70.0 }, "geometry": { "type": "Polygon", "coordinates": [ [ [ -72.0007889, 45.7803926 ], [ -71.9993955, 45.8063397 ], [ -72.0308362, 45.8201535 ], [ -72.0636583, 45.8080107 ], [ -72.065022, 45.7820621 ], [ -72.0335933, 45.7682579 ], [ -72.0007889, 45.7803926 ] ] ] } },
{ "type": "Feature", "properties": { "hex_id": 6033, "count": 14, "date": "2025-11-14", "n_files": 20, "pct": 70.0 }, "geometry": { "type": "Polygon", "coordinates": [ [ [ -71.9665613, 45.8184637 ], [ -71.9651501, 45.8444097 ], [ -71.9966029, 45.8582333 ], [ -72.0294548, 45.8461011 ], [ -72.0308362, 45.8201535 ], [ -71.9993955, 45.8063397 ], [ -71.9665613, 45.8184637 ] ] ] } },
{ "type": "Feature", "properties": { "hex_id": 6097, "count": 14, "date": "2025-11-14", "n_files": 20, "pct": 70.0 }, "geometry": { "type": "Polygon", "coordinates": [ [ [ -71.9365615, 45.7786871 ], [ -71.9351383, 45.8046326 ], [ -71.9665613, 45.8184637 ], [ -71.9993955, 45.8063397 ], [ -72.0007889, 45.7803926 ], [ -71.9693779, 45.7665711 ], [ -71.9365615, 45.7786871 ] ] ] } },
{ "type": "Feature", "properties": { "hex_id": 6161, "count": 14, "date": "2025-11-14", "n_files": 20, "pct": 70.0 }, "geometry": { "type": "Polygon", "coordinates": [ [ [ -71.9022922, 45.8167378 ], [ -71.9008512, 45.8426823 ], [ -71.9322862, 45.8565231 ], [ -71.9651501, 45.8444097 ], [ -71.9665613, 45.8184637 ], [ -71.9351383, 45.8046326 ], [ -71.9022922, 45.8167378 ] ] ] } },
{ "type": "Feature", "properties": { "hex_id": 6225, "count": 14, "date": "2025-11-14", "n_files": 20, "pct": 70.0 }, "geometry": { "type": "Polygon", "coordinates": [ [ [ -71.8723399, 45.7769454 ], [ -71.870887, 45.8028894 ], [ -71.9022922, 45.8167378 ], [ -71.9351383, 45.8046326 ], [ -71.9365615, 45.7786871 ], [ -71.9051682, 45.7648483 ], [ -71.8723399, 45.7769454 ] ] ] } },
{ "type": "Feature", "properties": { "hex_id": 6710, "count": 11, "date": "2025-11-14", "n_files": 20, "pct": 55.0 }, "geometry": { "type": "Polygon", "coordinates": [ [ [ -71.4582159, 48.6875948 ], [ -71.4563946, 48.7135146 ], [ -71.489413, 48.7275145 ], [ -71.5242391, 48.7155837 ], [ -71.5260257, 48.6896621 ], [ -71.4930209, 48.675673 ], [ -71.4582159, 48.6875948 ] ] ] } },
{ "type": "Feature", "properties": { "hex_id": 6838, "count": 11, "date": "2025-11-14", "n_files": 20, "pct": 55.0 }, "geometry": { "type": "Polygon", "coordinates": [ [ [ -71.390414, 48.6854878 ], [ -71.388558, 48.7114056 ], [ -71.421555, 48.7254245 ], [ -71.4563946, 48.7135146 ], [ -71.4582159, 48.6875948 ], [ -71.4252323, 48.6735868 ], [ -71.390414, 48.6854878 ] ] ] } },
{ "type": "Feature", "properties": { "hex_id": 6902, "count": 7, "date": "2025-11-14", "n_files": 20, "pct": 35.0 }, "geometry": { "type": "Polygon", "coordinates": [ [ [ -71.3593209, 48.6455436 ], [ -71.3574516, 48.6714608 ], [ -71.390414, 48.6854878 ], [ -71.4252323, 48.6735868 ], [ -71.427067, 48.6476677 ], [ -71.394118, 48.6336515 ], [ -71.3593209, 48.6455436 ] ] ] } },
{ "type": "Feature", "properties": { "hex_id": 7197, "count": 3, "date": "2025-11-14", "n_files": 20, "pct": 15.0 }, "geometry": { "type": "Polygon", "coordinates": [ [ [ -71.3264475, 46.7350387 ], [ -71.3246833, 46.7609636 ], [ -71.3564796, 46.7749724 ], [ -71.390028, 46.7630462 ], [ -71.3917609, 46.7371195 ], [ -71.3599766, 46.7231208 ], [ -71.3264475, 46.7350387 ] ] ] } },
{ "type": "Feature", "properties": { "hex_id": 7414, "count": 10, "date": "2025-11-14", "n_files": 20, "pct": 50.0 }, "geometry": { "type": "Polygon", "coordinates": [ [ [ -71.0884176, 48.6366495 ], [ -71.08641, 48.6625586 ], [ -71.1192867, 48.6766612 ], [ -71.1541579, 48.6648438 ], [ -71.156131, 48.6389327 ], [ -71.1232673, 48.6248409 ], [ -71.0884176, 48.6366495 ] ] ] } },
{ "type": "Feature", "properties": { "hex_id": 7475, "count": 2, "date": "2025-11-14", "n_files": 20, "pct": 10.0 }, "geometry": { "type": "Polygon", "coordinates": [ [ [ -71.0696592, 48.441177 ], [ -71.067655800000011, 48.4670864 ], [ -71.1004034, 48.4811913 ], [ -71.1351416, 48.4693759 ], [ -71.1371108, 48.4434644 ], [ -71.104376, 48.4293704 ], [ -71.0696592, 48.441177 ] ] ] } },
{ "type": "Feature", "properties": { "hex_id": 7539, "count": 2, "date": "2025-11-14", "n_files": 20, "pct": 10.0 }, "geometry": { "type": "Polygon", "coordinates": [ [ [ -71.0389619, 48.4011557 ], [ -71.0369457, 48.4270643 ], [ -71.0696592, 48.441177 ], [ -71.104376, 48.4293704 ], [ -71.1063581, 48.4034597 ], [ -71.0736574, 48.3893577 ], [ -71.0389619, 48.4011557 ] ] ] } },
{ "type": "Feature", "properties": { "hex_id": 7603, "count": 2, "date": "2025-11-14", "n_files": 20, "pct": 10.0 }, "geometry": { "type": "Polygon", "coordinates": [ [ [ -71.002216, 48.4388502 ], [ -71.0001785, 48.4647575 ], [ -71.0329047, 48.478881 ], [ -71.067655800000011, 48.4670864 ], [ -71.0696592, 48.441177 ], [ -71.0369457, 48.4270643 ], [ -71.002216, 48.4388502 ] ] ] } },
{ "type": "Feature", "properties": { "hex_id": 7668, "count": 4, "date": "2025-11-14", "n_files": 20, "pct": 20.0 }, "geometry": { "type": "Polygon", "coordinates": [ [ [ -70.9654147, 48.4765312 ], [ -70.9633557, 48.5024372 ], [ -70.9960947, 48.5165715 ], [ -71.03088, 48.5047891 ], [ -71.0329047, 48.478881 ], [ -71.0001785, 48.4647575 ], [ -70.9654147, 48.4765312 ] ] ] } }
]
}
