{
"type": "FeatureCollection",
"name": "daily_2025-12-10",
"crs": { "type": "name", "properties": { "name": "urn:ogc:def:crs:OGC:1.3:CRS84" } },
"features": [
{ "type": "Feature", "properties": { "hex_id": 663, "count": 1, "date": "2025-12-10", "n_files": 22, "pct": 4.55 }, "geometry": { "type": "Polygon", "coordinates": [ [ [ -74.6667793, 46.3259254 ], [ -74.6666214, 46.351905099999989 ], [ -74.6990425, 46.3649851 ], [ -74.7316064, 46.3520761 ], [ -74.7317334, 46.3260962 ], [ -74.6993274, 46.3130254 ], [ -74.6667793, 46.3259254 ] ] ] } },
{ "type": "Feature", "properties": { "hex_id": 728, "count": 1, "date": "2025-12-10", "n_files": 22, "pct": 4.55 }, "geometry": { "type": "Polygon", "coordinates": [ [ [ -74.6340425, 46.3647956 ], [ -74.6338689, 46.3907751 ], [ -74.666305, 46.4038643 ], [ -74.6988997, 46.3909648 ], [ -74.6990425, 46.3649851 ], [ -74.6666214, 46.351905099999989 ], [ -74.6340425, 46.3647956 ] ] ] } },
{ "type": "Feature", "properties": { "hex_id": 853, "count": 1, "date": "2025-12-10", "n_files": 22, "pct": 4.55 }, "geometry": { "type": "Polygon", "coordinates": [ [ [ -74.5708704, 46.1307501 ], [ -74.5706685, 46.1567304 ], [ -74.6029521, 46.1698377 ], [ -74.6354227, 46.1569553 ], [ -74.6355942, 46.1309747 ], [ -74.6033254, 46.1178767 ], [ -74.5708704, 46.1307501 ] ] ] } },
{ "type": "Feature", "properties": { "hex_id": 910, "count": 7, "date": "2025-12-10", "n_files": 22, "pct": 31.82 }, "geometry": { "type": "Polygon", "coordinates": [ [ [ -74.542684, 45.6239851 ], [ -74.5424726, 45.6499677 ], [ -74.5744578, 45.663083 ], [ -74.60664, 45.6502067 ], [ -74.6068218, 45.6242239 ], [ -74.574851, 45.6111176 ], [ -74.542684, 45.6239851 ] ] ] } },
{ "type": "Feature", "properties": { "hex_id": 911, "count": 7, "date": "2025-12-10", "n_files": 22, "pct": 31.82 }, "geometry": { "type": "Polygon", "coordinates": [ [ [ -74.5420489, 45.7019325 ], [ -74.5418366, 45.7279148 ], [ -74.573866, 45.7410302 ], [ -74.6060933, 45.7281544 ], [ -74.6062758, 45.7021719 ], [ -74.5742608, 45.6890655 ], [ -74.5420489, 45.7019325 ] ] ] } },
{ "type": "Feature", "properties": { "hex_id": 916, "count": 1, "date": "2025-12-10", "n_files": 22, "pct": 4.55 }, "geometry": { "type": "Polygon", "coordinates": [ [ [ -74.538834, 46.0916534 ], [ -74.5386173, 46.1176338 ], [ -74.5708704, 46.1307501 ], [ -74.6033254, 46.1178767 ], [ -74.6035117, 46.091896 ], [ -74.5712734, 46.078789 ], [ -74.538834, 46.0916534 ] ] ] } },
{ "type": "Feature", "properties": { "hex_id": 917, "count": 5, "date": "2025-12-10", "n_files": 22, "pct": 22.73 }, "geometry": { "type": "Polygon", "coordinates": [ [ [ -74.538183, 46.1695943 ], [ -74.5379655, 46.1955744 ], [ -74.570263900000015, 46.2086908 ], [ -74.602765, 46.195818 ], [ -74.6029521, 46.1698377 ], [ -74.5706685, 46.1567304 ], [ -74.538183, 46.1695943 ] ] ] } },
{ "type": "Feature", "properties": { "hex_id": 975, "count": 7, "date": "2025-12-10", "n_files": 22, "pct": 31.82 }, "geometry": { "type": "Polygon", "coordinates": [ [ [ -74.5102759, 45.6628259 ], [ -74.5100492, 45.6888082 ], [ -74.5420489, 45.7019325 ], [ -74.5742608, 45.6890655 ], [ -74.5744578, 45.663083 ], [ -74.5424726, 45.6499677 ], [ -74.5102759, 45.6628259 ] ] ] } },
{ "type": "Feature", "properties": { "hex_id": 1344, "count": 1, "date": "2025-12-10", "n_files": 22, "pct": 4.55 }, "geometry": { "type": "Polygon", "coordinates": [ [ [ -74.3002125, 49.5189731 ], [ -74.2998418, 49.5449369 ], [ -74.3342214, 49.5581227 ], [ -74.3689542, 49.5453344 ], [ -74.3692884, 49.5193703 ], [ -74.3349263, 49.5061948 ], [ -74.3002125, 49.5189731 ] ] ] } },
{ "type": "Feature", "properties": { "hex_id": 1408, "count": 1, "date": "2025-12-10", "n_files": 22, "pct": 4.55 }, "geometry": { "type": "Polygon", "coordinates": [ [ [ -74.2662577, 49.4798135 ], [ -74.2658695, 49.5057772 ], [ -74.3002125, 49.5189731 ], [ -74.3349263, 49.5061948 ], [ -74.335278, 49.4802307 ], [ -74.3009525, 49.4670452 ], [ -74.2662577, 49.4798135 ] ] ] } },
{ "type": "Feature", "properties": { "hex_id": 1472, "count": 1, "date": "2025-12-10", "n_files": 22, "pct": 4.55 }, "geometry": { "type": "Polygon", "coordinates": [ [ [ -74.2311383, 49.5185347 ], [ -74.2307309, 49.5444981 ], [ -74.2650914, 49.5577044 ], [ -74.2998418, 49.5449369 ], [ -74.3002125, 49.5189731 ], [ -74.2658695, 49.5057772 ], [ -74.2311383, 49.5185347 ] ] ] } },
{ "type": "Feature", "properties": { "hex_id": 1490, "count": 2, "date": "2025-12-10", "n_files": 22, "pct": 9.09 }, "geometry": { "type": "Polygon", "coordinates": [ [ [ -74.2504323, 45.895262 ], [ -74.2500825, 45.9212419 ], [ -74.2821529, 45.9344389 ], [ -74.3145588, 45.9216468 ], [ -74.3148785, 45.8956665 ], [ -74.2828224, 45.8824787 ], [ -74.2504323, 45.895262 ] ] ] } },
{ "type": "Feature", "properties": { "hex_id": 1536, "count": 1, "date": "2025-12-10", "n_files": 22, "pct": 4.55 }, "geometry": { "type": "Polygon", "coordinates": [ [ [ -74.1972391, 49.4793551 ], [ -74.1968144, 49.5053184 ], [ -74.2311383, 49.5185347 ], [ -74.2658695, 49.5057772 ], [ -74.2662577, 49.4798135 ], [ -74.2319512, 49.4666076 ], [ -74.1972391, 49.4793551 ] ] ] } },
{ "type": "Feature", "properties": { "hex_id": 1553, "count": 3, "date": "2025-12-10", "n_files": 22, "pct": 13.64 }, "geometry": { "type": "Polygon", "coordinates": [ [ [ -74.218756, 45.8560762 ], [ -74.2183919, 45.8820561 ], [ -74.2504323, 45.895262 ], [ -74.2828224, 45.8824787 ], [ -74.2831565, 45.8564984 ], [ -74.2511304, 45.8433017 ], [ -74.218756, 45.8560762 ] ] ] } },
{ "type": "Feature", "properties": { "hex_id": 1599, "count": 1, "date": "2025-12-10", "n_files": 22, "pct": 4.55 }, "geometry": { "type": "Polygon", "coordinates": [ [ [ -74.1633938, 49.4401656 ], [ -74.1629517, 49.4661288 ], [ -74.1972391, 49.4793551 ], [ -74.2319512, 49.4666076 ], [ -74.2323568, 49.4406439 ], [ -74.1980867, 49.4274281 ], [ -74.1633938, 49.4401656 ] ] ] } },
{ "type": "Feature", "properties": { "hex_id": 1600, "count": 1, "date": "2025-12-10", "n_files": 22, "pct": 4.55 }, "geometry": { "type": "Polygon", "coordinates": [ [ [ -74.1620658, 49.5180551 ], [ -74.1616218, 49.544018 ], [ -74.1959631, 49.5572447 ], [ -74.2307309, 49.5444981 ], [ -74.2311383, 49.5185347 ], [ -74.1968144, 49.5053184 ], [ -74.1620658, 49.5180551 ] ] ] } },
{ "type": "Feature", "properties": { "hex_id": 1618, "count": 3, "date": "2025-12-10", "n_files": 22, "pct": 13.64 }, "geometry": { "type": "Polygon", "coordinates": [ [ [ -74.1859875, 45.894821 ], [ -74.1856077, 45.9208006 ], [ -74.2176623, 45.9340156 ], [ -74.2500825, 45.9212419 ], [ -74.2504323, 45.895262 ], [ -74.2183919, 45.8820561 ], [ -74.1859875, 45.894821 ] ] ] } },
{ "type": "Feature", "properties": { "hex_id": 1663, "count": 1, "date": "2025-12-10", "n_files": 22, "pct": 4.55 }, "geometry": { "type": "Polygon", "coordinates": [ [ [ -74.1296021, 49.4009662 ], [ -74.1291428, 49.4269294 ], [ -74.1633938, 49.4401656 ], [ -74.1980867, 49.4274281 ], [ -74.1985096, 49.4014644 ], [ -74.1642759, 49.3882386 ], [ -74.1296021, 49.4009662 ] ] ] } },
{ "type": "Feature", "properties": { "hex_id": 1664, "count": 1, "date": "2025-12-10", "n_files": 22, "pct": 4.55 }, "geometry": { "type": "Polygon", "coordinates": [ [ [ -74.1282223, 49.4788555 ], [ -74.1277611, 49.5048184 ], [ -74.1620658, 49.5180551 ], [ -74.1968144, 49.5053184 ], [ -74.1972391, 49.4793551 ], [ -74.1629517, 49.4661288 ], [ -74.1282223, 49.4788555 ] ] ] } },
{ "type": "Feature", "properties": { "hex_id": 1684, "count": 2, "date": "2025-12-10", "n_files": 22, "pct": 9.09 }, "geometry": { "type": "Polygon", "coordinates": [ [ [ -74.1507908, 46.089429 ], [ -74.1503918, 46.1154075 ], [ -74.1825499, 46.1286326 ], [ -74.215092700000014, 46.1158701 ], [ -74.2154613, 46.0898912 ], [ -74.1833175, 46.0766753 ], [ -74.1507908, 46.089429 ] ] ] } },
{ "type": "Feature", "properties": { "hex_id": 1727, "count": 1, "date": "2025-12-10", "n_files": 22, "pct": 4.55 }, "geometry": { "type": "Polygon", "coordinates": [ [ [ -74.0944326, 49.4396461 ], [ -74.0939542, 49.4656089 ], [ -74.1282223, 49.4788555 ], [ -74.1629517, 49.4661288 ], [ -74.1633938, 49.4401656 ], [ -74.1291428, 49.4269294 ], [ -74.0944326, 49.4396461 ] ] ] } },
{ "type": "Feature", "properties": { "hex_id": 1740, "count": 2, "date": "2025-12-10", "n_files": 22, "pct": 9.09 }, "geometry": { "type": "Polygon", "coordinates": [ [ [ -74.1288277, 45.4266989 ], [ -74.1284277, 45.4526802 ], [ -74.1602039, 45.4659103 ], [ -74.1923661, 45.4531502 ], [ -74.1927367, 45.4271684 ], [ -74.1609745, 45.4139473 ], [ -74.1288277, 45.4266989 ] ] ] } },
{ "type": "Feature", "properties": { "hex_id": 1748, "count": 2, "date": "2025-12-10", "n_files": 22, "pct": 9.09 }, "geometry": { "type": "Polygon", "coordinates": [ [ [ -74.1190763, 46.0502167 ], [ -74.118663, 46.0761951 ], [ -74.1507908, 46.089429 ], [ -74.1833175, 46.0766753 ], [ -74.1837005, 46.0506965 ], [ -74.1515871, 46.0374718 ], [ -74.1190763, 46.0502167 ] ] ] } },
{ "type": "Feature", "properties": { "hex_id": 1749, "count": 2, "date": "2025-12-10", "n_files": 22, "pct": 9.09 }, "geometry": { "type": "Polygon", "coordinates": [ [ [ -74.1178347, 46.1281515 ], [ -74.1174197, 46.1541295 ], [ -74.1495922, 46.167364 ], [ -74.1821654, 46.1546111 ], [ -74.1825499, 46.1286326 ], [ -74.1503918, 46.1154075 ], [ -74.1178347, 46.1281515 ] ] ] } },
{ "type": "Feature", "properties": { "hex_id": 1803, "count": 2, "date": "2025-12-10", "n_files": 22, "pct": 9.09 }, "geometry": { "type": "Polygon", "coordinates": [ [ [ -74.0974946, 45.3874788 ], [ -74.0970809, 45.4134601 ], [ -74.1288277, 45.4266989 ], [ -74.1609745, 45.4139473 ], [ -74.161359, 45.3879656 ], [ -74.129626, 45.3747359 ], [ -74.0974946, 45.3874788 ] ] ] } },
{ "type": "Feature", "properties": { "hex_id": 1811, "count": 2, "date": "2025-12-10", "n_files": 22, "pct": 9.09 }, "geometry": { "type": "Polygon", "coordinates": [ [ [ -74.0874065, 46.0109956 ], [ -74.0869789, 46.0369739 ], [ -74.1190763, 46.0502167 ], [ -74.1515871, 46.0374718 ], [ -74.1519844, 46.011493 ], [ -74.1199013, 45.998259499999989 ], [ -74.0874065, 46.0109956 ] ] ] } },
{ "type": "Feature", "properties": { "hex_id": 1812, "count": 2, "date": "2025-12-10", "n_files": 22, "pct": 9.09 }, "geometry": { "type": "Polygon", "coordinates": [ [ [ -74.0861219, 46.0889303 ], [ -74.0856926, 46.1149082 ], [ -74.1178347, 46.1281515 ], [ -74.1503918, 46.1154075 ], [ -74.1507908, 46.089429 ], [ -74.118663, 46.0761951 ], [ -74.0861219, 46.0889303 ] ] ] } },
{ "type": "Feature", "properties": { "hex_id": 1875, "count": 2, "date": "2025-12-10", "n_files": 22, "pct": 9.09 }, "geometry": { "type": "Polygon", "coordinates": [ [ [ -74.0557811, 45.9717658 ], [ -74.0553393, 45.9977441 ], [ -74.0874065, 46.0109956 ], [ -74.1199013, 45.998259499999989 ], [ -74.1203129, 45.9722808 ], [ -74.0882599, 45.9590385 ], [ -74.0557811, 45.9717658 ] ] ] } },
{ "type": "Feature", "properties": { "hex_id": 1876, "count": 2, "date": "2025-12-10", "n_files": 22, "pct": 9.09 }, "geometry": { "type": "Polygon", "coordinates": [ [ [ -74.0544538, 46.0497003 ], [ -74.0540102, 46.0756782 ], [ -74.0861219, 46.0889303 ], [ -74.118663, 46.0761951 ], [ -74.1190763, 46.0502167 ], [ -74.0869789, 46.0369739 ], [ -74.0544538, 46.0497003 ] ] ] } },
{ "type": "Feature", "properties": { "hex_id": 1877, "count": 2, "date": "2025-12-10", "n_files": 22, "pct": 9.09 }, "geometry": { "type": "Polygon", "coordinates": [ [ [ -74.0531211, 46.1276337 ], [ -74.0526757, 46.1536113 ], [ -74.0848321, 46.1668638 ], [ -74.1174197, 46.1541295 ], [ -74.1178347, 46.1281515 ], [ -74.0856926, 46.1149082 ], [ -74.0531211, 46.1276337 ] ] ] } },
{ "type": "Feature", "properties": { "hex_id": 1938, "count": 2, "date": "2025-12-10", "n_files": 22, "pct": 9.09 }, "geometry": { "type": "Polygon", "coordinates": [ [ [ -74.0242, 45.9325273 ], [ -74.023744, 45.9585056 ], [ -74.0557811, 45.9717658 ], [ -74.0882599, 45.9590385 ], [ -74.0886857, 45.9330598 ], [ -74.0566628, 45.9198088 ], [ -74.0242, 45.9325273 ] ] ] } },
{ "type": "Feature", "properties": { "hex_id": 1939, "count": 2, "date": "2025-12-10", "n_files": 22, "pct": 9.09 }, "geometry": { "type": "Polygon", "coordinates": [ [ [ -74.0228303, 46.0104617 ], [ -74.0223724, 46.0364395 ], [ -74.0544538, 46.0497003 ], [ -74.0869789, 46.0369739 ], [ -74.0874065, 46.0109956 ], [ -74.0553393, 45.9977441 ], [ -74.0228303, 46.0104617 ] ] ] } },
{ "type": "Feature", "properties": { "hex_id": 1940, "count": 2, "date": "2025-12-10", "n_files": 22, "pct": 9.09 }, "geometry": { "type": "Polygon", "coordinates": [ [ [ -74.0214549, 46.0883949 ], [ -74.0209951, 46.1143724 ], [ -74.0531211, 46.1276337 ], [ -74.0856926, 46.1149082 ], [ -74.0861219, 46.0889303 ], [ -74.0540102, 46.0756782 ], [ -74.0214549, 46.0883949 ] ] ] } },
{ "type": "Feature", "properties": { "hex_id": 2003, "count": 2, "date": "2025-12-10", "n_files": 22, "pct": 9.09 }, "geometry": { "type": "Polygon", "coordinates": [ [ [ -73.9912511, 45.9712144 ], [ -73.9907791, 45.9971922 ], [ -74.0228303, 46.0104617 ], [ -74.0553393, 45.9977441 ], [ -74.0557811, 45.9717658 ], [ -74.023744, 45.9585056 ], [ -73.9912511, 45.9712144 ] ] ] } },
{ "type": "Feature", "properties": { "hex_id": 2004, "count": 2, "date": "2025-12-10", "n_files": 22, "pct": 9.09 }, "geometry": { "type": "Polygon", "coordinates": [ [ [ -73.9898332, 46.0491474 ], [ -73.9893592, 46.0751248 ], [ -74.0214549, 46.0883949 ], [ -74.0540102, 46.0756782 ], [ -74.0544538, 46.0497003 ], [ -74.0223724, 46.0364395 ], [ -73.9898332, 46.0491474 ] ] ] } },
{ "type": "Feature", "properties": { "hex_id": 2005, "count": 2, "date": "2025-12-10", "n_files": 22, "pct": 9.09 }, "geometry": { "type": "Polygon", "coordinates": [ [ [ -73.9884094, 46.1270793 ], [ -73.9879335, 46.1530564 ], [ -74.0200738, 46.166327 ], [ -74.0526757, 46.1536113 ], [ -74.0531211, 46.1276337 ], [ -74.0209951, 46.1143724 ], [ -73.9884094, 46.1270793 ] ] ] } },
{ "type": "Feature", "properties": { "hex_id": 2066, "count": 2, "date": "2025-12-10", "n_files": 22, "pct": 9.09 }, "geometry": { "type": "Polygon", "coordinates": [ [ [ -73.9597161, 45.9319585 ], [ -73.9592301, 45.9579362 ], [ -73.9912511, 45.9712144 ], [ -74.023744, 45.9585056 ], [ -74.0242, 45.9325273 ], [ -73.9921931, 45.9192584 ], [ -73.9597161, 45.9319585 ] ] ] } },
{ "type": "Feature", "properties": { "hex_id": 2067, "count": 2, "date": "2025-12-10", "n_files": 22, "pct": 9.09 }, "geometry": { "type": "Polygon", "coordinates": [ [ [ -73.9582559, 46.0098913 ], [ -73.9577679, 46.0358686 ], [ -73.9898332, 46.0491474 ], [ -74.0223724, 46.0364395 ], [ -74.0228303, 46.0104617 ], [ -73.9907791, 45.9971922 ], [ -73.9582559, 46.0098913 ] ] ] } },
{ "type": "Feature", "properties": { "hex_id": 2068, "count": 2, "date": "2025-12-10", "n_files": 22, "pct": 9.09 }, "geometry": { "type": "Polygon", "coordinates": [ [ [ -73.9567897, 46.0878229 ], [ -73.9562996, 46.1137999 ], [ -73.9884094, 46.1270793 ], [ -74.0209951, 46.1143724 ], [ -74.0214549, 46.0883949 ], [ -73.9893592, 46.0751248 ], [ -73.9567897, 46.0878229 ] ] ] } },
{ "type": "Feature", "properties": { "hex_id": 2069, "count": 2, "date": "2025-12-10", "n_files": 22, "pct": 9.09 }, "geometry": { "type": "Polygon", "coordinates": [ [ [ -73.9553174, 46.1657535 ], [ -73.9548253, 46.1917301 ], [ -73.9869798, 46.2050101 ], [ -74.0196122, 46.1923041 ], [ -74.0200738, 46.166327 ], [ -73.9879335, 46.1530564 ], [ -73.9553174, 46.1657535 ] ] ] } },
{ "type": "Feature", "properties": { "hex_id": 2125, "count": 5, "date": "2025-12-10", "n_files": 22, "pct": 22.73 }, "geometry": { "type": "Polygon", "coordinates": [ [ [ -73.9356451, 45.5030148 ], [ -73.935155200000011, 45.5289943 ], [ -73.9669277, 45.542278 ], [ -73.9991765, 45.5295732 ], [ -73.999637, 45.5035932 ], [ -73.9678781, 45.4903185 ], [ -73.9356451, 45.5030148 ] ] ] } },
{ "type": "Feature", "properties": { "hex_id": 2131, "count": 2, "date": "2025-12-10", "n_files": 22, "pct": 9.09 }, "geometry": { "type": "Polygon", "coordinates": [ [ [ -73.926723, 45.9706265 ], [ -73.9262208, 45.996603799999988 ], [ -73.9582559, 46.0098913 ], [ -73.9907791, 45.9971922 ], [ -73.9912511, 45.9712144 ], [ -73.9592301, 45.9579362 ], [ -73.926723, 45.9706265 ] ] ] } },
{ "type": "Feature", "properties": { "hex_id": 2132, "count": 2, "date": "2025-12-10", "n_files": 22, "pct": 9.09 }, "geometry": { "type": "Polygon", "coordinates": [ [ [ -73.92521450000001, 46.048558 ], [ -73.9247102, 46.0745349 ], [ -73.9567897, 46.0878229 ], [ -73.9893592, 46.0751248 ], [ -73.9898332, 46.0491474 ], [ -73.9577679, 46.0358686 ], [ -73.92521450000001, 46.048558 ] ] ] } },
{ "type": "Feature", "properties": { "hex_id": 2133, "count": 2, "date": "2025-12-10", "n_files": 22, "pct": 9.09 }, "geometry": { "type": "Polygon", "coordinates": [ [ [ -73.9236997, 46.1264883 ], [ -73.9231934, 46.1524648 ], [ -73.9553174, 46.1657535 ], [ -73.9879335, 46.1530564 ], [ -73.9884094, 46.1270793 ], [ -73.9562996, 46.1137999 ], [ -73.9236997, 46.1264883 ] ] ] } },
{ "type": "Feature", "properties": { "hex_id": 2196, "count": 2, "date": "2025-12-10", "n_files": 22, "pct": 9.09 }, "geometry": { "type": "Polygon", "coordinates": [ [ [ -73.8921265, 46.0872144 ], [ -73.8916061, 46.1131909 ], [ -73.9236997, 46.1264883 ], [ -73.9562996, 46.1137999 ], [ -73.9567897, 46.0878229 ], [ -73.9247102, 46.0745349 ], [ -73.8921265, 46.0872144 ] ] ] } },
{ "type": "Feature", "properties": { "hex_id": 2197, "count": 2, "date": "2025-12-10", "n_files": 22, "pct": 9.09 }, "geometry": { "type": "Polygon", "coordinates": [ [ [ -73.890563, 46.1651434 ], [ -73.8900404, 46.1911194 ], [ -73.9221786, 46.2044175 ], [ -73.9548253, 46.1917301 ], [ -73.9553174, 46.1657535 ], [ -73.9231934, 46.1524648 ], [ -73.890563, 46.1651434 ] ] ] } },
{ "type": "Feature", "properties": { "hex_id": 2253, "count": 5, "date": "2025-12-10", "n_files": 22, "pct": 22.73 }, "geometry": { "type": "Polygon", "coordinates": [ [ [ -73.8716552, 45.5024006 ], [ -73.8711359, 45.5283795 ], [ -73.9028927, 45.5416809 ], [ -73.935155200000011, 45.5289943 ], [ -73.9356451, 45.5030148 ], [ -73.903902, 45.4897225 ], [ -73.8716552, 45.5024006 ] ] ] } },
{ "type": "Feature", "properties": { "hex_id": 2261, "count": 2, "date": "2025-12-10", "n_files": 22, "pct": 9.09 }, "geometry": { "type": "Polygon", "coordinates": [ [ [ -73.858992, 46.1258606 ], [ -73.8584553, 46.1518366 ], [ -73.890563, 46.1651434 ], [ -73.9231934, 46.1524648 ], [ -73.9236997, 46.1264883 ], [ -73.8916061, 46.1131909 ], [ -73.858992, 46.1258606 ] ] ] } },
{ "type": "Feature", "properties": { "hex_id": 2262, "count": 2, "date": "2025-12-10", "n_files": 22, "pct": 9.09 }, "geometry": { "type": "Polygon", "coordinates": [ [ [ -73.8573796, 46.2037881 ], [ -73.8568406, 46.2297637 ], [ -73.888993, 46.243071199999989 ], [ -73.9216702, 46.2303936 ], [ -73.9221786, 46.2044175 ], [ -73.8900404, 46.1911194 ], [ -73.8573796, 46.2037881 ] ] ] } },
{ "type": "Feature", "properties": { "hex_id": 2325, "count": 2, "date": "2025-12-10", "n_files": 22, "pct": 9.09 }, "geometry": { "type": "Polygon", "coordinates": [ [ [ -73.8258108, 46.1644965 ], [ -73.8252577, 46.190472 ], [ -73.8573796, 46.2037881 ], [ -73.8900404, 46.1911194 ], [ -73.890563, 46.1651434 ], [ -73.8584553, 46.1518366 ], [ -73.8258108, 46.1644965 ] ] ] } },
{ "type": "Feature", "properties": { "hex_id": 2380, "count": 8, "date": "2025-12-10", "n_files": 22, "pct": 36.36 }, "geometry": { "type": "Polygon", "coordinates": [ [ [ -73.8093094, 45.4238147 ], [ -73.8087629, 45.4497934 ], [ -73.8404609, 45.4631118 ], [ -73.8726918, 45.4504423 ], [ -73.8732091, 45.4244631 ], [ -73.8415247, 45.4111538 ], [ -73.8093094, 45.4238147 ] ] ] } },
{ "type": "Feature", "properties": { "hex_id": 2507, "count": 6, "date": "2025-12-10", "n_files": 22, "pct": 27.27 }, "geometry": { "type": "Polygon", "coordinates": [ [ [ -73.7471349, 45.3451957 ], [ -73.7465614, 45.3711741 ], [ -73.7782008, 45.3845093 ], [ -73.8104003, 45.371857 ], [ -73.810944600000013, 45.3458779 ], [ -73.7793187, 45.3325518 ], [ -73.7471349, 45.3451957 ] ] ] } },
{ "type": "Feature", "properties": { "hex_id": 2571, "count": 6, "date": "2025-12-10", "n_files": 22, "pct": 27.27 }, "geometry": { "type": "Polygon", "coordinates": [ [ [ -73.7143484, 45.3838084 ], [ -73.7137591, 45.4097863 ], [ -73.745412, 45.4231307 ], [ -73.7776408, 45.4104879 ], [ -73.7782008, 45.3845093 ], [ -73.7465614, 45.3711741 ], [ -73.7143484, 45.3838084 ] ] ] } },
{ "type": "Feature", "properties": { "hex_id": 2573, "count": 1, "date": "2025-12-10", "n_files": 22, "pct": 4.55 }, "geometry": { "type": "Polygon", "coordinates": [ [ [ -73.7108004, 45.5396742 ], [ -73.7102063, 45.5656515 ], [ -73.7419449, 45.5789974 ], [ -73.7742642, 45.5663569 ], [ -73.7748289, 45.540379 ], [ -73.7431038, 45.5270423 ], [ -73.7108004, 45.5396742 ] ] ] } },
{ "type": "Feature", "properties": { "hex_id": 2638, "count": 3, "date": "2025-12-10", "n_files": 22, "pct": 13.64 }, "geometry": { "type": "Polygon", "coordinates": [ [ [ -73.6778734, 45.5782737 ], [ -73.6772632, 45.6042504 ], [ -73.7090155, 45.6176055 ], [ -73.7413643, 45.6049747 ], [ -73.7419449, 45.5789974 ], [ -73.7102063, 45.5656515 ], [ -73.6778734, 45.5782737 ] ] ] } },
{ "type": "Feature", "properties": { "hex_id": 2765, "count": 1, "date": "2025-12-10", "n_files": 22, "pct": 4.55 }, "geometry": { "type": "Polygon", "coordinates": [ [ [ -73.6157183, 45.4995853 ], [ -73.6150812, 45.5255617 ], [ -73.6467744, 45.5389336 ], [ -73.6790912, 45.5263199 ], [ -73.6796989, 45.5003429 ], [ -73.6480191, 45.4869801 ], [ -73.6157183, 45.4995853 ] ] ] } },
{ "type": "Feature", "properties": { "hex_id": 2828, "count": 1, "date": "2025-12-10", "n_files": 22, "pct": 4.55 }, "geometry": { "type": "Polygon", "coordinates": [ [ [ -73.584705, 45.4602288 ], [ -73.5840545, 45.486205 ], [ -73.6157183, 45.4995853 ], [ -73.6480191, 45.4869801 ], [ -73.6486402, 45.4610032 ], [ -73.6169898, 45.4476322 ], [ -73.584705, 45.4602288 ] ] ] } },
{ "type": "Feature", "properties": { "hex_id": 2894, "count": 4, "date": "2025-12-10", "n_files": 22, "pct": 18.18 }, "geometry": { "type": "Polygon", "coordinates": [ [ [ -73.549738, 45.5767185 ], [ -73.5490687, 45.6026938 ], [ -73.5807888, 45.6160842 ], [ -73.6131647, 45.6034901 ], [ -73.6138044, 45.5775141 ], [ -73.5820977, 45.5641329 ], [ -73.549738, 45.5767185 ] ] ] } },
{ "type": "Feature", "properties": { "hex_id": 2955, "count": 6, "date": "2025-12-10", "n_files": 22, "pct": 27.27 }, "geometry": { "type": "Polygon", "coordinates": [ [ [ -73.5228063, 45.3814914 ], [ -73.5221292, 45.4074672 ], [ -73.5537343, 45.4208641 ], [ -73.5860032, 45.408276 ], [ -73.586651, 45.3822994 ], [ -73.5550592, 45.3689117 ], [ -73.5228063, 45.3814914 ] ] ] } },
{ "type": "Feature", "properties": { "hex_id": 3403, "count": 5, "date": "2025-12-10", "n_files": 22, "pct": 22.73 }, "geometry": { "type": "Polygon", "coordinates": [ [ [ -73.3005391, 45.3394226 ], [ -73.2997613, 45.3653959 ], [ -73.331289, 45.3788533 ], [ -73.3635813, 45.3663283 ], [ -73.3643299, 45.3403542 ], [ -73.3328153, 45.3269059 ], [ -73.3005391, 45.3394226 ] ] ] } },
{ "type": "Feature", "properties": { "hex_id": 3467, "count": 5, "date": "2025-12-10", "n_files": 22, "pct": 22.73 }, "geometry": { "type": "Polygon", "coordinates": [ [ [ -73.267456, 45.3779026 ], [ -73.266662, 45.4038753 ], [ -73.2982027, 45.417342 ], [ -73.3305242, 45.4048268 ], [ -73.331289, 45.3788533 ], [ -73.2997613, 45.3653959 ], [ -73.267456, 45.3779026 ] ] ] } },
{ "type": "Feature", "properties": { "hex_id": 3534, "count": 4, "date": "2025-12-10", "n_files": 22, "pct": 18.18 }, "geometry": { "type": "Polygon", "coordinates": [ [ [ -73.2294495, 45.5722022 ], [ -73.2286326, 45.5981734 ], [ -73.2602712, 45.6116517 ], [ -73.2927136, 45.5991494 ], [ -73.293501, 45.5731773 ], [ -73.2618755, 45.5597084 ], [ -73.2294495, 45.5722022 ] ] ] } },
{ "type": "Feature", "properties": { "hex_id": 3847, "count": 1, "date": "2025-12-10", "n_files": 22, "pct": 4.55 }, "geometry": { "type": "Polygon", "coordinates": [ [ [ -73.0864627, 45.0631879 ], [ -73.0855954, 45.0891594 ], [ -73.1169202, 45.1026733 ], [ -73.1490997, 45.0902066 ], [ -73.1499383, 45.0642342 ], [ -73.1186261, 45.0507294 ], [ -73.0864627, 45.0631879 ] ] ] } },
{ "type": "Feature", "properties": { "hex_id": 4701, "count": 4, "date": "2025-12-10", "n_files": 22, "pct": 18.18 }, "geometry": { "type": "Polygon", "coordinates": [ [ [ -72.6029495, 46.729958 ], [ -72.6017981, 46.7559136 ], [ -72.6339365, 46.7695727 ], [ -72.6672129, 46.7572664 ], [ -72.6683329, 46.7313096 ], [ -72.6362078, 46.7176603 ], [ -72.6029495, 46.729958 ] ] ] } },
{ "type": "Feature", "properties": { "hex_id": 4829, "count": 4, "date": "2025-12-10", "n_files": 22, "pct": 18.18 }, "geometry": { "type": "Polygon", "coordinates": [ [ [ -72.5375709, 46.728569 ], [ -72.5363882, 46.7545234 ], [ -72.5685084, 46.7682006 ], [ -72.6017981, 46.7559136 ], [ -72.6029495, 46.729958 ], [ -72.5708425, 46.7162906 ], [ -72.5375709, 46.728569 ] ] ] } },
{ "type": "Feature", "properties": { "hex_id": 5196, "count": 3, "date": "2025-12-10", "n_files": 22, "pct": 13.64 }, "geometry": { "type": "Polygon", "coordinates": [ [ [ -72.40429420000001, 45.4005177 ], [ -72.403104, 45.4264754 ], [ -72.434441, 45.4401764 ], [ -72.466956, 45.4279102 ], [ -72.4681171, 45.4019512 ], [ -72.4367922, 45.3882597 ], [ -72.40429420000001, 45.4005177 ] ] ] } },
{ "type": "Feature", "properties": { "hex_id": 5260, "count": 3, "date": "2025-12-10", "n_files": 22, "pct": 13.64 }, "geometry": { "type": "Polygon", "coordinates": [ [ [ -72.3705767, 45.4387232 ], [ -72.3693695, 45.46468 ], [ -72.4007187, 45.4783905 ], [ -72.433263, 45.4661346 ], [ -72.434441, 45.4401764 ], [ -72.403104, 45.4264754 ], [ -72.3705767, 45.4387232 ] ] ] } },
{ "type": "Feature", "properties": { "hex_id": 5294, "count": 2, "date": "2025-12-10", "n_files": 22, "pct": 9.09 }, "geometry": { "type": "Polygon", "coordinates": [ [ [ -72.2384459, 48.0855745 ], [ -72.2370552, 48.1115165 ], [ -72.2699156, 48.12529 ], [ -72.304153, 48.1131112 ], [ -72.30551, 48.087167799999989 ], [ -72.2726634, 48.0734046 ], [ -72.2384459, 48.0855745 ] ] ] } },
{ "type": "Feature", "properties": { "hex_id": 5295, "count": 2, "date": "2025-12-10", "n_files": 22, "pct": 9.09 }, "geometry": { "type": "Polygon", "coordinates": [ [ [ -72.2342678, 48.1634 ], [ -72.2328712, 48.1893415 ], [ -72.2657794, 48.203117 ], [ -72.3000703, 48.1909406 ], [ -72.3014331, 48.1649976 ], [ -72.2685388, 48.1512325 ], [ -72.2342678, 48.1634 ] ] ] } },
{ "type": "Feature", "properties": { "hex_id": 5342, "count": 5, "date": "2025-12-10", "n_files": 22, "pct": 22.73 }, "geometry": { "type": "Polygon", "coordinates": [ [ [ -72.2721777, 46.8004867 ], [ -72.2708643, 46.8264352 ], [ -72.302956, 46.8401863 ], [ -72.3363479, 46.8279789 ], [ -72.3376299, 46.802029 ], [ -72.3055513, 46.7882878 ], [ -72.2721777, 46.8004867 ] ] ] } },
{ "type": "Feature", "properties": { "hex_id": 5359, "count": 2, "date": "2025-12-10", "n_files": 22, "pct": 9.09 }, "geometry": { "type": "Polygon", "coordinates": [ [ [ -72.2028039, 48.123675 ], [ -72.2013934, 48.149616 ], [ -72.2342678, 48.1634 ], [ -72.2685388, 48.1512325 ], [ -72.2699156, 48.12529 ], [ -72.2370552, 48.1115165 ], [ -72.2028039, 48.123675 ] ] ] } },
{ "type": "Feature", "properties": { "hex_id": 5406, "count": 5, "date": "2025-12-10", "n_files": 22, "pct": 22.73 }, "geometry": { "type": "Polygon", "coordinates": [ [ [ -72.2374594, 46.8386232 ], [ -72.2361275, 46.8645708 ], [ -72.2682322, 46.8783319 ], [ -72.301655600000018, 46.8661354 ], [ -72.302956, 46.8401863 ], [ -72.2708643, 46.8264352 ], [ -72.2374594, 46.8386232 ] ] ] } },
{ "type": "Feature", "properties": { "hex_id": 5422, "count": 2, "date": "2025-12-10", "n_files": 22, "pct": 9.09 }, "geometry": { "type": "Polygon", "coordinates": [ [ [ -72.1713876, 48.0839421 ], [ -72.1699633, 48.1098826 ], [ -72.2028039, 48.123675 ], [ -72.2370552, 48.1115165 ], [ -72.2384459, 48.0855745 ], [ -72.2056191, 48.0717925 ], [ -72.1713876, 48.0839421 ] ] ] } },
{ "type": "Feature", "properties": { "hex_id": 5423, "count": 2, "date": "2025-12-10", "n_files": 22, "pct": 9.09 }, "geometry": { "type": "Polygon", "coordinates": [ [ [ -72.1671084, 48.1617632 ], [ -72.165678, 48.187703199999987 ], [ -72.1985663, 48.2014976 ], [ -72.2328712, 48.1893415 ], [ -72.2342678, 48.1634 ], [ -72.2013934, 48.149616 ], [ -72.1671084, 48.1617632 ] ] ] } },
{ "type": "Feature", "properties": { "hex_id": 5487, "count": 3, "date": "2025-12-10", "n_files": 22, "pct": 13.64 }, "geometry": { "type": "Polygon", "coordinates": [ [ [ -72.1356982, 48.1220208 ], [ -72.1342539, 48.1479603 ], [ -72.1671084, 48.1617632 ], [ -72.2013934, 48.149616 ], [ -72.2028039, 48.123675 ], [ -72.1699633, 48.1098826 ], [ -72.1356982, 48.1220208 ] ] ] } },
{ "type": "Feature", "properties": { "hex_id": 5512, "count": 4, "date": "2025-12-10", "n_files": 22, "pct": 18.18 }, "geometry": { "type": "Polygon", "coordinates": [ [ [ -72.2579184, 45.1242487 ], [ -72.2566731, 45.1502045 ], [ -72.2878241, 45.163942 ], [ -72.3202085, 45.1517141 ], [ -72.321425, 45.1257569 ], [ -72.2902858, 45.1120288 ], [ -72.2579184, 45.1242487 ] ] ] } },
{ "type": "Feature", "properties": { "hex_id": 5577, "count": 4, "date": "2025-12-10", "n_files": 22, "pct": 18.18 }, "geometry": { "type": "Polygon", "coordinates": [ [ [ -72.2242769, 45.162414 ], [ -72.2230147, 45.188369 ], [ -72.2541776, 45.2021159 ], [ -72.2865908, 45.1898983 ], [ -72.2878241, 45.163942 ], [ -72.2566731, 45.1502045 ], [ -72.2242769, 45.162414 ] ] ] } },
{ "type": "Feature", "properties": { "hex_id": 6090, "count": 1, "date": "2025-12-10", "n_files": 22, "pct": 4.55 }, "geometry": { "type": "Polygon", "coordinates": [ [ [ -71.9660029, 45.2337963 ], [ -71.96462, 45.259745 ], [ -71.9957549, 45.2735617 ], [ -72.0282613, 45.2614202 ], [ -72.0296153, 45.23547 ], [ -71.998492, 45.2216628 ], [ -71.9660029, 45.2337963 ] ] ] } },
{ "type": "Feature", "properties": { "hex_id": 6282, "count": 5, "date": "2025-12-10", "n_files": 22, "pct": 22.73 }, "geometry": { "type": "Polygon", "coordinates": [ [ [ -71.8684548, 45.270139 ], [ -71.8670256, 45.2960852 ], [ -71.8981549, 45.3099283 ], [ -71.9307017, 45.2978158 ], [ -71.932102, 45.2718681 ], [ -71.9009843, 45.2580345 ], [ -71.8684548, 45.270139 ] ] ] } },
{ "type": "Feature", "properties": { "hex_id": 6346, "count": 5, "date": "2025-12-10", "n_files": 22, "pct": 22.73 }, "geometry": { "type": "Polygon", "coordinates": [ [ [ -71.8387951, 45.2303429 ], [ -71.8373544, 45.2562885 ], [ -71.8684548, 45.270139 ], [ -71.9009843, 45.2580345 ], [ -71.9023961, 45.2320873 ], [ -71.8713073, 45.2182463 ], [ -71.8387951, 45.2303429 ] ] ] } },
{ "type": "Feature", "properties": { "hex_id": 6410, "count": 5, "date": "2025-12-10", "n_files": 22, "pct": 22.73 }, "geometry": { "type": "Polygon", "coordinates": [ [ [ -71.8048133, 45.2683746 ], [ -71.8033552, 45.2943191 ], [ -71.8344671, 45.3081792 ], [ -71.8670256, 45.2960852 ], [ -71.8684548, 45.270139 ], [ -71.8373544, 45.2562885 ], [ -71.8048133, 45.2683746 ] ] ] } },
{ "type": "Feature", "properties": { "hex_id": 7135, "count": 9, "date": "2025-12-10", "n_files": 22, "pct": 40.91 }, "geometry": { "type": "Polygon", "coordinates": [ [ [ -71.3512159, 46.8527485 ], [ -71.3494564, 46.8786736 ], [ -71.3813273, 46.8926774 ], [ -71.4149457, 46.8807459 ], [ -71.4166737, 46.854819 ], [ -71.3848148, 46.8408254 ], [ -71.3512159, 46.8527485 ] ] ] } },
{ "type": "Feature", "properties": { "hex_id": 7197, "count": 7, "date": "2025-12-10", "n_files": 22, "pct": 31.82 }, "geometry": { "type": "Polygon", "coordinates": [ [ [ -71.3264475, 46.7350387 ], [ -71.3246833, 46.7609636 ], [ -71.3564796, 46.7749724 ], [ -71.390028, 46.7630462 ], [ -71.3917609, 46.7371195 ], [ -71.3599766, 46.7231208 ], [ -71.3264475, 46.7350387 ] ] ] } },
{ "type": "Feature", "properties": { "hex_id": 7262, "count": 2, "date": "2025-12-10", "n_files": 22, "pct": 9.09 }, "geometry": { "type": "Polygon", "coordinates": [ [ [ -71.291123, 46.7728702 ], [ -71.2893396, 46.7987938 ], [ -71.3211478, 46.8128128 ], [ -71.3547275, 46.8008979 ], [ -71.3564796, 46.7749724 ], [ -71.3246833, 46.7609636 ], [ -71.291123, 46.7728702 ] ] ] } },
{ "type": "Feature", "properties": { "hex_id": 7264, "count": 3, "date": "2025-12-10", "n_files": 22, "pct": 13.64 }, "geometry": { "type": "Polygon", "coordinates": [ [ [ -71.2803853, 46.9284095 ], [ -71.278587, 46.9543322 ], [ -71.3104821, 46.968356299999989 ], [ -71.3441634, 46.9564477 ], [ -71.3459302, 46.9305231 ], [ -71.3140472, 46.9165092 ], [ -71.2803853, 46.9284095 ] ] ] } },
{ "type": "Feature", "properties": { "hex_id": 7634, "count": 5, "date": "2025-12-10", "n_files": 22, "pct": 22.73 }, "geometry": { "type": "Polygon", "coordinates": [ [ [ -71.1609779, 45.8331841 ], [ -71.1591916, 45.8591081 ], [ -71.190438, 45.8731477 ], [ -71.2234596, 45.8612534 ], [ -71.2252162, 45.8353274 ], [ -71.193981, 45.8212977 ], [ -71.1609779, 45.8331841 ] ] ] } },
{ "type": "Feature", "properties": { "hex_id": 7697, "count": 5, "date": "2025-12-10", "n_files": 22, "pct": 22.73 }, "geometry": { "type": "Polygon", "coordinates": [ [ [ -71.1315587, 45.793214 ], [ -71.1297612, 45.8191373 ], [ -71.1609779, 45.8331841 ], [ -71.193981, 45.8212977 ], [ -71.1957489, 45.7953724 ], [ -71.1645433, 45.7813355 ], [ -71.1315587, 45.793214 ] ] ] } },
{ "type": "Feature", "properties": { "hex_id": 7762, "count": 5, "date": "2025-12-10", "n_files": 22, "pct": 22.73 }, "geometry": { "type": "Polygon", "coordinates": [ [ [ -71.096747, 45.8310047 ], [ -71.0949309, 45.8569268 ], [ -71.1261588, 45.8709834 ], [ -71.1591916, 45.8591081 ], [ -71.1609779, 45.8331841 ], [ -71.1297612, 45.8191373 ], [ -71.096747, 45.8310047 ] ] ] } },
{ "type": "Feature", "properties": { "hex_id": 8998, "count": 6, "date": "2025-12-10", "n_files": 22, "pct": 27.27 }, "geometry": { "type": "Polygon", "coordinates": [ [ [ -70.3524171, 47.401105699999988 ], [ -70.3501336, 47.4269954 ], [ -70.3820393, 47.441279 ], [ -70.4162172, 47.4296623 ], [ -70.4184686, 47.4037702 ], [ -70.3865742, 47.3894971 ], [ -70.3524171, 47.401105699999988 ] ] ] } },
{ "type": "Feature", "properties": { "hex_id": 9072, "count": 2, "date": "2025-12-10", "n_files": 22, "pct": 9.09 }, "geometry": { "type": "Polygon", "coordinates": [ [ [ -70.2525787, 48.1375022 ], [ -70.2501854, 48.1633849 ], [ -70.2825018, 48.1777096 ], [ -70.3171999, 48.1661408 ], [ -70.3195598, 48.1402556 ], [ -70.2872551, 48.1259417 ], [ -70.2525787, 48.1375022 ] ] ] } },
{ "type": "Feature", "properties": { "hex_id": 9126, "count": 6, "date": "2025-12-10", "n_files": 22, "pct": 27.27 }, "geometry": { "type": "Polygon", "coordinates": [ [ [ -70.2863752, 47.3984033 ], [ -70.2840596, 47.4242906 ], [ -70.3159444, 47.4385919 ], [ -70.3501336, 47.4269954 ], [ -70.3524171, 47.401105699999988 ], [ -70.3205435, 47.3868149 ], [ -70.2863752, 47.3984033 ] ] ] } },
{ "type": "Feature", "properties": { "hex_id": 9520, "count": 3, "date": "2025-12-10", "n_files": 22, "pct": 13.64 }, "geometry": { "type": "Polygon", "coordinates": [ [ [ -70.0144586, 48.1663698 ], [ -70.0119429, 48.1922432 ], [ -70.0442052, 48.2066333 ], [ -70.0789716, 48.1951391 ], [ -70.0814538, 48.1692631 ], [ -70.049203, 48.154883899999987 ], [ -70.0144586, 48.1663698 ] ] ] } },
{ "type": "Feature", "properties": { "hex_id": 9585, "count": 3, "date": "2025-12-10", "n_files": 22, "pct": 13.64 }, "geometry": { "type": "Polygon", "coordinates": [ [ [ -69.977165, 48.2037165 ], [ -69.9746273, 48.2295883 ], [ -70.0069009, 48.2439893 ], [ -70.0417009, 48.2325077 ], [ -70.0442052, 48.2066333 ], [ -70.0119429, 48.1922432 ], [ -69.977165, 48.2037165 ] ] ] } },
{ "type": "Feature", "properties": { "hex_id": 9648, "count": 3, "date": "2025-12-10", "n_files": 22, "pct": 13.64 }, "geometry": { "type": "Polygon", "coordinates": [ [ [ -69.947474, 48.1634375 ], [ -69.944924900000018, 48.1893082 ], [ -69.977165, 48.2037165 ], [ -70.0119429, 48.1922432 ], [ -70.0144586, 48.1663698 ], [ -69.9822298, 48.1519724 ], [ -69.947474, 48.1634375 ] ] ] } },
{ "type": "Feature", "properties": { "hex_id": 9713, "count": 3, "date": "2025-12-10", "n_files": 22, "pct": 13.64 }, "geometry": { "type": "Polygon", "coordinates": [ [ [ -69.9101357, 48.2007608 ], [ -69.9075644, 48.2266299 ], [ -69.9398159, 48.2410491 ], [ -69.9746273, 48.2295883 ], [ -69.977165, 48.2037165 ], [ -69.944924900000018, 48.1893082 ], [ -69.9101357, 48.2007608 ] ] ] } },
{ "type": "Feature", "properties": { "hex_id": 9776, "count": 3, "date": "2025-12-10", "n_files": 22, "pct": 13.64 }, "geometry": { "type": "Polygon", "coordinates": [ [ [ -69.8805002, 48.1604663 ], [ -69.8779177, 48.1863344 ], [ -69.9101357, 48.2007608 ], [ -69.944924900000018, 48.1893082 ], [ -69.947474, 48.1634375 ], [ -69.9152673, 48.149022 ], [ -69.8805002, 48.1604663 ] ] ] } }
]
}
