{
"type": "FeatureCollection",
"name": "daily_2026-09-13",
"crs": { "type": "name", "properties": { "name": "urn:ogc:def:crs:OGC:1.3:CRS84" } },
"features": [
{ "type": "Feature", "properties": { "hex_id": 512891, "centroid_lon": -74.208498263021099, "centroid_lat": 45.886904614144434, "occurrences_today": 3, "datetimes_today": "2026-09-13 00:21:43, 2026-09-13 00:31:46, 2026-09-13 00:46:42", "cumulative_total": 201.0 }, "geometry": { "type": "Polygon", "coordinates": [ [ [ -74.20857205252463, 45.881708653706724 ], [ -74.214978387615744, 45.884351082060924 ], [ -74.21490518863169, 45.88954704809165 ], [ -74.208424453267725, 45.89210056974408 ], [ -74.20201754791043, 45.889457773676632 ], [ -74.202091948176403, 45.884261823735486 ], [ -74.20857205252463, 45.881708653706724 ] ] ] } },
{ "type": "Feature", "properties": { "hex_id": 759540, "centroid_lon": -71.601263994470969, "centroid_lat": 45.948203070219598, "occurrences_today": 6, "datetimes_today": "2026-09-13 00:02:00, 2026-09-13 00:21:43, 2026-09-13 00:31:46, 2026-09-13 00:46:42, 2026-09-13 01:01:49, 2026-09-13 01:16:39", "cumulative_total": 162.0 }, "geometry": { "type": "Polygon", "coordinates": [ [ [ -71.601581351862905, 45.943015822506517 ], [ -71.607862288076461, 45.945800995966664 ], [ -71.607545485774665, 45.95098827493603 ], [ -71.600946550066084, 45.953390311499255 ], [ -71.59466514579006, 45.95060474607785 ], [ -71.594983145255654, 45.945417536119272 ], [ -71.601581351862905, 45.943015822506517 ] ] ] } },
{ "type": "Feature", "properties": { "hex_id": 760150, "centroid_lon": -71.595301057559723, "centroid_lat": 45.940230319721181, "occurrences_today": 6, "datetimes_today": "2026-09-13 00:02:00, 2026-09-13 00:21:43, 2026-09-13 00:31:46, 2026-09-13 00:46:42, 2026-09-13 01:01:49, 2026-09-13 01:16:39", "cumulative_total": 164.0 }, "geometry": { "type": "Polygon", "coordinates": [ [ [ -71.595618882731827, 45.935043096884186 ], [ -71.601898622271349, 45.937828568360594 ], [ -71.601581351862905, 45.943015822506517 ], [ -71.594983145255654, 45.945417536119272 ], [ -71.588702938099189, 45.942631672737349 ], [ -71.58902140513743, 45.937444487712959 ], [ -71.595618882731827, 45.935043096884186 ] ] ] } },
{ "type": "Feature", "properties": { "hex_id": 752826, "centroid_lon": -71.670706961734027, "centroid_lat": 45.973634595178517, "occurrences_today": 6, "datetimes_today": "2026-09-13 00:02:00, 2026-09-13 00:21:43, 2026-09-13 00:31:46, 2026-09-13 00:46:42, 2026-09-13 01:01:49, 2026-09-13 01:16:39", "cumulative_total": 97.0 }, "geometry": { "type": "Polygon", "coordinates": [ [ [ -71.671018117994549, 45.968447000513827 ], [ -71.677305560254311, 45.971228514042082 ], [ -71.676994960893765, 45.976416139309869 ], [ -71.670395720127502, 45.978822183476687 ], [ -71.664107806328246, 45.976040278226755 ], [ -71.664419604805801, 45.970852720596589 ], [ -71.671018117994549, 45.968447000513827 ] ] ] } },
{ "type": "Feature", "properties": { "hex_id": 753436, "centroid_lon": -71.664731317788181, "centroid_lat": 45.965665156593914, "occurrences_today": 6, "datetimes_today": "2026-09-13 00:02:00, 2026-09-13 00:21:43, 2026-09-13 00:31:46, 2026-09-13 00:46:42, 2026-09-13 01:01:49, 2026-09-13 01:16:39", "cumulative_total": 97.0 }, "geometry": { "type": "Polygon", "coordinates": [ [ [ -71.66504294530435, 45.960477586219291 ], [ -71.671329188937975, 45.963259399483157 ], [ -71.671018117994549, 45.968447000513827 ], [ -71.664419604805801, 45.970852720596589 ], [ -71.65813289008014, 45.968070515666419 ], [ -71.658445159606288, 45.96288298238467 ], [ -71.66504294530435, 45.960477586219291 ] ] ] } },
{ "type": "Feature", "properties": { "hex_id": 753437, "centroid_lon": -71.663795922326514, "centroid_lat": 45.981227829483842, "occurrences_today": 6, "datetimes_today": "2026-09-13 00:02:00, 2026-09-13 00:21:43, 2026-09-13 00:31:46, 2026-09-13 00:46:42, 2026-09-13 01:01:49, 2026-09-13 01:16:39", "cumulative_total": 97.0 }, "geometry": { "type": "Polygon", "coordinates": [ [ [ -71.664107806328246, 45.976040278226755 ], [ -71.670395720127502, 45.978822183476687 ], [ -71.670084393146027, 45.984009765407748 ], [ -71.663483952771614, 45.986415374367283 ], [ -71.657195567519764, 45.983633077238395 ], [ -71.657508094065918, 45.978445563093857 ], [ -71.664107806328246, 45.976040278226755 ] ] ] } },
{ "type": "Feature", "properties": { "hex_id": 754046, "centroid_lon": -71.658757343517181, "centroid_lat": 45.95769544272499, "occurrences_today": 6, "datetimes_today": "2026-09-13 00:02:00, 2026-09-13 00:21:43, 2026-09-13 00:31:46, 2026-09-13 00:46:42, 2026-09-13 01:01:49, 2026-09-13 01:16:39", "cumulative_total": 97.0 }, "geometry": { "type": "Polygon", "coordinates": [ [ [ -71.659069441841794, 45.952507896687941 ], [ -71.665354487383269, 45.955290009473281 ], [ -71.66504294530435, 45.960477586219291 ], [ -71.658445159606288, 45.96288298238467 ], [ -71.652159643419878, 45.960100477988384 ], [ -71.652472383547476, 45.954912969102516 ], [ -71.659069441841794, 45.952507896687941 ] ] ] } },
{ "type": "Feature", "properties": { "hex_id": 754047, "centroid_lon": -71.657820534909689, "centroid_lat": 45.973258042569675, "occurrences_today": 6, "datetimes_today": "2026-09-13 00:02:00, 2026-09-13 00:21:43, 2026-09-13 00:31:46, 2026-09-13 00:46:42, 2026-09-13 01:01:49, 2026-09-13 01:16:39", "cumulative_total": 97.0 }, "geometry": { "type": "Polygon", "coordinates": [ [ [ -71.65813289008014, 45.968070515666419 ], [ -71.664419604805801, 45.970852720596589 ], [ -71.664107806328246, 45.976040278226755 ], [ -71.657508094065918, 45.978445563093857 ], [ -71.651220908335205, 45.975662966340145 ], [ -71.651533905842825, 45.970475476607781 ], [ -71.65813289008014, 45.968070515666419 ] ] ] } },
{ "type": "Feature", "properties": { "hex_id": 754657, "centroid_lon": -71.651846817528025, "centroid_lat": 45.965287980490338, "occurrences_today": 6, "datetimes_today": "2026-09-13 00:02:00, 2026-09-13 00:21:43, 2026-09-13 00:31:46, 2026-09-13 00:46:42, 2026-09-13 01:01:49, 2026-09-13 01:16:39", "cumulative_total": 97.0 }, "geometry": { "type": "Polygon", "coordinates": [ [ [ -71.652159643419878, 45.960100477988384 ], [ -71.658445159606288, 45.96288298238467 ], [ -71.65813289008014, 45.968070515666419 ], [ -71.651533905842825, 45.970475476607781 ], [ -71.645247919098594, 45.967692580443419 ], [ -71.645561387120424, 45.962505115170643 ], [ -71.652159643419878, 45.960100477988384 ] ] ] } },
{ "type": "Feature", "properties": { "hex_id": 755267, "centroid_lon": -71.645874769199921, "centroid_lat": 45.957317643507395, "occurrences_today": 6, "datetimes_today": "2026-09-13 00:02:00, 2026-09-13 00:21:43, 2026-09-13 00:31:46, 2026-09-13 00:46:42, 2026-09-13 01:01:49, 2026-09-13 01:16:39", "cumulative_total": 97.0 }, "geometry": { "type": "Polygon", "coordinates": [ [ [ -71.646188065366218, 45.952130165454186 ], [ -71.652472383547476, 45.954912969102516 ], [ -71.652159643419878, 45.960100477988384 ], [ -71.645561387120424, 45.962505115170643 ], [ -71.639276598828218, 45.959721919809695 ], [ -71.639590536917311, 45.95453447904395 ], [ -71.646188065366218, 45.952130165454186 ] ] ] } },
{ "type": "Feature", "properties": { "hex_id": 755877, "centroid_lon": -71.639904388944331, "centroid_lat": 45.949347031882247, "occurrences_today": 6, "datetimes_today": "2026-09-13 00:02:00, 2026-09-13 00:21:43, 2026-09-13 00:31:46, 2026-09-13 00:46:42, 2026-09-13 01:01:49, 2026-09-13 01:16:39", "cumulative_total": 97.0 }, "geometry": { "type": "Polygon", "coordinates": [ [ [ -71.640218154938395, 45.944159578325184 ], [ -71.646501275648404, 45.946942681011606 ], [ -71.646188065366218, 45.952130165454186 ], [ -71.639590536917311, 45.95453447904395 ], [ -71.63330694654293, 45.951750984700396 ], [ -71.633621354252682, 45.946563568489012 ], [ -71.640218154938395, 45.944159578325184 ] ] ] } },
{ "type": "Feature", "properties": { "hex_id": 755878, "centroid_lon": -71.638962574647877, "centroid_lat": 45.964909354178928, "occurrences_today": 6, "datetimes_today": "2026-09-13 00:02:00, 2026-09-13 00:21:43, 2026-09-13 00:31:46, 2026-09-13 00:46:42, 2026-09-13 01:01:49, 2026-09-13 01:16:39", "cumulative_total": 97.0 }, "geometry": { "type": "Polygon", "coordinates": [ [ [ -71.639276598828218, 45.959721919809695 ], [ -71.645561387120424, 45.962505115170643 ], [ -71.645247919098594, 45.967692580443419 ], [ -71.638648464347114, 45.970096782151046 ], [ -71.632363206031414, 45.967313194920351 ], [ -71.632677872461514, 45.962125797916627 ], [ -71.639276598828218, 45.959721919809695 ] ] ] } },
{ "type": "Feature", "properties": { "hex_id": 756488, "centroid_lon": -71.632992452622275, "centroid_lat": 45.956938394509805, "occurrences_today": 6, "datetimes_today": "2026-09-13 00:02:00, 2026-09-13 00:21:43, 2026-09-13 00:31:46, 2026-09-13 00:46:42, 2026-09-13 01:01:49, 2026-09-13 01:16:39", "cumulative_total": 97.0 }, "geometry": { "type": "Polygon", "coordinates": [ [ [ -71.63330694654293, 45.951750984700396 ], [ -71.639590536917311, 45.95453447904395 ], [ -71.639276598828218, 45.959721919809695 ], [ -71.632677872461514, 45.962125797916627 ], [ -71.626393812510287, 45.959341911758877 ], [ -71.626708948473393, 45.954154539373235 ], [ -71.63330694654293, 45.951750984700396 ] ] ] } },
{ "type": "Feature", "properties": { "hex_id": 757098, "centroid_lon": -71.627023998047591, "centroid_lat": 45.948967160578974, "occurrences_today": 6, "datetimes_today": "2026-09-13 00:02:00, 2026-09-13 00:21:43, 2026-09-13 00:31:46, 2026-09-13 00:46:42, 2026-09-13 01:01:49, 2026-09-13 01:16:39", "cumulative_total": 97.0 }, "geometry": { "type": "Polygon", "coordinates": [ [ [ -71.62733896126214, 45.94377977537674 ], [ -71.633621354252682, 45.946563568489012 ], [ -71.63330694654293, 45.951750984700396 ], [ -71.626708948473393, 45.954154539373235 ], [ -71.620426086352325, 45.95137035450233 ], [ -71.620741691402074, 45.946183006782029 ], [ -71.62733896126214, 45.94377977537674 ] ] ] } },
{ "type": "Feature", "properties": { "hex_id": 757708, "centroid_lon": -71.621057209943459, "centroid_lat": 45.940995652647679, "occurrences_today": 6, "datetimes_today": "2026-09-13 00:02:00, 2026-09-13 00:21:43, 2026-09-13 00:31:46, 2026-09-13 00:46:42, 2026-09-13 01:01:49, 2026-09-13 01:16:39", "cumulative_total": 97.0 }, "geometry": { "type": "Polygon", "coordinates": [ [ [ -71.621372642005795, 45.935808292099843 ], [ -71.627653838146273, 45.938592383767045 ], [ -71.62733896126214, 45.94377977537674 ], [ -71.620741691402074, 45.946183006782029 ], [ -71.614460026577078, 45.943398523411794 ], [ -71.614776100267378, 45.938211200404105 ], [ -71.621372642005795, 45.935808292099843 ] ] ] } },
{ "type": "Feature", "properties": { "hex_id": 758319, "centroid_lon": -71.614143866229796, "centroid_lat": 45.94858583999936, "occurrences_today": 6, "datetimes_today": "2026-09-13 00:02:00, 2026-09-13 00:21:43, 2026-09-13 00:31:46, 2026-09-13 00:46:42, 2026-09-13 01:01:49, 2026-09-13 01:16:39", "cumulative_total": 97.0 }, "geometry": { "type": "Polygon", "coordinates": [ [ [ -71.614460026577078, 45.943398523411794 ], [ -71.620741691402074, 45.946183006782029 ], [ -71.620426086352325, 45.95137035450233 ], [ -71.613827619196201, 45.953773150166256 ], [ -71.607545485774665, 45.95098827493603 ], [ -71.607862288076461, 45.945800995966664 ], [ -71.614460026577078, 45.943398523411794 ] ] ] } },
{ "type": "Feature", "properties": { "hex_id": 758929, "centroid_lon": -71.608179003543285, "centroid_lat": 45.940613710570553, "occurrences_today": 6, "datetimes_today": "2026-09-13 00:02:00, 2026-09-13 00:21:43, 2026-09-13 00:31:46, 2026-09-13 00:46:42, 2026-09-13 01:01:49, 2026-09-13 01:16:39", "cumulative_total": 97.0 }, "geometry": { "type": "Polygon", "coordinates": [ [ [ -71.608495632204594, 45.935426418748278 ], [ -71.614776100267378, 45.938211200404105 ], [ -71.614460026577078, 45.943398523411794 ], [ -71.607862288076461, 45.945800995966664 ], [ -71.601581351862905, 45.943015822506517 ], [ -71.601898622271349, 45.937828568360594 ], [ -71.608495632204594, 45.935426418748278 ] ] ] } },
{ "type": "Feature", "properties": { "hex_id": 759539, "centroid_lon": -71.602215805725749, "centroid_lat": 45.932641307782447, "occurrences_today": 6, "datetimes_today": "2026-09-13 00:02:00, 2026-09-13 00:21:43, 2026-09-13 00:31:46, 2026-09-13 00:46:42, 2026-09-13 01:01:49, 2026-09-13 01:16:39", "cumulative_total": 97.0 }, "geometry": { "type": "Polygon", "coordinates": [ [ [ -71.602532902255533, 45.927454040772624 ], [ -71.608812174089749, 45.93023912050041 ], [ -71.608495632204594, 45.935426418748278 ], [ -71.601898622271349, 45.937828568360594 ], [ -71.595618882731827, 45.935043096884186 ], [ -71.595936620801425, 45.929855867608858 ], [ -71.602532902255533, 45.927454040772624 ] ] ] } },
{ "type": "Feature", "properties": { "hex_id": 146767, "centroid_lon": -78.235517233410761, "centroid_lat": 48.587238847134593, "occurrences_today": 6, "datetimes_today": "2026-09-13 00:02:00, 2026-09-13 00:21:43, 2026-09-13 00:31:46, 2026-09-13 00:46:42, 2026-09-13 01:01:49, 2026-09-13 01:16:39", "cumulative_total": 113.0 }, "geometry": { "type": "Polygon", "coordinates": [ [ [ -78.235185891474501, 48.58205313852099 ], [ -78.242120468595317, 48.584455413670717 ], [ -78.242452548023635, 48.589641084547758 ], [ -78.235848669612309, 48.592424549361148 ], [ -78.228913260717007, 48.590021916133715 ], [ -78.228582562041808, 48.584836176242206 ], [ -78.235185891474501, 48.58205313852099 ] ] ] } },
{ "type": "Feature", "properties": { "hex_id": 147377, "centroid_lon": -78.228251957419303, "centroid_lat": 48.579650429970883, "occurrences_today": 6, "datetimes_today": "2026-09-13 00:02:00, 2026-09-13 00:21:43, 2026-09-13 00:31:46, 2026-09-13 00:46:42, 2026-09-13 01:01:49, 2026-09-13 01:16:39", "cumulative_total": 113.0 }, "geometry": { "type": "Polygon", "coordinates": [ [ [ -78.227921446815273, 48.574464677320307 ], [ -78.234854643769225, 48.576867423520824 ], [ -78.235185891474501, 48.58205313852099 ], [ -78.228582562041808, 48.584836176242206 ], [ -78.221648533951026, 48.58243307197327 ], [ -78.221318666463944, 48.577247288123132 ], [ -78.227921446815273, 48.574464677320307 ] ] ] } },
{ "type": "Feature", "properties": { "hex_id": 147988, "centroid_lon": -78.221978495278265, "centroid_lat": 48.587618849450841, "occurrences_today": 6, "datetimes_today": "2026-09-13 00:02:00, 2026-09-13 00:21:43, 2026-09-13 00:31:46, 2026-09-13 00:46:42, 2026-09-13 01:01:49, 2026-09-13 01:16:39", "cumulative_total": 113.0 }, "geometry": { "type": "Polygon", "coordinates": [ [ [ -78.221648533951026, 48.58243307197327 ], [ -78.228582562041808, 48.584836176242206 ], [ -78.228913260717007, 48.590021916133715 ], [ -78.222308550479809, 48.59280462055532 ], [ -78.215373691149708, 48.590401158034176 ], [ -78.215044373330272, 48.585215349415243 ], [ -78.221648533951026, 48.58243307197327 ] ] ] } },
{ "type": "Feature", "properties": { "hex_id": 148598, "centroid_lon": -78.214715149172562, "centroid_lat": 48.580029534430487, "occurrences_today": 6, "datetimes_today": "2026-09-13 00:02:00, 2026-09-13 00:21:43, 2026-09-13 00:31:46, 2026-09-13 00:46:42, 2026-09-13 01:01:49, 2026-09-13 01:16:39", "cumulative_total": 77.0 }, "geometry": { "type": "Polygon", "coordinates": [ [ [ -78.214386018642571, 48.574843713080391 ], [ -78.221318666463944, 48.577247288123132 ], [ -78.221648533951026, 48.58243307197327 ], [ -78.215044373330272, 48.585215349415243 ], [ -78.208110894907108, 48.582811416129722 ], [ -78.207782407740552, 48.577625563716587 ], [ -78.214386018642571, 48.574843713080391 ] ] ] } },
{ "type": "Feature", "properties": { "hex_id": 496978, "centroid_lon": -74.382902904667148, "centroid_lat": 45.264370283207903, "occurrences_today": 6, "datetimes_today": "2026-09-13 00:02:00, 2026-09-13 00:21:43, 2026-09-13 00:31:46, 2026-09-13 00:46:42, 2026-09-13 01:01:49, 2026-09-13 01:16:39", "cumulative_total": 63.0 }, "geometry": { "type": "Polygon", "coordinates": [ [ [ -74.382959200772774, 45.259173559299462 ], [ -74.389303722421872, 45.261806174981224 ], [ -74.389248000028473, 45.26700290266038 ], [ -74.382846593227796, 45.26956700231257 ], [ -74.376501513202726, 45.266934028452397 ], [ -74.376558398349204, 45.261737313182493 ], [ -74.382959200772774, 45.259173559299462 ] ] ] } },
{ "type": "Feature", "properties": { "hex_id": 757709, "centroid_lon": -71.62011039476495, "centroid_lat": 45.956557695807994, "occurrences_today": 6, "datetimes_today": "2026-09-13 00:02:00, 2026-09-13 00:21:43, 2026-09-13 00:31:46, 2026-09-13 00:46:42, 2026-09-13 01:01:49, 2026-09-13 01:16:39", "cumulative_total": 140.0 }, "geometry": { "type": "Polygon", "coordinates": [ [ [ -71.620426086352325, 45.95137035450233 ], [ -71.626708948473393, 45.954154539373235 ], [ -71.626393812510287, 45.959341911758877 ], [ -71.619794616610591, 45.961745030698424 ], [ -71.613511285446904, 45.958960453911871 ], [ -71.613827619196201, 45.953773150166256 ], [ -71.620426086352325, 45.95137035450233 ] ] ] } },
{ "type": "Feature", "properties": { "hex_id": 790121, "centroid_lon": -71.219638995306838, "centroid_lat": 46.809220599673331, "occurrences_today": 1, "datetimes_today": "2026-09-13 00:02:00", "cumulative_total": 305.0 }, "geometry": { "type": "Polygon", "coordinates": [ [ [ -71.220002701014948, 46.804036305187552 ], [ -71.226359748787772, 46.806844538566644 ], [ -71.225996618256261, 46.812028868531478 ], [ -71.219275188799614, 46.81440488726976 ], [ -71.212917666666769, 46.811596247265129 ], [ -71.213282048315662, 46.806411995214425 ], [ -71.220002701014948, 46.804036305187552 ] ] ] } },
{ "type": "Feature", "properties": { "hex_id": 769989, "centroid_lon": -71.420456534557104, "centroid_lat": 47.041719830507702, "occurrences_today": 6, "datetimes_today": "2026-09-13 00:02:00, 2026-09-13 00:21:43, 2026-09-13 00:31:46, 2026-09-13 00:46:42, 2026-09-13 01:01:49, 2026-09-13 01:16:39", "cumulative_total": 152.0 }, "geometry": { "type": "Polygon", "coordinates": [ [ [ -71.420803753504174, 47.036534576922243 ], [ -71.427198875246916, 47.039332584917545 ], [ -71.426852242006348, 47.044517872185665 ], [ -71.420109219054339, 47.046905077412951 ], [ -71.413713608177616, 47.044106661256755 ], [ -71.414061509353218, 47.038921448101512 ], [ -71.420803753504174, 47.036534576922243 ] ] ] } },
{ "type": "Feature", "properties": { "hex_id": 754048, "centroid_lon": -71.656882955242196, "centroid_lat": 45.988820585002742, "occurrences_today": 6, "datetimes_today": "2026-09-13 00:02:00, 2026-09-13 00:21:43, 2026-09-13 00:31:46, 2026-09-13 00:46:42, 2026-09-13 01:01:49, 2026-09-13 01:16:39", "cumulative_total": 104.0 }, "geometry": { "type": "Polygon", "coordinates": [ [ [ -71.657195567519764, 45.983633077238395 ], [ -71.663483952771614, 45.986415374367283 ], [ -71.663171897634541, 45.991602912876523 ], [ -71.656570257204081, 45.994008086386295 ], [ -71.650281400586792, 45.99122539722115 ], [ -71.650594655736313, 45.986037926647406 ], [ -71.657195567519764, 45.983633077238395 ] ] ] } },
{ "type": "Feature", "properties": { "hex_id": 754658, "centroid_lon": -71.650907824976073, "centroid_lat": 45.980850449686884, "occurrences_today": 6, "datetimes_today": "2026-09-13 00:02:00, 2026-09-13 00:21:43, 2026-09-13 00:31:46, 2026-09-13 00:46:42, 2026-09-13 01:01:49, 2026-09-13 01:16:39", "cumulative_total": 95.0 }, "geometry": { "type": "Polygon", "coordinates": [ [ [ -71.651220908335205, 45.975662966340145 ], [ -71.657508094065918, 45.978445563093857 ], [ -71.657195567519764, 45.983633077238395 ], [ -71.650594655736313, 45.986037926647406 ], [ -71.644306999087789, 45.983254937912932 ], [ -71.644620725111437, 45.978067491815132 ], [ -71.651220908335205, 45.975662966340145 ] ] ] } },
{ "type": "Feature", "properties": { "hex_id": 755268, "centroid_lon": -71.644934365105314, "centroid_lat": 45.972880039325098, "occurrences_today": 6, "datetimes_today": "2026-09-13 00:02:00, 2026-09-13 00:21:43, 2026-09-13 00:31:46, 2026-09-13 00:46:42, 2026-09-13 01:01:49, 2026-09-13 01:16:39", "cumulative_total": 95.0 }, "geometry": { "type": "Polygon", "coordinates": [ [ [ -71.645247919098594, 45.967692580443419 ], [ -71.651533905842825, 45.970475476607781 ], [ -71.651220908335205, 45.975662966340145 ], [ -71.644620725111437, 45.978067491815132 ], [ -71.638334267896724, 45.975284203725494 ], [ -71.638648464347114, 45.970096782151046 ], [ -71.645247919098594, 45.967692580443419 ] ] ] } },
{ "type": "Feature", "properties": { "hex_id": 755879, "centroid_lon": -71.638019985267491, "centroid_lat": 45.980471618901689, "occurrences_today": 6, "datetimes_today": "2026-09-13 00:02:00, 2026-09-13 00:21:43, 2026-09-13 00:31:46, 2026-09-13 00:46:42, 2026-09-13 01:01:49, 2026-09-13 01:16:39", "cumulative_total": 95.0 }, "geometry": { "type": "Polygon", "coordinates": [ [ [ -71.638334267896724, 45.975284203725494 ], [ -71.644620725111437, 45.978067491815132 ], [ -71.644306999087789, 45.983254937912932 ], [ -71.637705616430239, 45.98565902767907 ], [ -71.631418688832611, 45.982875347506962 ], [ -71.631733614246215, 45.977687969716094 ], [ -71.638334267896724, 45.975284203725494 ] ] ] } },
{ "type": "Feature", "properties": { "hex_id": 756489, "centroid_lon": -71.63204845330273, "centroid_lat": 45.972500585520365, "occurrences_today": 6, "datetimes_today": "2026-09-13 00:02:00, 2026-09-13 00:21:43, 2026-09-13 00:31:46, 2026-09-13 00:46:42, 2026-09-13 01:01:49, 2026-09-13 01:16:39", "cumulative_total": 95.0 }, "geometry": { "type": "Polygon", "coordinates": [ [ [ -71.632363206031414, 45.967313194920351 ], [ -71.638648464347114, 45.970096782151046 ], [ -71.638334267896724, 45.975284203725494 ], [ -71.631733614246215, 45.977687969716094 ], [ -71.625447885994689, 45.974903990458508 ], [ -71.625763281300223, 45.969716637302106 ], [ -71.632363206031414, 45.967313194920351 ] ] ] } },
{ "type": "Feature", "properties": { "hex_id": 757099, "centroid_lon": -71.626078590128998, "centroid_lat": 45.964529277735366, "occurrences_today": 6, "datetimes_today": "2026-09-13 00:02:00, 2026-09-13 00:21:43, 2026-09-13 00:31:46, 2026-09-13 00:46:42, 2026-09-13 01:01:49, 2026-09-13 01:16:39", "cumulative_total": 95.0 }, "geometry": { "type": "Polygon", "coordinates": [ [ [ -71.626393812510287, 45.959341911758877 ], [ -71.632677872461514, 45.962125797916627 ], [ -71.632363206031414, 45.967313194920351 ], [ -71.625763281300223, 45.969716637302106 ], [ -71.619478751859944, 45.966932359173072 ], [ -71.619794616610591, 45.961745030698424 ], [ -71.626393812510287, 45.959341911758877 ] ] ] } },
{ "type": "Feature", "properties": { "hex_id": 587965, "centroid_lon": -73.423793408127906, "centroid_lat": 45.60595053318314, "occurrences_today": 6, "datetimes_today": "2026-09-13 00:02:00, 2026-09-13 00:21:43, 2026-09-13 00:31:46, 2026-09-13 00:46:42, 2026-09-13 01:01:49, 2026-09-13 01:16:39", "cumulative_total": 91.0 }, "geometry": { "type": "Polygon", "coordinates": [ [ [ -73.423938907730843, 45.600755788814723 ], [ -73.430275341488652, 45.60344142948324 ], [ -73.43013041314309, 45.60863618720137 ], [ -73.423647868744908, 45.611145272444517 ], [ -73.417310903516494, 45.608459260199282 ], [ -73.41745701414348, 45.603264534352292 ], [ -73.423938907730843, 45.600755788814723 ] ] ] } },
{ "type": "Feature", "properties": { "hex_id": 690584, "centroid_lon": -72.306225653642059, "centroid_lat": 46.442482689030463, "occurrences_today": 6, "datetimes_today": "2026-09-13 00:02:00, 2026-09-13 00:21:43, 2026-09-13 00:31:46, 2026-09-13 00:46:42, 2026-09-13 01:01:49, 2026-09-13 01:16:39", "cumulative_total": 37.0 }, "geometry": { "type": "Polygon", "coordinates": [ [ [ -72.30648161441934, 46.437292489090908 ], [ -72.312855492495871, 46.440040649216748 ], [ -72.312600112487118, 46.445230873827548 ], [ -72.305969622194425, 46.447672883148833 ], [ -72.299595234031841, 46.4449243305029 ], [ -72.299851846223717, 46.439734161122061 ], [ -72.30648161441934, 46.437292489090908 ] ] ] } },
{ "type": "Feature", "properties": { "hex_id": 497589, "centroid_lon": -74.376444612561656, "centroid_lat": 45.272130738917376, "occurrences_today": 6, "datetimes_today": "2026-09-13 00:02:00, 2026-09-13 00:21:43, 2026-09-13 00:31:46, 2026-09-13 00:46:42, 2026-09-13 01:01:49, 2026-09-13 01:16:39", "cumulative_total": 45.0 }, "geometry": { "type": "Polygon", "coordinates": [ [ [ -74.376501513202726, 45.266934028452397 ], [ -74.382846593227796, 45.26956700231257 ], [ -74.382790266449618, 45.274763716613471 ], [ -74.376387696420778, 45.277327444577466 ], [ -74.370042058035196, 45.274694112379542 ], [ -74.370099548033778, 45.269497410619444 ], [ -74.376501513202726, 45.266934028452397 ] ] ] } },
{ "type": "Feature", "properties": { "hex_id": 498199, "centroid_lon": -74.370157022376802, "centroid_lat": 45.264300704053291, "occurrences_today": 6, "datetimes_today": "2026-09-13 00:02:00, 2026-09-13 00:21:43, 2026-09-13 00:31:46, 2026-09-13 00:46:42, 2026-09-13 01:01:49, 2026-09-13 01:16:39", "cumulative_total": 45.0 }, "geometry": { "type": "Polygon", "coordinates": [ [ [ -74.37021448106951, 45.259103992681105 ], [ -74.376558398349204, 45.261737313182493 ], [ -74.376501513202726, 45.266934028452397 ], [ -74.370099548033778, 45.269497410619444 ], [ -74.363755072860783, 45.26686373181662 ], [ -74.363813120744837, 45.261667029212255 ], [ -74.37021448106951, 45.259103992681105 ] ] ] } },
{ "type": "Feature", "properties": { "hex_id": 134545, "centroid_lon": -78.358525317031535, "centroid_lat": 48.396687154782072, "occurrences_today": 5, "datetimes_today": "2026-09-13 00:02:00, 2026-09-13 00:21:43, 2026-09-13 00:31:46, 2026-09-13 00:46:42, 2026-09-13 01:01:49", "cumulative_total": 78.0 }, "geometry": { "type": "Polygon", "coordinates": [ [ [ -78.358183685300475, 48.391501915898623 ], [ -78.365097257757924, 48.393897301948108 ], [ -78.365439620790326, 48.39908250186074 ], [ -78.358867045661341, 48.401872387156665 ], [ -78.351952644986298, 48.399476647075488 ], [ -78.351611647692863, 48.394291375801096 ], [ -78.358183685300475, 48.391501915898623 ] ] ] } },
{ "type": "Feature", "properties": { "hex_id": 135155, "centroid_lon": -78.35127074708798, "centroid_lat": 48.389106098025309, "occurrences_today": 5, "datetimes_today": "2026-09-13 00:02:00, 2026-09-13 00:21:43, 2026-09-13 00:31:46, 2026-09-13 00:46:42, 2026-09-13 01:01:49", "cumulative_total": 78.0 }, "geometry": { "type": "Polygon", "coordinates": [ [ [ -78.350929943136663, 48.383920813748738 ], [ -78.3578421504331, 48.386316670506879 ], [ -78.358183685300475, 48.391501915898623 ], [ -78.351611647692863, 48.394291375801096 ], [ -78.34469861280931, 48.391895165019484 ], [ -78.344358443155443, 48.386709848429859 ], [ -78.350929943136663, 48.383920813748738 ] ] ] } },
{ "type": "Feature", "properties": { "hex_id": 135156, "centroid_lon": -78.352293739003244, "centroid_lat": 48.404661911847924, "occurrences_today": 5, "datetimes_today": "2026-09-13 00:02:00, 2026-09-13 00:21:43, 2026-09-13 00:31:46, 2026-09-13 00:46:42, 2026-09-13 01:01:49", "cumulative_total": 78.0 }, "geometry": { "type": "Polygon", "coordinates": [ [ [ -78.351952644986298, 48.399476647075488 ], [ -78.358867045661341, 48.401872387156665 ], [ -78.359208871224951, 48.407057613021813 ], [ -78.352634929778745, 48.409847170117807 ], [ -78.34571970078099, 48.407451075822486 ], [ -78.345379241587167, 48.402265778716377 ], [ -78.351952644986298, 48.399476647075488 ] ] ] } },
{ "type": "Feature", "properties": { "hex_id": 135766, "centroid_lon": -78.34503887894158, "centroid_lat": 48.39708047511516, "occurrences_today": 5, "datetimes_today": "2026-09-13 00:02:00, 2026-09-13 00:21:43, 2026-09-13 00:31:46, 2026-09-13 00:46:42, 2026-09-13 01:01:49", "cumulative_total": 78.0 }, "geometry": { "type": "Polygon", "coordinates": [ [ [ -78.34469861280931, 48.391895165019484 ], [ -78.351611647692863, 48.394291375801096 ], [ -78.351952644986298, 48.399476647075488 ], [ -78.345379241587167, 48.402265778716377 ], [ -78.338465379011694, 48.399869213728877 ], [ -78.338125747562174, 48.394683871377403 ], [ -78.34469861280931, 48.391895165019484 ] ] ] } },
{ "type": "Feature", "properties": { "hex_id": 136376, "centroid_lon": -78.337786212415821, "centroid_lat": 48.389498522538887, "occurrences_today": 5, "datetimes_today": "2026-09-13 00:02:00, 2026-09-13 00:21:43, 2026-09-13 00:31:46, 2026-09-13 00:46:42, 2026-09-13 01:01:49", "cumulative_total": 78.0 }, "geometry": { "type": "Polygon", "coordinates": [ [ [ -78.337446773537806, 48.384313167213904 ], [ -78.344358443155443, 48.386709848429859 ], [ -78.34469861280931, 48.391895165019484 ], [ -78.338125747562174, 48.394683871377403 ], [ -78.331213250882925, 48.392286835963915 ], [ -78.330874446547256, 48.387101448461046 ], [ -78.337446773537806, 48.384313167213904 ] ] ] } },
{ "type": "Feature", "properties": { "hex_id": 136377, "centroid_lon": -78.338805106799214, "centroid_lat": 48.405054549592691, "occurrences_today": 5, "datetimes_today": "2026-09-13 00:02:00, 2026-09-13 00:21:43, 2026-09-13 00:31:46, 2026-09-13 00:46:42, 2026-09-13 01:01:49", "cumulative_total": 78.0 }, "geometry": { "type": "Polygon", "coordinates": [ [ [ -78.338465379011694, 48.399869213728877 ], [ -78.345379241587167, 48.402265778716377 ], [ -78.34571970078099, 48.407451075822486 ], [ -78.33914493095962, 48.410239878968319 ], [ -78.332230240587506, 48.407842959592465 ], [ -78.331891147868291, 48.4026575915302 ], [ -78.338465379011694, 48.399869213728877 ] ] ] } },
{ "type": "Feature", "properties": { "hex_id": 136986, "centroid_lon": -78.330535738269887, "centroid_lat": 48.381916054479142, "occurrences_today": 5, "datetimes_today": "2026-09-13 00:02:00, 2026-09-13 00:21:43, 2026-09-13 00:31:46, 2026-09-13 00:46:42, 2026-09-13 01:01:49", "cumulative_total": 78.0 }, "geometry": { "type": "Polygon", "coordinates": [ [ [ -78.330197126016117, 48.376730654018772 ], [ -78.337107430893312, 48.379127805403023 ], [ -78.337446773537806, 48.384313167213904 ], [ -78.330874446547256, 48.387101448461046 ], [ -78.323963315238373, 48.384703942887619 ], [ -78.32362533738646, 48.37951851032723 ], [ -78.330197126016117, 48.376730654018772 ] ] ] } },
{ "type": "Feature", "properties": { "hex_id": 136987, "centroid_lon": -78.331552151311683, "centroid_lat": 48.397472216987147, "occurrences_today": 5, "datetimes_today": "2026-09-13 00:02:00, 2026-09-13 00:21:43, 2026-09-13 00:31:46, 2026-09-13 00:46:42, 2026-09-13 01:01:49", "cumulative_total": 78.0 }, "geometry": { "type": "Polygon", "coordinates": [ [ [ -78.331213250882925, 48.392286835963915 ], [ -78.338125747562174, 48.394683871377403 ], [ -78.338465379011694, 48.399869213728877 ], [ -78.331891147868291, 48.4026575915302 ], [ -78.324977824023065, 48.400260201736742 ], [ -78.324639558522009, 48.395074788592943 ], [ -78.331213250882925, 48.392286835963915 ] ] ] } },
{ "type": "Feature", "properties": { "hex_id": 137597, "centroid_lon": -78.324301388938665, "centroid_lat": 48.389889368976377, "occurrences_today": 5, "datetimes_today": "2026-09-13 00:02:00, 2026-09-13 00:21:43, 2026-09-13 00:31:46, 2026-09-13 00:46:42, 2026-09-13 01:01:49", "cumulative_total": 78.0 }, "geometry": { "type": "Polygon", "coordinates": [ [ [ -78.323963315238373, 48.384703942887619 ], [ -78.330874446547256, 48.387101448461046 ], [ -78.331213250882925, 48.392286835963915 ], [ -78.324639558522009, 48.395074788592943 ], [ -78.317727600677358, 48.392676928647994 ], [ -78.317390161764109, 48.387491470516551 ], [ -78.323963315238373, 48.384703942887619 ] ] ] } },
{ "type": "Feature", "properties": { "hex_id": 137598, "centroid_lon": -78.325316185476581, "centroid_lat": 48.405445608407156, "occurrences_today": 5, "datetimes_today": "2026-09-13 00:02:00, 2026-09-13 00:21:43, 2026-09-13 00:31:46, 2026-09-13 00:46:42, 2026-09-13 01:01:49", "cumulative_total": 78.0 }, "geometry": { "type": "Polygon", "coordinates": [ [ [ -78.324977824023065, 48.400260201736742 ], [ -78.331891147868291, 48.4026575915302 ], [ -78.332230240587506, 48.407842959592465 ], [ -78.325654642917243, 48.410631008603673 ], [ -78.318740491801776, 48.408233264247755 ], [ -78.31840276566156, 48.403047825514165 ], [ -78.324977824023065, 48.400260201736742 ] ] ] } },
{ "type": "Feature", "properties": { "hex_id": 138207, "centroid_lon": -78.317052818523919, "centroid_lat": 48.38230600592032, "occurrences_today": 5, "datetimes_today": "2026-09-13 00:02:00, 2026-09-13 00:21:43, 2026-09-13 00:31:46, 2026-09-13 00:46:42, 2026-09-13 01:01:49", "cumulative_total": 78.0 }, "geometry": { "type": "Polygon", "coordinates": [ [ [ -78.316715570922184, 48.377120534859827 ], [ -78.32362533738646, 48.37951851032723 ], [ -78.323963315238373, 48.384703942887619 ], [ -78.317390161764109, 48.387491470516551 ], [ -78.310479569393863, 48.385093140686138 ], [ -78.310142956438469, 48.379907637660821 ], [ -78.316715570922184, 48.377120534859827 ] ] ] } },
{ "type": "Feature", "properties": { "hex_id": 138208, "centroid_lon": -78.318065135298312, "centroid_lat": 48.397862380314045, "occurrences_today": 5, "datetimes_today": "2026-09-13 00:02:00, 2026-09-13 00:21:43, 2026-09-13 00:31:46, 2026-09-13 00:46:42, 2026-09-13 01:01:49", "cumulative_total": 78.0 }, "geometry": { "type": "Polygon", "coordinates": [ [ [ -78.317727600677358, 48.392676928647994 ], [ -78.324639558522009, 48.395074788592943 ], [ -78.324977824023065, 48.400260201736742 ], [ -78.31840276566156, 48.403047825514165 ], [ -78.311489981177161, 48.400649611015261 ], [ -78.311153081728676, 48.395464127363923 ], [ -78.317727600677358, 48.392676928647994 ] ] ] } },
{ "type": "Feature", "properties": { "hex_id": 138817, "centroid_lon": -78.309806438911707, "centroid_lat": 48.374722128178654, "occurrences_today": 5, "datetimes_today": "2026-09-13 00:02:00, 2026-09-13 00:21:43, 2026-09-13 00:31:46, 2026-09-13 00:46:42, 2026-09-13 01:01:49", "cumulative_total": 78.0 }, "geometry": { "type": "Polygon", "coordinates": [ [ [ -78.309470016779102, 48.369536612240196 ], [ -78.316378418924373, 48.371935057335683 ], [ -78.316715570922184, 48.377120534859827 ], [ -78.310142956438469, 48.379907637660821 ], [ -78.303233729016597, 48.377508838210858 ], [ -78.302897941389531, 48.372323290385367 ], [ -78.309470016779102, 48.369536612240196 ] ] ] } },
{ "type": "Feature", "properties": { "hex_id": 138818, "centroid_lon": -78.310816277812421, "centroid_lat": 48.390278637254013, "occurrences_today": 5, "datetimes_today": "2026-09-13 00:02:00, 2026-09-13 00:21:43, 2026-09-13 00:31:46, 2026-09-13 00:46:42, 2026-09-13 01:01:49", "cumulative_total": 78.0 }, "geometry": { "type": "Polygon", "coordinates": [ [ [ -78.310479569393863, 48.385093140686138 ], [ -78.317390161764109, 48.387491470516551 ], [ -78.317727600677358, 48.392676928647994 ], [ -78.311153081728676, 48.395464127363923 ], [ -78.304241663348762, 48.393065442988117 ], [ -78.303905589961758, 48.387879914512794 ], [ -78.310479569393863, 48.385093140686138 ] ] ] } },
{ "type": "Feature", "properties": { "hex_id": 139427, "centroid_lon": -78.302562248946913, "centroid_lat": 48.367137736110941, "occurrences_today": 5, "datetimes_today": "2026-09-13 00:02:00, 2026-09-13 00:21:43, 2026-09-13 00:31:46, 2026-09-13 00:46:42, 2026-09-13 01:01:49", "cumulative_total": 78.0 }, "geometry": { "type": "Polygon", "coordinates": [ [ [ -78.302226651654351, 48.361952175388168 ], [ -78.309133690006149, 48.364351089846032 ], [ -78.309470016779102, 48.369536612240196 ], [ -78.302897941389531, 48.372323290385367 ], [ -78.295990078390119, 48.369924021581681 ], [ -78.295655115462296, 48.36473842904963 ], [ -78.302226651654351, 48.361952175388168 ] ] ] } },
{ "type": "Feature", "properties": { "hex_id": 139428, "centroid_lon": -78.303569611862528, "centroid_lat": 48.382694379586866, "occurrences_today": 5, "datetimes_today": "2026-09-13 00:02:00, 2026-09-13 00:21:43, 2026-09-13 00:31:46, 2026-09-13 00:46:42, 2026-09-13 01:01:49", "cumulative_total": 78.0 }, "geometry": { "type": "Polygon", "coordinates": [ [ [ -78.303233729016597, 48.377508838210858 ], [ -78.310142956438469, 48.379907637660821 ], [ -78.310479569393863, 48.385093140686138 ], [ -78.303905589961758, 48.387879914512794 ], [ -78.296995537159887, 48.385480760526072 ], [ -78.296660289204567, 48.380295187320463 ], [ -78.303233729016597, 48.377508838210858 ] ] ] } },
{ "type": "Feature", "properties": { "hex_id": 140038, "centroid_lon": -78.296325136292779, "centroid_lat": 48.375109607672151, "occurrences_today": 5, "datetimes_today": "2026-09-13 00:02:00, 2026-09-13 00:21:43, 2026-09-13 00:31:46, 2026-09-13 00:46:42, 2026-09-13 01:01:49", "cumulative_total": 78.0 }, "geometry": { "type": "Polygon", "coordinates": [ [ [ -78.295990078390119, 48.369924021581681 ], [ -78.302897941389531, 48.372323290385367 ], [ -78.303233729016597, 48.377508838210858 ], [ -78.296660289204567, 48.380295187320463 ], [ -78.289751601454412, 48.37789556398868 ], [ -78.289417178301392, 48.372709946146387 ], [ -78.295990078390119, 48.369924021581681 ] ] ] } },
{ "type": "Feature", "properties": { "hex_id": 140039, "centroid_lon": -78.297330880193101, "centroid_lat": 48.390666327288379, "occurrences_today": 5, "datetimes_today": "2026-09-13 00:02:00, 2026-09-13 00:21:43, 2026-09-13 00:31:46, 2026-09-13 00:46:42, 2026-09-13 01:01:49", "cumulative_total": 78.0 }, "geometry": { "type": "Polygon", "coordinates": [ [ [ -78.296995537159887, 48.385480760526072 ], [ -78.303905589961758, 48.387879914512794 ], [ -78.304241663348762, 48.393065442988117 ], [ -78.297666318338614, 48.395851887606881 ], [ -78.290755440053459, 48.393452378901017 ], [ -78.290420732296155, 48.388266780366543 ], [ -78.296995537159887, 48.385480760526072 ] ] ] } },
{ "type": "Feature", "properties": { "hex_id": 140648, "centroid_lon": -78.28908284994786, "centroid_lat": 48.367524321869283, "occurrences_today": 5, "datetimes_today": "2026-09-13 00:02:00, 2026-09-13 00:21:43, 2026-09-13 00:31:46, 2026-09-13 00:46:42, 2026-09-13 01:01:49", "cumulative_total": 78.0 }, "geometry": { "type": "Polygon", "coordinates": [ [ [ -78.28874861635957, 48.362338691157909 ], [ -78.295655115462296, 48.36473842904963 ], [ -78.295990078390119, 48.369924021581681 ], [ -78.289417178301392, 48.372709946146387 ], [ -78.282509855076739, 48.370309853735328 ], [ -78.282176256097017, 48.365124191349885 ], [ -78.28874861635957, 48.362338691157909 ] ] ] } },
{ "type": "Feature", "properties": { "hex_id": 140649, "centroid_lon": -78.290086119441241, "centroid_lat": 48.383081175395589, "occurrences_today": 5, "datetimes_today": "2026-09-13 00:02:00, 2026-09-13 00:21:43, 2026-09-13 00:31:46, 2026-09-13 00:46:42, 2026-09-13 01:01:49", "cumulative_total": 78.0 }, "geometry": { "type": "Polygon", "coordinates": [ [ [ -78.289751601454412, 48.37789556398868 ], [ -78.296660289204567, 48.380295187320463 ], [ -78.296995537159887, 48.385480760526072 ], [ -78.290420732296155, 48.388266780366543 ], [ -78.283511219692258, 48.385866802324365 ], [ -78.283177336840154, 48.380681159223116 ], [ -78.289751601454412, 48.37789556398868 ] ] ] } },
{ "type": "Feature", "properties": { "hex_id": 141258, "centroid_lon": -78.281842751673011, "centroid_lat": 48.359938522537483, "occurrences_today": 5, "datetimes_today": "2026-09-13 00:02:00, 2026-09-13 00:21:43, 2026-09-13 00:31:46, 2026-09-13 00:46:42, 2026-09-13 01:01:49", "cumulative_total": 78.0 }, "geometry": { "type": "Polygon", "coordinates": [ [ [ -78.281509341770558, 48.354752847298691 ], [ -78.288414477502258, 48.357153054012841 ], [ -78.28874861635957, 48.362338691157909 ], [ -78.282176256097017, 48.365124191349885 ], [ -78.275270296871838, 48.362723630125181 ], [ -78.274937521436854, 48.357537923290039 ], [ -78.281509341770558, 48.354752847298691 ] ] ] } },
{ "type": "Feature", "properties": { "hex_id": 141259, "centroid_lon": -78.282843548646397, "centroid_lat": 48.375495509693252, "occurrences_today": 5, "datetimes_today": "2026-09-13 00:02:00, 2026-09-13 00:21:43, 2026-09-13 00:31:46, 2026-09-13 00:46:42, 2026-09-13 01:01:49", "cumulative_total": 78.0 }, "geometry": { "type": "Polygon", "coordinates": [ [ [ -78.282509855076739, 48.370309853735328 ], [ -78.289417178301392, 48.372709946146387 ], [ -78.289751601454412, 48.37789556398868 ], [ -78.283177336840154, 48.380681159223116 ], [ -78.276269189390902, 48.378280712110438 ], [ -78.275936130814742, 48.373095024535935 ], [ -78.282509855076739, 48.370309853735328 ] ] ] } },
{ "type": "Feature", "properties": { "hex_id": 141869, "centroid_lon": -78.275603166653099, "centroid_lat": 48.36790933054067, "occurrences_today": 6, "datetimes_today": "2026-09-13 00:02:00, 2026-09-13 00:21:43, 2026-09-13 00:31:46, 2026-09-13 00:46:42, 2026-09-13 01:01:49, 2026-09-13 01:16:39", "cumulative_total": 79.0 }, "geometry": { "type": "Polygon", "coordinates": [ [ [ -78.275270296871838, 48.362723630125181 ], [ -78.282176256097017, 48.365124191349885 ], [ -78.282509855076739, 48.370309853735328 ], [ -78.275936130814742, 48.373095024535935 ], [ -78.269029347993637, 48.370694108618487 ], [ -78.26869711306459, 48.365508376664174 ], [ -78.275270296871838, 48.362723630125181 ] ] ] } },
{ "type": "Feature", "properties": { "hex_id": 142479, "centroid_lon": -78.268364972306443, "centroid_lat": 48.360322638296893, "occurrences_today": 5, "datetimes_today": "2026-09-13 00:02:00, 2026-09-13 00:21:43, 2026-09-13 00:31:46, 2026-09-13 00:46:42, 2026-09-13 01:01:49", "cumulative_total": 78.0 }, "geometry": { "type": "Polygon", "coordinates": [ [ [ -78.268032925685176, 48.355136893517255 ], [ -78.274937521436854, 48.357537923290039 ], [ -78.275270296871838, 48.362723630125181 ], [ -78.26869711306459, 48.365508376664174 ], [ -78.26179169434532, 48.363106992207555 ], [ -78.261460282434911, 48.357921215966769 ], [ -78.268032925685176, 48.355136893517255 ] ] ] } },
{ "type": "Feature", "properties": { "hex_id": 147378, "centroid_lon": -78.229244053479107, "centroid_lat": 48.59520764964487, "occurrences_today": 6, "datetimes_today": "2026-09-13 00:02:00, 2026-09-13 00:21:43, 2026-09-13 00:31:46, 2026-09-13 00:46:42, 2026-09-13 01:01:49, 2026-09-13 01:16:39", "cumulative_total": 57.0 }, "geometry": { "type": "Polygon", "coordinates": [ [ [ -78.228913260717007, 48.590021916133715 ], [ -78.235848669612309, 48.592424549361148 ], [ -78.236180200113395, 48.597610245200066 ], [ -78.229574940362326, 48.600393376775145 ], [ -78.222638699589794, 48.597990385286174 ], [ -78.222308550479809, 48.59280462055532 ], [ -78.228913260717007, 48.590021916133715 ] ] ] } },
{ "type": "Feature", "properties": { "hex_id": 147989, "centroid_lon": -78.222968942642382, "centroid_lat": 48.60317614364287, "occurrences_today": 6, "datetimes_today": "2026-09-13 00:02:00, 2026-09-13 00:21:43, 2026-09-13 00:31:46, 2026-09-13 00:46:42, 2026-09-13 01:01:49, 2026-09-13 01:16:39", "cumulative_total": 57.0 }, "geometry": { "type": "Polygon", "coordinates": [ [ [ -78.222638699589794, 48.597990385286174 ], [ -78.229574940362326, 48.600393376775145 ], [ -78.229905921400928, 48.605579097524007 ], [ -78.223299279671778, 48.608361895624888 ], [ -78.216362206919342, 48.605958545690513 ], [ -78.216032607910151, 48.60077275617234 ], [ -78.222638699589794, 48.597990385286174 ] ] ] } },
{ "type": "Feature", "properties": { "hex_id": 148599, "centroid_lon": -78.215703102664975, "centroid_lat": 48.59558696028671, "occurrences_today": 6, "datetimes_today": "2026-09-13 00:02:00, 2026-09-13 00:21:43, 2026-09-13 00:31:46, 2026-09-13 00:46:42, 2026-09-13 01:01:49, 2026-09-13 01:16:39", "cumulative_total": 57.0 }, "geometry": { "type": "Polygon", "coordinates": [ [ [ -78.215373691149708, 48.590401158034176 ], [ -78.222308550479809, 48.59280462055532 ], [ -78.222638699589794, 48.597990385286174 ], [ -78.216032607910151, 48.60077275617234 ], [ -78.209096917238369, 48.59836893521517 ], [ -78.208768149622003, 48.593183101879532 ], [ -78.215373691149708, 48.590401158034176 ] ] ] } },
{ "type": "Feature", "properties": { "hex_id": 148600, "centroid_lon": -78.216691899726683, "centroid_lat": 48.611144328840702, "occurrences_today": 6, "datetimes_today": "2026-09-13 00:02:00, 2026-09-13 00:21:43, 2026-09-13 00:31:46, 2026-09-13 00:46:42, 2026-09-13 01:01:49, 2026-09-13 01:16:39", "cumulative_total": 61.0 }, "geometry": { "type": "Polygon", "coordinates": [ [ [ -78.216362206919342, 48.605958545690513 ], [ -78.223299279671778, 48.608361895624888 ], [ -78.223629710712174, 48.613547641231662 ], [ -78.217021686366309, 48.616330105622396 ], [ -78.210083781531452, 48.613926397058663 ], [ -78.209754733159045, 48.608740582805261 ], [ -78.216362206919342, 48.605958545690513 ] ] ] } },
{ "type": "Feature", "properties": { "hex_id": 184615, "centroid_lon": -77.813097151134627, "centroid_lat": 48.55158980336342, "occurrences_today": 2, "datetimes_today": "2026-09-13 00:02:00, 2026-09-13 00:21:43", "cumulative_total": 62.0 }, "geometry": { "type": "Polygon", "coordinates": [ [ [ -77.812809391543851, 48.546402039754952 ], [ -77.819720066134551, 48.548830266485986 ], [ -77.820008556742835, 48.554017997073302 ], [ -77.813384992578889, 48.556777560994945 ], [ -77.806473505102304, 48.554348971419813 ], [ -77.806186394705321, 48.549161180838873 ], [ -77.812809391543851, 48.546402039754952 ] ] ] } },
{ "type": "Feature", "properties": { "hex_id": 185225, "centroid_lon": -77.805899365951404, "centroid_lat": 48.543973384287249, "occurrences_today": 2, "datetimes_today": "2026-09-13 00:02:00, 2026-09-13 00:21:43", "cumulative_total": 62.0 }, "geometry": { "type": "Polygon", "coordinates": [ [ [ -77.805612418810853, 48.538785581765325 ], [ -77.812521713776832, 48.541214270169895 ], [ -77.812809391543851, 48.546402039754952 ], [ -77.806186394705321, 48.549161180838873 ], [ -77.799276287484645, 48.5467321296031 ], [ -77.798989989386868, 48.541544300186317 ], [ -77.805612418810853, 48.538785581765325 ] ] ] } },
{ "type": "Feature", "properties": { "hex_id": 185836, "centroid_lon": -77.79956266701511, "centroid_lat": 48.551919953055453, "occurrences_today": 2, "datetimes_today": "2026-09-13 00:02:00, 2026-09-13 00:21:43", "cumulative_total": 62.0 }, "geometry": { "type": "Polygon", "coordinates": [ [ [ -77.799276287484645, 48.5467321296031 ], [ -77.806186394705321, 48.549161180838873 ], [ -77.806473505102304, 48.554348971419813 ], [ -77.79984912800785, 48.557107770542999 ], [ -77.792938208443545, 48.554678356292563 ], [ -77.792652478346952, 48.549490506005348 ], [ -77.799276287484645, 48.5467321296031 ] ] ] } },
{ "type": "Feature", "properties": { "hex_id": 186446, "centroid_lon": -77.792366829502242, "centroid_lat": 48.544302649759565, "occurrences_today": 2, "datetimes_today": "2026-09-13 00:02:00, 2026-09-13 00:21:43", "cumulative_total": 62.0 }, "geometry": { "type": "Polygon", "coordinates": [ [ [ -77.7920812618799, 48.53911478755559 ], [ -77.798989989386868, 48.541544300186317 ], [ -77.799276287484645, 48.5467321296031 ], [ -77.792652478346952, 48.549490506005348 ], [ -77.785742939127417, 48.547060630372968 ], [ -77.785458020787672, 48.541872741411709 ], [ -77.7920812618799, 48.53911478755559 ] ] ] } },
{ "type": "Feature", "properties": { "hex_id": 187057, "centroid_lon": -77.786027938508724, "centroid_lat": 48.552248513381876, "occurrences_today": 2, "datetimes_today": "2026-09-13 00:02:00, 2026-09-13 00:21:43", "cumulative_total": 62.0 }, "geometry": { "type": "Polygon", "coordinates": [ [ [ -77.785742939127417, 48.547060630372968 ], [ -77.792652478346952, 48.549490506005348 ], [ -77.792938208443545, 48.554678356292563 ], [ -77.786313018961081, 48.557436390438063 ], [ -77.779402667940474, 48.55500615162056 ], [ -77.779118318232889, 48.54981824191443 ], [ -77.785742939127417, 48.547060630372968 ] ] ] } },
{ "type": "Feature", "properties": { "hex_id": 187667, "centroid_lon": -77.778834049385992, "centroid_lat": 48.544630326261782, "occurrences_today": 2, "datetimes_today": "2026-09-13 00:02:00, 2026-09-13 00:21:43", "cumulative_total": 62.0 }, "geometry": { "type": "Polygon", "coordinates": [ [ [ -77.778549861370408, 48.539442404663014 ], [ -77.785458020787672, 48.541872741411709 ], [ -77.785742939127417, 48.547060630372968 ], [ -77.779118318232889, 48.54981824191443 ], [ -77.772209347645472, 48.547387541993736 ], [ -77.771925809152123, 48.542199593775308 ], [ -77.778549861370408, 48.539442404663014 ] ] ] } },
{ "type": "Feature", "properties": { "hex_id": 188278, "centroid_lon": -77.77249296678923, "centroid_lat": 48.552575484271856, "occurrences_today": 2, "datetimes_today": "2026-09-13 00:02:00, 2026-09-13 00:21:43", "cumulative_total": 62.0 }, "geometry": { "type": "Polygon", "coordinates": [ [ [ -77.772209347645472, 48.547387541993736 ], [ -77.779118318232889, 48.54981824191443 ], [ -77.779402667940474, 48.55500615162056 ], [ -77.772776666612756, 48.557763420609291 ], [ -77.765866884767092, 48.555332357333143 ], [ -77.765583915536737, 48.550144388495475 ], [ -77.772209347645472, 48.547387541993736 ] ] ] } },
{ "type": "Feature", "properties": { "hex_id": 188888, "centroid_lon": -77.76530102677583, "centroid_lat": 48.544956413723305, "occurrences_today": 2, "datetimes_today": "2026-09-13 00:02:00, 2026-09-13 00:21:43", "cumulative_total": 62.0 }, "geometry": { "type": "Polygon", "coordinates": [ [ [ -77.765018218455126, 48.539768433017002 ], [ -77.771925809152123, 48.542199593775308 ], [ -77.772209347645472, 48.547387541993736 ], [ -77.765583915536737, 48.550144388495475 ], [ -77.758675514212271, 48.54771286439496 ], [ -77.758393355653254, 48.542524857206658 ], [ -77.765018218455126, 48.539768433017002 ] ] ] } },
{ "type": "Feature", "properties": { "hex_id": 189499, "centroid_lon": -77.758957753030515, "centroid_lat": 48.552900865654927, "occurrences_today": 2, "datetimes_today": "2026-09-13 00:02:00, 2026-09-13 00:21:43", "cumulative_total": 62.0 }, "geometry": { "type": "Polygon", "coordinates": [ [ [ -77.758675514212271, 48.54771286439496 ], [ -77.765583915536737, 48.550144388495475 ], [ -77.765866884767092, 48.555332357333143 ], [ -77.75924007213716, 48.558088860986174 ], [ -77.752330860097572, 48.55565697335998 ], [ -77.752049271432242, 48.55046894567819 ], [ -77.758675514212271, 48.54771286439496 ] ] ] } },
{ "type": "Feature", "properties": { "hex_id": 190109, "centroid_lon": -77.751767762845063, "centroid_lat": 48.545280912073849, "occurrences_today": 2, "datetimes_today": "2026-09-13 00:02:00, 2026-09-13 00:21:43", "cumulative_total": 62.0 }, "geometry": { "type": "Polygon", "coordinates": [ [ [ -77.751486334306961, 48.540092872547305 ], [ -77.758393355653254, 48.542524857206658 ], [ -77.758675514212271, 48.54771286439496 ], [ -77.752049271432242, 48.55046894567819 ], [ -77.745141440001419, 48.548036597506517 ], [ -77.744860661464244, 48.542848531635684 ], [ -77.751486334306961, 48.540092872547305 ] ] ] } },
{ "type": "Feature", "properties": { "hex_id": 190720, "centroid_lon": -77.745422298406567, "centroid_lat": 48.55322465746093, "occurrences_today": 2, "datetimes_today": "2026-09-13 00:02:00, 2026-09-13 00:21:43", "cumulative_total": 62.0 }, "geometry": { "type": "Polygon", "coordinates": [ [ [ -77.745141440001419, 48.548036597506517 ], [ -77.752049271432242, 48.55046894567819 ], [ -77.752330860097572, 48.55565697335998 ], [ -77.745703236708735, 48.558412711498555 ], [ -77.738794595106185, 48.555979999631099 ], [ -77.738514387093232, 48.550791913392622 ], [ -77.745141440001419, 48.548036597506517 ] ] ] } },
{ "type": "Feature", "properties": { "hex_id": 191330, "centroid_lon": -77.738234258767136, "centroid_lat": 48.545603821243468, "occurrences_today": 2, "datetimes_today": "2026-09-13 00:02:00, 2026-09-13 00:21:43", "cumulative_total": 62.0 }, "geometry": { "type": "Polygon", "coordinates": [ [ [ -77.737954210098891, 48.540415723184019 ], [ -77.744860661464244, 48.542848531635684 ], [ -77.745141440001419, 48.548036597506517 ], [ -77.738514387093232, 48.550791913392622 ], [ -77.731607126186603, 48.548358741258646 ], [ -77.731327727758384, 48.543170616992619 ], [ -77.737954210098891, 48.540415723184019 ] ] ] } },
{ "type": "Feature", "properties": { "hex_id": 191941, "centroid_lon": -77.731886604091528, "centroid_lat": 48.553546859620077, "occurrences_today": 2, "datetimes_today": "2026-09-13 00:02:00, 2026-09-13 00:21:43", "cumulative_total": 62.0 }, "geometry": { "type": "Polygon", "coordinates": [ [ [ -77.731607126186603, 48.548358741258646 ], [ -77.738514387093232, 48.550791913392622 ], [ -77.738794595106185, 48.555979999631099 ], [ -77.732166161502064, 48.558734972076586 ], [ -77.725258090967358, 48.556301436076836 ], [ -77.724979263693754, 48.551113291569131 ], [ -77.731607126186603, 48.548358741258646 ] ] ] } },
{ "type": "Feature", "properties": { "hex_id": 192551, "centroid_lon": -77.724700515715597, "centroid_lat": 48.545925141162584, "occurrences_today": 2, "datetimes_today": "2026-09-13 00:02:00, 2026-09-13 00:21:43", "cumulative_total": 62.0 }, "geometry": { "type": "Polygon", "coordinates": [ [ [ -77.724421847004095, 48.540736984857539 ], [ -77.731327727758384, 48.543170616992619 ], [ -77.731607126186603, 48.548358741258646 ], [ -77.724979263693754, 48.551113291569131 ], [ -77.718072573941697, 48.54867929558187 ], [ -77.717794555709077, 48.543491113208063 ], [ -77.724421847004095, 48.540736984857539 ] ] ] } },
{ "type": "Feature", "properties": { "hex_id": 193162, "centroid_lon": -77.718350671259699, "centroid_lat": 48.553867472062905, "occurrences_today": 2, "datetimes_today": "2026-09-13 00:02:00, 2026-09-13 00:21:43", "cumulative_total": 62.0 }, "geometry": { "type": "Polygon", "coordinates": [ [ [ -77.718072573941697, 48.54867929558187 ], [ -77.724979263693754, 48.551113291569131 ], [ -77.725258090967358, 48.556301436076836 ], [ -77.718628847691832, 48.559055642650819 ], [ -77.711721348855647, 48.556621282627901 ], [ -77.711443902407893, 48.551433080138452 ], [ -77.718072573941697, 48.54867929558187 ] ] ] } },
{ "type": "Feature", "properties": { "hex_id": 193772, "centroid_lon": -77.711166534864176, "centroid_lat": 48.546244871761928, "occurrences_today": 2, "datetimes_today": "2026-09-13 00:02:00, 2026-09-13 00:21:43", "cumulative_total": 62.0 }, "geometry": { "type": "Polygon", "coordinates": [ [ [ -77.710889246195833, 48.541056657498679 ], [ -77.717794555709077, 48.543491113208063 ], [ -77.718072573941697, 48.54867929558187 ], [ -77.711443902407893, 48.551433080138452 ], [ -77.704537784440689, 48.548998260407132 ], [ -77.704261146489898, 48.543810020212923 ], [ -77.710889246195833, 48.541056657498679 ] ] ] } },
{ "type": "Feature", "properties": { "hex_id": 194383, "centroid_lon": -77.704814501085465, "centroid_lat": 48.554186494720284, "occurrences_today": 2, "datetimes_today": "2026-09-13 00:02:00, 2026-09-13 00:21:43", "cumulative_total": 62.0 }, "geometry": { "type": "Polygon", "coordinates": [ [ [ -77.704537784440689, 48.548998260407132 ], [ -77.711443902407893, 48.551433080138452 ], [ -77.711721348855647, 48.556621282627901 ], [ -77.705091296452878, 48.559374723152068 ], [ -77.69818436994575, 48.55693953921535 ], [ -77.69790830440995, 48.551751279031635 ], [ -77.704537784440689, 48.548998260407132 ] ] ] } },
{ "type": "Feature", "properties": { "hex_id": 194993, "centroid_lon": -77.69763231738672, "centroid_lat": 48.546563012972577, "occurrences_today": 2, "datetimes_today": "2026-09-13 00:02:00, 2026-09-13 00:21:43", "cumulative_total": 62.0 }, "geometry": { "type": "Polygon", "coordinates": [ [ [ -77.697356408847511, 48.54137474103851 ], [ -77.704261146489898, 48.543810020212923 ], [ -77.704537784440689, 48.548998260407132 ], [ -77.69790830440995, 48.551751279031635 ], [ -77.691002758857664, 48.549315635665657 ], [ -77.690727501274552, 48.544127337938484 ], [ -77.697356408847511, 48.54137474103851 ] ] ] } },
{ "type": "Feature", "properties": { "hex_id": 196214, "centroid_lon": -77.684097864457144, "centroid_lat": 48.546879564725984, "occurrences_today": 2, "datetimes_today": "2026-09-13 00:02:00, 2026-09-13 00:21:43", "cumulative_total": 62.0 }, "geometry": { "type": "Polygon", "coordinates": [ [ [ -77.683823336132704, 48.541691235408486 ], [ -77.690727501274552, 48.544127337938484 ], [ -77.691002758857664, 48.549315635665657 ], [ -77.684372470874266, 48.552067888180105 ], [ -77.677467498366894, 48.549631421289021 ], [ -77.677193621236825, 48.544443066316347 ], [ -77.683823336132704, 48.541691235408486 ] ] ] } },
{ "type": "Feature", "properties": { "hex_id": 197435, "centroid_lon": -77.670563177249591, "centroid_lat": 48.547194526953888, "occurrences_today": 2, "datetimes_today": "2026-09-13 00:02:00, 2026-09-13 00:21:43", "cumulative_total": 62.0 }, "geometry": { "type": "Polygon", "coordinates": [ [ [ -77.670290029225058, 48.542006140540416 ], [ -77.677193621236825, 48.544443066316347 ], [ -77.677467498366894, 48.549631421289021 ], [ -77.670836402975397, 48.552382907515579 ], [ -77.663932004142708, 48.549945617209147 ], [ -77.66365950755069, 48.544757205278444 ], [ -77.670290029225058, 48.542006140540416 ] ] ] } },
{ "type": "Feature", "properties": { "hex_id": 198656, "centroid_lon": -77.657028256938261, "centroid_lat": 48.547507899588403, "occurrences_today": 2, "datetimes_today": "2026-09-13 00:02:00, 2026-09-13 00:21:43", "cumulative_total": 62.0 }, "geometry": { "type": "Polygon", "coordinates": [ [ [ -77.656756489298346, 48.542319456366407 ], [ -77.66365950755069, 48.544757205278444 ], [ -77.663932004142708, 48.549945617209147 ], [ -77.657300101887984, 48.552696336970151 ], [ -77.650396277359647, 48.550258223358327 ], [ -77.650125161390193, 48.54506975475708 ], [ -77.656756489298346, 48.542319456366407 ] ] ] } },
{ "type": "Feature", "properties": { "hex_id": 199877, "centroid_lon": -77.643493104697512, "centroid_lat": 48.547819682561979, "occurrences_today": 2, "datetimes_today": "2026-09-13 00:02:00, 2026-09-13 00:21:43", "cumulative_total": 62.0 }, "geometry": { "type": "Polygon", "coordinates": [ [ [ -77.643222717526555, 48.542631182818951 ], [ -77.650125161390193, 48.54506975475708 ], [ -77.650396277359647, 48.550258223358327 ], [ -77.643763568786781, 48.55300817647624 ], [ -77.636860319192351, 48.550569239669137 ], [ -77.636590583929546, 48.545380714684889 ], [ -77.643222717526555, 48.542631182818951 ] ] ] } }
]
}
