{
"type": "FeatureCollection",
"name": "daily_2026-04-12",
"crs": { "type": "name", "properties": { "name": "urn:ogc:def:crs:OGC:1.3:CRS84" } },
"features": [
{ "type": "Feature", "properties": { "hex_id": 852343, "centroid_lon": -70.614634115073798, "centroid_lat": 46.023683044418966, "occurrences_today": 7, "datetimes_today": "2026-04-12 00:01:58, 2026-04-12 00:16:43, 2026-04-12 00:31:43, 2026-04-12 00:46:47, 2026-04-12 01:01:46, 2026-04-12 01:16:42, 2026-04-12 01:31:57", "cumulative_total": 76.0 }, "geometry": { "type": "Polygon", "coordinates": [ [ [ -70.615044518948139, 46.018501947952451 ], [ -70.621280140888643, 46.021339919645932 ], [ -70.620870278936479, 46.026521056812413 ], [ -70.614223598700448, 46.02886413332557 ], [ -70.607987547355833, 46.026025760815145 ], [ -70.608398605613232, 46.020844712672904 ], [ -70.615044518948139, 46.018501947952451 ] ] ] } },
{ "type": "Feature", "properties": { "hex_id": 493003, "centroid_lon": -74.374399758124099, "centroid_lat": 49.916384668346574, "occurrences_today": 2, "datetimes_today": "2026-04-12 00:01:58, 2026-04-12 00:16:43", "cumulative_total": 59.0 }, "geometry": { "type": "Polygon", "coordinates": [ [ [ -74.374466930610694, 49.911192181369508 ], [ -74.381397197257357, 49.9138257810136 ], [ -74.381330762755994, 49.919018272447865 ], [ -74.374332566084902, 49.921577150583055 ], [ -74.367401581009332, 49.918943129455975 ], [ -74.367469511026329, 49.913750651753126 ], [ -74.374466930610694, 49.911192181369508 ] ] ] } },
{ "type": "Feature", "properties": { "hex_id": 493613, "centroid_lon": -74.367537421276879, "centroid_lat": 49.908558169308137, "occurrences_today": 2, "datetimes_today": "2026-04-12 00:01:58, 2026-04-12 00:16:43", "cumulative_total": 49.0 }, "geometry": { "type": "Polygon", "coordinates": [ [ [ -74.367605311768443, 49.903365682120864 ], [ -74.374534083552049, 49.905999689651679 ], [ -74.374466930610694, 49.911192181369508 ], [ -74.367469511026329, 49.913750651753126 ], [ -74.36054002145525, 49.9111162227831 ], [ -74.360608669248535, 49.905923744945078 ], [ -74.367605311768443, 49.903365682120864 ] ] ] } },
{ "type": "Feature", "properties": { "hex_id": 1651620, "centroid_lon": -61.815133796392381, "centroid_lat": 47.409021934607978, "occurrences_today": 2, "datetimes_today": "2026-04-12 00:01:58, 2026-04-12 00:16:43", "cumulative_total": 14.0 }, "geometry": { "type": "Polygon", "coordinates": [ [ [ -61.816418746866752, 47.40396398966994 ], [ -61.822228687343781, 47.407248248455531 ], [ -61.820944145632929, 47.412306310825016 ], [ -61.813848495565225, 47.414079848521425 ], [ -61.808038496736792, 47.410795125864283 ], [ -61.809324206208842, 47.405737329438423 ], [ -61.816418746866752, 47.40396398966994 ] ] ] } },
{ "type": "Feature", "properties": { "hex_id": 1652230, "centroid_lon": -61.810609565241244, "centroid_lat": 47.40067950196817, "occurrences_today": 2, "datetimes_today": "2026-04-12 00:01:58, 2026-04-12 00:16:43", "cumulative_total": 14.0 }, "geometry": { "type": "Polygon", "coordinates": [ [ [ -61.811894573952614, 47.395621643463244 ], [ -61.817703347106907, 47.398906013716939 ], [ -61.816418746866752, 47.40396398966994 ], [ -61.809324206208842, 47.405737329438423 ], [ -61.803515374963645, 47.402452495424356 ], [ -61.804801142348666, 47.397394785458282 ], [ -61.811894573952614, 47.395621643463244 ] ] ] } },
{ "type": "Feature", "properties": { "hex_id": 560483, "centroid_lon": -73.715623176672608, "centroid_lat": 45.461496267137782, "occurrences_today": 7, "datetimes_today": "2026-04-12 00:01:58, 2026-04-12 00:16:43, 2026-04-12 00:31:43, 2026-04-12 00:46:47, 2026-04-12 01:01:46, 2026-04-12 01:16:42, 2026-04-12 01:31:57", "cumulative_total": 49.0 }, "geometry": { "type": "Polygon", "coordinates": [ [ [ -73.715741147044881, 45.456300729144495 ], [ -73.722075769879154, 45.458970218373608 ], [ -73.721958370378289, 45.464165766796448 ], [ -73.715505174098908, 45.466691800145206 ], [ -73.709170012600069, 45.46402194389097 ], [ -73.709288586034376, 45.458826421377488 ], [ -73.715741147044881, 45.456300729144495 ] ] ] } },
{ "type": "Feature", "properties": { "hex_id": 628959, "centroid_lon": -72.942254698416448, "centroid_lat": 47.009063503363407, "occurrences_today": 7, "datetimes_today": "2026-04-12 00:01:58, 2026-04-12 00:16:43, 2026-04-12 00:31:43, 2026-04-12 00:46:47, 2026-04-12 01:01:46, 2026-04-12 01:16:42, 2026-04-12 01:31:57", "cumulative_total": 91.0 }, "geometry": { "type": "Polygon", "coordinates": [ [ [ -72.942454160443873, 47.003871425324284 ], [ -72.94892773772925, 47.006585439203491 ], [ -72.948728884140522, 47.011777535846129 ], [ -72.942055180874107, 47.01425557602407 ], [ -72.935581050674642, 47.01154116772593 ], [ -72.935781176636297, 47.006349113736697 ], [ -72.942454160443873, 47.003871425324284 ] ] ] } },
{ "type": "Feature", "properties": { "hex_id": 628960, "centroid_lon": -72.941655979167166, "centroid_lat": 47.024639705209317, "occurrences_today": 7, "datetimes_today": "2026-04-12 00:01:58, 2026-04-12 00:16:43, 2026-04-12 00:31:43, 2026-04-12 00:46:47, 2026-04-12 01:01:46, 2026-04-12 01:16:42, 2026-04-12 01:31:57", "cumulative_total": 91.0 }, "geometry": { "type": "Polygon", "coordinates": [ [ [ -72.941855607797478, 47.019447643306094 ], [ -72.948331010900191, 47.022161713007868 ], [ -72.948131991209934, 47.02735379352665 ], [ -72.941456294963743, 47.029831761733575 ], [ -72.934980338503763, 47.027117297396998 ], [ -72.93518063162783, 47.021925259556255 ], [ -72.941855607797478, 47.019447643306094 ] ] ] } },
{ "type": "Feature", "properties": { "hex_id": 628961, "centroid_lon": -72.941056759760016, "centroid_lat": 47.040215858644402, "occurrences_today": 7, "datetimes_today": "2026-04-12 00:01:58, 2026-04-12 00:16:43, 2026-04-12 00:31:43, 2026-04-12 00:46:47, 2026-04-12 01:01:46, 2026-04-12 01:16:42, 2026-04-12 01:31:57", "cumulative_total": 54.0 }, "geometry": { "type": "Polygon", "coordinates": [ [ [ -72.94125655516784, 47.035023812878649 ], [ -72.947733785592519, 47.037737938439093 ], [ -72.947534599626621, 47.042930002832428 ], [ -72.940856908720846, 47.045407899030636 ], [ -72.934379124495294, 47.04269337861939 ], [ -72.934579584956978, 47.037501356928743 ], [ -72.94125655516784, 47.035023812878649 ] ] ] } },
{ "type": "Feature", "properties": { "hex_id": 629569, "centroid_lon": -72.935981246916029, "centroid_lat": 47.001157054365002, "occurrences_today": 7, "datetimes_today": "2026-04-12 00:01:58, 2026-04-12 00:16:43, 2026-04-12 00:31:43, 2026-04-12 00:46:47, 2026-04-12 01:01:46, 2026-04-12 01:16:42, 2026-04-12 01:31:57", "cumulative_total": 54.0 }, "geometry": { "type": "Polygon", "coordinates": [ [ [ -72.936181261533292, 46.995964989611004 ], [ -72.942653566975764, 46.998679341906893 ], [ -72.942454160443873, 47.003871425324284 ], [ -72.935781176636297, 47.006349113736697 ], [ -72.929308318780656, 47.003634367070987 ], [ -72.929508997126348, 46.998442326430578 ], [ -72.936181261533292, 46.995964989611004 ] ] ] } },
{ "type": "Feature", "properties": { "hex_id": 629570, "centroid_lon": -72.935380869011638, "centroid_lat": 47.016733216332518, "occurrences_today": 7, "datetimes_today": "2026-04-12 00:01:58, 2026-04-12 00:16:43, 2026-04-12 00:31:43, 2026-04-12 00:46:47, 2026-04-12 01:01:46, 2026-04-12 01:16:42, 2026-04-12 01:31:57", "cumulative_total": 91.0 }, "geometry": { "type": "Polygon", "coordinates": [ [ [ -72.935581050674642, 47.01154116772593 ], [ -72.942055180874107, 47.01425557602407 ], [ -72.941855607797478, 47.019447643306094 ], [ -72.93518063162783, 47.021925259556255 ], [ -72.928705948572514, 47.01921045667244 ], [ -72.928906794523243, 47.014018432192103 ], [ -72.935581050674642, 47.01154116772593 ] ] ] } },
{ "type": "Feature", "properties": { "hex_id": 629571, "centroid_lon": -72.934779989619969, "centroid_lat": 47.032309329854556, "occurrences_today": 7, "datetimes_today": "2026-04-12 00:01:58, 2026-04-12 00:16:43, 2026-04-12 00:31:43, 2026-04-12 00:46:47, 2026-04-12 01:01:46, 2026-04-12 01:16:42, 2026-04-12 01:31:57", "cumulative_total": 54.0 }, "geometry": { "type": "Polygon", "coordinates": [ [ [ -72.934980338503763, 47.027117297396998 ], [ -72.941456294963743, 47.029831761733575 ], [ -72.94125655516784, 47.035023812878649 ], [ -72.934579584956978, 47.037501356928743 ], [ -72.928103075198052, 47.034786497790527 ], [ -72.928304088929451, 47.029594489471847 ], [ -72.934980338503763, 47.027117297396998 ] ] ] } },
{ "type": "Feature", "properties": { "hex_id": 629572, "centroid_lon": -72.934178608215419, "centroid_lat": 47.047885394926318, "occurrences_today": 7, "datetimes_today": "2026-04-12 00:01:58, 2026-04-12 00:16:43, 2026-04-12 00:31:43, 2026-04-12 00:46:47, 2026-04-12 01:01:46, 2026-04-12 01:16:42, 2026-04-12 01:31:57", "cumulative_total": 54.0 }, "geometry": { "type": "Polygon", "coordinates": [ [ [ -72.934379124495294, 47.04269337861939 ], [ -72.940856908720846, 47.045407899030636 ], [ -72.940657002030875, 47.050599934037201 ], [ -72.933978036097869, 47.053077405849365 ], [ -72.927499698129864, 47.05036249042039 ], [ -72.92770087981782, 47.045170498264987 ], [ -72.934379124495294, 47.04269337861939 ] ] ] } },
{ "type": "Feature", "properties": { "hex_id": 630179, "centroid_lon": -72.929709619642679, "centroid_lat": 46.993250280403842, "occurrences_today": 7, "datetimes_today": "2026-04-12 00:01:58, 2026-04-12 00:16:43, 2026-04-12 00:31:43, 2026-04-12 00:46:47, 2026-04-12 01:01:46, 2026-04-12 01:16:42, 2026-04-12 01:31:57", "cumulative_total": 54.0 }, "geometry": { "type": "Polygon", "coordinates": [ [ [ -72.929910186349119, 46.988058228990965 ], [ -72.936381220507485, 46.990772919474885 ], [ -72.936181261533292, 46.995964989611004 ], [ -72.929508997126348, 46.998442326430578 ], [ -72.923037411055333, 46.995727241625993 ], [ -72.923238641284442, 46.990535214390384 ], [ -72.929910186349119, 46.988058228990965 ] ] ] } },
{ "type": "Feature", "properties": { "hex_id": 630180, "centroid_lon": -72.92910758458612, "centroid_lat": 47.008826402324885, "occurrences_today": 7, "datetimes_today": "2026-04-12 00:01:58, 2026-04-12 00:16:43, 2026-04-12 00:31:43, 2026-04-12 00:46:47, 2026-04-12 01:01:46, 2026-04-12 01:16:42, 2026-04-12 01:31:57", "cumulative_total": 54.0 }, "geometry": { "type": "Polygon", "coordinates": [ [ [ -72.929308318780656, 47.003634367070987 ], [ -72.935781176636297, 47.006349113736697 ], [ -72.935581050674642, 47.01154116772593 ], [ -72.928906794523243, 47.014018432192103 ], [ -72.922433384312811, 47.011303290989908 ], [ -72.922634782589071, 47.006111279925932 ], [ -72.929308318780656, 47.003634367070987 ] ] ] } },
{ "type": "Feature", "properties": { "hex_id": 630181, "centroid_lon": -72.928505046714434, "centroid_lat": 47.024402475765747, "occurrences_today": 7, "datetimes_today": "2026-04-12 00:01:58, 2026-04-12 00:16:43, 2026-04-12 00:31:43, 2026-04-12 00:46:47, 2026-04-12 01:01:46, 2026-04-12 01:16:42, 2026-04-12 01:31:57", "cumulative_total": 54.0 }, "geometry": { "type": "Polygon", "coordinates": [ [ [ -72.928705948572514, 47.01921045667244 ], [ -72.93518063162783, 47.021925259556255 ], [ -72.934980338503763, 47.027117297396998 ], [ -72.928304088929451, 47.029594489471847 ], [ -72.921828853076775, 47.026879291835641 ], [ -72.922030419576231, 47.02168729694494 ], [ -72.928705948572514, 47.01921045667244 ] ] ] } },
{ "type": "Feature", "properties": { "hex_id": 630182, "centroid_lon": -72.927902005500698, "centroid_lat": 47.039978500721631, "occurrences_today": 7, "datetimes_today": "2026-04-12 00:01:58, 2026-04-12 00:16:43, 2026-04-12 00:31:43, 2026-04-12 00:46:47, 2026-04-12 01:01:46, 2026-04-12 01:16:42, 2026-04-12 01:31:57", "cumulative_total": 54.0 }, "geometry": { "type": "Polygon", "coordinates": [ [ [ -72.928103075198052, 47.034786497790527 ], [ -72.934579584956978, 47.037501356928743 ], [ -72.934379124495294, 47.04269337861939 ], [ -72.92770087981782, 47.045170498264987 ], [ -72.921223816818511, 47.042455244158305 ], [ -72.921425551717505, 47.037263265442512 ], [ -72.928103075198052, 47.034786497790527 ] ] ] } },
{ "type": "Feature", "properties": { "hex_id": 630183, "centroid_lon": -72.927298460417248, "centroid_lat": 47.05555447718767, "occurrences_today": 7, "datetimes_today": "2026-04-12 00:01:58, 2026-04-12 00:16:43, 2026-04-12 00:31:43, 2026-04-12 00:46:47, 2026-04-12 01:01:46, 2026-04-12 01:16:42, 2026-04-12 01:31:57", "cumulative_total": 54.0 }, "geometry": { "type": "Polygon", "coordinates": [ [ [ -72.927499698129864, 47.05036249042039 ], [ -72.933978036097869, 47.053077405849365 ], [ -72.933777408123092, 47.058269411388345 ], [ -72.927097166660403, 47.060746458566683 ], [ -72.920618275008579, 47.058031147953045 ], [ -72.92082017848368, 47.052839185413752 ], [ -72.927499698129864, 47.05036249042039 ] ] ] } },
{ "type": "Feature", "properties": { "hex_id": 630788, "centroid_lon": -72.924043002629659, "centroid_lat": 46.969767051547862, "occurrences_today": 7, "datetimes_today": "2026-04-12 00:01:58, 2026-04-12 00:16:43, 2026-04-12 00:31:43, 2026-04-12 00:46:47, 2026-04-12 01:01:46, 2026-04-12 01:16:42, 2026-04-12 01:31:57", "cumulative_total": 54.0 }, "geometry": { "type": "Polygon", "coordinates": [ [ [ -72.924243953170716, 46.96457499736313 ], [ -72.930711895465237, 46.967289969481556 ], [ -72.930511551803761, 46.972482042437221 ], [ -72.923841996190006, 46.974959100343142 ], [ -72.917373502924249, 46.972243734168828 ], [ -72.917575116223986, 46.967051704212317 ], [ -72.924243953170716, 46.96457499736313 ] ] ] } },
{ "type": "Feature", "properties": { "hex_id": 630789, "centroid_lon": -72.923439815536909, "centroid_lat": 46.985343181764577, "occurrences_today": 7, "datetimes_today": "2026-04-12 00:01:58, 2026-04-12 00:16:43, 2026-04-12 00:31:43, 2026-04-12 00:46:47, 2026-04-12 01:01:46, 2026-04-12 01:16:42, 2026-04-12 01:31:57", "cumulative_total": 54.0 }, "geometry": { "type": "Polygon", "coordinates": [ [ [ -72.923640933832246, 46.980151143748763 ], [ -72.930110697265135, 46.982866172192111 ], [ -72.929910186349119, 46.988058228990965 ], [ -72.923238641284442, 46.990535214390384 ], [ -72.916768326439112, 46.987819791675534 ], [ -72.916970108051373, 46.982627777900618 ], [ -72.923640933832246, 46.980151143748763 ] ] ] } },
{ "type": "Feature", "properties": { "hex_id": 630790, "centroid_lon": -72.92283612483007, "centroid_lat": 47.000919263471246, "occurrences_today": 7, "datetimes_today": "2026-04-12 00:01:58, 2026-04-12 00:16:43, 2026-04-12 00:31:43, 2026-04-12 00:46:47, 2026-04-12 01:01:46, 2026-04-12 01:16:42, 2026-04-12 01:31:57", "cumulative_total": 54.0 }, "geometry": { "type": "Polygon", "coordinates": [ [ [ -72.923037411055333, 46.995727241625993 ], [ -72.929508997126348, 46.998442326430578 ], [ -72.929308318780656, 47.003634367070987 ], [ -72.922634782589071, 47.006111279925932 ], [ -72.91616264466397, 47.003395800634095 ], [ -72.916364594764985, 46.998203803042443 ], [ -72.923037411055333, 46.995727241625993 ] ] ] } },
{ "type": "Feature", "properties": { "hex_id": 630791, "centroid_lon": -72.92223192998172, "centroid_lat": 47.016495296662981, "occurrences_today": 7, "datetimes_today": "2026-04-12 00:01:58, 2026-04-12 00:16:43, 2026-04-12 00:31:43, 2026-04-12 00:46:47, 2026-04-12 01:01:46, 2026-04-12 01:16:42, 2026-04-12 01:31:57", "cumulative_total": 54.0 }, "geometry": { "type": "Polygon", "coordinates": [ [ [ -72.922433384312811, 47.011303290989908 ], [ -72.928906794523243, 47.014018432192103 ], [ -72.928705948572514, 47.01921045667244 ], [ -72.922030419576231, 47.02168729694494 ], [ -72.915556457069627, 47.018971761039573 ], [ -72.915758575835909, 47.013779779632841 ], [ -72.922433384312811, 47.011303290989908 ] ] ] } },
{ "type": "Feature", "properties": { "hex_id": 630792, "centroid_lon": -72.921627230463713, "centroid_lat": 47.032071281334886, "occurrences_today": 7, "datetimes_today": "2026-04-12 00:01:58, 2026-04-12 00:16:43, 2026-04-12 00:31:43, 2026-04-12 00:46:47, 2026-04-12 01:01:46, 2026-04-12 01:16:42, 2026-04-12 01:31:57", "cumulative_total": 54.0 }, "geometry": { "type": "Polygon", "coordinates": [ [ [ -72.921828853076775, 47.026879291835641 ], [ -72.928304088929451, 47.029594489471847 ], [ -72.928103075198052, 47.034786497790527 ], [ -72.921425551717505, 47.037263265442512 ], [ -72.91494976312616, 47.034547672887101 ], [ -72.915152050734406, 47.029355707666895 ], [ -72.921828853076775, 47.026879291835641 ] ] ] } },
{ "type": "Feature", "properties": { "hex_id": 630793, "centroid_lon": -72.921022025747106, "centroid_lat": 47.047647217482108, "occurrences_today": 7, "datetimes_today": "2026-04-12 00:01:58, 2026-04-12 00:16:43, 2026-04-12 00:31:43, 2026-04-12 00:46:47, 2026-04-12 01:01:46, 2026-04-12 01:16:42, 2026-04-12 01:31:57", "cumulative_total": 54.0 }, "geometry": { "type": "Polygon", "coordinates": [ [ [ -72.921223816818511, 47.042455244158305 ], [ -72.92770087981782, 47.045170498264987 ], [ -72.927499698129864, 47.05036249042039 ], [ -72.92082017848368, 47.052839185413752 ], [ -72.914342562302778, 47.050123536171732 ], [ -72.914545018930013, 47.0449315871397 ], [ -72.921223816818511, 47.042455244158305 ] ] ] } },
{ "type": "Feature", "properties": { "hex_id": 630794, "centroid_lon": -72.920416315302148, "centroid_lat": 47.063223105099802, "occurrences_today": 7, "datetimes_today": "2026-04-12 00:01:58, 2026-04-12 00:16:43, 2026-04-12 00:31:43, 2026-04-12 00:46:47, 2026-04-12 01:01:46, 2026-04-12 01:16:42, 2026-04-12 01:31:57", "cumulative_total": 54.0 }, "geometry": { "type": "Polygon", "coordinates": [ [ [ -72.920618275008579, 47.058031147953045 ], [ -72.927097166660403, 47.060746458566683 ], [ -72.926895816839732, 47.065938434557211 ], [ -72.920214299344764, 47.06841505685383 ], [ -72.913734854067982, 47.065699350888544 ], [ -72.913937479891473, 47.060507418046335 ], [ -72.920618275008579, 47.058031147953045 ] ] ] } },
{ "type": "Feature", "properties": { "hex_id": 631398, "centroid_lon": -72.917776673458661, "centroid_lat": 46.961859668862296, "occurrences_today": 7, "datetimes_today": "2026-04-12 00:01:58, 2026-04-12 00:16:43, 2026-04-12 00:31:43, 2026-04-12 00:46:47, 2026-04-12 01:01:46, 2026-04-12 01:16:42, 2026-04-12 01:31:57", "cumulative_total": 54.0 }, "geometry": { "type": "Polygon", "coordinates": [ [ [ -72.917978174647814, 46.956667628118943 ], [ -72.92444484783266, 46.959382937789094 ], [ -72.924243953170716, 46.96457499736313 ], [ -72.917575116223986, 46.967051704212317 ], [ -72.911107892567216, 46.964336000535461 ], [ -72.91131005630956, 46.959143984083894 ], [ -72.917978174647814, 46.956667628118943 ] ] ] } },
{ "type": "Feature", "properties": { "hex_id": 631399, "centroid_lon": -72.917171833539896, "centroid_lat": 46.977435758731673, "occurrences_today": 7, "datetimes_today": "2026-04-12 00:01:58, 2026-04-12 00:16:43, 2026-04-12 00:31:43, 2026-04-12 00:46:47, 2026-04-12 01:01:46, 2026-04-12 01:16:42, 2026-04-12 01:31:57", "cumulative_total": 54.0 }, "geometry": { "type": "Polygon", "coordinates": [ [ [ -72.917373502924249, 46.972243734168828 ], [ -72.923841996190006, 46.974959100343142 ], [ -72.923640933832246, 46.980151143748763 ], [ -72.916970108051373, 46.982627777900618 ], [ -72.910501063872985, 46.979912017504027 ], [ -72.910703396368547, 46.974720017245716 ], [ -72.917373502924249, 46.972243734168828 ] ] ] } },
{ "type": "Feature", "properties": { "hex_id": 631400, "centroid_lon": -72.916566488683515, "centroid_lat": 46.993011800056195, "occurrences_today": 7, "datetimes_today": "2026-04-12 00:01:58, 2026-04-12 00:16:43, 2026-04-12 00:31:43, 2026-04-12 00:46:47, 2026-04-12 01:01:46, 2026-04-12 01:16:42, 2026-04-12 01:31:57", "cumulative_total": 54.0 }, "geometry": { "type": "Polygon", "coordinates": [ [ [ -72.916768326439112, 46.987819791675534 ], [ -72.923238641284442, 46.990535214390384 ], [ -72.923037411055333, 46.995727241625993 ], [ -72.916364594764985, 46.998203803042443 ], [ -72.909893728565891, 46.995487985889582 ], [ -72.910096229991296, 46.990296001826167 ], [ -72.916768326439112, 46.987819791675534 ] ] ] } },
{ "type": "Feature", "properties": { "hex_id": 631401, "centroid_lon": -72.915960638360815, "centroid_lat": 47.008587792830944, "occurrences_today": 7, "datetimes_today": "2026-04-12 00:01:58, 2026-04-12 00:16:43, 2026-04-12 00:31:43, 2026-04-12 00:46:47, 2026-04-12 01:01:46, 2026-04-12 01:16:42, 2026-04-12 01:31:57", "cumulative_total": 54.0 }, "geometry": { "type": "Polygon", "coordinates": [ [ [ -72.91616264466397, 47.003395800634095 ], [ -72.922634782589071, 47.006111279925932 ], [ -72.922433384312811, 47.011303290989908 ], [ -72.915758575835909, 47.013779779632841 ], [ -72.909285886115455, 47.011063905687109 ], [ -72.909488556647631, 47.005871937820238 ], [ -72.91616264466397, 47.003395800634095 ] ] ] } },
{ "type": "Feature", "properties": { "hex_id": 631402, "centroid_lon": -72.915354282042344, "centroid_lat": 47.024163737050984, "occurrences_today": 7, "datetimes_today": "2026-04-12 00:01:58, 2026-04-12 00:16:43, 2026-04-12 00:31:43, 2026-04-12 00:46:47, 2026-04-12 01:01:46, 2026-04-12 01:16:42, 2026-04-12 01:31:57", "cumulative_total": 54.0 }, "geometry": { "type": "Polygon", "coordinates": [ [ [ -72.915556457069627, 47.018971761039573 ], [ -72.922030419576231, 47.02168729694494 ], [ -72.921828853076775, 47.026879291835641 ], [ -72.915152050734406, 47.029355707666895 ], [ -72.908677535990478, 47.026639776891678 ], [ -72.908880375806575, 47.021447825223014 ], [ -72.915556457069627, 47.018971761039573 ] ] ] } },
{ "type": "Feature", "properties": { "hex_id": 631403, "centroid_lon": -72.914747419197909, "centroid_lat": 47.039739632711431, "occurrences_today": 7, "datetimes_today": "2026-04-12 00:01:58, 2026-04-12 00:16:43, 2026-04-12 00:31:43, 2026-04-12 00:46:47, 2026-04-12 01:01:46, 2026-04-12 01:16:42, 2026-04-12 01:31:57", "cumulative_total": 54.0 }, "geometry": { "type": "Polygon", "coordinates": [ [ [ -72.91494976312616, 47.034547672887101 ], [ -72.921425551717505, 47.037263265442512 ], [ -72.921223816818511, 47.042455244158305 ], [ -72.914545018930013, 47.0449315871397 ], [ -72.908068677658918, 47.042215599498313 ], [ -72.908271686936374, 47.037023664029505 ], [ -72.91494976312616, 47.034547672887101 ] ] ] } },
{ "type": "Feature", "properties": { "hex_id": 631404, "centroid_lon": -72.914140049296506, "centroid_lat": 47.055315479807327, "occurrences_today": 7, "datetimes_today": "2026-04-12 00:01:58, 2026-04-12 00:16:43, 2026-04-12 00:31:43, 2026-04-12 00:46:47, 2026-04-12 01:01:46, 2026-04-12 01:16:42, 2026-04-12 01:31:57", "cumulative_total": 54.0 }, "geometry": { "type": "Polygon", "coordinates": [ [ [ -72.914342562302778, 47.050123536171732 ], [ -72.92082017848368, 47.052839185413752 ], [ -72.920618275008579, 47.058031147953045 ], [ -72.913937479891473, 47.060507418046335 ], [ -72.907459310587996, 47.057791373502063 ], [ -72.907662489504489, 47.052599454234766 ], [ -72.914342562302778, 47.050123536171732 ] ] ] } },
{ "type": "Feature", "properties": { "hex_id": 632008, "centroid_lon": -72.911512163840058, "centroid_lat": 46.953951962234946, "occurrences_today": 7, "datetimes_today": "2026-04-12 00:01:58, 2026-04-12 00:16:43, 2026-04-12 00:31:43, 2026-04-12 00:46:47, 2026-04-12 01:01:46, 2026-04-12 01:16:42, 2026-04-12 01:31:57", "cumulative_total": 78.0 }, "geometry": { "type": "Polygon", "coordinates": [ [ [ -72.911714215178279, 46.948759934988793 ], [ -72.918179619810985, 46.951475581982436 ], [ -72.917978174647814, 46.956667628118943 ], [ -72.91131005630956, 46.959143984083894 ], [ -72.904844101703887, 46.956427943132745 ], [ -72.905046815389838, 46.951235940241936 ], [ -72.911714215178279, 46.948759934988793 ] ] ] } },
{ "type": "Feature", "properties": { "hex_id": 632009, "centroid_lon": -72.910905672593415, "centroid_lat": 46.969528011589453, "occurrences_today": 7, "datetimes_today": "2026-04-12 00:01:58, 2026-04-12 00:16:43, 2026-04-12 00:31:43, 2026-04-12 00:46:47, 2026-04-12 01:01:46, 2026-04-12 01:16:42, 2026-04-12 01:31:57", "cumulative_total": 54.0 }, "geometry": { "type": "Polygon", "coordinates": [ [ [ -72.911107892567216, 46.964336000535461 ], [ -72.917575116223986, 46.967051704212317 ], [ -72.917373502924249, 46.972243734168828 ], [ -72.910703396368547, 46.974720017245716 ], [ -72.904235622298586, 46.972003919395775 ], [ -72.904438505177922, 46.966811932709867 ], [ -72.911107892567216, 46.964336000535461 ] ] ] } },
{ "type": "Feature", "properties": { "hex_id": 632010, "centroid_lon": -72.910298675087105, "centroid_lat": 46.985104012364239, "occurrences_today": 7, "datetimes_today": "2026-04-12 00:01:58, 2026-04-12 00:16:43, 2026-04-12 00:31:43, 2026-04-12 00:46:47, 2026-04-12 01:01:46, 2026-04-12 01:16:42, 2026-04-12 01:31:57", "cumulative_total": 54.0 }, "geometry": { "type": "Polygon", "coordinates": [ [ [ -72.910501063872985, 46.979912017504027 ], [ -72.916970108051373, 46.982627777900618 ], [ -72.916768326439112, 46.987819791675534 ], [ -72.910096229991296, 46.990296001826167 ], [ -72.903626634959068, 46.987579847040799 ], [ -72.903829687208841, 46.98238787656144 ], [ -72.910501063872985, 46.979912017504027 ] ] ] } },
{ "type": "Feature", "properties": { "hex_id": 632011, "centroid_lon": -72.909691170791206, "centroid_lat": 47.000679964554344, "occurrences_today": 7, "datetimes_today": "2026-04-12 00:01:58, 2026-04-12 00:16:43, 2026-04-12 00:31:43, 2026-04-12 00:46:47, 2026-04-12 01:01:46, 2026-04-12 01:16:42, 2026-04-12 01:31:57", "cumulative_total": 54.0 }, "geometry": { "type": "Polygon", "coordinates": [ [ [ -72.909893728565891, 46.995487985889582 ], [ -72.916364594764985, 46.998203803042443 ], [ -72.91616264466397, 47.003395800634095 ], [ -72.909488556647631, 47.005871937820238 ], [ -72.903017139153633, 47.003155726062786 ], [ -72.903220360951181, 46.99796377179166 ], [ -72.909893728565891, 46.995487985889582 ] ] ] } },
{ "type": "Feature", "properties": { "hex_id": 632012, "centroid_lon": -72.909083159174997, "centroid_lat": 47.016255868154779, "occurrences_today": 7, "datetimes_today": "2026-04-12 00:01:58, 2026-04-12 00:16:43, 2026-04-12 00:31:43, 2026-04-12 00:46:47, 2026-04-12 01:01:46, 2026-04-12 01:16:42, 2026-04-12 01:31:57", "cumulative_total": 54.0 }, "geometry": { "type": "Polygon", "coordinates": [ [ [ -72.909285886115455, 47.011063905687109 ], [ -72.915758575835909, 47.013779779632841 ], [ -72.915556457069627, 47.018971761039573 ], [ -72.908880375806575, 47.021447825223014 ], [ -72.902407134349772, 47.018731556456743 ], [ -72.902610525872674, 47.013539618395519 ], [ -72.909285886115455, 47.011063905687109 ] ] ] } },
{ "type": "Feature", "properties": { "hex_id": 632013, "centroid_lon": -72.908474639706981, "centroid_lat": 47.031831723160572, "occurrences_today": 7, "datetimes_today": "2026-04-12 00:01:58, 2026-04-12 00:16:43, 2026-04-12 00:31:43, 2026-04-12 00:46:47, 2026-04-12 01:01:46, 2026-04-12 01:16:42, 2026-04-12 01:31:57", "cumulative_total": 54.0 }, "geometry": { "type": "Polygon", "coordinates": [ [ [ -72.908677535990478, 47.026639776891678 ], [ -72.915152050734406, 47.029355707666895 ], [ -72.91494976312616, 47.034547672887101 ], [ -72.908271686936374, 47.037023664029505 ], [ -72.901796620014167, 47.034307338217666 ], [ -72.902000181440286, 47.029115416368001 ], [ -72.908677535990478, 47.026639776891678 ] ] ] } },
{ "type": "Feature", "properties": { "hex_id": 632014, "centroid_lon": -72.907865611854874, "centroid_lat": 47.047407529566783, "occurrences_today": 7, "datetimes_today": "2026-04-12 00:01:58, 2026-04-12 00:16:43, 2026-04-12 00:31:43, 2026-04-12 00:46:47, 2026-04-12 01:01:46, 2026-04-12 01:16:42, 2026-04-12 01:31:57", "cumulative_total": 54.0 }, "geometry": { "type": "Polygon", "coordinates": [ [ [ -72.908068677658918, 47.042215599498313 ], [ -72.914545018930013, 47.0449315871397 ], [ -72.914342562302778, 47.050123536171732 ], [ -72.907662489504489, 47.052599454234766 ], [ -72.901185595612802, 47.049883071340545 ], [ -72.901389327120228, 47.044691165704116 ], [ -72.908068677658918, 47.042215599498313 ] ] ] } },
{ "type": "Feature", "properties": { "hex_id": 632618, "centroid_lon": -72.905249472717301, "centroid_lat": 46.946043931949859, "occurrences_today": 7, "datetimes_today": "2026-04-12 00:01:58, 2026-04-12 00:16:43, 2026-04-12 00:31:43, 2026-04-12 00:46:47, 2026-04-12 01:01:46, 2026-04-12 01:16:42, 2026-04-12 01:31:57", "cumulative_total": 78.0 }, "geometry": { "type": "Polygon", "coordinates": [ [ [ -72.905452073705916, 46.940851918256705 ], [ -72.911916210343804, 46.943567902345663 ], [ -72.911714215178279, 46.948759934988793 ], [ -72.905046815389838, 46.951235940241936 ], [ -72.898582129277543, 46.948519562244705 ], [ -72.89878539240847, 46.943327572970396 ], [ -72.905452073705916, 46.940851918256705 ] ] ] } },
{ "type": "Feature", "properties": { "hex_id": 632619, "centroid_lon": -72.904641331639795, "centroid_lat": 46.961619940622121, "occurrences_today": 7, "datetimes_today": "2026-04-12 00:01:58, 2026-04-12 00:16:43, 2026-04-12 00:31:43, 2026-04-12 00:46:47, 2026-04-12 01:01:46, 2026-04-12 01:16:42, 2026-04-12 01:31:57", "cumulative_total": 78.0 }, "geometry": { "type": "Polygon", "coordinates": [ [ [ -72.904844101703887, 46.956427943132745 ], [ -72.91131005630956, 46.959143984083894 ], [ -72.911107892567216, 46.964336000535461 ], [ -72.904438505177922, 46.966811932709867 ], [ -72.8979720006581, 46.964095497634922 ], [ -72.898175433422054, 46.95890352457716 ], [ -72.904844101703887, 46.956427943132745 ] ] ] } },
{ "type": "Feature", "properties": { "hex_id": 632620, "centroid_lon": -72.90403268298212, "centroid_lat": 46.977195900679696, "occurrences_today": 7, "datetimes_today": "2026-04-12 00:01:58, 2026-04-12 00:16:43, 2026-04-12 00:31:43, 2026-04-12 00:46:47, 2026-04-12 01:01:46, 2026-04-12 01:16:42, 2026-04-12 01:31:57", "cumulative_total": 54.0 }, "geometry": { "type": "Polygon", "coordinates": [ [ [ -72.904235622298586, 46.972003919395775 ], [ -72.910703396368547, 46.974720017245716 ], [ -72.910501063872985, 46.979912017504027 ], [ -72.903829687208841, 46.98238787656144 ], [ -72.89736136278465, 46.979671384372047 ], [ -72.897564965359123, 46.97447942753255 ], [ -72.904235622298586, 46.972003919395775 ] ] ] } },
{ "type": "Feature", "properties": { "hex_id": 632621, "centroid_lon": -72.903423526213089, "centroid_lat": 46.992771812117603, "occurrences_today": 7, "datetimes_today": "2026-04-12 00:01:58, 2026-04-12 00:16:43, 2026-04-12 00:31:43, 2026-04-12 00:46:47, 2026-04-12 01:01:46, 2026-04-12 01:16:42, 2026-04-12 01:31:57", "cumulative_total": 54.0 }, "geometry": { "type": "Polygon", "coordinates": [ [ [ -72.903626634959068, 46.987579847040799 ], [ -72.910096229991296, 46.990296001826167 ], [ -72.909893728565891, 46.995487985889582 ], [ -72.903220360951181, 46.99796377179166 ], [ -72.896750215124172, 46.99524722245107 ], [ -72.896953987686928, 46.990055281831502 ], [ -72.903626634959068, 46.987579847040799 ] ] ] } },
{ "type": "Feature", "properties": { "hex_id": 632622, "centroid_lon": -72.902813860800705, "centroid_lat": 47.00834767493081, "occurrences_today": 7, "datetimes_today": "2026-04-12 00:01:58, 2026-04-12 00:16:43, 2026-04-12 00:31:43, 2026-04-12 00:46:47, 2026-04-12 01:01:46, 2026-04-12 01:16:42, 2026-04-12 01:31:57", "cumulative_total": 54.0 }, "geometry": { "type": "Polygon", "coordinates": [ [ [ -72.903017139153633, 47.003155726062786 ], [ -72.909488556647631, 47.005871937820238 ], [ -72.909285886115455, 47.011063905687109 ], [ -72.902610525872674, 47.013539618395519 ], [ -72.896138557142919, 47.010823011866911 ], [ -72.896342499871963, 47.005631087468956 ], [ -72.903017139153633, 47.003155726062786 ] ] ] } },
{ "type": "Feature", "properties": { "hex_id": 632623, "centroid_lon": -72.902203686212232, "centroid_lat": 47.023923489114289, "occurrences_today": 7, "datetimes_today": "2026-04-12 00:01:58, 2026-04-12 00:16:43, 2026-04-12 00:31:43, 2026-04-12 00:46:47, 2026-04-12 01:01:46, 2026-04-12 01:16:42, 2026-04-12 01:31:57", "cumulative_total": 54.0 }, "geometry": { "type": "Polygon", "coordinates": [ [ [ -72.902407134349772, 47.018731556456743 ], [ -72.908880375806575, 47.021447825223014 ], [ -72.908677535990478, 47.026639776891678 ], [ -72.902000181440286, 47.029115416368001 ], [ -72.895526388306337, 47.026398752614526 ], [ -72.89573050137993, 47.021206844439881 ], [ -72.902407134349772, 47.018731556456743 ] ] ] } },
{ "type": "Feature", "properties": { "hex_id": 633229, "centroid_lon": -72.898378809621974, "centroid_lat": 46.953711546113695, "occurrences_today": 7, "datetimes_today": "2026-04-12 00:01:58, 2026-04-12 00:16:43, 2026-04-12 00:31:43, 2026-04-12 00:46:47, 2026-04-12 01:01:46, 2026-04-12 01:16:42, 2026-04-12 01:31:57", "cumulative_total": 54.0 }, "geometry": { "type": "Polygon", "coordinates": [ [ [ -72.898582129277543, 46.948519562244705 ], [ -72.905046815389838, 46.951235940241936 ], [ -72.904844101703887, 46.956427943132745 ], [ -72.898175433422054, 46.95890352457716 ], [ -72.891710197894326, 46.956186752505424 ], [ -72.891914180044139, 46.950994793131549 ], [ -72.898582129277543, 46.948519562244705 ] ] ] } },
{ "type": "Feature", "properties": { "hex_id": 633230, "centroid_lon": -72.89776851131036, "centroid_lat": 46.969287465286762, "occurrences_today": 7, "datetimes_today": "2026-04-12 00:01:58, 2026-04-12 00:16:43, 2026-04-12 00:31:43, 2026-04-12 00:46:47, 2026-04-12 01:01:46, 2026-04-12 01:16:42, 2026-04-12 01:31:57", "cumulative_total": 54.0 }, "geometry": { "type": "Polygon", "coordinates": [ [ [ -72.8979720006581, 46.964095497634922 ], [ -72.904438505177922, 46.966811932709867 ], [ -72.904235622298586, 46.972003919395775 ], [ -72.897564965359123, 46.97447942753255 ], [ -72.891097910984271, 46.971762598167459 ], [ -72.891302063384188, 46.96657065502356 ], [ -72.8979720006581, 46.964095497634922 ] ] ] } },
{ "type": "Feature", "properties": { "hex_id": 633231, "centroid_lon": -72.897157703567174, "centroid_lat": 46.984863335805095, "occurrences_today": 7, "datetimes_today": "2026-04-12 00:01:58, 2026-04-12 00:16:43, 2026-04-12 00:31:43, 2026-04-12 00:46:47, 2026-04-12 01:01:46, 2026-04-12 01:16:42, 2026-04-12 01:31:57", "cumulative_total": 54.0 }, "geometry": { "type": "Polygon", "coordinates": [ [ [ -72.89736136278465, 46.979671384372047 ], [ -72.903829687208841, 46.98238787656144 ], [ -72.903626634959068, 46.987579847040799 ], [ -72.896953987686928, 46.990055281831502 ], [ -72.890485112967653, 46.98733839513622 ], [ -72.890689435795835, 46.982146468223974 ], [ -72.89736136278465, 46.979671384372047 ] ] ] } },
{ "type": "Feature", "properties": { "hex_id": 713765, "centroid_lon": -72.07415964579107, "centroid_lat": 46.156172185545195, "occurrences_today": 7, "datetimes_today": "2026-04-12 00:01:58, 2026-04-12 00:16:43, 2026-04-12 00:31:43, 2026-04-12 00:46:47, 2026-04-12 01:01:46, 2026-04-12 01:16:42, 2026-04-12 01:31:57", "cumulative_total": 169.0 }, "geometry": { "type": "Polygon", "coordinates": [ [ [ -72.074434876482144, 46.150982757914178 ], [ -72.080764036460579, 46.153742940141647 ], [ -72.080489374248927, 46.158932394570044 ], [ -72.073884339404344, 46.161361607171543 ], [ -72.067554686655043, 46.158601034214101 ], [ -72.067830561495398, 46.153411639450646 ], [ -72.074434876482144, 46.150982757914178 ] ] ] } },
{ "type": "Feature", "properties": { "hex_id": 728393, "centroid_lon": -71.939629088726107, "centroid_lat": 45.778489451429373, "occurrences_today": 7, "datetimes_today": "2026-04-12 00:01:58, 2026-04-12 00:16:43, 2026-04-12 00:31:43, 2026-04-12 00:46:47, 2026-04-12 01:01:46, 2026-04-12 01:16:42, 2026-04-12 01:31:57", "cumulative_total": 69.0 }, "geometry": { "type": "Polygon", "coordinates": [ [ [ -71.939913196862534, 45.773300317659533 ], [ -71.946193333137145, 45.776066875772521 ], [ -71.945909780171121, 45.781256037447356 ], [ -71.939344902831095, 45.783678579091777 ], [ -71.93306428915777, 45.780911634061368 ], [ -71.93334903019695, 45.775722534368548 ], [ -71.939913196862534, 45.773300317659533 ] ] ] } },
{ "type": "Feature", "properties": { "hex_id": 729003, "centroid_lon": -71.933633693328773, "centroid_lat": 45.770533428562842, "occurrences_today": 7, "datetimes_today": "2026-04-12 00:01:58, 2026-04-12 00:16:43, 2026-04-12 00:31:43, 2026-04-12 00:46:47, 2026-04-12 01:01:46, 2026-04-12 01:16:42, 2026-04-12 01:31:57", "cumulative_total": 80.0 }, "geometry": { "type": "Polygon", "coordinates": [ [ [ -71.933918278579512, 45.76534431664475 ], [ -71.940197227266609, 45.768111177782764 ], [ -71.939913196862534, 45.773300317659533 ], [ -71.93334903019695, 45.775722534368548 ], [ -71.927069604557403, 45.77295528636634 ], [ -71.927354822509614, 45.767766208583851 ], [ -71.933918278579512, 45.76534431664475 ] ] ] } },
{ "type": "Feature", "properties": { "hex_id": 729614, "centroid_lon": -71.926784308549117, "centroid_lat": 45.778144358030481, "occurrences_today": 7, "datetimes_today": "2026-04-12 00:01:58, 2026-04-12 00:16:43, 2026-04-12 00:31:43, 2026-04-12 00:46:47, 2026-04-12 01:01:46, 2026-04-12 01:16:42, 2026-04-12 01:31:57", "cumulative_total": 55.0 }, "geometry": { "type": "Polygon", "coordinates": [ [ [ -71.927069604557403, 45.77295528636634 ], [ -71.93334903019695, 45.775722534368548 ], [ -71.93306428915777, 45.780911634061368 ], [ -71.926498934458408, 45.78333342357579 ], [ -71.920219031945351, 45.780565788552515 ], [ -71.920504960978832, 45.775376751100467 ], [ -71.927069604557403, 45.77295528636634 ] ] ] } },
{ "type": "Feature", "properties": { "hex_id": 592855, "centroid_lon": -73.369807562961753, "centroid_lat": 45.698733575588612, "occurrences_today": 4, "datetimes_today": "2026-04-12 00:01:58, 2026-04-12 00:16:43, 2026-04-12 00:31:43, 2026-04-12 00:46:47", "cumulative_total": 64.0 }, "geometry": { "type": "Polygon", "coordinates": [ [ [ -73.36995853212477, 45.693539053134586 ], [ -73.376302653165197, 45.696227754273863 ], [ -73.376152257321607, 45.701422290636629 ], [ -73.369656552477636, 45.703928092909798 ], [ -73.363311899445875, 45.701239018510321 ], [ -73.363463483235478, 45.696044515162747 ], [ -73.36995853212477, 45.693539053134586 ] ] ] } },
{ "type": "Feature", "properties": { "hex_id": 561704, "centroid_lon": -73.702835454323349, "centroid_lat": 45.461351741571463, "occurrences_today": 7, "datetimes_today": "2026-04-12 00:01:58, 2026-04-12 00:16:43, 2026-04-12 00:31:43, 2026-04-12 00:46:47, 2026-04-12 01:01:46, 2026-04-12 01:16:42, 2026-04-12 01:31:57", "cumulative_total": 26.0 }, "geometry": { "type": "Polygon", "coordinates": [ [ [ -73.702954598452777, 45.456156229614024 ], [ -73.709288586034376, 45.458826421377488 ], [ -73.709170012600069, 45.46402194389097 ], [ -73.702716277672337, 45.466547248538298 ], [ -73.696381751922672, 45.463876689631569 ], [ -73.696501499257906, 45.458681193285166 ], [ -73.702954598452777, 45.456156229614024 ] ] ] } },
{ "type": "Feature", "properties": { "hex_id": 675265, "centroid_lon": -72.508638773784099, "centroid_lat": 45.566265258331491, "occurrences_today": 7, "datetimes_today": "2026-04-12 00:01:58, 2026-04-12 00:16:43, 2026-04-12 00:31:43, 2026-04-12 00:46:47, 2026-04-12 01:01:46, 2026-04-12 01:16:42, 2026-04-12 01:31:57", "cumulative_total": 16.0 }, "geometry": { "type": "Polygon", "coordinates": [ [ [ -72.508868390243336, 45.561073427931689 ], [ -72.515154625789677, 45.563808845269371 ], [ -72.514925566554041, 45.569000697966722 ], [ -72.508409094612787, 45.571457083087985 ], [ -72.502122364565452, 45.568721286459201 ], [ -72.502352600939318, 45.563529484064588 ], [ -72.508868390243336, 45.561073427931689 ] ] ] } },
{ "type": "Feature", "properties": { "hex_id": 676486, "centroid_lon": -72.495836254593044, "centroid_lat": 45.565985155238991, "occurrences_today": 7, "datetimes_today": "2026-04-12 00:01:58, 2026-04-12 00:16:43, 2026-04-12 00:31:43, 2026-04-12 00:46:47, 2026-04-12 01:01:46, 2026-04-12 01:16:42, 2026-04-12 01:31:57", "cumulative_total": 16.0 }, "geometry": { "type": "Polygon", "coordinates": [ [ [ -72.496067047998608, 45.560793375266122 ], [ -72.502352600939318, 45.563529484064588 ], [ -72.502122364565452, 45.568721286459201 ], [ -72.495605398154794, 45.571176929559357 ], [ -72.48931935122566, 45.568440441361766 ], [ -72.489550764674448, 45.563248689527498 ], [ -72.496067047998608, 45.560793375266122 ] ] ] } },
{ "type": "Feature", "properties": { "hex_id": 821812, "centroid_lon": -70.943622821336376, "centroid_lat": 45.942312177876971, "occurrences_today": 6, "datetimes_today": "2026-04-12 00:16:43, 2026-04-12 00:31:43, 2026-04-12 00:46:47, 2026-04-12 01:01:46, 2026-04-12 01:16:42, 2026-04-12 01:31:57", "cumulative_total": 6.0 }, "geometry": { "type": "Polygon", "coordinates": [ [ [ -70.944001414480326, 45.937128808130083 ], [ -70.950246239062977, 45.939949062870276 ], [ -70.949868190678643, 45.945132470147747 ], [ -70.943244124475243, 45.947495540476012 ], [ -70.93699885886771, 45.9446748885549 ], [ -70.937378100453373, 45.93949156355086 ], [ -70.944001414480326, 45.937128808130083 ] ] ] } }
]
}
