{
"type": "FeatureCollection",
"name": "daily_2026-01-19",
"crs": { "type": "name", "properties": { "name": "urn:ogc:def:crs:OGC:1.3:CRS84" } },
"features": [
{ "type": "Feature", "properties": { "hex_id": 788286, "centroid_lon": -71.243051035341949, "centroid_lat": 46.755431136997998, "occurrences_today": 3, "datetimes_today": "2026-01-19 00:31:45, 2026-01-19 00:47:08, 2026-01-19 00:49:01", "cumulative_total": 3.0 }, "geometry": { "type": "Polygon", "coordinates": [ [ [ -71.243411813645295, 46.750246653892106 ], [ -71.249763992059997, 46.753053456957062 ], [ -71.249403787645562, 46.758237975279165 ], [ -71.242690157120222, 46.760615613244447 ], [ -71.236337504752285, 46.757808404477558 ], [ -71.236698956828363, 46.752623963513848 ], [ -71.243411813645295, 46.750246653892106 ] ] ] } },
{ "type": "Feature", "properties": { "hex_id": 788897, "centroid_lon": -71.235975952568808, "centroid_lat": 46.762992838574085, "occurrences_today": 3, "datetimes_today": "2026-01-19 00:31:45, 2026-01-19 00:47:08, 2026-01-19 00:49:01", "cumulative_total": 3.0 }, "geometry": { "type": "Polygon", "coordinates": [ [ [ -71.236337504752285, 46.757808404477558 ], [ -71.242690157120222, 46.760615613244447 ], [ -71.242329178945539, 46.765800082630726 ], [ -71.235614300243284, 46.768177265802727 ], [ -71.229261174025908, 46.765369651173366 ], [ -71.229623400325579, 46.760185259301018 ], [ -71.236337504752285, 46.757808404477558 ] ] ] } },
{ "type": "Feature", "properties": { "hex_id": 789507, "centroid_lon": -71.229985526328804, "centroid_lat": 46.755000860553764, "occurrences_today": 3, "datetimes_today": "2026-01-19 00:31:45, 2026-01-19 00:47:08, 2026-01-19 00:49:01", "cumulative_total": 3.0 }, "geometry": { "type": "Polygon", "coordinates": [ [ [ -71.230347552070214, 46.749816454932343 ], [ -71.236698956828363, 46.752623963513848 ], [ -71.236337504752285, 46.757808404477558 ], [ -71.229623400325579, 46.760185259301018 ], [ -71.223271522181207, 46.757377344917138 ], [ -71.22363422181509, 46.752192981578709 ], [ -71.230347552070214, 46.749816454932343 ] ] ] } },
{ "type": "Feature", "properties": { "hex_id": 790118, "centroid_lon": -71.222908722096506, "centroid_lat": 46.762561701373663, "occurrences_today": 3, "datetimes_today": "2026-01-19 00:31:45, 2026-01-19 00:47:08, 2026-01-19 00:49:01", "cumulative_total": 3.0 }, "geometry": { "type": "Polygon", "coordinates": [ [ [ -71.223271522181207, 46.757377344917138 ], [ -71.229623400325579, 46.760185259301018 ], [ -71.229261174025908, 46.765369651173366 ], [ -71.222545821526197, 46.767746050947522 ], [ -71.216193470099753, 46.764937730600799 ], [ -71.216556944420319, 46.759753416509298 ], [ -71.223271522181207, 46.757377344917138 ] ] ] } }
]
}
