{
"type": "FeatureCollection",
"name": "daily_2026-04-30",
"crs": { "type": "name", "properties": { "name": "urn:ogc:def:crs:OGC:1.3:CRS84" } },
"features": [
{ "type": "Feature", "properties": { "hex_id": 554382, "centroid_lon": -73.778215615217789, "centroid_lat": 45.524545010380336, "occurrences_today": 5, "datetimes_today": "2026-04-30 01:19:50, 2026-04-30 01:34:53, 2026-04-30 01:49:53, 2026-04-30 02:04:50, 2026-04-30 02:19:57", "cumulative_total": 43.0 }, "geometry": { "type": "Polygon", "coordinates": [ [ [ -73.778328084207544, 45.51934940563158 ], [ -73.784672747591642, 45.5220154977522 ], [ -73.784560852216217, 45.527211112324174 ], [ -73.778103115504265, 45.529740610165533 ], [ -73.771757909234779, 45.527074150811643 ], [ -73.771870982552301, 45.521878560914232 ], [ -73.778328084207544, 45.51934940563158 ] ] ] } },
{ "type": "Feature", "properties": { "hex_id": 554993, "centroid_lon": -73.77164480502752, "centroid_lat": 45.532269735743192, "occurrences_today": 7, "datetimes_today": "2026-04-30 00:34:46, 2026-04-30 00:49:52, 2026-04-30 01:19:50, 2026-04-30 01:34:53, 2026-04-30 01:49:53, 2026-04-30 02:04:50, 2026-04-30 02:19:57", "cumulative_total": 72.0 }, "geometry": { "type": "Polygon", "coordinates": [ [ [ -73.771757909234779, 45.527074150811643 ], [ -73.778103115504265, 45.529740610165533 ], [ -73.777990585056642, 45.534936204987119 ], [ -73.771531669920151, 45.537465315708886 ], [ -73.765185920796313, 45.534798488962004 ], [ -73.765299629652944, 45.529602918950921 ], [ -73.771757909234779, 45.527074150811643 ] ] ] } },
{ "type": "Feature", "properties": { "hex_id": 420093, "centroid_lon": -75.187911284332145, "centroid_lat": 45.858312517597064, "occurrences_today": 1, "datetimes_today": "2026-04-30 02:19:57", "cumulative_total": 38.0 }, "geometry": { "type": "Polygon", "coordinates": [ [ [ -75.187893782817227, 45.853116062466654 ], [ -75.19434302876671, 45.855703518425592 ], [ -75.194361132632608, 45.860899969238112 ], [ -75.187928790648712, 45.863508967975505 ], [ -75.181478937545819, 45.860921154456143 ], [ -75.181462033581852, 45.855724699825252 ], [ -75.187893782817227, 45.853116062466654 ] ] ] } },
{ "type": "Feature", "properties": { "hex_id": 570266, "centroid_lon": -73.607556849323487, "centroid_lat": 45.694084300244903, "occurrences_today": 9, "datetimes_today": "2026-04-30 00:04:50, 2026-04-30 00:20:14, 2026-04-30 00:34:46, 2026-04-30 00:49:52, 2026-04-30 01:19:50, 2026-04-30 01:34:53, 2026-04-30 01:49:53, 2026-04-30 02:04:50, 2026-04-30 02:19:57", "cumulative_total": 57.0 }, "geometry": { "type": "Polygon", "coordinates": [ [ [ -73.607685784740241, 45.688889203962916 ], [ -73.614041091540216, 45.691564826771213 ], [ -73.613912732571137, 45.6967599346074 ], [ -73.607427878614516, 45.699279391498187 ], [ -73.601072030665023, 45.696603397699192 ], [ -73.601201577809775, 45.691408318065037 ], [ -73.607685784740241, 45.688889203962916 ] ] ] } },
{ "type": "Feature", "properties": { "hex_id": 571487, "centroid_lon": -73.594716794605972, "centroid_lat": 45.693927056119882, "occurrences_today": 9, "datetimes_today": "2026-04-30 00:04:50, 2026-04-30 00:20:14, 2026-04-30 00:34:46, 2026-04-30 00:49:52, 2026-04-30 01:19:50, 2026-04-30 01:34:53, 2026-04-30 01:49:53, 2026-04-30 02:04:50, 2026-04-30 02:19:57", "cumulative_total": 48.0 }, "geometry": { "type": "Polygon", "coordinates": [ [ [ -73.594846918018078, 45.68873198816722 ], [ -73.601201577809775, 45.691408318065037 ], [ -73.601072030665023, 45.696603397699192 ], [ -73.594586635576761, 45.699122119038648 ], [ -73.58823143514087, 45.696445418031971 ], [ -73.588362170425413, 45.691250366859627 ], [ -73.594846918018078, 45.68873198816722 ] ] ] } },
{ "type": "Feature", "properties": { "hex_id": 573319, "centroid_lon": -73.575258987474811, "centroid_lat": 45.701481013046156, "occurrences_today": 9, "datetimes_today": "2026-04-30 00:04:50, 2026-04-30 00:20:14, 2026-04-30 00:34:46, 2026-04-30 00:49:52, 2026-04-30 01:19:50, 2026-04-30 01:34:53, 2026-04-30 01:49:53, 2026-04-30 02:04:50, 2026-04-30 02:19:57", "cumulative_total": 32.0 }, "geometry": { "type": "Polygon", "coordinates": [ [ [ -73.575390946973542, 45.696285995637176 ], [ -73.581745499426447, 45.698963403705889 ], [ -73.581614116158846, 45.704158432991136 ], [ -73.575126991853338, 45.706676025413223 ], [ -73.568771899298127, 45.703998245957337 ], [ -73.568904471138566, 45.698803245531472 ], [ -73.575390946973542, 45.696285995637176 ] ] ] } },
{ "type": "Feature", "properties": { "hex_id": 512862, "centroid_lon": -74.214842940770254, "centroid_lat": 45.434837957411652, "occurrences_today": 9, "datetimes_today": "2026-04-30 00:04:50, 2026-04-30 00:20:14, 2026-04-30 00:34:46, 2026-04-30 00:49:52, 2026-04-30 01:19:50, 2026-04-30 01:34:53, 2026-04-30 01:49:53, 2026-04-30 02:04:50, 2026-04-30 02:19:57", "cumulative_total": 144.0 }, "geometry": { "type": "Polygon", "coordinates": [ [ [ -74.21491499445645, 45.429641576084606 ], [ -74.22127056595717, 45.432283523448092 ], [ -74.221199088956581, 45.437479910241592 ], [ -74.214770867419318, 45.440034333901295 ], [ -74.208414738901041, 45.437392024601941 ], [ -74.20848738893099, 45.432195653643177 ], [ -74.21491499445645, 45.429641576084606 ] ] ] } },
{ "type": "Feature", "properties": { "hex_id": 512861, "centroid_lon": -74.215059042860958, "centroid_lat": 45.419248798918375, "occurrences_today": 9, "datetimes_today": "2026-04-30 00:04:50, 2026-04-30 00:20:14, 2026-04-30 00:34:46, 2026-04-30 00:49:52, 2026-04-30 01:19:50, 2026-04-30 01:34:53, 2026-04-30 01:49:53, 2026-04-30 02:04:50, 2026-04-30 02:19:57", "cumulative_total": 62.0 }, "geometry": { "type": "Polygon", "coordinates": [ [ [ -74.215131037592442, 45.414052403079218 ], [ -74.221484879976273, 45.416694334051918 ], [ -74.221413461460486, 45.421890735353244 ], [ -74.214987028484487, 45.424445189920185 ], [ -74.208632629533255, 45.42180289720914 ], [ -74.20870522011883, 45.416606511733896 ], [ -74.215131037592442, 45.414052403079218 ] ] ] } },
{ "type": "Feature", "properties": { "hex_id": 513472, "centroid_lon": -74.208560019139512, "centroid_lat": 45.426999277845567, "occurrences_today": 9, "datetimes_today": "2026-04-30 00:04:50, 2026-04-30 00:20:14, 2026-04-30 00:34:46, 2026-04-30 00:49:52, 2026-04-30 01:19:50, 2026-04-30 01:34:53, 2026-04-30 01:49:53, 2026-04-30 02:04:50, 2026-04-30 02:19:57", "cumulative_total": 44.0 }, "geometry": { "type": "Polygon", "coordinates": [ [ [ -74.208632629533255, 45.42180289720914 ], [ -74.214987028484487, 45.424445189920185 ], [ -74.21491499445645, 45.429641576084606 ], [ -74.20848738893099, 45.432195653643177 ], [ -74.202132433432155, 45.429552999033895 ], [ -74.202205639999747, 45.424356628828697 ], [ -74.208632629533255, 45.42180289720914 ] ] ] } },
{ "type": "Feature", "properties": { "hex_id": 513473, "centroid_lon": -74.208342069043013, "centroid_lat": 45.442588390721852, "occurrences_today": 9, "datetimes_today": "2026-04-30 00:04:50, 2026-04-30 00:20:14, 2026-04-30 00:34:46, 2026-04-30 00:49:52, 2026-04-30 01:19:50, 2026-04-30 01:34:53, 2026-04-30 01:49:53, 2026-04-30 02:04:50, 2026-04-30 02:19:57", "cumulative_total": 57.0 }, "geometry": { "type": "Polygon", "coordinates": [ [ [ -74.208414738901041, 45.437392024601941 ], [ -74.214770867419318, 45.440034333901295 ], [ -74.21469877439705, 45.445230705553513 ], [ -74.208269379350256, 45.447784752002889 ], [ -74.201912693834259, 45.445142080607667 ], [ -74.201985960356112, 45.439945724923398 ], [ -74.208414738901041, 45.437392024601941 ] ] ] } },
{ "type": "Feature", "properties": { "hex_id": 573916, "centroid_lon": -73.574177725666388, "centroid_lat": 45.490999092882156, "occurrences_today": 4, "datetimes_today": "2026-04-30 00:04:50, 2026-04-30 00:20:14, 2026-04-30 00:34:46, 2026-04-30 00:49:52", "cumulative_total": 151.0 }, "geometry": { "type": "Polygon", "coordinates": [ [ [ -73.574308820030609, 45.485803885699788 ], [ -73.580639845459416, 45.488481165864954 ], [ -73.580509320943918, 45.493676384882136 ], [ -73.574046595507809, 45.496194295023372 ], [ -73.567715036030648, 45.493516646137465 ], [ -73.567846736025942, 45.488321455895523 ], [ -73.574308820030609, 45.485803885699788 ] ] ] } },
{ "type": "Feature", "properties": { "hex_id": 360249, "centroid_lon": -75.815660971000867, "centroid_lat": 45.621708679715212, "occurrences_today": 7, "datetimes_today": "2026-04-30 00:04:50, 2026-04-30 00:20:14, 2026-04-30 00:34:46, 2026-04-30 00:49:52, 2026-04-30 01:19:50, 2026-04-30 01:34:53, 2026-04-30 01:49:53", "cumulative_total": 82.0 }, "geometry": { "type": "Polygon", "coordinates": [ [ [ -75.815585629063804, 45.61651250782019 ], [ -75.82203602790311, 45.619064627844892 ], [ -75.822111972428544, 45.624260789033649 ], [ -75.81573633354634, 45.626904846765967 ], [ -75.809285311506784, 45.624352378662152 ], [ -75.809210551556632, 45.619156200969968 ], [ -75.815585629063804, 45.61651250782019 ] ] ] } },
{ "type": "Feature", "properties": { "hex_id": 556814, "centroid_lon": -73.756042230123967, "centroid_lat": 45.368399433663001, "occurrences_today": 9, "datetimes_today": "2026-04-30 00:04:50, 2026-04-30 00:20:14, 2026-04-30 00:34:46, 2026-04-30 00:49:52, 2026-04-30 01:19:50, 2026-04-30 01:34:53, 2026-04-30 01:49:53, 2026-04-30 02:04:50, 2026-04-30 02:19:57", "cumulative_total": 103.0 }, "geometry": { "type": "Polygon", "coordinates": [ [ [ -73.756156118482266, 45.363203729624679 ], [ -73.762482385531186, 45.365870929879186 ], [ -73.762369065792711, 45.371066643927023 ], [ -73.755928310712491, 45.373595132730536 ], [ -73.749601506102096, 45.370927567004252 ], [ -73.749715994122994, 45.365731878010429 ], [ -73.756156118482266, 45.363203729624679 ] ] ] } },
{ "type": "Feature", "properties": { "hex_id": 570877, "centroid_lon": -73.600942448059627, "centroid_lat": 45.701798472302031, "occurrences_today": 9, "datetimes_today": "2026-04-30 00:04:50, 2026-04-30 00:20:14, 2026-04-30 00:34:46, 2026-04-30 00:49:52, 2026-04-30 01:19:50, 2026-04-30 01:34:53, 2026-04-30 01:49:53, 2026-04-30 02:04:50, 2026-04-30 02:19:57", "cumulative_total": 34.0 }, "geometry": { "type": "Polygon", "coordinates": [ [ [ -73.601072030665023, 45.696603397699192 ], [ -73.607427878614516, 45.699279391498187 ], [ -73.607298872601419, 45.704474477722727 ], [ -73.600812829981592, 45.706993541873487 ], [ -73.594456440918393, 45.704317176923468 ], [ -73.594586635576761, 45.699122119038648 ], [ -73.601072030665023, 45.696603397699192 ] ] ] } },
{ "type": "Feature", "properties": { "hex_id": 571488, "centroid_lon": -73.59432621061886, "centroid_lat": 45.709512229774241, "occurrences_today": 9, "datetimes_today": "2026-04-30 00:04:50, 2026-04-30 00:20:14, 2026-04-30 00:34:46, 2026-04-30 00:49:52, 2026-04-30 01:19:50, 2026-04-30 01:34:53, 2026-04-30 01:49:53, 2026-04-30 02:04:50, 2026-04-30 02:19:57", "cumulative_total": 34.0 }, "geometry": { "type": "Polygon", "coordinates": [ [ [ -73.594456440918393, 45.704317176923468 ], [ -73.600812829981592, 45.706993541873487 ], [ -73.600683176418983, 45.71218860641347 ], [ -73.59419594466614, 45.714707277590882 ], [ -73.587839014525201, 45.712030541329455 ], [ -73.587969857202836, 45.70683550526698 ], [ -73.594456440918393, 45.704317176923468 ] ] ] } },
{ "type": "Feature", "properties": { "hex_id": 572098, "centroid_lon": -73.58810066407068, "centroid_lat": 45.701640464167788, "occurrences_today": 9, "datetimes_today": "2026-04-30 00:04:50, 2026-04-30 00:20:14, 2026-04-30 00:34:46, 2026-04-30 00:49:52, 2026-04-30 01:19:50, 2026-04-30 01:34:53, 2026-04-30 01:49:53, 2026-04-30 02:04:50, 2026-04-30 02:19:57", "cumulative_total": 36.0 }, "geometry": { "type": "Polygon", "coordinates": [ [ [ -73.58823143514087, 45.696445418031971 ], [ -73.594586635576761, 45.699122119038648 ], [ -73.594456440918393, 45.704317176923468 ], [ -73.587969857202836, 45.70683550526698 ], [ -73.581614116158846, 45.704158432991136 ], [ -73.581745499426447, 45.698963403705889 ], [ -73.58823143514087, 45.696445418031971 ] ] ] } },
{ "type": "Feature", "properties": { "hex_id": 572099, "centroid_lon": -73.587708136025725, "centroid_lat": 45.717225572355154, "occurrences_today": 9, "datetimes_today": "2026-04-30 00:04:50, 2026-04-30 00:20:14, 2026-04-30 00:34:46, 2026-04-30 00:49:52, 2026-04-30 01:19:50, 2026-04-30 01:34:53, 2026-04-30 01:49:53, 2026-04-30 02:04:50, 2026-04-30 02:19:57", "cumulative_total": 58.0 }, "geometry": { "type": "Polygon", "coordinates": [ [ [ -73.587839014525201, 45.712030541329455 ], [ -73.59419594466614, 45.714707277590882 ], [ -73.594065643048197, 45.719902320373315 ], [ -73.587577221692328, 45.722420598343987 ], [ -73.58121975050986, 45.719743490610767 ], [ -73.581351241712696, 45.714548476443653 ], [ -73.587839014525201, 45.712030541329455 ] ] ] } },
{ "type": "Feature", "properties": { "hex_id": 572709, "centroid_lon": -73.581482696924965, "centroid_lat": 45.709353457237079, "occurrences_today": 9, "datetimes_today": "2026-04-30 00:04:50, 2026-04-30 00:20:14, 2026-04-30 00:34:46, 2026-04-30 00:49:52, 2026-04-30 01:19:50, 2026-04-30 01:34:53, 2026-04-30 01:49:53, 2026-04-30 02:04:50, 2026-04-30 02:19:57", "cumulative_total": 31.0 }, "geometry": { "type": "Polygon", "coordinates": [ [ [ -73.581614116158846, 45.704158432991136 ], [ -73.587969857202836, 45.70683550526698 ], [ -73.587839014525201, 45.712030541329455 ], [ -73.581351241712696, 45.714548476443653 ], [ -73.574994960096944, 45.711871032738308 ], [ -73.575126991853338, 45.706676025413223 ], [ -73.581614116158846, 45.704158432991136 ] ] ] } },
{ "type": "Feature", "properties": { "hex_id": 504964, "centroid_lon": -74.290377143940262, "centroid_lat": 46.035539815229995, "occurrences_today": 6, "datetimes_today": "2026-04-30 00:04:50, 2026-04-30 00:20:14, 2026-04-30 00:34:46, 2026-04-30 00:49:52, 2026-04-30 01:19:50, 2026-04-30 01:34:53", "cumulative_total": 27.0 }, "geometry": { "type": "Polygon", "coordinates": [ [ [ -74.290443644248086, 46.030343893110967 ], [ -74.29687099477529, 46.032981784278796 ], [ -74.296805090752528, 46.038177711186947 ], [ -74.290310625348567, 46.040735732529512 ], [ -74.283882696823284, 46.038097472549005 ], [ -74.283949811693788, 46.032901560104392 ], [ -74.290443644248086, 46.030343893110967 ] ] ] } },
{ "type": "Feature", "properties": { "hex_id": 505574, "centroid_lon": -74.284016908117195, "centroid_lat": 46.027705642838932, "occurrences_today": 6, "datetimes_today": "2026-04-30 00:04:50, 2026-04-30 00:20:14, 2026-04-30 00:34:46, 2026-04-30 00:49:52, 2026-04-30 01:19:50, 2026-04-30 01:34:53", "cumulative_total": 63.0 }, "geometry": { "type": "Polygon", "coordinates": [ [ [ -74.284083986099773, 46.022509720752602 ], [ -74.290510126278278, 46.025147966172412 ], [ -74.290443644248086, 46.030343893110967 ], [ -74.283949811693788, 46.032901560104392 ], [ -74.277523094006895, 46.03026294590989 ], [ -74.277590786376393, 46.025067033562458 ], [ -74.284083986099773, 46.022509720752602 ] ] ] } },
{ "type": "Feature", "properties": { "hex_id": 699111, "centroid_lon": -72.230947663498299, "centroid_lat": 46.128902061468992, "occurrences_today": 3, "datetimes_today": "2026-04-30 01:49:53, 2026-04-30 02:04:50, 2026-04-30 02:19:57", "cumulative_total": 213.0 }, "geometry": { "type": "Polygon", "coordinates": [ [ [ -72.231207909441693, 46.123711901588294 ], [ -72.237542249012861, 46.126463509400715 ], [ -72.237282573071454, 46.131653694537633 ], [ -72.23068734599552, 46.134092215477203 ], [ -72.224352507993927, 46.131340218642151 ], [ -72.224613395474336, 46.126150089955686 ], [ -72.231207909441693, 46.123711901588294 ] ] ] } },
{ "type": "Feature", "properties": { "hex_id": 699721, "centroid_lon": -72.22487421124157, "centroid_lat": 46.120959955391683, "occurrences_today": 3, "datetimes_today": "2026-04-30 01:49:53, 2026-04-30 02:04:50, 2026-04-30 02:19:57", "cumulative_total": 213.0 }, "geometry": { "type": "Polygon", "coordinates": [ [ [ -72.225134955320044, 46.115769814950518 ], [ -72.231468083850089, 46.118521735835515 ], [ -72.231207909441693, 46.123711901588294 ], [ -72.224613395474336, 46.126150089955686 ], [ -72.218279768975179, 46.123397780100156 ], [ -72.218541154388092, 46.11820767091325 ], [ -72.225134955320044, 46.115769814950518 ] ] ] } },
{ "type": "Feature", "properties": { "hex_id": 699722, "centroid_lon": -72.224091548775903, "centroid_lat": 46.136530341450715, "occurrences_today": 3, "datetimes_today": "2026-04-30 01:49:53, 2026-04-30 02:04:50, 2026-04-30 02:19:57", "cumulative_total": 213.0 }, "geometry": { "type": "Polygon", "coordinates": [ [ [ -72.224352507993927, 46.131340218642151 ], [ -72.23068734599552, 46.134092215477203 ], [ -72.230426956908943, 46.139282363612587 ], [ -72.223830517795804, 46.141720458380973 ], [ -72.217495181437044, 46.138968072363632 ], [ -72.217756782524148, 46.133777980825727 ], [ -72.224352507993927, 46.131340218642151 ] ] ] } },
{ "type": "Feature", "properties": { "hex_id": 700332, "centroid_lon": -72.21801831169536, "centroid_lat": 46.12858788340445, "occurrences_today": 3, "datetimes_today": "2026-04-30 01:49:53, 2026-04-30 02:04:50, 2026-04-30 02:19:57", "cumulative_total": 218.0 }, "geometry": { "type": "Polygon", "coordinates": [ [ [ -72.218279768975179, 46.123397780100156 ], [ -72.224613395474336, 46.126150089955686 ], [ -72.224352507993927, 46.131340218642151 ], [ -72.217756782524148, 46.133777980825727 ], [ -72.211422658129209, 46.131025281840039 ], [ -72.211684757075346, 46.125835209866452 ], [ -72.218279768975179, 46.123397780100156 ] ] ] } },
{ "type": "Feature", "properties": { "hex_id": 587957, "centroid_lon": -73.427274449984097, "centroid_lat": 45.481275259051529, "occurrences_today": 9, "datetimes_today": "2026-04-30 00:04:50, 2026-04-30 00:20:14, 2026-04-30 00:34:46, 2026-04-30 00:49:52, 2026-04-30 01:19:50, 2026-04-30 01:34:53, 2026-04-30 01:49:53, 2026-04-30 02:04:50, 2026-04-30 02:19:57", "cumulative_total": 159.0 }, "geometry": { "type": "Polygon", "coordinates": [ [ [ -73.427418998863828, 45.476080392147075 ], [ -73.433741768743701, 45.478765713276808 ], [ -73.433597787422102, 45.483960593462719 ], [ -73.427129861643593, 45.486470120851571 ], [ -73.420806563672969, 45.483784429762494 ], [ -73.420951719558374, 45.478589581308327 ], [ -73.427418998863828, 45.476080392147075 ] ] ] } },
{ "type": "Feature", "properties": { "hex_id": 587346, "centroid_lon": -73.433885710771278, "centroid_lat": 45.473570827989413, "occurrences_today": 9, "datetimes_today": "2026-04-30 00:04:50, 2026-04-30 00:20:14, 2026-04-30 00:34:46, 2026-04-30 00:49:52, 2026-04-30 01:19:50, 2026-04-30 01:34:53, 2026-04-30 01:49:53, 2026-04-30 02:04:50, 2026-04-30 02:19:57", "cumulative_total": 207.0 }, "geometry": { "type": "Polygon", "coordinates": [ [ [ -73.434029613518007, 45.468375937600669 ], [ -73.440351855267522, 45.471060888929813 ], [ -73.440208519938608, 45.476255792532804 ], [ -73.433741768743701, 45.478765713276808 ], [ -73.427418998863828, 45.476080392147075 ], [ -73.427563508296046, 45.470885520138332 ], [ -73.434029613518007, 45.468375937600669 ] ] ] } },
{ "type": "Feature", "properties": { "hex_id": 588567, "centroid_lon": -73.421096835829502, "centroid_lat": 45.473394727746893, "occurrences_today": 9, "datetimes_today": "2026-04-30 00:04:50, 2026-04-30 00:20:14, 2026-04-30 00:34:46, 2026-04-30 00:49:52, 2026-04-30 01:19:50, 2026-04-30 01:34:53, 2026-04-30 01:49:53, 2026-04-30 02:04:50, 2026-04-30 02:19:57", "cumulative_total": 148.0 }, "geometry": { "type": "Polygon", "coordinates": [ [ [ -73.421241912499667, 45.468199869078319 ], [ -73.427563508296046, 45.470885520138332 ], [ -73.427418998863828, 45.476080392147075 ], [ -73.420951719558374, 45.478589581308327 ], [ -73.414629596131647, 45.47590356033195 ], [ -73.414775279627477, 45.470708720175082 ], [ -73.421241912499667, 45.468199869078319 ] ] ] } },
{ "type": "Feature", "properties": { "hex_id": 504965, "centroid_lon": -74.290177533288698, "centroid_lat": 46.051127552670089, "occurrences_today": 6, "datetimes_today": "2026-04-30 00:04:50, 2026-04-30 00:20:14, 2026-04-30 00:34:46, 2026-04-30 00:49:52, 2026-04-30 01:19:50, 2026-04-30 01:34:53", "cumulative_total": 84.0 }, "geometry": { "type": "Polygon", "coordinates": [ [ [ -74.290244088466793, 46.045931645009546 ], [ -74.296673228339188, 46.048569550548727 ], [ -74.296607269936274, 46.053765463002406 ], [ -74.290110959808061, 46.056323455511155 ], [ -74.283681241466155, 46.053685180957714 ], [ -74.283748411715735, 46.048489282975645 ], [ -74.290244088466793, 46.045931645009546 ] ] ] } },
{ "type": "Feature", "properties": { "hex_id": 587956, "centroid_lon": -73.427707978293938, "centroid_lat": 45.465690643025383, "occurrences_today": 9, "datetimes_today": "2026-04-30 00:04:50, 2026-04-30 00:20:14, 2026-04-30 00:34:46, 2026-04-30 00:49:52, 2026-04-30 01:19:50, 2026-04-30 01:34:53, 2026-04-30 01:49:53, 2026-04-30 02:04:50, 2026-04-30 02:19:57", "cumulative_total": 92.0 }, "geometry": { "type": "Polygon", "coordinates": [ [ [ -73.427852408870748, 45.460495760808364 ], [ -73.434173476997032, 45.463181042110676 ], [ -73.434029613518007, 45.468375937600669 ], [ -73.427563508296046, 45.470885520138332 ], [ -73.421241912499667, 45.468199869078319 ], [ -73.421386949582129, 45.463005005302726 ], [ -73.427852408870748, 45.460495760808364 ] ] ] } },
{ "type": "Feature", "properties": { "hex_id": 415819, "centroid_lon": -75.232964223408302, "centroid_lat": 45.850434819695835, "occurrences_today": 1, "datetimes_today": "2026-04-30 02:19:57", "cumulative_total": 6.0 }, "geometry": { "type": "Polygon", "coordinates": [ [ [ -75.232942531771371, 45.845238372399393 ], [ -75.239392944376092, 45.847823287050907 ], [ -75.239415238681914, 45.853019729570647 ], [ -75.232985920995816, 45.855631262237473 ], [ -75.22653489977057, 45.853045990587354 ], [ -75.22651380485398, 45.847849543334434 ], [ -75.232942531771371, 45.845238372399393 ] ] ] } },
{ "type": "Feature", "properties": { "hex_id": 417040, "centroid_lon": -75.220084475430141, "centroid_lat": 45.850460352482628, "occurrences_today": 1, "datetimes_today": "2026-04-30 02:19:57", "cumulative_total": 6.0 }, "geometry": { "type": "Polygon", "coordinates": [ [ [ -75.220063983020978, 45.845263900584278 ], [ -75.22651380485398, 45.847849543334434 ], [ -75.22653489977057, 45.853045990587354 ], [ -75.220104973460948, 45.855656799627035 ], [ -75.213654543497938, 45.853070799745517 ], [ -75.213634647976463, 45.847874348021094 ], [ -75.220063983020978, 45.845263900584278 ] ] ] } },
{ "type": "Feature", "properties": { "hex_id": 505575, "centroid_lon": -74.283815563499346, "centroid_lat": 46.043293380172734, "occurrences_today": 6, "datetimes_today": "2026-04-30 00:04:50, 2026-04-30 00:20:14, 2026-04-30 00:34:46, 2026-04-30 00:49:52, 2026-04-30 01:19:50, 2026-04-30 01:34:53", "cumulative_total": 60.0 }, "geometry": { "type": "Polygon", "coordinates": [ [ [ -74.283882696823284, 46.038097472549005 ], [ -74.290310625348567, 46.040735732529512 ], [ -74.290244088466793, 46.045931645009546 ], [ -74.283748411715735, 46.048489282975645 ], [ -74.277319905211115, 46.045850654018849 ], [ -74.277387653430594, 46.040654756138075 ], [ -74.283882696823284, 46.038097472549005 ] ] ] } },
{ "type": "Feature", "properties": { "hex_id": 506186, "centroid_lon": -74.2772521383623, "centroid_lat": 46.051046547077419, "occurrences_today": 6, "datetimes_today": "2026-04-30 00:04:50, 2026-04-30 00:20:14, 2026-04-30 00:34:46, 2026-04-30 00:49:52, 2026-04-30 01:19:50, 2026-04-30 01:34:53", "cumulative_total": 87.0 }, "geometry": { "type": "Polygon", "coordinates": [ [ [ -74.277319905211115, 46.045850654018849 ], [ -74.283748411715735, 46.048489282975645 ], [ -74.283681241466155, 46.053685180957714 ], [ -74.277184352877811, 46.056242435313798 ], [ -74.270755268412813, 46.053603437217127 ], [ -74.2708236504902, 46.048407553970115 ], [ -74.277319905211115, 46.045850654018849 ] ] ] } },
{ "type": "Feature", "properties": { "hex_id": 506185, "centroid_lon": -74.277455383027075, "centroid_lat": 46.035458853435109, "occurrences_today": 6, "datetimes_today": "2026-04-30 00:04:50, 2026-04-30 00:20:14, 2026-04-30 00:34:46, 2026-04-30 00:49:52, 2026-04-30 01:19:50, 2026-04-30 01:34:53", "cumulative_total": 22.0 }, "geometry": { "type": "Polygon", "coordinates": [ [ [ -74.277523094006895, 46.03026294590989 ], [ -74.283949811693788, 46.032901560104392 ], [ -74.283882696823284, 46.038097472549005 ], [ -74.277387653430594, 46.040654756138075 ], [ -74.270960358254214, 46.038015773005355 ], [ -74.271028683953645, 46.032819875287586 ], [ -74.277523094006895, 46.03026294590989 ] ] ] } },
{ "type": "Feature", "properties": { "hex_id": 556828, "centroid_lon": -73.751230749314985, "centroid_lat": 45.586614513881933, "occurrences_today": 3, "datetimes_today": "2026-04-30 00:04:50, 2026-04-30 00:20:14, 2026-04-30 00:49:52", "cumulative_total": 56.0 }, "geometry": { "type": "Polygon", "coordinates": [ [ [ -73.751345950903428, 45.581419018670211 ], [ -73.757696233153681, 45.584086641259937 ], [ -73.757581606696519, 45.589282146575876 ], [ -73.751115516233, 45.591810004120298 ], [ -73.744764690350337, 45.589142013256598 ], [ -73.744880498553002, 45.583946533187174 ], [ -73.751345950903428, 45.581419018670211 ] ] ] } },
{ "type": "Feature", "properties": { "hex_id": 704608, "centroid_lon": -72.170772232241248, "centroid_lat": 46.166400842657211, "occurrences_today": 2, "datetimes_today": "2026-04-30 01:49:53, 2026-04-30 02:04:50", "cumulative_total": 128.0 }, "geometry": { "type": "Polygon", "coordinates": [ [ [ -72.17103847712356, 46.161210983848164 ], [ -72.177373876153098, 46.16396594336819 ], [ -72.177108201512524, 46.169155828038754 ], [ -72.17050591411882, 46.171590695543031 ], [ -72.164170018100123, 46.168835345987127 ], [ -72.16443690643932, 46.1636455190284 ], [ -72.17103847712356, 46.161210983848164 ] ] ] } },
{ "type": "Feature", "properties": { "hex_id": 705218, "centroid_lon": -72.164703721384583, "centroid_lat": 46.158455686141266, "occurrences_today": 2, "datetimes_today": "2026-04-30 01:49:53, 2026-04-30 02:04:50", "cumulative_total": 128.0 }, "geometry": { "type": "Polygon", "coordinates": [ [ [ -72.164970462960937, 46.153265847326118 ], [ -72.171304648790752, 46.156021119116282 ], [ -72.17103847712356, 46.161210983848164 ], [ -72.16443690643932, 46.1636455190284 ], [ -72.158102224081759, 46.160889857254908 ], [ -72.158369608911187, 46.155700050350049 ], [ -72.164970462960937, 46.153265847326118 ] ] ] } },
{ "type": "Feature", "properties": { "hex_id": 705219, "centroid_lon": -72.163903056341965, "centroid_lat": 46.174025167017057, "occurrences_today": 2, "datetimes_today": "2026-04-30 01:49:53, 2026-04-30 02:04:50", "cumulative_total": 124.0 }, "geometry": { "type": "Polygon", "coordinates": [ [ [ -72.164170018100123, 46.168835345987127 ], [ -72.17050591411882, 46.171590695543031 ], [ -72.170239522731336, 46.176780542505242 ], [ -72.163636021139808, 46.179214982117777 ], [ -72.157299628206943, 46.176459242366249 ], [ -72.157567233754733, 46.171269453263406 ], [ -72.164170018100123, 46.168835345987127 ] ] ] } },
{ "type": "Feature", "properties": { "hex_id": 705220, "centroid_lon": -72.163101730303254, "centroid_lat": 46.189594594530007, "occurrences_today": 3, "datetimes_today": "2026-04-30 01:49:53, 2026-04-30 02:04:50, 2026-04-30 02:19:57", "cumulative_total": 120.0 }, "geometry": { "type": "Polygon", "coordinates": [ [ [ -72.163368912468599, 46.184404791288891 ], [ -72.169706520061169, 46.187160218657212 ], [ -72.169439908728464, 46.192350047846176 ], [ -72.162834474618734, 46.194784391840706 ], [ -72.156496369725261, 46.19202857406431 ], [ -72.156764196217338, 46.186838802767106 ], [ -72.163368912468599, 46.184404791288891 ] ] ] } },
{ "type": "Feature", "properties": { "hex_id": 705829, "centroid_lon": -72.157834765704649, "centroid_lat": 46.166079658226153, "occurrences_today": 2, "datetimes_today": "2026-04-30 01:49:53, 2026-04-30 02:04:50", "cumulative_total": 124.0 }, "geometry": { "type": "Polygon", "coordinates": [ [ [ -72.158102224081759, 46.160889857254908 ], [ -72.16443690643932, 46.1636455190284 ], [ -72.164170018100123, 46.168835345987127 ], [ -72.157567233754733, 46.171269453263406 ], [ -72.151232054944586, 46.168513401346914 ], [ -72.151500156907318, 46.163323632362719 ], [ -72.158102224081759, 46.160889857254908 ] ] ] } },
{ "type": "Feature", "properties": { "hex_id": 705830, "centroid_lon": -72.157031949036195, "centroid_lat": 46.181649025534263, "occurrences_today": 2, "datetimes_today": "2026-04-30 01:49:53, 2026-04-30 02:04:50", "cumulative_total": 124.0 }, "geometry": { "type": "Polygon", "coordinates": [ [ [ -72.157299628206943, 46.176459242366249 ], [ -72.163636021139808, 46.179214982117777 ], [ -72.163368912468599, 46.184404791288891 ], [ -72.156764196217338, 46.186838802767106 ], [ -72.150427306445607, 46.184082672660189 ], [ -72.150695629738877, 46.178892921496058 ], [ -72.157299628206943, 46.176459242366249 ] ] ] } },
{ "type": "Feature", "properties": { "hex_id": 705831, "centroid_lon": -72.15622846953481, "centroid_lat": 46.197218339425547, "occurrences_today": 3, "datetimes_today": "2026-04-30 01:49:53, 2026-04-30 02:04:50, 2026-04-30 02:19:57", "cumulative_total": 153.0 }, "geometry": { "type": "Polygon", "coordinates": [ [ [ -72.156496369725261, 46.19202857406431 ], [ -72.162834474618734, 46.194784391840706 ], [ -72.162567145389914, 46.199974183220611 ], [ -72.15596049562086, 46.202408098850327 ], [ -72.149621893501873, 46.199651890506033 ], [ -72.149890438352287, 46.194462157165582 ], [ -72.156496369725261, 46.19202857406431 ] ] ] } },
{ "type": "Feature", "properties": { "hex_id": 706441, "centroid_lon": -72.150158909325128, "centroid_lat": 46.189272417883508, "occurrences_today": 2, "datetimes_today": "2026-04-30 01:49:53, 2026-04-30 02:04:50", "cumulative_total": 124.0 }, "geometry": { "type": "Polygon", "coordinates": [ [ [ -72.150427306445607, 46.184082672660189 ], [ -72.156764196217338, 46.186838802767106 ], [ -72.156496369725261, 46.19202857406431 ], [ -72.149890438352287, 46.194462157165582 ], [ -72.143553051817136, 46.191705636543475 ], [ -72.143822093393169, 46.186515923400925 ], [ -72.150427306445607, 46.184082672660189 ] ] ] } },
{ "type": "Feature", "properties": { "hex_id": 706442, "centroid_lon": -72.149353274748648, "centroid_lat": 46.204841617904464, "occurrences_today": 3, "datetimes_today": "2026-04-30 01:49:53, 2026-04-30 02:04:50, 2026-04-30 02:19:57", "cumulative_total": 120.0 }, "geometry": { "type": "Polygon", "coordinates": [ [ [ -72.149621893501873, 46.199651890506033 ], [ -72.15596049562086, 46.202408098850327 ], [ -72.155692447958216, 46.207597852338324 ], [ -72.149084582067402, 46.210031339360448 ], [ -72.142745482798475, 46.207274740288348 ], [ -72.143014746545063, 46.202085044987591 ], [ -72.149621893501873, 46.199651890506033 ] ] ] } },
{ "type": "Feature", "properties": { "hex_id": 456126, "centroid_lon": -74.807173438565997, "centroid_lat": 46.068757944994132, "occurrences_today": 5, "datetimes_today": "2026-04-30 01:19:50, 2026-04-30 01:34:53, 2026-04-30 01:49:53, 2026-04-30 02:04:50, 2026-04-30 02:19:57", "cumulative_total": 272.0 }, "geometry": { "type": "Polygon", "coordinates": [ [ [ -74.807191530133437, 46.063561683557019 ], [ -74.813647412281711, 46.066170538024942 ], [ -74.813629924888261, 46.071366799020105 ], [ -74.807155342021929, 46.073954201680394 ], [ -74.800698860677116, 46.071344983115765 ], [ -74.800717561393469, 46.066148726053484 ], [ -74.807191530133437, 46.063561683557019 ] ] ] } },
{ "type": "Feature", "properties": { "hex_id": 456736, "centroid_lon": -74.800736256967241, "centroid_lat": 46.060952464239961, "occurrences_today": 5, "datetimes_today": "2026-04-30 01:19:50, 2026-04-30 01:34:53, 2026-04-30 01:49:53, 2026-04-30 02:04:50, 2026-04-30 02:19:57", "cumulative_total": 271.0 }, "geometry": { "type": "Polygon", "coordinates": [ [ [ -74.800754947400165, 46.05575619767513 ], [ -74.80720961672597, 46.058365417368982 ], [ -74.807191530133437, 46.063561683557019 ], [ -74.800717561393469, 46.066148726053484 ], [ -74.794262293368988, 46.063539142297323 ], [ -74.794281592781402, 46.058342880172908 ], [ -74.800754947400165, 46.05575619767513 ] ] ] } },
{ "type": "Feature", "properties": { "hex_id": 457347, "centroid_lon": -74.794242988648065, "centroid_lat": 46.068735399670068, "occurrences_today": 5, "datetimes_today": "2026-04-30 01:19:50, 2026-04-30 01:34:53, 2026-04-30 01:49:53, 2026-04-30 02:04:50, 2026-04-30 02:19:57", "cumulative_total": 266.0 }, "geometry": { "type": "Polygon", "coordinates": [ [ [ -74.794262293368988, 46.063539142297323 ], [ -74.800717561393469, 46.066148726053484 ], [ -74.800698860677116, 46.071344983115765 ], [ -74.794223678616845, 46.073931652291201 ], [ -74.787767811899016, 46.071321704308168 ], [ -74.787787725933001, 46.066125451442495 ], [ -74.794262293368988, 46.063539142297323 ] ] ] } },
{ "type": "Feature", "properties": { "hex_id": 430470, "centroid_lon": -75.078384455920414, "centroid_lat": 45.835055928033285, "occurrences_today": 7, "datetimes_today": "2026-04-30 00:34:46, 2026-04-30 00:49:52, 2026-04-30 01:19:50, 2026-04-30 01:34:53, 2026-04-30 01:49:53, 2026-04-30 02:04:50, 2026-04-30 02:19:57", "cumulative_total": 49.0 }, "geometry": { "type": "Polygon", "coordinates": [ [ [ -75.078377161324127, 45.829859428539578 ], [ -75.084818650781756, 45.83245308148328 ], [ -75.08482654560369, 45.837649577774322 ], [ -75.078391752517433, 45.840252422779152 ], [ -75.07194966083307, 45.837658411446789 ], [ -75.07194296446238, 45.832461913563627 ], [ -75.078377161324127, 45.829859428539578 ] ] ] } },
{ "type": "Feature", "properties": { "hex_id": 343757, "centroid_lon": -75.986485743379717, "centroid_lat": 45.48784350498434, "occurrences_today": 9, "datetimes_today": "2026-04-30 00:04:50, 2026-04-30 00:20:14, 2026-04-30 00:34:46, 2026-04-30 00:49:52, 2026-04-30 01:19:50, 2026-04-30 01:34:53, 2026-04-30 01:49:53, 2026-04-30 02:04:50, 2026-04-30 02:19:57", "cumulative_total": 97.0 }, "geometry": { "type": "Polygon", "coordinates": [ [ [ -75.98639504805044, 45.482647454829326 ], [ -75.9928376151599, 45.485190052028749 ], [ -75.992928910890626, 45.490386089751183 ], [ -75.986576463475771, 45.493039550250671 ], [ -75.980133271193949, 45.490496608426987 ], [ -75.980043151507672, 45.485300550792608 ], [ -75.98639504805044, 45.482647454829326 ] ] ] } },
{ "type": "Feature", "properties": { "hex_id": 418260, "centroid_lon": -75.207146846930755, "centroid_lat": 45.834895050563894, "occurrences_today": 1, "datetimes_today": "2026-04-30 02:19:57", "cumulative_total": 50.0 }, "geometry": { "type": "Polygon", "coordinates": [ [ [ -75.20712756962223, 45.829698580065759 ], [ -75.213574994141936, 45.832284964326547 ], [ -75.213594873300309, 45.837481430311634 ], [ -75.207166129526541, 45.840091516308838 ], [ -75.20071809786883, 45.837504774979138 ], [ -75.200699417124682, 45.832308304786544 ], [ -75.20712756962223, 45.829698580065759 ] ] ] } },
{ "type": "Feature", "properties": { "hex_id": 419481, "centroid_lon": -75.1942706629398, "centroid_lat": 45.834917667651858, "occurrences_today": 1, "datetimes_today": "2026-04-30 02:19:57", "cumulative_total": 50.0 }, "geometry": { "type": "Polygon", "coordinates": [ [ [ -75.194252583883852, 45.829721193077361 ], [ -75.200699417124682, 45.832308304786544 ], [ -75.20071809786883, 45.837504774979138 ], [ -75.194288746954371, 45.840114137473904 ], [ -75.187841307065881, 45.837526668563335 ], [ -75.187823824741173, 45.832330194424785 ], [ -75.194252583883852, 45.829721193077361 ] ] ] } },
{ "type": "Feature", "properties": { "hex_id": 700942, "centroid_lon": -72.211946783976359, "centroid_lat": 46.120645132004782, "occurrences_today": 3, "datetimes_today": "2026-04-30 01:49:53, 2026-04-30 02:04:50, 2026-04-30 02:19:57", "cumulative_total": 213.0 }, "geometry": { "type": "Polygon", "coordinates": [ [ [ -72.212208738856802, 46.115455048255384 ], [ -72.218541154388092, 46.11820767091325 ], [ -72.218279768975179, 46.123397780100156 ], [ -72.211684757075346, 46.125835209866452 ], [ -72.205351844109373, 46.123082198130632 ], [ -72.205614440453388, 46.11789214577194 ], [ -72.212208738856802, 46.115455048255384 ] ] ] } },
{ "type": "Feature", "properties": { "hex_id": 700943, "centroid_lon": -72.211160487113432, "centroid_lat": 46.136215347925152, "occurrences_today": 3, "datetimes_today": "2026-04-30 01:49:53, 2026-04-30 02:04:50, 2026-04-30 02:19:57", "cumulative_total": 206.0 }, "geometry": { "type": "Polygon", "coordinates": [ [ [ -72.211422658129209, 46.131025281840039 ], [ -72.217756782524148, 46.133777980825727 ], [ -72.217495181437044, 46.138968072363632 ], [ -72.210898244003445, 46.141405408121408 ], [ -72.204563621786335, 46.138652319845932 ], [ -72.204826434800438, 46.133462285167994 ], [ -72.211422658129209, 46.131025281840039 ] ] ] } },
{ "type": "Feature", "properties": { "hex_id": 701553, "centroid_lon": -72.205089175566584, "centroid_lat": 46.128272244596104, "occurrences_today": 3, "datetimes_today": "2026-04-30 01:49:53, 2026-04-30 02:04:50, 2026-04-30 02:19:57", "cumulative_total": 245.0 }, "geometry": { "type": "Polygon", "coordinates": [ [ [ -72.205351844109373, 46.123082198130632 ], [ -72.211684757075346, 46.125835209866452 ], [ -72.211422658129209, 46.131025281840039 ], [ -72.204826434800438, 46.133462285167994 ], [ -72.198493024473478, 46.13070888419459 ], [ -72.198756334811677, 46.125518869196299 ], [ -72.205351844109373, 46.123082198130632 ] ] ] } },
{ "type": "Feature", "properties": { "hex_id": 702774, "centroid_lon": -72.192160256107883, "centroid_lat": 46.1279551451074, "occurrences_today": 3, "datetimes_today": "2026-04-30 01:49:53, 2026-04-30 02:04:50, 2026-04-30 02:19:57", "cumulative_total": 278.0 }, "geometry": { "type": "Polygon", "coordinates": [ [ [ -72.192424135839843, 46.122765155743096 ], [ -72.198756334811677, 46.125518869196299 ], [ -72.198493024473478, 46.13070888419459 ], [ -72.191896303820627, 46.133145128567477 ], [ -72.185563608022704, 46.130391025769399 ], [ -72.18582812967901, 46.125201068008806 ], [ -72.192424135839843, 46.122765155743096 ] ] ] } },
{ "type": "Feature", "properties": { "hex_id": 589178, "centroid_lon": -73.414483872868132, "centroid_lat": 45.481098395378716, "occurrences_today": 9, "datetimes_today": "2026-04-30 00:04:50, 2026-04-30 00:20:14, 2026-04-30 00:34:46, 2026-04-30 00:49:52, 2026-04-30 01:19:50, 2026-04-30 01:34:53, 2026-04-30 01:49:53, 2026-04-30 02:04:50, 2026-04-30 02:19:57", "cumulative_total": 85.0 }, "geometry": { "type": "Polygon", "coordinates": [ [ [ -73.414629596131647, 45.47590356033195 ], [ -73.420951719558374, 45.478589581308327 ], [ -73.420806563672969, 45.483784429762494 ], [ -73.414338109823589, 45.486293225315251 ], [ -73.408015458806446, 45.483606834263774 ], [ -73.408161789215768, 45.478412017799059 ], [ -73.414629596131647, 45.47590356033195 ] ] ] } },
{ "type": "Feature", "properties": { "hex_id": 703385, "centroid_lon": -72.185299013632772, "centroid_lat": 46.135580977620258, "occurrences_today": 3, "datetimes_today": "2026-04-30 01:49:53, 2026-04-30 02:04:50, 2026-04-30 02:19:57", "cumulative_total": 203.0 }, "geometry": { "type": "Polygon", "coordinates": [ [ [ -72.185563608022704, 46.130391025769399 ], [ -72.191896303820627, 46.133145128567477 ], [ -72.191632278953364, 46.138335106122952 ], [ -72.185034346484414, 46.140770923560964 ], [ -72.178701153934654, 46.138016431258471 ], [ -72.178966390580882, 46.132826511087906 ], [ -72.185563608022704, 46.130391025769399 ] ] ] } },
{ "type": "Feature", "properties": { "hex_id": 473834, "centroid_lon": -74.619308631994159, "centroid_lat": 46.122847439102578, "occurrences_today": 4, "datetimes_today": "2026-04-30 01:34:53, 2026-04-30 01:49:53, 2026-04-30 02:04:50, 2026-04-30 02:19:57", "cumulative_total": 24.0 }, "geometry": { "type": "Polygon", "coordinates": [ [ [ -74.619344416841642, 46.117651312455799 ], [ -74.625797671652791, 46.120270743802159 ], [ -74.625762490243332, 46.125466871918661 ], [ -74.619272837296407, 46.128043560983009 ], [ -74.612818988899164, 46.125423762962839 ], [ -74.612855387031573, 46.120227642618204 ], [ -74.619344416841642, 46.117651312455799 ] ] ] } },
{ "type": "Feature", "properties": { "hex_id": 696670, "centroid_lon": -72.256033115519557, "centroid_lat": 46.145096816742246, "occurrences_today": 3, "datetimes_today": "2026-04-30 01:49:53, 2026-04-30 02:04:50, 2026-04-30 02:19:57", "cumulative_total": 217.0 }, "geometry": { "type": "Polygon", "coordinates": [ [ [ -72.256291151329435, 46.139906562051777 ], [ -72.262628627342423, 46.142656840317848 ], [ -72.262371162401465, 46.14784712002762 ], [ -72.255775008741921, 46.150287065580095 ], [ -72.249437032839907, 46.147536398295095 ], [ -72.249695710462262, 46.142346174542105 ], [ -72.256291151329435, 46.139906562051777 ] ] ] } },
{ "type": "Feature", "properties": { "hex_id": 696671, "centroid_lon": -72.255258582186457, "centroid_lat": 46.160667545696334, "occurrences_today": 3, "datetimes_today": "2026-04-30 01:49:53, 2026-04-30 02:04:50, 2026-04-30 02:19:57", "cumulative_total": 119.0 }, "geometry": { "type": "Polygon", "coordinates": [ [ [ -72.255516830972283, 46.155477308564912 ], [ -72.261856020054466, 46.158227661903894 ], [ -72.261598342600138, 46.16341792406967 ], [ -72.255000262360255, 46.165857776973994 ], [ -72.248660572999071, 46.163107034404248 ], [ -72.24891946413257, 46.157916828226526 ], [ -72.255516830972283, 46.155477308564912 ] ] ] } },
{ "type": "Feature", "properties": { "hex_id": 697281, "centroid_lon": -72.249178284071419, "centroid_lat": 46.15272661619003, "occurrences_today": 3, "datetimes_today": "2026-04-30 01:49:53, 2026-04-30 02:04:50, 2026-04-30 02:19:57", "cumulative_total": 217.0 }, "geometry": { "type": "Polygon", "coordinates": [ [ [ -72.249437032839907, 46.147536398295095 ], [ -72.255775008741921, 46.150287065580095 ], [ -72.255516830972283, 46.155477308564912 ], [ -72.24891946413257, 46.157916828226526 ], [ -72.242580988414218, 46.155165771762775 ], [ -72.24284037932766, 46.149975584881737 ], [ -72.249437032839907, 46.147536398295095 ] ] ] } },
{ "type": "Feature", "properties": { "hex_id": 697282, "centroid_lon": -72.248401610646653, "centroid_lat": 46.168297234722772, "occurrences_today": 3, "datetimes_today": "2026-04-30 01:49:53, 2026-04-30 02:04:50, 2026-04-30 02:19:57", "cumulative_total": 117.0 }, "geometry": { "type": "Polygon", "coordinates": [ [ [ -72.248660572999071, 46.163107034404248 ], [ -72.255000262360255, 46.165857776973994 ], [ -72.254741871469406, 46.171048002397519 ], [ -72.248142577051027, 46.173487429181762 ], [ -72.241802387483645, 46.170736297221325 ], [ -72.24206199251654, 46.165546127932949 ], [ -72.248660572999071, 46.163107034404248 ] ] ] } },
{ "type": "Feature", "properties": { "hex_id": 697891, "centroid_lon": -72.243099698916595, "centroid_lat": 46.144785392137223, "occurrences_today": 3, "datetimes_today": "2026-04-30 01:49:53, 2026-04-30 02:04:50, 2026-04-30 02:19:57", "cumulative_total": 117.0 }, "geometry": { "type": "Polygon", "coordinates": [ [ [ -72.243358947205351, 46.139595193529594 ], [ -72.249695710462262, 46.142346174542105 ], [ -72.249437032839907, 46.147536398295095 ], [ -72.24284037932766, 46.149975584881737 ], [ -72.236503116716705, 46.147224214742501 ], [ -72.236763006947726, 46.142034047208902 ], [ -72.243358947205351, 46.139595193529594 ] ] ] } },
{ "type": "Feature", "properties": { "hex_id": 697892, "centroid_lon": -72.242321526151969, "centroid_lat": 46.16035595277998, "occurrences_today": 3, "datetimes_today": "2026-04-30 01:49:53, 2026-04-30 02:04:50, 2026-04-30 02:19:57", "cumulative_total": 117.0 }, "geometry": { "type": "Polygon", "coordinates": [ [ [ -72.242580988414218, 46.155165771762775 ], [ -72.24891946413257, 46.157916828226526 ], [ -72.248660572999071, 46.163107034404248 ], [ -72.24206199251654, 46.165546127932949 ], [ -72.235723017054752, 46.162794682130567 ], [ -72.23598312179459, 46.157604532203699 ], [ -72.242580988414218, 46.155165771762775 ] ] ] } },
{ "type": "Feature", "properties": { "hex_id": 697893, "centroid_lon": -72.241542711028885, "centroid_lat": 46.175926460644732, "occurrences_today": 3, "datetimes_today": "2026-04-30 01:49:53, 2026-04-30 02:04:50, 2026-04-30 02:19:57", "cumulative_total": 117.0 }, "geometry": { "type": "Polygon", "coordinates": [ [ [ -72.241802387483645, 46.170736297221325 ], [ -72.248142577051027, 46.173487429181762 ], [ -72.24788347218788, 46.178677617780842 ], [ -72.241282963127929, 46.181116618202807 ], [ -72.234942273427336, 46.178365096691707 ], [ -72.235202592895533, 46.173174964374944 ], [ -72.241802387483645, 46.170736297221325 ] ] ] } },
{ "type": "Feature", "properties": { "hex_id": 698501, "centroid_lon": -72.237022825724523, "centroid_lat": 46.136843873807152, "occurrences_today": 3, "datetimes_today": "2026-04-30 01:49:53, 2026-04-30 02:04:50, 2026-04-30 02:19:57", "cumulative_total": 121.0 }, "geometry": { "type": "Polygon", "coordinates": [ [ [ -72.237282573071454, 46.131653694537633 ], [ -72.243618124218187, 46.13440498905927 ], [ -72.243358947205351, 46.139595193529594 ], [ -72.236763006947726, 46.142034047208902 ], [ -72.230426956908943, 46.139282363612587 ], [ -72.23068734599552, 46.134092215477203 ], [ -72.237282573071454, 46.131653694537633 ] ] ] } },
{ "type": "Feature", "properties": { "hex_id": 698502, "centroid_lon": -72.236243155007116, "centroid_lat": 46.152414376407549, "occurrences_today": 3, "datetimes_today": "2026-04-30 01:49:53, 2026-04-30 02:04:50, 2026-04-30 02:19:57", "cumulative_total": 117.0 }, "geometry": { "type": "Polygon", "coordinates": [ [ [ -72.236503116716705, 46.147224214742501 ], [ -72.24284037932766, 46.149975584881737 ], [ -72.242580988414218, 46.155165771762775 ], [ -72.23598312179459, 46.157604532203699 ], [ -72.229645359902619, 46.154852772777907 ], [ -72.229905963886907, 46.149662642263316 ], [ -72.236503116716705, 46.147224214742501 ] ] ] } },
{ "type": "Feature", "properties": { "hex_id": 698503, "centroid_lon": -72.235462840763205, "centroid_lat": 46.167984826187769, "occurrences_today": 3, "datetimes_today": "2026-04-30 01:49:53, 2026-04-30 02:04:50, 2026-04-30 02:19:57", "cumulative_total": 117.0 }, "geometry": { "type": "Polygon", "coordinates": [ [ [ -72.235723017054752, 46.162794682130567 ], [ -72.24206199251654, 46.165546127932949 ], [ -72.241802387483645, 46.170736297221325 ], [ -72.235202592895533, 46.173174964374944 ], [ -72.228863117763396, 46.170423129074052 ], [ -72.229123936865307, 46.165233016183642 ], [ -72.235723017054752, 46.162794682130567 ] ] ] } },
{ "type": "Feature", "properties": { "hex_id": 698504, "centroid_lon": -72.234681882334186, "centroid_lat": 46.183555223137674, "occurrences_today": 3, "datetimes_today": "2026-04-30 01:49:53, 2026-04-30 02:04:50, 2026-04-30 02:19:57", "cumulative_total": 178.0 }, "geometry": { "type": "Polygon", "coordinates": [ [ [ -72.234942273427336, 46.178365096691707 ], [ -72.241282963127929, 46.181116618202807 ], [ -72.241023143756394, 46.186306769895147 ], [ -72.234421419591641, 46.18874534371249 ], [ -72.228080229831036, 46.185993432490783 ], [ -72.228341264270753, 46.180803337227985 ], [ -72.234942273427336, 46.178365096691707 ] ] ] } },
{ "type": "Feature", "properties": { "hex_id": 699112, "centroid_lon": -72.230166496214224, "centroid_lat": 46.144472505874752, "occurrences_today": 3, "datetimes_today": "2026-04-30 01:49:53, 2026-04-30 02:04:50, 2026-04-30 02:19:57", "cumulative_total": 117.0 }, "geometry": { "type": "Polygon", "coordinates": [ [ [ -72.230426956908943, 46.139282363612587 ], [ -72.236763006947726, 46.142034047208902 ], [ -72.236503116716705, 46.147224214742501 ], [ -72.229905963886907, 46.149662642263316 ], [ -72.223569415029203, 46.146910569432571 ], [ -72.223830517795804, 46.141720458380973 ], [ -72.230426956908943, 46.139282363612587 ] ] ] } },
{ "type": "Feature", "properties": { "hex_id": 699113, "centroid_lon": -72.229384684236891, "centroid_lat": 46.160042897418144, "occurrences_today": 3, "datetimes_today": "2026-04-30 01:49:53, 2026-04-30 02:04:50, 2026-04-30 02:19:57", "cumulative_total": 117.0 }, "geometry": { "type": "Polygon", "coordinates": [ [ [ -72.229645359902619, 46.154852772777907 ], [ -72.23598312179459, 46.157604532203699 ], [ -72.235723017054752, 46.162794682130567 ], [ -72.229123936865307, 46.165233016183642 ], [ -72.222785675765536, 46.16248086731148 ], [ -72.223046994038555, 46.157290773898197 ], [ -72.229645359902619, 46.154852772777907 ] ] ] } },
{ "type": "Feature", "properties": { "hex_id": 699114, "centroid_lon": -72.228602226906702, "centroid_lat": 46.175613236088935, "occurrences_today": 3, "datetimes_today": "2026-04-30 01:49:53, 2026-04-30 02:04:50, 2026-04-30 02:19:57", "cumulative_total": 117.0 }, "geometry": { "type": "Polygon", "coordinates": [ [ [ -72.228863117763396, 46.170423129074052 ], [ -72.235202592895533, 46.173174964374944 ], [ -72.234942273427336, 46.178365096691707 ], [ -72.228341264270753, 46.180803337227985 ], [ -72.222001289541623, 46.178051112268641 ], [ -72.222262823541612, 46.172861036497082 ], [ -72.228863117763396, 46.170423129074052 ] ] ] } },
{ "type": "Feature", "properties": { "hex_id": 699115, "centroid_lon": -72.22781912356308, "centroid_lat": 46.191183521876958, "occurrences_today": 3, "datetimes_today": "2026-04-30 01:49:53, 2026-04-30 02:04:50, 2026-04-30 02:19:57", "cumulative_total": 117.0 }, "geometry": { "type": "Polygon", "coordinates": [ [ [ -72.228080229831036, 46.185993432490783 ], [ -72.234421419591641, 46.18874534371249 ], [ -72.234160885175243, 46.193935458415766 ], [ -72.227557945442371, 46.196373605386114 ], [ -72.221216255695225, 46.193621304293764 ], [ -72.221478005643007, 46.188431246167362 ], [ -72.228080229831036, 46.185993432490783 ] ] ] } },
{ "type": "Feature", "properties": { "hex_id": 699723, "centroid_lon": -72.223308240451615, "centroid_lat": 46.152100674605109, "occurrences_today": 3, "datetimes_today": "2026-04-30 01:49:53, 2026-04-30 02:04:50, 2026-04-30 02:19:57", "cumulative_total": 117.0 }, "geometry": { "type": "Polygon", "coordinates": [ [ [ -72.223569415029203, 46.146910569432571 ], [ -72.229905963886907, 46.149662642263316 ], [ -72.229645359902619, 46.154852772777907 ], [ -72.223046994038555, 46.157290773898197 ], [ -72.216709946435259, 46.154538311673249 ], [ -72.216971763417135, 46.149348237787784 ], [ -72.223569415029203, 46.146910569432571 ] ] ] } },
{ "type": "Feature", "properties": { "hex_id": 699724, "centroid_lon": -72.22252428560806, "centroid_lat": 46.167670954844567, "occurrences_today": 3, "datetimes_today": "2026-04-30 01:49:53, 2026-04-30 02:04:50, 2026-04-30 02:19:57", "cumulative_total": 117.0 }, "geometry": { "type": "Polygon", "coordinates": [ [ [ -72.222785675765536, 46.16248086731148 ], [ -72.229123936865307, 46.165233016183642 ], [ -72.228863117763396, 46.170423129074052 ], [ -72.222262823541612, 46.172861036497082 ], [ -72.215924063307511, 46.170108498018685 ], [ -72.216186096405025, 46.164918441789084 ], [ -72.222785675765536, 46.16248086731148 ] ] ] } },
{ "type": "Feature", "properties": { "hex_id": 699725, "centroid_lon": -72.221739683583621, "centroid_lat": 46.183241182158838, "occurrences_today": 3, "datetimes_today": "2026-04-30 01:49:53, 2026-04-30 02:04:50, 2026-04-30 02:19:57", "cumulative_total": 117.0 }, "geometry": { "type": "Polygon", "coordinates": [ [ [ -72.222001289541623, 46.178051112268641 ], [ -72.228341264270753, 46.180803337227985 ], [ -72.228080229831036, 46.185993432490783 ], [ -72.221478005643007, 46.188431246167362 ], [ -72.215137531390454, 46.185678631389621 ], [ -72.215399780824811, 46.180488592819337 ], [ -72.222001289541623, 46.178051112268641 ] ] ] } },
{ "type": "Feature", "properties": { "hex_id": 700333, "centroid_lon": -72.217233508409549, "centroid_lat": 46.144158158017774, "occurrences_today": 3, "datetimes_today": "2026-04-30 01:49:53, 2026-04-30 02:04:50, 2026-04-30 02:19:57", "cumulative_total": 121.0 }, "geometry": { "type": "Polygon", "coordinates": [ [ [ -72.217495181437044, 46.138968072363632 ], [ -72.223830517795804, 46.141720458380973 ], [ -72.223569415029203, 46.146910569432571 ], [ -72.216971763417135, 46.149348237787784 ], [ -72.21063592877465, 46.146595462428422 ], [ -72.210898244003445, 46.141405408121408 ], [ -72.217495181437044, 46.138968072363632 ] ] ] } },
{ "type": "Feature", "properties": { "hex_id": 700334, "centroid_lon": -72.216448057439422, "centroid_lat": 46.159728379673822, "occurrences_today": 3, "datetimes_today": "2026-04-30 01:49:53, 2026-04-30 02:04:50, 2026-04-30 02:19:57", "cumulative_total": 117.0 }, "geometry": { "type": "Polygon", "coordinates": [ [ [ -72.216709946435259, 46.154538311673249 ], [ -72.223046994038555, 46.157290773898197 ], [ -72.222785675765536, 46.16248086731148 ], [ -72.216186096405025, 46.164918441789084 ], [ -72.209848550129706, 46.162165590010133 ], [ -72.210111081862394, 46.156975553373165 ], [ -72.216709946435259, 46.154538311673249 ] ] ] } },
{ "type": "Feature", "properties": { "hex_id": 700335, "centroid_lon": -72.215661958122311, "centroid_lat": 46.175298548362228, "occurrences_today": 3, "datetimes_today": "2026-04-30 01:49:53, 2026-04-30 02:04:50, 2026-04-30 02:19:57", "cumulative_total": 117.0 }, "geometry": { "type": "Polygon", "coordinates": [ [ [ -72.215924063307511, 46.170108498018685 ], [ -72.222262823541612, 46.172861036497082 ], [ -72.222001289541623, 46.178051112268641 ], [ -72.215399780824811, 46.180488592819337 ], [ -72.209060521530063, 46.177735664574818 ], [ -72.20932326998819, 46.172545645611343 ], [ -72.215924063307511, 46.170108498018685 ] ] ] } },
{ "type": "Feature", "properties": { "hex_id": 700336, "centroid_lon": -72.214875209794585, "centroid_lat": 46.19086866407271, "occurrences_today": 3, "datetimes_today": "2026-04-30 01:49:53, 2026-04-30 02:04:50, 2026-04-30 02:19:57", "cumulative_total": 117.0 }, "geometry": { "type": "Polygon", "coordinates": [ [ [ -72.215137531390454, 46.185678631389621 ], [ -72.221478005643007, 46.188431246167362 ], [ -72.221216255695225, 46.193621304293764 ], [ -72.214612816012604, 46.196058690868213 ], [ -72.208271842310396, 46.193305686112119 ], [ -72.208534807715836, 46.18811568482559 ], [ -72.215137531390454, 46.185678631389621 ] ] ] } },
{ "type": "Feature", "properties": { "hex_id": 700944, "centroid_lon": -72.210373541402504, "centroid_lat": 46.151785510845798, "occurrences_today": 3, "datetimes_today": "2026-04-30 01:49:53, 2026-04-30 02:04:50, 2026-04-30 02:19:57", "cumulative_total": 117.0 }, "geometry": { "type": "Polygon", "coordinates": [ [ [ -72.21063592877465, 46.146595462428422 ], [ -72.216971763417135, 46.149348237787784 ], [ -72.216709946435259, 46.154538311673249 ], [ -72.210111081862394, 46.156975553373165 ], [ -72.203774749009895, 46.154222388512053 ], [ -72.204037778915691, 46.149032371518345 ], [ -72.21063592877465, 46.146595462428422 ] ] ] } },
{ "type": "Feature", "properties": { "hex_id": 700945, "centroid_lon": -72.209585946179857, "centroid_lat": 46.167355620756318, "occurrences_today": 3, "datetimes_today": "2026-04-30 01:49:53, 2026-04-30 02:04:50, 2026-04-30 02:19:57", "cumulative_total": 117.0 }, "geometry": { "type": "Polygon", "coordinates": [ [ [ -72.209848550129706, 46.162165590010133 ], [ -72.216186096405025, 46.164918441789084 ], [ -72.215924063307511, 46.170108498018685 ], [ -72.20932326998819, 46.172545645611343 ], [ -72.202985225114674, 46.16979240411856 ], [ -72.203248472134064, 46.164602404812548 ], [ -72.209848550129706, 46.162165590010133 ] ] ] } },
{ "type": "Feature", "properties": { "hex_id": 700946, "centroid_lon": -72.208797700780835, "centroid_lat": 46.182925677646359, "occurrences_today": 3, "datetimes_today": "2026-04-30 01:49:53, 2026-04-30 02:04:50, 2026-04-30 02:19:57", "cumulative_total": 117.0 }, "geometry": { "type": "Polygon", "coordinates": [ [ [ -72.209060521530063, 46.177735664574818 ], [ -72.215399780824811, 46.180488592819337 ], [ -72.215137531390454, 46.185678631389621 ], [ -72.208534807715836, 46.18811568482559 ], [ -72.202195049434337, 46.185362366655049 ], [ -72.202458513789509, 46.180172385040201 ], [ -72.209060521530063, 46.177735664574818 ] ] ] } },
{ "type": "Feature", "properties": { "hex_id": 700947, "centroid_lon": -72.208008804539816, "centroid_lat": 46.198495681505563, "occurrences_today": 3, "datetimes_today": "2026-04-30 01:49:53, 2026-04-30 02:04:50, 2026-04-30 02:19:57", "cumulative_total": 117.0 }, "geometry": { "type": "Polygon", "coordinates": [ [ [ -72.208271842310396, 46.193305686112119 ], [ -72.214612816012604, 46.196058690868213 ], [ -72.214350350019856, 46.201248711775733 ], [ -72.207745694379412, 46.203685671005516 ], [ -72.201404221301559, 46.200932276111054 ], [ -72.201667903215096, 46.195742312190873 ], [ -72.208271842310396, 46.193305686112119 ] ] ] } },
{ "type": "Feature", "properties": { "hex_id": 701554, "centroid_lon": -72.204300736499619, "centroid_lat": 46.143842348629505, "occurrences_today": 3, "datetimes_today": "2026-04-30 01:49:53, 2026-04-30 02:04:50, 2026-04-30 02:19:57", "cumulative_total": 152.0 }, "geometry": { "type": "Polygon", "coordinates": [ [ [ -72.204563621786335, 46.138652319845932 ], [ -72.210898244003445, 46.141405408121408 ], [ -72.21063592877465, 46.146595462428422 ], [ -72.204037778915691, 46.149032371518345 ], [ -72.197702658950192, 46.146278893793387 ], [ -72.197966186567399, 46.141088896493514 ], [ -72.204563621786335, 46.138652319845932 ] ] ] } },
{ "type": "Feature", "properties": { "hex_id": 701555, "centroid_lon": -72.203511646757562, "centroid_lat": 46.159412399610261, "occurrences_today": 3, "datetimes_today": "2026-04-30 01:49:53, 2026-04-30 02:04:50, 2026-04-30 02:19:57", "cumulative_total": 117.0 }, "geometry": { "type": "Polygon", "coordinates": [ [ [ -72.203774749009895, 46.154222388512053 ], [ -72.210111081862394, 46.156975553373165 ], [ -72.209848550129706, 46.162165590010133 ], [ -72.203248472134064, 46.164602404812548 ], [ -72.196911641145434, 46.161848850289935 ], [ -72.197175386263908, 46.156658870691977 ], [ -72.203774749009895, 46.154222388512053 ] ] ] } },
{ "type": "Feature", "properties": { "hex_id": 701556, "centroid_lon": -72.202721905674721, "centroid_lat": 46.174982397527913, "occurrences_today": 2, "datetimes_today": "2026-04-30 01:49:53, 2026-04-30 02:04:50", "cumulative_total": 116.0 }, "geometry": { "type": "Polygon", "coordinates": [ [ [ -72.202985225114674, 46.16979240411856 ], [ -72.20932326998819, 46.172545645611343 ], [ -72.209060521530063, 46.177735664574818 ], [ -72.202458513789509, 46.180172385040201 ], [ -72.196119970391791, 46.177418753673749 ], [ -72.196383933234117, 46.172228791781208 ], [ -72.202985225114674, 46.16979240411856 ] ] ] } },
{ "type": "Feature", "properties": { "hex_id": 701557, "centroid_lon": -72.201931512584437, "centroid_lat": 46.190552342372072, "occurrences_today": 3, "datetimes_today": "2026-04-30 01:49:53, 2026-04-30 02:04:50, 2026-04-30 02:19:57", "cumulative_total": 118.0 }, "geometry": { "type": "Polygon", "coordinates": [ [ [ -72.202195049434337, 46.185362366655049 ], [ -72.208534807715836, 46.18811568482559 ], [ -72.208271842310396, 46.193305686112119 ], [ -72.201667903215096, 46.195742312190873 ], [ -72.195327646020957, 46.192988603934353 ], [ -72.195591826810002, 46.187798659750719 ], [ -72.202195049434337, 46.185362366655049 ] ] ] } },
{ "type": "Feature", "properties": { "hex_id": 702164, "centroid_lon": -72.198229641733604, "centroid_lat": 46.135898893293799, "occurrences_today": 3, "datetimes_today": "2026-04-30 01:49:53, 2026-04-30 02:04:50, 2026-04-30 02:19:57", "cumulative_total": 186.0 }, "geometry": { "type": "Polygon", "coordinates": [ [ [ -72.198493024473478, 46.13070888419459 ], [ -72.204826434800438, 46.133462285167994 ], [ -72.204563621786335, 46.138652319845932 ], [ -72.197966186567399, 46.141088896493514 ], [ -72.191632278953364, 46.138335106122952 ], [ -72.191896303820627, 46.133145128567477 ], [ -72.198493024473478, 46.13070888419459 ] ] ] } },
{ "type": "Feature", "properties": { "hex_id": 702165, "centroid_lon": -72.197439058857256, "centroid_lat": 46.151468885193005, "occurrences_today": 3, "datetimes_today": "2026-04-30 01:49:53, 2026-04-30 02:04:50, 2026-04-30 02:19:57", "cumulative_total": 117.0 }, "geometry": { "type": "Polygon", "coordinates": [ [ [ -72.197702658950192, 46.146278893793387 ], [ -72.204037778915691, 46.149032371518345 ], [ -72.203774749009895, 46.154222388512053 ], [ -72.197175386263908, 46.156658870691977 ], [ -72.190839768624059, 46.153905003357863 ], [ -72.191104011379835, 46.148715043518543 ], [ -72.197702658950192, 46.146278893793387 ] ] ] } },
{ "type": "Feature", "properties": { "hex_id": 702166, "centroid_lon": -72.196647823477079, "centroid_lat": 46.167038823986459, "occurrences_today": 3, "datetimes_today": "2026-04-30 01:49:53, 2026-04-30 02:04:50, 2026-04-30 02:19:57", "cumulative_total": 117.0 }, "geometry": { "type": "Polygon", "coordinates": [ [ [ -72.196911641145434, 46.161848850289935 ], [ -72.203248472134064, 46.164602404812548 ], [ -72.202985225114674, 46.16979240411856 ], [ -72.196383933234117, 46.172228791781208 ], [ -72.190046604183522, 46.169474847437293 ], [ -72.190311065050679, 46.164284905317622 ], [ -72.196911641145434, 46.161848850289935 ] ] ] } },
{ "type": "Feature", "properties": { "hex_id": 702167, "centroid_lon": -72.195855934925362, "centroid_lat": 46.182608709663711, "occurrences_today": 3, "datetimes_today": "2026-04-30 01:49:53, 2026-04-30 02:04:50, 2026-04-30 02:19:57", "cumulative_total": 117.0 }, "geometry": { "type": "Polygon", "coordinates": [ [ [ -72.196119970391791, 46.177418753673749 ], [ -72.202458513789509, 46.180172385040201 ], [ -72.202195049434337, 46.185362366655049 ], [ -72.195591826810002, 46.187798659750719 ], [ -72.189252784962321, 46.18504463835071 ], [ -72.18951746416414, 46.179854713954228 ], [ -72.196119970391791, 46.177418753673749 ] ] ] } },
{ "type": "Feature", "properties": { "hex_id": 702168, "centroid_lon": -72.195063392533413, "centroid_lat": 46.198178542214265, "occurrences_today": 3, "datetimes_today": "2026-04-30 01:49:53, 2026-04-30 02:04:50, 2026-04-30 02:19:57", "cumulative_total": 117.0 }, "geometry": { "type": "Polygon", "coordinates": [ [ [ -72.195327646020957, 46.192988603934353 ], [ -72.201667903215096, 46.195742312190873 ], [ -72.201404221301559, 46.200932276111054 ], [ -72.19479906632256, 46.203368474590029 ], [ -72.18845831029013, 46.200614376087586 ], [ -72.188723208050178, 46.195424469417787 ], [ -72.195327646020957, 46.192988603934353 ] ] ] } },
{ "type": "Feature", "properties": { "hex_id": 702775, "centroid_lon": -72.191368181481351, "centroid_lat": 46.143525077773425, "occurrences_today": 3, "datetimes_today": "2026-04-30 01:49:53, 2026-04-30 02:04:50, 2026-04-30 02:19:57", "cumulative_total": 169.0 }, "geometry": { "type": "Polygon", "coordinates": [ [ [ -72.191632278953364, 46.138335106122952 ], [ -72.197966186567399, 46.141088896493514 ], [ -72.197702658950192, 46.146278893793387 ], [ -72.191104011379835, 46.148715043518543 ], [ -72.184769606552848, 46.145960863591149 ], [ -72.185034346484414, 46.140770923560964 ], [ -72.191632278953364, 46.138335106122952 ] ] ] } },
{ "type": "Feature", "properties": { "hex_id": 702776, "centroid_lon": -72.190575453189282, "centroid_lat": 46.159094957291025, "occurrences_today": 3, "datetimes_today": "2026-04-30 01:49:53, 2026-04-30 02:04:50, 2026-04-30 02:19:57", "cumulative_total": 117.0 }, "geometry": { "type": "Polygon", "coordinates": [ [ [ -72.190839768624059, 46.153905003357863 ], [ -72.197175386263908, 46.156658870691977 ], [ -72.196911641145434, 46.161848850289935 ], [ -72.190311065050679, 46.164284905317622 ], [ -72.183974949810732, 46.161530648214608 ], [ -72.184239908240826, 46.156340725918376 ], [ -72.190839768624059, 46.153905003357863 ] ] ] } },
{ "type": "Feature", "properties": { "hex_id": 702777, "centroid_lon": -72.189782070562941, "centroid_lat": 46.174664783649618, "occurrences_today": 2, "datetimes_today": "2026-04-30 01:49:53, 2026-04-30 02:04:50", "cumulative_total": 116.0 }, "geometry": { "type": "Polygon", "coordinates": [ [ [ -72.190046604183522, 46.169474847437293 ], [ -72.196383933234117, 46.172228791781208 ], [ -72.196119970391791, 46.177418753673749 ], [ -72.18951746416414, 46.179854713954228 ], [ -72.183179637125903, 46.177100379629195 ], [ -72.183444814278118, 46.171910475070412 ], [ -72.190046604183522, 46.169474847437293 ] ] ] } },
{ "type": "Feature", "properties": { "hex_id": 702778, "centroid_lon": -72.188988032932599, "centroid_lat": 46.190234556838703, "occurrences_today": 3, "datetimes_today": "2026-04-30 01:49:53, 2026-04-30 02:04:50, 2026-04-30 02:19:57", "cumulative_total": 176.0 }, "geometry": { "type": "Polygon", "coordinates": [ [ [ -72.189252784962321, 46.18504463835071 ], [ -72.195591826810002, 46.187798659750719 ], [ -72.195327646020957, 46.192988603934353 ], [ -72.188723208050178, 46.195424469417787 ], [ -72.182383667826997, 46.19267005782433 ], [ -72.18264906392524, 46.187480171006548 ], [ -72.189252784962321, 46.18504463835071 ] ] ] } },
{ "type": "Feature", "properties": { "hex_id": 702779, "centroid_lon": -72.188193339627631, "centroid_lat": 46.205804276847715, "occurrences_today": 3, "datetimes_today": "2026-04-30 01:49:53, 2026-04-30 02:04:50, 2026-04-30 02:19:57", "cumulative_total": 117.0 }, "geometry": { "type": "Polygon", "coordinates": [ [ [ -72.18845831029013, 46.200614376087586 ], [ -72.19479906632256, 46.203368474590029 ], [ -72.194534667363584, 46.208558401061268 ], [ -72.187928296037768, 46.210994171697777 ], [ -72.181587041241613, 46.208239682789419 ], [ -72.181852656510102, 46.203049813716163 ], [ -72.18845831029013, 46.200614376087586 ] ] ] } },
{ "type": "Feature", "properties": { "hex_id": 703386, "centroid_lon": -72.184504793813275, "centroid_lat": 46.151150797710415, "occurrences_today": 3, "datetimes_today": "2026-04-30 01:49:53, 2026-04-30 02:04:50, 2026-04-30 02:19:57", "cumulative_total": 152.0 }, "geometry": { "type": "Polygon", "coordinates": [ [ [ -72.184769606552848, 46.145960863591149 ], [ -72.191104011379835, 46.148715043518543 ], [ -72.190839768624059, 46.153905003357863 ], [ -72.184239908240826, 46.156340725918376 ], [ -72.177905006275282, 46.153586156274507 ], [ -72.178170461806729, 46.148396253852169 ], [ -72.184769606552848, 46.145960863591149 ] ] ] } },
{ "type": "Feature", "properties": { "hex_id": 703387, "centroid_lon": -72.18370991849811, "centroid_lat": 46.166720564598755, "occurrences_today": 3, "datetimes_today": "2026-04-30 01:49:53, 2026-04-30 02:04:50, 2026-04-30 02:19:57", "cumulative_total": 117.0 }, "geometry": { "type": "Polygon", "coordinates": [ [ [ -72.183974949810732, 46.161530648214608 ], [ -72.190311065050679, 46.164284905317622 ], [ -72.190046604183522, 46.169474847437293 ], [ -72.183444814278118, 46.171910475070412 ], [ -72.177108201512524, 46.169155828038754 ], [ -72.177373876153098, 46.16396594336819 ], [ -72.183974949810732, 46.161530648214608 ] ] ] } },
{ "type": "Feature", "properties": { "hex_id": 703388, "centroid_lon": -72.182914387016567, "centroid_lat": 46.182290278274699, "occurrences_today": 2, "datetimes_today": "2026-04-30 01:49:53, 2026-04-30 02:04:50", "cumulative_total": 116.0 }, "geometry": { "type": "Polygon", "coordinates": [ [ [ -72.183179637125903, 46.177100379629195 ], [ -72.18951746416414, 46.179854713954228 ], [ -72.189252784962321, 46.18504463835071 ], [ -72.18264906392524, 46.187480171006548 ], [ -72.176310738973939, 46.184725446540575 ], [ -72.176576632947885, 46.179535579625345 ], [ -72.183179637125903, 46.177100379629195 ] ] ] } },
{ "type": "Feature", "properties": { "hex_id": 703389, "centroid_lon": -72.182118198696912, "centroid_lat": 46.197859938727674, "occurrences_today": 3, "datetimes_today": "2026-04-30 01:49:53, 2026-04-30 02:04:50, 2026-04-30 02:19:57", "cumulative_total": 175.0 }, "geometry": { "type": "Polygon", "coordinates": [ [ [ -72.182383667826997, 46.19267005782433 ], [ -72.188723208050178, 46.195424469417787 ], [ -72.18845831029013, 46.200614376087586 ], [ -72.181852656510102, 46.203049813716163 ], [ -72.175512617986101, 46.200295011769327 ], [ -72.175778731518022, 46.195105162612968 ], [ -72.182383667826997, 46.19267005782433 ] ] ] } },
{ "type": "Feature", "properties": { "hex_id": 703996, "centroid_lon": -72.17843584435154, "centroid_lat": 46.143206345513363, "occurrences_today": 3, "datetimes_today": "2026-04-30 01:49:53, 2026-04-30 02:04:50, 2026-04-30 02:19:57", "cumulative_total": 152.0 }, "geometry": { "type": "Polygon", "coordinates": [ [ [ -72.178701153934654, 46.138016431258471 ], [ -72.185034346484414, 46.140770923560964 ], [ -72.184769606552848, 46.145960863591149 ], [ -72.178170461806729, 46.148396253852169 ], [ -72.171836772579582, 46.145641371885645 ], [ -72.17210272475107, 46.140451489387665 ], [ -72.178701153934654, 46.138016431258471 ] ] ] } },
{ "type": "Feature", "properties": { "hex_id": 703997, "centroid_lon": -72.177639477732384, "centroid_lat": 46.158776052779977, "occurrences_today": 3, "datetimes_today": "2026-04-30 01:49:53, 2026-04-30 02:04:50, 2026-04-30 02:19:57", "cumulative_total": 117.0 }, "geometry": { "type": "Polygon", "coordinates": [ [ [ -72.177905006275282, 46.153586156274507 ], [ -72.184239908240826, 46.156340725918376 ], [ -72.183974949810732, 46.161530648214608 ], [ -72.177373876153098, 46.16396594336819 ], [ -72.17103847712356, 46.161210983848164 ], [ -72.171304648790752, 46.156021119116282 ], [ -72.177905006275282, 46.153586156274507 ] ] ] } },
{ "type": "Feature", "properties": { "hex_id": 703998, "centroid_lon": -72.176842453785767, "centroid_lat": 46.174345706791264, "occurrences_today": 2, "datetimes_today": "2026-04-30 01:49:53, 2026-04-30 02:04:50", "cumulative_total": 116.0 }, "geometry": { "type": "Polygon", "coordinates": [ [ [ -72.177108201512524, 46.169155828038754 ], [ -72.183444814278118, 46.171910475070412 ], [ -72.183179637125903, 46.177100379629195 ], [ -72.176576632947885, 46.179535579625345 ], [ -72.170239522731336, 46.176780542505242 ], [ -72.17050591411882, 46.171590695543031 ], [ -72.177108201512524, 46.169155828038754 ] ] ] } },
{ "type": "Feature", "properties": { "hex_id": 703999, "centroid_lon": -72.17604477183896, "centroid_lat": 46.189915307536594, "occurrences_today": 3, "datetimes_today": "2026-04-30 01:49:53, 2026-04-30 02:04:50, 2026-04-30 02:19:57", "cumulative_total": 175.0 }, "geometry": { "type": "Polygon", "coordinates": [ [ [ -72.176310738973939, 46.184725446540575 ], [ -72.18264906392524, 46.187480171006548 ], [ -72.182383667826997, 46.19267005782433 ], [ -72.175778731518022, 46.195105162612968 ], [ -72.169439908728464, 46.192350047846176 ], [ -72.169706520061169, 46.187160218657212 ], [ -72.176310738973939, 46.184725446540575 ] ] ] } },
{ "type": "Feature", "properties": { "hex_id": 704000, "centroid_lon": -72.175246431218255, "centroid_lat": 46.205484855005288, "occurrences_today": 3, "datetimes_today": "2026-04-30 01:49:53, 2026-04-30 02:04:50, 2026-04-30 02:19:57", "cumulative_total": 117.0 }, "geometry": { "type": "Polygon", "coordinates": [ [ [ -72.175512617986101, 46.200295011769327 ], [ -72.181852656510102, 46.203049813716163 ], [ -72.181587041241613, 46.208239682789419 ], [ -72.174980171189432, 46.210674692320438 ], [ -72.168639634439529, 46.207919499860274 ], [ -72.168906465942683, 46.202729688448102 ], [ -72.175512617986101, 46.200295011769327 ] ] ] } },
{ "type": "Feature", "properties": { "hex_id": 704607, "centroid_lon": -72.171570747267779, "centroid_lat": 46.150831248461984, "occurrences_today": 3, "datetimes_today": "2026-04-30 01:49:53, 2026-04-30 02:04:50, 2026-04-30 02:19:57", "cumulative_total": 152.0 }, "geometry": { "type": "Polygon", "coordinates": [ [ [ -72.171836772579582, 46.145641371885645 ], [ -72.178170461806729, 46.148396253852169 ], [ -72.177905006275282, 46.153586156274507 ], [ -72.171304648790752, 46.156021119116282 ], [ -72.164970462960937, 46.153265847326118 ], [ -72.165237131193393, 46.148076002583345 ], [ -72.171836772579582, 46.145641371885645 ] ] ] } },
{ "type": "Feature", "properties": { "hex_id": 704609, "centroid_lon": -72.169973058053785, "centroid_lat": 46.181970383543423, "occurrences_today": 2, "datetimes_today": "2026-04-30 01:49:53, 2026-04-30 02:04:50", "cumulative_total": 116.0 }, "geometry": { "type": "Polygon", "coordinates": [ [ [ -72.170239522731336, 46.176780542505242 ], [ -72.176576632947885, 46.179535579625345 ], [ -72.176310738973939, 46.184725446540575 ], [ -72.169706520061169, 46.187160218657212 ], [ -72.163368912468599, 46.184404791288891 ], [ -72.163636021139808, 46.179214982117777 ], [ -72.170239522731336, 46.176780542505242 ] ] ] } },
{ "type": "Feature", "properties": { "hex_id": 704610, "centroid_lon": -72.169173224030658, "centroid_lat": 46.19753987110996, "occurrences_today": 3, "datetimes_today": "2026-04-30 01:49:53, 2026-04-30 02:04:50, 2026-04-30 02:19:57", "cumulative_total": 117.0 }, "geometry": { "type": "Polygon", "coordinates": [ [ [ -72.169439908728464, 46.192350047846176 ], [ -72.175778731518022, 46.195105162612968 ], [ -72.175512617986101, 46.200295011769327 ], [ -72.168906465942683, 46.202729688448102 ], [ -72.162567145389914, 46.199974183220611 ], [ -72.162834474618734, 46.194784391840706 ], [ -72.169439908728464, 46.192350047846176 ] ] ] } },
{ "type": "Feature", "properties": { "hex_id": 704611, "centroid_lon": -72.168372729496113, "centroid_lat": 46.213109305346059, "occurrences_today": 3, "datetimes_today": "2026-04-30 01:49:53, 2026-04-30 02:04:50, 2026-04-30 02:19:57", "cumulative_total": 117.0 }, "geometry": { "type": "Polygon", "coordinates": [ [ [ -72.168639634439529, 46.207919499860274 ], [ -72.174980171189432, 46.210674692320438 ], [ -72.174713837874677, 46.215864523714394 ], [ -72.168105751087339, 46.218299104905036 ], [ -72.161764716186653, 46.215543521771572 ], [ -72.162032266198992, 46.210353748186449 ], [ -72.168639634439529, 46.207919499860274 ] ] ] } },
{ "type": "Feature", "properties": { "hex_id": 705221, "centroid_lon": -72.162299742591699, "centroid_lat": 46.205163968669332, "occurrences_today": 3, "datetimes_today": "2026-04-30 01:49:53, 2026-04-30 02:04:50, 2026-04-30 02:19:57", "cumulative_total": 117.0 }, "geometry": { "type": "Polygon", "coordinates": [ [ [ -72.162567145389914, 46.199974183220611 ], [ -72.168906465942683, 46.202729688448102 ], [ -72.168639634439529, 46.207919499860274 ], [ -72.162032266198992, 46.210353748186449 ], [ -72.155692447958216, 46.207597852338324 ], [ -72.15596049562086, 46.202408098850327 ], [ -72.162567145389914, 46.199974183220611 ] ] ] } },
{ "type": "Feature", "properties": { "hex_id": 705832, "centroid_lon": -72.155424326521725, "centroid_lat": 46.212787599889126, "occurrences_today": 3, "datetimes_today": "2026-04-30 01:49:53, 2026-04-30 02:04:50, 2026-04-30 02:19:57", "cumulative_total": 143.0 }, "geometry": { "type": "Polygon", "coordinates": [ [ [ -72.155692447958216, 46.207597852338324 ], [ -72.162032266198992, 46.210353748186449 ], [ -72.161764716186653, 46.215543521771572 ], [ -72.155156131286176, 46.217977341502284 ], [ -72.148815815432911, 46.215221054873602 ], [ -72.149084582067402, 46.210031339360448 ], [ -72.155692447958216, 46.207597852338324 ] ] ] } },
{ "type": "Feature", "properties": { "hex_id": 417651, "centroid_lon": -75.213674444477476, "centroid_lat": 45.858267246716437, "occurrences_today": 1, "datetimes_today": "2026-04-30 02:19:57", "cumulative_total": 155.0 }, "geometry": { "type": "Polygon", "coordinates": [ [ [ -75.213654543497938, 45.853070799745517 ], [ -75.220104973460948, 45.855656799627035 ], [ -75.220125477115275, 45.860853242017555 ], [ -75.213694350916938, 45.863463688933869 ], [ -75.207243312818306, 45.860877331757074 ], [ -75.207224009055494, 45.855680885024668 ], [ -75.213654543497938, 45.853070799745517 ] ] ] } },
{ "type": "Feature", "properties": { "hex_id": 418261, "centroid_lon": -75.207204710587121, "centroid_lat": 45.850484433539201, "occurrences_today": 1, "datetimes_today": "2026-04-30 02:19:57", "cumulative_total": 72.0 }, "geometry": { "type": "Polygon", "coordinates": [ [ [ -75.207185417411409, 45.845287977300586 ], [ -75.213634647976463, 45.847874348021094 ], [ -75.213654543497938, 45.853070799745517 ], [ -75.207224009055494, 45.855680885024668 ], [ -75.200774170851133, 45.853094157040175 ], [ -75.200755474730315, 45.847897701105921 ], [ -75.207185417411409, 45.845287977300586 ] ] ] } },
{ "type": "Feature", "properties": { "hex_id": 418872, "centroid_lon": -75.200792872100976, "centroid_lat": 45.858290608221708, "occurrences_today": 1, "datetimes_today": "2026-04-30 02:19:57", "cumulative_total": 72.0 }, "geometry": { "type": "Polygon", "coordinates": [ [ [ -75.200774170851133, 45.853094157040175 ], [ -75.207224009055494, 45.855680885024668 ], [ -75.207243312818306, 45.860877331757074 ], [ -75.200811578481577, 45.86348705465052 ], [ -75.194361132632608, 45.860899969238112 ], [ -75.19434302876671, 45.855703518425592 ], [ -75.200774170851133, 45.853094157040175 ] ] ] } },
{ "type": "Feature", "properties": { "hex_id": 514694, "centroid_lon": -74.195556605142173, "centroid_lat": 45.442499058280461, "occurrences_today": 9, "datetimes_today": "2026-04-30 00:04:50, 2026-04-30 00:20:14, 2026-04-30 00:34:46, 2026-04-30 00:49:52, 2026-04-30 01:19:50, 2026-04-30 01:34:53, 2026-04-30 01:49:53, 2026-04-30 02:04:50, 2026-04-30 02:19:57", "cumulative_total": 61.0 }, "geometry": { "type": "Polygon", "coordinates": [ [ [ -74.195630448329695, 45.437302708255949 ], [ -74.201985960356112, 45.439945724923398 ], [ -74.201912693834259, 45.445142080607667 ], [ -74.195482741799751, 45.447695403463186 ], [ -74.189126673265932, 45.445052024577571 ], [ -74.189201113267259, 45.439855685119049 ], [ -74.195630448329695, 45.437302708255949 ] ] ] } },
{ "type": "Feature", "properties": { "hex_id": 513471, "centroid_lon": -74.208777790902886, "centroid_lat": 45.411410121419856, "occurrences_today": 6, "datetimes_today": "2026-04-30 00:04:50, 2026-04-30 00:20:14, 2026-04-30 00:34:46, 2026-04-30 00:49:52, 2026-04-30 01:19:50, 2026-04-30 01:34:53", "cumulative_total": 38.0 }, "geometry": { "type": "Polygon", "coordinates": [ [ [ -74.20885034189206, 45.40621372626704 ], [ -74.215203012685492, 45.408856002402707 ], [ -74.215131037592442, 45.414052403079218 ], [ -74.20870522011883, 45.416606511733896 ], [ -74.202351993227495, 45.413963873897494 ], [ -74.202425139901024, 45.408767489171517 ], [ -74.20885034189206, 45.40621372626704 ] ] ] } },
{ "type": "Feature", "properties": { "hex_id": 514082, "centroid_lon": -74.202278826595958, "centroid_lat": 45.419160253783225, "occurrences_today": 9, "datetimes_today": "2026-04-30 00:04:50, 2026-04-30 00:20:14, 2026-04-30 00:34:46, 2026-04-30 00:49:52, 2026-04-30 01:19:50, 2026-04-30 01:34:53, 2026-04-30 01:49:53, 2026-04-30 02:04:50, 2026-04-30 02:19:57", "cumulative_total": 44.0 }, "geometry": { "type": "Polygon", "coordinates": [ [ [ -74.202351993227495, 45.413963873897494 ], [ -74.20870522011883, 45.416606511733896 ], [ -74.208632629533255, 45.42180289720914 ], [ -74.202205639999747, 45.424356628828697 ], [ -74.195851857030476, 45.421713629131716 ], [ -74.195925619665971, 45.416517259740139 ], [ -74.202351993227495, 45.413963873897494 ] ] ] } },
{ "type": "Feature", "properties": { "hex_id": 514083, "centroid_lon": -74.202059206886503, "centroid_lat": 45.434749364398797, "occurrences_today": 9, "datetimes_today": "2026-04-30 00:04:50, 2026-04-30 00:20:14, 2026-04-30 00:34:46, 2026-04-30 00:49:52, 2026-04-30 01:19:50, 2026-04-30 01:34:53, 2026-04-30 01:49:53, 2026-04-30 02:04:50, 2026-04-30 02:19:57", "cumulative_total": 26.0 }, "geometry": { "type": "Polygon", "coordinates": [ [ [ -74.202132433432155, 45.429552999033895 ], [ -74.20848738893099, 45.432195653643177 ], [ -74.208414738901041, 45.437392024601941 ], [ -74.201985960356112, 45.439945724923398 ], [ -74.195630448329695, 45.437302708255949 ], [ -74.195704271369095, 45.432106353389628 ], [ -74.202132433432155, 45.429552999033895 ] ] ] } },
{ "type": "Feature", "properties": { "hex_id": 514693, "centroid_lon": -74.19577807426711, "centroid_lat": 45.426909993681548, "occurrences_today": 6, "datetimes_today": "2026-04-30 00:04:50, 2026-04-30 00:20:14, 2026-04-30 00:34:46, 2026-04-30 00:49:52, 2026-04-30 01:19:50, 2026-04-30 01:34:53", "cumulative_total": 17.0 }, "geometry": { "type": "Polygon", "coordinates": [ [ [ -74.195851857030476, 45.421713629131716 ], [ -74.202205639999747, 45.424356628828697 ], [ -74.202132433432155, 45.429552999033895 ], [ -74.195704271369095, 45.432106353389628 ], [ -74.189349932342054, 45.429462991672168 ], [ -74.189424311429121, 45.424266637683871 ], [ -74.195851857030476, 45.421713629131716 ] ] ] } },
{ "type": "Feature", "properties": { "hex_id": 533642, "centroid_lon": -73.991119917157576, "centroid_lat": 45.791654682859352, "occurrences_today": 4, "datetimes_today": "2026-04-30 00:04:50, 2026-04-30 00:20:14, 2026-04-30 00:34:46, 2026-04-30 00:49:52", "cumulative_total": 98.0 }, "geometry": { "type": "Polygon", "coordinates": [ [ [ -73.991213658591008, 45.786458945633953 ], [ -73.997598652902767, 45.789113428055458 ], [ -73.997505496113632, 45.794309173036829 ], [ -73.99102615003082, 45.796850415189532 ], [ -73.984640596772437, 45.794195564168639 ], [ -73.984734948534808, 45.78899983965966 ], [ -73.991213658591008, 45.786458945633953 ] ] ] } },
{ "type": "Feature", "properties": { "hex_id": 416429, "centroid_lon": -75.226492715722515, "centroid_lat": 45.842653091327172, "occurrences_today": 1, "datetimes_today": "2026-04-30 02:19:57", "cumulative_total": 25.0 }, "geometry": { "type": "Polygon", "coordinates": [ [ [ -75.226471632374228, 45.837456634565505 ], [ -75.232920846083033, 45.840041920348177 ], [ -75.232942531771371, 45.845238372399393 ], [ -75.22651380485398, 45.847849543334434 ], [ -75.220063983020978, 45.845263900584278 ], [ -75.220043496231526, 45.840067443931993 ], [ -75.226471632374228, 45.837456634565505 ] ] ] } },
{ "type": "Feature", "properties": { "hex_id": 415820, "centroid_lon": -75.233029334030718, "centroid_lat": 45.86602413305657, "occurrences_today": 1, "datetimes_today": "2026-04-30 02:19:57", "cumulative_total": 13.0 }, "geometry": { "type": "Polygon", "coordinates": [ [ [ -75.233007624535958, 45.86082770002438 ], [ -75.239459845644021, 45.863412600344539 ], [ -75.23948215830444, 45.86860902859874 ], [ -75.233051049482143, 45.871220561334063 ], [ -75.226598219250761, 45.868635303820227 ], [ -75.226577106967014, 45.863438870830215 ], [ -75.233007624535958, 45.86082770002438 ] ] ] } },
{ "type": "Feature", "properties": { "hex_id": 416430, "centroid_lon": -75.226556000474261, "centroid_lat": 45.858242433085941, "occurrences_today": 1, "datetimes_today": "2026-04-30 02:19:57", "cumulative_total": 13.0 }, "geometry": { "type": "Polygon", "coordinates": [ [ [ -75.22653489977057, 45.853045990587354 ], [ -75.232985920995816, 45.855631262237473 ], [ -75.233007624535958, 45.86082770002438 ], [ -75.226577106967014, 45.863438870830215 ], [ -75.220125477115275, 45.860853242017555 ], [ -75.220104973460948, 45.855656799627035 ], [ -75.22653489977057, 45.853045990587354 ] ] ] } },
{ "type": "Feature", "properties": { "hex_id": 417041, "centroid_lon": -75.220145986395053, "centroid_lat": 45.866049679654225, "occurrences_today": 1, "datetimes_today": "2026-04-30 02:19:57", "cumulative_total": 13.0 }, "geometry": { "type": "Polygon", "coordinates": [ [ [ -75.220125477115275, 45.860853242017555 ], [ -75.226577106967014, 45.863438870830215 ], [ -75.226598219250761, 45.868635303820227 ], [ -75.220166501302174, 45.871246112537037 ], [ -75.213714262818158, 45.86866012639787 ], [ -75.213694350916938, 45.863463688933869 ], [ -75.220125477115275, 45.860853242017555 ] ] ] } },
{ "type": "Feature", "properties": { "hex_id": 339499, "centroid_lon": -76.035705401657978, "centroid_lat": 45.729055552044201, "occurrences_today": 5, "datetimes_today": "2026-04-30 01:19:50, 2026-04-30 01:34:53, 2026-04-30 01:49:53, 2026-04-30 02:04:50, 2026-04-30 02:19:57", "cumulative_total": 64.0 }, "geometry": { "type": "Polygon", "coordinates": [ [ [ -76.035609377745203, 45.72385980111892 ], [ -76.042081987020012, 45.72639925379957 ], [ -76.042178619575523, 45.731594991744025 ], [ -76.03580145186919, 45.73425129806629 ], [ -76.029328207648788, 45.731711498319385 ], [ -76.02923276608918, 45.726515739381561 ], [ -76.035609377745203, 45.72385980111892 ] ] ] } },
{ "type": "Feature", "properties": { "hex_id": 340109, "centroid_lon": -76.029137350660591, "centroid_lat": 45.721319975542471, "occurrences_today": 5, "datetimes_today": "2026-04-30 01:19:50, 2026-04-30 01:34:53, 2026-04-30 01:49:53, 2026-04-30 02:04:50, 2026-04-30 02:19:57", "cumulative_total": 64.0 }, "geometry": { "type": "Polygon", "coordinates": [ [ [ -76.029041961354196, 45.716124206802164 ], [ -76.035513380121955, 45.718664045290488 ], [ -76.035609377745203, 45.72385980111892 ], [ -76.02923276608918, 45.726515739381561 ], [ -76.022760712877982, 45.723975553852256 ], [ -76.022665905775042, 45.718779777166347 ], [ -76.029041961354196, 45.716124206802164 ] ] ] } },
{ "type": "Feature", "properties": { "hex_id": 340110, "centroid_lon": -76.029423675348241, "centroid_lat": 45.736907252355934, "occurrences_today": 5, "datetimes_today": "2026-04-30 01:19:50, 2026-04-30 01:34:53, 2026-04-30 01:49:53, 2026-04-30 02:04:50, 2026-04-30 02:19:57", "cumulative_total": 51.0 }, "geometry": { "type": "Polygon", "coordinates": [ [ [ -76.029328207648788, 45.731711498319385 ], [ -76.03580145186919, 45.73425129806629 ], [ -76.035897528387707, 45.739447039185173 ], [ -76.029519169196348, 45.742103001491195 ], [ -76.023045290003793, 45.739562854513906 ], [ -76.02295040498359, 45.73436709252605 ], [ -76.029328207648788, 45.731711498319385 ] ] ] } },
{ "type": "Feature", "properties": { "hex_id": 340720, "centroid_lon": -76.022855545944566, "centroid_lat": 45.729171325638831, "occurrences_today": 5, "datetimes_today": "2026-04-30 01:19:50, 2026-04-30 01:34:53, 2026-04-30 01:49:53, 2026-04-30 02:04:50, 2026-04-30 02:19:57", "cumulative_total": 51.0 }, "geometry": { "type": "Polygon", "coordinates": [ [ [ -76.022760712877982, 45.723975553852256 ], [ -76.02923276608918, 45.726515739381561 ], [ -76.029328207648788, 45.731711498319385 ], [ -76.02295040498359, 45.73436709252605 ], [ -76.016477717302564, 45.731826559791678 ], [ -76.016383466765333, 45.726630780120793 ], [ -76.022760712877982, 45.723975553852256 ] ] ] } },
{ "type": "Feature", "properties": { "hex_id": 340137, "centroid_lon": -76.037244188246774, "centroid_lat": 46.157747049761113, "occurrences_today": 2, "datetimes_today": "2026-04-30 02:04:50, 2026-04-30 02:19:57", "cumulative_total": 174.0 }, "geometry": { "type": "Polygon", "coordinates": [ [ [ -76.037146573529014, 46.152551692812281 ], [ -76.043669679792259, 46.155090439883743 ], [ -76.043767917086029, 46.160285783755583 ], [ -76.037341829842376, 46.162942401806738 ], [ -76.030818074120702, 46.160403302351817 ], [ -76.030721055110263, 46.15520793729528 ], [ -76.037146573529014, 46.152551692812281 ] ] ] } },
{ "type": "Feature", "properties": { "hex_id": 340748, "centroid_lon": -76.030915119845872, "centroid_lat": 46.165598662507115, "occurrences_today": 2, "datetimes_today": "2026-04-30 02:04:50, 2026-04-30 02:19:57", "cumulative_total": 174.0 }, "geometry": { "type": "Polygon", "coordinates": [ [ [ -76.030818074120702, 46.160403302351817 ], [ -76.037341829842376, 46.162942401806738 ], [ -76.037439498325, 46.168137748949135 ], [ -76.031012192294966, 46.170794017761139 ], [ -76.024487787087381, 46.168254565756115 ], [ -76.024391337404865, 46.163059197555285 ], [ -76.030818074120702, 46.160403302351817 ] ] ] } },
{ "type": "Feature", "properties": { "hex_id": 341358, "centroid_lon": -76.02429491427398, "centroid_lat": 46.157863824455156, "occurrences_today": 2, "datetimes_today": "2026-04-30 02:04:50, 2026-04-30 02:19:57", "cumulative_total": 174.0 }, "geometry": { "type": "Polygon", "coordinates": [ [ [ -76.024198517685662, 46.152668446455756 ], [ -76.030721055110263, 46.15520793729528 ], [ -76.030818074120702, 46.160403302351817 ], [ -76.024391337404865, 46.163059197555285 ], [ -76.017868151011044, 46.160519354191287 ], [ -76.017772350311333, 46.155323968214383 ], [ -76.024198517685662, 46.152668446455756 ] ] ] } },
{ "type": "Feature", "properties": { "hex_id": 341969, "centroid_lon": -76.017963978090194, "centroid_lat": 46.165714735270882, "occurrences_today": 2, "datetimes_today": "2026-04-30 02:04:50, 2026-04-30 02:19:57", "cumulative_total": 174.0 }, "geometry": { "type": "Polygon", "coordinates": [ [ [ -76.017868151011044, 46.160519354191287 ], [ -76.024391337404865, 46.163059197555285 ], [ -76.024487787087381, 46.168254565756115 ], [ -76.018059831557807, 46.170910111453097 ], [ -76.011535996167652, 46.168369915398003 ], [ -76.011440765312415, 46.163174526403139 ], [ -76.017868151011044, 46.160519354191287 ] ] ] } },
{ "type": "Feature", "properties": { "hex_id": 560492, "centroid_lon": -73.712425769011119, "centroid_lat": 45.601773908082549, "occurrences_today": 7, "datetimes_today": "2026-04-30 00:34:46, 2026-04-30 00:49:52, 2026-04-30 01:19:50, 2026-04-30 01:34:53, 2026-04-30 01:49:53, 2026-04-30 02:04:50, 2026-04-30 02:19:57", "cumulative_total": 86.0 }, "geometry": { "type": "Polygon", "coordinates": [ [ [ -73.712544612626061, 45.5965785047308 ], [ -73.718894703445216, 45.599248276374801 ], [ -73.718776434897137, 45.604443690219064 ], [ -73.712306892901466, 45.606969306446651 ], [ -73.705956259515617, 45.604299165970893 ], [ -73.706075710681205, 45.599103778164043 ], [ -73.712544612626061, 45.5965785047308 ] ] ] } },
{ "type": "Feature", "properties": { "hex_id": 474445, "centroid_lon": -74.612782580747393, "centroid_lat": 46.130619878540429, "occurrences_today": 4, "datetimes_today": "2026-04-30 01:34:53, 2026-04-30 01:49:53, 2026-04-30 02:04:50, 2026-04-30 02:19:57", "cumulative_total": 21.0 }, "geometry": { "type": "Polygon", "coordinates": [ [ [ -74.612818988899164, 46.125423762962839 ], [ -74.619272837296407, 46.128043560983009 ], [ -74.619237032745076, 46.133239678097162 ], [ -74.612746162572805, 46.135815989351016 ], [ -74.606291720599629, 46.13319582449234 ], [ -74.606328742371232, 46.127999715284389 ], [ -74.612818988899164, 46.125423762962839 ] ] ] } },
{ "type": "Feature", "properties": { "hex_id": 570306, "centroid_lon": -73.59182490110048, "centroid_lat": 46.317459324690937, "occurrences_today": 4, "datetimes_today": "2026-04-30 01:34:53, 2026-04-30 01:49:53, 2026-04-30 02:04:50, 2026-04-30 02:19:57", "cumulative_total": 25.0 }, "geometry": { "type": "Polygon", "coordinates": [ [ [ -73.591958158191062, 46.312264832367887 ], [ -73.598383771187244, 46.314941860146298 ], [ -73.59825110970668, 46.320136364336385 ], [ -73.591691607247924, 46.322653811976878 ], [ -73.585265435410008, 46.319976405016028 ], [ -73.585399324860006, 46.314781929663511 ], [ -73.591958158191062, 46.312264832367887 ] ] ] } },
{ "type": "Feature", "properties": { "hex_id": 351481, "centroid_lon": -76.028404816793568, "centroid_lat": 51.689233648803757, "occurrences_today": 9, "datetimes_today": "2026-04-30 00:04:50, 2026-04-30 00:20:14, 2026-04-30 00:34:46, 2026-04-30 00:49:52, 2026-04-30 01:19:50, 2026-04-30 01:34:53, 2026-04-30 01:49:53, 2026-04-30 02:04:50, 2026-04-30 02:19:57", "cumulative_total": 107.0 }, "geometry": { "type": "Polygon", "coordinates": [ [ [ -76.028287208125121, 51.684043275263548 ], [ -76.035577698711691, 51.686574932086806 ], [ -76.035696151870582, 51.691765291468087 ], [ -76.028522460785297, 51.694424017540534 ], [ -76.021231090377995, 51.691891930892055 ], [ -76.02111429089075, 51.686701548078695 ], [ -76.028287208125121, 51.684043275263548 ] ] ] } },
{ "type": "Feature", "properties": { "hex_id": 352091, "centroid_lon": -76.020997526471646, "centroid_lat": 51.681511160464495, "occurrences_today": 9, "datetimes_today": "2026-04-30 00:04:50, 2026-04-30 00:20:14, 2026-04-30 00:34:46, 2026-04-30 00:49:52, 2026-04-30 01:19:50, 2026-04-30 01:34:53, 2026-04-30 01:49:53, 2026-04-30 02:04:50, 2026-04-30 02:19:57", "cumulative_total": 107.0 }, "geometry": { "type": "Polygon", "coordinates": [ [ [ -76.020880797106756, 51.676320768049365 ], [ -76.028169634765945, 51.678852896919764 ], [ -76.028287208125121, 51.684043275263548 ], [ -76.02111429089075, 51.686701548078695 ], [ -76.013824574176084, 51.684168989414609 ], [ -76.013708653765207, 51.678978587811393 ], [ -76.020880797106756, 51.676320768049365 ] ] ] } },
{ "type": "Feature", "properties": { "hex_id": 473224, "centroid_lon": -74.625727299149403, "centroid_lat": 46.130662995269574, "occurrences_today": 5, "datetimes_today": "2026-04-30 01:19:50, 2026-04-30 01:34:53, 2026-04-30 01:49:53, 2026-04-30 02:04:50, 2026-04-30 02:19:57", "cumulative_total": 17.0 }, "geometry": { "type": "Polygon", "coordinates": [ [ [ -74.625762490243332, 46.125466871918661 ], [ -74.632216961782433, 46.128085940966834 ], [ -74.632182374461436, 46.133282065722902 ], [ -74.625692098367693, 46.135859113854941 ], [ -74.619237032745076, 46.133239678097162 ], [ -74.619272837296407, 46.128043560983009 ], [ -74.625762490243332, 46.125466871918661 ] ] ] } },
{ "type": "Feature", "properties": { "hex_id": 663668, "centroid_lon": -72.628631807498479, "centroid_lat": 45.607796782096109, "occurrences_today": 5, "datetimes_today": "2026-04-30 01:19:50, 2026-04-30 01:34:53, 2026-04-30 01:49:53, 2026-04-30 02:04:50, 2026-04-30 02:19:57", "cumulative_total": 5.0 }, "geometry": { "type": "Polygon", "coordinates": [ [ [ -72.628850687838295, 45.602604527182294 ], [ -72.635147582166169, 45.605333526334498 ], [ -72.634929261995552, 45.610525802396189 ], [ -72.628412867343343, 45.612989031449715 ], [ -72.622115472671638, 45.6102596535234 ], [ -72.622334972975835, 45.60506742538211 ], [ -72.628850687838295, 45.602604527182294 ] ] ] } },
{ "type": "Feature", "properties": { "hex_id": 415209, "centroid_lon": -75.239437539103861, "centroid_lat": 45.858216167335179, "occurrences_today": 1, "datetimes_today": "2026-04-30 02:19:57", "cumulative_total": 1.0 }, "geometry": { "type": "Polygon", "coordinates": [ [ [ -75.239415238681914, 45.853019729570647 ], [ -75.245866850672826, 45.855604272861093 ], [ -75.245889754092715, 45.860800705782637 ], [ -75.239459845644021, 45.863412600344539 ], [ -75.233007624535958, 45.86082770002438 ], [ -75.232985920995816, 45.855631262237473 ], [ -75.239415238681914, 45.853019729570647 ] ] ] } },
{ "type": "Feature", "properties": { "hex_id": 417039, "centroid_lon": -75.220023015059894, "centroid_lat": 45.834870982525722, "occurrences_today": 1, "datetimes_today": "2026-04-30 02:19:57", "cumulative_total": 1.0 }, "geometry": { "type": "Polygon", "coordinates": [ [ [ -75.220002539504179, 45.829674516365444 ], [ -75.226450554807172, 45.832260173049441 ], [ -75.226471632374228, 45.837456634565505 ], [ -75.220043496231526, 45.840067443931993 ], [ -75.213594873300309, 45.837481430311634 ], [ -75.213574994141936, 45.832284964326547 ], [ -75.220002539504179, 45.829674516365444 ] ] ] } },
{ "type": "Feature", "properties": { "hex_id": 417650, "centroid_lon": -75.213614757911202, "centroid_lat": 45.842677891543147, "occurrences_today": 1, "datetimes_today": "2026-04-30 02:19:57", "cumulative_total": 1.0 }, "geometry": { "type": "Polygon", "coordinates": [ [ [ -75.213594873300309, 45.837481430311634 ], [ -75.220043496231526, 45.840067443931993 ], [ -75.220063983020978, 45.845263900584278 ], [ -75.213634647976463, 45.847874348021094 ], [ -75.207185417411409, 45.845287977300586 ], [ -75.207166129526541, 45.840091516308838 ], [ -75.213594873300309, 45.837481430311634 ] ] ] } },
{ "type": "Feature", "properties": { "hex_id": 418262, "centroid_lon": -75.207262621877348, "centroid_lat": 45.866073773736403, "occurrences_today": 1, "datetimes_today": "2026-04-30 02:19:57", "cumulative_total": 1.0 }, "geometry": { "type": "Polygon", "coordinates": [ [ [ -75.207243312818306, 45.860877331757074 ], [ -75.213694350916938, 45.863463688933869 ], [ -75.213714262818158, 45.86866012639787 ], [ -75.207281936234423, 45.871270210962699 ], [ -75.200830289994698, 45.868683496326675 ], [ -75.200811578481577, 45.86348705465052 ], [ -75.207243312818306, 45.860877331757074 ] ] ] } },
{ "type": "Feature", "properties": { "hex_id": 418871, "centroid_lon": -75.200736783736787, "centroid_lat": 45.842701240418926, "occurrences_today": 1, "datetimes_today": "2026-04-30 02:19:57", "cumulative_total": 1.0 }, "geometry": { "type": "Polygon", "coordinates": [ [ [ -75.20071809786883, 45.837504774979138 ], [ -75.207166129526541, 45.840091516308838 ], [ -75.207185417411409, 45.845287977300586 ], [ -75.200755474730315, 45.847897701105921 ], [ -75.194306835929268, 45.84531060254352 ], [ -75.194288746954371, 45.840114137473904 ], [ -75.20071809786883, 45.837504774979138 ] ] ] } },
{ "type": "Feature", "properties": { "hex_id": 419482, "centroid_lon": -75.194324929866156, "centroid_lat": 45.85050706286075, "occurrences_today": 1, "datetimes_today": "2026-04-30 02:19:57", "cumulative_total": 1.0 }, "geometry": { "type": "Polygon", "coordinates": [ [ [ -75.194306835929268, 45.84531060254352 ], [ -75.200755474730315, 45.847897701105921 ], [ -75.200774170851133, 45.853094157040175 ], [ -75.19434302876671, 45.855703518425592 ], [ -75.187893782817227, 45.853116062466654 ], [ -75.187876286102281, 45.847919602584255 ], [ -75.194306835929268, 45.84531060254352 ] ] ] } },
{ "type": "Feature", "properties": { "hex_id": 420092, "centroid_lon": -75.187858794185715, "centroid_lat": 45.842723137949832, "occurrences_today": 1, "datetimes_today": "2026-04-30 02:19:57", "cumulative_total": 1.0 }, "geometry": { "type": "Polygon", "coordinates": [ [ [ -75.187841307065881, 45.837526668563335 ], [ -75.194288746954371, 45.840114137473904 ], [ -75.194306835929268, 45.84531060254352 ], [ -75.187876286102281, 45.847919602584255 ], [ -75.181428239561157, 45.845331776308548 ], [ -75.181411349501275, 45.840135307422678 ], [ -75.187841307065881, 45.837526668563335 ] ] ] } },
{ "type": "Feature", "properties": { "hex_id": 420703, "centroid_lon": -75.181445134254176, "centroid_lat": 45.850528240442742, "occurrences_today": 1, "datetimes_today": "2026-04-30 02:19:57", "cumulative_total": 1.0 }, "geometry": { "type": "Polygon", "coordinates": [ [ [ -75.181428239561157, 45.845331776308548 ], [ -75.187876286102281, 45.847919602584255 ], [ -75.187893782817227, 45.853116062466654 ], [ -75.181462033581852, 45.855724699825252 ], [ -75.175013380383334, 45.853136516020591 ], [ -75.174997083079148, 45.847940052451698 ], [ -75.181428239561157, 45.845331776308548 ] ] ] } }
]
}
