{
"type": "FeatureCollection",
"name": "daily_2026-09-20",
"crs": { "type": "name", "properties": { "name": "urn:ogc:def:crs:OGC:1.3:CRS84" } },
"features": [
{ "type": "Feature", "properties": { "hex_id": 683830, "centroid_lon": -72.406084007258457, "centroid_lat": 45.844605438594627, "occurrences_today": 23, "datetimes_today": "2026-09-20 00:01:48, 2026-09-20 00:16:49, 2026-09-20 00:31:50, 2026-09-20 00:46:38, 2026-09-20 01:01:51, 2026-09-20 01:16:40, 2026-09-20 01:31:53, 2026-09-20 01:46:55, 2026-09-20 02:02:23, 2026-09-20 02:16:38, 2026-09-20 02:31:38, 2026-09-20 02:47:09, 2026-09-20 02:59:48, 2026-09-20 03:16:50, 2026-09-20 03:32:00, 2026-09-20 03:47:15, 2026-09-20 04:02:32, 2026-09-20 04:16:44, 2026-09-20 04:32:36, 2026-09-20 04:47:13, 2026-09-20 05:01:59, 2026-09-20 05:16:43, 2026-09-20 05:32:43", "cumulative_total": 94.0 }, "geometry": { "type": "Polygon", "coordinates": [ [ [ -72.406325400074536, 45.839414275334939 ], [ -72.412637080230155, 45.842155787189107 ], [ -72.41239625142515, 45.847346973865193 ], [ -72.405842548294018, 45.849796596127767 ], [ -72.399530370286868, 45.847054700489707 ], [ -72.399772393239999, 45.841863566437887 ], [ -72.406325400074536, 45.839414275334939 ] ] ] } },
{ "type": "Feature", "properties": { "hex_id": 575149, "centroid_lon": -73.556598227276567, "centroid_lat": 45.67786170882291, "occurrences_today": 7, "datetimes_today": "2026-09-20 08:01:43, 2026-09-20 08:16:59, 2026-09-20 08:34:19, 2026-09-20 08:46:42, 2026-09-20 09:02:16, 2026-09-20 09:16:46, 2026-09-20 09:31:40", "cumulative_total": 31.0 }, "geometry": { "type": "Polygon", "coordinates": [ [ [ -73.556731804755913, 45.672666712267784 ], [ -73.563082794468855, 45.675345126386631 ], [ -73.562949792246357, 45.680540134997031 ], [ -73.55646461324244, 45.683056700328507 ], [ -73.550113084833598, 45.680377914949624 ], [ -73.550247274112252, 45.675182935564173 ], [ -73.556731804755913, 45.672666712267784 ] ] ] } },
{ "type": "Feature", "properties": { "hex_id": 555609, "centroid_lon": -73.763362346983754, "centroid_lat": 45.617926933425167, "occurrences_today": 15, "datetimes_today": "2026-09-20 06:01:58, 2026-09-20 06:16:55, 2026-09-20 06:31:37, 2026-09-20 06:46:52, 2026-09-20 07:01:48, 2026-09-20 07:17:04, 2026-09-20 07:32:01, 2026-09-20 07:46:52, 2026-09-20 08:01:43, 2026-09-20 08:16:59, 2026-09-20 08:34:19, 2026-09-20 08:46:42, 2026-09-20 09:02:16, 2026-09-20 09:16:46, 2026-09-20 09:31:40", "cumulative_total": 155.0 }, "geometry": { "type": "Polygon", "coordinates": [ [ [ -73.763476554154053, 45.612731442912178 ], [ -73.769830928227833, 45.615398419247782 ], [ -73.769717297303941, 45.620593919751379 ], [ -73.763248108579731, 45.623122418969032 ], [ -73.756893189498541, 45.620455074076503 ], [ -73.757008004138456, 45.615259598588011 ], [ -73.763476554154053, 45.612731442912178 ] ] ] } },
{ "type": "Feature", "properties": { "hex_id": 607482, "centroid_lon": -73.228006647943957, "centroid_lat": 45.3068581492318, "occurrences_today": 6, "datetimes_today": "2026-09-20 08:16:59, 2026-09-20 08:34:19, 2026-09-20 08:46:42, 2026-09-20 09:02:16, 2026-09-20 09:16:46, 2026-09-20 09:31:40", "cumulative_total": 201.0 }, "geometry": { "type": "Polygon", "coordinates": [ [ [ -73.228168519094353, 45.301663651350907 ], [ -73.234462342060937, 45.304359649493222 ], [ -73.234301030564694, 45.309554162562797 ], [ -73.227844732700163, 45.31205264191464 ], [ -73.221550394180156, 45.309356274196048 ], [ -73.221712869063381, 45.30416179676584 ], [ -73.228168519094353, 45.301663651350907 ] ] ] } },
{ "type": "Feature", "properties": { "hex_id": 556215, "centroid_lon": -73.758497741790478, "centroid_lat": 45.547717964862507, "occurrences_today": 2, "datetimes_today": "2026-09-20 09:16:46, 2026-09-20 09:31:40", "cumulative_total": 358.0 }, "geometry": { "type": "Polygon", "coordinates": [ [ [ -73.758612117927157, 45.5425224197799 ], [ -73.764958409874112, 45.545189614079511 ], [ -73.76484460778768, 45.550385169185816 ], [ -73.75838333440052, 45.552913504974484 ], [ -73.752036499661841, 45.550245942962391 ], [ -73.752151481091545, 45.545050412938728 ], [ -73.758612117927157, 45.5425224197799 ] ] ] } },
{ "type": "Feature", "properties": { "hex_id": 678982, "centroid_lon": -72.431605825846674, "centroid_lat": 46.406397442139053, "occurrences_today": 4, "datetimes_today": "2026-09-20 02:31:38, 2026-09-20 02:47:09, 2026-09-20 02:59:48, 2026-09-20 03:16:50", "cumulative_total": 130.0 }, "geometry": { "type": "Polygon", "coordinates": [ [ [ -72.431849574142589, 46.401206686623517 ], [ -72.438225922865797, 46.403947910311111 ], [ -72.437982756103011, 46.409138689248458 ], [ -72.431362010277113, 46.41158819193231 ], [ -72.424985147305961, 46.40884657730296 ], [ -72.425229544385559, 46.403655850997758 ], [ -72.431849574142589, 46.401206686623517 ] ] ] } },
{ "type": "Feature", "properties": { "hex_id": 556827, "centroid_lon": -73.751576259641965, "centroid_lat": 45.571028013326888, "occurrences_today": 5, "datetimes_today": "2026-09-20 00:01:48, 2026-09-20 00:16:49, 2026-09-20 00:31:50, 2026-09-20 00:46:38, 2026-09-20 01:01:51", "cumulative_total": 517.0 }, "geometry": { "type": "Polygon", "coordinates": [ [ [ -73.751691366813219, 45.565832503195409 ], [ -73.758039924605995, 45.568500095486094 ], [ -73.757925392097903, 45.573695615714989 ], [ -73.751461121008887, 45.576223518485186 ], [ -73.745112020020059, 45.573555558121413 ], [ -73.745227733305711, 45.568360063125191 ], [ -73.751691366813219, 45.565832503195409 ] ] ] } },
{ "type": "Feature", "properties": { "hex_id": 360852, "centroid_lon": -75.80757099258139, "centroid_lat": 45.504839066545578, "occurrences_today": 3, "datetimes_today": "2026-09-20 09:02:16, 2026-09-20 09:16:46, 2026-09-20 09:31:40", "cumulative_total": 83.0 }, "geometry": { "type": "Polygon", "coordinates": [ [ [ -75.807496701085753, 45.499642777472992 ], [ -75.813933306370885, 45.502195500554791 ], [ -75.814008196672106, 45.507391779020587 ], [ -75.807645304369416, 45.510035350775652 ], [ -75.801208079982885, 45.507482280968908 ], [ -75.801134367007251, 45.502285986196625 ], [ -75.807496701085753, 45.499642777472992 ] ] ] } },
{ "type": "Feature", "properties": { "hex_id": 578196, "centroid_lon": -73.526756504858866, "centroid_lat": 45.591734818152226, "occurrences_today": 4, "datetimes_today": "2026-09-20 08:01:43, 2026-09-20 08:16:59, 2026-09-20 08:34:19, 2026-09-20 08:46:42", "cumulative_total": 180.0 }, "geometry": { "type": "Polygon", "coordinates": [ [ [ -73.526892434730371, 45.586539811936028 ], [ -73.533232340907418, 45.58921978732743 ], [ -73.533096983274461, 45.594414805872361 ], [ -73.526620537828308, 45.596929819306851 ], [ -73.520280096578034, 45.594249473474562 ], [ -73.520416635834621, 45.589054484713337 ], [ -73.526892434730371, 45.586539811936028 ] ] ] } },
{ "type": "Feature", "properties": { "hex_id": 374282, "centroid_lon": -75.666588740854337, "centroid_lat": 45.490158362228286, "occurrences_today": 5, "datetimes_today": "2026-09-20 08:34:19, 2026-09-20 08:46:42, 2026-09-20 09:02:16, 2026-09-20 09:16:46, 2026-09-20 09:31:40", "cumulative_total": 389.0 }, "geometry": { "type": "Polygon", "coordinates": [ [ [ -75.666527449570594, 45.484961894993098 ], [ -75.672956096792873, 45.487522614437296 ], [ -75.673017984726627, 45.492719072505452 ], [ -75.666650048877088, 45.495354824650882 ], [ -75.660220788262961, 45.492793757183271 ], [ -75.660160076895835, 45.487597285658211 ], [ -75.666527449570594, 45.484961894993098 ] ] ] } },
{ "type": "Feature", "properties": { "hex_id": 363907, "centroid_lon": -75.776107720344228, "centroid_lat": 45.544033133197992, "occurrences_today": 10, "datetimes_today": "2026-09-20 07:17:04, 2026-09-20 07:32:01, 2026-09-20 07:46:52, 2026-09-20 08:01:43, 2026-09-20 08:16:59, 2026-09-20 08:34:19, 2026-09-20 08:46:42, 2026-09-20 09:02:16, 2026-09-20 09:16:46, 2026-09-20 09:31:40", "cumulative_total": 135.0 }, "geometry": { "type": "Polygon", "coordinates": [ [ [ -75.776036225498643, 45.538836840434442 ], [ -75.782475926492907, 45.54139129876738 ], [ -75.782548020999045, 45.546587581239905 ], [ -75.776179234727721, 45.549229421126277 ], [ -75.769738914531729, 45.546674615255021 ], [ -75.769667999815354, 45.541478317100427 ], [ -75.776036225498643, 45.538836840434442 ] ] ] } },
{ "type": "Feature", "properties": { "hex_id": 546432, "centroid_lon": -73.865654939219723, "centroid_lat": 45.314972662176181, "occurrences_today": 34, "datetimes_today": "2026-09-20 00:01:48, 2026-09-20 00:16:49, 2026-09-20 00:31:50, 2026-09-20 00:46:38, 2026-09-20 01:01:51, 2026-09-20 01:16:40, 2026-09-20 01:31:53, 2026-09-20 01:46:55, 2026-09-20 02:02:23, 2026-09-20 02:16:38, 2026-09-20 02:31:38, 2026-09-20 02:47:09, 2026-09-20 02:59:48, 2026-09-20 03:16:50, 2026-09-20 03:32:00, 2026-09-20 03:47:15, 2026-09-20 04:02:32, 2026-09-20 04:16:44, 2026-09-20 04:32:36, 2026-09-20 04:47:13, 2026-09-20 05:01:59, 2026-09-20 05:16:43, 2026-09-20 05:32:43, 2026-09-20 05:46:45, 2026-09-20 06:01:58, 2026-09-20 06:16:55, 2026-09-20 06:31:37, 2026-09-20 06:46:52, 2026-09-20 07:01:48, 2026-09-20 07:17:04, 2026-09-20 07:32:01, 2026-09-20 07:46:52, 2026-09-20 08:01:43, 2026-09-20 08:16:59", "cumulative_total": 356.0 }, "geometry": { "type": "Polygon", "coordinates": [ [ [ -73.865758600364771, 45.309776702677489 ], [ -73.872084233020473, 45.312437847650926 ], [ -73.871981140355274, 45.317633816064138 ], [ -73.865551249826879, 45.320168616741604 ], [ -73.859225076943844, 45.317507108000221 ], [ -73.8593293348071, 45.312311162413422 ], [ -73.865758600364771, 45.309776702677489 ] ] ] } },
{ "type": "Feature", "properties": { "hex_id": 547042, "centroid_lon": -73.85943356426867, "centroid_lat": 45.307115211891322, "occurrences_today": 34, "datetimes_today": "2026-09-20 00:01:48, 2026-09-20 00:16:49, 2026-09-20 00:31:50, 2026-09-20 00:46:38, 2026-09-20 01:01:51, 2026-09-20 01:16:40, 2026-09-20 01:31:53, 2026-09-20 01:46:55, 2026-09-20 02:02:23, 2026-09-20 02:16:38, 2026-09-20 02:31:38, 2026-09-20 02:47:09, 2026-09-20 02:59:48, 2026-09-20 03:16:50, 2026-09-20 03:32:00, 2026-09-20 03:47:15, 2026-09-20 04:02:32, 2026-09-20 04:16:44, 2026-09-20 04:32:36, 2026-09-20 04:47:13, 2026-09-20 05:01:59, 2026-09-20 05:16:43, 2026-09-20 05:32:43, 2026-09-20 05:46:45, 2026-09-20 06:01:58, 2026-09-20 06:16:55, 2026-09-20 06:31:37, 2026-09-20 06:46:52, 2026-09-20 07:01:48, 2026-09-20 07:17:04, 2026-09-20 07:32:01, 2026-09-20 07:46:52, 2026-09-20 08:01:43, 2026-09-20 08:16:59", "cumulative_total": 127.0 }, "geometry": { "type": "Polygon", "coordinates": [ [ [ -73.859537765338018, 45.301919256433962 ], [ -73.865862233271471, 45.304580738245598 ], [ -73.865758600364771, 45.309776702677489 ], [ -73.8593293348071, 45.312311162413422 ], [ -73.853004327107953, 45.309649316873646 ], [ -73.853109124722707, 45.304453375390175 ], [ -73.859537765338018, 45.301919256433962 ] ] ] } },
{ "type": "Feature", "properties": { "hex_id": 347477, "centroid_lon": -75.963362762193441, "centroid_lat": 46.376631420935738, "occurrences_today": 5, "datetimes_today": "2026-09-20 08:34:19, 2026-09-20 08:46:42, 2026-09-20 09:02:16, 2026-09-20 09:16:46, 2026-09-20 09:31:40", "cumulative_total": 81.0 }, "geometry": { "type": "Polygon", "coordinates": [ [ [ -75.96327140491789, 46.37143614662989 ], [ -75.96981734842791, 46.37397883746042 ], [ -75.969909334626195, 46.379174099415842 ], [ -75.963454144695319, 46.381826690360967 ], [ -75.956907547031889, 46.379283643593638 ], [ -75.956816793461414, 46.374088361884588 ], [ -75.96327140491789, 46.37143614662989 ] ] ] } },
{ "type": "Feature", "properties": { "hex_id": 608703, "centroid_lon": -73.215256659551201, "centroid_lat": 45.306659567380166, "occurrences_today": 6, "datetimes_today": "2026-09-20 08:16:59, 2026-09-20 08:34:19, 2026-09-20 08:46:42, 2026-09-20 09:02:16, 2026-09-20 09:16:46, 2026-09-20 09:31:40", "cumulative_total": 119.0 }, "geometry": { "type": "Polygon", "coordinates": [ [ [ -73.21541969390826, 45.301465105263382 ], [ -73.221712869063381, 45.30416179676584 ], [ -73.221550394180156, 45.309356274196048 ], [ -73.215093580784327, 45.311854024292394 ], [ -73.208799890572593, 45.3091569631003 ], [ -73.208963528798492, 45.303962521565445 ], [ -73.21541969390826, 45.301465105263382 ] ] ] } },
{ "type": "Feature", "properties": { "hex_id": 345036, "centroid_lon": -75.989646573927033, "centroid_lat": 46.391995070049155, "occurrences_today": 5, "datetimes_today": "2026-09-20 08:34:19, 2026-09-20 08:46:42, 2026-09-20 09:02:16, 2026-09-20 09:16:46, 2026-09-20 09:31:40", "cumulative_total": 91.0 }, "geometry": { "type": "Polygon", "coordinates": [ [ [ -75.989552674041676, 46.386799850444241 ], [ -75.99610166118984, 46.389341005654643 ], [ -75.996196190835519, 46.394536212633163 ], [ -75.989740499745807, 46.397190284765891 ], [ -75.983190856899483, 46.394648773707878 ], [ -75.983097560849927, 46.389453546431405 ], [ -75.989552674041676, 46.386799850444241 ] ] ] } },
{ "type": "Feature", "properties": { "hex_id": 346257, "centroid_lon": -75.976641818059235, "centroid_lat": 46.392106881646093, "occurrences_today": 5, "datetimes_today": "2026-09-20 08:34:19, 2026-09-20 08:46:42, 2026-09-20 09:02:16, 2026-09-20 09:16:46, 2026-09-20 09:31:40", "cumulative_total": 55.0 }, "geometry": { "type": "Polygon", "coordinates": [ [ [ -75.976549151613071, 46.386911641878413 ], [ -75.983097560849927, 46.389453546431405 ], [ -75.983190856899483, 46.394648773707878 ], [ -75.976734510098268, 46.397302116529403 ], [ -75.970185445660746, 46.394759855986997 ], [ -75.970093383233888, 46.38956460867913 ], [ -75.976549151613071, 46.386911641878413 ] ] ] } },
{ "type": "Feature", "properties": { "hex_id": 358403, "centroid_lon": -75.831564749744189, "centroid_lat": 45.395532817866957, "occurrences_today": 10, "datetimes_today": "2026-09-20 07:17:04, 2026-09-20 07:32:01, 2026-09-20 07:46:52, 2026-09-20 08:01:43, 2026-09-20 08:16:59, 2026-09-20 08:34:19, 2026-09-20 08:46:42, 2026-09-20 09:02:16, 2026-09-20 09:16:46, 2026-09-20 09:31:40", "cumulative_total": 256.0 }, "geometry": { "type": "Polygon", "coordinates": [ [ [ -75.83148854198356, 45.390336460105658 ], [ -75.837913718875441, 45.392887960610722 ], [ -75.837990522305702, 45.398084307536287 ], [ -75.831640978293308, 45.400729170780096 ], [ -75.82521518493985, 45.398177325143386 ], [ -75.825139552067313, 45.392980961458854 ], [ -75.83148854198356, 45.390336460105658 ] ] ] } },
{ "type": "Feature", "properties": { "hex_id": 1674224, "centroid_lon": -61.515424197950843, "centroid_lat": 47.615753743715075, "occurrences_today": 5, "datetimes_today": "2026-09-20 00:46:38, 2026-09-20 03:16:50, 2026-09-20 03:32:00, 2026-09-20 03:47:15, 2026-09-20 04:02:32", "cumulative_total": 50.0 }, "geometry": { "type": "Polygon", "coordinates": [ [ [ -61.516747357796554, 47.610702254102584 ], [ -61.522555553747232, 47.614002672176774 ], [ -61.521232800610065, 47.619054281854496 ], [ -61.514100676722755, 47.620805200918447 ], [ -61.5082924355073, 47.617504315368535 ], [ -61.509616363321122, 47.61245297828637 ], [ -61.516747357796554, 47.610702254102584 ] ] ] } },
{ "type": "Feature", "properties": { "hex_id": 1674835, "centroid_lon": -61.506968146103119, "centroid_lat": 47.622555620011148, "occurrences_today": 5, "datetimes_today": "2026-09-20 00:46:38, 2026-09-20 03:16:50, 2026-09-20 03:32:00, 2026-09-20 03:47:15, 2026-09-20 04:02:32", "cumulative_total": 34.0 }, "geometry": { "type": "Polygon", "coordinates": [ [ [ -61.5082924355073, 47.617504315368535 ], [ -61.514100676722755, 47.620805200918447 ], [ -61.512776793989474, 47.625856625702497 ], [ -61.505643494985655, 47.627606892204007 ], [ -61.499835208874025, 47.62430553906308 ], [ -61.501160266539465, 47.61925438706762 ], [ -61.5082924355073, 47.617504315368535 ] ] ] } },
{ "type": "Feature", "properties": { "hex_id": 555608, "centroid_lon": -73.763704874835511, "centroid_lat": 45.602340446979049, "occurrences_today": 15, "datetimes_today": "2026-09-20 06:01:58, 2026-09-20 06:16:55, 2026-09-20 06:31:37, 2026-09-20 06:46:52, 2026-09-20 07:01:48, 2026-09-20 07:17:04, 2026-09-20 07:32:01, 2026-09-20 07:46:52, 2026-09-20 08:01:43, 2026-09-20 08:16:59, 2026-09-20 08:34:19, 2026-09-20 08:46:42, 2026-09-20 09:02:16, 2026-09-20 09:16:46, 2026-09-20 09:31:40", "cumulative_total": 139.0 }, "geometry": { "type": "Polygon", "coordinates": [ [ [ -73.763818988367689, 45.597144941559044 ], [ -73.770171634640789, 45.59981188793639 ], [ -73.770058096885805, 45.605007403340224 ], [ -73.763590730101143, 45.607535947430115 ], [ -73.757237539258313, 45.604868632696913 ], [ -73.757352259759372, 45.599673142294428 ], [ -73.763818988367689, 45.597144941559044 ] ] ] } },
{ "type": "Feature", "properties": { "hex_id": 345035, "centroid_lon": -75.989364952035487, "centroid_lat": 46.376409396569791, "occurrences_today": 5, "datetimes_today": "2026-09-20 08:34:19, 2026-09-20 08:46:42, 2026-09-20 09:02:16, 2026-09-20 09:16:46, 2026-09-20 09:31:40", "cumulative_total": 130.0 }, "geometry": { "type": "Polygon", "coordinates": [ [ [ -75.989271129896878, 46.371214162300305 ], [ -75.995818228811942, 46.373755355378414 ], [ -75.995912680187004, 46.378950577027275 ], [ -75.989458800080783, 46.381604625951113 ], [ -75.982911046018145, 46.379063077219556 ], [ -75.982817827218184, 46.373867835284202 ], [ -75.989271129896878, 46.371214162300305 ] ] ] } },
{ "type": "Feature", "properties": { "hex_id": 345645, "centroid_lon": -75.982724634150443, "centroid_lat": 46.368672588462559, "occurrences_today": 5, "datetimes_today": "2026-09-20 08:34:19, 2026-09-20 08:46:42, 2026-09-20 09:02:16, 2026-09-20 09:16:46, 2026-09-20 09:31:40", "cumulative_total": 129.0 }, "geometry": { "type": "Polygon", "coordinates": [ [ [ -75.982631466806026, 46.363477336754649 ], [ -75.989177333656059, 46.366018923142626 ], [ -75.989271129896878, 46.371214162300305 ], [ -75.982817827218184, 46.373867835284202 ], [ -75.976271305743992, 46.371325893268924 ], [ -75.976178741581478, 46.36613063396365 ], [ -75.982631466806026, 46.363477336754649 ] ] ] } },
{ "type": "Feature", "properties": { "hex_id": 345646, "centroid_lon": -75.983004290559109, "centroid_lat": 46.384258314268621, "occurrences_today": 5, "datetimes_today": "2026-09-20 08:34:19, 2026-09-20 08:46:42, 2026-09-20 09:02:16, 2026-09-20 09:16:46, 2026-09-20 09:31:40", "cumulative_total": 124.0 }, "geometry": { "type": "Polygon", "coordinates": [ [ [ -75.982911046018145, 46.379063077219556 ], [ -75.989458800080783, 46.381604625951113 ], [ -75.989552674041676, 46.386799850444241 ], [ -75.983097560849927, 46.389453546431405 ], [ -75.976549151613071, 46.386911641878413 ], [ -75.976456510751007, 46.381716397226306 ], [ -75.982911046018145, 46.379063077219556 ] ] ] } },
{ "type": "Feature", "properties": { "hex_id": 346256, "centroid_lon": -75.976363895464246, "centroid_lat": 46.376521147689793, "occurrences_today": 5, "datetimes_today": "2026-09-20 08:34:19, 2026-09-20 08:46:42, 2026-09-20 09:02:16, 2026-09-20 09:16:46, 2026-09-20 09:31:40", "cumulative_total": 172.0 }, "geometry": { "type": "Polygon", "coordinates": [ [ [ -75.976271305743992, 46.371325893268924 ], [ -75.982817827218184, 46.373867835284202 ], [ -75.982911046018145, 46.379063077219556 ], [ -75.976456510751007, 46.381716397226306 ], [ -75.969909334626195, 46.379174099415842 ], [ -75.96981734842791, 46.37397883746042 ], [ -75.976271305743992, 46.371325893268924 ] ] ] } },
{ "type": "Feature", "properties": { "hex_id": 346866, "centroid_lon": -75.969725387621679, "centroid_lat": 46.368783570622483, "occurrences_today": 5, "datetimes_today": "2026-09-20 08:34:19, 2026-09-20 08:46:42, 2026-09-20 09:02:16, 2026-09-20 09:16:46, 2026-09-20 09:31:40", "cumulative_total": 84.0 }, "geometry": { "type": "Polygon", "coordinates": [ [ [ -75.969633452198821, 46.363588298902037 ], [ -75.976178741581478, 46.36613063396365 ], [ -75.976271305743992, 46.371325893268924 ], [ -75.96981734842791, 46.37397883746042 ], [ -75.96327140491789, 46.37143614662989 ], [ -75.963180072860027, 46.366240867443373 ], [ -75.969633452198821, 46.363588298902037 ] ] ] } },
{ "type": "Feature", "properties": { "hex_id": 682608, "centroid_lon": -72.419669789397602, "centroid_lat": 45.829323297719597, "occurrences_today": 23, "datetimes_today": "2026-09-20 00:01:48, 2026-09-20 00:16:49, 2026-09-20 00:31:50, 2026-09-20 00:46:38, 2026-09-20 01:01:51, 2026-09-20 01:16:40, 2026-09-20 01:31:53, 2026-09-20 01:46:55, 2026-09-20 02:02:23, 2026-09-20 02:16:38, 2026-09-20 02:31:38, 2026-09-20 02:47:09, 2026-09-20 02:59:48, 2026-09-20 03:16:50, 2026-09-20 03:32:00, 2026-09-20 03:47:15, 2026-09-20 04:02:32, 2026-09-20 04:16:44, 2026-09-20 04:32:36, 2026-09-20 04:47:13, 2026-09-20 05:01:59, 2026-09-20 05:16:43, 2026-09-20 05:32:43", "cumulative_total": 128.0 }, "geometry": { "type": "Polygon", "coordinates": [ [ [ -72.419909790862491, 45.824132064821875 ], [ -72.426220475114206, 45.826872809583641 ], [ -72.425981037401101, 45.832064065758615 ], [ -72.419429722177398, 45.834514524901422 ], [ -72.413118539940328, 45.831773396672688 ], [ -72.413359170890089, 45.826582192832994 ], [ -72.419909790862491, 45.824132064821875 ] ] ] } },
{ "type": "Feature", "properties": { "hex_id": 352914, "centroid_lon": -75.89039802893663, "centroid_lat": 45.480837725973196, "occurrences_today": 8, "datetimes_today": "2026-09-20 07:46:52, 2026-09-20 08:01:43, 2026-09-20 08:16:59, 2026-09-20 08:34:19, 2026-09-20 08:46:42, 2026-09-20 09:02:16, 2026-09-20 09:16:46, 2026-09-20 09:31:40", "cumulative_total": 132.0 }, "geometry": { "type": "Polygon", "coordinates": [ [ [ -75.890316186939927, 45.47564152645765 ], [ -75.896753711765726, 45.478189585356311 ], [ -75.896836152803033, 45.483385773422775 ], [ -75.89047989328121, 45.486033920626014 ], [ -75.884041747063179, 45.483485516170909 ], [ -75.883960481766707, 45.478289310133526 ], [ -75.890316186939927, 45.47564152645765 ] ] ] } },
{ "type": "Feature", "properties": { "hex_id": 353524, "centroid_lon": -75.883879238653918, "centroid_lat": 45.473093099235058, "occurrences_today": 8, "datetimes_today": "2026-09-20 07:46:52, 2026-09-20 08:01:43, 2026-09-20 08:16:59, 2026-09-20 08:34:19, 2026-09-20 08:46:42, 2026-09-20 09:02:16, 2026-09-20 09:16:46, 2026-09-20 09:31:40", "cumulative_total": 228.0 }, "geometry": { "type": "Polygon", "coordinates": [ [ [ -75.883798017717368, 45.467896883475518 ], [ -75.890234367283597, 45.470445322079378 ], [ -75.890316186939927, 45.47564152645765 ], [ -75.883960481766707, 45.478289310133526 ], [ -75.877523511300737, 45.475740525999321 ], [ -75.87744286691516, 45.470544303784081 ], [ -75.883798017717368, 45.467896883475518 ] ] ] } },
{ "type": "Feature", "properties": { "hex_id": 602601, "centroid_lon": -73.277591024901071, "centroid_lat": 45.354389762660887, "occurrences_today": 4, "datetimes_today": "2026-09-20 08:34:19, 2026-09-20 08:46:42, 2026-09-20 09:02:16, 2026-09-20 09:16:46", "cumulative_total": 179.0 }, "geometry": { "type": "Polygon", "coordinates": [ [ [ -73.277748628748554, 45.349195170841817 ], [ -73.284050087244637, 45.351888526385324 ], [ -73.28389304513324, 45.357083132921339 ], [ -73.277433378097314, 45.35958434930609 ], [ -73.271131400828622, 45.356890624037 ], [ -73.271289609354099, 45.351696052172827 ], [ -73.277748628748554, 45.349195170841817 ] ] ] } },
{ "type": "Feature", "properties": { "hex_id": 373671, "centroid_lon": -75.67289422575594, "centroid_lat": 45.482326151555299, "occurrences_today": 5, "datetimes_today": "2026-09-20 08:34:19, 2026-09-20 08:46:42, 2026-09-20 09:02:16, 2026-09-20 09:16:46, 2026-09-20 09:31:40", "cumulative_total": 160.0 }, "geometry": { "type": "Polygon", "coordinates": [ [ [ -75.672832371610127, 45.477129683859495 ], [ -75.679260405457498, 45.479690055442624 ], [ -75.679322856084241, 45.484886513908087 ], [ -75.672956096792873, 45.487522614437296 ], [ -75.666527449570594, 45.484961894993098 ], [ -75.66646617502029, 45.479765422945306 ], [ -75.672832371610127, 45.477129683859495 ] ] ] } },
{ "type": "Feature", "properties": { "hex_id": 666155, "centroid_lon": -72.572574868302794, "centroid_lat": 46.308151747464166, "occurrences_today": 1, "datetimes_today": "2026-09-20 09:31:40", "cumulative_total": 56.0 }, "geometry": { "type": "Polygon", "coordinates": [ [ [ -72.572804458179391, 46.302960344438183 ], [ -72.579176946797588, 46.305693659213979 ], [ -72.57894793750485, 46.310885084230478 ], [ -72.572345215134035, 46.313343144874544 ], [ -72.565972209234985, 46.310609441702624 ], [ -72.566202442965945, 46.305418066348842 ], [ -72.572804458179391, 46.302960344438183 ] ] ] } },
{ "type": "Feature", "properties": { "hex_id": 683219, "centroid_lon": -72.412877843061125, "centroid_lat": 45.836964594791496, "occurrences_today": 23, "datetimes_today": "2026-09-20 00:01:48, 2026-09-20 00:16:49, 2026-09-20 00:31:50, 2026-09-20 00:46:38, 2026-09-20 01:01:51, 2026-09-20 01:16:40, 2026-09-20 01:31:53, 2026-09-20 01:46:55, 2026-09-20 02:02:23, 2026-09-20 02:16:38, 2026-09-20 02:31:38, 2026-09-20 02:47:09, 2026-09-20 02:59:48, 2026-09-20 03:16:50, 2026-09-20 03:32:00, 2026-09-20 03:47:15, 2026-09-20 04:02:32, 2026-09-20 04:16:44, 2026-09-20 04:32:36, 2026-09-20 04:47:13, 2026-09-20 05:01:59, 2026-09-20 05:16:43, 2026-09-20 05:32:43", "cumulative_total": 50.0 }, "geometry": { "type": "Polygon", "coordinates": [ [ [ -72.413118539940328, 45.831773396672688 ], [ -72.419429722177398, 45.834514524901422 ], [ -72.419189589179624, 45.839705746367045 ], [ -72.412637080230155, 45.842155787189107 ], [ -72.406325400074536, 45.839414275334939 ], [ -72.406566726764638, 45.834223106349064 ], [ -72.413118539940328, 45.831773396672688 ] ] ] } },
{ "type": "Feature", "properties": { "hex_id": 763259, "centroid_lon": -71.507433512114119, "centroid_lat": 46.818376351774823, "occurrences_today": 1, "datetimes_today": "2026-09-20 09:31:40", "cumulative_total": 106.0 }, "geometry": { "type": "Polygon", "coordinates": [ [ [ -71.507769672318915, 46.813190408087607 ], [ -71.514143689647369, 46.815983052072539 ], [ -71.51380810952341, 46.821169028451372 ], [ -71.507097258703027, 46.823562288886819 ], [ -71.500722754516175, 46.820769240517052 ], [ -71.501059587975817, 46.815583336163527 ], [ -71.507769672318915, 46.813190408087607 ] ] ] } },
{ "type": "Feature", "properties": { "hex_id": 763870, "centroid_lon": -71.500385827661233, "centroid_lat": 46.825955138288201, "occurrences_today": 1, "datetimes_today": "2026-09-20 09:31:40", "cumulative_total": 106.0 }, "geometry": { "type": "Polygon", "coordinates": [ [ [ -71.500722754516175, 46.820769240517052 ], [ -71.507097258703027, 46.823562288886819 ], [ -71.506760912053323, 46.828748219422984 ], [ -71.500048807378604, 46.831141029476292 ], [ -71.493673816430388, 46.828347576559985 ], [ -71.494011416885868, 46.823161718203735 ], [ -71.500722754516175, 46.820769240517052 ] ] ] } },
{ "type": "Feature", "properties": { "hex_id": 764480, "centroid_lon": -71.494348923756988, "centroid_lat": 46.817975853257913, "occurrences_today": 1, "datetimes_today": "2026-09-20 09:31:40", "cumulative_total": 106.0 }, "geometry": { "type": "Polygon", "coordinates": [ [ [ -71.494686337076189, 46.812789981723114 ], [ -71.501059587975817, 46.815583336163527 ], [ -71.500722754516175, 46.820769240517052 ], [ -71.494011416885868, 46.823161718203735 ], [ -71.487637679694828, 46.820367959275309 ], [ -71.487975766393077, 46.815182127215046 ], [ -71.494686337076189, 46.812789981723114 ] ] ] } },
{ "type": "Feature", "properties": { "hex_id": 765091, "centroid_lon": -71.487299499255613, "centroid_lat": 46.825553784739398, "occurrences_today": 1, "datetimes_today": "2026-09-20 09:31:40", "cumulative_total": 106.0 }, "geometry": { "type": "Polygon", "coordinates": [ [ [ -71.487637679694828, 46.820367959275309 ], [ -71.494011416885868, 46.823161718203735 ], [ -71.493673816430388, 46.828347576559985 ], [ -71.486961225042918, 46.830739603606673 ], [ -71.480587001657867, 46.827945440028543 ], [ -71.480925855821795, 46.822759654120254 ], [ -71.487637679694828, 46.820367959275309 ] ] ] } },
{ "type": "Feature", "properties": { "hex_id": 765701, "centroid_lon": -71.481264616055654, "centroid_lat": 46.817573861608558, "occurrences_today": 1, "datetimes_today": "2026-09-20 09:31:40", "cumulative_total": 39.0 }, "geometry": { "type": "Polygon", "coordinates": [ [ [ -71.481603282391973, 46.812388062494115 ], [ -71.487975766393077, 46.815182127215046 ], [ -71.487637679694828, 46.820367959275309 ], [ -71.480925855821795, 46.822759654120254 ], [ -71.47455288609639, 46.819965184808225 ], [ -71.474892225935776, 46.814779425309183 ], [ -71.481603282391973, 46.812388062494115 ] ] ] } },
{ "type": "Feature", "properties": { "hex_id": 766312, "centroid_lon": -71.474213452170403, "centroid_lat": 46.825150937697288, "occurrences_today": 1, "datetimes_today": "2026-09-20 09:31:40", "cumulative_total": 39.0 }, "geometry": { "type": "Polygon", "coordinates": [ [ [ -71.47455288609639, 46.819965184808225 ], [ -71.480925855821795, 46.822759654120254 ], [ -71.480587001657867, 46.827945440028543 ], [ -71.473873924125201, 46.830336683975695 ], [ -71.467500468773267, 46.827541809910961 ], [ -71.467840576547914, 46.822356096718622 ], [ -71.47455288609639, 46.819965184808225 ] ] ] } },
{ "type": "Feature", "properties": { "hex_id": 766922, "centroid_lon": -71.468180590046828, "centroid_lat": 46.817170376909012, "occurrences_today": 1, "datetimes_today": "2026-09-20 09:31:40", "cumulative_total": 39.0 }, "geometry": { "type": "Polygon", "coordinates": [ [ [ -71.468520509302692, 46.811984650482806 ], [ -71.474892225935776, 46.814779425309183 ], [ -71.47455288609639, 46.819965184808225 ], [ -71.467840576547914, 46.822356096718622 ], [ -71.461468374757729, 46.819560917198238 ], [ -71.461808967640451, 46.814375230528299 ], [ -71.468520509302692, 46.811984650482806 ] ] ] } },
{ "type": "Feature", "properties": { "hex_id": 767533, "centroid_lon": -71.46112768744284, "centroid_lat": 46.824746597244307, "occurrences_today": 1, "datetimes_today": "2026-09-20 09:31:40", "cumulative_total": 39.0 }, "geometry": { "type": "Polygon", "coordinates": [ [ [ -71.461468374757729, 46.819560917198238 ], [ -71.467840576547914, 46.822356096718622 ], [ -71.467500468773267, 46.827541809910961 ], [ -71.460786905663028, 46.829932270665829 ], [ -71.454414218813881, 46.82713668628984 ], [ -71.454755580101192, 46.821951046081416 ], [ -71.461468374757729, 46.819560917198238 ] ] ] } },
{ "type": "Feature", "properties": { "hex_id": 556219, "centroid_lon": -73.757122787388198, "centroid_lat": 45.610064118128129, "occurrences_today": 15, "datetimes_today": "2026-09-20 06:01:58, 2026-09-20 06:16:55, 2026-09-20 06:31:37, 2026-09-20 06:46:52, 2026-09-20 07:01:48, 2026-09-20 07:17:04, 2026-09-20 07:32:01, 2026-09-20 07:46:52, 2026-09-20 08:01:43, 2026-09-20 08:16:59, 2026-09-20 08:34:19, 2026-09-20 08:46:42, 2026-09-20 09:02:16, 2026-09-20 09:16:46, 2026-09-20 09:31:40", "cumulative_total": 120.0 }, "geometry": { "type": "Polygon", "coordinates": [ [ [ -73.757237539258313, 45.604868632696913 ], [ -73.763590730101143, 45.607535947430115 ], [ -73.763476554154053, 45.612731442912178 ], [ -73.757008004138456, 45.615259598588011 ], [ -73.750654268757472, 45.612591915338832 ], [ -73.750769627919709, 45.607396444994542 ], [ -73.757237539258313, 45.604868632696913 ] ] ] } },
{ "type": "Feature", "properties": { "hex_id": 346867, "centroid_lon": -75.970001346225288, "centroid_lat": 46.384369356488754, "occurrences_today": 5, "datetimes_today": "2026-09-20 08:34:19, 2026-09-20 08:46:42, 2026-09-20 09:02:16, 2026-09-20 09:16:46, 2026-09-20 09:31:40", "cumulative_total": 87.0 }, "geometry": { "type": "Polygon", "coordinates": [ [ [ -75.969909334626195, 46.379174099415842 ], [ -75.976456510751007, 46.381716397226306 ], [ -75.976549151613071, 46.386911641878413 ], [ -75.970093383233888, 46.38956460867913 ], [ -75.963545552432208, 46.387021954905535 ], [ -75.963454144695319, 46.381826690360967 ], [ -75.969909334626195, 46.379174099415842 ] ] ] } },
{ "type": "Feature", "properties": { "hex_id": 348087, "centroid_lon": -75.956726064942885, "centroid_lat": 46.368893075296739, "occurrences_today": 5, "datetimes_today": "2026-09-20 08:34:19, 2026-09-20 08:46:42, 2026-09-20 09:02:16, 2026-09-20 09:16:46, 2026-09-20 09:31:40", "cumulative_total": 122.0 }, "geometry": { "type": "Polygon", "coordinates": [ [ [ -75.95663536146769, 46.363697783830112 ], [ -75.963180072860027, 46.366240867443373 ], [ -75.96327140491789, 46.37143614662989 ], [ -75.956816793461414, 46.374088361884588 ], [ -75.950271428438754, 46.371544922360869 ], [ -75.950181328511519, 46.366349623559493 ], [ -75.95663536146769, 46.363697783830112 ] ] ] } },
{ "type": "Feature", "properties": { "hex_id": 348088, "centroid_lon": -75.956998325662909, "centroid_lat": 46.384478920423881, "occurrences_today": 5, "datetimes_today": "2026-09-20 08:34:19, 2026-09-20 08:46:42, 2026-09-20 09:02:16, 2026-09-20 09:16:46, 2026-09-20 09:31:40", "cumulative_total": 71.0 }, "geometry": { "type": "Polygon", "coordinates": [ [ [ -75.956907547031889, 46.379283643593638 ], [ -75.963454144695319, 46.381826690360967 ], [ -75.963545552432208, 46.387021954905535 ], [ -75.957089129363098, 46.389674192375324 ], [ -75.950541877520308, 46.387130789503246 ], [ -75.950451702934615, 46.381935505332741 ], [ -75.956907547031889, 46.379283643593638 ] ] ] } },
{ "type": "Feature", "properties": { "hex_id": 348698, "centroid_lon": -75.950361553243624, "centroid_lat": 46.37674021628527, "occurrences_today": 5, "datetimes_today": "2026-09-20 08:34:19, 2026-09-20 08:46:42, 2026-09-20 09:02:16, 2026-09-20 09:16:46, 2026-09-20 09:31:40", "cumulative_total": 131.0 }, "geometry": { "type": "Polygon", "coordinates": [ [ [ -75.950271428438754, 46.371544922360869 ], [ -75.956816793461414, 46.374088361884588 ], [ -75.956907547031889, 46.379283643593638 ], [ -75.950451702934615, 46.381935505332741 ], [ -75.94390568425591, 46.379391709730697 ], [ -75.943816163339079, 46.37419640853448 ], [ -75.950271428438754, 46.371544922360869 ] ] ] } },
{ "type": "Feature", "properties": { "hex_id": 687054, "centroid_lon": -72.238761460053155, "centroid_lat": 48.513885280232401, "occurrences_today": 3, "datetimes_today": "2026-09-20 07:32:01, 2026-09-20 07:46:52, 2026-09-20 08:01:43", "cumulative_total": 35.0 }, "geometry": { "type": "Polygon", "coordinates": [ [ [ -72.239043545301953, 48.508697253627204 ], [ -72.245664654875327, 48.511453385311896 ], [ -72.245383218345452, 48.516641438340287 ], [ -72.238479294607657, 48.519073300907735 ], [ -72.231857616526653, 48.516316747396388 ], [ -72.232140430661957, 48.511128753215921 ], [ -72.239043545301953, 48.508697253627204 ] ] ] } },
{ "type": "Feature", "properties": { "hex_id": 554998, "centroid_lon": -73.769944528084977, "centroid_lat": 45.610202913777385, "occurrences_today": 15, "datetimes_today": "2026-09-20 06:01:58, 2026-09-20 06:16:55, 2026-09-20 06:31:37, 2026-09-20 06:46:52, 2026-09-20 07:01:48, 2026-09-20 07:17:04, 2026-09-20 07:32:01, 2026-09-20 07:46:52, 2026-09-20 08:01:43, 2026-09-20 08:16:59, 2026-09-20 08:34:19, 2026-09-20 08:46:42, 2026-09-20 09:02:16, 2026-09-20 09:16:46, 2026-09-20 09:31:40", "cumulative_total": 139.0 }, "geometry": { "type": "Polygon", "coordinates": [ [ [ -73.770058096885805, 45.605007403340224 ], [ -73.776411925920712, 45.60767401127908 ], [ -73.776298933220275, 45.612869531639809 ], [ -73.769830928227833, 45.615398419247782 ], [ -73.763476554154053, 45.612731442912178 ], [ -73.763590730101143, 45.607535947430115 ], [ -73.770058096885805, 45.605007403340224 ] ] ] } }
]
}
