{
"type": "FeatureCollection",
"name": "cumulative_2026-01-04",
"crs": { "type": "name", "properties": { "name": "urn:ogc:def:crs:OGC:1.3:CRS84" } },
"features": [
{ "type": "Feature", "properties": { "hex_id": 300431, "centroid_lon": -76.44846604324762, "centroid_lat": 45.786926954353312, "hours_count": 33.0, "n_files": 180, "datetimes_affected": "2026-01-03 09:32:54,2026-01-03 09:32:54,2026-01-03 09:32:54", "days_affected": 1 }, "geometry": { "type": "Polygon", "coordinates": [ [ [ -76.44197, 45.78441 ], [ -76.4421, 45.78961 ], [ -76.4486, 45.79212 ], [ -76.45496, 45.78944 ], [ -76.45483, 45.78425 ], [ -76.44833, 45.78173 ], [ -76.44197, 45.78441 ] ] ] } },
{ "type": "Feature", "properties": { "hex_id": 301652, "centroid_lon": -76.435604893654272, "centroid_lat": 45.787089304354055, "hours_count": 33.0, "n_files": 180, "datetimes_affected": "2026-01-03 09:32:54,2026-01-03 09:32:54,2026-01-03 09:32:54", "days_affected": 1 }, "geometry": { "type": "Polygon", "coordinates": [ [ [ -76.42911, 45.78457 ], [ -76.42924, 45.78977 ], [ -76.43574, 45.79228 ], [ -76.4421, 45.78961 ], [ -76.44197, 45.78441 ], [ -76.43547, 45.78189 ], [ -76.42911, 45.78457 ] ] ] } },
{ "type": "Feature", "properties": { "hex_id": 302262, "centroid_lon": -76.428975142327062, "centroid_lat": 45.779377541047594, "hours_count": 33.0, "n_files": 180, "datetimes_affected": "2026-01-03 09:32:54,2026-01-03 09:32:54,2026-01-03 09:32:54", "days_affected": 1 }, "geometry": { "type": "Polygon", "coordinates": [ [ [ -76.42248, 45.77686 ], [ -76.42261, 45.78206 ], [ -76.42911, 45.78457 ], [ -76.43547, 45.78189 ], [ -76.43534, 45.7767 ], [ -76.42884, 45.77418 ], [ -76.42248, 45.77686 ] ] ] } },
{ "type": "Feature", "properties": { "hex_id": 302871, "centroid_lon": -76.42195116266204, "centroid_lat": 45.756080469904774, "hours_count": 33.0, "n_files": 180, "datetimes_affected": "2026-01-03 09:32:54,2026-01-03 09:32:54,2026-01-03 09:32:54", "days_affected": 1 }, "geometry": { "type": "Polygon", "coordinates": [ [ [ -76.41546, 45.75356 ], [ -76.41559, 45.75876 ], [ -76.42208, 45.76128 ], [ -76.42844, 45.7586 ], [ -76.42831, 45.7534 ], [ -76.42182, 45.75089 ], [ -76.41546, 45.75356 ] ] ] } },
{ "type": "Feature", "properties": { "hex_id": 302873, "centroid_lon": -76.422743634425416, "centroid_lat": 45.787250207127286, "hours_count": 33.0, "n_files": 180, "datetimes_affected": "2026-01-03 09:32:54,2026-01-03 09:32:54,2026-01-03 09:32:54", "days_affected": 1 }, "geometry": { "type": "Polygon", "coordinates": [ [ [ -76.41625, 45.78473 ], [ -76.41638, 45.78993 ], [ -76.42288, 45.79245 ], [ -76.42924, 45.78977 ], [ -76.42911, 45.78457 ], [ -76.42261, 45.78206 ], [ -76.41625, 45.78473 ] ] ] } },
{ "type": "Feature", "properties": { "hex_id": 303482, "centroid_lon": -76.415721172872608, "centroid_lat": 45.763952765123754, "hours_count": 33.0, "n_files": 180, "datetimes_affected": "2026-01-03 09:32:54,2026-01-03 09:32:54,2026-01-03 09:32:54", "days_affected": 1 }, "geometry": { "type": "Polygon", "coordinates": [ [ [ -76.40923, 45.76143 ], [ -76.40936, 45.76663 ], [ -76.41585, 45.76915 ], [ -76.42222, 45.76647 ], [ -76.42208, 45.76128 ], [ -76.41559, 45.75876 ], [ -76.40923, 45.76143 ] ] ] } },
{ "type": "Feature", "properties": { "hex_id": 304703, "centroid_lon": -76.4028651207189, "centroid_lat": 45.764111368340757, "hours_count": 33.0, "n_files": 180, "datetimes_affected": "2026-01-03 09:32:54,2026-01-03 09:32:54,2026-01-03 09:32:54", "days_affected": 1 }, "geometry": { "type": "Polygon", "coordinates": [ [ [ -76.39637, 45.76159 ], [ -76.3965, 45.76679 ], [ -76.403, 45.76931 ], [ -76.40936, 45.76663 ], [ -76.40923, 45.76143 ], [ -76.40273, 45.75892 ], [ -76.39637, 45.76159 ] ] ] } },
{ "type": "Feature", "properties": { "hex_id": 511642, "centroid_lon": -74.227413975132976, "centroid_lat": 45.450514281925408, "hours_count": 177.0, "n_files": 180, "datetimes_affected": "2026-01-01 00:42:56,2026-01-01 00:42:56,2026-01-01 00:42:56", "days_affected": 1 }, "geometry": { "type": "Polygon", "coordinates": [ [ [ -74.22106, 45.44787 ], [ -74.22098, 45.45307 ], [ -74.22734, 45.45571 ], [ -74.23377, 45.45316 ], [ -74.23384, 45.44796 ], [ -74.22748, 45.44532 ], [ -74.22106, 45.44787 ] ] ] } },
{ "type": "Feature", "properties": { "hex_id": 512252, "centroid_lon": -74.221127592447985, "centroid_lat": 45.442676292199096, "hours_count": 177.0, "n_files": 180, "datetimes_affected": "2026-01-01 00:42:56,2026-01-01 00:42:56,2026-01-01 00:42:56", "days_affected": 1 }, "geometry": { "type": "Polygon", "coordinates": [ [ [ -74.21477, 45.44003 ], [ -74.2147, 45.44523 ], [ -74.22106, 45.44787 ], [ -74.22748, 45.44532 ], [ -74.22756, 45.44012 ], [ -74.2212, 45.43748 ], [ -74.21477, 45.44003 ] ] ] } },
{ "type": "Feature", "properties": { "hex_id": 512862, "centroid_lon": -74.214842940770254, "centroid_lat": 45.434837957411652, "hours_count": 177.0, "n_files": 180, "datetimes_affected": "2026-01-01 00:42:56,2026-01-01 00:42:56,2026-01-01 00:42:56", "days_affected": 1 }, "geometry": { "type": "Polygon", "coordinates": [ [ [ -74.20849, 45.4322 ], [ -74.20841, 45.43739 ], [ -74.21477, 45.44003 ], [ -74.2212, 45.43748 ], [ -74.22127, 45.43228 ], [ -74.21492, 45.42964 ], [ -74.20849, 45.4322 ] ] ] } },
{ "type": "Feature", "properties": { "hex_id": 512863, "centroid_lon": -74.21462666169684, "centroid_lat": 45.450427072368328, "hours_count": 177.0, "n_files": 180, "datetimes_affected": "2026-01-01 00:42:56,2026-01-01 00:42:56,2026-01-01 00:42:56", "days_affected": 1 }, "geometry": { "type": "Polygon", "coordinates": [ [ [ -74.20827, 45.44778 ], [ -74.2082, 45.45298 ], [ -74.21455, 45.45562 ], [ -74.22098, 45.45307 ], [ -74.22106, 45.44787 ], [ -74.2147, 45.44523 ], [ -74.20827, 45.44778 ] ] ] } },
{ "type": "Feature", "properties": { "hex_id": 525704, "centroid_lon": -74.075126162974357, "centroid_lat": 45.768981051189449, "hours_count": 177.0, "n_files": 180, "datetimes_affected": "2026-01-01 00:42:56,2026-01-01 00:42:56,2026-01-01 00:42:56", "days_affected": 1 }, "geometry": { "type": "Polygon", "coordinates": [ [ [ -74.06874, 45.76633 ], [ -74.06865, 45.77153 ], [ -74.07504, 45.77418 ], [ -74.08151, 45.77163 ], [ -74.0816, 45.76644 ], [ -74.07521, 45.76379 ], [ -74.06874, 45.76633 ] ] ] } },
{ "type": "Feature", "properties": { "hex_id": 526315, "centroid_lon": -74.06856672557042, "centroid_lat": 45.776722626684027, "hours_count": 177.0, "n_files": 180, "datetimes_affected": "2026-01-01 00:42:56,2026-01-01 00:42:56,2026-01-01 00:42:56", "days_affected": 1 }, "geometry": { "type": "Polygon", "coordinates": [ [ [ -74.06218, 45.77407 ], [ -74.06209, 45.77927 ], [ -74.06848, 45.78192 ], [ -74.07495, 45.77937 ], [ -74.07504, 45.77418 ], [ -74.06865, 45.77153 ], [ -74.06218, 45.77407 ] ] ] } },
{ "type": "Feature", "properties": { "hex_id": 526925, "centroid_lon": -74.062266791101848, "centroid_lat": 45.768876226831907, "hours_count": 177.0, "n_files": 180, "datetimes_affected": "2026-01-01 00:42:56,2026-01-01 00:42:56,2026-01-01 00:42:56", "days_affected": 1 }, "geometry": { "type": "Polygon", "coordinates": [ [ [ -74.05588, 45.76623 ], [ -74.05579, 45.77142 ], [ -74.06218, 45.77407 ], [ -74.06865, 45.77153 ], [ -74.06874, 45.76633 ], [ -74.06235, 45.76368 ], [ -74.05588, 45.76623 ] ] ] } },
{ "type": "Feature", "properties": { "hex_id": 527536, "centroid_lon": -74.055705598533109, "centroid_lat": 45.776617050245058, "hours_count": 177.0, "n_files": 180, "datetimes_affected": "2026-01-01 00:42:56,2026-01-01 00:42:56,2026-01-01 00:42:56", "days_affected": 1 }, "geometry": { "type": "Polygon", "coordinates": [ [ [ -74.04932, 45.77397 ], [ -74.04923, 45.77916 ], [ -74.05562, 45.78181 ], [ -74.06209, 45.77927 ], [ -74.06218, 45.77407 ], [ -74.05579, 45.77142 ], [ -74.04932, 45.77397 ] ] ] } },
{ "type": "Feature", "properties": { "hex_id": 535479, "centroid_lon": -73.970243459961594, "centroid_lat": 45.877211100908298, "hours_count": 177.0, "n_files": 180, "datetimes_affected": "2026-01-01 00:42:56,2026-01-01 00:42:56,2026-01-01 00:42:56", "days_affected": 1 }, "geometry": { "type": "Polygon", "coordinates": [ [ [ -73.96385, 45.87456 ], [ -73.96375, 45.87975 ], [ -73.97015, 45.88241 ], [ -73.97664, 45.87987 ], [ -73.97673, 45.87467 ], [ -73.97034, 45.87202 ], [ -73.96385, 45.87456 ] ] ] } },
{ "type": "Feature", "properties": { "hex_id": 536089, "centroid_lon": -73.963946337160607, "centroid_lat": 45.869359437429857, "hours_count": 177.0, "n_files": 180, "datetimes_affected": "2026-01-01 00:42:56,2026-01-01 00:42:56,2026-01-01 00:42:56", "days_affected": 1 }, "geometry": { "type": "Polygon", "coordinates": [ [ [ -73.95755, 45.8667 ], [ -73.95746, 45.8719 ], [ -73.96385, 45.87456 ], [ -73.97034, 45.87202 ], [ -73.97044, 45.86682 ], [ -73.96404, 45.86416 ], [ -73.95755, 45.8667 ] ] ] } },
{ "type": "Feature", "properties": { "hex_id": 550717, "centroid_lon": -73.817276254689901, "centroid_lat": 45.493775262779621, "hours_count": 36.0, "n_files": 180, "datetimes_affected": "2026-01-03 08:39:49,2026-01-03 08:39:49,2026-01-03 08:39:49", "days_affected": 1 }, "geometry": { "type": "Polygon", "coordinates": [ [ [ -73.81093, 45.49111 ], [ -73.81082, 45.49631 ], [ -73.81717, 45.49897 ], [ -73.82362, 45.49644 ], [ -73.82373, 45.49124 ], [ -73.81739, 45.48858 ], [ -73.81093, 45.49111 ] ] ] } },
{ "type": "Feature", "properties": { "hex_id": 551938, "centroid_lon": -73.804480735632026, "centroid_lat": 45.493642043968805, "hours_count": 36.0, "n_files": 180, "datetimes_affected": "2026-01-03 08:39:49,2026-01-03 08:39:49,2026-01-03 08:39:49", "days_affected": 1 }, "geometry": { "type": "Polygon", "coordinates": [ [ [ -73.79814, 45.49098 ], [ -73.79803, 45.49617 ], [ -73.80437, 45.49884 ], [ -73.81082, 45.49631 ], [ -73.81093, 45.49111 ], [ -73.80459, 45.48845 ], [ -73.79814, 45.49098 ] ] ] } },
{ "type": "Feature", "properties": { "hex_id": 552559, "centroid_lon": -73.794586095235729, "centroid_lat": 45.657236002800474, "hours_count": 96.0, "n_files": 180, "datetimes_affected": "2026-01-02 08:44:39,2026-01-02 08:44:39,2026-01-02 08:44:39", "days_affected": 1 }, "geometry": { "type": "Polygon", "coordinates": [ [ [ -73.78823, 45.65457 ], [ -73.78811, 45.65977 ], [ -73.79447, 45.66243 ], [ -73.80095, 45.6599 ], [ -73.80106, 45.65471 ], [ -73.7947, 45.65204 ], [ -73.78823, 45.65457 ] ] ] } },
{ "type": "Feature", "properties": { "hex_id": 559241, "centroid_lon": -73.735707358168099, "centroid_lat": 45.134309118448968, "hours_count": 36.0, "n_files": 180, "datetimes_affected": "2026-01-03 08:39:49,2026-01-03 08:39:49,2026-01-03 08:39:49", "days_affected": 1 }, "geometry": { "type": "Polygon", "coordinates": [ [ [ -73.72941, 45.13164 ], [ -73.72929, 45.13684 ], [ -73.73559, 45.1395 ], [ -73.74201, 45.13698 ], [ -73.74212, 45.13178 ], [ -73.73582, 45.12911 ], [ -73.72941, 45.13164 ] ] ] } },
{ "type": "Feature", "properties": { "hex_id": 561703, "centroid_lon": -73.703192789190396, "centroid_lat": 45.445765190727599, "hours_count": 96.0, "n_files": 180, "datetimes_affected": "2026-01-02 08:44:39,2026-01-02 08:44:39,2026-01-02 08:44:39", "days_affected": 1 }, "geometry": { "type": "Polygon", "coordinates": [ [ [ -73.69686, 45.44309 ], [ -73.69674, 45.44829 ], [ -73.70307, 45.45096 ], [ -73.70953, 45.44844 ], [ -73.70964, 45.44324 ], [ -73.70331, 45.44057 ], [ -73.69686, 45.44309 ] ] ] } },
{ "type": "Feature", "properties": { "hex_id": 562313, "centroid_lon": -73.696980161946215, "centroid_lat": 45.437899157970683, "hours_count": 96.0, "n_files": 180, "datetimes_affected": "2026-01-02 08:44:39,2026-01-02 08:44:39,2026-01-02 08:44:39", "days_affected": 1 }, "geometry": { "type": "Polygon", "coordinates": [ [ [ -73.69065, 45.43523 ], [ -73.69053, 45.44042 ], [ -73.69686, 45.44309 ], [ -73.70331, 45.44057 ], [ -73.70343, 45.43537 ], [ -73.6971, 45.4327 ], [ -73.69065, 45.43523 ] ] ] } },
{ "type": "Feature", "properties": { "hex_id": 562924, "centroid_lon": -73.690408684619271, "centroid_lat": 45.445619312816802, "hours_count": 93.0, "n_files": 180, "datetimes_affected": "2026-01-02 09:36:33,2026-01-02 09:36:33,2026-01-02 09:36:33", "days_affected": 1 }, "geometry": { "type": "Polygon", "coordinates": [ [ [ -73.68408, 45.44295 ], [ -73.68396, 45.44814 ], [ -73.69029, 45.45081 ], [ -73.69674, 45.44829 ], [ -73.69686, 45.44309 ], [ -73.69053, 45.44042 ], [ -73.68408, 45.44295 ] ] ] } },
{ "type": "Feature", "properties": { "hex_id": 570867, "centroid_lon": -73.604814549221018, "centroid_lat": 45.545944045912073, "hours_count": 36.0, "n_files": 180, "datetimes_affected": "2026-01-03 08:39:49,2026-01-03 08:39:49,2026-01-03 08:39:49", "days_affected": 1 }, "geometry": { "type": "Polygon", "coordinates": [ [ [ -73.59848, 45.54327 ], [ -73.59835, 45.54846 ], [ -73.60469, 45.55114 ], [ -73.61115, 45.54862 ], [ -73.61128, 45.54342 ], [ -73.60494, 45.54075 ], [ -73.59848, 45.54327 ] ] ] } },
{ "type": "Feature", "properties": { "hex_id": 582478, "centroid_lon": -73.478315535347122, "centroid_lat": 45.723615646305539, "hours_count": 36.0, "n_files": 180, "datetimes_affected": "2026-01-03 08:39:49,2026-01-03 08:39:49,2026-01-03 08:39:49", "days_affected": 1 }, "geometry": { "type": "Polygon", "coordinates": [ [ [ -73.47196, 45.72093 ], [ -73.47182, 45.72613 ], [ -73.47817, 45.72881 ], [ -73.48467, 45.7263 ], [ -73.48481, 45.7211 ], [ -73.47846, 45.71842 ], [ -73.47196, 45.72093 ] ] ] } },
{ "type": "Feature", "properties": { "hex_id": 658763, "centroid_lon": -72.69326461596512, "centroid_lat": 45.281715008916812, "hours_count": 36.0, "n_files": 180, "datetimes_affected": "2026-01-03 08:39:49,2026-01-03 08:39:49,2026-01-03 08:39:49", "days_affected": 1 }, "geometry": { "type": "Polygon", "coordinates": [ [ [ -72.687, 45.27899 ], [ -72.68679, 45.28418 ], [ -72.69305, 45.28691 ], [ -72.69953, 45.28444 ], [ -72.69974, 45.27925 ], [ -72.69348, 45.27652 ], [ -72.687, 45.27899 ] ] ] } },
{ "type": "Feature", "properties": { "hex_id": 659373, "centroid_lon": -72.687211163944752, "centroid_lat": 45.27379695417072, "hours_count": 36.0, "n_files": 180, "datetimes_affected": "2026-01-03 08:39:49,2026-01-03 08:39:49,2026-01-03 08:39:49", "days_affected": 1 }, "geometry": { "type": "Polygon", "coordinates": [ [ [ -72.68095, 45.27107 ], [ -72.68074, 45.27626 ], [ -72.687, 45.27899 ], [ -72.69348, 45.27652 ], [ -72.69369, 45.27133 ], [ -72.68742, 45.2686 ], [ -72.68095, 45.27107 ] ] ] } },
{ "type": "Feature", "properties": { "hex_id": 659374, "centroid_lon": -72.686577801639899, "centroid_lat": 45.289375252561861, "hours_count": 36.0, "n_files": 180, "datetimes_affected": "2026-01-03 08:39:49,2026-01-03 08:39:49,2026-01-03 08:39:49", "days_affected": 1 }, "geometry": { "type": "Polygon", "coordinates": [ [ [ -72.68031, 45.28665 ], [ -72.6801, 45.29184 ], [ -72.68637, 45.29457 ], [ -72.69284, 45.2921 ], [ -72.69305, 45.28691 ], [ -72.68679, 45.28418 ], [ -72.68031, 45.28665 ] ] ] } },
{ "type": "Feature", "properties": { "hex_id": 659984, "centroid_lon": -72.680524522013044, "centroid_lat": 45.28145685523377, "hours_count": 36.0, "n_files": 180, "datetimes_affected": "2026-01-03 08:39:49,2026-01-03 08:39:49,2026-01-03 08:39:49", "days_affected": 1 }, "geometry": { "type": "Polygon", "coordinates": [ [ [ -72.67426, 45.27873 ], [ -72.67405, 45.28392 ], [ -72.68031, 45.28665 ], [ -72.68679, 45.28418 ], [ -72.687, 45.27899 ], [ -72.68074, 45.27626 ], [ -72.67426, 45.27873 ] ] ] } },
{ "type": "Feature", "properties": { "hex_id": 659985, "centroid_lon": -72.679889159945077, "centroid_lat": 45.297035058977883, "hours_count": 36.0, "n_files": 180, "datetimes_affected": "2026-01-03 08:39:49,2026-01-03 08:39:49,2026-01-03 08:39:49", "days_affected": 1 }, "geometry": { "type": "Polygon", "coordinates": [ [ [ -72.67362, 45.29431 ], [ -72.67341, 45.2995 ], [ -72.67968, 45.30223 ], [ -72.68616, 45.29976 ], [ -72.68637, 45.29457 ], [ -72.6801, 45.29184 ], [ -72.67362, 45.29431 ] ] ] } },
{ "type": "Feature", "properties": { "hex_id": 660595, "centroid_lon": -72.673836053270861, "centroid_lat": 45.289116318988761, "hours_count": 36.0, "n_files": 180, "datetimes_affected": "2026-01-03 08:39:49,2026-01-03 08:39:49,2026-01-03 08:39:49", "days_affected": 1 }, "geometry": { "type": "Polygon", "coordinates": [ [ [ -72.66757, 45.28639 ], [ -72.66736, 45.29158 ], [ -72.67362, 45.29431 ], [ -72.6801, 45.29184 ], [ -72.68031, 45.28665 ], [ -72.67405, 45.28392 ], [ -72.66757, 45.28639 ] ] ] } },
{ "type": "Feature", "properties": { "hex_id": 661205, "centroid_lon": -72.667784600927163, "centroid_lat": 45.281197281629204, "hours_count": 36.0, "n_files": 180, "datetimes_affected": "2026-01-03 08:39:49,2026-01-03 08:39:49,2026-01-03 08:39:49", "days_affected": 1 }, "geometry": { "type": "Polygon", "coordinates": [ [ [ -72.66152, 45.27847 ], [ -72.66131, 45.28366 ], [ -72.66757, 45.28639 ], [ -72.67405, 45.28392 ], [ -72.67426, 45.27873 ], [ -72.668, 45.276 ], [ -72.66152, 45.27847 ] ] ] } },
{ "type": "Feature", "properties": { "hex_id": 661206, "centroid_lon": -72.667145756772626, "centroid_lat": 45.296775345125532, "hours_count": 36.0, "n_files": 180, "datetimes_affected": "2026-01-03 08:39:49,2026-01-03 08:39:49,2026-01-03 08:39:49", "days_affected": 1 }, "geometry": { "type": "Polygon", "coordinates": [ [ [ -72.66088, 45.29405 ], [ -72.66067, 45.29924 ], [ -72.66693, 45.30197 ], [ -72.67341, 45.2995 ], [ -72.67362, 45.29431 ], [ -72.66736, 45.29158 ], [ -72.66088, 45.29405 ] ] ] } },
{ "type": "Feature", "properties": { "hex_id": 661816, "centroid_lon": -72.661094478327314, "centroid_lat": 45.288855965136733, "hours_count": 36.0, "n_files": 180, "datetimes_affected": "2026-01-03 08:39:49,2026-01-03 08:39:49,2026-01-03 08:39:49", "days_affected": 1 }, "geometry": { "type": "Polygon", "coordinates": [ [ [ -72.65483, 45.28613 ], [ -72.65462, 45.29132 ], [ -72.66088, 45.29405 ], [ -72.66736, 45.29158 ], [ -72.66757, 45.28639 ], [ -72.66131, 45.28366 ], [ -72.65483, 45.28613 ] ] ] } },
{ "type": "Feature", "properties": { "hex_id": 662427, "centroid_lon": -72.654402527585532, "centroid_lat": 45.296514210636815, "hours_count": 36.0, "n_files": 180, "datetimes_affected": "2026-01-03 08:39:49,2026-01-03 08:39:49,2026-01-03 08:39:49", "days_affected": 1 }, "geometry": { "type": "Polygon", "coordinates": [ [ [ -72.64814, 45.29379 ], [ -72.64792, 45.29898 ], [ -72.65419, 45.30171 ], [ -72.66067, 45.29924 ], [ -72.66088, 45.29405 ], [ -72.65462, 45.29132 ], [ -72.64814, 45.29379 ] ] ] } },
{ "type": "Feature", "properties": { "hex_id": 683181, "centroid_lon": -72.439897924110298, "centroid_lat": 45.245131239940939, "hours_count": 93.0, "n_files": 180, "datetimes_affected": "2026-01-02 09:36:33,2026-01-02 09:36:33,2026-01-02 09:36:33", "days_affected": 1 }, "geometry": { "type": "Polygon", "coordinates": [ [ [ -72.43365, 45.24239 ], [ -72.43342, 45.24758 ], [ -72.43966, 45.25032 ], [ -72.44615, 45.24787 ], [ -72.44638, 45.24268 ], [ -72.44013, 45.23994 ], [ -72.43365, 45.24239 ] ] ] } },
{ "type": "Feature", "properties": { "hex_id": 683791, "centroid_lon": -72.433883972897277, "centroid_lat": 45.237200564904761, "hours_count": 93.0, "n_files": 180, "datetimes_affected": "2026-01-02 09:36:33,2026-01-02 09:36:33,2026-01-02 09:36:33", "days_affected": 1 }, "geometry": { "type": "Polygon", "coordinates": [ [ [ -72.42764, 45.23446 ], [ -72.4274, 45.23965 ], [ -72.43365, 45.24239 ], [ -72.44013, 45.23994 ], [ -72.44036, 45.23475 ], [ -72.43412, 45.23201 ], [ -72.42764, 45.23446 ] ] ] } },
{ "type": "Feature", "properties": { "hex_id": 684402, "centroid_lon": -72.427168415743836, "centroid_lat": 45.24484500717039, "hours_count": 93.0, "n_files": 180, "datetimes_affected": "2026-01-02 09:36:33,2026-01-02 09:36:33,2026-01-02 09:36:33", "days_affected": 1 }, "geometry": { "type": "Polygon", "coordinates": [ [ [ -72.42092, 45.24211 ], [ -72.42069, 45.2473 ], [ -72.42693, 45.25004 ], [ -72.43342, 45.24758 ], [ -72.43365, 45.24239 ], [ -72.4274, 45.23965 ], [ -72.42092, 45.24211 ] ] ] } },
{ "type": "Feature", "properties": { "hex_id": 693575, "centroid_lon": -72.320323159613153, "centroid_lat": 45.484046915428465, "hours_count": 99.0, "n_files": 180, "datetimes_affected": "2026-01-02 06:30:06,2026-01-02 06:30:06,2026-01-02 06:30:06", "days_affected": 1 }, "geometry": { "type": "Polygon", "coordinates": [ [ [ -72.31406, 45.4813 ], [ -72.31381, 45.48649 ], [ -72.32008, 45.48924 ], [ -72.32659, 45.48679 ], [ -72.32684, 45.4816 ], [ -72.32057, 45.47886 ], [ -72.31406, 45.4813 ] ] ] } },
{ "type": "Feature", "properties": { "hex_id": 694186, "centroid_lon": -72.313561761062829, "centroid_lat": 45.491683350523154, "hours_count": 99.0, "n_files": 180, "datetimes_affected": "2026-01-02 06:30:06,2026-01-02 06:30:06,2026-01-02 06:30:06", "days_affected": 1 }, "geometry": { "type": "Polygon", "coordinates": [ [ [ -72.30729, 45.48894 ], [ -72.30705, 45.49413 ], [ -72.31331, 45.49687 ], [ -72.31983, 45.49443 ], [ -72.32008, 45.48924 ], [ -72.31381, 45.48649 ], [ -72.30729, 45.48894 ] ] ] } },
{ "type": "Feature", "properties": { "hex_id": 739559, "centroid_lon": -71.655378719505677, "centroid_lat": 48.529569510040275, "hours_count": 33.0, "n_files": 180, "datetimes_affected": "2026-01-03 09:32:54,2026-01-03 09:32:54,2026-01-03 09:32:54", "days_affected": 1 }, "geometry": { "type": "Polygon", "coordinates": [ [ [ -71.64879, 48.52678 ], [ -71.64845, 48.53197 ], [ -71.65504, 48.53475 ], [ -71.66197, 48.53236 ], [ -71.66231, 48.52717 ], [ -71.65572, 48.52438 ], [ -71.64879, 48.52678 ] ] ] } },
{ "type": "Feature", "properties": { "hex_id": 740169, "centroid_lon": -71.649131598272248, "centroid_lat": 48.521594935243762, "hours_count": 30.0, "n_files": 180, "datetimes_affected": "2026-01-03 10:31:59,2026-01-03 10:31:59,2026-01-03 10:31:59", "days_affected": 1 }, "geometry": { "type": "Polygon", "coordinates": [ [ [ -71.64254, 48.51881 ], [ -71.6422, 48.52399 ], [ -71.64879, 48.52678 ], [ -71.65572, 48.52438 ], [ -71.65606, 48.5192 ], [ -71.64947, 48.51641 ], [ -71.64254, 48.51881 ] ] ] } },
{ "type": "Feature", "properties": { "hex_id": 740780, "centroid_lon": -71.641857130656646, "centroid_lat": 48.529175439290668, "hours_count": 33.0, "n_files": 180, "datetimes_affected": "2026-01-03 09:32:54,2026-01-03 09:32:54,2026-01-03 09:32:54", "days_affected": 1 }, "geometry": { "type": "Polygon", "coordinates": [ [ [ -71.63527, 48.52639 ], [ -71.63492, 48.53157 ], [ -71.64151, 48.53436 ], [ -71.64845, 48.53197 ], [ -71.64879, 48.52678 ], [ -71.6422, 48.52399 ], [ -71.63527, 48.52639 ] ] ] } },
{ "type": "Feature", "properties": { "hex_id": 742505, "centroid_lon": -71.727075931491214, "centroid_lat": 46.871640176637761, "hours_count": 177.0, "n_files": 180, "datetimes_affected": "2026-01-01 00:42:56,2026-01-01 00:42:56,2026-01-01 00:42:56", "days_affected": 1 }, "geometry": { "type": "Polygon", "coordinates": [ [ [ -71.72068, 46.86886 ], [ -71.72037, 46.87405 ], [ -71.72676, 46.87683 ], [ -71.73347, 46.87442 ], [ -71.73378, 46.86923 ], [ -71.72739, 46.86645 ], [ -71.72068, 46.86886 ] ] ] } },
{ "type": "Feature", "properties": { "hex_id": 743115, "centroid_lon": -71.720999999276117, "centroid_lat": 46.863671948004949, "hours_count": 177.0, "n_files": 180, "datetimes_affected": "2026-01-01 00:42:56,2026-01-01 00:42:56,2026-01-01 00:42:56", "days_affected": 1 }, "geometry": { "type": "Polygon", "coordinates": [ [ [ -71.71461, 46.86089 ], [ -71.71429, 46.86608 ], [ -71.72068, 46.86886 ], [ -71.72739, 46.86645 ], [ -71.72771, 46.86127 ], [ -71.72132, 46.85848 ], [ -71.71461, 46.86089 ] ] ] } },
{ "type": "Feature", "properties": { "hex_id": 749732, "centroid_lon": -71.740649137452337, "centroid_lat": 45.328644615399561, "hours_count": 33.0, "n_files": 180, "datetimes_affected": "2026-01-03 09:32:54,2026-01-03 09:32:54,2026-01-03 09:32:54", "days_affected": 1 }, "geometry": { "type": "Polygon", "coordinates": [ [ [ -71.73443, 45.32587 ], [ -71.73413, 45.33106 ], [ -71.74035, 45.33383 ], [ -71.74687, 45.33142 ], [ -71.74717, 45.32623 ], [ -71.74095, 45.32346 ], [ -71.73443, 45.32587 ] ] ] } },
{ "type": "Feature", "properties": { "hex_id": 750343, "centroid_lon": -71.733831175575887, "centroid_lat": 45.336245220773677, "hours_count": 33.0, "n_files": 180, "datetimes_affected": "2026-01-03 09:32:54,2026-01-03 09:32:54,2026-01-03 09:32:54", "days_affected": 1 }, "geometry": { "type": "Polygon", "coordinates": [ [ [ -71.72761, 45.33347 ], [ -71.72731, 45.33866 ], [ -71.73353, 45.34143 ], [ -71.74005, 45.33902 ], [ -71.74035, 45.33383 ], [ -71.73413, 45.33106 ], [ -71.72761, 45.33347 ] ] ] } },
{ "type": "Feature", "properties": { "hex_id": 750953, "centroid_lon": -71.727908881347062, "centroid_lat": 45.328279951030773, "hours_count": 33.0, "n_files": 180, "datetimes_affected": "2026-01-03 09:32:54,2026-01-03 09:32:54,2026-01-03 09:32:54", "days_affected": 1 }, "geometry": { "type": "Polygon", "coordinates": [ [ [ -71.72169, 45.3255 ], [ -71.72139, 45.33069 ], [ -71.72761, 45.33347 ], [ -71.73413, 45.33106 ], [ -71.73443, 45.32587 ], [ -71.72821, 45.32309 ], [ -71.72169, 45.3255 ] ] ] } },
{ "type": "Feature", "properties": { "hex_id": 768649, "centroid_lon": -71.551229542875163, "centroid_lat": 45.190549600797688, "hours_count": 21.0, "n_files": 180, "datetimes_affected": "2026-01-03 13:44:56,2026-01-03 13:44:56,2026-01-03 13:44:56", "days_affected": 1 }, "geometry": { "type": "Polygon", "coordinates": [ [ [ -71.54503, 45.18776 ], [ -71.54472, 45.19295 ], [ -71.55092, 45.19574 ], [ -71.55743, 45.19334 ], [ -71.55774, 45.18815 ], [ -71.55154, 45.18536 ], [ -71.54503, 45.18776 ] ] ] } },
{ "type": "Feature", "properties": { "hex_id": 769259, "centroid_lon": -71.545347319742604, "centroid_lat": 45.182575887929943, "hours_count": 21.0, "n_files": 180, "datetimes_affected": "2026-01-03 13:44:56,2026-01-03 13:44:56,2026-01-03 13:44:56", "days_affected": 1 }, "geometry": { "type": "Polygon", "coordinates": [ [ [ -71.53915, 45.17979 ], [ -71.53884, 45.18498 ], [ -71.54503, 45.18776 ], [ -71.55154, 45.18536 ], [ -71.55186, 45.18017 ], [ -71.54566, 45.17739 ], [ -71.53915, 45.17979 ] ] ] } },
{ "type": "Feature", "properties": { "hex_id": 770480, "centroid_lon": -71.532642235480665, "centroid_lat": 45.182190408314668, "hours_count": 21.0, "n_files": 180, "datetimes_affected": "2026-01-03 13:44:56,2026-01-03 13:44:56,2026-01-03 13:44:56", "days_affected": 1 }, "geometry": { "type": "Polygon", "coordinates": [ [ [ -71.52645, 45.1794 ], [ -71.52613, 45.18459 ], [ -71.53233, 45.18738 ], [ -71.53884, 45.18498 ], [ -71.53915, 45.17979 ], [ -71.53296, 45.177 ], [ -71.52645, 45.1794 ] ] ] } },
{ "type": "Feature", "properties": { "hex_id": 785239, "centroid_lon": -71.269800411983795, "centroid_lat": 46.842046477619455, "hours_count": 33.0, "n_files": 180, "datetimes_affected": "2026-01-03 09:32:54,2026-01-03 09:32:54,2026-01-03 09:32:54", "days_affected": 1 }, "geometry": { "type": "Polygon", "coordinates": [ [ [ -71.26344, 46.83924 ], [ -71.26308, 46.84443 ], [ -71.26944, 46.84723 ], [ -71.27616, 46.84485 ], [ -71.27652, 46.83967 ], [ -71.27016, 46.83686 ], [ -71.26344, 46.83924 ] ] ] } },
{ "type": "Feature", "properties": { "hex_id": 785850, "centroid_lon": -71.262716853595848, "centroid_lat": 46.849609526071333, "hours_count": 33.0, "n_files": 180, "datetimes_affected": "2026-01-03 09:32:54,2026-01-03 09:32:54,2026-01-03 09:32:54", "days_affected": 1 }, "geometry": { "type": "Polygon", "coordinates": [ [ [ -71.25635, 46.8468 ], [ -71.25599, 46.85199 ], [ -71.26236, 46.85479 ], [ -71.26908, 46.85242 ], [ -71.26944, 46.84723 ], [ -71.26308, 46.84443 ], [ -71.25635, 46.8468 ] ] ] } },
{ "type": "Feature", "properties": { "hex_id": 786460, "centroid_lon": -71.256713518837572, "centroid_lat": 46.841618653415189, "hours_count": 33.0, "n_files": 180, "datetimes_affected": "2026-01-03 09:32:54,2026-01-03 09:32:54,2026-01-03 09:32:54", "days_affected": 1 }, "geometry": { "type": "Polygon", "coordinates": [ [ [ -71.25035, 46.83881 ], [ -71.24999, 46.844 ], [ -71.25635, 46.8468 ], [ -71.26308, 46.84443 ], [ -71.26344, 46.83924 ], [ -71.25707, 46.83643 ], [ -71.25035, 46.83881 ] ] ] } },
{ "type": "Feature", "properties": { "hex_id": 790832, "centroid_lon": -71.098483744954251, "centroid_lat": 48.371739145252114, "hours_count": 96.0, "n_files": 180, "datetimes_affected": "2026-01-02 08:44:39,2026-01-02 08:44:39,2026-01-02 08:44:39", "days_affected": 1 }, "geometry": { "type": "Polygon", "coordinates": [ [ [ -71.09195, 48.36892 ], [ -71.09155, 48.3741 ], [ -71.09809, 48.37692 ], [ -71.10502, 48.37456 ], [ -71.10542, 48.36938 ], [ -71.09888, 48.36656 ], [ -71.09195, 48.36892 ] ] ] } },
{ "type": "Feature", "properties": { "hex_id": 791443, "centroid_lon": -71.091152102001843, "centroid_lat": 48.379283304037891, "hours_count": 96.0, "n_files": 180, "datetimes_affected": "2026-01-02 08:44:39,2026-01-02 08:44:39,2026-01-02 08:44:39", "days_affected": 1 }, "geometry": { "type": "Polygon", "coordinates": [ [ [ -71.08461, 48.37646 ], [ -71.08422, 48.38164 ], [ -71.09075, 48.38447 ], [ -71.09769, 48.3821 ], [ -71.09809, 48.37692 ], [ -71.09155, 48.3741 ], [ -71.08461, 48.37646 ] ] ] } },
{ "type": "Feature", "properties": { "hex_id": 792053, "centroid_lon": -71.085012322598232, "centroid_lat": 48.371280797083536, "hours_count": 96.0, "n_files": 180, "datetimes_affected": "2026-01-02 08:44:39,2026-01-02 08:44:39,2026-01-02 08:44:39", "days_affected": 1 }, "geometry": { "type": "Polygon", "coordinates": [ [ [ -71.07848, 48.36846 ], [ -71.07808, 48.37364 ], [ -71.08461, 48.37646 ], [ -71.09155, 48.3741 ], [ -71.09195, 48.36892 ], [ -71.08541, 48.3661 ], [ -71.07848, 48.36846 ] ] ] } },
{ "type": "Feature", "properties": { "hex_id": 808414, "centroid_lon": -71.048515382103247, "centroid_lat": 46.460464587493355, "hours_count": 33.0, "n_files": 180, "datetimes_affected": "2026-01-03 09:32:54,2026-01-03 09:32:54,2026-01-03 09:32:54", "days_affected": 1 }, "geometry": { "type": "Polygon", "coordinates": [ [ [ -71.04221, 46.45765 ], [ -71.04183, 46.46283 ], [ -71.04814, 46.46565 ], [ -71.05482, 46.46328 ], [ -71.0552, 46.4581 ], [ -71.04889, 46.45528 ], [ -71.04221, 46.45765 ] ] ] } },
{ "type": "Feature", "properties": { "hex_id": 809024, "centroid_lon": -71.042583644379988, "centroid_lat": 46.452464331282606, "hours_count": 33.0, "n_files": 180, "datetimes_affected": "2026-01-03 09:32:54,2026-01-03 09:32:54,2026-01-03 09:32:54", "days_affected": 1 }, "geometry": { "type": "Polygon", "coordinates": [ [ [ -71.03628, 46.44965 ], [ -71.0359, 46.45483 ], [ -71.04221, 46.45765 ], [ -71.04889, 46.45528 ], [ -71.04927, 46.4501 ], [ -71.04296, 46.44728 ], [ -71.03628, 46.44965 ] ] ] } },
{ "type": "Feature", "properties": { "hex_id": 809635, "centroid_lon": -71.035523587996977, "centroid_lat": 46.460014282089041, "hours_count": 33.0, "n_files": 180, "datetimes_affected": "2026-01-03 09:32:54,2026-01-03 09:32:54,2026-01-03 09:32:54", "days_affected": 1 }, "geometry": { "type": "Polygon", "coordinates": [ [ [ -71.02922, 46.4572 ], [ -71.02884, 46.46238 ], [ -71.03515, 46.4652 ], [ -71.04183, 46.46283 ], [ -71.04221, 46.45765 ], [ -71.0359, 46.45483 ], [ -71.02922, 46.4572 ] ] ] } },
{ "type": "Feature", "properties": { "hex_id": 891551, "centroid_lon": -70.008799982929716, "centroid_lat": 48.119074573292849, "hours_count": 3.0, "n_files": 180, "datetimes_affected": "2026-01-03 23:19:46,2026-01-03 23:19:46,2026-01-03 23:19:46", "days_affected": 1 }, "geometry": { "type": "Polygon", "coordinates": [ [ [ -70.00236, 48.1162 ], [ -70.00186, 48.12137 ], [ -70.0083, 48.12425 ], [ -70.01524, 48.12195 ], [ -70.01574, 48.11678 ], [ -70.0093, 48.1139 ], [ -70.00236, 48.1162 ] ] ] } },
{ "type": "Feature", "properties": { "hex_id": 1009385, "centroid_lon": -68.705006772182827, "centroid_lat": 48.171790286693735, "hours_count": 3.0, "n_files": 180, "datetimes_affected": "2026-01-03 23:19:46,2026-01-03 23:19:46,2026-01-03 23:19:46", "days_affected": 1 }, "geometry": { "type": "Polygon", "coordinates": [ [ [ -68.69864, 48.16884 ], [ -68.698, 48.174 ], [ -68.70437, 48.17695 ], [ -68.71137, 48.17474 ], [ -68.71201, 48.16958 ], [ -68.70564, 48.16663 ], [ -68.69864, 48.16884 ] ] ] } },
{ "type": "Feature", "properties": { "hex_id": 1009386, "centroid_lon": -68.703102530858473, "centroid_lat": 48.187279272169349, "hours_count": 3.0, "n_files": 180, "datetimes_affected": "2026-01-03 23:19:46,2026-01-03 23:19:46,2026-01-03 23:19:46", "days_affected": 1 }, "geometry": { "type": "Polygon", "coordinates": [ [ [ -68.69673, 48.18433 ], [ -68.6961, 48.18949 ], [ -68.70247, 48.19244 ], [ -68.70947, 48.19023 ], [ -68.71011, 48.18507 ], [ -68.70374, 48.18212 ], [ -68.69673, 48.18433 ] ] ] } },
{ "type": "Feature", "properties": { "hex_id": 1009996, "centroid_lon": -68.697369353538122, "centroid_lat": 48.179166956061628, "hours_count": 3.0, "n_files": 180, "datetimes_affected": "2026-01-03 23:19:46,2026-01-03 23:19:46,2026-01-03 23:19:46", "days_affected": 1 }, "geometry": { "type": "Polygon", "coordinates": [ [ [ -68.691, 48.17622 ], [ -68.69037, 48.18138 ], [ -68.69673, 48.18433 ], [ -68.70374, 48.18212 ], [ -68.70437, 48.17695 ], [ -68.698, 48.174 ], [ -68.691, 48.17622 ] ] ] } },
{ "type": "Feature", "properties": { "hex_id": 1009997, "centroid_lon": -68.69546231790325, "centroid_lat": 48.194655693360268, "hours_count": 3.0, "n_files": 180, "datetimes_affected": "2026-01-03 23:19:46,2026-01-03 23:19:46,2026-01-03 23:19:46", "days_affected": 1 }, "geometry": { "type": "Polygon", "coordinates": [ [ [ -68.68909, 48.19171 ], [ -68.68846, 48.19687 ], [ -68.69483, 48.19982 ], [ -68.70183, 48.19761 ], [ -68.70247, 48.19244 ], [ -68.6961, 48.18949 ], [ -68.68909, 48.19171 ] ] ] } },
{ "type": "Feature", "properties": { "hex_id": 1010606, "centroid_lon": -68.691637897250843, "centroid_lat": 48.171054427419136, "hours_count": 3.0, "n_files": 180, "datetimes_affected": "2026-01-03 23:19:46,2026-01-03 23:19:46,2026-01-03 23:19:46", "days_affected": 1 }, "geometry": { "type": "Polygon", "coordinates": [ [ [ -68.68527, 48.1681 ], [ -68.68464, 48.17327 ], [ -68.691, 48.17622 ], [ -68.698, 48.174 ], [ -68.69864, 48.16884 ], [ -68.69227, 48.16589 ], [ -68.68527, 48.1681 ] ] ] } },
{ "type": "Feature", "properties": { "hex_id": 1010607, "centroid_lon": -68.689729677365392, "centroid_lat": 48.186543015131583, "hours_count": 3.0, "n_files": 180, "datetimes_affected": "2026-01-03 23:19:46,2026-01-03 23:19:46,2026-01-03 23:19:46", "days_affected": 1 }, "geometry": { "type": "Polygon", "coordinates": [ [ [ -68.68336, 48.18359 ], [ -68.68272, 48.18876 ], [ -68.68909, 48.19171 ], [ -68.6961, 48.18949 ], [ -68.69673, 48.18433 ], [ -68.69037, 48.18138 ], [ -68.68336, 48.18359 ] ] ] } },
{ "type": "Feature", "properties": { "hex_id": 1010608, "centroid_lon": -68.687819845481471, "centroid_lat": 48.202031503913119, "hours_count": 3.0, "n_files": 180, "datetimes_affected": "2026-01-03 23:19:46,2026-01-03 23:19:46,2026-01-03 23:19:46", "days_affected": 1 }, "geometry": { "type": "Polygon", "coordinates": [ [ [ -68.68145, 48.19908 ], [ -68.68081, 48.20424 ], [ -68.68718, 48.20719 ], [ -68.69419, 48.20498 ], [ -68.69483, 48.19982 ], [ -68.68846, 48.19687 ], [ -68.68145, 48.19908 ] ] ] } },
{ "type": "Feature", "properties": { "hex_id": 1011218, "centroid_lon": -68.682087742564448, "centroid_lat": 48.19391846351715, "hours_count": 3.0, "n_files": 180, "datetimes_affected": "2026-01-03 23:19:46,2026-01-03 23:19:46,2026-01-03 23:19:46", "days_affected": 1 }, "geometry": { "type": "Polygon", "coordinates": [ [ [ -68.67572, 48.19097 ], [ -68.67508, 48.19613 ], [ -68.68145, 48.19908 ], [ -68.68846, 48.19687 ], [ -68.68909, 48.19171 ], [ -68.68272, 48.18876 ], [ -68.67572, 48.19097 ] ] ] } },
{ "type": "Feature", "properties": { "hex_id": 1141243, "centroid_lon": -67.287688832606761, "centroid_lat": 47.928995938951275, "hours_count": 33.0, "n_files": 180, "datetimes_affected": "2026-01-03 09:32:54,2026-01-03 09:32:54,2026-01-03 09:32:54", "days_affected": 1 }, "geometry": { "type": "Polygon", "coordinates": [ [ [ -67.28144, 47.92597 ], [ -67.28067, 47.93112 ], [ -67.28692, 47.93414 ], [ -67.29394, 47.93202 ], [ -67.29471, 47.92687 ], [ -67.28846, 47.92385 ], [ -67.28144, 47.92597 ] ] ] } },
{ "type": "Feature", "properties": { "hex_id": 1141854, "centroid_lon": -67.279899736810648, "centroid_lat": 47.93626877236909, "hours_count": 33.0, "n_files": 180, "datetimes_affected": "2026-01-03 09:32:54,2026-01-03 09:32:54,2026-01-03 09:32:54", "days_affected": 1 }, "geometry": { "type": "Polygon", "coordinates": [ [ [ -67.27365, 47.93325 ], [ -67.27288, 47.93839 ], [ -67.27913, 47.94142 ], [ -67.28615, 47.93929 ], [ -67.28692, 47.93414 ], [ -67.28067, 47.93112 ], [ -67.27365, 47.93325 ] ] ] } },
{ "type": "Feature", "properties": { "hex_id": 1142463, "centroid_lon": -67.276735963144276, "centroid_lat": 47.912656670669968, "hours_count": 33.0, "n_files": 180, "datetimes_affected": "2026-01-03 09:32:54,2026-01-03 09:32:54,2026-01-03 09:32:54", "days_affected": 1 }, "geometry": { "type": "Polygon", "coordinates": [ [ [ -67.27049, 47.90963 ], [ -67.26972, 47.91478 ], [ -67.27597, 47.9178 ], [ -67.28298, 47.91568 ], [ -67.28375, 47.91053 ], [ -67.27751, 47.90751 ], [ -67.27049, 47.90963 ] ] ] } },
{ "type": "Feature", "properties": { "hex_id": 1144296, "centroid_lon": -67.253365771082201, "centroid_lat": 47.934471120848805, "hours_count": 33.0, "n_files": 180, "datetimes_affected": "2026-01-03 09:32:54,2026-01-03 09:32:54,2026-01-03 09:32:54", "days_affected": 1 }, "geometry": { "type": "Polygon", "coordinates": [ [ [ -67.24712, 47.93145 ], [ -67.24635, 47.93659 ], [ -67.25259, 47.93962 ], [ -67.25961, 47.93749 ], [ -67.26039, 47.93235 ], [ -67.25414, 47.92932 ], [ -67.24712, 47.93145 ] ] ] } },
{ "type": "Feature", "properties": { "hex_id": 1144906, "centroid_lon": -67.24789369959629, "centroid_lat": 47.92630018738555, "hours_count": 33.0, "n_files": 180, "datetimes_affected": "2026-01-03 09:32:54,2026-01-03 09:32:54,2026-01-03 09:32:54", "days_affected": 1 }, "geometry": { "type": "Polygon", "coordinates": [ [ [ -67.24165, 47.92328 ], [ -67.24087, 47.92842 ], [ -67.24712, 47.93145 ], [ -67.25414, 47.92932 ], [ -67.25491, 47.92418 ], [ -67.24867, 47.92115 ], [ -67.24165, 47.92328 ] ] ] } },
{ "type": "Feature", "properties": { "hex_id": 1144907, "centroid_lon": -67.245571183015159, "centroid_lat": 47.941741296885411, "hours_count": 33.0, "n_files": 180, "datetimes_affected": "2026-01-03 09:32:54,2026-01-03 09:32:54,2026-01-03 09:32:54", "days_affected": 1 }, "geometry": { "type": "Polygon", "coordinates": [ [ [ -67.23932, 47.93872 ], [ -67.23855, 47.94386 ], [ -67.2448, 47.94689 ], [ -67.25182, 47.94477 ], [ -67.25259, 47.93962 ], [ -67.24635, 47.93659 ], [ -67.23932, 47.93872 ] ] ] } },
{ "type": "Feature", "properties": { "hex_id": 1145517, "centroid_lon": -67.240099760788752, "centroid_lat": 47.933570015183456, "hours_count": 33.0, "n_files": 180, "datetimes_affected": "2026-01-03 09:32:54,2026-01-03 09:32:54,2026-01-03 09:32:54", "days_affected": 1 }, "geometry": { "type": "Polygon", "coordinates": [ [ [ -67.23385, 47.93055 ], [ -67.23308, 47.93569 ], [ -67.23932, 47.93872 ], [ -67.24635, 47.93659 ], [ -67.24712, 47.93145 ], [ -67.24087, 47.92842 ], [ -67.23385, 47.93055 ] ] ] } },
{ "type": "Feature", "properties": { "hex_id": 1147350, "centroid_lon": -67.216704362689967, "centroid_lat": 47.955375570797294, "hours_count": 33.0, "n_files": 180, "datetimes_affected": "2026-01-03 09:32:54,2026-01-03 09:32:54,2026-01-03 09:32:54", "days_affected": 1 }, "geometry": { "type": "Polygon", "coordinates": [ [ [ -67.21046, 47.95235 ], [ -67.20968, 47.9575 ], [ -67.21593, 47.96052 ], [ -67.22295, 47.9584 ], [ -67.22373, 47.95325 ], [ -67.21748, 47.95023 ], [ -67.21046, 47.95235 ] ] ] } },
{ "type": "Feature", "properties": { "hex_id": 1147961, "centroid_lon": -67.208901365915125, "centroid_lat": 47.962642778756525, "hours_count": 33.0, "n_files": 180, "datetimes_affected": "2026-01-03 09:32:54,2026-01-03 09:32:54,2026-01-03 09:32:54", "days_affected": 1 }, "geometry": { "type": "Polygon", "coordinates": [ [ [ -67.20265, 47.95962 ], [ -67.20188, 47.96476 ], [ -67.20812, 47.96779 ], [ -67.21515, 47.96567 ], [ -67.21593, 47.96052 ], [ -67.20968, 47.9575 ], [ -67.20265, 47.95962 ] ] ] } }
]
}
